{"metadata":{"type":"brand","wikidata":"Q7234083","name":"Пощенска банка","compare_keys":["opening_hours","phone","self_service"]},"data":[{"osm":{"type":"node","id":351121460,"tags":{"addr:city":"София","addr:housename":"Базар Искра 2000","addr:housenumber":"5","addr:street":"бул. Захари Стоянов","amenity":"bank","atm":"yes","branch":"София Люлин Център","brand":"Пощенска банка","brand:wikidata":"Q7234083","int_name":"Postbank","opening_hours":"Mo-Fr 08:30-17:00","phone":"+359 2 816 5460","website":"https://www.postbank.bg/"},"wikidata":"Q7234083","coordinates":[42.7162594,23.2510059]},"atp":{"id":"wwKuW1o-wdVADKFKXZ4twYAMEjI=","tags":{"amenity":"bank","self_service":"yes","addr:full":"ж.к. Люлин 3, Базар Искра 2000 ЮГ","addr:country":"BG","name":"София Люлин Център","phone":"+359 2 816 5460","opening_hours":"Mo-Fr 08:30-17:00","brand":"Postbank","brand:wikidata":"Q7234083"},"coordinates":[42.7162066,23.2509846]},"dist":6.124,"tags_mismatch":true},{"osm":{"type":"node","id":640011061,"tags":{"addr:housenumber":"8","addr:street":"бул. Свети Климент Охридски","amenity":"bank","atm":"yes","brand":"Пощенска банка","brand:wikidata":"Q7234083","contact:phone":"+359 2 816 6750","int_name":"Postbank","opening_hours":"Mo-Fr 08:30-17:00","website":"https://www.postbank.bg/"},"wikidata":"Q7234083","coordinates":[42.6569853,23.3556216]},"atp":{"id":"J3pGhBZWlDdHaTKNX_sxeY5XZEg=","tags":{"amenity":"bank","self_service":"yes","addr:full":"кв. Хладилника, бул. Черни връх 100","addr:country":"BG","name":"Мол Парадайз вход- Сребърна","opening_hours":"Mo-Su 08:00-22:00","brand":"Postbank","brand:wikidata":"Q7234083"},"coordinates":[42.65770569237294,23.315049225433032]},"tags_mismatch":true},{"osm":{"type":"node","id":640011063,"tags":{"addr:housenumber":"61","addr:street":"Никола Габровски","amenity":"bank","atm":"yes","brand":"Пощенска банка","brand:wikidata":"Q7234083","contact:phone":"+359 2 811 6490","int_name":"Postbank","opening_hours":"Mo-Fr 08:30-17:00","website":"https://www.postbank.bg/","wheelchair":"yes"},"wikidata":"Q7234083","coordinates":[42.660254,23.347614]},"atp":{"id":"t83cJqsPq43gvzsvXwqfrkPo-QY=","tags":{"amenity":"bank","self_service":"yes","addr:full":"Бул Никола Габровски №61","addr:country":"BG","name":"София Дианабад","phone":"+359 2 811 6490","brand":"Postbank","brand:wikidata":"Q7234083"},"coordinates":[42.660048,23.347621]},"dist":22.913,"tags_mismatch":true},{"osm":{"type":"node","id":833931358,"tags":{"addr:housenumber":"бл.24","addr:place":"ж.к. Хиподрума","amenity":"bank","brand":"Пощенска банка","brand:wikidata":"Q7234083","contact:phone":"+359 2 816 5320","int_name":"Postbank","opening_hours":"Mo-Fr 08:30-17:00","website":"https://www.postbank.bg/"},"wikidata":"Q7234083","coordinates":[42.6844901,23.2966926]},"atp":{"id":"aDh2G0QTuYshQD0qW_rECbp_Nwo=","tags":{"amenity":"bank","self_service":"yes","addr:full":"Хиподрума, Блок 24","addr:country":"BG","name":"София Хиподрума","phone":"+359 2 816 5320","opening_hours":"Mo-Fr 08:30-17:00","brand":"Postbank","brand:wikidata":"Q7234083"},"coordinates":[42.6846387,23.2968368]},"dist":20.297,"tags_mismatch":true},{"osm":{"type":"node","id":1168653493,"tags":{"addr:city":"Раднево","addr:housenumber":"5","addr:street":"Георги Димитров","amenity":"bank","atm":"yes","brand":"Пощенска банка","brand:wikidata":"Q7234083"},"wikidata":"Q7234083","coordinates":[42.2902107,25.9339115]},"atp":{"id":"y8S3_8JN8KOcIj-pQrPjA4uKYp8=","tags":{"amenity":"bank","addr:full":"Бул. Георги Димитров №5","addr:country":"BG","name":"Раднево","phone":"+359 41 790 320","opening_hours":"Mo-Fr 08:30-17:00","brand":"Postbank","brand:wikidata":"Q7234083"},"coordinates":[42.289974,25.933898]},"dist":26.343,"tags_mismatch":true},{"osm":{"type":"node","id":1347020618,"tags":{"addr:city":"Стара Загора","addr:housenumber":"31","addr:street":"Митрополит Методи Кусев","amenity":"bank","atm":"yes","brand":"Пощенска банка","brand:wikidata":"Q7234083","opening_hours":"Mo-Fr 08:30-17:00"},"wikidata":"Q7234083","coordinates":[42.4261486,25.6256688]},"atp":{"id":"ce4i2FODHMo8PV_LpTsT9yiTy38=","tags":{"amenity":"bank","self_service":"yes","addr:full":"ул. Методи Кусев №31","addr:country":"BG","name":"Стара Загора Театър","phone":"+359 42 610 410","opening_hours":"Mo-Fr 08:30-17:00","brand":"Postbank","brand:wikidata":"Q7234083"},"coordinates":[42.4261125,25.6256832]},"dist":4.185,"tags_mismatch":true},{"osm":{"type":"node","id":1389589314,"tags":{"amenity":"bank","atm":"yes","brand":"Пощенска банка","brand:wikidata":"Q7234083","check_date":"2023-05-24"},"wikidata":"Q7234083","coordinates":[42.5036343,24.188239]},"atp":{"id":"DnzcxMqOULCfwKCMMKWz4_Mz920=","tags":{"amenity":"bank","addr:full":"Георги Бенковски 10","addr:country":"BG","name":"Панагюрище","phone":"+359 35 760 140","opening_hours":"Mo-Fr 08:30-17:00","brand":"Postbank","brand:wikidata":"Q7234083"},"coordinates":[42.5034484,24.1882447]},"dist":20.676,"tags_mismatch":true},{"osm":{"type":"node","id":1534930900,"tags":{"amenity":"bank","brand":"Пощенска банка","brand:wikidata":"Q7234083","wheelchair":"no"},"wikidata":"Q7234083","coordinates":[42.4243211,25.6253654]},"atp":{"id":"_Tf_1N8srVirAc_WqD-Mvo2hg58=","tags":{"amenity":"bank","self_service":"yes","addr:full":"бул. Цар Симеон Велики №107 A","addr:country":"BG","name":"Стара Загора Верея","phone":"+359 42 610 800","opening_hours":"Mo-Fr 08:30-17:00","brand":"Postbank","brand:wikidata":"Q7234083"},"coordinates":[42.4242812,25.625385]},"dist":4.719,"tags_mismatch":true},{"osm":{"type":"node","id":1700083362,"tags":{"addr:housenumber":"168","addr:street":"бул. Цар Борис III","amenity":"bank","atm":"yes","brand":"Пощенска банка","brand:wikidata":"Q7234083","check_date":"2023-08-14","contact:phone":"+359 2 811 6300","int_name":"Postbank","website":"https://www.postbank.bg/","wheelchair":"limited"},"wikidata":"Q7234083","coordinates":[42.6658902,23.2610493]},"atp":{"id":"Pc46FMMDPlwuo_D6MbGvM325W98=","tags":{"amenity":"bank","self_service":"yes","addr:full":"Бул. Цар Борис III №168","addr:country":"BG","name":"София Цар Борис III","phone":"+359 2 811 6301","opening_hours":"Mo-Fr 08:30-17:00","brand":"Postbank","brand:wikidata":"Q7234083"},"coordinates":[42.6659825,23.2609939]},"dist":11.218,"tags_mismatch":true},{"osm":{"type":"node","id":1977585841,"tags":{"addr:housenumber":"5","addr:street":"пл. Майка България","amenity":"bank","atm":"yes","brand":"Пощенска банка","brand:wikidata":"Q7234083","contact:phone":"+359 62 614 900","website":"https://www.postbank.bg/"},"wikidata":"Q7234083","coordinates":[43.0814362,25.6325383]},"atp":{"id":"77X-oUWhTJjhi7D8iGELDQrarm4=","tags":{"amenity":"bank","self_service":"yes","addr:full":"пл.Майка България 5","addr:country":"BG","name":"Велико Търново Майка България","phone":"+359 62 614 900","opening_hours":"Mo-Fr 08:30-17:00","brand":"Postbank","brand:wikidata":"Q7234083"},"coordinates":[43.0813939,25.6325476]},"dist":4.764,"tags_mismatch":true},{"osm":{"type":"node","id":2061149428,"tags":{"amenity":"bank","atm":"yes","brand":"Пощенска банка","brand:wikidata":"Q7234083"},"wikidata":"Q7234083","coordinates":[42.8734422,25.3193524]},"atp":{"id":"GEzeqRh9m-L4XIEG62pX8JtHx_A=","tags":{"amenity":"bank","self_service":"yes","addr:full":"\"Черни Връх\" 100, Ниво -1","addr:country":"BG","name":"София Paradise Center","phone":"+359 2 816 6580","opening_hours":"Mo-Su 10:00-22:00","brand":"Postbank","brand:wikidata":"Q7234083"},"coordinates":[42.6577172,23.3147984]},"tags_mismatch":true},{"osm":{"type":"node","id":2061149471,"tags":{"amenity":"bank","atm":"yes","brand":"Пощенска банка","brand:wikidata":"Q7234083"},"wikidata":"Q7234083","coordinates":[42.8711069,25.3191646]},"atp":{"id":"FqcZu9jJoMy8oimqphiyIwQgTbA=","tags":{"amenity":"bank","self_service":"yes","addr:full":"Ул. Априловска №1","addr:country":"BG","name":"Габрово","phone":"+359 66 819 600","opening_hours":"Mo-Fr 08:30-17:00","brand":"Postbank","brand:wikidata":"Q7234083"},"coordinates":[42.8711212,25.3190755]},"dist":7.433,"tags_mismatch":true},{"osm":{"type":"node","id":2265665406,"tags":{"addr:city":"Несебър","addr:housenumber":"11","addr:street":"Хан Крум","amenity":"bank","brand":"Пощенска банка","brand:wikidata":"Q7234083"},"wikidata":"Q7234083","coordinates":[42.6624647,27.7190579]},"atp":{"id":"kmoCg4MjXPCvbapWPITEJDfFlk0=","tags":{"amenity":"bank","self_service":"yes","addr:full":"Ул. Хан Крум 11","addr:country":"BG","name":"Несебър","phone":"+359 55 447 330","opening_hours":"Mo-Fr 08:30-17:00","brand":"Postbank","brand:wikidata":"Q7234083"},"coordinates":[42.6624971,27.7191139]},"dist":5.826,"tags_mismatch":true},{"osm":{"type":"node","id":2496360529,"tags":{"amenity":"bank","brand":"Пощенска банка","brand:wikidata":"Q7234083","opening_hours":"Mo-Fr 08:30-18:30"},"wikidata":"Q7234083","coordinates":[42.5031682,27.4749303]},"atp":{"id":"2Lme8VgrEWLwtzApXuLR39F6C20=","tags":{"amenity":"bank","self_service":"yes","addr:full":"Бул. Демокрация №104","addr:country":"BG","name":"Бургас Демокрация","phone":"+359 56 876 960","opening_hours":"Mo-Fr 08:30-17:00","brand":"Postbank","brand:wikidata":"Q7234083"},"coordinates":[42.5031398,27.4748933]},"dist":4.379,"tags_mismatch":true},{"osm":{"type":"node","id":2574520777,"tags":{"amenity":"bank","atm":"yes","brand":"Пощенска банка","brand:wikidata":"Q7234083"},"wikidata":"Q7234083","coordinates":[43.5678431,27.8306907]},"atp":{"id":"TsNJFTrboGFsHAs2qa8Zu0lAdAQ=","tags":{"amenity":"bank","self_service":"yes","addr:full":"бул. 25-ти Септември № 42","addr:country":"BG","name":"Добрич Йордан Йовков","phone":"+359 58 655 100","opening_hours":"Mo-Fr 08:30-17:00","brand":"Postbank","brand:wikidata":"Q7234083"},"coordinates":[43.567873,27.830701]},"dist":3.427,"tags_mismatch":true},{"osm":{"type":"node","id":2620855881,"tags":{"addr:city":"София","addr:country":"BG","addr:housenumber":"35","addr:street":"бул. Ген. Скобелев","amenity":"bank","atm":"yes","brand":"Пощенска банка","brand:wikidata":"Q7234083","check_date":"2023-12-16","drive_through":"no","int_name":"Postbank","opening_hours":"Mo-Fr 08:30-17:00","phone":"+359 2 816 6710","website":"https://www.postbank.bg/","wheelchair":"yes"},"wikidata":"Q7234083","coordinates":[42.6890956,23.3141696]},"atp":{"id":"k62FUNibXLxxGcfktQtMzMC2d1w=","tags":{"amenity":"bank","self_service":"yes","addr:full":"бул. Генерал Скобелев №65","addr:country":"BG","name":"София Скобелев","phone":"+359 2 816 6710","opening_hours":"Mo-Fr 08:30-17:00","brand":"Postbank","brand:wikidata":"Q7234083"},"coordinates":[42.690927,23.311811]},"dist":280.413,"tags_mismatch":true},{"osm":{"type":"node","id":2683351758,"tags":{"amenity":"bank","brand":"Пощенска банка","brand:wikidata":"Q7234083","opening_hours":"Mo-Fr 08:30-17:00; Sa,Su off"},"wikidata":"Q7234083","coordinates":[43.854986,25.965972]},"atp":{"id":"cFvlcW3ndZQdYMuXv-1gQ7yKoKQ=","tags":{"amenity":"bank","self_service":"yes","addr:full":"бул. Плиска 5","addr:country":"BG","name":"Русе Възраждане","phone":"+359 82 812 950","opening_hours":"Mo-Fr 08:30-17:00","brand":"Postbank","brand:wikidata":"Q7234083"},"coordinates":[43.85504,25.966026]},"dist":7.403,"tags_mismatch":true},{"osm":{"type":"node","id":2712815125,"tags":{"amenity":"bank","atm":"yes","brand":"Пощенска банка","brand:wikidata":"Q7234083"},"wikidata":"Q7234083","coordinates":[43.2115506,27.9234412]},"atp":{"id":"sCd_sN6ODTRt8PzOZkYcmGxNUSU=","tags":{"amenity":"bank","self_service":"yes","addr:full":"Ул. Осми Приморски Полк №100","addr:country":"BG","name":"Варна Чаталджа","phone":"+359 52 686 950","opening_hours":"Mo-Fr 08:30-17:00","brand":"Postbank","brand:wikidata":"Q7234083"},"coordinates":[43.211541,27.92347]},"dist":2.567,"tags_mismatch":true},{"osm":{"type":"node","id":2912776183,"tags":{"addr:city":"София","addr:country":"BG","addr:housenumber":"15","addr:postcode":"1000","addr:street":"Солунска","amenity":"bank","atm":"yes","brand":"Пощенска банка","brand:wikidata":"Q7234083","int_name":"Postbank","opening_hours":"Mo-Fr 08:30-17:00","phone":"+359 2 816 6760","toilets:wheelchair":"no","website":"https://www.postbank.bg/","wheelchair":"no"},"wikidata":"Q7234083","coordinates":[42.692482,23.3209832]},"atp":{"id":"emLD1RFDwL7ljyHZ4SQBxpyS6Qg=","tags":{"amenity":"bank","self_service":"yes","addr:full":"Ул. Солунска №15","addr:country":"BG","name":"София Солунска","phone":"+359 2 816 6760","opening_hours":"Mo-Fr 08:30-17:00","brand":"Postbank","brand:wikidata":"Q7234083"},"coordinates":[42.6925278,23.321057]},"dist":7.894,"tags_mismatch":true},{"osm":{"type":"node","id":2994713832,"tags":{"amenity":"bank","atm":"yes","brand":"Пощенска банка","brand:wikidata":"Q7234083"},"wikidata":"Q7234083","coordinates":[42.1320763,24.7162563]},"atp":{"id":"GI3nC5LyMe0uS92s7YZQJjEYWwU=","tags":{"amenity":"bank","self_service":"yes","addr:full":"бул. Арсеналски 2, в Park Center, ниво -1","addr:country":"BG","name":"София Park Center","phone":"+359 2 969 8260","opening_hours":"Mo-Su 09:00-21:00","brand":"Postbank","brand:wikidata":"Q7234083"},"coordinates":[42.6787145,23.3202799]},"tags_mismatch":true},{"osm":{"type":"node","id":3022523662,"tags":{"addr:housenumber":"55А","addr:street":"бул. Александър Стамболийски","amenity":"bank","brand":"Пощенска банка","brand:wikidata":"Q7234083","int_name":"Postbank","opening_hours":"Mo-Fr 08:30-19:00","phone":"+359 2 816 6640","website":"https://www.postbank.bg/","wheelchair":"no"},"wikidata":"Q7234083","coordinates":[42.6975174,23.3154783]},"atp":{"id":"hafmpVYbPzbfyveJaeaoEl7Cnac=","tags":{"amenity":"bank","self_service":"yes","addr:full":"Бул. Ал. Стамболийски №55А","addr:country":"BG","name":"София Стамболийски","phone":"+359 2 816 6640","opening_hours":"Mo-Fr 08:30-17:00","brand":"Postbank","brand:wikidata":"Q7234083"},"coordinates":[42.6975199,23.315472]},"dist":0.585,"tags_mismatch":true},{"osm":{"type":"node","id":3035700908,"tags":{"addr:housenumber":"2","addr:postcode":"1142","addr:street":"бул. Васил Левски","amenity":"bank","atm":"yes","brand":"Пощенска банка","brand:wikidata":"Q7234083","check_date:opening_hours":"2024-07-24","int_name":"Postbank","opening_hours":"Mo-Fr 08:30-17:00","phone":"+359 2 816 6720","website":"https://www.postbank.bg/"},"wikidata":"Q7234083","coordinates":[42.685811,23.3215697]},"atp":{"id":"1zxWr0hoKxJuULTHl1vEGk-Cbo4=","tags":{"amenity":"bank","self_service":"yes","addr:full":"Бул. Васил Левски №2","addr:country":"BG","name":"София Васил Левски","phone":"+359 2 816 6720","opening_hours":"Mo-Fr 08:30-17:00","brand":"Postbank","brand:wikidata":"Q7234083"},"coordinates":[42.6857668,23.3214835]},"dist":8.591,"tags_mismatch":true},{"osm":{"type":"node","id":3040135647,"tags":{"addr:housenumber":"30","addr:street":"Цар Иван Шишман","amenity":"bank","atm":"yes","brand":"Пощенска банка","brand:wikidata":"Q7234083","check_date":"2023-05-28","int_name":"Postbank","internet_access":"no","opening_hours":"Mo-Fr 08:30-17:00","payment:contactless":"yes","payment:mastercard":"yes","payment:visa":"yes","phone":"+359 2 969 8350","website":"https://www.postbank.bg/","wheelchair":"limited"},"wikidata":"Q7234083","coordinates":[42.6901807,23.3283521]},"atp":{"id":"2odoou9wLSKri5oYdPC8NqL_Tig=","tags":{"amenity":"bank","self_service":"yes","addr:full":"ул. Цар Шишман №30","addr:country":"BG","name":"София Шишман","phone":"+359 2 969 8350","opening_hours":"Mo-Fr 08:30-17:00","brand":"Postbank","brand:wikidata":"Q7234083"},"coordinates":[42.6901218,23.3283892]},"dist":7.217,"tags_mismatch":true},{"osm":{"type":"node","id":3072552782,"tags":{"addr:housenumber":"5","addr:postcode":"4400","addr:street":"бул. България","amenity":"bank","brand":"Пощенска банка","brand:wikidata":"Q7234083","phone":"+359 34 403 723","website":"https://www.postbank.bg/"},"wikidata":"Q7234083","coordinates":[42.1882803,24.3311653]},"atp":{"id":"E3_x2y5G0EqiU5dPu5p9wvUB9xs=","tags":{"amenity":"bank","self_service":"yes","addr:full":"Бул. България № 9-11","addr:country":"BG","name":"Пазарджик България","phone":"+359 34 403 700","opening_hours":"Mo-Fr 08:30-17:00","brand":"Postbank","brand:wikidata":"Q7234083"},"coordinates":[42.188243,24.331078]},"dist":8.303,"tags_mismatch":true},{"osm":{"type":"node","id":3076485339,"tags":{"addr:housenumber":"14","addr:street":"бул. Цар Освободител","amenity":"bank","atm":"yes","brand":"Пощенска банка","brand:wikidata":"Q7234083","int_name":"Postbank","opening_hours":"Mo-Fr 08:30-17:00","phone":"+359 2 816 6570","website":"https://www.postbank.bg/"},"wikidata":"Q7234083","coordinates":[42.6943251,23.331051]},"atp":{"id":"0wZ2Xt_OBEn2d25Dp-OGoKUDZJY=","tags":{"amenity":"bank","self_service":"yes","addr:full":"бул. „Околовръстен път“ 214, ниво 1","addr:country":"BG","name":"София Ring Mall","phone":"+359 2 811 6580","opening_hours":"Mo-Su 10:00-22:00","brand":"Postbank","brand:wikidata":"Q7234083"},"coordinates":[42.6245217,23.3527137]},"tags_mismatch":true},{"osm":{"type":"node","id":3079363133,"tags":{"addr:housenumber":"115-117","addr:street":"бул. Витоша","amenity":"bank","brand":"Пощенска банка","brand:wikidata":"Q7234083","int_name":"Postbank","opening_hours":"Mo-Fr 08:30-17:00","phone":"+359 2 811 6450","website":"https://www.postbank.bg/"},"wikidata":"Q7234083","coordinates":[42.6767637,23.3100075]},"atp":{"id":"wNKjCKzNPtqBl4pdUQkQFUO9PjU=","tags":{"amenity":"bank","self_service":"yes","addr:full":"бул. Витоша 115 - 117","addr:country":"BG","name":"София Витоша","phone":"+359 2 811 6510","opening_hours":"Mo-Fr 08:30-17:00","brand":"Postbank","brand:wikidata":"Q7234083"},"coordinates":[42.676726,23.309939]},"dist":6.995,"tags_mismatch":true},{"osm":{"type":"node","id":3080377462,"tags":{"addr:housenumber":"1","addr:place":"пл. България","amenity":"bank","atm":"yes","brand":"Пощенска банка","brand:wikidata":"Q7234083","check_date":"2023-10-07","int_name":"Postbank","opening_hours":"Mo-Fr 08:30-19:00","phone":"+359 2 816 6600","website":"https://www.postbank.bg/"},"wikidata":"Q7234083","coordinates":[42.6835478,23.3161664]},"atp":{"id":"uHG4fq61Sq6NtXWKqRfVTTooFf0=","tags":{"amenity":"bank","self_service":"yes","addr:full":"Пл. България №1","addr:country":"BG","name":"София НДК","phone":"+359 2 816 6601","opening_hours":"Mo-Fr 08:30-17:00","brand":"Postbank","brand:wikidata":"Q7234083"},"coordinates":[42.6836855,23.3159682]},"dist":22.292,"tags_mismatch":true},{"osm":{"type":"node","id":3098090153,"tags":{"amenity":"bank","atm":"yes","brand":"Пощенска банка","brand:wikidata":"Q7234083","int_name":"Postbank","opening_hours":"Mo-Fr 08:30-17:00","phone":"+359 2 930 7181","website":"https://www.postbank.bg/"},"wikidata":"Q7234083","coordinates":[42.7005488,23.3183761]},"atp":{"id":"u_Y6d1RZijWoLX3BSJsyeXmIJrs=","tags":{"amenity":"bank","self_service":"yes","addr:full":"Бул. Стефан Стамболов №30","addr:country":"BG","name":"София Стефан Стамболов","phone":"+359 2 930 7180","opening_hours":"Mo-Fr 08:30-17:00","brand":"Postbank","brand:wikidata":"Q7234083"},"coordinates":[42.7005959,23.3183731]},"dist":5.243,"tags_mismatch":true},{"osm":{"type":"node","id":3221118911,"tags":{"addr:housenumber":"127","addr:street":"бул. Сливница","amenity":"bank","brand":"Пощенска банка","brand:wikidata":"Q7234083","int_name":"Postbank","website":"https://www.postbank.bg/"},"wikidata":"Q7234083","coordinates":[42.7093259,23.2941929]},"atp":{"id":"_SIbSeblM-QuRrLysfYbF6DcqN0=","tags":{"amenity":"bank","addr:full":"ул. Сан Стефано 22, ет.2.","addr:country":"BG","name":"София San Stefano Plaza","phone":"+359 2 816 6840","opening_hours":"Mo-Fr 08:30-17:00","brand":"Postbank","brand:wikidata":"Q7234083"},"coordinates":[42.69177,23.33794]},"tags_mismatch":true},{"osm":{"type":"node","id":3268713558,"tags":{"amenity":"bank","brand":"Пощенска банка","brand:wikidata":"Q7234083"},"wikidata":"Q7234083","coordinates":[43.0269141,25.1036935]},"atp":{"id":"Y0n7gdRTr-dD5g8XyBR1gmWaIrE=","tags":{"amenity":"bank","self_service":"yes","addr:full":"пл. Свобода 22","addr:country":"BG","name":"Севлиево","phone":"+359 67 531 300","opening_hours":"Mo-Fr 08:30-17:00","brand":"Postbank","brand:wikidata":"Q7234083"},"coordinates":[43.026934,25.1035539]},"dist":11.561,"tags_mismatch":true},{"osm":{"type":"node","id":3284857458,"tags":{"addr:city":"София","addr:housenumber":"171","addr:postcode":"1220","addr:street":"бул. Ломско шосе","amenity":"bank","atm":"yes","brand":"Пощенска банка","brand:wikidata":"Q7234083","int_name":"Postbank","opening_hours":"Mo-Fr 08:30-17:00","phone":"+359 2 816 6950","website":"https://www.postbank.bg/"},"wikidata":"Q7234083","coordinates":[42.7261017,23.3022757]},"atp":{"id":"pLbzJ5WsLHUbeAACOzaLVfCN9M8=","tags":{"amenity":"bank","self_service":"yes","addr:full":"Бул. Ломско шосе, Блок 171","addr:country":"BG","name":"София Надежда","phone":"+359 2 816 6950","opening_hours":"Mo-Fr 08:30-17:00","brand":"Postbank","brand:wikidata":"Q7234083"},"coordinates":[42.7261264,23.3022735]},"dist":2.752,"tags_mismatch":true},{"osm":{"type":"node","id":3327150514,"tags":{"alt_name":"Юробанк","amenity":"bank","atm":"yes","brand":"Пощенска банка","brand:wikidata":"Q7234083","int_name":"Postbank","old_name":"Eurobank"},"wikidata":"Q7234083","coordinates":[42.4925498,27.4715083]},"atp":{"id":"9lmoAnLQpHUVJdEN84UJ7w5vwjA=","tags":{"amenity":"bank","self_service":"yes","addr:full":"ул. \" Конт Андрованти\" 9","addr:country":"BG","name":"Бургас Конт Андрованти","phone":"+359 56 876 900","opening_hours":"Mo-Fr 08:30-17:00","brand":"Postbank","brand:wikidata":"Q7234083"},"coordinates":[42.4925649,27.4714311]},"dist":6.549,"tags_mismatch":true},{"osm":{"type":"node","id":3357610679,"tags":{"addr:city":"Плевен","addr:housenumber":"3","addr:street":"Гренадерска","amenity":"bank","atm":"yes","brand":"Пощенска банка","brand:wikidata":"Q7234083","check_date:opening_hours":"2021-11-01","opening_hours":"Mo-Fr 08:45-16:30, PH off"},"wikidata":"Q7234083","coordinates":[43.4177413,24.6144514]},"atp":{"id":"US9V-T7EyBxWpIHGPFmqBMQQq8k=","tags":{"amenity":"bank","addr:full":"ул . Гренадерска 3","addr:country":"BG","name":"Плевен Дойран","phone":"+359 64 890 950","opening_hours":"Mo-Fr 08:30-17:00","brand":"Postbank","brand:wikidata":"Q7234083"},"coordinates":[43.417751,24.614352]},"dist":8.1,"tags_mismatch":true},{"osm":{"type":"node","id":3504358320,"tags":{"addr:housenumber":"4-6","addr:street":"бул. Княз Александър Дондуков","amenity":"bank","brand":"Пощенска банка","brand:wikidata":"Q7234083","contact:phone":"+359 2 930 7120","int_name":"Postbank","opening_hours":"Mo-Fr 08:30-17:00","website":"https://www.postbank.bg/","wheelchair":"no"},"wikidata":"Q7234083","coordinates":[42.6977215,23.3264146]},"atp":{"id":"-40nH5_KuxodoEsBW4fqmkkdKC0=","tags":{"amenity":"bank","self_service":"yes","addr:full":"Бул. Дондуков №4-6","addr:country":"BG","name":"София Дондуков","phone":"+359 2 930 7120","opening_hours":"Mo-Fr 08:30-17:00","brand":"Postbank","brand:wikidata":"Q7234083"},"coordinates":[42.6976934,23.3262981]},"dist":10.02,"tags_mismatch":true},{"osm":{"type":"node","id":3511072793,"tags":{"amenity":"bank","atm":"yes","brand":"Пощенска банка","brand:wikidata":"Q7234083","contact:phone":"+359 2 969 8370","int_name":"Postbank","opening_hours":"Mo-Fr 08:30-17:00","website":"https://www.postbank.bg/"},"wikidata":"Q7234083","coordinates":[42.6506098,23.3792717]},"atp":{"id":"j0ub5Q3PbNl4FdL2Ztfahx591_8=","tags":{"amenity":"bank","self_service":"yes","addr:full":"адрес бул. Ал. Малинов, МОЛ.","addr:country":"BG","name":"София Младост Малинов","phone":"+359 2 969 8370","brand":"Postbank","brand:wikidata":"Q7234083"},"coordinates":[42.6507196,23.3790605]},"dist":21.152,"tags_mismatch":true},{"osm":{"type":"node","id":3516169139,"tags":{"amenity":"bank","atm":"yes","brand":"Пощенска банка","brand:wikidata":"Q7234083","contact:phone":"+359 2 816 6740","int_name":"Postbank","opening_hours":"Mo-Fr 08:30-17:00","website":"https://www.postbank.bg/"},"wikidata":"Q7234083","coordinates":[42.6961666,23.3443824]},"atp":{"id":"uDcYET7banN3Gzo9ZqTyyKAQgBY=","tags":{"amenity":"bank","self_service":"yes","addr:full":"бул. Янко Сакъзов 68-70","addr:country":"BG","name":"София Янко Сакъзов","phone":"+359 2 816 6740","opening_hours":"Mo-Fr 08:30-17:00","brand":"Postbank","brand:wikidata":"Q7234083"},"coordinates":[42.6961696,23.3443574]},"dist":2.07,"tags_mismatch":true},{"osm":{"type":"node","id":3583347946,"tags":{"addr:city":"София","addr:housenumber":"7","addr:postcode":"1612","addr:street":"бул. Гоце Делчев","amenity":"bank","atm":"yes","branch":"Красно село","brand":"Пощенска банка","brand:wikidata":"Q7234083","check_date":"2023-10-05","drive_through":"no","opening_hours":"Mo-Fr 08:30-17:00","wheelchair":"no"},"wikidata":"Q7234083","coordinates":[42.6779206,23.2863877]},"atp":{"id":"yXUN1kEmeea4gGk8qBQk7fipD2g=","tags":{"amenity":"bank","self_service":"yes","addr:full":"бул. Гоце Делчев 5(7)","addr:country":"BG","name":"София Красно село","phone":"+359 2 969 8330","opening_hours":"Mo-Fr 08:30-17:00","brand":"Postbank","brand:wikidata":"Q7234083"},"coordinates":[42.677899,23.2863689]},"dist":2.851,"tags_mismatch":true},{"osm":{"type":"node","id":3635340800,"tags":{"addr:city":"София","addr:housenumber":"бл.22","addr:place":"ж.к. Изток","amenity":"bank","brand":"Пощенска банка","brand:wikidata":"Q7234083","contact:phone":"+359 2 816 6960","int_name":"Postbank","opening_hours":"Mo-Fr 08:30-17:00","website":"https://www.postbank.bg/"},"wikidata":"Q7234083","coordinates":[42.671746,23.363008]},"atp":{"id":"l077jidzO9Oo-GIoIPfj7Eh35-g=","tags":{"amenity":"bank","self_service":"yes","addr:full":"Бул. Цариградско Шосе, Блок 22","addr:country":"BG","name":"София Изток","phone":"+359 2 816 6960","opening_hours":"Mo-Fr 08:30-17:00","brand":"Postbank","brand:wikidata":"Q7234083"},"coordinates":[42.6718733,23.3629196]},"dist":15.893,"tags_mismatch":true},{"osm":{"type":"node","id":3649770789,"tags":{"addr:city":"София","addr:housenumber":"1","addr:street":"бул. Христо Смирненски","amenity":"bank","brand":"Пощенска банка","brand:wikidata":"Q7234083","contact:phone":"+359 2 811 6330","int_name":"Postbank","opening_hours":"Mo-Fr 08:00-17:30","website":"https://www.postbank.bg/"},"wikidata":"Q7234083","coordinates":[42.6839963,23.3311942]},"atp":{"id":"S_en1_DK6f1l9WtxMOUmaI6YQBQ=","tags":{"amenity":"bank","self_service":"yes","addr:full":"Бул. Христо Смирненски №1","addr:country":"BG","name":"София УАСГ","phone":"+359 2 811 6330","opening_hours":"Mo-Fr 08:30-17:00","brand":"Postbank","brand:wikidata":"Q7234083"},"coordinates":[42.6834084,23.3314263]},"dist":68.069,"tags_mismatch":true},{"osm":{"type":"node","id":3674484551,"tags":{"addr:housenumber":"4А","addr:place":"ж.к. Свобода","addr:postcode":"1231","amenity":"bank","atm":"yes","brand":"Пощенска банка","brand:wikidata":"Q7234083","int_name":"Postbank","opening_hours":"Mo-Fr 08:30-17:00","phone":"+359 2 811 6550","website":"https://www.postbank.bg/"},"wikidata":"Q7234083","coordinates":[42.7358396,23.3057443]},"atp":{"id":"kJ-PIhLvRBKKM2KVLHscP8QbW1A=","tags":{"amenity":"bank","self_service":"yes","addr:full":"кв. Свобода, ул. Генерал Никола Жеков 4А","addr:country":"BG","name":"София Свобода","phone":"+359 2 811 6550","opening_hours":"Mo-Fr 08:30-17:00","brand":"Postbank","brand:wikidata":"Q7234083"},"coordinates":[42.735786,23.305704]},"dist":6.808,"tags_mismatch":true},{"osm":{"type":"node","id":3684795126,"tags":{"addr:entrance":"Б","addr:housenumber":"бл.112","addr:postcode":"1113","addr:street":"бул. Цариградско шосе","amenity":"bank","brand":"Пощенска банка","brand:wikidata":"Q7234083","contact:phone":"+359 2 816 5450","int_name":"Postbank","opening_hours":"Mo-Fr 08:30-17:00","website":"https://www.postbank.bg/"},"wikidata":"Q7234083","coordinates":[42.6749204,23.3606928]},"atp":{"id":"PawFSdPIc4AjIzbcuaIm_sRXCGs=","tags":{"amenity":"bank","self_service":"yes","addr:full":"бул. Ситняково, № 48, ниво – 1","addr:country":"BG","name":"София Serdika Center","phone":"+359 2 816 5390","opening_hours":"Mo-Su 10:00-22:00","brand":"Postbank","brand:wikidata":"Q7234083"},"coordinates":[42.6918804,23.3544767]},"tags_mismatch":true},{"osm":{"type":"node","id":3688601966,"tags":{"addr:city":"София","addr:housenumber":"137","addr:street":"Георги С. Раковски","amenity":"bank","atm":"no","brand":"Пощенска банка","brand:wikidata":"Q7234083","contact:phone":"+359 2 816 6800","int_name":"Postbank","survey:date":"2021-07-21","website":"https://www.postbank.bg/","wheelchair":"no"},"wikidata":"Q7234083","coordinates":[42.6926143,23.3270732]},"atp":{"id":"C4QCZ1rlThBISvctk27GeIhZXOU=","tags":{"amenity":"bank","self_service":"yes","addr:full":"ул. Г.С.Раковски №137","addr:country":"BG","name":"София Гурко","phone":"+359 2 816 6800","opening_hours":"Mo-Fr 08:30-17:00","brand":"Postbank","brand:wikidata":"Q7234083"},"coordinates":[42.69264,23.326994]},"dist":7.076,"tags_mismatch":true},{"osm":{"type":"node","id":3816609197,"tags":{"amenity":"bank","atm":"yes","brand":"Пощенска банка","brand:wikidata":"Q7234083"},"wikidata":"Q7234083","coordinates":[42.1452614,24.7572775]},"atp":{"id":"Pq-UMtbiTTAOnGL1OcENygazmT0=","tags":{"amenity":"bank","self_service":"yes","addr:full":"Бул. Мария Луиза №20","addr:country":"BG","name":"Пловдив Мария Луиза","phone":"+359 32 686 450","opening_hours":"Mo-Fr 08:30-17:00","brand":"Postbank","brand:wikidata":"Q7234083"},"coordinates":[42.1452784,24.7571902]},"dist":7.442,"tags_mismatch":true},{"osm":{"type":"node","id":3835378117,"tags":{"amenity":"bank","brand":"Пощенска банка","brand:wikidata":"Q7234083"},"wikidata":"Q7234083","coordinates":[43.2075186,27.9101868]},"atp":{"id":"zx4AINDqpWLkjk0Yo33fHlsxpvU=","tags":{"amenity":"bank","self_service":"yes","addr:full":"Бул. Владислав Варненчик №20-22","addr:country":"BG","name":"Варна Рощок","phone":"+359 52 688 540","opening_hours":"Mo-Fr 08:30-17:00","brand":"Postbank","brand:wikidata":"Q7234083"},"coordinates":[43.2074734,27.9102176]},"dist":5.612,"tags_mismatch":true},{"osm":{"type":"node","id":3846563105,"tags":{"amenity":"bank","atm":"yes","brand":"Пощенска банка","brand:wikidata":"Q7234083","wheelchair":"no"},"wikidata":"Q7234083","coordinates":[42.1437299,24.745865]},"atp":{"id":"jVhPduWGDT0pE2zmiXwd8pm2SY4=","tags":{"amenity":"bank","self_service":"yes","addr:full":"Ул. Йосиф Шнитер №3","addr:country":"BG","name":"Пловдив Шнитер","phone":"+359 32 601 900","opening_hours":"Mo-Fr 08:30-17:00","brand":"Postbank","brand:wikidata":"Q7234083"},"coordinates":[42.143692,24.745635]},"dist":19.425,"tags_mismatch":true},{"osm":{"type":"node","id":3904005434,"tags":{"amenity":"bank","atm":"yes","brand":"Пощенска банка","brand:wikidata":"Q7234083","drive_through":"no"},"wikidata":"Q7234083","coordinates":[42.6804605,26.3168914]},"atp":{"id":"cA8ZIOyPiL6UW37fUwl2epZSXMU=","tags":{"amenity":"bank","self_service":"yes","addr:full":"бул. Хаджи Димитър №1","addr:country":"BG","name":"Сливен Хаджи Димитър","phone":"+359 44 617 900","opening_hours":"Mo-Fr 08:30-17:00","brand":"Postbank","brand:wikidata":"Q7234083"},"coordinates":[42.6804455,26.3168572]},"dist":3.255,"tags_mismatch":true},{"osm":{"type":"node","id":3970567022,"tags":{"amenity":"bank","brand":"Пощенска банка","brand:wikidata":"Q7234083"},"wikidata":"Q7234083","coordinates":[43.2389515,25.3047532]},"atp":{"id":"55VJHVfUZCs-xgXkFaLf2lfvWGI=","tags":{"amenity":"bank","self_service":"yes","addr:full":"бул. Цариградско шосе 115","addr:country":"BG","name":"София The Mall","phone":"+359 2 811 6370","opening_hours":"Mo-Su 10:00-22:00","brand":"Postbank","brand:wikidata":"Q7234083"},"coordinates":[42.66078,23.382231]},"tags_mismatch":true},{"osm":{"type":"node","id":3986318503,"tags":{"amenity":"bank","atm":"yes","brand":"Пощенска банка","brand:wikidata":"Q7234083","int_name":"Postbank","website":"https://www.postbank.bg/"},"wikidata":"Q7234083","coordinates":[42.668621,23.3969982]},"atp":{"id":"qolFzRejOyzx8CMjAeXU7Zrm6A0=","tags":{"amenity":"bank","self_service":"yes","addr:full":"Ж.К. Дружба 1, ул. Туше Делииванов 9","addr:country":"BG","name":"София Дружба","phone":"+359 2 969 8360","opening_hours":"Mo-Fr 08:30-17:00","brand":"Postbank","brand:wikidata":"Q7234083"},"coordinates":[42.6685912,23.3970722]},"dist":6.898,"tags_mismatch":true},{"osm":{"type":"node","id":3993687080,"tags":{"addr:city":"Елин Пелин","addr:housenumber":"1","addr:postcode":"2100","addr:street":"ул. \"Стоян Михайловски\"","amenity":"bank","atm":"yes","branch":"Елин Пелин","brand":"Пощенска банка","brand:wikidata":"Q7234083","phone":"+359 725 66 080"},"wikidata":"Q7234083","coordinates":[42.6708697,23.5993213]},"atp":{"id":"oLd18qXMa0jICN_ulrzmSWTlF94=","tags":{"amenity":"bank","addr:full":"ул. Николай Хайтов 3А","addr:country":"BG","name":"София Атанас Далчев","phone":"+359 2 816 6680","opening_hours":"Mo-Fr 08:30-17:00","brand":"Postbank","brand:wikidata":"Q7234083"},"coordinates":[42.670892,23.353431]},"tags_mismatch":true},{"osm":{"type":"node","id":4004491505,"tags":{"amenity":"bank","atm":"no","brand":"Пощенска банка","brand:wikidata":"Q7234083","opening_hours":"08:30-17:00"},"wikidata":"Q7234083","coordinates":[42.0077636,24.8768827]},"atp":{"id":"66FbALLn1w_RB0ON2IUumesVdD4=","tags":{"amenity":"bank","self_service":"yes","addr:full":"ул. \" Речна \" 2-4","addr:country":"BG","name":"Асеновград","phone":"+359 33 160 540","opening_hours":"Mo-Fr 08:30-17:00","brand":"Postbank","brand:wikidata":"Q7234083"},"coordinates":[42.009012,24.8762642]},"dist":147.923,"tags_mismatch":true},{"osm":{"type":"node","id":4152341692,"tags":{"addr:city":"София","addr:housenumber":"1","addr:street":"Ген. Стефан Тошев","amenity":"bank","atm":"yes","branch":"Стефан Тошев","brand":"Пощенска банка","brand:wikidata":"Q7234083","int_name":"Postbank","opening_hours":"Mo-Fr 08:30-17:00","website":"https://www.postbank.bg/"},"wikidata":"Q7234083","coordinates":[42.6727903,23.28485]},"atp":{"id":"6ipU8Jyazl0pWFdRkkWL5hFrJdM=","tags":{"amenity":"bank","self_service":"yes","addr:full":"Ул. Стефан Тошев №1","addr:country":"BG","name":"София Стефан Тошев","phone":"+359 2 816 5480","opening_hours":"Mo-Fr 08:30-17:00","brand":"Postbank","brand:wikidata":"Q7234083"},"coordinates":[42.6728343,23.2849489]},"dist":9.451,"tags_mismatch":true},{"osm":{"type":"node","id":4193047012,"tags":{"addr:city":"София","addr:housenumber":"53","addr:postcode":"1618","addr:street":"Тодор Каблешков","amenity":"bank","atm":"yes","brand":"Пощенска банка","brand:wikidata":"Q7234083","check_date":"2023-09-23","int_name":"Postbank","opening_hours":"Mo-Fr 08:30-17:00","website":"https://www.postbank.bg/"},"wikidata":"Q7234083","coordinates":[42.6669569,23.2818871]},"atp":{"id":"dQSnL4DX00M0wPH33lOPOhDrHP4=","tags":{"amenity":"bank","self_service":"yes","addr:full":"Бул Тодор Каблешков №53","addr:country":"BG","name":"София Тодор Каблешков","phone":"+359 2 811 6390","opening_hours":"Mo-Fr 08:30-17:00","brand":"Postbank","brand:wikidata":"Q7234083"},"coordinates":[42.66703,23.282094]},"dist":18.768,"tags_mismatch":true},{"osm":{"type":"node","id":4209006689,"tags":{"amenity":"bank","brand":"Пощенска банка","brand:wikidata":"Q7234083"},"wikidata":"Q7234083","coordinates":[42.5733663,27.2962499]},"atp":{"id":"9V79jlkwSOK5-kpFw0MoCc3Rt-o=","tags":{"amenity":"bank","self_service":"yes","addr:full":"Ул. Освобождение №84","addr:country":"BG","name":"Камено","opening_hours":"Mo-Su 00:00-24:00","brand":"Postbank","brand:wikidata":"Q7234083"},"coordinates":[42.572339,27.29589]},"dist":117.971,"tags_mismatch":true},{"osm":{"type":"node","id":4230983089,"tags":{"addr:housenumber":"51","addr:street":"Монтевидео","amenity":"bank","brand":"Пощенска банка","brand:wikidata":"Q7234083","contact:phone":"+359 2 816 5351","int_name":"Postbank","website":"https://www.postbank.bg/"},"wikidata":"Q7234083","coordinates":[42.6872648,23.2550272]},"atp":{"id":"9i6ESt2qPeHmJu5CGuxaA3XLiek=","tags":{"amenity":"bank","self_service":"yes","addr:full":"Бул. Монтевидео №51","addr:country":"BG","name":"София Овча купел","phone":"+359 2 816 5351","opening_hours":"Mo-Fr 08:30-17:00","brand":"Postbank","brand:wikidata":"Q7234083"},"coordinates":[42.687299,23.2549932]},"dist":4.71,"tags_mismatch":true},{"osm":{"type":"node","id":4315595396,"tags":{"addr:city":"София","addr:housenumber":"3","addr:postcode":"1000","addr:street":"Съборна","amenity":"bank","atm":"yes","brand":"Пощенска банка","brand:wikidata":"Q7234083","int_name":"Postbank","opening_hours":"08:30-17:00","phone":"+359 2 816 6840","website":"https://www.postbank.bg/"},"wikidata":"Q7234083","coordinates":[42.6957471,23.3243502]},"atp":{"id":"qSIA-m3rGKwsQpCWNwP2QYeQbOU=","tags":{"amenity":"bank","self_service":"yes","addr:full":"бул. Витоша 3","addr:country":"BG","name":"София Съдебна палата","phone":"+359 2 816 6510","opening_hours":"Mo-Fr 08:30-17:00","brand":"Postbank","brand:wikidata":"Q7234083"},"coordinates":[42.695288,23.3212363]},"dist":259.552,"tags_mismatch":true},{"osm":{"type":"node","id":4319784353,"tags":{"addr:city":"София","addr:housenumber":"3","addr:postcode":"1000","addr:street":"бул. Витоша","amenity":"bank","atm":"yes","brand":"Пощенска банка","brand:wikidata":"Q7234083","drive_through":"no","opening_hours":"Mo-Fr 08:30-17:00","phone":"+359 2 816 6510","wheelchair":"limited"},"wikidata":"Q7234083","coordinates":[42.6952637,23.3211374]},"atp":{"id":"HpLLHScxtOxMd1R8F3JqJNXeA1g=","tags":{"amenity":"bank","addr:full":"бул. Витоша 3, ет. 2","addr:country":"BG","name":"София Света Неделя","phone":"+359 2 816 6670","opening_hours":"Mo-Fr 08:30-17:00","brand":"Postbank","brand:wikidata":"Q7234083"},"coordinates":[42.6952982,23.3210966]},"dist":5.083,"tags_mismatch":true},{"osm":{"type":"node","id":4348728603,"tags":{"amenity":"bank","brand":"Пощенска банка","brand:wikidata":"Q7234083"},"wikidata":"Q7234083","coordinates":[42.4282276,25.6335096]},"atp":{"id":"gyd0SwAHosbm4wjIM9_gcxgigyM=","tags":{"amenity":"bank","self_service":"yes","addr:full":"бул. Св. Патриарх Евтимий №130","addr:country":"BG","name":"Стара Загора Север","phone":"+359 42 610 430","opening_hours":"Mo-Fr 08:30-17:00","brand":"Postbank","brand:wikidata":"Q7234083"},"coordinates":[42.428266,25.633949]},"dist":36.316,"tags_mismatch":true},{"osm":{"type":"node","id":4418983943,"tags":{"amenity":"bank","atm":"yes","brand":"Пощенска банка","brand:wikidata":"Q7234083"},"wikidata":"Q7234083","coordinates":[43.5702652,27.8292998]},"atp":{"id":"9so6brxU57_iQ3TQPTnbZ2u-gRc=","tags":{"amenity":"bank","self_service":"yes","addr:full":"пл. Свобода №1","addr:country":"BG","name":"Добрич Свобода","phone":"+359 58 655 080","opening_hours":"Mo-Fr 08:30-17:00","brand":"Postbank","brand:wikidata":"Q7234083"},"coordinates":[43.570168,27.82936]},"dist":11.846,"tags_mismatch":true},{"osm":{"type":"node","id":4436083318,"tags":{"addr:city":"Плевен","addr:housenumber":"11","addr:street":"Кирил и Методий","amenity":"bank","brand":"Пощенска банка","brand:wikidata":"Q7234083"},"wikidata":"Q7234083","coordinates":[43.409051,24.622313]},"atp":{"id":"7dh2h4yqr9ZtISl3OrBH_x1iOJA=","tags":{"amenity":"bank","addr:full":"Ул. Кирил и Методий №11","addr:country":"BG","name":"Плевен Кирил и Методий","phone":"+359 64 890 860","opening_hours":"Mo-Fr 08:30-17:00","brand":"Postbank","brand:wikidata":"Q7234083"},"coordinates":[43.408808,24.6216294]},"dist":61.477,"tags_mismatch":true},{"osm":{"type":"node","id":4743557921,"tags":{"amenity":"bank","brand":"Пощенска банка","brand:wikidata":"Q7234083"},"wikidata":"Q7234083","coordinates":[42.8662441,25.4912577]},"atp":{"id":"ZqsXkYFQ1meJUaH2WBka8SszSsk=","tags":{"amenity":"bank","self_service":"yes","addr:full":"Бул.Княгиня Мария Луиза №125","addr:country":"BG","name":"София Банишора","phone":"+359 2 816 5330","opening_hours":"Mo-Fr 08:30-17:00","brand":"Postbank","brand:wikidata":"Q7234083"},"coordinates":[42.707561,23.322713]},"tags_mismatch":true},{"osm":{"type":"node","id":4758465126,"tags":{"addr:city":"Силистра","addr:housenumber":"24","addr:postcode":"7500","addr:street":"бул. Цар Симеон Велики","amenity":"bank","brand":"Пощенска банка","brand:wikidata":"Q7234083","toilets:wheelchair":"no","website":"https://www.postbank.bg","wheelchair":"yes"},"wikidata":"Q7234083","coordinates":[44.1167885,27.2599389]},"atp":{"id":"8Lzr6ZEtTTH4V_rKJhfjaGCnpRs=","tags":{"amenity":"bank","self_service":"yes","addr:full":"ул. Симеон Велики №24","addr:country":"BG","name":"Силистра","phone":"+359 86 815 600","opening_hours":"Mo-Fr 08:30-17:00","brand":"Postbank","brand:wikidata":"Q7234083"},"coordinates":[44.1167817,27.2600889]},"dist":11.998,"tags_mismatch":true},{"osm":{"type":"node","id":4859061926,"tags":{"amenity":"bank","atm":"yes","brand":"Пощенска банка","brand:wikidata":"Q7234083","int_name":"Postbank","opening_hours":"Mo-Fr 08:30-17:00","website":"https://www.postbank.bg/"},"wikidata":"Q7234083","coordinates":[42.6654061,23.356324]},"atp":{"id":"Rm1iborgg_ub1eV-ECnQWdfmdvg=","tags":{"amenity":"bank","self_service":"yes","addr:full":"ул. Лъчезар Станчев № 5","addr:country":"BG","name":"София Софарма Тауърс","phone":"+359 2 811 6440","opening_hours":"Mo-Fr 08:30-17:00","brand":"Postbank","brand:wikidata":"Q7234083"},"coordinates":[42.665409,23.356441]},"dist":9.572,"tags_mismatch":true},{"osm":{"type":"node","id":4861563960,"tags":{"amenity":"bank","brand":"Пощенска банка","brand:wikidata":"Q7234083","opening_hours":"Mo-Fr 09:00-18:00"},"wikidata":"Q7234083","coordinates":[42.6531154,23.3726737]},"atp":{"id":"G-Tq1-ZFkI-8Cs5f9FzY854Zwo0=","tags":{"amenity":"bank","self_service":"yes","addr:full":"бул. Андрей Сахаров 16","addr:country":"BG","name":"София Младост Сахаров","phone":"+359 2 811 6400","opening_hours":"Mo-Fr 08:30-17:00","brand":"Postbank","brand:wikidata":"Q7234083"},"coordinates":[42.653583,23.372861]},"dist":54.204,"tags_mismatch":true},{"osm":{"type":"node","id":4944691051,"tags":{"amenity":"bank","brand":"Пощенска банка","brand:wikidata":"Q7234083"},"wikidata":"Q7234083","coordinates":[43.0786885,25.6267775]},"atp":{"id":"Rx2hsYMpu2LkzjH9JKAVaF3RmJs=","tags":{"amenity":"bank","self_service":"yes","addr:full":"бул. България № 2","addr:country":"BG","name":"Велико Търново Левски","phone":"+359 62 614 940","opening_hours":"Mo-Fr 08:30-17:00","brand":"Postbank","brand:wikidata":"Q7234083"},"coordinates":[43.0786894,25.6268151]},"dist":3.055,"tags_mismatch":true},{"osm":{"type":"node","id":4947500435,"tags":{"addr:housenumber":"125","addr:street":"бул. Княгиня Мария Луиза","amenity":"bank","atm":"yes","brand":"Пощенска банка","brand:wikidata":"Q7234083","int_name":"Postbank","website":"https://www.postbank.bg/"},"wikidata":"Q7234083","coordinates":[42.7076035,23.3226884]},"atp":{"id":"0hdWTiVaKQ95xXmCCHLxENvd_i8=","tags":{"amenity":"bank","self_service":"yes","addr:full":"бул. Бели Дунав 5","addr:country":"BG","name":"София Бели Дунав","phone":"+359 2 811 6630","opening_hours":"Mo-Fr 08:30-17:00","brand":"Postbank","brand:wikidata":"Q7234083"},"coordinates":[42.735132,23.291984]},"tags_mismatch":true},{"osm":{"type":"node","id":4980907524,"tags":{"addr:city":"София","addr:housenumber":"103","addr:postcode":"1404","addr:street":"бул. Гоце Делчев","amenity":"bank","atm":"yes","branch":"бул. Гоце Делчев","brand":"Пощенска банка","brand:wikidata":"Q7234083","check_date":"2023-09-24","contact:phone":"+359 2 808 1461","opening_hours":"Mo-Fr 08:30-17:00"},"wikidata":"Q7234083","coordinates":[42.6715605,23.2952841]},"atp":{"id":"ILfKb7fHG3xlfvtHF97lLsz0fNc=","tags":{"amenity":"bank","self_service":"yes","addr:full":"бул. Гоце Делчев 103","addr:country":"BG","name":"София Гоце Делчев","phone":"+359 2 816 6980","brand":"Postbank","brand:wikidata":"Q7234083"},"coordinates":[42.6716261,23.2951818]},"dist":11.098,"tags_mismatch":true},{"osm":{"type":"node","id":5015468346,"tags":{"addr:city":"Варна","addr:country":"BG","addr:housenumber":"6","addr:postcode":"9000","addr:street":"бул. Княз Борис I","addr:street:en":"bulevard \"Knyaz Boris I\"","amenity":"bank","atm":"yes","brand":"Пощенска банка","brand:wikidata":"Q7234083","opening_hours":"Mo-Sa 08:30-19:00","source":"survey"},"wikidata":"Q7234083","coordinates":[43.2030747,27.9147568]},"atp":{"id":"XcHKOXnU3X0kV24vjw32yDsfijo=","tags":{"amenity":"bank","self_service":"yes","addr:full":"ул. Мусала 3","addr:country":"BG","name":"Варна Княз Борис I","phone":"+359 52 686 900","opening_hours":"Mo-Fr 08:30-17:00","brand":"Postbank","brand:wikidata":"Q7234083"},"coordinates":[43.2030881,27.9146447]},"dist":9.207,"tags_mismatch":true},{"osm":{"type":"node","id":5031172982,"tags":{"amenity":"bank","brand":"Пощенска банка","brand:wikidata":"Q7234083"},"wikidata":"Q7234083","coordinates":[42.6184491,25.3916763]},"atp":{"id":"I7lG3xwxIhv5yefvSqzUPan4Pk0=","tags":{"amenity":"bank","self_service":"yes","addr:full":"Пл. Севтополис №15А","addr:country":"BG","name":"Казанлък","phone":"+359 431 680 00","opening_hours":"Mo-Fr 08:30-17:00","brand":"Postbank","brand:wikidata":"Q7234083"},"coordinates":[42.618416,25.391291]},"dist":31.742,"tags_mismatch":true},{"osm":{"type":"node","id":5115594916,"tags":{"amenity":"bank","atm":"yes","brand":"Пощенска банка","brand:wikidata":"Q7234083"},"wikidata":"Q7234083","coordinates":[42.1563779,24.7445409]},"atp":{"id":"lxjQOXSm0C8l6yLIAiYTQV6Ljdc=","tags":{"amenity":"bank","self_service":"yes","addr:full":"Ул. Брезовска №4","addr:country":"BG","name":"Пловдив Марица","phone":"+359 32 655 960","opening_hours":"Mo-Fr 08:30-17:00","brand":"Postbank","brand:wikidata":"Q7234083"},"coordinates":[42.1563431,24.7445161]},"dist":4.376,"tags_mismatch":true},{"osm":{"type":"node","id":5303140494,"tags":{"amenity":"bank","brand":"Пощенска банка","brand:wikidata":"Q7234083"},"wikidata":"Q7234083","coordinates":[42.1384612,25.8664834]},"atp":{"id":"7WifC1CvxUPKnC1ikGdUGQKL46Q=","tags":{"amenity":"bank","self_service":"yes","addr:full":"бул. Република 1","addr:country":"BG","name":"Гълъбово","phone":"+359 41 895 712","opening_hours":"Mo-Fr 08:30-17:00","brand":"Postbank","brand:wikidata":"Q7234083"},"coordinates":[42.1383086,25.8658264]},"dist":56.768,"tags_mismatch":true},{"osm":{"type":"node","id":5318791328,"tags":{"addr:city":"София","addr:street":"Атанас Далчев","amenity":"bank","brand":"Пощенска банка","brand:wikidata":"Q7234083","drive_through":"no","opening_hours":"Mo-Fr 08:30-17:00"},"wikidata":"Q7234083","coordinates":[42.6707711,23.3533731]},"atp":{"id":"ravmOel0dqLIuuox4y2J4D1CBhg=","tags":{"amenity":"bank","self_service":"yes","addr:full":"Бизнес Парк София, Сграда 10","addr:country":"BG","name":"София Бизнес Парк","phone":"+359 2 816 6860","opening_hours":"Mo-Fr 08:30-17:00","brand":"Postbank","brand:wikidata":"Q7234083"},"coordinates":[42.6257454,23.3767407]},"tags_mismatch":true},{"osm":{"type":"node","id":5351076365,"tags":{"amenity":"bank","atm":"yes","brand":"Пощенска банка","brand:wikidata":"Q7234083"},"wikidata":"Q7234083","coordinates":[42.1721275,26.5668272]},"atp":{"id":"wKivxLKftLC10Q0BFl_82jP-9Iw=","tags":{"amenity":"bank","addr:full":"Ул. Славянска №5","addr:country":"BG","name":"Елхово","phone":"+359 47 898 020","opening_hours":"Mo-Fr 08:30-17:00","brand":"Postbank","brand:wikidata":"Q7234083"},"coordinates":[42.1721263,26.5668029]},"dist":2.007,"tags_mismatch":true},{"osm":{"type":"node","id":5593270763,"tags":{"amenity":"bank","atm":"yes","brand":"Пощенска банка","brand:wikidata":"Q7234083","name:it":"Post"},"wikidata":"Q7234083","coordinates":[43.1988215,27.9146679]},"atp":{"id":"lu1NFTx742Son6mFvyUaw4qyg6Y=","tags":{"amenity":"bank","addr:full":"Ул. Дръзки 1-5","addr:country":"BG","name":"Варна Дръзки","phone":"+359 52 688 500","opening_hours":"Mo-Fr 08:30-17:00","brand":"Postbank","brand:wikidata":"Q7234083"},"coordinates":[43.1988137,27.914696]},"dist":2.437,"tags_mismatch":true},{"osm":{"type":"node","id":5653442208,"tags":{"amenity":"bank","brand":"Пощенска банка","brand:wikidata":"Q7234083"},"wikidata":"Q7234083","coordinates":[43.1374965,24.7178634]},"atp":{"id":"x9e2urkL0c4cGFaeCHRKnGaN3F4=","tags":{"amenity":"bank","self_service":"yes","addr:full":"Ул. Търговска №38","addr:country":"BG","name":"Ловеч","phone":"+359 68 685 900","opening_hours":"Mo-Fr 08:30-17:00","brand":"Postbank","brand:wikidata":"Q7234083"},"coordinates":[43.1375278,24.7178355]},"dist":4.152,"tags_mismatch":true},{"osm":{"type":"node","id":5776789823,"tags":{"amenity":"bank","brand":"Пощенска банка","brand:wikidata":"Q7234083"},"wikidata":"Q7234083","coordinates":[43.1426184,23.714013]},"atp":{"id":"-TOf2g2FgxIPH8HpsRubZSOtJ7Y=","tags":{"amenity":"bank","self_service":"yes","addr:full":"Ул. Христо Ботев №27А","addr:country":"BG","name":"Мездра","phone":"+359 91 091 400","opening_hours":"Mo-Fr 08:30-17:00","brand":"Postbank","brand:wikidata":"Q7234083"},"coordinates":[43.142468,23.714148]},"dist":19.991,"tags_mismatch":true},{"osm":{"type":"node","id":6033867167,"tags":{"amenity":"bank","brand":"Пощенска банка","brand:wikidata":"Q7234083","int_name":"Postbank","website":"https://www.postbank.bg/","wheelchair":"yes"},"wikidata":"Q7234083","coordinates":[42.6278138,23.3743921]},"atp":{"id":"2xjr1BOtihfJFDgo8VUJzdE9CZM=","tags":{"amenity":"bank","addr:full":"Младост 4, Бизнес Парк София, Сграда 3","addr:country":"BG","name":"София Бизнес парк Premium","phone":"+359 2 811 6540","opening_hours":"Mo-Fr 08:30-17:00","brand":"Postbank","brand:wikidata":"Q7234083"},"coordinates":[42.627969,23.374398]},"dist":17.264,"tags_mismatch":true},{"osm":{"type":"node","id":6054196985,"tags":{"addr:city":"София","addr:country":"BG","addr:housenumber":"62","addr:postcode":"1142","addr:street":"бул. Васил Левски","amenity":"bank","brand":"Пощенска банка","brand:wikidata":"Q7234083","opening_hours":"Mo-Fr 08:30-17:00"},"wikidata":"Q7234083","coordinates":[42.6875242,23.328459]},"atp":{"id":"XpFVkLbnSkWflBgOTF9-oqOW5Es=","tags":{"amenity":"bank","addr:full":"ул. \"Лъчезар Станчев\" №5 1797, гр.София","addr:country":"BG","name":"София Бизнес Център Север","phone":"+359 2 816 6475","opening_hours":"Mo-Fr 08:30-17:00","brand":"Postbank","brand:wikidata":"Q7234083"},"coordinates":[42.666039,23.356216]},"tags_mismatch":true},{"osm":{"type":"node","id":6129137288,"tags":{"amenity":"bank","atm":"yes","brand":"Пощенска банка","brand:wikidata":"Q7234083"},"wikidata":"Q7234083","coordinates":[43.2266059,27.887961]},"atp":{"id":"J_Pq7FDDw5he24v2dSoUdj2JoSY=","tags":{"amenity":"bank","self_service":"yes","addr:full":"Ул. Георги Софийски №3","addr:country":"BG","name":"София ВМА","opening_hours":"Mo-Su 00:00-24:00","brand":"Postbank","brand:wikidata":"Q7234083"},"coordinates":[42.68422143966017,23.304479170979516]},"tags_mismatch":true},{"osm":{"type":"node","id":6278622692,"tags":{"amenity":"bank","brand":"Пощенска банка","brand:wikidata":"Q7234083","int_name":"Postbank","website":"https://www.postbank.bg/"},"wikidata":"Q7234083","coordinates":[42.7122628,23.3145172]},"atp":{"id":"x1RRD3u8g7kZWnfPuFlGFpbMgQI=","tags":{"amenity":"bank","self_service":"yes","addr:full":"ул. Опълченска 117","addr:country":"BG","name":"София Опълченска","phone":"+359 2 811 6460","opening_hours":"Mo-Fr 08:30-17:00","brand":"Postbank","brand:wikidata":"Q7234083"},"coordinates":[42.7122326,23.3145258]},"dist":3.431,"tags_mismatch":true},{"osm":{"type":"node","id":6308855349,"tags":{"addr:street":"Розова долина","amenity":"bank","brand":"Пощенска банка","brand:wikidata":"Q7234083","lanes":"1","opening_hours":"Mo-Fr 09:00-18:00"},"wikidata":"Q7234083","coordinates":[42.6794146,23.3220756]},"atp":{"id":"D1m49imuYxv-qDZNtyLmdjzL3O8=","tags":{"amenity":"bank","self_service":"yes","addr:full":"Ул. Николай Коперник № 21","addr:country":"BG","name":"София Гео Милев","phone":"+359 2 816 5360","opening_hours":"Mo-Fr 08:30-17:00","brand":"Postbank","brand:wikidata":"Q7234083"},"coordinates":[42.679487,23.3607252]},"tags_mismatch":true},{"osm":{"type":"node","id":6416381058,"tags":{"amenity":"bank","atm":"yes","branch":"София Лозенец","brand":"Пощенска банка","brand:wikidata":"Q7234083","check_date":"2024-04","check_date:opening_hours":"2024-05-02","int_name":"Postbank","opening_hours":"Mo-Fr 08:30-17:00","phone":"+359 2 816 5400","website":"https://www.postbank.bg/"},"wikidata":"Q7234083","coordinates":[42.6636918,23.31707]},"atp":{"id":"kyIdqZaq-XWxSVlOUuCAi-9DwnI=","tags":{"amenity":"bank","self_service":"yes","addr:full":"бул. Черни връх №54-56","addr:country":"BG","name":"София Лозенец","phone":"+359 2 816 5400","opening_hours":"Mo-Fr 08:30-17:00","brand":"Postbank","brand:wikidata":"Q7234083"},"coordinates":[42.6637519,23.3170765]},"dist":6.704,"tags_mismatch":true},{"osm":{"type":"node","id":6732322708,"tags":{"addr:city":"Хасково","addr:housenumber":"4А","addr:postcode":"6300","addr:street":"Марин Дринов","amenity":"bank","atm":"yes","brand":"Пощенска банка","brand:wikidata":"Q7234083","website":"https://www.postbank.bg/"},"wikidata":"Q7234083","coordinates":[41.9317563,25.555131]},"atp":{"id":"WACuOQcfTH-bUMxiyxPNlTNc284=","tags":{"amenity":"bank","self_service":"yes","addr:full":"бул. Христофор Колумб 43","addr:country":"BG","name":"София Евроинс","phone":"+359 2 969 8390","opening_hours":"Mo-Fr 08:30-17:00","brand":"Postbank","brand:wikidata":"Q7234083"},"coordinates":[42.6806292,23.3996635]},"tags_mismatch":true},{"osm":{"type":"node","id":7007685233,"tags":{"addr:city":"Стара Загора","addr:housenumber":"27","addr:street":"Граф Игнатиев","amenity":"bank","brand":"Пощенска банка","brand:wikidata":"Q7234083","int_name":"Postbank","opening_hours":"Mo-Fr 08:30-17:00"},"wikidata":"Q7234083","coordinates":[42.4283212,25.6340434]},"atp":{"id":"TP46YqPW7EssSfgXyICB9PJ6N_0=","tags":{"amenity":"bank","self_service":"yes","addr:full":"бул. „Цариградско шосе“ 96","addr:country":"BG","name":"София Елипс Център","phone":"+359 2 816 6780","opening_hours":"Mo-Fr 08:30-17:00","brand":"Postbank","brand:wikidata":"Q7234083"},"coordinates":[42.645777,23.397268]},"tags_mismatch":true},{"osm":{"type":"node","id":7283424193,"tags":{"addr:city":"София","addr:housenumber":"5","addr:street":"Бели Дунав","amenity":"bank","atm":"yes","branch":"София Бели Дунав","brand":"Пощенска банка","brand:wikidata":"Q7234083","int_name":"Postbank","opening_hours":"Mo-Fr 08:30-17:00","phone":"+359 2 811 6630","website":"https://www.postbank.bg/"},"wikidata":"Q7234083","coordinates":[42.7350086,23.2918538]},"atp":{"id":"MZ__0DduyPySctbiLgnGHm3JXSo=","tags":{"amenity":"bank","self_service":"yes","addr:full":"Бул. Никола Мушанов, № 31","addr:country":"BG","name":"София Красна Поляна","phone":"+359 2 816 5300","brand":"Postbank","brand:wikidata":"Q7234083"},"coordinates":[42.694945,23.285114]},"tags_mismatch":true},{"osm":{"type":"node","id":7824880504,"tags":{"alt_name":"Postbank","amenity":"bank","brand":"Пощенска банка","brand:wikidata":"Q7234083"},"wikidata":"Q7234083","coordinates":[42.9067327,23.7911813]},"atp":{"id":"XVkoJUXUoY3YPinzTEBFy3iEP8Q=","tags":{"amenity":"bank","addr:full":"бул. България 6","addr:country":"BG","name":"Ботевград","phone":"+359 72 368 880","opening_hours":"Mo-Fr 08:30-17:00","brand":"Postbank","brand:wikidata":"Q7234083"},"coordinates":[42.9066895,23.7912295]},"dist":6.204,"tags_mismatch":true},{"osm":{"type":"node","id":7831740085,"tags":{"amenity":"bank","brand":"Пощенска банка","brand:wikidata":"Q7234083","opening_hours":"Mo-Fr 08:30-17:00; Sa,Su off"},"wikidata":"Q7234083","coordinates":[43.853623,25.9589568]},"atp":{"id":"LwLU3CjtCaYkoNHVmMt99DqYB7Y=","tags":{"amenity":"bank","self_service":"yes","addr:full":"Ул. Александровска №97","addr:country":"BG","name":"Русе Александровска","phone":"+359 82 812 980","opening_hours":"Mo-Fr 08:30-17:00","brand":"Postbank","brand:wikidata":"Q7234083"},"coordinates":[43.853658,25.958965]},"dist":3.947,"tags_mismatch":true},{"osm":{"type":"node","id":7887748410,"tags":{"amenity":"bank","brand":"Пощенска банка","brand:wikidata":"Q7234083"},"wikidata":"Q7234083","coordinates":[43.272359,26.9265634]},"atp":{"id":"CEcZ8nSvFsDRM5f6I3gMMF0WByU=","tags":{"amenity":"bank","self_service":"yes","addr:full":"ул. Цар Освободител №103","addr:country":"BG","name":"Шумен Цар Освободител","phone":"+359 54 850 400","opening_hours":"Mo-Fr 08:30-17:00","brand":"Postbank","brand:wikidata":"Q7234083"},"coordinates":[43.2723315,26.9264557]},"dist":9.24,"tags_mismatch":true},{"osm":{"type":"node","id":7924485261,"tags":{"amenity":"bank","branch":"Юробанк България АД","brand":"Пощенска банка","brand:wikidata":"Q7234083"},"wikidata":"Q7234083","coordinates":[42.3386517,23.5589964]},"atp":{"id":"fbTR7moJz6_qqTNpP0GUTJ0TmwA=","tags":{"amenity":"bank","self_service":"yes","addr:full":"ул. \" Търговска \" 35","addr:country":"BG","name":"Самоков","phone":"+359 72 268 670","opening_hours":"Mo-Fr 08:30-17:00","brand":"Postbank","brand:wikidata":"Q7234083"},"coordinates":[42.3386533,23.559006]},"dist":0.809,"tags_mismatch":true},{"osm":{"type":"node","id":8198926341,"tags":{"amenity":"bank","brand":"Пощенска банка","brand:wikidata":"Q7234083"},"wikidata":"Q7234083","coordinates":[42.028172,23.991832]},"atp":{"id":"WHYqHGNDVVwXKlc-YTqFSSkaZIY=","tags":{"amenity":"bank","self_service":"yes","addr:full":"бул. Съединение №218","addr:country":"BG","name":"Велинград","phone":"+359 35 957 040","opening_hours":"Mo-Fr 08:30-17:00","brand":"Postbank","brand:wikidata":"Q7234083"},"coordinates":[42.0281136,23.9917327]},"dist":10.461,"tags_mismatch":true},{"osm":{"type":"node","id":8557053718,"tags":{"amenity":"bank","atm":"yes","brand":"Пощенска банка","brand:wikidata":"Q7234083"},"wikidata":"Q7234083","coordinates":[43.2070891,27.9178879]},"atp":{"id":"CV1dqZNhl_ntcnd8nsz9475j9SA=","tags":{"amenity":"bank","addr:full":"бул. Сливница 24","addr:country":"BG","name":"Варна Сливница","phone":"+359 52 688 530","opening_hours":"Mo-Fr 08:30-17:00","brand":"Postbank","brand:wikidata":"Q7234083"},"coordinates":[43.2070175,27.9177994]},"dist":10.716,"tags_mismatch":true},{"osm":{"type":"node","id":9092283840,"tags":{"amenity":"bank","brand":"Пощенска банка","brand:wikidata":"Q7234083"},"wikidata":"Q7234083","coordinates":[42.6553266,23.398842]},"atp":{"id":"2_pRBrpC6K9pcVYu0VQXrPMBEkE=","tags":{"amenity":"bank","self_service":"yes","addr:full":"бул. Цветан Лазаров 114","addr:country":"BG","name":"София Цветан Лазаров","phone":"+359 2 811 6470","opening_hours":"Mo-Fr 08:30-17:00","brand":"Postbank","brand:wikidata":"Q7234083"},"coordinates":[42.6553025,23.3988079]},"dist":3.868,"tags_mismatch":true},{"osm":{"type":"node","id":9210297174,"tags":{"addr:city":"Хасково","addr:housenumber":"24","addr:postcode":"6300","addr:street":"Георги Сава Раковски","amenity":"bank","atm":"yes","brand":"Пощенска банка","brand:wikidata":"Q7234083","website":"https://www.postbank.bg/"},"wikidata":"Q7234083","coordinates":[41.9363613,25.5555672]},"atp":{"id":"L8xCnN3C1zXE0F4kLOYGUsrO-jQ=","tags":{"amenity":"bank","self_service":"yes","addr:full":"ул. Г.С. Раковски 24","addr:country":"BG","name":"Хасково Раковски","phone":"+359 38 605 901","opening_hours":"Mo-Fr 08:30-17:00","brand":"Postbank","brand:wikidata":"Q7234083"},"coordinates":[41.9363583,25.5555859]},"dist":1.582,"tags_mismatch":true},{"osm":{"type":"node","id":9315344405,"tags":{"amenity":"bank","brand":"Пощенска банка","brand:wikidata":"Q7234083"},"wikidata":"Q7234083","coordinates":[41.7210527,23.1592979]},"atp":{"id":"x89zVhteN2Vdr3hKTyUI7fGlyUA=","tags":{"amenity":"bank","self_service":"yes","addr:full":"Пл. Македония №96","addr:country":"BG","name":"Кресна","phone":"+359 74 338 740","opening_hours":"Mo-Fr 08:30-17:00","brand":"Postbank","brand:wikidata":"Q7234083"},"coordinates":[41.7211087,23.1593524]},"dist":7.696,"tags_mismatch":true},{"osm":{"type":"node","id":9464207461,"tags":{"addr:housenumber":"2","addr:street":"Мадара","amenity":"bank","atm":"yes","brand":"Пощенска банка","brand:wikidata":"Q7234083","opening_hours":"Mo-Fr 08:30-17:00"},"wikidata":"Q7234083","coordinates":[43.220318,27.9306096]},"atp":{"id":"OZww0l0g-spFkDxaBbvSTAwCmcI=","tags":{"amenity":"bank","self_service":"yes","addr:full":"ул. Мадара 2","addr:country":"BG","name":"Варна Левски","phone":"+359 52 688 550","opening_hours":"Mo-Fr 08:30-17:00","brand":"Postbank","brand:wikidata":"Q7234083"},"coordinates":[43.220252,27.930515]},"dist":10.612,"tags_mismatch":true},{"osm":{"type":"node","id":9693380132,"tags":{"amenity":"bank","brand":"Пощенска банка","brand:wikidata":"Q7234083"},"wikidata":"Q7234083","coordinates":[42.713704,23.265449]},"atp":{"id":"18TzSVb6yFY1Q9n_Lpj3ryn7KP4=","tags":{"amenity":"bank","self_service":"yes","addr:full":"ул. Луи Пастьор №30","addr:country":"BG","name":"София Люлин Луи Пастьор","phone":"+359 2 816 5431","brand":"Postbank","brand:wikidata":"Q7234083"},"coordinates":[42.7137138,23.2654723]},"dist":2.193,"tags_mismatch":true},{"osm":{"type":"node","id":10157385976,"tags":{"amenity":"bank","brand":"Пощенска банка","brand:wikidata":"Q7234083","check_date":"2022-11-04"},"wikidata":"Q7234083","coordinates":[42.4951221,27.4716644]},"atp":{"id":"MKCv-JJDhgEOm8TwyqFq5i02Cuk=","tags":{"amenity":"bank","addr:full":"пл. Царица Йоанна 11-13","addr:country":"BG","name":"Бургас Васил Априлов","phone":"+359 56 858 910","opening_hours":"Mo-Fr 08:30-17:00","brand":"Postbank","brand:wikidata":"Q7234083"},"coordinates":[42.4950972,27.4715221]},"dist":11.991,"tags_mismatch":true},{"osm":{"type":"node","id":10180715195,"tags":{"amenity":"bank","brand":"Пощенска банка","brand:wikidata":"Q7234083"},"wikidata":"Q7234083","coordinates":[43.2809255,24.0814168]},"atp":{"id":"UaTuJN0qgglMXA9W6-fsYKJhPuM=","tags":{"amenity":"bank","addr:full":"Ул. Търговска №12А","addr:country":"BG","name":"Червен бряг","phone":"+359 65 137 010","opening_hours":"Mo-Fr 08:30-17:00","brand":"Postbank","brand:wikidata":"Q7234083"},"coordinates":[43.280885,24.0814591]},"dist":5.657,"tags_mismatch":true},{"osm":{"type":"node","id":10249380623,"tags":{"amenity":"bank","brand":"Пощенска банка","brand:wikidata":"Q7234083","level":"0"},"wikidata":"Q7234083","coordinates":[42.6611113,23.38231]},"atp":{"id":"9YG8EdkAb-wmUZTfHh_kPqJC5IY=","tags":{"amenity":"bank","self_service":"yes","addr:full":"бул. Царица Йоанна 29","addr:country":"BG","name":"София Люлин Царица Йоанна","phone":"+359 2 811 6590","opening_hours":"Mo-Fr 08:30-17:00","brand":"Postbank","brand:wikidata":"Q7234083"},"coordinates":[42.7123559,23.2675577]},"tags_mismatch":true},{"osm":{"type":"node","id":10289151162,"tags":{"amenity":"bank","atm":"yes","brand":"Пощенска банка","brand:wikidata":"Q7234083","drive_through":"no"},"wikidata":"Q7234083","coordinates":[43.2707868,26.9361047]},"atp":{"id":"-aR-SK_xxyn7hIKqIczZjUBB6wI=","tags":{"amenity":"bank","self_service":"yes","addr:full":"бул. Славянски 3","addr:country":"BG","name":"Шумен България","phone":"+359 54 850 420","opening_hours":"Mo-Fr 08:30-17:00","brand":"Postbank","brand:wikidata":"Q7234083"},"coordinates":[43.270819,26.936136]},"dist":4.387,"tags_mismatch":true},{"osm":{"type":"node","id":10297349047,"tags":{"amenity":"bank","atm":"yes","branch":"София Студентски град","brand":"Пощенска банка","brand:wikidata":"Q7234083","int_name":"Postbank","opening_hours":"Mo-Fr 08:30-17:00","phone":"+359 2 816 5380","website":"https://www.postbank.bg/"},"wikidata":"Q7234083","coordinates":[42.6506801,23.341881]},"atp":{"id":"RX1MQ2arZZhJhFhX5_p8Gy7gQDc=","tags":{"amenity":"bank","self_service":"yes","addr:full":"Ул. Акад. Б. Стефанов №20","addr:country":"BG","name":"София Студентски град","phone":"+359 2 816 5380","opening_hours":"Mo-Fr 08:30-17:00","brand":"Postbank","brand:wikidata":"Q7234083"},"coordinates":[42.650687,23.341981]},"dist":8.214,"tags_mismatch":true},{"osm":{"type":"node","id":10592585910,"tags":{"addr:city":"Ямбол","addr:housenumber":"29","addr:postcode":"8600","addr:street":"Търговска","amenity":"bank","atm":"yes","brand":"Пощенска банка","brand:wikidata":"Q7234083","drive_through":"no","opening_hours":"Mo-Fr 08:30-17:00","website":"https://www.postbank.bg/"},"wikidata":"Q7234083","coordinates":[42.4821688,26.5111514]},"atp":{"id":"ZiX6MkBTmyq9uXOom0eMm2GJHOo=","tags":{"amenity":"bank","self_service":"yes","addr:full":"ул. Търговска 29","addr:country":"BG","name":"Ямбол Търговска","phone":"+359 46 680 900","opening_hours":"Mo-Fr 08:30-17:00","brand":"Postbank","brand:wikidata":"Q7234083"},"coordinates":[42.4821682,26.5112634]},"dist":9.185,"tags_mismatch":true},{"osm":{"type":"node","id":10671878315,"tags":{"addr:city":"Дупница","addr:housenumber":"22","addr:street":"Св. Иван Рилски","amenity":"bank","brand":"Пощенска банка","brand:wikidata":"Q7234083"},"wikidata":"Q7234083","coordinates":[42.2640558,23.1134361]},"atp":{"id":"MdW3cgx44LNIxEeXfCjNtyh_WqQ=","tags":{"amenity":"bank","self_service":"yes","addr:full":"улица „Св. Иван Рилски“ № 22","addr:country":"BG","name":"Дупница","phone":"+359 701 597 50","opening_hours":"Mo-Fr 08:30-17:00","brand":"Postbank","brand:wikidata":"Q7234083"},"coordinates":[42.2640508,23.1132583]},"dist":14.642,"tags_mismatch":true},{"osm":{"type":"node","id":10776569216,"tags":{"amenity":"bank","brand":"Пощенска банка","brand:wikidata":"Q7234083"},"wikidata":"Q7234083","coordinates":[42.0167115,23.0947005]},"atp":{"id":"ye7IutzYm4xUoP5daOF0wt6MmSs=","tags":{"amenity":"bank","self_service":"yes","addr:full":"Ул. Васил Левски 1","addr:country":"BG","name":"Благоевград Васил Левски","phone":"+359 73 828 900","opening_hours":"Mo-Fr 08:30-17:00","brand":"Postbank","brand:wikidata":"Q7234083"},"coordinates":[42.016761,23.094689]},"dist":5.586,"tags_mismatch":true},{"osm":{"type":"node","id":10776569220,"tags":{"amenity":"bank","brand":"Пощенска банка","brand:wikidata":"Q7234083"},"wikidata":"Q7234083","coordinates":[42.0195627,23.0929341]},"atp":{"id":"uypjQC2LmrhtpiQVK-lki5-5Zq0=","tags":{"amenity":"bank","addr:full":"ул. Св. Св. Кирил и Методий 4","addr:country":"BG","name":"Благоевград Кирил и Методий","phone":"+359 73 828 910","opening_hours":"Mo-Fr 08:30-17:00","brand":"Postbank","brand:wikidata":"Q7234083"},"coordinates":[42.019794,23.0930525]},"dist":27.516,"tags_mismatch":true},{"osm":{"type":"node","id":10810502978,"tags":{"addr:housenumber":"128","addr:street":"Гео Милев","amenity":"bank","branch":"София Слатина","brand":"Пощенска банка","brand:wikidata":"Q7234083","int_name":"Postbank","opening_hours":"Mo-Fr 08:30-17:00","phone":"+359 2 811 6620","website":"https://www.postbank.bg/"},"wikidata":"Q7234083","coordinates":[42.6803546,23.3722267]},"atp":{"id":"gyvC6MJ0vR802WIHehnGWnioI5g=","tags":{"amenity":"bank","self_service":"yes","addr:full":"ул. \"Гео Милев\" 128","addr:country":"BG","name":"София Слатина","phone":"+359 2 811 6620","opening_hours":"Mo-Fr 08:30-17:00","brand":"Postbank","brand:wikidata":"Q7234083"},"coordinates":[42.680394,23.372105]},"dist":10.87,"tags_mismatch":true},{"osm":{"type":"node","id":11241864669,"tags":{"amenity":"bank","brand":"Пощенска банка","brand:wikidata":"Q7234083","description":"Лични финанси","opening_hours":"Mo-Fr 09:00-18:00"},"wikidata":"Q7234083","coordinates":[42.6786688,23.2838823]},"atp":{"id":"6JN_CFoFMc3PhYlLV74U0JlRFyA=","tags":{"amenity":"bank","self_service":"yes","addr:full":"бул. \"Ал. Стамболийски\" 101, Ниво 0","addr:country":"BG","name":"София Моменто Мол София","phone":"+359 2 923 6166","opening_hours":"Mo-Su 10:00-21:00","brand":"Postbank","brand:wikidata":"Q7234083"},"coordinates":[42.698247,23.308859]},"tags_mismatch":true},{"osm":{"type":"node","id":11283788684,"tags":{"amenity":"bank","brand":"Пощенска банка","brand:wikidata":"Q7234083","check_date:opening_hours":"2024-01-11","level":"-1","opening_hours:signed":"no"},"wikidata":"Q7234083","coordinates":[42.6576869,23.3139686]},"atp":{"id":"ZAzUOq_qhbB6V0J2HZ9QvjkVoJo=","tags":{"amenity":"bank","self_service":"yes","addr:full":"бул. \"Цар Освободител\" 33","addr:country":"BG","name":"София Моменто Орлов мост","phone":"+359 2 816 6577","opening_hours":"Sa 10:00-14:00","brand":"Postbank","brand:wikidata":"Q7234083"},"coordinates":[42.691043,23.337346]},"tags_mismatch":true},{"osm":{"type":"node","id":11563918838,"tags":{"addr:housenumber":"10","addr:place":"Бизнес Парк София","amenity":"bank","brand":"Пощенска банка","brand:wikidata":"Q7234083","check_date":"2024-01-29","opening_hours":"Mo-Fr 08:30-17:00","payment:cash":"yes","payment:credit_cards":"yes","payment:debit_cards":"yes","wheelchair":"yes"},"wikidata":"Q7234083","coordinates":[42.6258373,23.3768093]},"atp":{"id":"H-SOLyjQmZk3g1XR7YNxTS6NYEE=","tags":{"amenity":"bank","self_service":"yes","addr:full":"Раковски, Ул. Г.С.Раковски 82","addr:country":"BG","name":"София Моменто Раковски","phone":"+359 2 811 6361","opening_hours":"Sa 10:00-14:00","brand":"Postbank","brand:wikidata":"Q7234083"},"coordinates":[42.698538,23.329718]},"tags_mismatch":true},{"osm":{"type":"node","id":11901183696,"tags":{"amenity":"bank","brand":"Пощенска банка","brand:wikidata":"Q7234083","opening_hours":"Mo-Su 08:00-21:00"},"wikidata":"Q7234083","coordinates":[42.642169,23.3362326]},"atp":{"id":"Fv-Lcac4dWmUmdYO3xmBK1anmd8=","tags":{"amenity":"bank","self_service":"yes","addr:full":"ул. „Проф. д-р Иван Странски“ 20","addr:country":"BG","name":"София Моменто Център Малинова Долина","phone":"+359 2 923 6055","opening_hours":"Mo-Su 08:00-21:00","brand":"Postbank","brand:wikidata":"Q7234083"},"coordinates":[42.6418715,23.3361706]},"dist":33.467,"tags_mismatch":true},{"osm":{"type":"node","id":12100562315,"tags":{"amenity":"bank","atm":"yes","brand":"Пощенска банка","brand:wikidata":"Q7234083","opening_hours":"Mo-Fr 08:30-17:00"},"wikidata":"Q7234083","coordinates":[43.2119908,27.9066438]},"atp":{"id":"prqayfLs2ZK3lvrKOrvm_IrIQtY=","tags":{"amenity":"bank","self_service":"yes","addr:full":"Бул. Владислав Варненчик №76-82","addr:country":"BG","name":"Варна Тракия","phone":"+359 52 686 970","opening_hours":"Mo-Fr 08:30-17:00","brand":"Postbank","brand:wikidata":"Q7234083"},"coordinates":[43.2120005,27.9067708]},"dist":10.349,"tags_mismatch":true},{"osm":{"type":"way","id":302968160,"tags":{"amenity":"bank","brand":"Пощенска банка","brand:wikidata":"Q7234083","building":"retail"},"wikidata":"Q7234083","coordinates":[42.195853,24.3337102]},"atp":{"id":"myToGP4ve0qAUURi_gzjCS5Ztus=","tags":{"amenity":"bank","self_service":"yes","addr:full":"ул. Коста Лулчев 52, Скай Сити Мол, ниво 0","addr:country":"BG","name":"София Моменто Скай Сити","phone":"+359 2 923 6157","opening_hours":"Mo-Su 10:00-21:00","brand":"Postbank","brand:wikidata":"Q7234083"},"coordinates":[42.679769,23.36751]},"tags_mismatch":true},{"osm":{"type":"way","id":340810439,"tags":{"amenity":"bank","atm":"yes","brand":"Пощенска банка","brand:wikidata":"Q7234083","building":"commercial","building:levels":"1","level":"0"},"wikidata":"Q7234083","coordinates":[42.6778024,26.3163612]},"atp":{"id":"yvMgT-miKYAfNO-cXM-n4ec2njs=","tags":{"amenity":"bank","self_service":"yes","addr:full":"пл. \"Петко Р. Славейков\" 1","addr:country":"BG","name":"София Моменто Славейков","phone":"+359 2 811 6352","opening_hours":"Sa 10:00-14:00","brand":"Postbank","brand:wikidata":"Q7234083"},"coordinates":[42.692597,23.323923]},"tags_mismatch":true},{"osm":{"type":"way","id":378627102,"tags":{"amenity":"bank","atm":"yes","brand":"Пощенска банка","brand:wikidata":"Q7234083","building":"yes"},"wikidata":"Q7234083","coordinates":[42.1479495,24.7467767]},"atp":{"id":"LYa9D7UUcGWEcoP339lgP45SVds=","tags":{"amenity":"bank","self_service":"yes","addr:full":"Ул. Антим I №2Б","addr:country":"BG","name":"Пловдив Антим I","phone":"+359 32 655 900","opening_hours":"Mo-Fr 08:30-17:00","brand":"Postbank","brand:wikidata":"Q7234083"},"coordinates":[42.1479591,24.7468496]},"dist":6.104,"tags_mismatch":true},{"osm":false,"atp":{"id":"FT07QWJRdAh_Ary6PND17q-VEeo=","tags":{"amenity":"bank","self_service":"yes","addr:full":"Ул. „Алабин“ 1","addr:country":"BG","name":"София Моменто Телъс тауър","phone":"+359 2 930 7198","opening_hours":"Sa 10:00-14:00","brand":"Postbank","brand:wikidata":"Q7234083"},"coordinates":[42.694935,23.31555]},"tags_mismatch":false,"dist":0},{"osm":false,"atp":{"id":"tKrxfwRfxFAAIWUvhTUx6k6BQXU=","tags":{"amenity":"bank","self_service":"yes","addr:full":"Бул. Царица Йоанна 15, Мега МОЛ, ниво 0","addr:country":"BG","name":"София Моменто Център Мега Мол","phone":"+359 2 923 6159","opening_hours":"Mo-Su 10:00-21:00","brand":"Postbank","brand:wikidata":"Q7234083"},"coordinates":[42.710464,23.2711]},"tags_mismatch":false,"dist":0},{"osm":false,"atp":{"id":"7E6trtDklaUyjEGX7TNrA_Y8Iac=","tags":{"amenity":"bank","self_service":"yes","addr:full":"бул. „Асен Йорданов“ 7","addr:country":"BG","name":"София Моменто Център Слатина","phone":"+359 2 923 6051","opening_hours":"Mo-Su 08:00-21:00","brand":"Postbank","brand:wikidata":"Q7234083"},"coordinates":[42.6744992,23.3830348]},"tags_mismatch":false,"dist":0},{"osm":false,"atp":{"id":"7GNJlnYUxVNWdLZyDx1jQbnI25s=","tags":{"amenity":"bank","addr:full":"Околовръстен път 260, сграда А","addr:country":"BG","name":"София Пощенска банка ЦУ","phone":"Кол център - 0 700 18 555 ;Клон- 028116340;","opening_hours":"Mo-Fr 08:30-17:00","brand":"Postbank","brand:wikidata":"Q7234083"},"coordinates":[42.6224652,23.3809994]},"tags_mismatch":false,"dist":0},{"osm":false,"atp":{"id":"qnPv4zJ2iw8QjJ0mSP2WMUP4Z7w=","tags":{"amenity":"bank","self_service":"yes","addr:full":"Околовръстен път 260, сграда Б","addr:country":"BG","name":"София Пощенска банка ЦУ","phone":"Кол център - 0 700 18 555 ;Клон- 028116340;","opening_hours":"Mo-Fr 08:30-17:00","brand":"Postbank","brand:wikidata":"Q7234083"},"coordinates":[42.6224652,23.3809994]},"tags_mismatch":false,"dist":0},{"osm":false,"atp":{"id":"skw9cEQSlbZjQikvv9hHXORpprA=","tags":{"amenity":"bank","self_service":"yes","addr:full":"ж.к. Суха река, Ул. Александър Екзарх, бл. 224, вх. А","addr:country":"BG","name":"София Суха река","phone":"+359 2 811 6480","opening_hours":"Mo-Fr 08:30-17:00","brand":"Postbank","brand:wikidata":"Q7234083"},"coordinates":[42.7004241,23.3598729]},"tags_mismatch":false,"dist":0},{"osm":false,"atp":{"id":"_VlNM903Ekn6q1P7vkt6q7s2pZE=","tags":{"amenity":"bank","addr:full":"бул.“Черни връх“ 43","addr:country":"BG","name":"София Черни връх","phone":"+359 2 811 6520","opening_hours":"Mo-Fr 08:30-17:00","brand":"Postbank","brand:wikidata":"Q7234083"},"coordinates":[42.6658758,23.3182589]},"tags_mismatch":false,"dist":0},{"osm":false,"atp":{"id":"ub8uakgJWf5UZHxv8jRaiy_mQ7E=","tags":{"amenity":"bank","self_service":"yes","addr:full":"ул. Д-р Георги Странски №3, Пловдив Плаза МОЛ, партер.","addr:country":"BG","name":"Пловдив Plaza Mall","phone":"+359 32 278 290","opening_hours":"Mo-Su 10:00-21:00","brand":"Postbank","brand:wikidata":"Q7234083"},"coordinates":[42.1453979,24.7808673]},"tags_mismatch":false,"dist":0},{"osm":false,"atp":{"id":"4eTrShZdI1jxghyYW-IhFxV22Wk=","tags":{"amenity":"bank","addr:full":"ул. Бетовен 9","addr:country":"BG","name":"Пловдив Бетовен","phone":"+359 32 278 320","opening_hours":"Mo-Fr 08:30-17:00","brand":"Postbank","brand:wikidata":"Q7234083"},"coordinates":[42.1492866,24.7441298]},"tags_mismatch":false,"dist":0},{"osm":false,"atp":{"id":"2b3uk93L50KYK9sBDBV2QG9xR8I=","tags":{"amenity":"bank","self_service":"yes","addr:full":"бул. Цар Борис III 20А","addr:country":"BG","name":"Пловдив Международен панаир","phone":"+359 32 655 920","opening_hours":"Mo-Fr 08:30-17:00","brand":"Postbank","brand:wikidata":"Q7234083"},"coordinates":[42.159858,24.74801]},"tags_mismatch":false,"dist":0},{"osm":false,"atp":{"id":"dByDYoNjDq-le97KSsroAoMqtRE=","tags":{"amenity":"bank","addr:full":"бул. Руски 54","addr:country":"BG","name":"Пловдив Моменто Марково Тепе","phone":"+359 32 278 318","opening_hours":"Mo-Su 10:00-21:00","brand":"Postbank","brand:wikidata":"Q7234083"},"coordinates":[42.1416482,24.7410366]},"tags_mismatch":false,"dist":0},{"osm":false,"atp":{"id":"mBbCt2vdZccTo151bCVOPpBnW2s=","tags":{"amenity":"bank","self_service":"yes","addr:full":"ул. Перущица 8 МОЛ Пловдив Ниво 0","addr:country":"BG","name":"Пловдив Моменто Център Мол Пловдив","phone":"+359 32 655 930","opening_hours":"Mo-Su 10:00-21:00","brand":"Postbank","brand:wikidata":"Q7234083"},"coordinates":[42.14096,24.71936]},"tags_mismatch":false,"dist":0},{"osm":false,"atp":{"id":"nAdM_lXCjuuhQRZVNRDB_v43R_A=","tags":{"amenity":"bank","self_service":"yes","addr:full":"бул. Христо Ботев 92Б","addr:country":"BG","name":"Пловдив Рилон Център","phone":"+359 32 686 420","opening_hours":"Mo-Fr 08:30-17:00","brand":"Postbank","brand:wikidata":"Q7234083"},"coordinates":[42.136083,24.754278]},"tags_mismatch":false,"dist":0},{"osm":false,"atp":{"id":"Jz8DtqYG8U5fNJTGRQ13bW_vtTE=","tags":{"amenity":"bank","self_service":"yes","addr:full":"Тракия, Комплекс Фрапе, До Блок 100","addr:country":"BG","name":"Пловдив Тракия","phone":"+359 32 655 950","opening_hours":"Mo-Fr 08:30-17:00","brand":"Postbank","brand:wikidata":"Q7234083"},"coordinates":[42.1315931,24.7945976]},"tags_mismatch":false,"dist":0},{"osm":false,"atp":{"id":"8CfsiIW3bMml2-ra22WvS58Vm6s=","tags":{"amenity":"bank","self_service":"yes","addr:full":"Бул. Ал. Стамболийски 33","addr:country":"BG","name":"Пловдив Христо Ботев","phone":"+359 32 686 430","opening_hours":"Mo-Fr 08:30-17:00","brand":"Postbank","brand:wikidata":"Q7234083"},"coordinates":[42.1203724,24.7329057]},"tags_mismatch":false,"dist":0},{"osm":false,"atp":{"id":"mFDkBa-KyHlngkahDvk43v2zHgM=","tags":{"amenity":"bank","addr:full":"ул. Христо Г. Данов 4","addr:country":"BG","name":"Пловдив Христо Данов","phone":"+359 32 278 308","opening_hours":"Mo-Fr 08:30-17:00","brand":"Postbank","brand:wikidata":"Q7234083"},"coordinates":[42.1480968,24.7475007]},"tags_mismatch":false,"dist":0},{"osm":false,"atp":{"id":"cVadKPHBb18foB0Zi3hT1dFvYiI=","tags":{"amenity":"bank","self_service":"yes","addr:full":"ул.”Андрей Сахаров” №2, ниво 0","addr:country":"BG","name":"Варна Grand Mall","phone":"+359 52 686 930","opening_hours":"Mo-Su 10:00-22:00","brand":"Postbank","brand:wikidata":"Q7234083"},"coordinates":[43.217548,27.897952]},"tags_mismatch":false,"dist":0},{"osm":false,"atp":{"id":"wD20iuzeymDhOg7t0l8v4Fkd2S0=","tags":{"amenity":"bank","self_service":"yes","addr:full":"ул. Цар Освободител 162","addr:country":"BG","name":"Варна Възраждане","phone":"+359 52 688 570","opening_hours":"Mo-Fr 08:30-17:00","brand":"Postbank","brand:wikidata":"Q7234083"},"coordinates":[43.234149,27.873306]},"tags_mismatch":false,"dist":0},{"osm":false,"atp":{"id":"tGSNDFY8Ind9R9TpKWzYBWndobg=","tags":{"amenity":"bank","self_service":"yes","addr:full":"Бул. Сливница 185, Делта Планет ниво 0","addr:country":"BG","name":"Варна Моменто Център","phone":"+359 52 686 940","opening_hours":"Mo-Su 10:00-21:00","brand":"Postbank","brand:wikidata":"Q7234083"},"coordinates":[43.2271909,27.8747716]},"tags_mismatch":false,"dist":0},{"osm":false,"atp":{"id":"6VlKy7k3n0EKabAGei4oIcCla2g=","tags":{"amenity":"bank","self_service":"yes","addr:full":"ул. Пирин 41","addr:country":"BG","name":"Варна Пирин","phone":"+359 52 688 560","opening_hours":"Mo-Fr 08:30-17:00","brand":"Postbank","brand:wikidata":"Q7234083"},"coordinates":[43.2122813,27.9122046]},"tags_mismatch":false,"dist":0},{"osm":false,"atp":{"id":"2arZcW9jCXZpfKJ4pCGT72GBw8k=","tags":{"amenity":"bank","self_service":"yes","addr:full":"бул. \"Княз Борис I\" 53","addr:country":"BG","name":"Варна Черно море","phone":"+359 52 686 903","opening_hours":"Mo-Fr 08:30-17:00","brand":"Postbank","brand:wikidata":"Q7234083"},"coordinates":[43.205558,27.91945]},"tags_mismatch":false,"dist":0},{"osm":false,"atp":{"id":"lVD3bLXV7dr8WNT8KeOGnPD1xXU=","tags":{"amenity":"bank","self_service":"yes","addr:full":"ул. „Янко Комитов” № 6, Мол Галерия Бургас, партер","addr:country":"BG","name":"Бургас Galleria Mall","phone":"+359 56 858 970","opening_hours":"Mo-Su 09:00-21:00","brand":"Postbank","brand:wikidata":"Q7234083"},"coordinates":[42.5127713,27.453531]},"tags_mismatch":false,"dist":0},{"osm":false,"atp":{"id":"9kQt8-KjBuw5x0QQZI-R7EzJ1MU=","tags":{"amenity":"bank","addr:full":"ул. Транспортна, Мол Бургас","addr:country":"BG","name":"Бургас Plaza Mall","phone":"+359 56 858 930","opening_hours":"Mo-Su 09:00-21:00","brand":"Postbank","brand:wikidata":"Q7234083"},"coordinates":[42.530677,27.458011]},"tags_mismatch":false,"dist":0},{"osm":false,"atp":{"id":"HzEsB2f4aCyvnpMyRmH7USA939g=","tags":{"amenity":"bank","self_service":"yes","addr:full":"ул. \"Александровска\" №135","addr:country":"BG","name":"Бургас Александровска","phone":"+359 56 876 970","opening_hours":"Mo-Fr 08:30-17:00","brand":"Postbank","brand:wikidata":"Q7234083"},"coordinates":[42.501317,27.46936]},"tags_mismatch":false,"dist":0},{"osm":false,"atp":{"id":"8BlvQJ1pUD1mjscerD9LZjKv4_0=","tags":{"amenity":"bank","addr:full":"Пристанищен комплекс, Дас Марина Бургас","addr:country":"BG","name":"Бургас Марина","phone":"+359 56 858 940","opening_hours":"Mo-Fr 08:30-17:00","brand":"Postbank","brand:wikidata":"Q7234083"},"coordinates":[42.489149,27.479569]},"tags_mismatch":false,"dist":0},{"osm":false,"atp":{"id":"RuoLk7LJzqBCK7gKZUG40AfeLts=","tags":{"amenity":"bank","self_service":"yes","addr:full":"кв. Меден Рудник, Търговски център Кридо","addr:country":"BG","name":"Бургас Меден Рудник","phone":"+359 56 858 920","opening_hours":"Mo-Fr 08:30-17:00","brand":"Postbank","brand:wikidata":"Q7234083"},"coordinates":[42.4553281,27.4189648]},"tags_mismatch":false,"dist":0},{"osm":false,"atp":{"id":"Rn1LfzQ4MZ77DDMuF1c5pCzLGAM=","tags":{"amenity":"bank","self_service":"yes","addr:full":"Ул. Александровска №1-3","addr:country":"BG","name":"Русе Батенберг","phone":"+359 82 812 900","opening_hours":"Mo-Fr 08:30-17:00","brand":"Postbank","brand:wikidata":"Q7234083"},"coordinates":[43.8450777,25.94872]},"tags_mismatch":false,"dist":0},{"osm":false,"atp":{"id":"gNWEhjLdzD0hHC8Ae3cpHQLxeyw=","tags":{"amenity":"bank","self_service":"yes","addr:full":"Ул. Николаевска №52","addr:country":"BG","name":"Русе Николаевска","phone":"+359 82 812 940","opening_hours":"Mo-Fr 08:30-17:00","brand":"Postbank","brand:wikidata":"Q7234083"},"coordinates":[43.8381554,25.9503132]},"tags_mismatch":false,"dist":0},{"osm":false,"atp":{"id":"2etb_d4RuHHHJaJddLPoL9KZGwE=","tags":{"amenity":"bank","self_service":"yes","addr:full":"ул. Цар Освободител 5","addr:country":"BG","name":"Айтос","phone":"+359 55 822 088","opening_hours":"Mo-Fr 08:30-17:00","brand":"Postbank","brand:wikidata":"Q7234083"},"coordinates":[42.7031164,27.2556712]},"tags_mismatch":false,"dist":0},{"osm":false,"atp":{"id":"uIajjZdaTqlAYCDGlNiU3I-Zpr0=","tags":{"amenity":"bank","self_service":"yes","addr:full":"Ул. Републиканска №3","addr:country":"BG","name":"Ардино","opening_hours":"Mo-Su 00:00-24:00","brand":"Postbank","brand:wikidata":"Q7234083"},"coordinates":[41.583389,25.1336814]},"tags_mismatch":false,"dist":0},{"osm":false,"atp":{"id":"k1ziHvwSuTX-LspQiOplbeudd_4=","tags":{"amenity":"bank","self_service":"yes","addr:full":"ул. \" Цар Симеон\" 43","addr:country":"BG","name":"Банско","phone":"+359 74 986 080","opening_hours":"Mo-Fr 08:30-17:00","brand":"Postbank","brand:wikidata":"Q7234083"},"coordinates":[41.83963,23.48733]},"tags_mismatch":false,"dist":0},{"osm":false,"atp":{"id":"QpRYZzHaTWaDXKmb6QV2ctU3UE4=","tags":{"amenity":"bank","self_service":"yes","addr:full":"ул. Мрамор 2 бл. Бор","addr:country":"BG","name":"Берковица","opening_hours":"Mo-Su 00:00-24:00","brand":"Postbank","brand:wikidata":"Q7234083"},"coordinates":[43.2385724235288,23.12458339826089]},"tags_mismatch":false,"dist":0},{"osm":false,"atp":{"id":"SsH3dIU6_skpdtKI3JRm6kcvNTg=","tags":{"amenity":"bank","self_service":"yes","addr:full":"ул. Св. Иван Рилски №17","addr:country":"BG","name":"Благоевград Свети Иван Рилски","phone":"+359 73 828 950","opening_hours":"Mo-Fr 08:30-17:00","brand":"Postbank","brand:wikidata":"Q7234083"},"coordinates":[42.0236703,23.1022145]},"tags_mismatch":false,"dist":0},{"osm":false,"atp":{"id":"IN77wwoTwNwatiCi0wyDpirFvMo=","tags":{"amenity":"bank","addr:full":"Ул. 27ми Октомври №2","addr:country":"BG","name":"Бобов дол","phone":"+359 702 988 30","opening_hours":"Mo-Fr 08:30-17:00","brand":"Postbank","brand:wikidata":"Q7234083"},"coordinates":[42.366158,23.005239]},"tags_mismatch":false,"dist":0},{"osm":false,"atp":{"id":"5tLHpY8Pe3bIfu6ayFVtLOIwc8g=","tags":{"amenity":"bank","self_service":"yes","addr:full":"Ул. Цар Александър II, №19-21","addr:country":"BG","name":"Видин","phone":"+359 94 609 900","opening_hours":"Mo-Fr 08:30-17:00","brand":"Postbank","brand:wikidata":"Q7234083"},"coordinates":[43.9840243,22.876778]},"tags_mismatch":false,"dist":0},{"osm":false,"atp":{"id":"XTCourDM2Lupi5M3qf_dTpS6wgU=","tags":{"amenity":"bank","self_service":"yes","addr:full":"Ул. Лукашов №1","addr:country":"BG","name":"Враца","phone":"+359 92 668 900","opening_hours":"Mo-Fr 08:30-17:00","brand":"Postbank","brand:wikidata":"Q7234083"},"coordinates":[43.2049497,23.5488284]},"tags_mismatch":false,"dist":0},{"osm":false,"atp":{"id":"xquAIT0weOUQE5pTaiQCc-cG11w=","tags":{"amenity":"bank","self_service":"yes","addr:full":"Ул. Иван Вазов №2","addr:country":"BG","name":"Горна Оряховица","phone":"+359 61 897 680","opening_hours":"Mo-Fr 08:30-17:00","brand":"Postbank","brand:wikidata":"Q7234083"},"coordinates":[43.1208931,25.6896879]},"tags_mismatch":false,"dist":0},{"osm":false,"atp":{"id":"vTILBnIfluRdONLlmfJQqnhDjfE=","tags":{"amenity":"bank","self_service":"yes","addr:full":"Ул. Сестри Дукови №2","addr:country":"BG","name":"Гоце Делчев","phone":"+359 75 169 500","opening_hours":"Mo-Fr 08:30-17:00","brand":"Postbank","brand:wikidata":"Q7234083"},"coordinates":[41.57221,23.72698]},"tags_mismatch":false,"dist":0},{"osm":false,"atp":{"id":"AvscJm9eUW0QDUKoylz3q6q3Dr0=","tags":{"amenity":"bank","addr:full":"Ул. Освобождение 23","addr:country":"BG","name":"Девин","phone":"+359 30 898 710","opening_hours":"Mo-Fr 08:30-17:00","brand":"Postbank","brand:wikidata":"Q7234083"},"coordinates":[41.7426762,24.3987233]},"tags_mismatch":false,"dist":0},{"osm":false,"atp":{"id":"33AU8h41V2C5XW1QMNett_Ljnc4=","tags":{"amenity":"bank","self_service":"yes","addr:full":"Бул. Съединение №78","addr:country":"BG","name":"Девня","phone":"+359 51 947 110","opening_hours":"Mo-Fr 08:30-17:00","brand":"Postbank","brand:wikidata":"Q7234083"},"coordinates":[43.226285,27.586576]},"tags_mismatch":false,"dist":0},{"osm":false,"atp":{"id":"kHJ-cn2Qlrog3ibWwpz5zj_CAGU=","tags":{"amenity":"bank","self_service":"yes","addr:full":"бул. България №1","addr:country":"BG","name":"Димитровград","phone":"+359 39 168 101","opening_hours":"Mo-Fr 08:30-17:00","brand":"Postbank","brand:wikidata":"Q7234083"},"coordinates":[42.0562071,25.591171]},"tags_mismatch":false,"dist":0},{"osm":false,"atp":{"id":"Y4jdpKld9RQQ8HzcRMcBdG2YIRE=","tags":{"amenity":"bank","self_service":"yes","addr:full":"Улица България №122, Блок 194","addr:country":"BG","name":"Златоград","phone":"+359 30 898 711","opening_hours":"Mo-Fr 08:30-17:00","brand":"Postbank","brand:wikidata":"Q7234083"},"coordinates":[41.3800031,25.0965444]},"tags_mismatch":false,"dist":0},{"osm":false,"atp":{"id":"kCrSkZhQ9WJdTmENN-HFj1bM4R4=","tags":{"amenity":"bank","self_service":"yes","addr:full":"Ул. Цар Калоян 3","addr:country":"BG","name":"Каварна","phone":"+359 57 081 170","opening_hours":"Mo-Fr 08:30-17:00","brand":"Postbank","brand:wikidata":"Q7234083"},"coordinates":[43.4330482,28.3376962]},"tags_mismatch":false,"dist":0},{"osm":false,"atp":{"id":"c2Bq_I69Eo4rLqgepfN9yUxbTPM=","tags":{"amenity":"bank","self_service":"yes","addr:full":"ул. Петко Събев 2","addr:country":"BG","name":"Карлово","phone":"+359 33 590 180","opening_hours":"Mo-Fr 08:30-17:00","brand":"Postbank","brand:wikidata":"Q7234083"},"coordinates":[42.6434218,24.8050445]},"tags_mismatch":false,"dist":0},{"osm":false,"atp":{"id":"2Er6a0hLNEjMNAX9BW4FiLfTADc=","tags":{"amenity":"bank","addr:full":"Бул. България №5","addr:country":"BG","name":"Карнобат","phone":"+359 55 929 000","opening_hours":"Mo-Fr 08:30-17:00","brand":"Postbank","brand:wikidata":"Q7234083"},"coordinates":[42.6488759,26.9846653]},"tags_mismatch":false,"dist":0},{"osm":false,"atp":{"id":"YKEAMdtBeiWt0wu4KQQmMcpaLKw=","tags":{"amenity":"bank","addr:full":"ул. Христо Ботев, Блок Витоша","addr:country":"BG","name":"Кнежа","phone":"+359 91 329 912","opening_hours":"Mo-Fr 08:30-17:00","brand":"Postbank","brand:wikidata":"Q7234083"},"coordinates":[43.4955804,24.0795234]},"tags_mismatch":false,"dist":0},{"osm":false,"atp":{"id":"uHCqIFVtyb0kZhgrtPKGPi-gyRg=","tags":{"amenity":"bank","self_service":"yes","addr:full":"ул.\" Христо Ботев\" бл.71","addr:country":"BG","name":"Козлодуй","phone":"+359 97 389 510","opening_hours":"Mo-Fr 08:30-17:00","brand":"Postbank","brand:wikidata":"Q7234083"},"coordinates":[43.77771,23.72834]},"tags_mismatch":false,"dist":0},{"osm":false,"atp":{"id":"2K995a8-4I-LEqK8fXIa_VjMufs=","tags":{"amenity":"bank","self_service":"yes","addr:full":"Бул. България №33","addr:country":"BG","name":"Кърджали","phone":"+359 36 160 450","opening_hours":"Mo-Fr 08:30-17:00","brand":"Postbank","brand:wikidata":"Q7234083"},"coordinates":[41.643164,25.368756]},"tags_mismatch":false,"dist":0},{"osm":false,"atp":{"id":"J7Qs-v99CCw8VCzq3PgguUXbP8o=","tags":{"amenity":"bank","self_service":"yes","addr:full":"Ул. Демокрация №1","addr:country":"BG","name":"Кюстендил","phone":"+359 78 559 900","opening_hours":"Mo-Fr 08:30-17:00","brand":"Postbank","brand:wikidata":"Q7234083"},"coordinates":[42.280444,22.690444]},"tags_mismatch":false,"dist":0},{"osm":false,"atp":{"id":"eQLpJKYFW_FNVc9pABfQoKt-tMo=","tags":{"amenity":"bank","addr:full":"Ул. Васил Априлов №2","addr:country":"BG","name":"Левски","phone":"+359 65 088 800","opening_hours":"Mo-Fr 08:30-17:00","brand":"Postbank","brand:wikidata":"Q7234083"},"coordinates":[43.359004,25.141751]},"tags_mismatch":false,"dist":0},{"osm":false,"atp":{"id":"dVbHXYJUMQkIAydfObMHtGjZPco=","tags":{"amenity":"bank","self_service":"yes","addr:full":"Ул. Дунавска №10","addr:country":"BG","name":"Лом","phone":"+359 97 168 410","opening_hours":"Mo-Fr 08:30-17:00","brand":"Postbank","brand:wikidata":"Q7234083"},"coordinates":[43.82649,23.23693]},"tags_mismatch":false,"dist":0},{"osm":false,"atp":{"id":"npB6bI6d8SlR1xPc3E-6HFew1_w=","tags":{"amenity":"bank","self_service":"yes","addr:full":"Бул. Трети Март №98","addr:country":"BG","name":"Монтана","phone":"+359 96 391 003","opening_hours":"Mo-Fr 08:30-17:00","brand":"Postbank","brand:wikidata":"Q7234083"},"coordinates":[43.40974,23.226412]},"tags_mismatch":false,"dist":0},{"osm":false,"atp":{"id":"9-9sbCmTwwEioG7mYd5cpLZ64YA=","tags":{"amenity":"bank","self_service":"yes","addr:full":"Ул. Васил Левски №1","addr:country":"BG","name":"Никопол","phone":"+359 65 137 000","opening_hours":"Mo-Fr 08:30-17:00","brand":"Postbank","brand:wikidata":"Q7234083"},"coordinates":[43.70522,24.895449]},"tags_mismatch":false,"dist":0},{"osm":false,"atp":{"id":"hCKFwTVNYh9m2HGLrUXYcZdec6M=","tags":{"amenity":"bank","self_service":"yes","addr:full":"ул. Св. Св. Кирил и Методий №40","addr:country":"BG","name":"Нова Загора","phone":"+359 45 761 140","opening_hours":"Mo-Fr 08:30-17:00","brand":"Postbank","brand:wikidata":"Q7234083"},"coordinates":[42.494507,26.012101]},"tags_mismatch":false,"dist":0},{"osm":false,"atp":{"id":"W5R0oNlxA4rXlzug8yc3fgadJ0w=","tags":{"amenity":"bank","self_service":"yes","addr:full":"Пл. Раковски №2","addr:country":"BG","name":"Нови Пазар","phone":"+359 53 725 810","opening_hours":"Mo-Fr 08:30-17:00","brand":"Postbank","brand:wikidata":"Q7234083"},"coordinates":[43.345668,27.192934]},"tags_mismatch":false,"dist":0},{"osm":false,"atp":{"id":"etZpsjtumRlPrA6Xk9MBewXAg9g=","tags":{"amenity":"bank","addr:full":"ул. Пловдивска 20","addr:country":"BG","name":"Пазарджик Пловдивска","phone":"+359 34 403 720","opening_hours":"Mo-Fr 08:30-17:00","brand":"Postbank","brand:wikidata":"Q7234083"},"coordinates":[42.1888023,24.3401154]},"tags_mismatch":false,"dist":0},{"osm":false,"atp":{"id":"Ll9p93VpfmUXVvrZ8-gFpNFlVTk=","tags":{"amenity":"bank","self_service":"yes","addr:full":"Ул. Минск 15","addr:country":"BG","name":"Перник Изток","phone":"+359 76 688 830","opening_hours":"Mo-Fr 08:30-17:00","brand":"Postbank","brand:wikidata":"Q7234083"},"coordinates":[42.6083472,23.0990667]},"tags_mismatch":false,"dist":0},{"osm":false,"atp":{"id":"cQbjIOvAwwEL4jiUnSWXOoQnfhU=","tags":{"amenity":"bank","self_service":"yes","addr:full":"Ул. Търговска №15","addr:country":"BG","name":"Перник Търговска","phone":"+359 76 688 630","opening_hours":"Mo-Fr 08:30-17:00","brand":"Postbank","brand:wikidata":"Q7234083"},"coordinates":[42.6048758,23.030377]},"tags_mismatch":false,"dist":0},{"osm":false,"atp":{"id":"pcgHV8quDIfiaqpaEaFdduGIpjI=","tags":{"amenity":"bank","self_service":"yes","addr:full":"ул.Гоце Делчев 12","addr:country":"BG","name":"Петрич","phone":"+359 74 569 800","opening_hours":"Mo-Fr 08:30-17:00","brand":"Postbank","brand:wikidata":"Q7234083"},"coordinates":[41.393017,23.208579]},"tags_mismatch":false,"dist":0},{"osm":false,"atp":{"id":"K_nn-4Ka2MCNmQHW2r_ma7LZKsc=","tags":{"amenity":"bank","self_service":"yes","addr:full":"Дойранска Епопея №19А","addr:country":"BG","name":"Пещера","phone":"+359 35 060 000","opening_hours":"Mo-Fr 08:30-17:00","brand":"Postbank","brand:wikidata":"Q7234083"},"coordinates":[42.0325474,24.3027069]},"tags_mismatch":false,"dist":0},{"osm":false,"atp":{"id":"6--PxQ9jDaiFaS-gmu40wt-eym8=","tags":{"amenity":"bank","self_service":"yes","addr:full":"Асен Халачев № 11 5800, гр. Плевен","addr:country":"BG","name":"Бизнес Център Плевен","phone":"+359 64 890 909","opening_hours":"Mo-Fr 08:30-17:00","brand":"Postbank","brand:wikidata":"Q7234083"},"coordinates":[43.418201,24.613992]},"tags_mismatch":false,"dist":0},{"osm":false,"atp":{"id":"0VDoaQcADQyGpwA3ncokozfgye8=","tags":{"amenity":"bank","self_service":"yes","addr:full":"бул. Данаил Попов №18","addr:country":"BG","name":"Плевен Данаил Попов","phone":"+359 64 890 900","opening_hours":"Mo-Fr 08:30-17:00","brand":"Postbank","brand:wikidata":"Q7234083"},"coordinates":[43.4134803,24.6166238]},"tags_mismatch":false,"dist":0},{"osm":false,"atp":{"id":"ClKk7p3So2DQdK6JvkmtNkG8R2I=","tags":{"amenity":"bank","self_service":"yes","addr:full":"ул. Дойран №136","addr:country":"BG","name":"Плевен Освобождение","phone":"+359 64 890 940","opening_hours":"Mo-Fr 08:30-17:00","brand":"Postbank","brand:wikidata":"Q7234083"},"coordinates":[43.4092479,24.6164097]},"tags_mismatch":false,"dist":0},{"osm":false,"atp":{"id":"LQobXcz6e1YRnCz6egDl88fAjHo=","tags":{"amenity":"bank","addr:full":"ул. Княз Борис I 64","addr:country":"BG","name":"Поморие","phone":"+359 59 626 240","opening_hours":"Mo-Fr 08:30-17:00","brand":"Postbank","brand:wikidata":"Q7234083"},"coordinates":[42.5574606,27.6397723]},"tags_mismatch":false,"dist":0},{"osm":false,"atp":{"id":"M18aZo5VWqBuFOvn5Q8M3l0SnTs=","tags":{"amenity":"bank","addr:full":"ул. Гоце Делчев 4","addr:country":"BG","name":"Попово","phone":"+359 60 840 150","opening_hours":"Mo-Fr 08:30-17:00","brand":"Postbank","brand:wikidata":"Q7234083"},"coordinates":[43.34807,26.22563]},"tags_mismatch":false,"dist":0},{"osm":false,"atp":{"id":"Q-tzkijxwasCmxoAcLPAKgIS2IM=","tags":{"amenity":"bank","self_service":"yes","addr:full":"Ул. Орфей №14","addr:country":"BG","name":"Първомай","phone":"+359 33 669 000","opening_hours":"Mo-Fr 08:30-17:00","brand":"Postbank","brand:wikidata":"Q7234083"},"coordinates":[42.09778,25.225009]},"tags_mismatch":false,"dist":0},{"osm":false,"atp":{"id":"wwKynZxQlLQA1GGWsxqVDB_9XrI=","tags":{"amenity":"bank","self_service":"yes","addr:full":"бул. България №34","addr:country":"BG","name":"Разград","phone":"+359 84 611 500","opening_hours":"Mo-Fr 08:30-17:00","brand":"Postbank","brand:wikidata":"Q7234083"},"coordinates":[43.5252077,26.5263846]},"tags_mismatch":false,"dist":0},{"osm":false,"atp":{"id":"iAKiwkqbsoR8NupRXlhuUlZILKw=","tags":{"amenity":"bank","self_service":"yes","addr:full":"Пл. Преображение 1","addr:country":"BG","name":"Разлог","phone":"+359 74 789 080","opening_hours":"Mo-Fr 08:30-17:00","brand":"Postbank","brand:wikidata":"Q7234083"},"coordinates":[41.885786,23.466193]},"tags_mismatch":false,"dist":0},{"osm":false,"atp":{"id":"V_tCNRplJ6CRabH-6ydgej0t7pg=","tags":{"amenity":"bank","self_service":"yes","addr:full":"Пл. България №2","addr:country":"BG","name":"Сандански","phone":"+359 74 634 650","opening_hours":"Mo-Fr 08:30-17:00","brand":"Postbank","brand:wikidata":"Q7234083"},"coordinates":[41.5613686,23.278019]},"tags_mismatch":false,"dist":0},{"osm":false,"atp":{"id":"3SMG7tsHdAD_r-09a5esYkykhWI=","tags":{"amenity":"bank","self_service":"yes","addr:full":"Бул. България №58","addr:country":"BG","name":"Свиленград","phone":"+359 37 974 220","opening_hours":"Mo-Fr 08:30-17:00","brand":"Postbank","brand:wikidata":"Q7234083"},"coordinates":[41.766063,26.1998718]},"tags_mismatch":false,"dist":0},{"osm":false,"atp":{"id":"7AfJVP5dYqxNL2ZDjniYFl__fwU=","tags":{"amenity":"bank","self_service":"yes","addr:full":"Ул. Хаджи Димитър №1","addr:country":"BG","name":"Свищов","phone":"+359 63 161 600","opening_hours":"Mo-Fr 08:30-17:00","brand":"Postbank","brand:wikidata":"Q7234083"},"coordinates":[43.6176087,25.3452705]},"tags_mismatch":false,"dist":0},{"osm":false,"atp":{"id":"FgKKgocc8z0EcGjVrP1SZoFVbCA=","tags":{"amenity":"bank","self_service":"yes","addr:full":"ул. Константин Стоилов 30","addr:country":"BG","name":"Сливен Цар Освободител","phone":"+359 44 617 940","opening_hours":"Mo-Fr 08:30-17:00","brand":"Postbank","brand:wikidata":"Q7234083"},"coordinates":[42.679123,26.322382]},"tags_mismatch":false,"dist":0},{"osm":false,"atp":{"id":"GFOBCGQFby6eivaCD_kggX8jGrs=","tags":{"amenity":"bank","self_service":"yes","addr:full":"Бул. България №42","addr:country":"BG","name":"Смолян","phone":"+359 30 160 800","opening_hours":"Mo-Fr 08:30-17:00","brand":"Postbank","brand:wikidata":"Q7234083"},"coordinates":[41.5772497,24.7006861]},"tags_mismatch":false,"dist":0},{"osm":false,"atp":{"id":"gM9BJID4J9stoyNpnZSgEEvYfVI=","tags":{"amenity":"bank","addr:full":"Ул. Черно море 2","addr:country":"BG","name":"Созопол","phone":"+359 55 078 470","opening_hours":"Mo-Fr 08:30-17:00","brand":"Postbank","brand:wikidata":"Q7234083"},"coordinates":[42.4190323,27.6943713]},"tags_mismatch":false,"dist":0},{"osm":false,"atp":{"id":"At2cv4z2R_9OAm9jr13Airx9OFs=","tags":{"amenity":"bank","self_service":"yes","addr:full":"пл. България № 5","addr:country":"BG","name":"Средец","phone":"+359 55 698 820","opening_hours":"Mo-Fr 08:30-17:00","brand":"Postbank","brand:wikidata":"Q7234083"},"coordinates":[42.3469739,27.1815987]},"tags_mismatch":false,"dist":0},{"osm":false,"atp":{"id":"PeP8FSTSjroRRQXaBX70dr6XcDk=","tags":{"amenity":"bank","self_service":"yes","addr:full":"ул. Любен Каравелов 65","addr:country":"BG","name":"Стара Загора Цар Симеон","phone":"+359 42 610 840","opening_hours":"Mo-Fr 08:30-17:00","brand":"Postbank","brand:wikidata":"Q7234083"},"coordinates":[42.4259876,25.6377249]},"tags_mismatch":false,"dist":0},{"osm":false,"atp":{"id":"5D1O7OgAHWwPj2YJ0q9hO88JZhk=","tags":{"amenity":"bank","addr:full":"Ул. Цар Калоян №1","addr:country":"BG","name":"Тервел","phone":"+359 57 514 980","opening_hours":"Mo-Fr 08:30-17:00","brand":"Postbank","brand:wikidata":"Q7234083"},"coordinates":[43.748832,27.407057]},"tags_mismatch":false,"dist":0},{"osm":false,"atp":{"id":"r3Du2AUDzEzIy_MYbUNV6DPSReo=","tags":{"amenity":"bank","addr:full":"Ул. Иван Вазов 39","addr:country":"BG","name":"Тетевен","phone":"+359 67 898 611","opening_hours":"Mo-Fr 08:30-17:00","brand":"Postbank","brand:wikidata":"Q7234083"},"coordinates":[42.9181272,24.2637905]},"tags_mismatch":false,"dist":0},{"osm":false,"atp":{"id":"CwP-849NT1z8fy4CdYvHPlBogzo=","tags":{"amenity":"bank","self_service":"yes","addr:full":"ул. Васил Левски 76","addr:country":"BG","name":"Троян","phone":"+359 67 068 840","opening_hours":"Mo-Fr 08:30-17:00","brand":"Postbank","brand:wikidata":"Q7234083"},"coordinates":[42.886882,24.713196]},"tags_mismatch":false,"dist":0},{"osm":false,"atp":{"id":"bcjFN18cqkgbuyf-lp2ZiHHWlPA=","tags":{"amenity":"bank","self_service":"yes","addr:full":"Пл. Независимост № 1","addr:country":"BG","name":"Търговище","phone":"+359 60 161 001","opening_hours":"Mo-Fr 08:30-17:00","brand":"Postbank","brand:wikidata":"Q7234083"},"coordinates":[43.24936,26.57236]},"tags_mismatch":false,"dist":0},{"osm":false,"atp":{"id":"dbCBaPT9l_Bo4Y9zPbZNtPZC8ls=","tags":{"amenity":"bank","self_service":"yes","addr:full":"бул.България 2","addr:country":"BG","name":"Харманли","phone":"+359 37 380 040","opening_hours":"Mo-Fr 08:30-17:00","brand":"Postbank","brand:wikidata":"Q7234083"},"coordinates":[41.930278,25.902377]},"tags_mismatch":false,"dist":0},{"osm":false,"atp":{"id":"oxI0IaTr5SwZ-aUGf8BdAzinkVI=","tags":{"amenity":"bank","addr:full":"пл.\" Свобода\" 7","addr:country":"BG","name":"Хасково Кредитен Център","phone":"+359 38 605 907","opening_hours":"Mo-Fr 08:30-17:00","brand":"Postbank","brand:wikidata":"Q7234083"},"coordinates":[41.93317,25.55774]},"tags_mismatch":false,"dist":0},{"osm":false,"atp":{"id":"l7886hINDmtwQFSZ7elL9ZyFMZg=","tags":{"amenity":"bank","self_service":"yes","addr:full":"пл.\" Свобода\" 7","addr:country":"BG","name":"Хасково Свобода","phone":"+359 38 605 960","opening_hours":"Mo-Fr 08:30-17:00","brand":"Postbank","brand:wikidata":"Q7234083"},"coordinates":[41.93317,25.55774]},"tags_mismatch":false,"dist":0},{"osm":false,"atp":{"id":"geSstLK1A-8CdJ-Rfu8rcPeiBUc=","tags":{"amenity":"bank","self_service":"yes","addr:full":"ул. Г. Дражев 5","addr:country":"BG","name":"Ямбол Георги Дражев","phone":"+359 46 680 940","opening_hours":"Mo-Fr 08:30-17:00","brand":"Postbank","brand:wikidata":"Q7234083"},"coordinates":[42.4840948,26.5041614]},"tags_mismatch":false,"dist":0}]}