{"metadata":{"type":"brand","wikidata":"Q2944755","name":"Централна Кооперативна Банка","compare_keys":["opening_hours"]},"data":[{"osm":{"type":"node","id":344548276,"tags":{"amenity":"bank","brand":"Централна Кооперативна Банка","brand:wikidata":"Q2944755","short_name:bg":"ЦКБ","short_name:en":"CCBank"},"wikidata":"Q2944755","coordinates":[42.7139423,27.7587832]},"atp":{"id":"wWgnmb3EVV6mo86MDdfu49czSBo=","tags":{"ref":"1384851","amenity":"bank","short_name:bg":"ЦКБ","short_name:en":"CCBank","addr:full":"ул.\"Цар Симеон І\" 17, ет.1, офис 9","addr:city":"Свети Влас","addr:country":"BG","name":"Несебър Офис Свети Влас","phone":"+359 55 468 644;+359 88 464 6744","opening_hours":"Mo-Fr 08:30-12:00,13:00-17:00","brand":"Central Cooperative Bank","brand:wikidata":"Q2944755"},"coordinates":[42.7134838,27.7582557]},"dist":66.758,"tags_mismatch":true},{"osm":{"type":"node","id":351121685,"tags":{"addr:city":"София","addr:housenumber":"бл.442","addr:place":"ж.к. Люлин 4","amenity":"bank","brand":"Централна Кооперативна Банка","brand:wikidata":"Q2944755","opening_hours":"Mo-Fr 08:30-19:00; Sa 10:00-14:00","phone":"+359 2 923 8022","short_name":"ЦКБ","short_name:bg":"ЦКБ","short_name:en":"CCBank","website":"https://www.ccbank.bg/"},"wikidata":"Q2944755","coordinates":[42.715138,23.249779]},"atp":{"id":"cwZlcM_sCw8rw_FuZthqFmDGdiU=","tags":{"ref":"1384921","amenity":"bank","short_name:bg":"ЦКБ","short_name:en":"CCBank","addr:full":"бул.\"Панчо Владигеров\" бл.442","addr:city":"София","addr:country":"BG","name":"ЦКБ АД Клон София Запад","phone":"+359 2 923 80 22;+359884657069","opening_hours":"Mo-Fr 08:30-17:00","brand":"Central Cooperative Bank","brand:wikidata":"Q2944755"},"coordinates":[42.715534,23.250193]},"dist":55.524,"tags_mismatch":true},{"osm":{"type":"node","id":415612185,"tags":{"amenity":"bank","branch":"Орион","brand":"Централна Кооперативна Банка","brand:wikidata":"Q2944755","opening_hours":"Mo-Fr 08:30-17:00","short_name":"ЦКБ","short_name:bg":"ЦКБ","short_name:en":"CCBank","website":"https://www.ccbank.bg/"},"wikidata":"Q2944755","coordinates":[42.7172186,23.2781245]},"atp":{"id":"qv7Z4kZfGY4Lb3kbWmQxZgoUDYQ=","tags":{"ref":"1384924","amenity":"bank","short_name:bg":"ЦКБ","short_name:en":"CCBank","addr:full":"ж.к.\"Люлин\" 10, Орион 1-3","addr:city":"София","addr:country":"BG","name":"София Запад Офис Орион","phone":"+359 2 825 06 98;+359884620282","opening_hours":"Mo-Fr 08:30-12:00,12:30-17:00","brand":"Central Cooperative Bank","brand:wikidata":"Q2944755"},"coordinates":[42.716625,23.277134]},"dist":104.426,"tags_mismatch":true},{"osm":{"type":"node","id":496126616,"tags":{"amenity":"bank","atm":"yes","brand":"Централна Кооперативна Банка","brand:wikidata":"Q2944755","short_name:bg":"ЦКБ","short_name:en":"CCBank"},"wikidata":"Q2944755","coordinates":[43.2086115,27.918761]},"atp":{"id":"XxGuIdMLYqcKtqUZhR3PJTjBJVQ=","tags":{"ref":"1384740","amenity":"bank","short_name:bg":"ЦКБ","short_name:en":"CCBank","addr:full":"бул.\"Осми приморски полк\" 55","addr:city":"Варна","addr:country":"BG","name":"Варна ИРМ Черноморец","phone":"+359 52 650 144;+359 88 464 6014","opening_hours":"Mo-Fr 08:30-12:30,13:30-17:30; Sa 10:00-17:00","brand":"Central Cooperative Bank","brand:wikidata":"Q2944755"},"coordinates":[43.208593,27.918709]},"dist":4.69,"tags_mismatch":true},{"osm":{"type":"node","id":1238094350,"tags":{"amenity":"bank","atm":"yes","brand":"Централна Кооперативна Банка","brand:wikidata":"Q2944755","short_name:bg":"ЦКБ","short_name:en":"CCBank"},"wikidata":"Q2944755","coordinates":[43.2052325,27.906915]},"atp":{"id":"GdpfFKH6wBG173whrb5QagCu8J0=","tags":{"ref":"1384733","amenity":"bank","short_name:bg":"ЦКБ","short_name:en":"CCBank","addr:full":"бул.\"Съборни\" 58А","addr:city":"Варна","addr:country":"BG","name":"ЦКБ АД Клон Варна","phone":"+359 52 660 010;+359 88 265 3302","opening_hours":"Mo-Fr 08:30-20:00; Sa-Su 10:00-17:00","brand":"Central Cooperative Bank","brand:wikidata":"Q2944755"},"coordinates":[43.2052472,27.9071444]},"dist":18.665,"tags_mismatch":true},{"osm":{"type":"node","id":1241065496,"tags":{"amenity":"bank","atm":"yes","brand":"Централна Кооперативна Банка","brand:wikidata":"Q2944755","short_name:bg":"ЦКБ","short_name:en":"CCBank"},"wikidata":"Q2944755","coordinates":[43.4268492,23.7544315]},"atp":{"id":"GHE2koZXpuQl3nMPIN7LLS_Ln4M=","tags":{"ref":"1384768","amenity":"bank","short_name:bg":"ЦКБ","short_name:en":"CCBank","addr:full":"ул.\"Славко Ценов 5","addr:city":"Борован","addr:country":"BG","name":"Враца Офис Борован","phone":"+359 91 472 080;+359 88 465 4631","opening_hours":"Mo-Fr 08:30-12:00,13:00-17:00","brand":"Central Cooperative Bank","brand:wikidata":"Q2944755"},"coordinates":[43.426868,23.754845]},"dist":33.458,"tags_mismatch":true},{"osm":{"type":"node","id":1253852795,"tags":{"addr:city":"Ямбол","addr:country":"BG","addr:housenumber":"7","addr:postcode":"8600","addr:street":"пл. Освобождение","amenity":"bank","atm":"yes","brand":"Централна Кооперативна Банка","brand:wikidata":"Q2944755","short_name:bg":"ЦКБ","short_name:en":"CCBank"},"wikidata":"Q2944755","coordinates":[42.4836907,26.5049585]},"atp":{"id":"sQkLsdfSmaXwlu-oDImP5JwJMJY=","tags":{"ref":"1384982","amenity":"bank","short_name:bg":"ЦКБ","short_name:en":"CCBank","addr:full":"пл.\"Освобождение\" 7","addr:city":"Ямбол","addr:country":"BG","name":"ЦКБ АД Клон Ямбол","phone":"+359 46 662 045;+359 88 261 8357","opening_hours":"Mo-Fr 08:30-17:00","brand":"Central Cooperative Bank","brand:wikidata":"Q2944755"},"coordinates":[42.483807,26.504881]},"dist":14.409,"tags_mismatch":true},{"osm":{"type":"node","id":1347588628,"tags":{"addr:city":"Стара Загора","addr:housenumber":"58","addr:street":"Генерал Гурко","amenity":"bank","brand":"Централна Кооперативна Банка","brand:wikidata":"Q2944755","description":"Офис Верея","phone":"+359 42 220 110","short_name:bg":"ЦКБ","short_name:en":"CCBank","wheelchair":"yes"},"wikidata":"Q2944755","coordinates":[42.4228763,25.6270456]},"atp":{"id":"Bf61HMXoS1JvBM4Lrvw0OViKccA=","tags":{"ref":"1384937","amenity":"bank","short_name:bg":"ЦКБ","short_name:en":"CCBank","addr:full":"ул.\"Генерал Гурко\" 58","addr:city":"Стара Загора","addr:country":"BG","name":"Стара Загора Офис Верея","phone":"+359 42 220 110;+359 88 465 0237","opening_hours":"Mo-Fr 08:30-17:00","brand":"Central Cooperative Bank","brand:wikidata":"Q2944755"},"coordinates":[42.422745,25.627253]},"dist":22.427,"tags_mismatch":true},{"osm":{"type":"node","id":1350379857,"tags":{"amenity":"bank","atm":"yes","brand":"Централна Кооперативна Банка","brand:wikidata":"Q2944755","short_name:bg":"ЦКБ","short_name:en":"CCBank"},"wikidata":"Q2944755","coordinates":[42.1468793,24.7620529]},"atp":{"id":"MKVnKPJU2GjKM2ViqLSvgLr02_o=","tags":{"ref":"1384869","amenity":"bank","short_name:bg":"ЦКБ","short_name:en":"CCBank","addr:full":"бул.\"Мария Луиза\" 55","addr:city":"Пловдив","addr:country":"BG","name":"Пловдив Офис Мария Луиза","phone":"+359 32 623 425;+359 88 269 4021","opening_hours":"Mo-Fr 08:30-13:00,14:00-17:00","brand":"Central Cooperative Bank","brand:wikidata":"Q2944755"},"coordinates":[42.146828,24.761778]},"dist":23.37,"tags_mismatch":true},{"osm":{"type":"node","id":1389571495,"tags":{"amenity":"bank","atm":"yes","brand":"Централна Кооперативна Банка","brand:wikidata":"Q2944755","short_name:bg":"ЦКБ","wheelchair":"no"},"wikidata":"Q2944755","coordinates":[42.64007,24.3587514]},"atp":{"id":"0B_g_yMksFGGEMW7yXFQL5kFI1Q=","tags":{"ref":"1384811","amenity":"bank","short_name:bg":"ЦКБ","short_name:en":"CCBank","addr:full":"бул.Хаджи Ненчо Палавеев 49","addr:city":"Копривщица","addr:country":"BG","name":"Карлово Офис Копривщица","phone":"+359 71 842 031;+359 88 462 1511","opening_hours":"Mo-Fr 08:30-12:30,13:30-17:00","brand":"Central Cooperative Bank","brand:wikidata":"Q2944755"},"coordinates":[42.638885,24.359907]},"dist":162.165,"tags_mismatch":true},{"osm":{"type":"node","id":1495422926,"tags":{"amenity":"bank","atm":"yes","brand":"Централна Кооперативна Банка","brand:wikidata":"Q2944755","short_name:bg":"ЦКБ","short_name:en":"CCBank","wheelchair":"yes"},"wikidata":"Q2944755","coordinates":[43.2047448,27.9187961]},"atp":{"id":"Y2MdaiOwM3g6FqW3y5oiYKAuGJw=","tags":{"ref":"1384744","amenity":"bank","short_name:bg":"ЦКБ","short_name:en":"CCBank","addr:full":"ул.\"Княз Борис I\" 46","addr:city":"Варна","addr:country":"BG","name":"Варна Офис Черно море","phone":"+359 52 614 128;+359 88 464 5561","opening_hours":"Mo-Fr 08:30-12:30,13:30-17:30; Sa-Su 10:00-17:00","brand":"Central Cooperative Bank","brand:wikidata":"Q2944755"},"coordinates":[43.204708,27.918793]},"dist":4.1,"tags_mismatch":true},{"osm":{"type":"node","id":2147630319,"tags":{"amenity":"bank","atm":"yes","brand":"Централна Кооперативна Банка","brand:wikidata":"Q2944755","short_name:bg":"ЦКБ","short_name:en":"CCBank"},"wikidata":"Q2944755","coordinates":[42.1498838,24.7440977]},"atp":{"id":"cPk07Z00_ifj_2bXGotYrfvFgd4=","tags":{"ref":"1384866","amenity":"bank","short_name:bg":"ЦКБ","short_name:en":"CCBank","addr:full":"ул.\"Бетовен\" 5","addr:city":"Пловдив","addr:country":"BG","name":"ЦКБ АД Клон Пловдив","phone":"+359 32 654 950;+359 88 464 8976","opening_hours":"Mo-Fr 08:30-17:00","brand":"Central Cooperative Bank","brand:wikidata":"Q2944755"},"coordinates":[42.14954,24.744236]},"dist":39.893,"tags_mismatch":true},{"osm":{"type":"node","id":2268404725,"tags":{"addr:city":"Несебър","addr:housenumber":"25","addr:street":"Иван Вазов","amenity":"bank","brand":"Централна Кооперативна Банка","brand:wikidata":"Q2944755","short_name:bg":"ЦКБ","short_name:en":"CCBank"},"wikidata":"Q2944755","coordinates":[42.6590071,27.7178676]},"atp":{"id":"EU5W_Uu5XwymJYjMJo6CHUAySnw=","tags":{"ref":"1384708","amenity":"bank","short_name:bg":"ЦКБ","short_name:en":"CCBank","addr:full":"ул.\"Речна\" 8","addr:city":"Асеновград","addr:country":"BG","name":"ЦКБ АД Клон Асеновград","phone":"+359 33 120 618;+359 88 292 6115","opening_hours":"Mo-Fr 08:30-17:00","brand":"Central Cooperative Bank","brand:wikidata":"Q2944755"},"coordinates":[42.00935,24.87661]},"tags_mismatch":true},{"osm":{"type":"node","id":2269046144,"tags":{"addr:city":"Несебър","addr:housenumber":"23","addr:street":"Струма","amenity":"bank","brand":"Централна Кооперативна Банка","brand:wikidata":"Q2944755","email":"office@ccbank.bg","image":"http://img-fotki.yandex.ru/get/5638/90421807.25/0_9310a_bbb1e32e_XL.jpg","phone":"+359 800 11400","short_name:bg":"ЦКБ","short_name:en":"CCBank","website":"https://www.ccbank.bg/"},"wikidata":"Q2944755","coordinates":[42.663285,27.7153296]},"atp":{"id":"xHDpNywMghgcKJAoHXnFvSfpkdo=","tags":{"ref":"1384848","amenity":"bank","short_name:bg":"ЦКБ","short_name:en":"CCBank","addr:full":"пл.”Жулиета Шишманова” – Културен Център","addr:city":"Несебър","addr:country":"BG","name":"ЦКБ АД Клон Несебър","phone":"+359 55 429 960;+359 88 464 6043","opening_hours":"Mo-Fr 08:30-17:00","brand":"Central Cooperative Bank","brand:wikidata":"Q2944755"},"coordinates":[42.66338,27.715319]},"dist":10.599,"tags_mismatch":true},{"osm":{"type":"node","id":2315209998,"tags":{"amenity":"bank","atm":"yes","brand":"Централна Кооперативна Банка","brand:wikidata":"Q2944755","short_name:bg":"ЦКБ","short_name:en":"CCBank","website":"https://ccbank.bg/"},"wikidata":"Q2944755","coordinates":[43.0772329,25.6253343]},"atp":{"id":"x-1LK5LvMXDqKH3KFxYDqfDNdSE=","tags":{"ref":"1384758","amenity":"bank","short_name:bg":"ЦКБ","short_name:en":"CCBank","addr:full":"ул.\"Никола Габровски\" 4","addr:city":"Велико Търново","addr:country":"BG","name":"ЦКБ АД Клон Велико Търново","phone":"+359 62 621 531;+359 88 264 7714","opening_hours":"Mo-Fr 08:30-17:00","brand":"Central Cooperative Bank","brand:wikidata":"Q2944755"},"coordinates":[43.07732,25.62546]},"dist":14.072,"tags_mismatch":true},{"osm":{"type":"node","id":2712863305,"tags":{"amenity":"bank","atm":"yes","brand":"Централна Кооперативна Банка","brand:wikidata":"Q2944755","short_name:bg":"ЦКБ","short_name:en":"CCBank"},"wikidata":"Q2944755","coordinates":[43.2108244,27.9224592]},"atp":{"id":"H07dbOcCxgw58C-Utrdw0uKiMoQ=","tags":{"ref":"1384752","amenity":"bank","short_name:bg":"ЦКБ","short_name:en":"CCBank","addr:full":"ул.\"Генерал Паренсов\" 3","addr:city":"Варна","addr:country":"BG","name":"Варна Офис Червен площад","phone":"+359 52 660 084;+359 88 464 2696","opening_hours":"Mo-Fr 08:30-12:30,13:30-17:30","brand":"Central Cooperative Bank","brand:wikidata":"Q2944755"},"coordinates":[43.210823,27.922741]},"dist":22.839,"tags_mismatch":true},{"osm":{"type":"node","id":3144266127,"tags":{"amenity":"bank","atm":"yes","brand":"Централна Кооперативна Банка","brand:wikidata":"Q2944755","opening_hours":"Mo-Fr 08:30-12:30,13:30-17:30; Sa,Su 10:00-17:00","short_name:bg":"ЦКБ","short_name:en":"CCBank"},"wikidata":"Q2944755","coordinates":[43.2033435,27.9153772]},"atp":{"id":"HTdFLSsO14xrj6BAXgr_xOm8Xdc=","tags":{"ref":"1384741","amenity":"bank","short_name:bg":"ЦКБ","short_name:en":"CCBank","addr:full":"бул.\"Княз Борис I\" 13","addr:city":"Варна","addr:country":"BG","name":"Варна ИРМ Варна","phone":"+359 52 608 146;+359 88 464 0495","opening_hours":"Mo-Fr 08:30-12:30,13:30-17:30","brand":"Central Cooperative Bank","brand:wikidata":"Q2944755"},"coordinates":[43.203289,27.915433]},"dist":7.562,"tags_mismatch":true},{"osm":{"type":"node","id":3327150513,"tags":{"alt_name":"ЦКБ","amenity":"bank","atm":"yes","brand":"Централна Кооперативна Банка","brand:wikidata":"Q2944755","int_name":"CCB","short_name:bg":"ЦКБ","short_name:en":"CCBank"},"wikidata":"Q2944755","coordinates":[42.4923086,27.4720232]},"atp":{"id":"VXmA8IVW-DqUrf6-o8gDMK2USJA=","tags":{"ref":"1384723","amenity":"bank","short_name:bg":"ЦКБ","short_name:en":"CCBank","addr:full":"ул.\"Конт Андрованти\" 4","addr:city":"Бургас","addr:country":"BG","name":"ЦКБ АД Клон Бургас","phone":"+359 56 874 500;+359 88 464 4278","opening_hours":"Mo-Fr 08:30-17:00","brand":"Central Cooperative Bank","brand:wikidata":"Q2944755"},"coordinates":[42.492542,27.471849]},"dist":29.624,"tags_mismatch":true},{"osm":{"type":"node","id":3504396172,"tags":{"addr:housenumber":"7Б","addr:postcode":"1000","addr:street":"бул. Княз Александър Дондуков","amenity":"bank","brand":"Централна Кооперативна Банка","brand:wikidata":"Q2944755","contact:phone":"+359 2 930 6911","opening_hours":"Mo-Fr 08:30-19:00","short_name":"ЦКБ","short_name:bg":"ЦКБ","short_name:en":"CCBank","website":"https://www.ccbank.bg/"},"wikidata":"Q2944755","coordinates":[42.6981404,23.3266547]},"atp":{"id":"5VwkkXyAxsfCaaIGBXC2j2X0g-A=","tags":{"ref":"1384791","amenity":"bank","short_name:bg":"ЦКБ","short_name:en":"CCBank","addr:full":"бул.\"Княз Ал.Дондуков\" 7Б","addr:city":"София","addr:country":"BG","name":"ЦКБ АД Клон Дондуков","phone":"+359 2 93 06 911;+359884641191","opening_hours":"Mo-Fr 08:30-17:30","brand":"Central Cooperative Bank","brand:wikidata":"Q2944755"},"coordinates":[42.698141,23.327722]},"dist":87.221,"tags_mismatch":true},{"osm":{"type":"node","id":3688594936,"tags":{"addr:city":"София","addr:housenumber":"33","addr:postcode":"1504","addr:street":"бул. Цар Освободител","amenity":"bank","atm":"yes","brand":"Централна Кооперативна Банка","brand:wikidata":"Q2944755","contact:phone":"+359 2 946 1682","opening_hours":"Mo-Fr 08:30-17:00","short_name":"ЦКБ","short_name:bg":"ЦКБ","short_name:en":"CCBank","website":"https://www.ccbank.bg/"},"wikidata":"Q2944755","coordinates":[42.6909228,23.3375039]},"atp":{"id":"DjMM_1qMopmvY2i47TIqJBa_vPE=","tags":{"ref":"1384834","amenity":"bank","short_name:bg":"ЦКБ","short_name:en":"CCBank","addr:full":"бул.\"Цар Освободител\" 33","addr:city":"София","addr:country":"BG","name":"Мадрид Офис Орлов мост","phone":"+359 2 946 16 82;+359885601562","opening_hours":"Mo-Fr 08:30-12:00,12:30-17:00","brand":"Central Cooperative Bank","brand:wikidata":"Q2944755"},"coordinates":[42.690937,23.33729]},"dist":17.553,"tags_mismatch":true},{"osm":{"type":"node","id":3774198503,"tags":{"amenity":"bank","atm":"yes","brand":"Централна Кооперативна Банка","brand:wikidata":"Q2944755","opening_hours":"Mo-Fr 08:30-17:00","short_name":"ЦКБ","short_name:bg":"ЦКБ","short_name:en":"CCBank","website":"https://www.ccbank.bg/"},"wikidata":"Q2944755","coordinates":[42.7118557,23.3005848]},"atp":{"id":"lIOA3Kv2jHDjZaMnvtNfVZU7GdQ=","tags":{"ref":"1384779","amenity":"bank","short_name:bg":"ЦКБ","short_name:en":"CCBank","addr:full":"ж.к.\"Фондови жилища\", ул.\"Йосиф Щросмайер\" бл.217","addr:city":"София","addr:country":"BG","name":"Възраждане Офис Щросмайер","phone":"+359 2 405 15 91;+359882129620","opening_hours":"Mo-Fr 08:30-12:00,12:30-17:00","brand":"Central Cooperative Bank","brand:wikidata":"Q2944755"},"coordinates":[42.711853,23.300394]},"dist":15.592,"tags_mismatch":true},{"osm":{"type":"node","id":3835378973,"tags":{"amenity":"bank","brand":"Централна Кооперативна Банка","brand:wikidata":"Q2944755","name:it":"CC","short_name:bg":"ЦКБ","short_name:en":"CCBank"},"wikidata":"Q2944755","coordinates":[43.2071032,27.910392]},"atp":{"id":"8Dtjh-bQmANxWLGnCQZ2-zzhZuM=","tags":{"ref":"1384749","amenity":"bank","short_name:bg":"ЦКБ","short_name:en":"CCBank","addr:full":"бул.\"Владислав Варненчик\" 18","addr:city":"Варна","addr:country":"BG","name":"Варна Офис  Владислав","phone":"+359 52 604 517;+359 88 463 9755","opening_hours":"Mo-Fr 08:30-12:30,13:30-17:30","brand":"Central Cooperative Bank","brand:wikidata":"Q2944755"},"coordinates":[43.206846,27.910616]},"dist":33.875,"tags_mismatch":true},{"osm":{"type":"node","id":4004620054,"tags":{"amenity":"bank","atm":"yes","brand":"Централна Кооперативна Банка","brand:wikidata":"Q2944755","opening_hours":"08:30-17:00","short_name:bg":"ЦКБ","short_name:en":"CCBank"},"wikidata":"Q2944755","coordinates":[42.0090871,24.8764743]},"atp":{"id":"Hy1xvygxmb7znM0IP9Jfr_M-6zk=","tags":{"ref":"1384709","amenity":"bank","short_name:bg":"ЦКБ","short_name:en":"CCBank","addr:full":"ул.\"Възраждане\" 32","addr:city":"Лъки","addr:country":"BG","name":"Асеновград ИРМ Лъки","phone":"+359 30 523 080;+359 88 464 7470","opening_hours":"Mo-Fr 08:30-13:00,14:00-17:00","brand":"Central Cooperative Bank","brand:wikidata":"Q2944755"},"coordinates":[41.8334357,24.8281253]},"tags_mismatch":true},{"osm":{"type":"node","id":4007039606,"tags":{"amenity":"bank","brand":"Централна Кооперативна Банка","brand:wikidata":"Q2944755","short_name:bg":"ЦКБ","short_name:en":"CCBank"},"wikidata":"Q2944755","coordinates":[43.2369823,25.3062341]},"atp":{"id":"PHLk22oBr-B7107jzNiiWpjjK0A=","tags":{"ref":"1384762","amenity":"bank","short_name:bg":"ЦКБ","short_name:en":"CCBank","addr:full":"ул.\"Съединение\" 4","addr:city":"Павликени","addr:country":"BG","name":"В.Търново Офис Павликени","phone":"+359 61 417 002;+359 88 261 9891","opening_hours":"Mo-Fr 08:30-12:00,13:00-17:00","brand":"Central Cooperative Bank","brand:wikidata":"Q2944755"},"coordinates":[43.236935,25.307137]},"dist":73.331,"tags_mismatch":true},{"osm":{"type":"node","id":4319494947,"tags":{"addr:city":"София","addr:housenumber":"93","addr:postcode":"1408","addr:street":"бул. Витоша","amenity":"bank","atm":"yes","brand":"Централна Кооперативна Банка","brand:wikidata":"Q2944755","check_date:opening_hours":"2023-02-10","opening_hours":"Mo-Fr 08:30-17:00","phone":"+359 2 953 1082","short_name":"ЦКБ","short_name:bg":"ЦКБ","short_name:en":"CCBank","website":"https://www.ccbank.bg/"},"wikidata":"Q2944755","coordinates":[42.6797379,23.3117299]},"atp":{"id":"qs8XhA7_njRj_HzLjsFcxpUux5I=","tags":{"ref":"1384961","amenity":"bank","short_name:bg":"ЦКБ","short_name:en":"CCBank","addr:full":"бул.\"Витоша\" 93","addr:city":"София","addr:country":"BG","name":"Централен Офис Витоша","phone":"+359 2 95 31 095;+359887104432","opening_hours":"Mo-Fr 08:30-12:00,12:30-17:00","brand":"Central Cooperative Bank","brand:wikidata":"Q2944755"},"coordinates":[42.679619,23.311593]},"dist":17.322,"tags_mismatch":true},{"osm":{"type":"node","id":4330823611,"tags":{"addr:city":"София","addr:housenumber":"13","addr:postcode":"1618","addr:street":"бул. Александър С. Пушкин","amenity":"bank","atm":"yes","brand":"Централна Кооперативна Банка","brand:wikidata":"Q2944755","check_date":"2024-04-22","opening_hours":"Mo-Fr 08:30-17:00","payment:cash":"yes","payment:credit_cards":"yes","payment:debit_cards":"yes","phone":"+359 2 955 5286","short_name":"ЦКБ","short_name:bg":"ЦКБ","short_name:en":"CCBank","website":"https://www.ccbank.bg/","wheelchair":"no"},"wikidata":"Q2944755","coordinates":[42.6647792,23.2662255]},"atp":{"id":"cstgBzcthCoQ31EEgIQCKphmgIo=","tags":{"ref":"1384931","amenity":"bank","short_name:bg":"ЦКБ","short_name:en":"CCBank","addr:full":"бул.\"Александър С.Пушкин\" 13","addr:city":"София","addr:country":"BG","name":"София Юг Офис Павлово","phone":"+359 2 405 1584","opening_hours":"Mo-Fr 08:30-12:00,12:30-17:00","brand":"Central Cooperative Bank","brand:wikidata":"Q2944755"},"coordinates":[42.665237,23.266125]},"dist":51.564,"tags_mismatch":true},{"osm":{"type":"node","id":4337611769,"tags":{"amenity":"bank","atm":"yes","brand":"Централна Кооперативна Банка","brand:wikidata":"Q2944755","opening_hours":"Mo-Fr 09:00-17:00","short_name":"ЦКБ","short_name:bg":"ЦКБ","short_name:en":"CCBank","website":"https://www.ccbank.bg/"},"wikidata":"Q2944755","coordinates":[42.69606,23.3141354]},"atp":{"id":"NYg8Wg8JUxiCf3PAXsSrs5nhnJU=","tags":{"ref":"1384775","amenity":"bank","short_name:bg":"ЦКБ","short_name:en":"CCBank","addr:full":"бул.\"Христо Ботев\" 55","addr:city":"София","addr:country":"BG","name":"Възраждане Офис МЗГ","phone":"+359 2 812 87 54;+359884623576","opening_hours":"Mo-Fr 08:30-12:00,12:30-17:00","brand":"Central Cooperative Bank","brand:wikidata":"Q2944755"},"coordinates":[42.696029,23.314104]},"dist":4.297,"tags_mismatch":true},{"osm":{"type":"node","id":4349069690,"tags":{"addr:city":"София","addr:housenumber":"20","addr:postcode":"1113","addr:street":"Фредерик Жолио Кюри","amenity":"bank","brand":"Централна Кооперативна Банка","brand:wikidata":"Q2944755","check_date:opening_hours":"2024-08-13","opening_hours":"Mo-Fr 08:30-17:00","short_name":"ЦКБ","short_name:bg":"ЦКБ","short_name:en":"CCBank","website":"https://www.ccbank.bg/"},"wikidata":"Q2944755","coordinates":[42.6709643,23.3502459]},"atp":{"id":"NkYtHj8iRvGR3CWrXizbbYAYRzY=","tags":{"ref":"1384799","amenity":"bank","short_name:bg":"ЦКБ","short_name:en":"CCBank","addr:full":"ул.\"Фр.Жулио Кюри\" 20","addr:city":"София","addr:country":"BG","name":"Дървеница Офис Изток","phone":"+359 2 405 1574;+359888131701","opening_hours":"Mo-Fr 08:30-12:00,12:30-17:00","brand":"Central Cooperative Bank","brand:wikidata":"Q2944755"},"coordinates":[42.670862,23.350283]},"dist":11.773,"tags_mismatch":true},{"osm":{"type":"node","id":4368693489,"tags":{"amenity":"bank","brand":"Централна Кооперативна Банка","brand:wikidata":"Q2944755","opening_hours":"Mo-Su 09:00-17:00","short_name:bg":"ЦКБ","short_name:en":"CCBank"},"wikidata":"Q2944755","coordinates":[42.1715865,27.8536546]},"atp":{"id":"BawtQMt1g7U7QaGmFl6FTFqu5l0=","tags":{"ref":"1384971","amenity":"bank","short_name:bg":"ЦКБ","short_name:en":"CCBank","addr:full":"ул.\"Хан Аспарух\" 24","addr:city":"Царево","addr:country":"BG","name":"Черно Море Офис Царево","phone":"+359 59 053 958;+359 88 461 9234","opening_hours":"Mo-Fr 08:30-12:30,13:30-17:00","brand":"Central Cooperative Bank","brand:wikidata":"Q2944755"},"coordinates":[42.171653,27.85379]},"dist":13.386,"tags_mismatch":true},{"osm":{"type":"node","id":4381408786,"tags":{"amenity":"bank","atm":"yes","brand":"Централна Кооперативна Банка","brand:wikidata":"Q2944755","short_name":"ЦКБ","short_name:bg":"ЦКБ","short_name:en":"CCBank","website":"https://www.ccbank.bg/"},"wikidata":"Q2944755","coordinates":[42.6533534,23.3732203]},"atp":{"id":"a8e3VmgMqVZQFsvRmTNvarwndkg=","tags":{"ref":"1384838","amenity":"bank","short_name:bg":"ЦКБ","short_name:en":"CCBank","addr:full":"бул.\"Андрей Сахаров\" 14","addr:city":"София","addr:country":"BG","name":"ЦКБ АД Клон Младост","phone":"+359 2 974 4606;+359884699368","opening_hours":"Mo-Fr 08:30-12:00,12:30-17:00","brand":"Central Cooperative Bank","brand:wikidata":"Q2944755"},"coordinates":[42.653344,23.373267]},"dist":3.96,"tags_mismatch":true},{"osm":{"type":"node","id":4394408489,"tags":{"addr:housenumber":"8","addr:street":"бул. Свети Климент Охридски","amenity":"bank","brand":"Централна Кооперативна Банка","brand:wikidata":"Q2944755","opening_hours":"Mo-Fr 08:30-17:00","short_name":"ЦКБ","short_name:bg":"ЦКБ","short_name:en":"CCBank","website":"https://www.ccbank.bg/"},"wikidata":"Q2944755","coordinates":[42.6566176,23.3588014]},"atp":{"id":"9yXr1juaJkUWXwc1gvcFltzTmZU=","tags":{"ref":"1384798","amenity":"bank","short_name:bg":"ЦКБ","short_name:en":"CCBank","addr:full":"бул.\"Св.Климент Охридски\" 8","addr:city":"София","addr:country":"BG","name":"ЦКБ АД Клон Дървеница","phone":"+359 2 816 7960;+359888107813","opening_hours":"Mo-Fr 08:30-12:00,12:30-17:00","brand":"Central Cooperative Bank","brand:wikidata":"Q2944755"},"coordinates":[42.656713,23.35906]},"dist":23.659,"tags_mismatch":true},{"osm":{"type":"node","id":4441592492,"tags":{"addr:city":"Доспат","amenity":"bank","brand":"Централна Кооперативна Банка","brand:wikidata":"Q2944755","short_name:bg":"ЦКБ","short_name:en":"CCBank"},"wikidata":"Q2944755","coordinates":[41.6440688,24.1598327]},"atp":{"id":"_tQGleUUGa6j53gJtJ2IozoFWI4=","tags":{"ref":"1384710","amenity":"bank","short_name:bg":"ЦКБ","short_name:en":"CCBank","addr:full":"бул.\"Санкт Петербург\" 48","addr:city":"Пловдив","addr:country":"BG","name":"Асеновград ИРМ Аркадия","phone":"+359 32 290 001;+359 88 463 9197","opening_hours":"Mo-Fr 08:30-13:00,14:00-17:00","brand":"Central Cooperative Bank","brand:wikidata":"Q2944755"},"coordinates":[42.142329,27.784019]},"tags_mismatch":true},{"osm":{"type":"node","id":4498546869,"tags":{"amenity":"bank","brand":"Централна Кооперативна Банка","brand:wikidata":"Q2944755","short_name":"ЦКБ","short_name:bg":"ЦКБ","short_name:en":"CCBank","website":"https://www.ccbank.bg/"},"wikidata":"Q2944755","coordinates":[42.7070124,23.3503963]},"atp":{"id":"vv-Dd9Kl2m9RXBBwLXjCxn63kfw=","tags":{"ref":"1384835","amenity":"bank","short_name:bg":"ЦКБ","short_name:en":"CCBank","addr:full":"ул.\"Макгахан\" 51","addr:city":"София","addr:country":"BG","name":"Мадрид Офис Макгахан","phone":"+359 2 814 48 56;+359886113326","opening_hours":"Mo-Fr 08:30-17:00","brand":"Central Cooperative Bank","brand:wikidata":"Q2944755"},"coordinates":[42.707062,23.35026]},"dist":12.428,"tags_mismatch":true},{"osm":{"type":"node","id":4511286830,"tags":{"addr:housenumber":"2","addr:postcode":"1000","addr:street":"Стефан Караджа","amenity":"bank","branch":"София Стефан Караджа","brand":"Централна Кооперативна Банка","brand:wikidata":"Q2944755","contact:phone":"+359 2 932 1911","opening_hours":"Mo-Fr 08:30-19:00","short_name":"ЦКБ","short_name:bg":"ЦКБ","short_name:en":"CCBank","website":"https://www.ccbank.bg/"},"wikidata":"Q2944755","coordinates":[42.6938566,23.3232287]},"atp":{"id":"QgSl1ybLIT48SaZvOl64z6oLdT0=","tags":{"ref":"1384968","amenity":"bank","short_name:bg":"ЦКБ","short_name:en":"CCBank","addr:full":"ул.\"Стефан Караджа\" 2","addr:city":"София","addr:country":"BG","name":"Централен Офис Химимпорт","phone":"+359 2 932 1911;+35988512507","opening_hours":"Mo-Fr 08:30-12:30,13:00-17:00","brand":"Central Cooperative Bank","brand:wikidata":"Q2944755"},"coordinates":[42.693988,23.323291]},"dist":15.473,"tags_mismatch":true},{"osm":{"type":"node","id":4557813529,"tags":{"addr:city":"София","addr:country":"BG","addr:housenumber":"20","addr:street":"бул. Патриарх Евтимий","amenity":"bank","atm":"yes","brand":"Централна Кооперативна Банка","brand:wikidata":"Q2944755","contact:phone":"+359 2 980 8608","opening_hours":"Mo-Fr 08:30-17:00","short_name":"ЦКБ","short_name:bg":"ЦКБ","short_name:en":"CCBank","website":"https://www.ccbank.bg/","wheelchair":"limited"},"wikidata":"Q2944755","coordinates":[42.6885296,23.3256709]},"atp":{"id":"odnkC03fKv4La6U0KPXfSePQtc4=","tags":{"ref":"1384960","amenity":"bank","short_name:bg":"ЦКБ","short_name:en":"CCBank","addr:full":"бул.\"Патриарх Евтимий\" 20","addr:city":"София","addr:country":"BG","name":"Централен Офис П.Евтимий","phone":"+359 2 98 08 608;+359884164726","opening_hours":"Mo-Fr 08:30-12:00,12:30-17:00","brand":"Central Cooperative Bank","brand:wikidata":"Q2944755"},"coordinates":[42.68842,23.325647]},"dist":12.343,"tags_mismatch":true},{"osm":{"type":"node","id":4856644822,"tags":{"amenity":"bank","brand":"Централна Кооперативна Банка","brand:wikidata":"Q2944755","opening_hours":"Mo-Fr 08:30-19:00; Sa 10:00-17:00","short_name:bg":"ЦКБ","short_name:en":"CCBank"},"wikidata":"Q2944755","coordinates":[43.2135044,27.9046519]},"atp":{"id":"0Rj2LNfuDkMP5g4LkaHw8yn7L5w=","tags":{"ref":"1384734","amenity":"bank","short_name:bg":"ЦКБ","short_name:en":"CCBank","addr:full":"ул.\"Яне Сандански\" 1","addr:city":"Варна","addr:country":"BG","name":"Варна ИРМ Отец Паисий","phone":"+359 52 608 502;+359 88 464 1282","opening_hours":"Mo-Fr 08:30-12:30,13:30-17:30; Sa 10:00-17:00","brand":"Central Cooperative Bank","brand:wikidata":"Q2944755"},"coordinates":[43.213481,27.904661]},"dist":2.704,"tags_mismatch":true},{"osm":{"type":"node","id":4947500491,"tags":{"amenity":"bank","atm":"yes","brand":"Централна Кооперативна Банка","brand:wikidata":"Q2944755","check_date":"2023-08-31","opening_hours":"Mo-Fr 08:30-17:30","short_name":"ЦКБ","short_name:bg":"ЦКБ","short_name:en":"CCBank","website":"https://www.ccbank.bg/"},"wikidata":"Q2944755","coordinates":[42.7003931,23.3222231]},"atp":{"id":"L6f6ezWr_pCGVCBSce4HVq6isfc=","tags":{"ref":"1384793","amenity":"bank","short_name:bg":"ЦКБ","short_name:en":"CCBank","addr:full":"ул.\"Екзарх Йосиф\" 23","addr:city":"София","addr:country":"BG","name":"Дондуков Офис Екзарх Йосиф","phone":"+359 2 983 0900","opening_hours":"Mo-Fr 08:30-13:00,13:30-17:00","brand":"Central Cooperative Bank","brand:wikidata":"Q2944755"},"coordinates":[42.700195,23.321936]},"dist":32.182,"tags_mismatch":true},{"osm":{"type":"node","id":5020777238,"tags":{"amenity":"bank","branch":"АД","brand":"Централна Кооперативна Банка","brand:wikidata":"Q2944755","short_name:bg":"ЦКБ","short_name:en":"CCBank"},"wikidata":"Q2944755","coordinates":[42.6184189,25.3899827]},"atp":{"id":"R2Nljfu22SHn-mRf-0AeiUwihSw=","tags":{"ref":"1384805","amenity":"bank","short_name:bg":"ЦКБ","short_name:en":"CCBank","addr:full":"ул.\"23-ти Пехотен Шипченски полк\" 3","addr:city":"Казанлък","addr:country":"BG","name":"Казанлък ИРМ Казанлък","phone":"+359 431 682 47;+359 88 294 5551","opening_hours":"Mo-Fr 08:30-12:00,13:00-17:15","brand":"Central Cooperative Bank","brand:wikidata":"Q2944755"},"coordinates":[42.618504,25.390713]},"dist":60.502,"tags_mismatch":true},{"osm":{"type":"node","id":5023020469,"tags":{"amenity":"bank","brand":"Централна Кооперативна Банка","brand:wikidata":"Q2944755","short_name:bg":"ЦКБ","short_name:en":"CCBank"},"wikidata":"Q2944755","coordinates":[42.6193425,25.3918366]},"atp":{"id":"QaBdgby6ZCd-GlEuZCaO9lUyP-Y=","tags":{"ref":"1384803","amenity":"bank","short_name:bg":"ЦКБ","short_name:en":"CCBank","addr:full":"ул.\"Рила\" 8","addr:city":"Казанлък","addr:country":"BG","name":"ЦКБ АД Клон Казанлък","phone":"+359 431 682 46;+359 88 811 3267","opening_hours":"Mo-Fr 08:30-17:15","brand":"Central Cooperative Bank","brand:wikidata":"Q2944755"},"coordinates":[42.619064,25.391958]},"dist":32.522,"tags_mismatch":true},{"osm":{"type":"node","id":5228193723,"tags":{"amenity":"bank","brand":"Централна Кооперативна Банка","brand:wikidata":"Q2944755","short_name:bg":"ЦКБ","short_name:en":"CCBank"},"wikidata":"Q2944755","coordinates":[43.2193949,27.9374565]},"atp":{"id":"hK0i6uFFB01BdtTBuHTd1Q9rYlw=","tags":{"ref":"1384753","amenity":"bank","short_name:bg":"ЦКБ","short_name:en":"CCBank","addr:full":"ж.к.\"Чайка\" бл.28","addr:city":"Варна","addr:country":"BG","name":"Варна Офис Чайка","phone":"+359 52 300 081;+359 88 463 8215","opening_hours":"Mo-Fr 08:30-12:30,13:30-17:30","brand":"Central Cooperative Bank","brand:wikidata":"Q2944755"},"coordinates":[43.219279,27.937288]},"dist":18.775,"tags_mismatch":true},{"osm":{"type":"node","id":5348988421,"tags":{"amenity":"bank","brand":"Централна Кооперативна Банка","brand:wikidata":"Q2944755","check_date:opening_hours":"2021-09-18","opening_hours":"Mo-Fr 08:30-17:00","short_name":"ЦКБ","short_name:bg":"ЦКБ","short_name:en":"CCBank","website":"https://www.ccbank.bg/","wheelchair":"limited"},"wikidata":"Q2944755","coordinates":[42.6973221,23.3166623]},"atp":{"id":"vFwVMfvkW-PqNqxODvy_VnVI4QE=","tags":{"ref":"1384774","amenity":"bank","short_name:bg":"ЦКБ","short_name:en":"CCBank","addr:full":"бул.\"Ал.Стамболийски\" 47","addr:city":"София","addr:country":"BG","name":"ВъзражданеОфАлСтамболийски","phone":"+359 2 980 54 01;+359884646297","opening_hours":"Mo-Fr 08:30-12:00,12:30-17:00","brand":"Central Cooperative Bank","brand:wikidata":"Q2944755"},"coordinates":[42.697351,23.316774]},"dist":9.678,"tags_mismatch":true},{"osm":{"type":"node","id":5531173621,"tags":{"addr:city":"София","addr:country":"BG","addr:housenumber":"77","addr:postcode":"1606","addr:street":"бул. Ген. Скобелев","amenity":"bank","atm":"yes","branch":"Възраждане Офис Р.Паметник","brand":"Централна Кооперативна Банка","brand:wikidata":"Q2944755","opening_hours":"Mo-Fr 08:30-12:00,12:30-19:00","phone":"+359 2 951 6531","short_name":"ЦКБ","short_name:bg":"ЦКБ","short_name:en":"CCBank","website":"https://www.ccbank.bg/","wheelchair":"yes"},"wikidata":"Q2944755","coordinates":[42.6917081,23.3108498]},"atp":{"id":"r0Qz2_giWjgSQf-jH3bAXxsJ3Mg=","tags":{"ref":"1384776","amenity":"bank","short_name:bg":"ЦКБ","short_name:en":"CCBank","addr:full":"бул.\"Ген.Михаил Д.Скобелев\" 77","addr:city":"София","addr:country":"BG","name":"Възраждане Офис Р.Паметник","phone":"+359 2 951 65 31;+359884652209","opening_hours":"Mo-Fr 08:30-12:00,12:30-17:00","brand":"Central Cooperative Bank","brand:wikidata":"Q2944755"},"coordinates":[42.691849,23.310834]},"dist":15.72,"tags_mismatch":true},{"osm":{"type":"node","id":5634656876,"tags":{"amenity":"bank","brand":"Централна Кооперативна Банка","brand:wikidata":"Q2944755","short_name:bg":"ЦКБ","short_name:en":"CCBank"},"wikidata":"Q2944755","coordinates":[43.8238551,27.1409821]},"atp":{"id":"jjwWieffGMUSiLYUOVdxoa6zzGg=","tags":{"ref":"1384711","amenity":"bank","short_name:bg":"ЦКБ","short_name:en":"CCBank","addr:full":"бул.\"България\" 4","addr:city":"Асеновград","addr:country":"BG","name":"Асеновград ИРМ Запад","phone":"+359 33 168 695;+359 88 463 9879","opening_hours":"Mo-Fr 08:30-13:00,14:00-17:00","brand":"Central Cooperative Bank","brand:wikidata":"Q2944755"},"coordinates":[42.022205,24.859926]},"tags_mismatch":true},{"osm":{"type":"node","id":5652144658,"tags":{"amenity":"bank","brand":"Централна Кооперативна Банка","brand:wikidata":"Q2944755","short_name:bg":"ЦКБ","short_name:en":"CCBank"},"wikidata":"Q2944755","coordinates":[43.137975,24.7182534]},"atp":{"id":"AV7_iwOURJvbA8k9L2WPtXq4tFs=","tags":{"ref":"1384826","amenity":"bank","short_name:bg":"ЦКБ","short_name:en":"CCBank","addr:full":"ул.\"Академик А.Иширков\" 10","addr:city":"Ловеч","addr:country":"BG","name":"ЦКБ АД Клон Ловеч","phone":"+359 68 600 565;+359 88 512 8427","opening_hours":"Mo-Fr 08:30-17:30","brand":"Central Cooperative Bank","brand:wikidata":"Q2944755"},"coordinates":[43.137904,24.718201]},"dist":8.967,"tags_mismatch":true},{"osm":{"type":"node","id":5682623301,"tags":{"amenity":"bank","atm":"yes","brand":"Централна Кооперативна Банка","brand:wikidata":"Q2944755","short_name:bg":"ЦКБ","short_name:en":"CCBank"},"wikidata":"Q2944755","coordinates":[43.2034792,27.9057871]},"atp":{"id":"khkav5qy9U-1e_ecCVY0npHqS2g=","tags":{"ref":"1384750","amenity":"bank","short_name:bg":"ЦКБ","short_name:en":"CCBank","addr:full":"ул.\"Русе\" 59","addr:city":"Варна","addr:country":"BG","name":"Варна Офис  Мадара","phone":"+359 52 604 445;+359 88 463 8942","opening_hours":"Mo-Fr 08:30-12:30,13:30-17:30","brand":"Central Cooperative Bank","brand:wikidata":"Q2944755"},"coordinates":[43.203463,27.905753]},"dist":3.299,"tags_mismatch":true},{"osm":{"type":"node","id":5775855807,"tags":{"addr:housenumber":"103","addr:postcode":"1000","addr:street":"Георги С. Раковски","amenity":"bank","atm":"yes","brand":"Централна Кооперативна Банка","brand:wikidata":"Q2944755","contact:phone":"+359 2 926 6107","opening_hours":"Mo-Fr 08:30-19:00","short_name":"ЦКБ","short_name:bg":"ЦКБ","short_name:en":"CCBank","website":"https://www.ccbank.bg/"},"wikidata":"Q2944755","coordinates":[42.6989141,23.3299707]},"atp":{"id":"2co4MSdfvenKFeuNUrY0_G9pSOI=","tags":{"ref":"1384916","amenity":"bank","short_name:bg":"ЦКБ","short_name:en":"CCBank","addr:full":"ул. Г. С. Раковски 103","addr:city":"София","addr:country":"BG","name":"ЦКБ АД Клон София град","phone":"+359 2 926 6114;+35988266934","opening_hours":"Mo-Fr 08:30-17:00","brand":"Central Cooperative Bank","brand:wikidata":"Q2944755"},"coordinates":[42.6987646,23.3298272]},"dist":20.344,"tags_mismatch":true},{"osm":{"type":"node","id":5787094253,"tags":{"addr:city":"Борино","addr:street":"197","amenity":"bank","brand":"Централна Кооперативна Банка","brand:wikidata":"Q2944755","short_name:bg":"ЦКБ","short_name:en":"CCBank"},"wikidata":"Q2944755","coordinates":[41.6834909,24.2919403]},"atp":{"id":"FUzaQwT0ZTDp99U9yVuBwR1zprs=","tags":{"ref":"1384915","amenity":"bank","short_name:bg":"ЦКБ","short_name:en":"CCBank","addr:full":"ул.\"Родопи\" 58","addr:city":"Борино","addr:country":"BG","name":"Смолян Офис  Борино","phone":"+359 30 898 700;+359 88 706 8813","opening_hours":"Mo-Fr 08:30-12:00,13:00-17:00","brand":"Central Cooperative Bank","brand:wikidata":"Q2944755"},"coordinates":[41.6840477,24.2930311]},"dist":109.721,"tags_mismatch":true},{"osm":{"type":"node","id":5894700241,"tags":{"amenity":"bank","branch":"АД","brand":"Централна Кооперативна Банка","brand:wikidata":"Q2944755","name:ro":"Tsentralna Kooperativna Banka AD","short_name:bg":"ЦКБ","short_name:en":"CCBank"},"wikidata":"Q2944755","coordinates":[43.8281682,23.2358836]},"atp":{"id":"LBcnnq8A37KgqBj8fgfJlxn564A=","tags":{"ref":"1384844","amenity":"bank","short_name:bg":"ЦКБ","short_name:en":"CCBank","addr:full":"ул.\"Дунавска\" 18","addr:city":"Лом","addr:country":"BG","name":"Монтана Офис Лом","phone":"+359 97 160 219;+359 88 464 5512","opening_hours":"Mo-Fr 08:30-12:30,13:30-17:00","brand":"Central Cooperative Bank","brand:wikidata":"Q2944755"},"coordinates":[43.828396,23.23527]},"dist":55.357,"tags_mismatch":true},{"osm":{"type":"node","id":5911813959,"tags":{"addr:city":"София","addr:housenumber":"152","addr:street":"бул. Сливница","amenity":"bank","atm":"yes","brand":"Централна Кооперативна Банка","brand:wikidata":"Q2944755","contact:phone":"+359 2 923 4841","opening_hours":"Mo-Fr 08:30-17:30","short_name":"ЦКБ","short_name:bg":"ЦКБ","short_name:en":"CCBank","website":"https://www.ccbank.bg/"},"wikidata":"Q2944755","coordinates":[42.7049491,23.3184525]},"atp":{"id":"MK68OtKgUBNXk_KS_JOVUBnasaU=","tags":{"ref":"1384712","amenity":"bank","short_name:bg":"ЦКБ","short_name:en":"CCBank","addr:full":"ул.\"Цар Иван Асен II\" 6","addr:city":"Асеновград","addr:country":"BG","name":"Асеновград ИРМ Районен съд","phone":"+359 33 121 132;+359 88 463 9158","opening_hours":"Mo-Fr 08:30-12:30,13:00-16:45","brand":"Central Cooperative Bank","brand:wikidata":"Q2944755"},"coordinates":[42.019745,24.878492]},"tags_mismatch":true},{"osm":{"type":"node","id":6235734655,"tags":{"amenity":"bank","brand":"Централна Кооперативна Банка","brand:wikidata":"Q2944755","short_name:bg":"ЦКБ","short_name:en":"CCBank"},"wikidata":"Q2944755","coordinates":[42.6501545,26.9846429]},"atp":{"id":"2JxOHYjRm5oNOCukc0h_e4l_JWQ=","tags":{"ref":"1384724","amenity":"bank","short_name:bg":"ЦКБ","short_name:en":"CCBank","addr:full":"ул.\"Патриарх Евтимий\" 2","addr:city":"Карнобат","addr:country":"BG","name":"Бургас Офис Карнобат","phone":"+359 55 924 836;+359 88 260 8555","opening_hours":"Mo-Fr 08:30-12:30,13:30-17:00","brand":"Central Cooperative Bank","brand:wikidata":"Q2944755"},"coordinates":[42.650311,26.981327]},"dist":271.746,"tags_mismatch":true},{"osm":{"type":"node","id":6357572977,"tags":{"addr:housenumber":"5","addr:postcode":"1606","addr:street":"бул. Пенчо Славейков","amenity":"bank","brand":"Централна Кооперативна Банка","brand:wikidata":"Q2944755","opening_hours":"Mo-Fr 08:30-17:00","short_name":"ЦКБ","short_name:bg":"ЦКБ","short_name:en":"CCBank","website":"https://www.ccbank.bg/"},"wikidata":"Q2944755","coordinates":[42.6891967,23.307886]},"atp":{"id":"7mdusdH9cBBn-wTpLYay0LOLXQo=","tags":{"ref":"1384964","amenity":"bank","short_name:bg":"ЦКБ","short_name:en":"CCBank","addr:full":"бул.\"Пенчо Славейков\" 5","addr:city":"София","addr:country":"BG","name":"Централен Офис Пирогов","phone":"+359 2 953 3852;+359884651124","opening_hours":"Mo-Fr 08:30-12:00,12:30-17:00","brand":"Central Cooperative Bank","brand:wikidata":"Q2944755"},"coordinates":[42.689106,23.307855]},"dist":10.399,"tags_mismatch":true},{"osm":{"type":"node","id":6473932027,"tags":{"addr:housenumber":"18","addr:street":"Гургулят","amenity":"bank","atm":"yes","branch":"Централен","brand":"Централна Кооперативна Банка","brand:wikidata":"Q2944755","opening_hours":"Mo-Fr 08:30-17:00","phone":"+359 2 926 3054","short_name":"ЦКБ","short_name:bg":"ЦКБ","short_name:en":"CCBank","website":"https://www.ccbank.bg/","wheelchair":"yes"},"wikidata":"Q2944755","coordinates":[42.687818,23.3218342]},"atp":{"id":"SB99FFmuMzvUI5F7sOksO3UlAkU=","tags":{"ref":"1384959","amenity":"bank","short_name:bg":"ЦКБ","short_name:en":"CCBank","addr:full":"ул.\"Гургулят\" 18","addr:city":"София","addr:country":"BG","name":"ЦКБ АД Клон Централен","phone":"+359 2 92 63 054;+359885113983","opening_hours":"Mo-Fr 08:30-12:30,13:00-17:00","brand":"Central Cooperative Bank","brand:wikidata":"Q2944755"},"coordinates":[42.687934,23.321628]},"dist":21.223,"tags_mismatch":true},{"osm":{"type":"node","id":6499305036,"tags":{"addr:housenumber":"57","addr:street":"бул. Евлоги и Христо Георгиеви","amenity":"bank","atm":"yes","brand":"Централна Кооперативна Банка","brand:wikidata":"Q2944755","contact:phone":"+359 2 988 5025","opening_hours":"Mo-Fr 08:30-17:00","short_name":"ЦКБ","short_name:bg":"ЦКБ","short_name:en":"CCBank","website":"https://www.ccbank.bg/"},"wikidata":"Q2944755","coordinates":[42.6859618,23.3284459]},"atp":{"id":"5GGFL-XR0dskkMdhefJijnKuk4w=","tags":{"ref":"1384963","amenity":"bank","short_name:bg":"ЦКБ","short_name:en":"CCBank","addr:full":"бул.\"Евлоги и Христо Георгиеви\" 57-59","addr:city":"София","addr:country":"BG","name":"ЦентраленОфис Евл.Георгиев","phone":"+359 2 98 85 025;+359884650585","opening_hours":"Mo-Fr 08:30-12:00,12:30-17:00","brand":"Central Cooperative Bank","brand:wikidata":"Q2944755"},"coordinates":[42.68593,23.328522]},"dist":7.155,"tags_mismatch":true},{"osm":{"type":"node","id":6512748828,"tags":{"amenity":"bank","atm":"yes","brand":"Централна Кооперативна Банка","brand:wikidata":"Q2944755","opening_hours":"Mo-Fr 08:30-17:00","short_name":"ЦКБ","short_name:bg":"ЦКБ","short_name:en":"CCBank","website":"https://www.ccbank.bg/","wheelchair":"limited"},"wikidata":"Q2944755","coordinates":[42.6972396,23.3146186]},"atp":{"id":"Z2LMM5PzDEZMfMIIFAzsSC4q844=","tags":{"ref":"1384773","amenity":"bank","short_name:bg":"ЦКБ","short_name:en":"CCBank","addr:full":"пл.\"Възраждане\" 3","addr:city":"София","addr:country":"BG","name":"ЦКБ АД Клон Възраждане","phone":"+359 2 923 48 20;+359884642899","opening_hours":"Mo-Fr 08:30-13:00,13:30-17:00","brand":"Central Cooperative Bank","brand:wikidata":"Q2944755"},"coordinates":[42.697314,23.314471]},"dist":14.627,"tags_mismatch":true},{"osm":{"type":"node","id":6544465924,"tags":{"addr:housenumber":"11","addr:place":"Бизнес Парк София","amenity":"bank","branch":"Клон Младост","brand":"Централна Кооперативна Банка","brand:wikidata":"Q2944755","check_date":"2022-12-08","opening_hours":"Mo-Fr 08:30-17:00","payment:mastercard":"yes","payment:visa":"yes","short_name":"ЦКБ","short_name:bg":"ЦКБ","short_name:en":"CCBank","website":"https://www.ccbank.bg/","wheelchair":"yes"},"wikidata":"Q2944755","coordinates":[42.6267028,23.3768711]},"atp":{"id":"qJjyM922a7Sn4ejZmr9tRgpFJP8=","tags":{"ref":"1384840","amenity":"bank","short_name:bg":"ЦКБ","short_name:en":"CCBank","addr:full":"ж.к.\"Младост\" 4, ул.\"Бизнес парк София\" 1, сграда 11","addr:city":"София","addr:country":"BG","name":"Младост Офис Бизнес парк София","phone":"+359 2 974 38 81;+359884689340","opening_hours":"Mo-Fr 08:30-12:00,12:30-17:00","brand":"Central Cooperative Bank","brand:wikidata":"Q2944755"},"coordinates":[42.6267918,23.376617]},"dist":23.025,"tags_mismatch":true},{"osm":{"type":"node","id":6593179159,"tags":{"amenity":"bank","brand":"Централна Кооперативна Банка","brand:wikidata":"Q2944755","short_name:bg":"ЦКБ","short_name:en":"CCBank"},"wikidata":"Q2944755","coordinates":[42.7002548,24.180614]},"atp":{"id":"_gq46Xjvqf4xwP6hK7WdNOljm3Y=","tags":{"ref":"1384713","amenity":"bank","short_name:bg":"ЦКБ","short_name:en":"CCBank","addr:full":"ж.к.\"Тракия\", ул.\"Съединение\" 45","addr:city":"Пловдив","addr:country":"BG","name":"Асеновград Офис Тракия","phone":"+359 33 120 630;+359 88 970 3025","opening_hours":"Mo-Fr 08:30-12:00,13:00-17:00","brand":"Central Cooperative Bank","brand:wikidata":"Q2944755"},"coordinates":[42.131543,24.794597]},"tags_mismatch":true},{"osm":{"type":"node","id":6732322710,"tags":{"addr:city":"Хасково","addr:housenumber":"1","addr:postcode":"6300","addr:street":"Скопие","amenity":"bank","atm":"yes","brand":"Централна Кооперативна Банка","brand:wikidata":"Q2944755","short_name:bg":"ЦКБ","short_name:en":"CCBank"},"wikidata":"Q2944755","coordinates":[41.9335891,25.5551046]},"atp":{"id":"06y4-DZIVuILRDR2KK8yp-QSgwg=","tags":{"ref":"1384950","amenity":"bank","short_name:bg":"ЦКБ","short_name:en":"CCBank","addr:full":"ул.\"Скопие\" 1","addr:city":"Хасково","addr:country":"BG","name":"ЦКБ АД Клон Хасково","phone":"+359 38 607 830;+359 88 515 5633","opening_hours":"Mo-Fr 08:30-17:00","brand":"Central Cooperative Bank","brand:wikidata":"Q2944755"},"coordinates":[41.933491,25.555016]},"dist":13.142,"tags_mismatch":true},{"osm":{"type":"node","id":6734818436,"tags":{"amenity":"bank","atm":"yes","brand":"Централна Кооперативна Банка","brand:wikidata":"Q2944755","short_name:bg":"ЦКБ","short_name:en":"CCBank"},"wikidata":"Q2944755","coordinates":[43.5729164,27.8263486]},"atp":{"id":"bRDQ8WHIWrwL_UPzblKdU4BLfMg=","tags":{"ref":"1384788","amenity":"bank","short_name:bg":"ЦКБ","short_name:en":"CCBank","addr:full":"бул.\"Добруджа\" 32А, ет.1","addr:city":"Добрич","addr:country":"BG","name":"Добрич Офис Добруджа","phone":"+359 58 653 662;+359 88 474 1294","opening_hours":"Mo-Fr 08:30-12:00,13:00-17:00","brand":"Central Cooperative Bank","brand:wikidata":"Q2944755"},"coordinates":[43.572868,27.826332]},"dist":5.545,"tags_mismatch":true},{"osm":{"type":"node","id":6915573255,"tags":{"amenity":"bank","atm":"yes","brand":"Централна Кооперативна Банка","brand:wikidata":"Q2944755","short_name:bg":"ЦКБ","short_name:en":"CCBank"},"wikidata":"Q2944755","coordinates":[42.310874,23.765131]},"atp":{"id":"5oarWhLuh3Os4M1BjHk4OSQFI2c=","tags":{"ref":"1384815","amenity":"bank","short_name:bg":"ЦКБ","short_name:en":"CCBank","addr:full":"ул.\"Търговска\" 93","addr:city":"Долна Баня","addr:country":"BG","name":"Костенец Офис Долна баня","phone":"+359 71 202 297;+359 88 463 4938","opening_hours":"Mo-Fr 08:30-12:00,13:00-15:30","brand":"Central Cooperative Bank","brand:wikidata":"Q2944755"},"coordinates":[42.310829,23.766003]},"dist":71.878,"tags_mismatch":true},{"osm":{"type":"node","id":7523087506,"tags":{"amenity":"bank","atm":"yes","brand":"Централна Кооперативна Банка","brand:wikidata":"Q2944755","short_name:bg":"ЦКБ","short_name:en":"CCBank"},"wikidata":"Q2944755","coordinates":[42.6544847,23.4005272]},"atp":{"id":"DY-mwPzTX1GuSqE2Wzshn9y5nCk=","tags":{"ref":"1384917","amenity":"bank","short_name:bg":"ЦКБ","short_name:en":"CCBank","addr:full":"бул.\"Цветан Лазаров\" - пред бл.209","addr:city":"София","addr:country":"BG","name":"София град ИРМ Дружба 2","phone":"+359 2 978 5075;+35988265364","opening_hours":"Mo-Fr 08:30-17:00","brand":"Central Cooperative Bank","brand:wikidata":"Q2944755"},"coordinates":[42.654739,23.399923]},"dist":56.93,"tags_mismatch":true},{"osm":{"type":"node","id":7638357073,"tags":{"amenity":"bank","brand":"Централна Кооперативна Банка","brand:wikidata":"Q2944755","short_name:bg":"ЦКБ","short_name:en":"CCBank"},"wikidata":"Q2944755","coordinates":[42.9598947,23.3487858]},"atp":{"id":"_79jwbPz7v86HipCFZ9t1UqKDrQ=","tags":{"ref":"1384714","amenity":"bank","short_name:bg":"ЦКБ","short_name:en":"CCBank","addr:full":"ул.\"Васил Левски\" 13","addr:city":"Благоевград","addr:country":"BG","name":"ЦКБ АД Клон Благоевград","phone":"+359 73 882 963;+359 88 464 2965","opening_hours":"Mo-Fr 08:30-17:30","brand":"Central Cooperative Bank","brand:wikidata":"Q2944755"},"coordinates":[42.015221,23.093128]},"tags_mismatch":true},{"osm":{"type":"node","id":7828771386,"tags":{"amenity":"bank","brand":"Централна Кооперативна Банка","brand:wikidata":"Q2944755","short_name:bg":"ЦКБ","short_name:en":"CCBank"},"wikidata":"Q2944755","coordinates":[43.1084908,26.4168546]},"atp":{"id":"y1wjiTEUXsJgf1678Rr1zIkvUKE=","tags":{"ref":"1384715","amenity":"bank","short_name:bg":"ЦКБ","short_name:en":"CCBank","addr:full":"бул.\"Свобода\" 13","addr:city":"Сандански","addr:country":"BG","name":"Благоевград Офис Сандански","phone":"+359 74 632 488;+359 88 464 3319","opening_hours":"Mo-Fr 08:30-17:30","brand":"Central Cooperative Bank","brand:wikidata":"Q2944755"},"coordinates":[41.559189,23.275385]},"tags_mismatch":true},{"osm":{"type":"node","id":8199059302,"tags":{"addr:housenumber":"1","addr:street":"пл. Николай Гяуров","amenity":"bank","brand":"Централна Кооперативна Банка","brand:wikidata":"Q2944755","check_date":"2023-02-18","internet_access":"no","opening_hours":"Mo-Fr 08:30-17:00","payment:mastercard":"yes","payment:visa":"yes","short_name:bg":"ЦКБ","short_name:en":"CCBank","wheelchair":"no"},"wikidata":"Q2944755","coordinates":[42.0279092,23.9911169]},"atp":{"id":"YteG3lRAak6zym1Bi94za6BXlPQ=","tags":{"ref":"1384854","amenity":"bank","short_name:bg":"ЦКБ","short_name:en":"CCBank","addr:full":"пл.\"Николай Гяуров\"","addr:city":"Велинград","addr:country":"BG","name":"Пазарджик Офис Велинград","phone":"+359 35 973 000;+359 88 464 3368","opening_hours":"Mo-Fr 08:30-12:00,13:00-17:00","brand":"Central Cooperative Bank","brand:wikidata":"Q2944755"},"coordinates":[42.027405,23.991835]},"dist":81.617,"tags_mismatch":true},{"osm":{"type":"node","id":8399156643,"tags":{"amenity":"bank","brand":"Централна Кооперативна Банка","brand:wikidata":"Q2944755","short_name:bg":"ЦКБ","short_name:en":"CCBank"},"wikidata":"Q2944755","coordinates":[42.158757,24.7436491]},"atp":{"id":"TtwIZs_CI-RmrrJB4mAAZiy0Y3M=","tags":{"ref":"1384881","amenity":"bank","short_name:bg":"ЦКБ","short_name:en":"CCBank","addr:full":"бул.\"България\" 31","addr:city":"Пловдив","addr:country":"BG","name":"ПловдивБ-я офис България","phone":"+359 32 921 115;+359 88 462 1507","opening_hours":"Mo-Fr 08:30-12:00,12:30-17:00","brand":"Central Cooperative Bank","brand:wikidata":"Q2944755"},"coordinates":[42.158786,24.743718]},"dist":6.531,"tags_mismatch":true},{"osm":{"type":"node","id":9005027006,"tags":{"amenity":"bank","atm":"yes","brand":"Централна Кооперативна Банка","brand:wikidata":"Q2944755","short_name:bg":"ЦКБ","short_name:en":"CCBank"},"wikidata":"Q2944755","coordinates":[42.7137037,27.7598454]},"atp":{"id":"ejSGRX8aHlLo7tS5iDwuofSwQBk=","tags":{"ref":"1384716","amenity":"bank","short_name:bg":"ЦКБ","short_name:en":"CCBank","addr:full":"ул.\"Христо Ботев \" 5","addr:city":"Разлог","addr:country":"BG","name":"Благоевград Офис Разлог","phone":"+359 74 780 034;+359 88 464 8729","opening_hours":"Mo-Fr 08:30-17:30","brand":"Central Cooperative Bank","brand:wikidata":"Q2944755"},"coordinates":[41.8862509,23.4675313]},"tags_mismatch":true},{"osm":{"type":"node","id":10001057496,"tags":{"amenity":"bank","brand":"Централна Кооперативна Банка","brand:wikidata":"Q2944755","opening_hours":"Mo-Fr 08:30-12:00, 13:00-17:00","short_name:bg":"ЦКБ","short_name:en":"CCBank"},"wikidata":"Q2944755","coordinates":[42.1001684,27.938808]},"atp":{"id":"Gk3_Gw4fOhEo3kntLHPFlT0WRi4=","tags":{"ref":"1384976","amenity":"bank","short_name:bg":"ЦКБ","short_name:en":"CCBank","addr:full":"ул.\"Свети Никола\" 44","addr:city":"Ахтопол","addr:country":"BG","name":"Черно Море Офис Ахтопол","phone":"+359 55 026 378;+359 88 225 1549","opening_hours":"Mo-Fr 09:00-12:00,13:00-16:30","brand":"Central Cooperative Bank","brand:wikidata":"Q2944755"},"coordinates":[42.1001,27.9388]},"dist":7.634,"tags_mismatch":true},{"osm":{"type":"node","id":10155528326,"tags":{"amenity":"bank","brand":"Централна Кооперативна Банка","brand:wikidata":"Q2944755","short_name:bg":"ЦКБ","short_name:en":"CCBank"},"wikidata":"Q2944755","coordinates":[42.6687738,23.3943349]},"atp":{"id":"Ti_dXqhIsZeHNCYGShNf0j0_Wp0=","tags":{"ref":"1384920","amenity":"bank","short_name:bg":"ЦКБ","short_name:en":"CCBank","addr:full":"жк.\"Дружба\" 1, ул.\"5030\" 6","addr:city":"София","addr:country":"BG","name":"София град Офис Дружба1","phone":"+359 2 926 6175;+35988266923","opening_hours":"Mo-Fr 08:30-17:00","brand":"Central Cooperative Bank","brand:wikidata":"Q2944755"},"coordinates":[42.668861,23.39514]},"dist":66.535,"tags_mismatch":true},{"osm":{"type":"node","id":10159552952,"tags":{"amenity":"bank","brand":"Централна Кооперативна Банка","brand:wikidata":"Q2944755","short_name:bg":"ЦКБ","short_name:en":"CCBank"},"wikidata":"Q2944755","coordinates":[41.8334915,24.8304051]},"atp":{"id":"nLk5mBMdkJeNqXGJ3irEpeyCSsc=","tags":{"ref":"1384717","amenity":"bank","short_name:bg":"ЦКБ","short_name:en":"CCBank","addr:full":"ул.\"Рокфелер\" 52 А","addr:city":"Петрич","addr:country":"BG","name":"Благоевград Офис Петрич","phone":"+359 74 521 180;+359 88 464 6098","opening_hours":"Mo-Fr 08:30-12:00,13:00-17:30","brand":"Central Cooperative Bank","brand:wikidata":"Q2944755"},"coordinates":[41.39798,23.204617]},"tags_mismatch":true},{"osm":{"type":"node","id":10249380857,"tags":{"amenity":"bank","brand":"Централна Кооперативна Банка","brand:wikidata":"Q2944755","level":"1","short_name:bg":"ЦКБ","short_name:en":"CCBank"},"wikidata":"Q2944755","coordinates":[42.6604179,23.382342]},"atp":{"id":"2XzjNROZtvAIU5bWky1mhlSVBtg=","tags":{"ref":"1384842","amenity":"bank","short_name:bg":"ЦКБ","short_name:en":"CCBank","addr:full":"бул.\"Цариградско шосе\" 115з ет.1","addr:city":"София","addr:country":"BG","name":"Младост Офис The Mall","phone":"+359 2 892 48 91;+359884231578","opening_hours":"Mo-Fr 10:00-14:00,14:30-21:00; Sa-Su 10:00-14:00,15:00-21:00","brand":"Central Cooperative Bank","brand:wikidata":"Q2944755"},"coordinates":[42.6605727,23.3820425]},"dist":29.934,"tags_mismatch":true},{"osm":{"type":"node","id":10311293157,"tags":{"amenity":"bank","atm":"yes","brand":"Централна Кооперативна Банка","brand:wikidata":"Q2944755","short_name:bg":"ЦКБ","short_name:en":"CCBank"},"wikidata":"Q2944755","coordinates":[42.6086727,25.5449644]},"atp":{"id":"1n61keZj4i2U3AYfPogZ4Hv7j4w=","tags":{"ref":"1384804","amenity":"bank","short_name:bg":"ЦКБ","short_name:en":"CCBank","addr:full":"пл. 3-ти Март 11","addr:city":"Мъглиж","addr:country":"BG","name":"Казанлък Офис Мъглиж","phone":"+359 432 120 82;+359 88 814 2867","opening_hours":"Mo-Fr 08:30-13:00,14:00-17:00","brand":"Central Cooperative Bank","brand:wikidata":"Q2944755"},"coordinates":[42.607876,25.545874]},"dist":115.713,"tags_mismatch":true},{"osm":{"type":"node","id":10944112335,"tags":{"amenity":"bank","brand":"Централна Кооперативна Банка","brand:wikidata":"Q2944755","short_name:bg":"ЦКБ","short_name:en":"CCBank"},"wikidata":"Q2944755","coordinates":[43.0253538,24.1005032]},"atp":{"id":"WtTZZa2pTyC9cgVVyyVwzjAVcpM=","tags":{"ref":"1384827","amenity":"bank","short_name:bg":"ЦКБ","short_name:en":"CCBank","addr:full":"пл.\"Възраждане\" 5","addr:city":"Ябланица","addr:country":"BG","name":"Ловеч Офис Ябланица","phone":"+359 69 912 112;+359 88 209 4839","opening_hours":"Mo-Fr 08:30-12:00,13:00-17:15","brand":"Central Cooperative Bank","brand:wikidata":"Q2944755"},"coordinates":[43.025543,24.100183]},"dist":33.468,"tags_mismatch":true},{"osm":{"type":"node","id":11139567188,"tags":{"amenity":"bank","brand":"Централна Кооперативна Банка","brand:wikidata":"Q2944755","short_name:bg":"ЦКБ","short_name:en":"CCBank"},"wikidata":"Q2944755","coordinates":[42.6590231,23.2423922]},"atp":{"id":"7kM93rIKKitXovt0ttLV7IQxVe0=","tags":{"ref":"1384930","amenity":"bank","short_name:bg":"ЦКБ","short_name:en":"CCBank","addr:full":"бул.\"Цар Борис\" ІІІ 357","addr:city":"София","addr:country":"BG","name":"София Юг Офис Княжево","phone":"+359 2 923 47 55;+359882689526","opening_hours":"Mo-Fr 08:30-12:00,12:30-17:00","brand":"Central Cooperative Bank","brand:wikidata":"Q2944755"},"coordinates":[42.658391,23.2394152]},"dist":253.382,"tags_mismatch":true},{"osm":{"type":"node","id":11373290813,"tags":{"amenity":"bank","brand":"Централна Кооперативна Банка","brand:wikidata":"Q2944755","short_name:bg":"ЦКБ","short_name:en":"CCBank"},"wikidata":"Q2944755","coordinates":[43.7005175,28.0375443]},"atp":{"id":"qkQTyhx6Hj97aQJRGY42hb8RVfM=","tags":{"ref":"1384786","amenity":"bank","short_name:bg":"ЦКБ","short_name:en":"CCBank","addr:full":"ул.\"3-ти март\" 2","addr:city":"Генерал Тошево","addr:country":"BG","name":"Добрич Офис Генерал Тошево","phone":"+359 57 312 044;+359 88 465 7097","opening_hours":"Mo-Fr 08:30-12:30,13:30-17:00","brand":"Central Cooperative Bank","brand:wikidata":"Q2944755"},"coordinates":[43.7005434,28.0375595]},"dist":3.128,"tags_mismatch":true},{"osm":{"type":"node","id":11610218947,"tags":{"amenity":"bank","brand":"Централна Кооперативна Банка","brand:wikidata":"Q2944755","check_date:opening_hours":"2024-02-25","opening_hours:signed":"no","short_name:bg":"ЦКБ","short_name:en":"CCBank"},"wikidata":"Q2944755","coordinates":[42.6723262,23.3227782]},"atp":{"id":"lU9W4WDnu9QKfXfqyeBgmPNbA_E=","tags":{"ref":"1384966","amenity":"bank","short_name:bg":"ЦКБ","short_name:en":"CCBank","addr:full":"ул.\"Джеймс Баучер\" 51","addr:city":"София","addr:country":"BG","name":"Централен ОфисЕнергопроект","phone":"+359 2 926 3070;+35988264904","opening_hours":"Mo-Fr 08:30-12:30,13:00-19:00","brand":"Central Cooperative Bank","brand:wikidata":"Q2944755"},"coordinates":[42.6729857,23.3243423]},"dist":147.408,"tags_mismatch":true},{"osm":{"type":"node","id":11677257636,"tags":{"amenity":"bank","brand":"Централна Кооперативна Банка","brand:wikidata":"Q2944755","level":"0","opening_hours":"Mo-Fr 08:30-17:00","short_name:bg":"ЦКБ","short_name:en":"CCBank"},"wikidata":"Q2944755","coordinates":[42.6702209,23.2767802]},"atp":{"id":"r4h95GfvD21nJMotddQ3Jsq6OvY=","tags":{"ref":"1384929","amenity":"bank","short_name:bg":"ЦКБ","short_name:en":"CCBank","addr:full":"бул.\"Братя Бъкстон\" 24","addr:city":"София","addr:country":"BG","name":"София Юг Офис Борово","phone":"+359 2 818 80 78;+359884171484","opening_hours":"Mo-Fr 08:30-12:00,12:30-17:00","brand":"Central Cooperative Bank","brand:wikidata":"Q2944755"},"coordinates":[42.670341,23.276833]},"dist":14.035,"tags_mismatch":true},{"osm":{"type":"node","id":11955093183,"tags":{"amenity":"bank","atm":"yes","brand":"Централна Кооперативна Банка","brand:wikidata":"Q2944755","opening_hours":"Mo-Fr 08:30-12:30, 13:30-17:00","short_name:bg":"ЦКБ","short_name:en":"CCBank"},"wikidata":"Q2944755","coordinates":[43.2165134,27.9118587]},"atp":{"id":"LTC8dA5Z8lWAkLmcwg2ZLAKQKKQ=","tags":{"ref":"1384748","amenity":"bank","short_name:bg":"ЦКБ","short_name:en":"CCBank","addr:full":"бул.\"Цар освободител\" 76Г","addr:city":"Варна","addr:country":"BG","name":"Варна Офис  Проектантска","phone":"+359 52 600 365;+359 88 464 5352","opening_hours":"Mo-Fr 08:30-12:30,13:00-17:00","brand":"Central Cooperative Bank","brand:wikidata":"Q2944755"},"coordinates":[43.216399,27.91195]},"dist":14.716,"tags_mismatch":true},{"osm":{"type":"node","id":12026739463,"tags":{"addr:city":"Равда","amenity":"bank","atm":"yes","brand":"Централна Кооперативна Банка","brand:wikidata":"Q2944755","short_name:bg":"ЦКБ","short_name:en":"CCBank"},"wikidata":"Q2944755","coordinates":[42.6448445,27.6773388]},"atp":{"id":"D0oekAMSZn_47qr6rsh4kaFrTF8=","tags":{"ref":"1384852","amenity":"bank","short_name:bg":"ЦКБ","short_name:en":"CCBank","addr:full":"ул.\"Св.Св.Кирил и Методий\" 18","addr:city":"Равда","addr:country":"BG","name":"Несебър Офис Равда","phone":"+359 55 466 289;+359 88 464 9033","opening_hours":"Mo-Fr 08:30-12:00,13:00-17:00","brand":"Central Cooperative Bank","brand:wikidata":"Q2944755"},"coordinates":[42.645634,27.676662]},"dist":103.784,"tags_mismatch":true},{"osm":{"type":"node","id":12157807245,"tags":{"amenity":"bank","brand":"Централна Кооперативна Банка","brand:wikidata":"Q2944755","short_name:bg":"ЦКБ","short_name:en":"CCBank"},"wikidata":"Q2944755","coordinates":[42.7003944,23.2989817]},"atp":{"id":"9wJpEoltITfS0FjYXSypAVHggz0=","tags":{"ref":"1384777","amenity":"bank","short_name:bg":"ЦКБ","short_name:en":"CCBank","addr:full":"бул.\"Ал.Стамболийски\" 156","addr:city":"София","addr:country":"BG","name":"Възраждане Офис Читалище Аура","phone":"+359 2 812 87 59;+359885116265","opening_hours":"Mo-Fr 08:30-12:00,12:30-17:00","brand":"Central Cooperative Bank","brand:wikidata":"Q2944755"},"coordinates":[42.700317,23.29908]},"dist":11.773,"tags_mismatch":true},{"osm":{"type":"way","id":148870991,"tags":{"amenity":"bank","brand":"Централна Кооперативна Банка","brand:wikidata":"Q2944755","building":"yes","short_name:bg":"ЦКБ"},"wikidata":"Q2944755","coordinates":[42.140693,24.7419666]},"atp":{"id":"ZIqqsdFYwRuBmQcFriGrYBC3yEk=","tags":{"ref":"1384880","amenity":"bank","short_name:bg":"ЦКБ","short_name:en":"CCBank","addr:full":"бул.\"Руски\" 54","addr:city":"Пловдив","addr:country":"BG","name":"Пловдив Б-я Офис МОЛ Марково тепе","phone":"+359 32 921 124;+359 88 829 3960","opening_hours":"Mo-Su 10:00-14:00,14:30-21:00","brand":"Central Cooperative Bank","brand:wikidata":"Q2944755"},"coordinates":[42.141142,24.741432]},"dist":66.6,"tags_mismatch":true},{"osm":{"type":"way","id":186440205,"tags":{"addr:city":"Добрич","addr:country":"BG","addr:housenumber":"47","addr:street":"бул. 3-ти март","amenity":"bank","brand":"Централна Кооперативна Банка","brand:wikidata":"Q2944755","building":"yes","short_name:bg":"ЦКБ","short_name:en":"CCBank"},"wikidata":"Q2944755","coordinates":[43.561025,27.8092464]},"atp":{"id":"nHbAUQNlACXlQXOjkgPimrRX1yI=","tags":{"ref":"1384718","amenity":"bank","short_name:bg":"ЦКБ","short_name:en":"CCBank","addr:full":"ул.\"Бяло море\" 13","addr:city":"Гоце Делчев","addr:country":"BG","name":"БлагоевградОфис ГоцеДелчев","phone":"+359 75 160 205'+359884647418","opening_hours":"Mo-Fr 08:30-13:30,14:30-17:30","brand":"Central Cooperative Bank","brand:wikidata":"Q2944755"},"coordinates":[41.571392,23.729202]},"tags_mismatch":true},{"osm":{"type":"way","id":465376534,"tags":{"addr:city":"Китен","addr:housenumber":"21","addr:postcode":"8183","addr:street":"Бриз","amenity":"bank","brand":"Централна Кооперативна Банка","brand:wikidata":"Q2944755","building":"yes","building:levels":"3","short_name:bg":"ЦКБ","short_name:en":"CCBank"},"wikidata":"Q2944755","coordinates":[42.2362025,27.7770327]},"atp":{"id":"3cedGAVjMPAG00vrCeepakbOvmU=","tags":{"ref":"1384719","amenity":"bank","short_name:bg":"ЦКБ","short_name:en":"CCBank","addr:full":"ул.\"Стражите\" 8, х-л Астера","addr:city":"Банско","addr:country":"BG","name":"Благоевград ИРМ Астера","phone":"+359 74 950 487;+359 88 474 2635","opening_hours":"Mo-Fr 08:30-12:00,13:00-17:30","brand":"Central Cooperative Bank","brand:wikidata":"Q2944755"},"coordinates":[41.82614,23.480906]},"tags_mismatch":true},{"osm":{"type":"way","id":469466296,"tags":{"addr:city":"Габрово","addr:housenumber":"54","addr:postcode":"5306","addr:street":"Брянска","addr:street:en":"Bryanska","addr:suburb":"Център","addr:suburb:en":"Centre","amenity":"bank","brand":"Централна Кооперативна Банка","brand:wikidata":"Q2944755","building":"yes","building:levels":"4","check_date":"2005-09-12","note:cadastre:building_use":"Друг вид производствена, складова, инфраструктурна сграда","note:cadastre:id":"14218.504.460.1","short_name:bg":"ЦКБ","short_name:en":"CCBank","source:addr":"http://gis.gabrovo.bg:6080/arcgis/rest/services/BaseMap/MapServer/0","source:addr:date":"2017-01-12","source:addr:ref":"4947","source:geometry":"http://gis.gabrovo.bg:6080/arcgis/rest/services/BaseMap/MapServer/7","source:geometry:date":"2017-01-12","source:geometry:ref":"384100"},"wikidata":"Q2944755","coordinates":[42.8781125,25.3176952]},"atp":{"id":"3sQpL9AbK8bWKTKjxlNrE9K-Ovk=","tags":{"ref":"1384781","amenity":"bank","short_name:bg":"ЦКБ","short_name:en":"CCBank","addr:full":"ул.\"Брянска\" 54","addr:city":"Габрово","addr:country":"BG","name":"ЦКБ АД Клон Габрово","phone":"+359 66 817 021;+359 88 465 8481","opening_hours":"Mo-Fr 08:30-17:00","brand":"Central Cooperative Bank","brand:wikidata":"Q2944755"},"coordinates":[42.87841,25.317801]},"dist":34.185,"tags_mismatch":true},{"osm":{"type":"way","id":504227465,"tags":{"amenity":"bank","brand":"Централна Кооперативна Банка","brand:wikidata":"Q2944755","building":"yes","short_name":"ЦКБ","short_name:en":"CCB","website":"https://www.ccbank.bg/","wheelchair":"yes"},"wikidata":"Q2944755","coordinates":[42.8096771,23.2017723]},"atp":{"id":"zzU7CfvDGom1Dvcez3-U27FjRuk=","tags":{"ref":"1384720","amenity":"bank","short_name:bg":"ЦКБ","short_name:en":"CCBank","addr:full":"ул.\"Владо Черноземски\" 3","addr:city":"Благоевград","addr:country":"BG","name":"Благоевград Първо РУП Благоевград","phone":"+359 73 588 651;+359 88 474 2645","opening_hours":"Mo-Fr 08:30-13:00,14:00-17:30","brand":"Central Cooperative Bank","brand:wikidata":"Q2944755"},"coordinates":[42.0180117,23.0930733]},"tags_mismatch":true},{"osm":{"type":"way","id":640834651,"tags":{"addr:housenumber":"16","addr:street":"Габрово","amenity":"bank","atm":"yes","brand":"Централна Кооперативна Банка","brand:wikidata":"Q2944755","building":"office","building:levels":"3","height":"8","roof:levels":"1","short_name:bg":"ЦКБ","short_name:en":"CCBank"},"wikidata":"Q2944755","coordinates":[43.1995289,27.9133117]},"atp":{"id":"XnqRIT3NwOIPu1q9Up_6B6qZXio=","tags":{"ref":"1384736","amenity":"bank","short_name:bg":"ЦКБ","short_name:en":"CCBank","addr:full":"ул.\"Цар Симеон 1\" 31","addr:city":"Варна","addr:country":"BG","name":"Варна ИРМ \"Цар Симеон І\"","phone":"+359 52 608 501;+359 88 464 6930","opening_hours":"Mo-Fr 08:30-12:30,13:30-17:30","brand":"Central Cooperative Bank","brand:wikidata":"Q2944755"},"coordinates":[43.199585,27.913073]},"dist":20.329,"tags_mismatch":true},{"osm":{"type":"way","id":705486739,"tags":{"addr:city":"Хасково","addr:housenumber":"3","addr:postcode":"6300","addr:street":"България","amenity":"bank","atm":"yes","brand":"Централна Кооперативна Банка","brand:wikidata":"Q2944755","building":"commercial","drive_through":"no","level":"0","opening_hours":"Mo-Fr 08:30-12:00, 13:00-17:00","short_name:bg":"ЦКБ","short_name:en":"CCBank","website":"https://www.ccbank.bg/"},"wikidata":"Q2944755","coordinates":[41.9307424,25.5531034]},"atp":{"id":"jdM1qEjIGRIROm13bhF0GZGln-o=","tags":{"ref":"1384955","amenity":"bank","short_name:bg":"ЦКБ","short_name:en":"CCBank","addr:full":"бул.\"България\" 3 - над реката","addr:city":"Хасково","addr:country":"BG","name":"Хасково Офис Хасково 2","phone":"+359 38 585 129;+359 88 518 1656","opening_hours":"Mo-Fr 08:30-12:00,13:00-17:00","brand":"Central Cooperative Bank","brand:wikidata":"Q2944755"},"coordinates":[41.93108,25.553185]},"dist":38.141,"tags_mismatch":true},{"osm":false,"atp":{"id":"RPPqXKgEsSoTRCKUcJvumgVqqvY=","tags":{"ref":"1384721","amenity":"bank","short_name:bg":"ЦКБ","short_name:en":"CCBank","addr:full":"ул.\"Димитър Солунски\" 110","addr:city":"Благоевград","addr:country":"BG","name":"Благоевград КАТ Благоевград","phone":"+359 73 588 652;+359 88 474 3600","opening_hours":"Mo-Fr 08:30-12:00,13:00-17:30","brand":"Central Cooperative Bank","brand:wikidata":"Q2944755"},"coordinates":[42.0020011,23.0924307]},"tags_mismatch":false,"dist":0},{"osm":false,"atp":{"id":"d9vFk-p8d59QuwmXPS4tGioUYAI=","tags":{"ref":"1384722","amenity":"bank","short_name:bg":"ЦКБ","short_name:en":"CCBank","addr:full":"ул.\"Александър Стамболийски\" 5","addr:city":"Сатовча","addr:country":"BG","name":"Благоевград Офис Сатовча","phone":"+359 73 586 284;+359 88 474 1394","opening_hours":"Mo-Fr 08:30-12:00,13:00-17:30","brand":"Central Cooperative Bank","brand:wikidata":"Q2944755"},"coordinates":[41.618926,23.9746201]},"tags_mismatch":false,"dist":0},{"osm":false,"atp":{"id":"xFBQ1AC21G4fuYrInrz9I4g8ZuE=","tags":{"ref":"1384725","amenity":"bank","short_name:bg":"ЦКБ","short_name:en":"CCBank","addr:full":"ул.\"Митрополит Симеон\" 12","addr:city":"Бургас","addr:country":"BG","name":"Бургас Офис Митрополит Симеон","phone":"+359 56 879 683;+359 88 464 4947","opening_hours":"Mo-Fr 08:30-17:00","brand":"Central Cooperative Bank","brand:wikidata":"Q2944755"},"coordinates":[42.4927776,27.4743323]},"tags_mismatch":false,"dist":0},{"osm":false,"atp":{"id":"E_YUgjumumE8xHpC2Rk4W6-Xdpk=","tags":{"ref":"1384726","amenity":"bank","short_name:bg":"ЦКБ","short_name:en":"CCBank","addr:full":"ж.к.\"Славейков\" бл.107","addr:city":"Бургас","addr:country":"BG","name":"Бургас Офис Славейков","phone":"+359 56 581 301;+359 88 464 9120","opening_hours":"Mo-Fr 08:30-12:30,13:30-17:00","brand":"Central Cooperative Bank","brand:wikidata":"Q2944755"},"coordinates":[42.518318,27.452721]},"tags_mismatch":false,"dist":0},{"osm":false,"atp":{"id":"Qy0cNNBVl1g-Uv9dmDNAe_2LhTg=","tags":{"ref":"1384727","amenity":"bank","short_name:bg":"ЦКБ","short_name:en":"CCBank","addr:full":"ул.\"Богориди\" 6","addr:city":"Айтос","addr:country":"BG","name":"Бургас Офис  Айтос","phone":"+359 55 829 041;+359 88 417 2089","opening_hours":"Mo-Fr 08:30-12:30,13:30-17:00","brand":"Central Cooperative Bank","brand:wikidata":"Q2944755"},"coordinates":[42.703945,27.252777]},"tags_mismatch":false,"dist":0},{"osm":false,"atp":{"id":"uwKNLogKe1TiVlm2B2q33ME3E-g=","tags":{"ref":"1384728","amenity":"bank","short_name:bg":"ЦКБ","short_name:en":"CCBank","addr:full":"бул.\"Демокрация\" бл.117 партер","addr:city":"Бургас","addr:country":"BG","name":"Бургас ИРМ Демокрация","phone":"+359 56 530 269;+359 88 464 1973","opening_hours":"Mo-Fr 08:30-12:30,13:30-17:00","brand":"Central Cooperative Bank","brand:wikidata":"Q2944755"},"coordinates":[42.505627,27.472237]},"tags_mismatch":false,"dist":0},{"osm":false,"atp":{"id":"rtUD9TtF6G3IwV0CRuSJxQwY10U=","tags":{"ref":"1384729","amenity":"bank","short_name:bg":"ЦКБ","short_name:en":"CCBank","addr:full":"ж.к.\"Меден рудник\" бл.294 партер","addr:city":"Бургас","addr:country":"BG","name":"Бургас Офис Меден рудник","phone":"+359 56 850 314;+359 88 464 5615","opening_hours":"Mo-Fr 08:30-12:30,13:30-17:00","brand":"Central Cooperative Bank","brand:wikidata":"Q2944755"},"coordinates":[42.454739,27.418442]},"tags_mismatch":false,"dist":0},{"osm":false,"atp":{"id":"J36C5i2SD0jV6HGMDESQ4_A-6tY=","tags":{"ref":"1384730","amenity":"bank","short_name:bg":"ЦКБ","short_name:en":"CCBank","addr:full":"Летище Бургас - Терминал 2","addr:city":"Бургас","addr:country":"BG","name":"Бургас ИРМ Летище Бургас","phone":"+359 56 850 119;+359 88 262 3476","opening_hours":"Mo-Fr 09:00-14:00,14:30-17:00","brand":"Central Cooperative Bank","brand:wikidata":"Q2944755"},"coordinates":[42.5666342,27.518131]},"tags_mismatch":false,"dist":0},{"osm":false,"atp":{"id":"6PY1US9TJTY24ufR-MzSFFxzlVk=","tags":{"ref":"1384731","amenity":"bank","short_name:bg":"ЦКБ","short_name:en":"CCBank","addr:full":"ул.\"Янко Комитов\" 6","addr:city":"Бургас","addr:country":"BG","name":"Бургас ИРМ МОЛ Галерия","phone":"+359 56 879 687;+359 88 762 4561","opening_hours":"Mo-Su 09:30-14:00,14:30-21:00","brand":"Central Cooperative Bank","brand:wikidata":"Q2944755"},"coordinates":[42.5158961,27.4499505]},"tags_mismatch":false,"dist":0},{"osm":false,"atp":{"id":"I1tJdxQsrz57cbh71ER2fGh8AWQ=","tags":{"ref":"1384732","amenity":"bank","short_name:bg":"ЦКБ","short_name:en":"CCBank","addr:full":"бул.\"Стефан Стамболов\" 120","addr:city":"Бургас","addr:country":"BG","name":"Бургас ИРМ СГКК","phone":"+359 56 874 506;+359 88 762 4561","opening_hours":"Mo-Fr 09:00-13:30,14:00-17:30","brand":"Central Cooperative Bank","brand:wikidata":"Q2944755"},"coordinates":[42.73,25.48]},"tags_mismatch":false,"dist":0},{"osm":false,"atp":{"id":"L15X9mSAC8fivwL_v87FwBbafO8=","tags":{"ref":"1384735","amenity":"bank","short_name:bg":"ЦКБ","short_name:en":"CCBank","addr:full":"бул.\"Сливница\" 72","addr:city":"Варна","addr:country":"BG","name":"Варна ИРМ ЦКБ - Лизинг","phone":"+359 52 602 411;+359 88 464 2502","opening_hours":"Mo-Fr 08:30-12:30,13:30-17:30","brand":"Central Cooperative Bank","brand:wikidata":"Q2944755"},"coordinates":[43.210483,27.912401]},"tags_mismatch":false,"dist":0},{"osm":false,"atp":{"id":"Wx3NMsHs_x5j23KLxuCY9T5jyFs=","tags":{"ref":"1384737","amenity":"bank","short_name:bg":"ЦКБ","short_name:en":"CCBank","addr:full":"бул.\"Владислав Варненчик\" 277","addr:city":"Варна","addr:country":"BG","name":"Варна ИРМ Елпром","phone":"+359 52 509 671;+359 88 464 1176","opening_hours":"Mo-Fr 08:30-12:30,13:00-17:00","brand":"Central Cooperative Bank","brand:wikidata":"Q2944755"},"coordinates":[43.221668,27.872765]},"tags_mismatch":false,"dist":0},{"osm":false,"atp":{"id":"MOZnGgvRYm-O3mZ1-ynj4dM6t4o=","tags":{"ref":"1384738","amenity":"bank","short_name:bg":"ЦКБ","short_name:en":"CCBank","addr:full":"бул.\"Осми Приморски Полк\" 43","addr:city":"Варна","addr:country":"BG","name":"Варна ИРМ Община Варна","phone":"+359 52 660 069;+359 88 463 5481","opening_hours":"Mo-Fr 08:30-12:30,13:30-17:30","brand":"Central Cooperative Bank","brand:wikidata":"Q2944755"},"coordinates":[43.20763,27.916937]},"tags_mismatch":false,"dist":0},{"osm":false,"atp":{"id":"NALLXTZL0JkWWRD5YJBsa5H8SAo=","tags":{"ref":"1384739","amenity":"bank","short_name:bg":"ЦКБ","short_name:en":"CCBank","addr:full":"ул.\"Академик Курчатов\" 1","addr:city":"Варна","addr:country":"BG","name":"Варна ИРМ Варна Плод","phone":"+359 52 500 491;+359 88 264 4949","opening_hours":"Mo-Fr 08:30-12:30","brand":"Central Cooperative Bank","brand:wikidata":"Q2944755"},"coordinates":[43.217216,27.886133]},"tags_mismatch":false,"dist":0},{"osm":false,"atp":{"id":"zsHKRX-a8PCdr-ihFXVagEgQWRQ=","tags":{"ref":"1384742","amenity":"bank","short_name:bg":"ЦКБ","short_name:en":"CCBank","addr:full":"ул.\"Шипка\" 23","addr:city":"Варна","addr:country":"BG","name":"Варна Офис ЦКБ Трезор","phone":"+359 52 600 072;+359 88 464 2294","opening_hours":"Mo-Fr 08:30-12:30,13:30-17:30","brand":"Central Cooperative Bank","brand:wikidata":"Q2944755"},"coordinates":[43.205241,27.915007]},"tags_mismatch":false,"dist":0},{"osm":false,"atp":{"id":"glRkZcRijzkpY8zoRRbG7NmX-Vo=","tags":{"ref":"1384743","amenity":"bank","short_name:bg":"ЦКБ","short_name:en":"CCBank","addr:full":"Централен площад","addr:city":"Провадия","addr:country":"BG","name":"Варна Офис Провадия","phone":"+359 51 847 110;+359 88 464 1929","opening_hours":"Mo-Fr 08:30-12:30,13:30-17:30","brand":"Central Cooperative Bank","brand:wikidata":"Q2944755"},"coordinates":[43.177549,27.443216]},"tags_mismatch":false,"dist":0},{"osm":false,"atp":{"id":"gmNPJDfZhQYvBgTrTbpgyYT2JfQ=","tags":{"ref":"1384745","amenity":"bank","short_name:bg":"ЦКБ","short_name:en":"CCBank","addr:full":"Летище Варна терминал 3","addr:city":"Варна","addr:country":"BG","name":"Варна ИРМ Летище - Варна","phone":"+359 52 730 450;+359 88 464 6250","opening_hours":"Mo-Fr 09:00-13:30,14:30-18:00","brand":"Central Cooperative Bank","brand:wikidata":"Q2944755"},"coordinates":[43.235653,27.828091]},"tags_mismatch":false,"dist":0},{"osm":false,"atp":{"id":"fmiroHIuPVAq49zrChvlQcwHaPE=","tags":{"ref":"1384746","amenity":"bank","short_name:bg":"ЦКБ","short_name:en":"CCBank","addr:full":"ул.\"Приморска\" 8","addr:city":"Балчик","addr:country":"BG","name":"Варна Офис  Балчик","phone":"+359 57 972 232;+359 88 464 1325","opening_hours":"Mo-Fr 08:30-12:30,13:30-17:30","brand":"Central Cooperative Bank","brand:wikidata":"Q2944755"},"coordinates":[43.405827,28.161607]},"tags_mismatch":false,"dist":0},{"osm":false,"atp":{"id":"XpfCdetJo5AuAUlvJh_WwbFjSZE=","tags":{"ref":"1384747","amenity":"bank","short_name:bg":"ЦКБ","short_name:en":"CCBank","addr:full":"ул.\"Георги Бенковски\" 16","addr:city":"Варна","addr:country":"BG","name":"Варна Офис  Бенковски","phone":"+359 52 600 067;+359 88 464 4126","opening_hours":"Mo-Fr 08:30-12:30,13:30-17:30","brand":"Central Cooperative Bank","brand:wikidata":"Q2944755"},"coordinates":[43.209362,27.910027]},"tags_mismatch":false,"dist":0},{"osm":false,"atp":{"id":"FdlGcAO23O3l9rQ11ydMpEEtk7g=","tags":{"ref":"1384751","amenity":"bank","short_name:bg":"ЦКБ","short_name:en":"CCBank","addr:full":"ул. \"Г. Димитров\" 101А","addr:city":"Дългопол","addr:country":"BG","name":"Варна Офис Дългопол","phone":"+359 51 722 000;+359 88 464 2158","opening_hours":"Mo-Fr 08:30-12:30,13:30-17:30","brand":"Central Cooperative Bank","brand:wikidata":"Q2944755"},"coordinates":[43.050075,27.343918]},"tags_mismatch":false,"dist":0},{"osm":false,"atp":{"id":"i4hrinCrLf3Ix1DC293WrurnJF4=","tags":{"ref":"1384754","amenity":"bank","short_name:bg":"ЦКБ","short_name:en":"CCBank","addr:full":"бул.\"Света Елена\" 26","addr:city":"Варна","addr:country":"BG","name":"Варна Офис Владиславово","phone":"+359 52 510 409;+359 88 464 5174","opening_hours":"Mo-Fr 08:30-12:30,13:30-17:30","brand":"Central Cooperative Bank","brand:wikidata":"Q2944755"},"coordinates":[43.2464104,27.8496648]},"tags_mismatch":false,"dist":0},{"osm":false,"atp":{"id":"LATzNHpUDa_rKA0Osi12f7bZESA=","tags":{"ref":"1384755","amenity":"bank","short_name:bg":"ЦКБ","short_name:en":"CCBank","addr:full":"бул.\"Владислав Варненчик\" 270","addr:city":"Варна","addr:country":"BG","name":"Варна Офис Хоум Макс","phone":"+359 52 660 028;+359 88 488 5971","opening_hours":"Mo-Fr 13:30-17:00","brand":"Central Cooperative Bank","brand:wikidata":"Q2944755"},"coordinates":[42.73,25.48]},"tags_mismatch":false,"dist":0},{"osm":false,"atp":{"id":"dta0oiNSGgKcGAPtqd0gJ8au7RM=","tags":{"ref":"1384756","amenity":"bank","short_name:bg":"ЦКБ","short_name:en":"CCBank","addr:full":"пл.\"Капитан Петко Войвода\" 2Б","addr:city":"Аксаково","addr:country":"BG","name":"Варна Офис Аксаково","phone":"+359 52 660 008;+359 88 491 8980","opening_hours":"Mo-Fr 08:30-12:30,13:30-17:30","brand":"Central Cooperative Bank","brand:wikidata":"Q2944755"},"coordinates":[43.2583,27.8169]},"tags_mismatch":false,"dist":0},{"osm":false,"atp":{"id":"d0SMvGJYaU2T3qRcSYR6luTWJfw=","tags":{"ref":"1384757","amenity":"bank","short_name:bg":"ЦКБ","short_name:en":"CCBank","addr:full":"бул.\"Княз Борис I \" 63","addr:city":"Варна","addr:country":"BG","name":"Варна Офис Графит Галери","phone":"+359 52 660 048","opening_hours":"Mo-Fr 08:30-12:30,13:30-17:30","brand":"Central Cooperative Bank","brand:wikidata":"Q2944755"},"coordinates":[43.2073,27.9217]},"tags_mismatch":false,"dist":0},{"osm":false,"atp":{"id":"-kY_dJ1B8_VkbhtKsganUrOUba0=","tags":{"ref":"1384759","amenity":"bank","short_name:bg":"ЦКБ","short_name:en":"CCBank","addr:full":"ул.\"Росица\" 115","addr:city":"Сухиндол","addr:country":"BG","name":"В.Търново Офис Сухиндол","phone":"+359 61 362 959;+359 88 261 8301","opening_hours":"Mo-Fr 08:30-12:00,13:00-17:00","brand":"Central Cooperative Bank","brand:wikidata":"Q2944755"},"coordinates":[43.185795,25.166458]},"tags_mismatch":false,"dist":0},{"osm":false,"atp":{"id":"orQGRycBPoiCMxN1VuTj3O6t4Ck=","tags":{"ref":"1384760","amenity":"bank","short_name:bg":"ЦКБ","short_name:en":"CCBank","addr:full":"ул.\"Св. Княз Борис I\" 10","addr:city":"Горна Оряховица","addr:country":"BG","name":"В.Търново Офис Г.Оряховица","phone":"+359 61 860 243;+359 88 262 4237","opening_hours":"Mo-Fr 08:30-17:00","brand":"Central Cooperative Bank","brand:wikidata":"Q2944755"},"coordinates":[43.124386,25.694618]},"tags_mismatch":false,"dist":0},{"osm":false,"atp":{"id":"rKq9mcIE7m9Np2l2kooyhp-bmAc=","tags":{"ref":"1384761","amenity":"bank","short_name:bg":"ЦКБ","short_name:en":"CCBank","addr:full":"ул.\"Иларион Макариополски\" 1","addr:city":"Елена","addr:country":"BG","name":"В.Търново Офис Елена","phone":"+359 61 519 400;+359 88 460 1417","opening_hours":"Mo-Fr 08:30-12:00,13:00-17:00","brand":"Central Cooperative Bank","brand:wikidata":"Q2944755"},"coordinates":[42.929569,25.876085]},"tags_mismatch":false,"dist":0},{"osm":false,"atp":{"id":"nNyjRCGm95jgvUlsDyTtd1P79wE=","tags":{"ref":"1384763","amenity":"bank","short_name:bg":"ЦКБ","short_name:en":"CCBank","addr:full":"ул.\"Търговска\" 88","addr:city":"Полски Тръмбеш","addr:country":"BG","name":"В.Търново Офис П.Тръмбеш","phone":"+359 61 415 056;+359 88 462 3105","opening_hours":"Mo-Fr 08:30-12:00,13:00-17:00","brand":"Central Cooperative Bank","brand:wikidata":"Q2944755"},"coordinates":[43.367622,25.634365]},"tags_mismatch":false,"dist":0},{"osm":false,"atp":{"id":"NUKxjeLWgQ8XPdBcPjSd42KjE84=","tags":{"ref":"1384764","amenity":"bank","short_name:bg":"ЦКБ","short_name:en":"CCBank","addr:full":"ул.\"Ст. Попстоянов\" 10","addr:city":"Златарица","addr:country":"BG","name":"В.Търново ИРМ Златарица","phone":"+359 61 535 520;+359 88 262 6693","opening_hours":"Mo-Fr 08:30-12:00,13:00-17:00","brand":"Central Cooperative Bank","brand:wikidata":"Q2944755"},"coordinates":[43.046375,25.890268]},"tags_mismatch":false,"dist":0},{"osm":false,"atp":{"id":"tDlzR7f82BGQ6zqiLOFeQM3Uuho=","tags":{"ref":"1384765","amenity":"bank","short_name:bg":"ЦКБ","short_name:en":"CCBank","addr:full":"ул.\"Цар Симеон Велики\" 1","addr:city":"Видин","addr:country":"BG","name":"ЦКБ АД Клон Видин","phone":"+359 94 600 152;+359 88 264 6614","opening_hours":"Mo-Fr 08:30-17:00","brand":"Central Cooperative Bank","brand:wikidata":"Q2944755"},"coordinates":[43.984661,22.876648]},"tags_mismatch":false,"dist":0},{"osm":false,"atp":{"id":"QEgTrOxfE0wiEYf4_FPdQU6PGy8=","tags":{"ref":"1384766","amenity":"bank","short_name:bg":"ЦКБ","short_name:en":"CCBank","addr:full":"ул.\"Академик Стефан Младенов\" 4","addr:city":"Видин","addr:country":"BG","name":"Видин ИРМ Общински пазар","phone":"+359 94 600 091;+359 88 264 9568","opening_hours":"Mo-Fr 08:30-13:00,14:00-17:00","brand":"Central Cooperative Bank","brand:wikidata":"Q2944755"},"coordinates":[43.9907,22.874372]},"tags_mismatch":false,"dist":0},{"osm":false,"atp":{"id":"RIWirmz-FnUMjMtRAmQfH9mdj6M=","tags":{"ref":"1384767","amenity":"bank","short_name:bg":"ЦКБ","short_name:en":"CCBank","addr:full":"ул.\"Лукашов\" 5","addr:city":"Враца","addr:country":"BG","name":"ЦКБ АД Клон Враца","phone":"+359 92 622 539;+359 88 264 8403","opening_hours":"Mo-Fr 08:30-17:00","brand":"Central Cooperative Bank","brand:wikidata":"Q2944755"},"coordinates":[43.204041,23.549259]},"tags_mismatch":false,"dist":0},{"osm":false,"atp":{"id":"WzUt7leQ8pkR6PI0dyvL8of5z6w=","tags":{"ref":"1384769","amenity":"bank","short_name:bg":"ЦКБ","short_name:en":"CCBank","addr:full":"жк 2А, бл.71, ет.1","addr:city":"Козлодуй","addr:country":"BG","name":"Враца Офис Козлодуй","phone":"+359 97 380 726;+359 88 465 0744","opening_hours":"Mo-Fr 08:30-13:00,14:00-17:00","brand":"Central Cooperative Bank","brand:wikidata":"Q2944755"},"coordinates":[43.777664,23.728292]},"tags_mismatch":false,"dist":0},{"osm":false,"atp":{"id":"x8w1NzYhSLOya6T1M05UWBd4fVw=","tags":{"ref":"1384770","amenity":"bank","short_name:bg":"ЦКБ","short_name:en":"CCBank","addr:full":"ул.\"Христо Ботев\" 30","addr:city":"Мездра","addr:country":"BG","name":"Враца Офис Мездра","phone":"+359 91 092 739;+359 88 465 1233","opening_hours":"Mo-Fr 08:30-12:30,13:30-17:00","brand":"Central Cooperative Bank","brand:wikidata":"Q2944755"},"coordinates":[43.142708,23.713346]},"tags_mismatch":false,"dist":0},{"osm":false,"atp":{"id":"C46iD5dV8Ek7SLmXqm7ajNevPVI=","tags":{"ref":"1384771","amenity":"bank","short_name:bg":"ЦКБ","short_name:en":"CCBank","addr:full":"ул.\"Димитър Благоев\" 76","addr:city":"Бяла Слатина","addr:country":"BG","name":"Враца Офис Бяла Слатина","phone":"+359 91 582 418;+359 88 465 0626","opening_hours":"Mo-Fr 08:30-12:30,13:30-17:00","brand":"Central Cooperative Bank","brand:wikidata":"Q2944755"},"coordinates":[43.473759,23.931999]},"tags_mismatch":false,"dist":0},{"osm":false,"atp":{"id":"X0OZ8tcbFEVsAW6vAbyccm0aVE0=","tags":{"ref":"1384772","amenity":"bank","short_name:bg":"ЦКБ","short_name:en":"CCBank","addr:full":"ул.\"Христо Ботев\" 35","addr:city":"Враца","addr:country":"BG","name":"Враца Офис Христо Ботев","phone":"+359 92 640 286;+359 88 464 7813","opening_hours":"Mo-Fr 08:30-13:00,14:00-17:00","brand":"Central Cooperative Bank","brand:wikidata":"Q2944755"},"coordinates":[43.205223,23.548304]},"tags_mismatch":false,"dist":0},{"osm":false,"atp":{"id":"ttzO4WsuQ6k8HWeEfGgamQ2dlHg=","tags":{"ref":"1384778","amenity":"bank","short_name:bg":"ЦКБ","short_name:en":"CCBank","addr:full":"ж.к.\"Кр.поляна, бул.\"Възкресение\" бл.132 А","addr:city":"София","addr:country":"BG","name":"Възраждане Офис Красна поляна","phone":"+359 2 920 15 40;+359884649954","opening_hours":"Mo-Fr 08:30-12:00,12:30-17:00","brand":"Central Cooperative Bank","brand:wikidata":"Q2944755"},"coordinates":[42.695847,23.286646]},"tags_mismatch":false,"dist":0},{"osm":false,"atp":{"id":"wCRKTLtecT4lj6v-nDUn5lyNjWo=","tags":{"ref":"1384780","amenity":"bank","short_name:bg":"ЦКБ","short_name:en":"CCBank","addr:full":"кв.\"Павлово\", ул.\"Мусала\" 1","addr:city":"София","addr:country":"BG","name":"Възраждане ИРМ АГКК","phone":"+359 2 923 48 23;+359884739766","opening_hours":"Mo-Fr 09:00-12:00,12:30-17:30","brand":"Central Cooperative Bank","brand:wikidata":"Q2944755"},"coordinates":[42.66787,23.268281]},"tags_mismatch":false,"dist":0},{"osm":false,"atp":{"id":"WbgEh9IL8XMAWmyLnhqQUu3Qb9M=","tags":{"ref":"1384782","amenity":"bank","short_name:bg":"ЦКБ","short_name:en":"CCBank","addr:full":"ул.\"Шипка\" 144","addr:city":"Дряново","addr:country":"BG","name":"Габрово Офис Дряново","phone":"+359 67 675 530;+359 88 465 0817","opening_hours":"Mo-Fr 08:30-13:15,14:15-17:00","brand":"Central Cooperative Bank","brand:wikidata":"Q2944755"},"coordinates":[42.977463,25.463133]},"tags_mismatch":false,"dist":0},{"osm":false,"atp":{"id":"CcxpmLJrTidY_w8EE2NBZj_d5XM=","tags":{"ref":"1384784","amenity":"bank","short_name:bg":"ЦКБ","short_name:en":"CCBank","addr:full":"ул.\"България\" 65","addr:city":"Каварна","addr:country":"BG","name":"Добрич Офис Каварна","phone":"+359 57 085 053;+359 88 464 6051","opening_hours":"Mo-Fr 08:30-17:00","brand":"Central Cooperative Bank","brand:wikidata":"Q2944755"},"coordinates":[43.4357195,28.3388696]},"tags_mismatch":false,"dist":0},{"osm":false,"atp":{"id":"t3VSSwhHfFju-La0LNy7wFK9XCY=","tags":{"ref":"1384785","amenity":"bank","short_name:bg":"ЦКБ","short_name:en":"CCBank","addr:full":"ул.\"Св. Св. Кирил и Методий\" 6","addr:city":"Тервел","addr:country":"BG","name":"Добрич Офис Тервел","phone":"+359 57 513 004;+359 88 267 9502","opening_hours":"Mo-Fr 08:30-12:30,13:30-17:00","brand":"Central Cooperative Bank","brand:wikidata":"Q2944755"},"coordinates":[43.747753,27.406425]},"tags_mismatch":false,"dist":0},{"osm":false,"atp":{"id":"rBLdIvWAPLBhu2-XVnkYfCxKnEo=","tags":{"ref":"1384787","amenity":"bank","short_name:bg":"ЦКБ","short_name:en":"CCBank","addr:full":"бул.\"Добруджа\" 28","addr:city":"Добрич","addr:country":"BG","name":"Добрич ИРМ СГКК","phone":"+359 58 653 658;+359 88 474 0902","opening_hours":"Mo-Fr 09:00-12:00,13:00-17:30","brand":"Central Cooperative Bank","brand:wikidata":"Q2944755"},"coordinates":[43.572929,27.828481]},"tags_mismatch":false,"dist":0},{"osm":false,"atp":{"id":"PJDbZKps0tNfIzO5WnklPnKWFx8=","tags":{"ref":"1384789","amenity":"bank","short_name:bg":"ЦКБ","short_name:en":"CCBank","addr:full":"ул.\"Максим Горки\" 12","addr:city":"Добрич","addr:country":"BG","name":"Добрич ИРМ БДС и Миграция","phone":"+359 58 653 654;+359 88 474 2412","opening_hours":"Mo-Fr 08:30-12:00,13:00-17:00","brand":"Central Cooperative Bank","brand:wikidata":"Q2944755"},"coordinates":[43.564604,27.827403]},"tags_mismatch":false,"dist":0},{"osm":false,"atp":{"id":"FvmjyB9jvSTZOLQhx2isyQXt3go=","tags":{"ref":"1384790","amenity":"bank","short_name:bg":"ЦКБ","short_name:en":"CCBank","addr:full":"бул.\"Добруджа\" 8","addr:city":"Добрич","addr:country":"BG","name":"Добрич ИРМ КАТ","phone":"+359 58 653 659;+359 88 474 0969","opening_hours":"Mo-Fr 08:30-12:00,13:00-17:00","brand":"Central Cooperative Bank","brand:wikidata":"Q2944755"},"coordinates":[43.568785,27.845733]},"tags_mismatch":false,"dist":0},{"osm":false,"atp":{"id":"pMoVv9lUSD1YPrlua3zZbYFFPDM=","tags":{"ref":"1384792","amenity":"bank","short_name:bg":"ЦКБ","short_name:en":"CCBank","addr:full":"бул.\"Цветан Лазаров\" 13","addr:city":"София","addr:country":"BG","name":"Дондуков Офис Борса","phone":"+359 2 80 72 888;+359884658029","opening_hours":"Mo-Fr 08:30-17:00","brand":"Central Cooperative Bank","brand:wikidata":"Q2944755"},"coordinates":[42.679169,23.384142]},"tags_mismatch":false,"dist":0},{"osm":false,"atp":{"id":"zRXb4N6gtinPvNWgOogQZMTZXNo=","tags":{"ref":"1384794","amenity":"bank","short_name:bg":"ЦКБ","short_name:en":"CCBank","addr:full":"бул.\"Ген.М.Д.Скобелев\" 23","addr:city":"София","addr:country":"BG","name":"Дондуков ИРМ ЕСРС","phone":"+359 2 40 51 558;+359882651080","opening_hours":"Mo-Fr 08:30-17:00","brand":"Central Cooperative Bank","brand:wikidata":"Q2944755"},"coordinates":[42.6875793,23.314361]},"tags_mismatch":false,"dist":0},{"osm":false,"atp":{"id":"GLNAJ845hyNzHXNi_Tt5ci555cA=","tags":{"ref":"1384795","amenity":"bank","short_name:bg":"ЦКБ","short_name:en":"CCBank","addr:full":"бул.\"Княгиня Мария-Луиза\" 48","addr:city":"София","addr:country":"BG","name":"Дондуков ИРМ Миграция","phone":"+359 2 92 34 721;+359884649073","opening_hours":"Mo-Fr 08:30-17:00","brand":"Central Cooperative Bank","brand:wikidata":"Q2944755"},"coordinates":[42.7023804,23.3231717]},"tags_mismatch":false,"dist":0},{"osm":false,"atp":{"id":"Nq01uj0T4VIn6_sS7K4HAR-_NiU=","tags":{"ref":"1384796","amenity":"bank","short_name:bg":"ЦКБ","short_name:en":"CCBank","addr:full":"бул.\"Цар Борис III\" 54","addr:city":"София","addr:country":"BG","name":"Дондуков ИРМ СРС Цар Борис III","phone":"+359 2 98 67 142;+359884741860","opening_hours":"Mo-Fr 08:30-17:00","brand":"Central Cooperative Bank","brand:wikidata":"Q2944755"},"coordinates":[42.684059,23.33215]},"tags_mismatch":false,"dist":0},{"osm":false,"atp":{"id":"irp7Vk9Kv2EuKJds4Uwupn89ykQ=","tags":{"ref":"1384800","amenity":"bank","short_name:bg":"ЦКБ","short_name:en":"CCBank","addr:full":"бул.\"Симеоновско шосе\" 85 З вх.А","addr:city":"София","addr:country":"BG","name":"ДървеницаОфСимеоновскоШосе","phone":"+359 2 923 4743;+359888108996","opening_hours":"Mo-Fr 08:30-12:00,12:30-17:00","brand":"Central Cooperative Bank","brand:wikidata":"Q2944755"},"coordinates":[42.643133,23.33418]},"tags_mismatch":false,"dist":0},{"osm":false,"atp":{"id":"mU7IuL4avtrICM_1M1ip-6RNEW4=","tags":{"ref":"1384801","amenity":"bank","short_name:bg":"ЦКБ","short_name:en":"CCBank","addr:full":"бул.\"Руски\" 92","addr:city":"Етрополе","addr:country":"BG","name":"ЦКБ АД Клон Етрополе","phone":"+359 72 063 683;+359 88 560 9385","opening_hours":"Mo-Fr 08:30-17:30","brand":"Central Cooperative Bank","brand:wikidata":"Q2944755"},"coordinates":[42.832329,23.995836]},"tags_mismatch":false,"dist":0},{"osm":false,"atp":{"id":"XWmQE6msAzot5KIDAUYVwbqcJOc=","tags":{"ref":"1384806","amenity":"bank","short_name:bg":"ЦКБ","short_name:en":"CCBank","addr:full":"ул.\"Освобождение\" 9","addr:city":"Павел Баня","addr:country":"BG","name":"Казанлък Офис Павел баня","phone":"+359 436 130 20;+359 88 265 4268","opening_hours":"Mo-Fr 08:30-13:00,14:00-17:00","brand":"Central Cooperative Bank","brand:wikidata":"Q2944755"},"coordinates":[42.597229,25.209332]},"tags_mismatch":false,"dist":0},{"osm":false,"atp":{"id":"zeCCISZH60YF_8f7dyxV01bUiN4=","tags":{"ref":"1384807","amenity":"bank","short_name:bg":"ЦКБ","short_name:en":"CCBank","addr:full":"ул.\"Генерал Карцов\" 57","addr:city":"Карлово","addr:country":"BG","name":"ЦКБ АД Клон Карлово","phone":"+359 335 90 473' +359882659366","opening_hours":"Mo-Fr 08:30-12:30,13:30-17:00","brand":"Central Cooperative Bank","brand:wikidata":"Q2944755"},"coordinates":[42.642689,24.80245]},"tags_mismatch":false,"dist":0},{"osm":false,"atp":{"id":"rD7DXySid5wuOtXoDsYEDLKy4_M=","tags":{"ref":"1384808","amenity":"bank","short_name:bg":"ЦКБ","short_name:en":"CCBank","addr:full":"ул.\"Иван Вазов\" 25","addr:city":"Сопот","addr:country":"BG","name":"Карлово Офис Сопот","phone":"+359 31 346 599","opening_hours":"Mo-Fr 08:30-13:00,14:00-17:00","brand":"Central Cooperative Bank","brand:wikidata":"Q2944755"},"coordinates":[42.653893,24.753529]},"tags_mismatch":false,"dist":0},{"osm":false,"atp":{"id":"mGvf-h_KBLUlFnMkC_HFzsBjVC4=","tags":{"ref":"1384809","amenity":"bank","short_name:bg":"ЦКБ","short_name:en":"CCBank","addr:full":"бул.\"Христо Ботев\" 22 -2","addr:city":"Хисаря","addr:country":"BG","name":"Карлово Офис Хисар","phone":"+359 33 765 527;+359 88 463 8869","opening_hours":"Mo-Fr 08:30-12:30,13:30-17:00","brand":"Central Cooperative Bank","brand:wikidata":"Q2944755"},"coordinates":[42.505104,24.707607]},"tags_mismatch":false,"dist":0},{"osm":false,"atp":{"id":"PMaj8xilU28moj66pZ1qDDz8NjU=","tags":{"ref":"1384810","amenity":"bank","short_name:bg":"ЦКБ","short_name:en":"CCBank","addr:full":"пл.\"Тодор Влайков\" бл.9 партер","addr:city":"Пирдоп","addr:country":"BG","name":"Карлово Офис Пирдоп","phone":"+359 71 819 840;+359 88 464 7983","opening_hours":"Mo-Fr 08:30-13:00,14:00-17:00","brand":"Central Cooperative Bank","brand:wikidata":"Q2944755"},"coordinates":[42.698429,24.176315]},"tags_mismatch":false,"dist":0},{"osm":false,"atp":{"id":"aj6fH5PuGuIlj449vfAl5bpMFpw=","tags":{"ref":"1384812","amenity":"bank","short_name:bg":"ЦКБ","short_name:en":"CCBank","addr:full":"69 Arch. Makarios III Ave.","addr:city":"Cyprus 1070 Nicosia","addr:country":"BG","name":"ЦКБ АД Клон Кипър","phone":"+357 22 447757","opening_hours":"Mo-Fr 07:45-14:45","brand":"Central Cooperative Bank","brand:wikidata":"Q2944755"},"coordinates":[35.16187,33.36699]},"tags_mismatch":false,"dist":0},{"osm":false,"atp":{"id":"gjH4uOxRsOeYPNZTZaTLq12fEj0=","tags":{"ref":"1384813","amenity":"bank","short_name:bg":"ЦКБ","short_name:en":"CCBank","addr:full":"ул.\"Търговска\" 11А","addr:city":"Костенец","addr:country":"BG","name":"ЦКБ АД Клон Костенец","phone":"+359 71 423 080;+359 88 460 1447","opening_hours":"Mo-Fr 08:30-17:00","brand":"Central Cooperative Bank","brand:wikidata":"Q2944755"},"coordinates":[42.3093761,23.8576722]},"tags_mismatch":false,"dist":0},{"osm":false,"atp":{"id":"imhfgpTgpzpGDwzPncDsTJDxXjk=","tags":{"ref":"1384814","amenity":"bank","short_name:bg":"ЦКБ","short_name:en":"CCBank","addr:full":"ул.\"Цар Освободител\" 114","addr:city":"Ихтиман","addr:country":"BG","name":"Костенец Офис Ихтиман","phone":"+359 72 482 298;+359 88 461 9763","opening_hours":"Mo-Fr 08:30-12:00,13:00-15:30","brand":"Central Cooperative Bank","brand:wikidata":"Q2944755"},"coordinates":[42.442066,23.813511]},"tags_mismatch":false,"dist":0},{"osm":false,"atp":{"id":"F36xOcsr2iKTrdRiEujj2V10A24=","tags":{"ref":"1384816","amenity":"bank","short_name:bg":"ЦКБ","short_name:en":"CCBank","addr:full":"пл.\"Константин Костенечки\" 1","addr:city":"Костенец","addr:country":"BG","name":"Костенец Представителство с.Костенец","phone":"+359 71 445 257;+359 88 460 6134","opening_hours":"Mo-Fr 08:30-12:00,13:00-15:30","brand":"Central Cooperative Bank","brand:wikidata":"Q2944755"},"coordinates":[42.2632,23.8267]},"tags_mismatch":false,"dist":0},{"osm":false,"atp":{"id":"JfB7WyoyrAiBJ90_E3gd4iPM2UY=","tags":{"ref":"1384817","amenity":"bank","short_name:bg":"ЦКБ","short_name:en":"CCBank","addr:full":"ул.\"Републиканска\" 47","addr:city":"Кърджали","addr:country":"BG","name":"ЦКБ АД Клон Кърджали","phone":"+359 36 160 910;+359 88 465 0761","opening_hours":"Mo-Fr 08:30-17:00","brand":"Central Cooperative Bank","brand:wikidata":"Q2944755"},"coordinates":[41.642677,25.367023]},"tags_mismatch":false,"dist":0},{"osm":false,"atp":{"id":"iF2iSTsUsO4qhVtMiqKB3wo-tfA=","tags":{"ref":"1384818","amenity":"bank","short_name:bg":"ЦКБ","short_name:en":"CCBank","addr:full":"площад \"България\" 6","addr:city":"Крумовград","addr:country":"BG","name":"Кърджали Офис Крумовград","phone":"+359 36 417 132;+359 88 618 1123","opening_hours":"Mo-Fr 08:30-12:00,13:00-17:00","brand":"Central Cooperative Bank","brand:wikidata":"Q2944755"},"coordinates":[41.472347,25.652712]},"tags_mismatch":false,"dist":0},{"osm":false,"atp":{"id":"qaZK5KB1gRNFY6nT9crs134LzFc=","tags":{"ref":"1384819","amenity":"bank","short_name:bg":"ЦКБ","short_name:en":"CCBank","addr:full":"ул.\"Гюмюрджинска\" 54","addr:city":"Момчилград","addr:country":"BG","name":"Кърджали Офис Момчилград","phone":"+359 36 316 782;+359 88 513 6659","opening_hours":"Mo-Fr 08:30-12:00,13:00-17:00","brand":"Central Cooperative Bank","brand:wikidata":"Q2944755"},"coordinates":[41.528606,25.4072736]},"tags_mismatch":false,"dist":0},{"osm":false,"atp":{"id":"NKi1btx_P0S5lnxMXY2mg6tHsoA=","tags":{"ref":"1384820","amenity":"bank","short_name:bg":"ЦКБ","short_name:en":"CCBank","addr:full":"ул.\"Димитър Благоев\" 32","addr:city":"Кирково","addr:country":"BG","name":"Кърджали Офис Кирково","phone":"+359 36 793 204;+359 88 710 8563","opening_hours":"Mo-Fr 08:30-12:30,13:30-17:00","brand":"Central Cooperative Bank","brand:wikidata":"Q2944755"},"coordinates":[41.330776,25.364985]},"tags_mismatch":false,"dist":0},{"osm":false,"atp":{"id":"qIquW1RDCwF4agnco9LDSW86sPs=","tags":{"ref":"1384821","amenity":"bank","short_name:bg":"ЦКБ","short_name:en":"CCBank","addr:full":"кв.\"Веселчани\", ул.\"8-ми март\" 57","addr:city":"Кърджали","addr:country":"BG","name":"Кърджали Офис КАТ","phone":"+359 36 158 248;+359 88 409 6288","opening_hours":"Mo-Fr 08:30-12:00,12:30-17:00","brand":"Central Cooperative Bank","brand:wikidata":"Q2944755"},"coordinates":[41.6338439,25.3777119]},"tags_mismatch":false,"dist":0},{"osm":false,"atp":{"id":"_t9qHWQLWHiJbV8D2Oj4PbwoNNY=","tags":{"ref":"1384822","amenity":"bank","short_name:bg":"ЦКБ","short_name:en":"CCBank","addr:full":"бул.\"Беломорски\" 48","addr:city":"Кърджали","addr:country":"BG","name":"Кърджали ИРМ Съдебна палата","phone":"+359 36 160 911;+359 88 208 1830","opening_hours":"Mo-Fr 08:30-12:30,13:00-17:00","brand":"Central Cooperative Bank","brand:wikidata":"Q2944755"},"coordinates":[41.6395898,25.3759015]},"tags_mismatch":false,"dist":0},{"osm":false,"atp":{"id":"pnw6C6-aw_fAh31Or2p_ZEoCgoM=","tags":{"ref":"1384823","amenity":"bank","short_name:bg":"ЦКБ","short_name:en":"CCBank","addr:full":"ул.\"Константинова баня\" 22","addr:city":"Кюстендил","addr:country":"BG","name":"ЦКБ АД Клон Кюстендил","phone":"+359 78 551 116;+359 88 513 9810","opening_hours":"Mo-Fr 08:30-17:15","brand":"Central Cooperative Bank","brand:wikidata":"Q2944755"},"coordinates":[42.27916,22.689215]},"tags_mismatch":false,"dist":0},{"osm":false,"atp":{"id":"vnbmj9urbhM45GyXUMHvp-X8gvY=","tags":{"ref":"1384824","amenity":"bank","short_name:bg":"ЦКБ","short_name:en":"CCBank","addr:full":"ул.\"Христо Ботев\" 5","addr:city":"Дупница","addr:country":"BG","name":"Кюстендил Офис Дупница","phone":"+359 701 384 00;+359 88 513 3473","opening_hours":"Mo-Fr 08:30-13:00,14:00-17:15","brand":"Central Cooperative Bank","brand:wikidata":"Q2944755"},"coordinates":[42.264679,23.11883]},"tags_mismatch":false,"dist":0},{"osm":false,"atp":{"id":"b9PRI0RI0a_euQJjrcGb3M1J_C0=","tags":{"ref":"1384825","amenity":"bank","short_name:bg":"ЦКБ","short_name:en":"CCBank","addr:full":"ул. \"Николаевска\" 15","addr:city":"Дупница","addr:country":"BG","name":"Кюстендил ИРМ Дупница Р. съд","phone":"+359 78 551 108;+359 88 474 2138","opening_hours":"Mo-Fr 08:30-12:00,12:30-17:00","brand":"Central Cooperative Bank","brand:wikidata":"Q2944755"},"coordinates":[42.265949,23.12293]},"tags_mismatch":false,"dist":0},{"osm":false,"atp":{"id":"3jpvu_pMO6vmKpSaPJKvNUfV7Ig=","tags":{"ref":"1384829","amenity":"bank","short_name:bg":"ЦКБ","short_name:en":"CCBank","addr:full":"ул.\"Иван Вазов\" 16","addr:city":"Тетевен","addr:country":"BG","name":"Ловеч Офис Тетевен","phone":"+359 67 852 339;+359 88 511 2569","opening_hours":"Mo-Fr 08:30-12:00,13:00-17:15","brand":"Central Cooperative Bank","brand:wikidata":"Q2944755"},"coordinates":[42.918503,24.260345]},"tags_mismatch":false,"dist":0},{"osm":false,"atp":{"id":"8W24xTZEoVClhQQxn8dvqP3bxQU=","tags":{"ref":"1384830","amenity":"bank","short_name:bg":"ЦКБ","short_name:en":"CCBank","addr:full":"ул.\"Стара планина\" 106","addr:city":"Лесидрен","addr:country":"BG","name":"Ловеч Офис Лесидрен","phone":"+359 69 202 051;+359 88 514 2066","opening_hours":"Mo-Fr 08:30-12:00,13:00-17:15","brand":"Central Cooperative Bank","brand:wikidata":"Q2944755"},"coordinates":[42.97966,24.400593]},"tags_mismatch":false,"dist":0},{"osm":false,"atp":{"id":"bRHVgUuhc1_13OhdsSORDqJ6YA8=","tags":{"ref":"1384831","amenity":"bank","short_name:bg":"ЦКБ","short_name:en":"CCBank","addr:full":"ул.\"Търговска\" 28 А","addr:city":"Ловеч","addr:country":"BG","name":"Ловеч Офис Осъм","phone":"+359 68 500 113;+359 88 513 5106","opening_hours":"Mo-Fr 08:30-12:00,13:00-17:15","brand":"Central Cooperative Bank","brand:wikidata":"Q2944755"},"coordinates":[43.133819,24.716233]},"tags_mismatch":false,"dist":0},{"osm":false,"atp":{"id":"r19HrU-QEMwNVbV6c8qFYjGX-e8=","tags":{"ref":"1384832","amenity":"bank","short_name:bg":"ЦКБ","short_name:en":"CCBank","addr:full":"ул.\"Г.С. Раковски\" 51","addr:city":"Троян","addr:country":"BG","name":"Ловеч Офис Троян","phone":"+359 67 062 555;+359 88 967 9007","opening_hours":"Mo-Fr 08:30-12:00,13:00-17:15","brand":"Central Cooperative Bank","brand:wikidata":"Q2944755"},"coordinates":[42.88131,24.710848]},"tags_mismatch":false,"dist":0},{"osm":false,"atp":{"id":"XMYR3W4rRfPpOwfZnUuDgNmOoBY=","tags":{"ref":"1384833","amenity":"bank","short_name:bg":"ЦКБ","short_name:en":"CCBank","addr:full":"бул.\"Мадрид\" 39","addr:city":"София","addr:country":"BG","name":"ЦКБ АД Клон Мадрид","phone":"+359 2 814 49 21;+359885600577","opening_hours":"Mo-Fr 08:30-17:00","brand":"Central Cooperative Bank","brand:wikidata":"Q2944755"},"coordinates":[42.697002,23.35216]},"tags_mismatch":false,"dist":0},{"osm":false,"atp":{"id":"bQwCrV5tY0JdRr0jJHgtbtEqzCA=","tags":{"ref":"1384836","amenity":"bank","short_name:bg":"ЦКБ","short_name:en":"CCBank","addr:full":"кв.\"Орландовци\" ул.\"Христо Станишев\" 18","addr:city":"София","addr:country":"BG","name":"Мадрид Офис Орландовци","phone":"+359 2 936 67 75;+359887173109","opening_hours":"Mo-Fr 08:30-12:00,12:30-17:00","brand":"Central Cooperative Bank","brand:wikidata":"Q2944755"},"coordinates":[42.716972,23.342579]},"tags_mismatch":false,"dist":0},{"osm":false,"atp":{"id":"3IK21kPzcovpNZ5xIdvX-9njGfU=","tags":{"ref":"1384837","amenity":"bank","short_name:bg":"ЦКБ","short_name:en":"CCBank","addr:full":"бул.\"Владимир Вазов\" 83","addr:city":"София","addr:country":"BG","name":"Мадрид Офис Баумакс 1","phone":"+359 2 814 4922","opening_hours":"Mo-Fr 08:30-12:00,12:30-17:00","brand":"Central Cooperative Bank","brand:wikidata":"Q2944755"},"coordinates":[42.71093,23.396738]},"tags_mismatch":false,"dist":0},{"osm":false,"atp":{"id":"ZBuuTztvC5OZEderTRh7Xwe9khw=","tags":{"ref":"1384839","amenity":"bank","short_name:bg":"ЦКБ","short_name:en":"CCBank","addr:full":"кв.\"Горубляне\", ул.\"Самоковско шосе\" 46","addr:city":"София","addr:country":"BG","name":"Младост Офис Горубляне","phone":"+359 2 973 65 85;+359884658406","opening_hours":"Mo-Fr 08:30-12:00,12:30-17:00","brand":"Central Cooperative Bank","brand:wikidata":"Q2944755"},"coordinates":[42.627186,23.406931]},"tags_mismatch":false,"dist":0},{"osm":false,"atp":{"id":"GC7x7KXuJU7tcZopOecxHuW1vkc=","tags":{"ref":"1384843","amenity":"bank","short_name:bg":"ЦКБ","short_name:en":"CCBank","addr:full":"бул.\"Трети март\" 59","addr:city":"Монтана","addr:country":"BG","name":"ЦКБ АД Клон Монтана","phone":"+359 96 300 810;+359 88 466 0215","opening_hours":"Mo-Fr 08:30-17:00","brand":"Central Cooperative Bank","brand:wikidata":"Q2944755"},"coordinates":[43.407379,23.225441]},"tags_mismatch":false,"dist":0},{"osm":false,"atp":{"id":"iySoS1SUtmT4iNd5-zRtejI-kuw=","tags":{"ref":"1384845","amenity":"bank","short_name:bg":"ЦКБ","short_name:en":"CCBank","addr:full":"ул.\"България\" 17","addr:city":"Вълчедръм","addr:country":"BG","name":"Монтана ИРМ Вълчедръм","phone":"+359 97 442 109;+359 88 464 5581","opening_hours":"Mo-Fr 08:30-12:00,13:00-17:00","brand":"Central Cooperative Bank","brand:wikidata":"Q2944755"},"coordinates":[43.693817,23.445597]},"tags_mismatch":false,"dist":0},{"osm":false,"atp":{"id":"0_lENctz7Rre3omsWkdCICKuH_U=","tags":{"ref":"1384846","amenity":"bank","short_name:bg":"ЦКБ","short_name:en":"CCBank","addr:full":"бул.\"България\" 8","addr:city":"Вършец","addr:country":"BG","name":"Монтана ИРМ Вършец","phone":"+359 95 273 008;+359 88 464 4795","opening_hours":"Mo-Fr 08:30-12:00,13:00-17:00","brand":"Central Cooperative Bank","brand:wikidata":"Q2944755"},"coordinates":[43.181961,23.275137]},"tags_mismatch":false,"dist":0},{"osm":false,"atp":{"id":"H28wLmPttfQ7jBtdk5dLeJrA3cc=","tags":{"ref":"1384847","amenity":"bank","short_name:bg":"ЦКБ","short_name:en":"CCBank","addr:full":"пл.\"Йордан Радичков\" бл.Бор 2","addr:city":"Берковица","addr:country":"BG","name":"Монтана Офис Берковица","phone":"+359 95 388 933;+359 88 450 9306","opening_hours":"Mo-Fr 08:30-12:30,13:30-17:00","brand":"Central Cooperative Bank","brand:wikidata":"Q2944755"},"coordinates":[43.237682,23.12369]},"tags_mismatch":false,"dist":0},{"osm":false,"atp":{"id":"j-qT13Z2iHTVxgv_zRZYqJktqfE=","tags":{"ref":"1384849","amenity":"bank","short_name:bg":"ЦКБ","short_name:en":"CCBank","addr:full":"ул.\"Княз Борис I\" 55","addr:city":"Поморие","addr:country":"BG","name":"Несебър Офис Поморие","phone":"+359 59 626 078;+359 88 464 7029","opening_hours":"Mo-Fr 08:30-12:00,13:00-17:00","brand":"Central Cooperative Bank","brand:wikidata":"Q2944755"},"coordinates":[42.557072,27.640036]},"tags_mismatch":false,"dist":0},{"osm":false,"atp":{"id":"ktuTO1ZJR02cnkKAAFOv-Jzfp2A=","tags":{"ref":"1384850","amenity":"bank","short_name:bg":"ЦКБ","short_name:en":"CCBank","addr:full":"Aдминистрация \"Сл. Бряг\" АД","addr:city":"Слънчев бряг","addr:country":"BG","name":"Несебър ИРМ Слънчев бряг","phone":"+359 55 422 828;+359 88 464 7178","opening_hours":"Mo-Fr 08:30-12:00,13:00-17:00","brand":"Central Cooperative Bank","brand:wikidata":"Q2944755"},"coordinates":[42.697483,27.711145]},"tags_mismatch":false,"dist":0},{"osm":false,"atp":{"id":"T76z3P1mkoG2L8RjaMcUl_q5Xfw=","tags":{"ref":"1384853","amenity":"bank","short_name:bg":"ЦКБ","short_name:en":"CCBank","addr:full":"ул.\"Есперанто\" 7","addr:city":"Пазарджик","addr:country":"BG","name":"ЦКБ АД Клон Пазарджик","phone":"+359 34 401 616;+359 88 465 0676","opening_hours":"Mo-Fr 08:30-17:00","brand":"Central Cooperative Bank","brand:wikidata":"Q2944755"},"coordinates":[42.188702,24.334276]},"tags_mismatch":false,"dist":0},{"osm":false,"atp":{"id":"Kt-eOnUW8swvETN8euZ_67MNy5w=","tags":{"ref":"1384855","amenity":"bank","short_name:bg":"ЦКБ","short_name:en":"CCBank","addr:full":"пл.\"20-ти Април\"","addr:city":"Панагюрище","addr:country":"BG","name":"Пазарджик Офис Панагюрище","phone":"+359 35 762 336;+359 88 464 1086","opening_hours":"Mo-Fr 08:30-12:00,13:00-17:00","brand":"Central Cooperative Bank","brand:wikidata":"Q2944755"},"coordinates":[42.505413,24.188162]},"tags_mismatch":false,"dist":0},{"osm":false,"atp":{"id":"YJXNiRv0g2D-DfU6R_cJm6iJ0XI=","tags":{"ref":"1384856","amenity":"bank","short_name:bg":"ЦКБ","short_name:en":"CCBank","addr:full":"ул.\"Дойранска епопея\" 36","addr:city":"Пещера","addr:country":"BG","name":"Пазарджик Офис Пещера","phone":"+359 35 090 510;+359 88 464 6278","opening_hours":"Mo-Fr 08:30-12:00,13:00-17:00","brand":"Central Cooperative Bank","brand:wikidata":"Q2944755"},"coordinates":[42.031204,24.300127]},"tags_mismatch":false,"dist":0},{"osm":false,"atp":{"id":"F_T4b82vbMi9jP6j5-un9P52Xz8=","tags":{"ref":"1384857","amenity":"bank","short_name:bg":"ЦКБ","short_name:en":"CCBank","addr:full":"бул.\"Ал. Стамболийски\" 63Б","addr:city":"Пазарджик","addr:country":"BG","name":"Пазарджик Офис Стамболийски","phone":"+359 34 401 614","opening_hours":"Mo-Fr 08:30-12:00,13:00-17:30","brand":"Central Cooperative Bank","brand:wikidata":"Q2944755"},"coordinates":[42.505413,24.188162]},"tags_mismatch":false,"dist":0},{"osm":false,"atp":{"id":"quDVSoue3Sb1oVzYEiWP4Z3awAE=","tags":{"ref":"1384858","amenity":"bank","short_name:bg":"ЦКБ","short_name:en":"CCBank","addr:full":"пл.\"Кракра Пернишки\" 4","addr:city":"Перник","addr:country":"BG","name":"ЦКБ АД Клон Перник","phone":"+359 76 688 330;+359 88 464 7578","opening_hours":"Mo-Fr 08:30-13:00,14:00-17:00","brand":"Central Cooperative Bank","brand:wikidata":"Q2944755"},"coordinates":[42.607796,23.03171]},"tags_mismatch":false,"dist":0},{"osm":false,"atp":{"id":"Iavyy7UpVKnb_aEedJio8mrvftk=","tags":{"ref":"1384859","amenity":"bank","short_name:bg":"ЦКБ","short_name:en":"CCBank","addr:full":"ул.\"Юрий Гагарин\" 36","addr:city":"Перник","addr:country":"BG","name":"Перник Офис Изток","phone":"+359 76 674 050;+359 88 464 4673","opening_hours":"Mo-Fr 08:30-12:00,13:00-17:00","brand":"Central Cooperative Bank","brand:wikidata":"Q2944755"},"coordinates":[42.6092,23.106577]},"tags_mismatch":false,"dist":0},{"osm":false,"atp":{"id":"DHn2Xv8xJ656mNdoIPZ3z_3dTQY=","tags":{"ref":"1384860","amenity":"bank","short_name:bg":"ЦКБ","short_name:en":"CCBank","addr:full":"ул.\"Св. Св. Кирил и Методи\" 23","addr:city":"Перник","addr:country":"BG","name":"Перник Офис Елена","phone":"+359 76 607 887;+359 88 464 5975","opening_hours":"Mo-Fr 08:30-12:00,13:00-17:00","brand":"Central Cooperative Bank","brand:wikidata":"Q2944755"},"coordinates":[42.610233,23.036226]},"tags_mismatch":false,"dist":0},{"osm":false,"atp":{"id":"MsPuwr8ZkAzRRJMGcl4JTXrC80s=","tags":{"ref":"1384861","amenity":"bank","short_name:bg":"ЦКБ","short_name:en":"CCBank","addr:full":"ул. \"Васил Левски\" 150","addr:city":"Плевен","addr:country":"BG","name":"ЦКБ АД Клон Плевен","phone":"+359 64 882 310;+359 88 464 7639","opening_hours":"Mo-Fr 08:30-17:00","brand":"Central Cooperative Bank","brand:wikidata":"Q2944755"},"coordinates":[43.412094,24.615662]},"tags_mismatch":false,"dist":0},{"osm":false,"atp":{"id":"jhRTAZkqOYrExdKzvv2yPhd_cQk=","tags":{"ref":"1384862","amenity":"bank","short_name:bg":"ЦКБ","short_name:en":"CCBank","addr:full":"ул. \"Девети септември\" 29","addr:city":"Обнова","addr:country":"BG","name":"Плевен ИРМ Обнова","phone":"+359 65 382 686;+359 88 853 3521","opening_hours":"Mo-Fr 08:30-12:00,13:00-17:00","brand":"Central Cooperative Bank","brand:wikidata":"Q2944755"},"coordinates":[43.439209,24.991922]},"tags_mismatch":false,"dist":0},{"osm":false,"atp":{"id":"GY_s_7Icv9rWW4Qvm3i62n6bQpM=","tags":{"ref":"1384863","amenity":"bank","short_name:bg":"ЦКБ","short_name:en":"CCBank","addr:full":"ул.\"Княз Борис\" I, блок Слънце","addr:city":"Червен бряг","addr:country":"BG","name":"Плевен Офис Ч. Бряг","phone":"+359 65 992 839;+359 88 464 8214","opening_hours":"Mo-Fr 08:30-17:00","brand":"Central Cooperative Bank","brand:wikidata":"Q2944755"},"coordinates":[43.281734,24.087589]},"tags_mismatch":false,"dist":0},{"osm":false,"atp":{"id":"eB2mCNzY2IDeKAuP5_pzeysTFhU=","tags":{"ref":"1384864","amenity":"bank","short_name:bg":"ЦКБ","short_name:en":"CCBank","addr:full":"ул.\"Александър Стамболийски\" 40","addr:city":"Левски","addr:country":"BG","name":"Плевен офис Левски","phone":"+359 65 098 104;+359 88 231 5972","opening_hours":"Mo-Fr 08:00-12:30,13:30-16:30","brand":"Central Cooperative Bank","brand:wikidata":"Q2944755"},"coordinates":[43.361454,25.143095]},"tags_mismatch":false,"dist":0},{"osm":false,"atp":{"id":"O1TGcTkwapjM0Z8SoAXw0eWYRR0=","tags":{"ref":"1384865","amenity":"bank","short_name:bg":"ЦКБ","short_name:en":"CCBank","addr:full":"ул.\"Данаил Попов\" 11","addr:city":"Плевен","addr:country":"BG","name":"Плевен офис Освобождение","phone":"+359 64 977 314","opening_hours":"Mo-Fr 08:30-13:00,14:00-17:00","brand":"Central Cooperative Bank","brand:wikidata":"Q2944755"},"coordinates":[43.415556,24.616251]},"tags_mismatch":false,"dist":0},{"osm":false,"atp":{"id":"YxiJb854e9XOprogEKuog_yjaaw=","tags":{"ref":"1384867","amenity":"bank","short_name:bg":"ЦКБ","short_name:en":"CCBank","addr:full":"ул.\"Брезовско шосе\" 142","addr:city":"Пловдив","addr:country":"BG","name":"Пловдив ИРМ Кооптърговия","phone":"+359 32 955 174;+359 88 464 5078","opening_hours":"Mo-Fr 08:30-13:00,14:00-17:00","brand":"Central Cooperative Bank","brand:wikidata":"Q2944755"},"coordinates":[42.165688,24.751457]},"tags_mismatch":false,"dist":0},{"osm":false,"atp":{"id":"xVq5T9-7X7aPuPzkqbdTx63prB4=","tags":{"ref":"1384868","amenity":"bank","short_name:bg":"ЦКБ","short_name:en":"CCBank","addr:full":"ул.\"Царевец\" 13","addr:city":"Пловдив","addr:country":"BG","name":"Пловдив ИРМ Смирненски","phone":"+359 32 640 279;+359 88 464 7694","opening_hours":"Mo-Fr 08:30-13:00,14:00-17:00","brand":"Central Cooperative Bank","brand:wikidata":"Q2944755"},"coordinates":[42.135227,24.716202]},"tags_mismatch":false,"dist":0},{"osm":false,"atp":{"id":"uAlsh348J4t6wZg0TP_8k7FnetE=","tags":{"ref":"1384870","amenity":"bank","short_name:bg":"ЦКБ","short_name:en":"CCBank","addr:full":"ул.\"Георги С. Раковски\" 170","addr:city":"Раковски","addr:country":"BG","name":"Пловдив Офис Раковски","phone":"+359 331 512 275;+359882645570","opening_hours":"Mo-Fr 08:30-13:00,14:00-17:00","brand":"Central Cooperative Bank","brand:wikidata":"Q2944755"},"coordinates":[42.289246,24.964371]},"tags_mismatch":false,"dist":0},{"osm":false,"atp":{"id":"Z4h0mmOxS3dbHAWU4MK-l_LSFV4=","tags":{"ref":"1384871","amenity":"bank","short_name:bg":"ЦКБ","short_name:en":"CCBank","addr:full":"бул.\"Никола Вапцаров\" 115","addr:city":"Пловдив","addr:country":"BG","name":"Пловдив Офис Вапцаров","phone":"+359 32 670 373;+359 88 265 1375","opening_hours":"Mo-Fr 08:30-13:00,14:00-17:00","brand":"Central Cooperative Bank","brand:wikidata":"Q2944755"},"coordinates":[42.126137,24.733154]},"tags_mismatch":false,"dist":0},{"osm":false,"atp":{"id":"zmpFSwWVt8KNsHuDaklZ8gP77eY=","tags":{"ref":"1384872","amenity":"bank","short_name:bg":"ЦКБ","short_name:en":"CCBank","addr:full":"ул.\"Янко Сакъзов\" 44","addr:city":"Пловдив","addr:country":"BG","name":"Пловдив Офис Марица","phone":"+359 32 347 565;+359 88 265 9580","opening_hours":"Mo-Fr 08:30-12:00,13:00-17:00","brand":"Central Cooperative Bank","brand:wikidata":"Q2944755"},"coordinates":[42.151665,24.734795]},"tags_mismatch":false,"dist":0},{"osm":false,"atp":{"id":"CArUtcheoUpd1M4npDVO7ZoL3Zw=","tags":{"ref":"1384873","amenity":"bank","short_name:bg":"ЦКБ","short_name:en":"CCBank","addr:full":"пл.\"Съединение\" 3 ет.2","addr:city":"Пловдив","addr:country":"BG","name":"Пловдив ИРМ Кадастър","phone":"+359 32 65 49 71;+359882042432","opening_hours":"Mo-Fr 09:00-12:00,12:30-17:00","brand":"Central Cooperative Bank","brand:wikidata":"Q2944755"},"coordinates":[42.151294,24.744439]},"tags_mismatch":false,"dist":0},{"osm":false,"atp":{"id":"98YBnwivEcmvmVTVr-cHvKKfiKE=","tags":{"ref":"1384874","amenity":"bank","short_name:bg":"ЦКБ","short_name:en":"CCBank","addr:full":"ул.\"Капитан Райчо\" 50","addr:city":"Пловдив","addr:country":"BG","name":"ЦКБ АД Клон Пловдив България","phone":"+359 32 921 111;+359 88 506 0455","opening_hours":"Mo-Fr 08:30-12:00,12:30-17:00","brand":"Central Cooperative Bank","brand:wikidata":"Q2944755"},"coordinates":[42.1417528,24.753872]},"tags_mismatch":false,"dist":0},{"osm":false,"atp":{"id":"HCJsaOIPy_V7vO7fKUtzr2U0lQA=","tags":{"ref":"1384875","amenity":"bank","short_name:bg":"ЦКБ","short_name:en":"CCBank","addr:full":"пл.\"Обединение\" 3","addr:city":"Кричим","addr:country":"BG","name":"ПловдивБ-я офисКричим","phone":"+359 31 452 173;+359 88 464 9357","opening_hours":"Mo-Fr 08:30-13:00,14:00-17:00","brand":"Central Cooperative Bank","brand:wikidata":"Q2944755"},"coordinates":[42.042458,24.47035]},"tags_mismatch":false,"dist":0},{"osm":false,"atp":{"id":"T5m-NQrHFeGFyrYfsFLEtjelrDQ=","tags":{"ref":"1384876","amenity":"bank","short_name:bg":"ЦКБ","short_name:en":"CCBank","addr:full":"ул.\"Орфей\" 2","addr:city":"Първомай","addr:country":"BG","name":"ПловдивБ-я офисПървомай","phone":"+359 33 662 931;+359 88 463 2451","opening_hours":"Mo-Fr 08:30-12:00,12:30-17:00","brand":"Central Cooperative Bank","brand:wikidata":"Q2944755"},"coordinates":[42.097298,25.227613]},"tags_mismatch":false,"dist":0},{"osm":false,"atp":{"id":"k2lC1Z5Kz415eYf3pPG1b-1iEzQ=","tags":{"ref":"1384877","amenity":"bank","short_name:bg":"ЦКБ","short_name:en":"CCBank","addr:full":"пл.\"Възраждане\" 3","addr:city":"Калояново","addr:country":"BG","name":"ПловдивБ-я офисКалояново","phone":"+359 31 232 122;+359 88 465 6421","opening_hours":"Mo-Fr 08:30-13:00,14:00-17:00","brand":"Central Cooperative Bank","brand:wikidata":"Q2944755"},"coordinates":[42.358292,24.732285]},"tags_mismatch":false,"dist":0},{"osm":false,"atp":{"id":"HnTCEkPRiR9hMpiO5ntN7FcX5EY=","tags":{"ref":"1384878","amenity":"bank","short_name:bg":"ЦКБ","short_name:en":"CCBank","addr:full":"ул.\"Кирил и Методий\" 4","addr:city":"Садово","addr:country":"BG","name":"ПловдивБ-я офисСадово","phone":"+359 31 182 012;+359 88 465 1710","opening_hours":"Mo-Fr 08:30-13:00,14:00-17:00","brand":"Central Cooperative Bank","brand:wikidata":"Q2944755"},"coordinates":[42.133144,24.939438]},"tags_mismatch":false,"dist":0},{"osm":false,"atp":{"id":"MX6pwCT0QOlkatkb5bZqtdVVosY=","tags":{"ref":"1384879","amenity":"bank","short_name:bg":"ЦКБ","short_name:en":"CCBank","addr:full":"бул.\"Шести септември\" 167","addr:city":"Пловдив","addr:country":"BG","name":"ПловдивБ-я ИРМ Окръжен съд","phone":"+359 32 911 18;+359 88 874 9127","opening_hours":"Mo-Fr 08:30-16:30","brand":"Central Cooperative Bank","brand:wikidata":"Q2944755"},"coordinates":[42.151512,24.748056]},"tags_mismatch":false,"dist":0},{"osm":false,"atp":{"id":"G3NgQSXJIcg5ZcUcDt_-XypzO6M=","tags":{"ref":"1384882","amenity":"bank","short_name:bg":"ЦКБ","short_name:en":"CCBank","addr:full":"ул.\"Стефан Караджа\" 7","addr:city":"Разград","addr:country":"BG","name":"ЦКБ АД Клон Разград","phone":"+359 84 661 290;+359 88 463 8873","opening_hours":"Mo-Fr 08:30-17:00","brand":"Central Cooperative Bank","brand:wikidata":"Q2944755"},"coordinates":[43.5233,26.526705]},"tags_mismatch":false,"dist":0},{"osm":false,"atp":{"id":"Z70UKJnT9mL8fUVKlS4TCbEHueU=","tags":{"ref":"1384883","amenity":"bank","short_name:bg":"ЦКБ","short_name:en":"CCBank","addr:full":"ул.\"Цар Освободител\" 2","addr:city":"Кубрат","addr:country":"BG","name":"Разград ИРМ Кубрат","phone":"+359 84 873 905;+359 88 465 0513","opening_hours":"Mo-Fr 08:30-12:00,13:00-17:00","brand":"Central Cooperative Bank","brand:wikidata":"Q2944755"},"coordinates":[43.798637,26.496235]},"tags_mismatch":false,"dist":0},{"osm":false,"atp":{"id":"fmPbK0Ctl8on7J277vTK4Mq1kkQ=","tags":{"ref":"1384884","amenity":"bank","short_name:bg":"ЦКБ","short_name:en":"CCBank","addr:full":"бул.\"Освобождение\" 101","addr:city":"Завет","addr:country":"BG","name":"Разград ИРМ Завет","phone":"+359 84 422 105;+359 88 465 3584","opening_hours":"Mo-Fr 08:30-12:00,13:00-17:00","brand":"Central Cooperative Bank","brand:wikidata":"Q2944755"},"coordinates":[43.759178,26.671114]},"tags_mismatch":false,"dist":0},{"osm":false,"atp":{"id":"IEo6IgHmrsz5M-t10mGJD6DeReI=","tags":{"ref":"1384885","amenity":"bank","short_name:bg":"ЦКБ","short_name:en":"CCBank","addr:full":"ул.\"Васил Левски\" 91","addr:city":"Исперих","addr:country":"BG","name":"Разград Офис Исперих","phone":"+359 84 312 329;+359 88 465 3519","opening_hours":"Mo-Fr 08:30-12:00,13:00-17:00","brand":"Central Cooperative Bank","brand:wikidata":"Q2944755"},"coordinates":[43.715611,26.828421]},"tags_mismatch":false,"dist":0},{"osm":false,"atp":{"id":"LwFY2lNM4Iu7ddcGpvEzCC-qg3I=","tags":{"ref":"1384886","amenity":"bank","short_name:bg":"ЦКБ","short_name:en":"CCBank","addr:full":"пл.\"Демокрация\" 1","addr:city":"Цар Калоян","addr:country":"BG","name":"Разград ИРМ Цар Калоян","phone":"+359 84 242 910;+359 88 465 6923","opening_hours":"Mo-Fr 08:30-12:00,13:00-17:00","brand":"Central Cooperative Bank","brand:wikidata":"Q2944755"},"coordinates":[43.611504,26.237926]},"tags_mismatch":false,"dist":0},{"osm":false,"atp":{"id":"O1vPXmKZYoEIUJ0IIypwCHQZ3wI=","tags":{"ref":"1384887","amenity":"bank","short_name:bg":"ЦКБ","short_name:en":"CCBank","addr:full":"ул.\"Дружба\" 14","addr:city":"Лозница","addr:country":"BG","name":"Разград Офис Лозница","phone":"+359 84 752 011;+359 88 266 8535","opening_hours":"Mo-Fr 08:30-12:00,13:00-17:00","brand":"Central Cooperative Bank","brand:wikidata":"Q2944755"},"coordinates":[43.372299,26.605968]},"tags_mismatch":false,"dist":0},{"osm":false,"atp":{"id":"tBDBzTTlylWP2tU2ca7O6k16yxw=","tags":{"ref":"1384888","amenity":"bank","short_name:bg":"ЦКБ","short_name:en":"CCBank","addr:full":"ул.\"Искър\" 1","addr:city":"Разград","addr:country":"BG","name":"Разград Офис Кристал","phone":"+359 84 612 919;+359 88 464 2175","opening_hours":"Mo-Fr 08:30-17:00; Sa 09:30-12:30","brand":"Central Cooperative Bank","brand:wikidata":"Q2944755"},"coordinates":[43.526051,26.522038]},"tags_mismatch":false,"dist":0},{"osm":false,"atp":{"id":"SrSms0Bz6el6lF6A3J9avluK1no=","tags":{"ref":"1384889","amenity":"bank","short_name:bg":"ЦКБ","short_name:en":"CCBank","addr:full":"пл.\"Хан Кубрат\" 1","addr:city":"Русе","addr:country":"BG","name":"ЦКБ АД Клон Русе","phone":"+35982826070, +359884605824","opening_hours":"Mo-Fr 08:30-17:30","brand":"Central Cooperative Bank","brand:wikidata":"Q2944755"},"coordinates":[43.847095,25.950329]},"tags_mismatch":false,"dist":0},{"osm":false,"atp":{"id":"Fn3plHufeTB_KWyZhzu8XwtEhHc=","tags":{"ref":"1384890","amenity":"bank","short_name:bg":"ЦКБ","short_name:en":"CCBank","addr:full":"ул.\"Димитър Благоев\" 32","addr:city":"Глоджево","addr:country":"BG","name":"Русе ИРМ Глоджево","phone":"+359 83 242 466;+359 88 226 0857","opening_hours":"Mo-Fr 08:30-12:00,12:30-16:00","brand":"Central Cooperative Bank","brand:wikidata":"Q2944755"},"coordinates":[43.7330332,26.3882502]},"tags_mismatch":false,"dist":0},{"osm":false,"atp":{"id":"d5APjXxs9bYKmTylO_3UYrXK2ag=","tags":{"ref":"1384891","amenity":"bank","short_name:bg":"ЦКБ","short_name:en":"CCBank","addr:full":"ул.\"Н. Й. Вапцаров\" 1А","addr:city":"Борово","addr:country":"BG","name":"Русе ИРМ Борово","phone":"+359 81 402 245;+359 88 221 8341","opening_hours":"Mo-Fr 08:30-13:00,14:00-17:00","brand":"Central Cooperative Bank","brand:wikidata":"Q2944755"},"coordinates":[43.4883,25.810919]},"tags_mismatch":false,"dist":0},{"osm":false,"atp":{"id":"hq3cY27Y6GEobSV4uictZuiu6XU=","tags":{"ref":"1384892","amenity":"bank","short_name:bg":"ЦКБ","short_name:en":"CCBank","addr:full":"ул.\"Цар Освободител\" 62","addr:city":"Ценово","addr:country":"BG","name":"Русе Oфис Ценово","phone":"+359 81 222 577;+359 88 226 6171","opening_hours":"Mo-Fr 08:30-12:30,13:00-16:00","brand":"Central Cooperative Bank","brand:wikidata":"Q2944755"},"coordinates":[43.539715,25.649643]},"tags_mismatch":false,"dist":0},{"osm":false,"atp":{"id":"Cp7g5BKOo22um8EsiP3LXhJxvaI=","tags":{"ref":"1384893","amenity":"bank","short_name:bg":"ЦКБ","short_name:en":"CCBank","addr:full":"ул.\"Трансмариска\" 31","addr:city":"Тутракан","addr:country":"BG","name":"Русе ИРМ Тутракан2","phone":"+359 86 660 008;+359 88 234 7059","opening_hours":"Mo-Fr 08:30-12:00,13:00-16:30","brand":"Central Cooperative Bank","brand:wikidata":"Q2944755"},"coordinates":[44.048805,26.605217]},"tags_mismatch":false,"dist":0},{"osm":false,"atp":{"id":"mUxKGJG0gILE6s1luVnFoO53LLs=","tags":{"ref":"1384894","amenity":"bank","short_name:bg":"ЦКБ","short_name:en":"CCBank","addr:full":"ул.\"Трансмариска\" 53","addr:city":"Тутракан","addr:country":"BG","name":"Русе ИРМ Тутракан1","phone":"+359 86 660 495;+359 88 465 1933","opening_hours":"Mo-Fr 08:30-13:00,14:00-17:00","brand":"Central Cooperative Bank","brand:wikidata":"Q2944755"},"coordinates":[44.047092,26.602283]},"tags_mismatch":false,"dist":0},{"osm":false,"atp":{"id":"juZ1HFP_rBaiEhWkQ_2fnodud6c=","tags":{"ref":"1384895","amenity":"bank","short_name:bg":"ЦКБ","short_name:en":"CCBank","addr:full":"ул.\"Централна\" 35А","addr:city":"Щръклево","addr:country":"BG","name":"Русе ИРМ Щръклево","phone":"+359 81 417 010;+359 88 226 7041","opening_hours":"Mo-Fr 08:30-12:00,12:30-16:00","brand":"Central Cooperative Bank","brand:wikidata":"Q2944755"},"coordinates":[43.7212645,26.0427909]},"tags_mismatch":false,"dist":0},{"osm":false,"atp":{"id":"GipnbUl1QOXmCqpYTLhD8xg6LJM=","tags":{"ref":"1384896","amenity":"bank","short_name:bg":"ЦКБ","short_name:en":"CCBank","addr:full":"бул.\"Цар Освободител\" 1","addr:city":"Русе","addr:country":"BG","name":"Русе ИРМ Цар Освободител","phone":"+359 82 529 946;+359 88 805 2356","opening_hours":"Mo-Fr 08:30-12:30,13:30-17:00","brand":"Central Cooperative Bank","brand:wikidata":"Q2944755"},"coordinates":[43.8518189,25.9574973]},"tags_mismatch":false,"dist":0},{"osm":false,"atp":{"id":"-y6boOdigcg_s-8FhF-keD4xsUA=","tags":{"ref":"1384897","amenity":"bank","short_name:bg":"ЦКБ","short_name:en":"CCBank","addr:full":"пл. \"Демокрация\" 1","addr:city":"Сливо поле","addr:country":"BG","name":"Русе ИРМ Сливо поле","phone":"+359 81 795 000;+359 88 912 1566","opening_hours":"Mo-Fr 08:30-12:30,13:00-16:30","brand":"Central Cooperative Bank","brand:wikidata":"Q2944755"},"coordinates":[43.943756,26.2045157]},"tags_mismatch":false,"dist":0},{"osm":false,"atp":{"id":"rVoHvFCJq3x_F8SdLO8snhW7PLc=","tags":{"ref":"1384898","amenity":"bank","short_name:bg":"ЦКБ","short_name:en":"CCBank","addr:full":"ул.\"Търговска\" 33","addr:city":"Самоков","addr:country":"BG","name":"ЦКБ АД Клон Самоков","phone":"+359 72 268 910;+359 88 464 8994","opening_hours":"Mo-Fr 08:30-17:00","brand":"Central Cooperative Bank","brand:wikidata":"Q2944755"},"coordinates":[42.33823,23.56119]},"tags_mismatch":false,"dist":0},{"osm":false,"atp":{"id":"fPNpg-8RGFcxQ0SVDRYJFVtV8qA=","tags":{"ref":"1384899","amenity":"bank","short_name:bg":"ЦКБ","short_name:en":"CCBank","addr:full":"ул.\"Преспа\" 5","addr:city":"Самоков","addr:country":"BG","name":"Самоков Офис Самоково","phone":"+359 72 268 912;+359 88 203 4232","opening_hours":"Mo-Fr 08:30-12:00,13:00-17:00","brand":"Central Cooperative Bank","brand:wikidata":"Q2944755"},"coordinates":[42.3349514,23.5529477]},"tags_mismatch":false,"dist":0},{"osm":false,"atp":{"id":"7nq-Id9F2cZJwxektMN4OZoPYwM=","tags":{"ref":"1384900","amenity":"bank","short_name:bg":"ЦКБ","short_name:en":"CCBank","addr:full":"ул.\"Цар Освободител\" 104","addr:city":"Свищов","addr:country":"BG","name":"ЦКБ АД Клон Свищов","phone":"+359 63 161 254;+359 88 265 3273","opening_hours":"Mo-Fr 08:30-17:00","brand":"Central Cooperative Bank","brand:wikidata":"Q2944755"},"coordinates":[43.616753,25.347069]},"tags_mismatch":false,"dist":0},{"osm":false,"atp":{"id":"2-OBec8wgiax07LIP-XZCUvUNAQ=","tags":{"ref":"1384901","amenity":"bank","short_name:bg":"ЦКБ","short_name:en":"CCBank","addr:full":"ул.\"България\" 33","addr:city":"Белене","addr:country":"BG","name":"Свищов Офис Белене","phone":"+359 65 836 641;+359 88 464 7989","opening_hours":"Mo-Fr 08:30-12:00,12:30-17:00","brand":"Central Cooperative Bank","brand:wikidata":"Q2944755"},"coordinates":[43.645763,25.125561]},"tags_mismatch":false,"dist":0},{"osm":false,"atp":{"id":"HV_Yz3ppwLdCoDT7gNMr9bAhOgE=","tags":{"ref":"1384902","amenity":"bank","short_name:bg":"ЦКБ","short_name:en":"CCBank","addr:full":"ул.\"Стара планина\" 70","addr:city":"Севлиево","addr:country":"BG","name":"ЦКБ АД Клон Севлиево","phone":"+359 67 585 052;+359 88 464 9706","opening_hours":"Mo-Fr 08:30-17:00","brand":"Central Cooperative Bank","brand:wikidata":"Q2944755"},"coordinates":[43.023529,25.098717]},"tags_mismatch":false,"dist":0},{"osm":false,"atp":{"id":"uSkaITq-GVxMwnSvk__wvRXo9VY=","tags":{"ref":"1384903","amenity":"bank","short_name:bg":"ЦКБ","short_name:en":"CCBank","addr:full":"ул.\"Г.С. Раковски\" 1","addr:city":"Силистра","addr:country":"BG","name":"ЦКБ АД Клон Силистра","phone":"+359 86 821 236;+359 88 465 2262","opening_hours":"Mo-Fr 08:30-17:00","brand":"Central Cooperative Bank","brand:wikidata":"Q2944755"},"coordinates":[44.1199107,27.2623199]},"tags_mismatch":false,"dist":0},{"osm":false,"atp":{"id":"uUDCUgjZZ83jIcB8ZQC2Wl2zcFI=","tags":{"ref":"1384904","amenity":"bank","short_name:bg":"ЦКБ","short_name:en":"CCBank","addr:full":"ул.\"Васил Левски\" 14","addr:city":"Дулово","addr:country":"BG","name":"Силистра Офис Дулово","phone":"+359 86 425 195;+359 88 464 9485","opening_hours":"Mo-Fr 08:30-13:00,14:00-17:00","brand":"Central Cooperative Bank","brand:wikidata":"Q2944755"},"coordinates":[43.819906,27.142092]},"tags_mismatch":false,"dist":0},{"osm":false,"atp":{"id":"_icSuzLlRA_k8DynAuiazT_3pTs=","tags":{"ref":"1384905","amenity":"bank","short_name:bg":"ЦКБ","short_name:en":"CCBank","addr:full":"ул.\"Цар Симеон Велики\" 29","addr:city":"Силистра","addr:country":"BG","name":"Силистра Офис Цар Симеон В","phone":"+359 86 821 206;+359 88 465 5120","opening_hours":"Mo-Fr 08:30-13:00,14:00-17:00","brand":"Central Cooperative Bank","brand:wikidata":"Q2944755"},"coordinates":[44.117069,27.259666]},"tags_mismatch":false,"dist":0},{"osm":false,"atp":{"id":"G13Bav71XKdRGHrL--wdi2n4BwA=","tags":{"ref":"1384906","amenity":"bank","short_name:bg":"ЦКБ","short_name:en":"CCBank","addr:full":"бул.\"Македония\" 175","addr:city":"Силистра","addr:country":"BG","name":"Силистра Офис ОДМВР - ПС","phone":"+359 86 820 677","opening_hours":"Mo-Fr 08:30-12:00,13:00-17:00","brand":"Central Cooperative Bank","brand:wikidata":"Q2944755"},"coordinates":[44.117229,27.268131]},"tags_mismatch":false,"dist":0},{"osm":false,"atp":{"id":"ON0g7QMuHfPGm7-rP-aaacFj0DM=","tags":{"ref":"1384907","amenity":"bank","short_name:bg":"ЦКБ","short_name:en":"CCBank","addr:full":"ул.\"Витоша\" 44","addr:city":"Главиница","addr:country":"BG","name":"Силистра Офис Главиница","phone":"+359 86 589 184;+359 88 233 4740","opening_hours":"Mo-Fr 08:30-12:00,13:00-16:30","brand":"Central Cooperative Bank","brand:wikidata":"Q2944755"},"coordinates":[42.73,25.48]},"tags_mismatch":false,"dist":0},{"osm":false,"atp":{"id":"s1x29PvFRlSh02-7Q19-NBj89u0=","tags":{"ref":"1384908","amenity":"bank","short_name:bg":"ЦКБ","short_name:en":"CCBank","addr:full":"ул.\"Народни будители\" 34","addr:city":"Нова Загора","addr:country":"BG","name":"Сливен Офис Нова Загора","phone":"+359 45 768 168;+359 88 464 5825","opening_hours":"Mo-Fr 08:30-12:00,13:00-17:00","brand":"Central Cooperative Bank","brand:wikidata":"Q2944755"},"coordinates":[42.489803,26.015581]},"tags_mismatch":false,"dist":0},{"osm":false,"atp":{"id":"0e2gTqr8xwY3_NoUs3vOJctTAjI=","tags":{"ref":"1384909","amenity":"bank","short_name:bg":"ЦКБ","short_name:en":"CCBank","addr:full":"пл.\"Александър Стамболийски\" 1","addr:city":"Сливен","addr:country":"BG","name":"ЦКБ АД Клон Сливен","phone":"+359 44 662 945;+359 88 464 7183","opening_hours":"Mo-Fr 08:30-17:00","brand":"Central Cooperative Bank","brand:wikidata":"Q2944755"},"coordinates":[42.67939,26.321203]},"tags_mismatch":false,"dist":0},{"osm":false,"atp":{"id":"pbfx2q5fsquR-LL7MPng0lhu1L4=","tags":{"ref":"1384910","amenity":"bank","short_name:bg":"ЦКБ","short_name:en":"CCBank","addr:full":"ул.\"Цар Освободител\" 11","addr:city":"Сливен","addr:country":"BG","name":"Сливен офис -  Армеец","phone":"+359 44 662 945;+359 88 464 7705","opening_hours":"Mo-Fr 08:30-13:00,14:00-17:00","brand":"Central Cooperative Bank","brand:wikidata":"Q2944755"},"coordinates":[42.680431,26.318886]},"tags_mismatch":false,"dist":0},{"osm":false,"atp":{"id":"_qDNtFzjh3pJMMl1xeSszipOJME=","tags":{"ref":"1384911","amenity":"bank","short_name:bg":"ЦКБ","short_name:en":"CCBank","addr:full":"бул.\"България\" 11","addr:city":"Смолян","addr:country":"BG","name":"ЦКБ АД Клон Смолян","phone":"+359 30 162 163;+359 88 464 7934","opening_hours":"Mo-Fr 08:30-17:00","brand":"Central Cooperative Bank","brand:wikidata":"Q2944755"},"coordinates":[41.575893,24.706181]},"tags_mismatch":false,"dist":0},{"osm":false,"atp":{"id":"mBNZ-mXsYFb_k0WuORO1UEOkIQk=","tags":{"ref":"1384912","amenity":"bank","short_name:bg":"ЦКБ","short_name:en":"CCBank","addr:full":"ул.\"Бяло море\" 3","addr:city":"Смолян","addr:country":"BG","name":"Смолян ИРМ Райково","phone":"+359 30 162 082;+359 88 266 4083","opening_hours":"Mo-Fr 08:30-12:00,13:00-17:00","brand":"Central Cooperative Bank","brand:wikidata":"Q2944755"},"coordinates":[41.56786,24.730536]},"tags_mismatch":false,"dist":0},{"osm":false,"atp":{"id":"eocNC9VEMJ-lSf-JFNN6zM2x4qc=","tags":{"ref":"1384913","amenity":"bank","short_name:bg":"ЦКБ","short_name:en":"CCBank","addr:full":"ул.\"Освобождение\" 3","addr:city":"Рудозем","addr:country":"BG","name":"Смолян Офис Рудозем","phone":"+359 30 654 570;+359 88 464 7939","opening_hours":"Mo-Fr 08:30-13:00,14:00-17:00","brand":"Central Cooperative Bank","brand:wikidata":"Q2944755"},"coordinates":[41.486176,24.848112]},"tags_mismatch":false,"dist":0},{"osm":false,"atp":{"id":"ZG5AY4-WAgGNebFicyK56IP_H8A=","tags":{"ref":"1384914","amenity":"bank","short_name:bg":"ЦКБ","short_name:en":"CCBank","addr:full":"ул.\"Обединение\" 12","addr:city":"Мадан","addr:country":"BG","name":"Смолян Офис Мадан","phone":"+359 30 822 085;+359 88 464 9362","opening_hours":"Mo-Fr 08:30-12:00,13:00-17:00","brand":"Central Cooperative Bank","brand:wikidata":"Q2944755"},"coordinates":[41.500366,24.939116]},"tags_mismatch":false,"dist":0},{"osm":false,"atp":{"id":"LuLvD6yH02kUOMPVrrtw64eQsn0=","tags":{"ref":"1384918","amenity":"bank","short_name:bg":"ЦКБ","short_name:en":"CCBank","addr:full":"ул.\"Гео Милев\" 30","addr:city":"София","addr:country":"BG","name":"София град Офис Гео Милев","phone":"+359 2 971 0137;+35988465389","opening_hours":"Mo-Fr 08:30-17:00","brand":"Central Cooperative Bank","brand:wikidata":"Q2944755"},"coordinates":[42.6825129,23.3692067]},"tags_mismatch":false,"dist":0},{"osm":false,"atp":{"id":"YVDLne9Y7VBVC41t7XToRrv4KWQ=","tags":{"ref":"1384922","amenity":"bank","short_name:bg":"ЦКБ","short_name:en":"CCBank","addr:full":"ул.\"Охрид\" 16","addr:city":"Костинброд","addr:country":"BG","name":"СофияЗапад Офис Костинброд","phone":"+359 721 66 331;+359884630677","opening_hours":"Mo-Fr 08:30-12:00,12:30-17:00","brand":"Central Cooperative Bank","brand:wikidata":"Q2944755"},"coordinates":[42.811554,23.198833]},"tags_mismatch":false,"dist":0},{"osm":false,"atp":{"id":"1_ikj3bT3bote7yINAn9LrrqEtI=","tags":{"ref":"1384923","amenity":"bank","short_name:bg":"ЦКБ","short_name:en":"CCBank","addr:full":"ул.\"Княз Борис I\" 6","addr:city":"Банкя","addr:country":"BG","name":"София Запад Офис Банкя","phone":"+359 2 997 75 81;+359884619589","opening_hours":"Mo-Fr 08:30-12:00,12:30-17:00","brand":"Central Cooperative Bank","brand:wikidata":"Q2944755"},"coordinates":[42.7079923,23.1435473]},"tags_mismatch":false,"dist":0},{"osm":false,"atp":{"id":"0_g_2aBNVciUfU6jVD39Z6x0YXc=","tags":{"ref":"1384925","amenity":"bank","short_name:bg":"ЦКБ","short_name:en":"CCBank","addr:full":"бул.\"Ломско шосе\" 50","addr:city":"София","addr:country":"BG","name":"София Запад Офис Надежда","phone":"+359 2 936 07 35;+359882625841","opening_hours":"Mo-Fr 08:30-12:00,12:30-17:00","brand":"Central Cooperative Bank","brand:wikidata":"Q2944755"},"coordinates":[42.727375,23.301937]},"tags_mismatch":false,"dist":0},{"osm":false,"atp":{"id":"jMo0yyuXKRHQfCUY282c4dGijec=","tags":{"ref":"1384926","amenity":"bank","short_name:bg":"ЦКБ","short_name:en":"CCBank","addr:full":"ул.\"Околовръстен път\" 794","addr:city":"София","addr:country":"BG","name":"София Запад Офис Хоум макс","phone":"+359 2 923 8018","opening_hours":"Mo-Fr 08:30-12:00,12:30-17:00","brand":"Central Cooperative Bank","brand:wikidata":"Q2944755"},"coordinates":[42.7251066,23.2371692]},"tags_mismatch":false,"dist":0},{"osm":false,"atp":{"id":"NnPnsBY__DGuMLV6708vHRabJzY=","tags":{"ref":"1384932","amenity":"bank","short_name:bg":"ЦКБ","short_name:en":"CCBank","addr:full":"бул.\"Монтевидео\" 47","addr:city":"София","addr:country":"BG","name":"София Юг Офис Овча Купел","phone":"+359 2 956 22 19;+359882642076","opening_hours":"Mo-Fr 08:30-12:00,12:30-17:00","brand":"Central Cooperative Bank","brand:wikidata":"Q2944755"},"coordinates":[42.687428,23.254988]},"tags_mismatch":false,"dist":0},{"osm":false,"atp":{"id":"iY81xP-4KQx7kzHWrLFmEKNvRzc=","tags":{"ref":"1384934","amenity":"bank","short_name:bg":"ЦКБ","short_name:en":"CCBank","addr:full":"ул.\"Кольо Ганчев\" 54","addr:city":"Стара Загора","addr:country":"BG","name":"ЦКБ АД Клон Стара Загора","phone":"+359 42 220 369;+359 88 464 3195","opening_hours":"Mo-Fr 08:30-17:00","brand":"Central Cooperative Bank","brand:wikidata":"Q2944755"},"coordinates":[42.424313,25.633432]},"tags_mismatch":false,"dist":0},{"osm":false,"atp":{"id":"auzI27d8Hp2PZkAGxKVFsTQ6P8U=","tags":{"ref":"1384935","amenity":"bank","short_name:bg":"ЦКБ","short_name:en":"CCBank","addr:full":"ул.\"Княз Александър Батенберг\" 4A","addr:city":"гр. Гурково","addr:country":"BG","name":"Стара Загора Офис Гурково","phone":"+359 433 120 38;+359 88 465 2271","opening_hours":"Mo-Fr 08:30-13:00,14:00-17:00","brand":"Central Cooperative Bank","brand:wikidata":"Q2944755"},"coordinates":[42.66098,25.793966]},"tags_mismatch":false,"dist":0},{"osm":false,"atp":{"id":"Mns-0NSX4Sm8GuqkpgTRrOMCC4g=","tags":{"ref":"1384936","amenity":"bank","short_name:bg":"ЦКБ","short_name:en":"CCBank","addr:full":"пл.\"Съединение\" 1","addr:city":"Чирпан","addr:country":"BG","name":"Стара Загора Офис Чирпан","phone":"+359 41 696 122;+359 88 465 0869","opening_hours":"Mo-Fr 08:30-13:00,14:00-17:00","brand":"Central Cooperative Bank","brand:wikidata":"Q2944755"},"coordinates":[42.199497,25.3234]},"tags_mismatch":false,"dist":0},{"osm":false,"atp":{"id":"44505V8HsPmD1Q-wT7zruYmK-sE=","tags":{"ref":"1384938","amenity":"bank","short_name:bg":"ЦКБ","short_name:en":"CCBank","addr:full":"бул.\"Митрополит Методий Кусев\" 33","addr:city":"Стара Загора","addr:country":"BG","name":"Стара Загора ИРМ Съдебна палата","phone":"+359 42 220 374;+359 88 239 2922","opening_hours":"Mo-Fr 09:00-17:00","brand":"Central Cooperative Bank","brand:wikidata":"Q2944755"},"coordinates":[42.426772,25.625087]},"tags_mismatch":false,"dist":0},{"osm":false,"atp":{"id":"C40iNRRZlisc1o54EdRvgbc6QII=","tags":{"ref":"1384939","amenity":"bank","short_name:bg":"ЦКБ","short_name:en":"CCBank","addr:full":"бул.\"Цар Симеон Велики\" 1","addr:city":"Стара Загора","addr:country":"BG","name":"Стара Загора ИРМ АГКК","phone":"+359 42 220 377;+359 88 477 6110","opening_hours":"Mo-Fr 09:00-12:30,13:00-17:00","brand":"Central Cooperative Bank","brand:wikidata":"Q2944755"},"coordinates":[42.4206911,25.6098673]},"tags_mismatch":false,"dist":0},{"osm":false,"atp":{"id":"J7lxiZhlYOxDWtsMzjGVsHdE80g=","tags":{"ref":"1384940","amenity":"bank","short_name:bg":"ЦКБ","short_name:en":"CCBank","addr:full":"ул.\"Г. Димитров\" 6","addr:city":"Раднево","addr:country":"BG","name":"Стара Загора Офис Раднево","phone":"+359 42 220 120;+359 88 406 4099","opening_hours":"Mo-Fr 08:30-13:00,14:00-17:00","brand":"Central Cooperative Bank","brand:wikidata":"Q2944755"},"coordinates":[42.290618,25.935244]},"tags_mismatch":false,"dist":0},{"osm":false,"atp":{"id":"_bbGnq6MDurSE70pttP2rBH5cdY=","tags":{"ref":"1384941","amenity":"bank","short_name:bg":"ЦКБ","short_name:en":"CCBank","addr:full":"ул.\"Граф Игнатиев\" 16 /в сградата на ОДМВР Ст.Загора/","addr:city":"Стара Загора","addr:country":"BG","name":"Стара Загора ИРМ Паспортна служба","phone":"+359 42 220 362","opening_hours":"Mo-Fr 08:30-13:00,14:00-17:00","brand":"Central Cooperative Bank","brand:wikidata":"Q2944755"},"coordinates":[42.427519,25.631527]},"tags_mismatch":false,"dist":0},{"osm":false,"atp":{"id":"Ma8YJ7hBYxwiz_jG2PRRqbkuEjA=","tags":{"ref":"1384942","amenity":"bank","short_name:bg":"ЦКБ","short_name:en":"CCBank","addr:full":"кв. Индустриален, ул.\"Промишлена\" 2 /в сградата на сектор Пътна полиция/","addr:city":"Стара Загора","addr:country":"BG","name":"Стара Загора ИРМ КАТ","phone":"+359 42 220 363","opening_hours":"Mo-Fr 08:30-12:00,12:30-16:30","brand":"Central Cooperative Bank","brand:wikidata":"Q2944755"},"coordinates":[42.409065,25.637435]},"tags_mismatch":false,"dist":0},{"osm":false,"atp":{"id":"stmbB2fMtEY0bGF-6IipAz8sF40=","tags":{"ref":"1384943","amenity":"bank","short_name:bg":"ЦКБ","short_name:en":"CCBank","addr:full":"ул.\"Васил Левски\" 5","addr:city":"Търговище","addr:country":"BG","name":"ЦКБ АД Клон Търговище","phone":"+359 60 169 111;+359 88 464 9271","opening_hours":"Mo-Fr 08:30-17:00","brand":"Central Cooperative Bank","brand:wikidata":"Q2944755"},"coordinates":[43.244484,26.572077]},"tags_mismatch":false,"dist":0},{"osm":false,"atp":{"id":"krs8GHqJvHBmsZAI92J0mQ3L_SA=","tags":{"ref":"1384944","amenity":"bank","short_name:bg":"ЦКБ","short_name:en":"CCBank","addr:full":"ул.\"Тузлушки герой\" 24","addr:city":"Антоново","addr:country":"BG","name":"Търговище Офис Антоново","phone":"+359 60 712 259;+359 88 217 4854","opening_hours":"Mo-Fr 08:30-12:00,13:00-17:00","brand":"Central Cooperative Bank","brand:wikidata":"Q2944755"},"coordinates":[43.150524,26.161602]},"tags_mismatch":false,"dist":0},{"osm":false,"atp":{"id":"gSCJ_ltd1xZI9YGgNJy3HIYZa5o=","tags":{"ref":"1384945","amenity":"bank","short_name:bg":"ЦКБ","short_name:en":"CCBank","addr:full":"ул.\"Антим I\" 1","addr:city":"Омуртаг","addr:country":"BG","name":"Търговище Офис Омуртаг","phone":"+359 60 564 418;+359 88 710 4378","opening_hours":"Mo-Fr 08:30-12:00,13:00-17:00","brand":"Central Cooperative Bank","brand:wikidata":"Q2944755"},"coordinates":[43.108047,26.41976]},"tags_mismatch":false,"dist":0},{"osm":false,"atp":{"id":"_clrmviN6h0GEB4e7ftXsITwzZw=","tags":{"ref":"1384946","amenity":"bank","short_name:bg":"ЦКБ","short_name:en":"CCBank","addr:full":"ул.\"Александър Стамболийски\" 3","addr:city":"Попово","addr:country":"BG","name":"Търговище Офис Попово","phone":"+359 60 847 932;+359 88 465 4288","opening_hours":"Mo-Fr 08:30-12:00,13:00-17:00","brand":"Central Cooperative Bank","brand:wikidata":"Q2944755"},"coordinates":[43.348526,26.228527]},"tags_mismatch":false,"dist":0},{"osm":false,"atp":{"id":"ykZAUkHdD14y3Vky8RDiH_KO6Uw=","tags":{"ref":"1384947","amenity":"bank","short_name:bg":"ЦКБ","short_name:en":"CCBank","addr:full":"ул.\"България\" 69","addr:city":"Опака","addr:country":"BG","name":"Търговище Офис Опака","phone":"+359 60 392 490;+359 88 411 5813","opening_hours":"Mo-Fr 08:30-12:00,13:00-17:00","brand":"Central Cooperative Bank","brand:wikidata":"Q2944755"},"coordinates":[43.444725,26.166193]},"tags_mismatch":false,"dist":0},{"osm":false,"atp":{"id":"Uv6Vymt-XfkyeLvfelkiFUpwR3k=","tags":{"ref":"1384948","amenity":"bank","short_name:bg":"ЦКБ","short_name:en":"CCBank","addr:full":"ул.\"Септемврийско въстание\" 49","addr:city":"Върбица","addr:country":"BG","name":"Търговище Офис Върбица","phone":"+359 53 912 115;+359 88 418 0590","opening_hours":"Mo-Fr 08:30-12:00,13:00-17:00","brand":"Central Cooperative Bank","brand:wikidata":"Q2944755"},"coordinates":[42.993412,26.671629]},"tags_mismatch":false,"dist":0},{"osm":false,"atp":{"id":"5Q_wqGw1p5pvtHkIlIvEYo5RB3o=","tags":{"ref":"1384949","amenity":"bank","short_name:bg":"ЦКБ","short_name:en":"CCBank","addr:full":"ул.\"Стефан Караджа\" 36","addr:city":"Търговище","addr:country":"BG","name":"Търговище ОфСтефан Караджа","phone":"+359 60 162 337;+359 88 291 4010","opening_hours":"Mo-Fr 08:30-12:00,13:00-17:00","brand":"Central Cooperative Bank","brand:wikidata":"Q2944755"},"coordinates":[43.24807,26.576517]},"tags_mismatch":false,"dist":0},{"osm":false,"atp":{"id":"TQIj9iy8NhZJxrVsUNg1tnBBKtg=","tags":{"ref":"1384951","amenity":"bank","short_name:bg":"ЦКБ","short_name:en":"CCBank","addr:full":"ул.\"Химкомбинатска 3\", Неохим","addr:city":"Димитровград","addr:country":"BG","name":"Хасково ИРМ Неохим","phone":"+359 39 164 462;+359 88 422 2191","opening_hours":"Mo-Fr 08:30-12:30,13:00-17:00","brand":"Central Cooperative Bank","brand:wikidata":"Q2944755"},"coordinates":[42.049625,25.616941]},"tags_mismatch":false,"dist":0},{"osm":false,"atp":{"id":"eJ6HDXt1LRocIbAkGUzSb0puM3w=","tags":{"ref":"1384952","amenity":"bank","short_name:bg":"ЦКБ","short_name:en":"CCBank","addr:full":"бул.\"Г.С.Раковски\" 13 бл.Б1","addr:city":"Димитровград","addr:country":"BG","name":"Хасково Офис Димитровград","phone":"+359 39 164 467;+359 88 414 4473","opening_hours":"Mo-Fr 08:30-17:00","brand":"Central Cooperative Bank","brand:wikidata":"Q2944755"},"coordinates":[42.060757,25.591686]},"tags_mismatch":false,"dist":0},{"osm":false,"atp":{"id":"G2CpAU83CyzRvFJrwJa17JRt6Xo=","tags":{"ref":"1384953","amenity":"bank","short_name:bg":"ЦКБ","short_name:en":"CCBank","addr:full":"бул.\"България 114\"","addr:city":"Свиленград","addr:country":"BG","name":"Хасково Офис Свиленград","phone":"+359 37 971 436;+359 88 614 6925","opening_hours":"Mo-Fr 08:30-12:00,13:00-17:00","brand":"Central Cooperative Bank","brand:wikidata":"Q2944755"},"coordinates":[41.764812,26.204453]},"tags_mismatch":false,"dist":0},{"osm":false,"atp":{"id":"zKQzPyAWqOUvq40Jvttd_KEThig=","tags":{"ref":"1384954","amenity":"bank","short_name:bg":"ЦКБ","short_name:en":"CCBank","addr:full":"бул.\"България\" 3 А","addr:city":"Харманли","addr:country":"BG","name":"Хасково Офис Харманли","phone":"+359 37 382 814;+359 88 417 5519","opening_hours":"Mo-Fr 08:30-12:00,13:00-17:00","brand":"Central Cooperative Bank","brand:wikidata":"Q2944755"},"coordinates":[41.931175,25.903231]},"tags_mismatch":false,"dist":0},{"osm":false,"atp":{"id":"PYnNvDqHVHbrFB7RXlhxqnihki0=","tags":{"ref":"1384956","amenity":"bank","short_name:bg":"ЦКБ","short_name:en":"CCBank","addr:full":"бул.\"България 144\"","addr:city":"Хасково","addr:country":"BG","name":"Хасково ИРМ Хасков.Окр.Съд","phone":"+359 38 585 021;+359 88 515 1340","opening_hours":"Mo-Fr 08:30-12:30,13:00-17:00","brand":"Central Cooperative Bank","brand:wikidata":"Q2944755"},"coordinates":[41.930935,25.552721]},"tags_mismatch":false,"dist":0},{"osm":false,"atp":{"id":"UHnK6ymJNu2T5P2NTpb6fmr40KM=","tags":{"ref":"1384957","amenity":"bank","short_name:bg":"ЦКБ","short_name:en":"CCBank","addr:full":"бул.\"България\" 124","addr:city":"Хасково","addr:country":"BG","name":"Хасково Офис Хасково 3","phone":"+359 38 620 543;+359 88 440 0765","opening_hours":"Mo-Fr 08:30-12:00,13:00-17:00","brand":"Central Cooperative Bank","brand:wikidata":"Q2944755"},"coordinates":[41.934067,25.549488]},"tags_mismatch":false,"dist":0},{"osm":false,"atp":{"id":"yQO2CAHpqD6M72UqgDXSLoO0XyM=","tags":{"ref":"1384958","amenity":"bank","short_name:bg":"ЦКБ","short_name:en":"CCBank","addr:full":"бул. \"Димитър Благоев\" 10","addr:city":"Димитровград","addr:country":"BG","name":"Хасково ИРМ РУП - Димитровград","phone":"+359 88 414 4473;+359 39 133 084","opening_hours":"Mo-Fr 08:30-12:30,13:00-16:30","brand":"Central Cooperative Bank","brand:wikidata":"Q2944755"},"coordinates":[42.054958,25.595294]},"tags_mismatch":false,"dist":0},{"osm":false,"atp":{"id":"wCBQbXcF8oCmRuiGz9LI1-LJk1c=","tags":{"ref":"1384962","amenity":"bank","short_name:bg":"ЦКБ","short_name:en":"CCBank","addr:full":"бул.\"Св.Георги Софийски\" 56","addr:city":"София","addr:country":"BG","name":"Централен Офис ВМА","phone":"+359 2 95 15 480;+359885191038","opening_hours":"Mo-Fr 08:30-12:00,12:30-17:00","brand":"Central Cooperative Bank","brand:wikidata":"Q2944755"},"coordinates":[42.685102,23.303571]},"tags_mismatch":false,"dist":0},{"osm":false,"atp":{"id":"6uMndZK0JogOMjH85C0rxi1F2dM=","tags":{"ref":"1384965","amenity":"bank","short_name:bg":"ЦКБ","short_name:en":"CCBank","addr:full":"бул.\"Брюксел\" 1","addr:city":"София","addr:country":"BG","name":"ЦентраленОфис България Ер","phone":"+359 2 405 1614;+35988476820","opening_hours":"Mo-Fr 09:00-14:00,14:30-17:00","brand":"Central Cooperative Bank","brand:wikidata":"Q2944755"},"coordinates":[42.686944,23.402168]},"tags_mismatch":false,"dist":0},{"osm":false,"atp":{"id":"A-RqsTueHr6XA9xGwOfDzZjSJOA=","tags":{"ref":"1384967","amenity":"bank","short_name:bg":"ЦКБ","short_name:en":"CCBank","addr:full":"ул.\"Сребърна\" 14","addr:city":"София","addr:country":"BG","name":"Централен Офис СРЕБЪРНА","phone":"+359 2 923 4745;+35988264988","opening_hours":"Mo-Fr 08:30-16:30","brand":"Central Cooperative Bank","brand:wikidata":"Q2944755"},"coordinates":[42.659798,23.318117]},"tags_mismatch":false,"dist":0},{"osm":false,"atp":{"id":"eiho2IdUBfrjr6rE0jDFA0YBkog=","tags":{"ref":"1384970","amenity":"bank","short_name:bg":"ЦКБ","short_name:en":"CCBank","addr:full":"ул.\"Аполония\" 17","addr:city":"Созопол","addr:country":"BG","name":"ЦКБ АД Клон Черно Море","phone":"+359 55 026 372;+359 88 463 8722","opening_hours":"Mo-Fr 08:30-12:00,13:00-17:00","brand":"Central Cooperative Bank","brand:wikidata":"Q2944755"},"coordinates":[42.422941,27.694286]},"tags_mismatch":false,"dist":0},{"osm":false,"atp":{"id":"Zz-IYnZCt2mfGrdUeWv4lP9qyKQ=","tags":{"ref":"1384972","amenity":"bank","short_name:bg":"ЦКБ","short_name:en":"CCBank","addr:full":"ул.\"Трети март\" 57","addr:city":"Приморско","addr:country":"BG","name":"Черно Море Офис Приморско","phone":"+359 55 032 317;+359 87 625 0621","opening_hours":"Mo-Fr 08:30-12:30,13:30-16:30","brand":"Central Cooperative Bank","brand:wikidata":"Q2944755"},"coordinates":[42.266434,27.752687]},"tags_mismatch":false,"dist":0},{"osm":false,"atp":{"id":"51hI_EzsrP7VvDB-eTiF28l3GZ8=","tags":{"ref":"1384973","amenity":"bank","short_name:bg":"ЦКБ","short_name:en":"CCBank","addr:full":"ул.\"Републиканска\" 16","addr:city":"Созопол","addr:country":"BG","name":"Черно Море Офис Созопол","phone":"+359 55 022 550;+359 89 574 7107","opening_hours":"Mo-Fr 08:30-13:00,14:00-16:30","brand":"Central Cooperative Bank","brand:wikidata":"Q2944755"},"coordinates":[42.417763,27.695805]},"tags_mismatch":false,"dist":0},{"osm":false,"atp":{"id":"wrAn2NWed_lLqhexPVw427B5A2A=","tags":{"ref":"1384974","amenity":"bank","short_name:bg":"ЦКБ","short_name:en":"CCBank","addr:full":"ул.\"Свети Никола\" 15","addr:city":"Черноморец","addr:country":"BG","name":"Черно Море Офис Черноморец","phone":"+359 55 044 223;+359 88 265 3007","opening_hours":"Mo-Fr 08:30-12:00,13:00-17:00","brand":"Central Cooperative Bank","brand:wikidata":"Q2944755"},"coordinates":[42.442937,27.638715]},"tags_mismatch":false,"dist":0},{"osm":false,"atp":{"id":"E0eyFbXSP99JBC3FDzb-E5SzMbg=","tags":{"ref":"1384975","amenity":"bank","short_name:bg":"ЦКБ","short_name:en":"CCBank","addr:full":"ул.\"Странджа\" 21","addr:city":"Китен","addr:country":"BG","name":"Черно Море Офис Китен","phone":"+359 55 026 375;+359 88 918 8411","opening_hours":"Mo-Fr 08:30-12:00,13:00-16:00","brand":"Central Cooperative Bank","brand:wikidata":"Q2944755"},"coordinates":[42.422941,27.694286]},"tags_mismatch":false,"dist":0},{"osm":false,"atp":{"id":"Gf3h2cUUopLjNQzRJUN3AhfJOWU=","tags":{"ref":"1384977","amenity":"bank","short_name:bg":"ЦКБ","short_name:en":"CCBank","addr:full":"бул.\"Славянски\" 13А","addr:city":"Шумен","addr:country":"BG","name":"ЦКБ АД Клон Шумен","phone":"+359 54 830 406;+359 88 269 4718","opening_hours":"Mo-Fr 08:30-17:00","brand":"Central Cooperative Bank","brand:wikidata":"Q2944755"},"coordinates":[43.27066,26.93219]},"tags_mismatch":false,"dist":0},{"osm":false,"atp":{"id":"cnFM7UoPrTh2bbtJFHpXs7TgX8Y=","tags":{"ref":"1384978","amenity":"bank","short_name:bg":"ЦКБ","short_name:en":"CCBank","addr:full":"ул.\"Цар Освободител\" 16","addr:city":"Нови Пазар","addr:country":"BG","name":"Шумен Офис Нови пазар","phone":"+359 53 722 064;+359 88 460 4571","opening_hours":"Mo-Fr 08:30-12:00,13:00-17:00","brand":"Central Cooperative Bank","brand:wikidata":"Q2944755"},"coordinates":[43.346027,27.193867]},"tags_mismatch":false,"dist":0},{"osm":false,"atp":{"id":"0xuhEZIG8X6Y7cduohzRdRl32Do=","tags":{"ref":"1384979","amenity":"bank","short_name:bg":"ЦКБ","short_name:en":"CCBank","addr:full":"ул.\"Борис Спиров\" 50","addr:city":"Велики Преслав","addr:country":"BG","name":"Шумен Офис Велики Преслав","phone":"+359 53 842 190;+359 88 462 7381","opening_hours":"Mo-Fr 08:30-12:00,13:00-17:00","brand":"Central Cooperative Bank","brand:wikidata":"Q2944755"},"coordinates":[43.1645409,26.8179675]},"tags_mismatch":false,"dist":0},{"osm":false,"atp":{"id":"FNZdVBI6j3CrKhxML1P5uYNxkwQ=","tags":{"ref":"1384980","amenity":"bank","short_name:bg":"ЦКБ","short_name:en":"CCBank","addr:full":"ул.\"Патлейна\" 10","addr:city":"Шумен","addr:country":"BG","name":"Шумен Офис Патлейна","phone":"+359 54 874 701;+359 88 461 0452","opening_hours":"Mo-Fr 08:30-13:00,14:00-17:00","brand":"Central Cooperative Bank","brand:wikidata":"Q2944755"},"coordinates":[43.270752,26.93647]},"tags_mismatch":false,"dist":0},{"osm":false,"atp":{"id":"gqsplVAt3X9KbEKLfOJBKXwzKoE=","tags":{"ref":"1384981","amenity":"bank","short_name:bg":"ЦКБ","short_name:en":"CCBank","addr:full":"пл. \"Освобождение\" № 1","addr:city":"Шумен","addr:country":"BG","name":"Шумен ИРМ Паспортна служба","phone":"+359 54 874 710;+359 88 209 5872","opening_hours":"Mo-Fr 08:30-13:00,13:30-16:45","brand":"Central Cooperative Bank","brand:wikidata":"Q2944755"},"coordinates":[43.270463,26.922193]},"tags_mismatch":false,"dist":0},{"osm":false,"atp":{"id":"2tMwwUk6p3YsLSS0uhC-SZI3syQ=","tags":{"ref":"1384983","amenity":"bank","short_name:bg":"ЦКБ","short_name:en":"CCBank","addr:full":"ул. Хемус 21","addr:city":"Стралджа","addr:country":"BG","name":"Ямбол Офис Стралджа","phone":"+359 47 615 232;+359 88 262 9204","opening_hours":"Mo-Fr 08:30-12:00,13:00-17:00","brand":"Central Cooperative Bank","brand:wikidata":"Q2944755"},"coordinates":[42.602253,26.688795]},"tags_mismatch":false,"dist":0},{"osm":false,"atp":{"id":"LSD_H-vZSQiJeARsBulm28MNilw=","tags":{"ref":"1384984","amenity":"bank","short_name:bg":"ЦКБ","short_name:en":"CCBank","addr:full":"ул.\"Търговска\" 65А","addr:city":"Елхово","addr:country":"BG","name":"Ямбол Офис Елхово","phone":"+359 47 888 571;+359 88 265 7075","opening_hours":"Mo-Fr 08:30-12:00,13:00-17:00","brand":"Central Cooperative Bank","brand:wikidata":"Q2944755"},"coordinates":[42.172882,26.573137]},"tags_mismatch":false,"dist":0},{"osm":false,"atp":{"id":"s7PVsiDyivv8S8kyoA2QvdotFHg=","tags":{"ref":"1384985","amenity":"bank","short_name:bg":"ЦКБ","short_name:en":"CCBank","addr:full":"ул.\"Преслав\" 38","addr:city":"Ямбол","addr:country":"BG","name":"Ямбол ИРМ Паспортна служба","phone":"+359 46 989 300;+359 88 217 8775","opening_hours":"Mo-Fr 08:30-17:00","brand":"Central Cooperative Bank","brand:wikidata":"Q2944755"},"coordinates":[42.4848877,26.5110654]},"tags_mismatch":false,"dist":0},{"osm":false,"atp":{"id":"QNFTlgR2lLqlA8o8jKdM0i1lXjk=","tags":{"ref":"1384986","amenity":"bank","short_name:bg":"ЦКБ","short_name:en":"CCBank","addr:full":"ул.\"Търговска\"91(KAT)","addr:city":"Ямбол","addr:country":"BG","name":"Ямбол ИРМ КАТ","phone":"+359 46 989 123;+359 88 227 4414","opening_hours":"Mo-Fr 08:30-17:00","brand":"Central Cooperative Bank","brand:wikidata":"Q2944755"},"coordinates":[42.4806176,26.5186892]},"tags_mismatch":false,"dist":0},{"osm":false,"atp":{"id":"bBnP_FCss1ZgIKJb32iyyDCgBso=","tags":{"ref":"1384987","amenity":"bank","short_name:bg":"ЦКБ","short_name:en":"CCBank","addr:full":"ул.\"Жорж Папазов\" 1","addr:city":"Ямбол","addr:country":"BG","name":"Ямбол ИРМ Съдебна палата","phone":"+359 46 989 139","opening_hours":"Mo-Fr 08:30-12:00,13:00-17:00","brand":"Central Cooperative Bank","brand:wikidata":"Q2944755"},"coordinates":[42.4850413,26.5053682]},"tags_mismatch":false,"dist":0}]}