{"metadata":{"type":"brand","wikidata":"Q3367065","name":"Първа инвестиционна банка","compare_keys":["opening_hours"]},"data":[{"osm":{"type":"node","id":340029176,"tags":{"amenity":"bank","atm":"yes","bic":"FINVBGSF","brand":"Първа инвестиционна банка","brand:wikidata":"Q3367065","official_name":"Първа инвестиционна банка","official_name:en":"First Investment Bank","short_name":"ПИБ","short_name:bg":"ПИБ","short_name:en":"FIB","website":"https://www.fibank.bg/","wheelchair":"yes"},"wikidata":"Q3367065","coordinates":[42.7186748,23.2578165]},"atp":{"id":"3ByqNM7tC2m81k42FeiWIKgLmlM=","tags":{"ref":"11111255","amenity":"bank","short_name:bg":"ПИБ","addr:full":"бул. \"Царица Йоанна\" 70, гр. София","addr:country":"BG","name":"клон &quot;Люлин&quot;, гр. София","phone":"+359 2 817 1483","opening_hours":"Mo-Fr 09:00-17:30","brand":"Fibank","brand:wikidata":"Q3367065"},"coordinates":[42.71867,23.25782]},"dist":0.605,"tags_mismatch":true},{"osm":{"type":"node","id":1270803223,"tags":{"amenity":"bank","atm":"yes","brand":"Първа инвестиционна банка","brand:wikidata":"Q3367065","short_name:bg":"ПИБ"},"wikidata":"Q3367065","coordinates":[43.2152527,27.9291478]},"atp":{"id":"HUPderm-OTObCVzM6TWc4R_qTZU=","tags":{"ref":"11111263","amenity":"bank","short_name:bg":"ПИБ","addr:full":"бул. \"8-и Приморски полк\" 128, гр. Варна","addr:country":"BG","name":"клон \"8-и Приморски полк\", гр. Варна","phone":"+359 52 662 624","opening_hours":"Mo-Fr 09:00-17:30","brand":"Fibank","brand:wikidata":"Q3367065"},"coordinates":[43.2154039,27.9285182]},"dist":53.72,"tags_mismatch":true},{"osm":{"type":"node","id":1347020560,"tags":{"amenity":"bank","atm":"yes","brand":"Първа инвестиционна банка","brand:wikidata":"Q3367065","short_name:bg":"ПИБ","wheelchair":"yes"},"wikidata":"Q3367065","coordinates":[42.4267449,25.6403914]},"atp":{"id":"YJSZlNwoD0G94nT_JNs7WjbIUPc=","tags":{"ref":"11111287","amenity":"bank","short_name:bg":"ПИБ","addr:full":"бул. \"Цар Симеон Велики\" 141, гр. Стара Загора","addr:country":"BG","name":"клон \"Цар Симеон\", гр. Стара Загора","phone":"+359 42 698 822","opening_hours":"Mo-Fr 09:00-17:30","brand":"Fibank","brand:wikidata":"Q3367065"},"coordinates":[42.4267033,25.6406717]},"dist":23.467,"tags_mismatch":true},{"osm":{"type":"node","id":1347589162,"tags":{"amenity":"bank","atm":"yes","brand":"Първа инвестиционна банка","brand:wikidata":"Q3367065","opening_hours":"Mo-Fr 09:00-17:30; Sa 09:00-17:00","short_name:bg":"ПИБ","wheelchair":"yes"},"wikidata":"Q3367065","coordinates":[42.4243085,25.6278821]},"atp":{"id":"WtmZ8syeeYWVNXXbsFAZuT-7n-M=","tags":{"ref":"11111286","amenity":"bank","short_name:bg":"ПИБ","addr:full":"бул. \"Цар Симеон Велики\" 69, гр. Стара Загора","addr:country":"BG","name":"клон \"Траяна\", гр. Стара Загора","phone":"+359 42 698 771","opening_hours":"Mo-Fr 09:00-17:30","brand":"Fibank","brand:wikidata":"Q3367065"},"coordinates":[42.423108045599,25.619344711304]},"dist":713.361,"tags_mismatch":true},{"osm":{"type":"node","id":2040123737,"tags":{"amenity":"bank","atm":"yes","brand":"Първа инвестиционна банка","brand:wikidata":"Q3367065","opening_hours":"Tu-Su 08:00-18:00; Sa 08:00-12:00","short_name:bg":"ПИБ","wheelchair":"yes"},"wikidata":"Q3367065","coordinates":[42.6423761,24.8082612]},"atp":{"id":"6aSWMp-6vlLQoPYkZyI_k4ybdEU=","tags":{"ref":"11111328","amenity":"bank","short_name:bg":"ПИБ","addr:full":"ул. \"Генерал Карцов\" 6, гр. Карлово","addr:country":"BG","name":"клон \"Карлово\", гр. Карлово","phone":"+359 33 590 799","opening_hours":"Mo-Fr 09:00-17:30","brand":"Fibank","brand:wikidata":"Q3367065"},"coordinates":[42.642648484416,24.804350137711]},"dist":321.334,"tags_mismatch":true},{"osm":{"type":"node","id":2061149187,"tags":{"amenity":"bank","atm":"yes","brand":"Първа инвестиционна банка","brand:wikidata":"Q3367065","short_name:bg":"ПИБ"},"wikidata":"Q3367065","coordinates":[42.8713743,25.3193523]},"atp":false,"tags_mismatch":false},{"osm":{"type":"node","id":2314207430,"tags":{"amenity":"bank","atm":"yes","brand":"Първа инвестиционна банка","brand:wikidata":"Q3367065","short_name:bg":"ПИБ"},"wikidata":"Q3367065","coordinates":[43.0779774,25.6303226]},"atp":{"id":"XRZvQhABi8YwkDBTLocHwEgP64U=","tags":{"ref":"11111290","amenity":"bank","short_name:bg":"ПИБ","addr:full":"ул. \"Бачо Киро\" 5, гр. Велико Търново","addr:country":"BG","name":"клон Бачо Киро, гр. Велико Търново","phone":"+359 62 682 436","opening_hours":"Mo-Fr 09:00-17:30","brand":"Fibank","brand:wikidata":"Q3367065"},"coordinates":[43.0779574,25.6300229]},"dist":24.443,"tags_mismatch":true},{"osm":{"type":"node","id":2318442018,"tags":{"amenity":"bank","brand":"Първа инвестиционна банка","brand:wikidata":"Q3367065","short_name:bg":"ПИБ"},"wikidata":"Q3367065","coordinates":[43.0792832,25.5994396]},"atp":{"id":"hHU6BLpXvlT1UXjPr9Z2gabZiWE=","tags":{"ref":"11111289","amenity":"bank","short_name:bg":"ПИБ","addr:full":"ул. \"Оборище\" 18, гр. Велико Търново","addr:country":"BG","name":"клон &amp;quot;Велико Търново&amp;quot;, гр. Велико Търново","phone":"+359 62 614 464","opening_hours":"Mo-Fr 09:00-17:30","brand":"Fibank","brand:wikidata":"Q3367065"},"coordinates":[43.079076029419,25.600075721741]},"dist":56.568,"tags_mismatch":true},{"osm":{"type":"node","id":2611597637,"tags":{"addr:housenumber":"21","addr:postcode":"5000","addr:street":"бул. Васил Левски","amenity":"bank","brand":"Първа инвестиционна банка","brand:wikidata":"Q3367065","contact:phone":"+359 62 650 299","opening_hours":"Mo-Fr 09:00-17:30","short_name":"Fibank","short_name:bg":"ПИБ","website":"https://www.fibank.bg/"},"wikidata":"Q3367065","coordinates":[43.0796209,25.6294272]},"atp":false,"tags_mismatch":false},{"osm":{"type":"node","id":3033648118,"tags":{"addr:housenumber":"110","addr:street":"бул. Витоша","amenity":"bank","atm":"separate","brand":"Първа инвестиционна банка","brand:wikidata":"Q3367065","check_date":"2023-09-30","official_name":"Първа инвестиционна банка","official_name:en":"First Investment Bank","opening_hours":"Mo-Fr 09:00-17:30","phone":"+359 2 817 1514","short_name":"ПИБ","short_name:bg":"ПИБ","short_name:en":"FIB","website":"https://www.fibank.bg/","wheelchair":"no"},"wikidata":"Q3367065","coordinates":[42.6855331,23.3168732]},"atp":false,"tags_mismatch":false},{"osm":{"type":"node","id":3065626801,"tags":{"addr:city":"София","addr:housenumber":"81Г","addr:postcode":"1404","addr:street":"бул. България","amenity":"bank","atm":"separate","brand":"Първа инвестиционна банка","brand:wikidata":"Q3367065","check_date":"2024-07-24","official_name":"Първа инвестиционна банка","official_name:en":"First Investment Bank","opening_hours":"Mo-Fr 09:00-19:00","phone":"+359 2 800 2501","short_name":"ПИБ","short_name:bg":"ПИБ","short_name:en":"FIB","website":"https://www.fibank.bg/"},"wikidata":"Q3367065","coordinates":[42.660957,23.2863538]},"atp":{"id":"yrDwOM8AYLfvnRqta-icHaRch24=","tags":{"ref":"11111331","amenity":"bank","short_name:bg":"ПИБ","addr:full":"бул. \"България\" 81 Г, гр. София","addr:country":"BG","name":"клон \"България\", гр. София","phone":"+359 2 800 2501","opening_hours":"Mo-Fr 09:00-17:30","brand":"Fibank","brand:wikidata":"Q3367065"},"coordinates":[42.660900134726,23.28625202179]},"dist":10.452,"tags_mismatch":true},{"osm":{"type":"node","id":3072552783,"tags":{"addr:housenumber":"7","addr:postcode":"4400","addr:street":"бул. България","alt_name":"First Investment Bank","amenity":"bank","brand":"Първа инвестиционна банка","brand:wikidata":"Q3367065","short_name:bg":"ПИБ","website":"https://www.fibank.bg/"},"wikidata":"Q3367065","coordinates":[42.1883357,24.3313453]},"atp":{"id":"cvc5beZ-pI7rI8Xa3qIXcxyxjDw=","tags":{"ref":"11111284","amenity":"bank","short_name:bg":"ПИБ","addr:full":"бул. \"България\" 11, гр. Пазарджик","addr:country":"BG","name":"клон &quot;Пазарджик&quot;, гр. Пазарджик","phone":"+359 34 403 644","opening_hours":"Mo-Fr 09:00-17:30","brand":"Fibank","brand:wikidata":"Q3367065"},"coordinates":[42.1885163,24.3313066]},"dist":20.333,"tags_mismatch":true},{"osm":{"type":"node","id":3179757676,"tags":{"addr:housenumber":"101","addr:postcode":"1303","addr:street":"бул. Александър Стамболийски","amenity":"bank","atm":"yes","brand":"Първа инвестиционна банка","brand:wikidata":"Q3367065","level":"0","note":"Node position is not indicative of position within the mall","official_name":"Първа инвестиционна банка","official_name:en":"First Investment Bank","opening_hours":"Mo-Fr 10:00-22:00","short_name":"ПИБ","short_name:bg":"ПИБ","short_name:en":"FIB","website":"https://www.fibank.bg/","wheelchair":"yes"},"wikidata":"Q3367065","coordinates":[42.6985297,23.3080542]},"atp":{"id":"cYX4_5nO0xCuVuMlSjiUuGouv9M=","tags":{"ref":"11111246","amenity":"bank","short_name:bg":"ПИБ","addr:full":"бул. \"Александър Стамболийски\" 101, гр. София","addr:country":"BG","name":"клон Мол София, гр. София","phone":"+359 2 817 1672","opening_hours":"Mo-Su 10:00-21:00","brand":"Fibank","brand:wikidata":"Q3367065"},"coordinates":[42.6985266,23.3095288]},"dist":120.506,"tags_mismatch":true},{"osm":{"type":"node","id":3218265728,"tags":{"addr:housenumber":"28-30","addr:postcode":"1510","addr:street":"Дончо Ватах","amenity":"bank","brand":"Първа инвестиционна банка","brand:wikidata":"Q3367065","contact:phone":"+359 2 817 1576","official_name":"Първа инвестиционна банка","official_name:en":"First Investment Bank","opening_hours":"Mo-Fr 09:00-19:00","short_name":"ПИБ","short_name:bg":"ПИБ","short_name:en":"FIB","website":"https://www.fibank.bg/","wheelchair":"no"},"wikidata":"Q3367065","coordinates":[42.7068912,23.3517196]},"atp":{"id":"oRQGJlS5ggiQDJTPt5dIk16tDoY=","tags":{"ref":"11111254","amenity":"bank","short_name:bg":"ПИБ","addr:full":"ул. \"Дончо Ватах\" 28-30, гр. София","addr:country":"BG","name":"клон \"Хаджи Димитър\", гр. София","phone":"+359 2 817 1576","opening_hours":"Mo-Fr 09:00-17:30","brand":"Fibank","brand:wikidata":"Q3367065"},"coordinates":[42.706981,23.3517268]},"dist":10.003,"tags_mismatch":true},{"osm":{"type":"node","id":3251200247,"tags":{"amenity":"bank","atm":"yes","brand":"Първа инвестиционна банка","brand:wikidata":"Q3367065","short_name:bg":"ПИБ"},"wikidata":"Q3367065","coordinates":[43.2114628,27.9064138]},"atp":{"id":"97Wnca2e3DwfDCxVKRa4rV-meMo=","tags":{"ref":"11111265","amenity":"bank","short_name:bg":"ПИБ","addr:full":"бул. \"Владислав Варненчик\" 57, гр. Варна","addr:country":"BG","name":"клон \"Районен съд\", гр. Варна","phone":"+359 52 662 666","opening_hours":"Mo-Fr 09:00-17:30","brand":"Fibank","brand:wikidata":"Q3367065"},"coordinates":[43.211509948695,27.90674328804]},"dist":27.212,"tags_mismatch":true},{"osm":{"type":"node","id":3361257221,"tags":{"addr:city":"Плевен","addr:housenumber":"138","addr:street":"бул. Дойран","amenity":"bank","atm":"yes","brand":"Първа инвестиционна банка","brand:wikidata":"Q3367065","opening_hours":"Mo-Fr 09:00-17:30, Sa 09:00-14:00","short_name:bg":"ПИБ"},"wikidata":"Q3367065","coordinates":[43.408931,24.6164355]},"atp":{"id":"cC5TS2dV1ZKzmhi4TXhq8XaBIBg=","tags":{"ref":"11111280","amenity":"bank","short_name:bg":"ПИБ","addr:full":"ул. \"Дойран\" 138, гр. Плевен","addr:country":"BG","name":"клон &quot;Плевен&quot;, гр. Плевен","phone":"+359 64 893 101","opening_hours":"Mo-Fr 09:00-17:30","brand":"Fibank","brand:wikidata":"Q3367065"},"coordinates":[43.4087198,24.6166807]},"dist":30.722,"tags_mismatch":true},{"osm":{"type":"node","id":3442011316,"tags":{"amenity":"bank","atm":"yes","brand":"Първа инвестиционна банка","brand:wikidata":"Q3367065","short_name:bg":"ПИБ"},"wikidata":"Q3367065","coordinates":[42.4962197,27.4746641]},"atp":{"id":"4q5XmgW5iV1nZCTlMuAoKB7XpIc=","tags":{"ref":"11111269","amenity":"bank","short_name:bg":"ПИБ","addr:full":"ул. \"Славянска\" 71","addr:country":"BG","name":"клон \"Кирил и Методий\", гр. Бургас","phone":"+359 56 804 482","opening_hours":"Mo-Fr 09:00-17:30","brand":"Fibank","brand:wikidata":"Q3367065"},"coordinates":[42.496201220753,27.474612593651]},"dist":4.696,"tags_mismatch":true},{"osm":{"type":"node","id":3605978220,"tags":{"amenity":"bank","brand":"Първа инвестиционна банка","brand:wikidata":"Q3367065","short_name:bg":"ПИБ"},"wikidata":"Q3367065","coordinates":[42.4186512,27.6949494]},"atp":false,"tags_mismatch":false},{"osm":{"type":"node","id":4029779346,"tags":{"amenity":"bank","atm":"yes","brand":"Първа инвестиционна банка","brand:wikidata":"Q3367065","opening_hours":"08:30-17:00","short_name:bg":"ПИБ"},"wikidata":"Q3367065","coordinates":[42.0074663,24.8754662]},"atp":{"id":"ylxjMn3gqsrE6Tj1CkOi67QjsuU=","tags":{"ref":"11111262","amenity":"bank","short_name:bg":"ПИБ","addr:full":"пл. \"Николай Хайтов\" 3, гр. Асеновград","addr:country":"BG","name":"клон \"Асеновград\", гр. Асеновград","phone":"+359 33 120 092","opening_hours":"Mo-Fr 09:00-17:30","brand":"Fibank","brand:wikidata":"Q3367065"},"coordinates":[42.007245369186,24.874849319458]},"dist":56.581,"tags_mismatch":true},{"osm":{"type":"node","id":4097759177,"tags":{"amenity":"bank","brand":"Първа инвестиционна банка","brand:wikidata":"Q3367065","short_name:bg":"ПИБ"},"wikidata":"Q3367065","coordinates":[42.1505201,24.7445963]},"atp":false,"tags_mismatch":false},{"osm":{"type":"node","id":4212906672,"tags":{"addr:city":"Пловдив","addr:housenumber":"26","addr:postcode":"4000","addr:street":"Княз Александър I Батенберг","amenity":"bank","atm":"yes","brand":"Първа инвестиционна банка","brand:wikidata":"Q3367065","drive_through":"no","level":"0","phone":"+359 32 270 570","short_name:bg":"ПИБ","website":"https://www.fibank.bg/"},"wikidata":"Q3367065","coordinates":[42.1457277,24.7488249]},"atp":false,"tags_mismatch":false},{"osm":{"type":"node","id":4329922913,"tags":{"amenity":"bank","atm":"separate","branch":"Южен парк","brand":"Първа инвестиционна банка","brand:wikidata":"Q3367065","check_date":"2024-08-21","official_name":"Първа инвестиционна банка","official_name:en":"First Investment Bank","opening_hours":"Mo-Fr 9:00-17:30","phone":"+359 2 800 2975","short_name":"ПИБ","short_name:bg":"ПИБ","short_name:en":"FIB","website":"https://www.fibank.bg/"},"wikidata":"Q3367065","coordinates":[42.667408,23.2996134]},"atp":{"id":"bzN42RK0E3nEosl5_p5JVvs07xM=","tags":{"ref":"11111249","amenity":"bank","short_name:bg":"ПИБ","addr:full":"ж.к. \"Мотописта\", бул. \"Гоце Делчев\" бл. 1, гр. София","addr:country":"BG","name":"клон \"Южен парк\", гр. София","phone":"+359 2 800 2975","opening_hours":"Mo-Fr 09:00-17:30","brand":"Fibank","brand:wikidata":"Q3367065"},"coordinates":[42.667085384437,23.299963474274]},"dist":45.893,"tags_mismatch":true},{"osm":{"type":"node","id":4354688589,"tags":{"addr:city":"Петрич","addr:street":"Цар Борис III","amenity":"bank","brand":"Първа инвестиционна банка","brand:wikidata":"Q3367065","short_name:bg":"ПИБ"},"wikidata":"Q3367065","coordinates":[41.3938412,23.2082433]},"atp":{"id":"KkOxyWci51oxyLkm-v0yFORb8Kw=","tags":{"ref":"11111316","amenity":"bank","short_name:bg":"ПИБ","addr:full":"ул. \"Цар Борис III\" 11А, гр. Петрич","addr:country":"BG","name":"клон \"Петрич\", гр. Петрич","phone":"+359 74 569 586","opening_hours":"Mo-Fr 09:00-17:30","brand":"Fibank","brand:wikidata":"Q3367065"},"coordinates":[41.39399,23.2082594]},"dist":16.6,"tags_mismatch":true},{"osm":{"type":"node","id":4455254168,"tags":{"amenity":"bank","brand":"Първа инвестиционна банка","brand:wikidata":"Q3367065","short_name:bg":"ПИБ"},"wikidata":"Q3367065","coordinates":[43.4055388,28.1652952]},"atp":false,"tags_mismatch":false},{"osm":{"type":"node","id":5033068020,"tags":{"amenity":"bank","brand":"Първа инвестиционна банка","brand:wikidata":"Q3367065","name:int":"First investment bank","short_name:bg":"ПИБ"},"wikidata":"Q3367065","coordinates":[42.6184847,25.3921377]},"atp":{"id":"5sKLEC_ALAk8isf23xF7AyY3tlQ=","tags":{"ref":"11111329","amenity":"bank","short_name:bg":"ПИБ","addr:full":"пл. \"Севтополис\" 11, гр. Казанлък","addr:country":"BG","name":"клон \"Казанлък\", гр. Казанлък","phone":"+359 431 670 78","opening_hours":"Mo-Fr 09:00-17:30","brand":"Fibank","brand:wikidata":"Q3367065"},"coordinates":[42.618857276994,25.39208650589]},"dist":41.64,"tags_mismatch":true},{"osm":{"type":"node","id":5052121322,"tags":{"addr:postcode":"4000","addr:street":"Княз Александър I Батенберг","amenity":"bank","brand":"Първа инвестиционна банка","brand:wikidata":"Q3367065","name:fr":"FiBank","short_name:bg":"ПИБ"},"wikidata":"Q3367065","coordinates":[42.1459403,24.7487098]},"atp":false,"tags_mismatch":false},{"osm":{"type":"node","id":5760711204,"tags":{"amenity":"bank","atm":"no","brand":"Първа инвестиционна банка","brand:wikidata":"Q3367065","short_name:bg":"ПИБ"},"wikidata":"Q3367065","coordinates":[42.6802008,26.3165341]},"atp":{"id":"3cb99_C--lzsqwqeimiCNEhY5ow=","tags":{"ref":"11111347","amenity":"bank","short_name:bg":"ПИБ","addr:full":"бул. \"Хаджи Димитър\" № 2, гр. Сливен","addr:country":"BG","name":"клон \"Централ\", гр. Сливен","phone":"+359 44 610 955","opening_hours":"Mo-Fr 09:00-17:30","brand":"Fibank","brand:wikidata":"Q3367065"},"coordinates":[42.680115,26.316686]},"dist":15.659,"tags_mismatch":true},{"osm":{"type":"node","id":6594571676,"tags":{"amenity":"bank","brand":"Първа инвестиционна банка","brand:wikidata":"Q3367065","short_name:bg":"ПИБ"},"wikidata":"Q3367065","coordinates":[42.1472964,24.7261477]},"atp":{"id":"vklIYKsMdEwYIKLcc0mBFZPMw1c=","tags":{"ref":"11111313","amenity":"bank","short_name:bg":"ПИБ","addr:full":"бул. \"6-ти септември\" 35, гр. Пловдив","addr:country":"BG","name":"клон \"6-и септември\", гр. Пловдив","phone":"+359 32 270 783","opening_hours":"Mo-Fr 09:00-17:30","brand":"Fibank","brand:wikidata":"Q3367065"},"coordinates":[42.1471,24.725899]},"dist":29.955,"tags_mismatch":true},{"osm":{"type":"node","id":6799036685,"tags":{"amenity":"bank","atm":"yes","brand":"Първа инвестиционна банка","brand:wikidata":"Q3367065","short_name:bg":"ПИБ"},"wikidata":"Q3367065","coordinates":[43.5692709,27.8282598]},"atp":{"id":"8HpbFDXqx5KGTDhpykEthKaaLps=","tags":{"ref":"11111294","amenity":"bank","short_name:bg":"ПИБ","addr:full":"бул. \"Независимост\" 1, гр. Добрич","addr:country":"BG","name":"клон \"Добрич\", гр. Добрич","phone":"+359 58 838 590","opening_hours":"Mo-Fr 09:00-17:30","brand":"Fibank","brand:wikidata":"Q3367065"},"coordinates":[43.5706024,27.8310009]},"dist":265.874,"tags_mismatch":true},{"osm":{"type":"node","id":6932082187,"tags":{"amenity":"bank","brand":"Първа инвестиционна банка","brand:wikidata":"Q3367065","short_name:bg":"ПИБ"},"wikidata":"Q3367065","coordinates":[42.1505387,24.7444575]},"atp":false,"tags_mismatch":false},{"osm":{"type":"node","id":7054965931,"tags":{"addr:city":"Хасково","addr:housenumber":"7","addr:postcode":"6300","addr:street":"Сан Стефано","amenity":"bank","brand":"Първа инвестиционна банка","brand:wikidata":"Q3367065","short_name":"ПИБ","short_name:bg":"ПИБ","short_name:en":"Fibank","website":"https://www.fibank.bg/"},"wikidata":"Q3367065","coordinates":[41.9320379,25.5597772]},"atp":{"id":"K0wg7LMbwpVP-MBAqUVz9-llB5M=","tags":{"ref":"11111304","amenity":"bank","short_name:bg":"ПИБ","addr:full":"бул. \"Сан Стефано\" 7, гр. Хасково","addr:country":"BG","name":"клон \"Хасково\", гр. Хасково","phone":"+359 38 661 848","opening_hours":"Mo-Fr 09:00-17:30","brand":"Fibank","brand:wikidata":"Q3367065"},"coordinates":[41.931888,25.559713]},"dist":17.494,"tags_mismatch":true},{"osm":{"type":"node","id":7208811888,"tags":{"amenity":"bank","brand":"Първа инвестиционна банка","brand:wikidata":"Q3367065","short_name:bg":"ПИБ"},"wikidata":"Q3367065","coordinates":[41.8381227,23.4879049]},"atp":false,"tags_mismatch":false},{"osm":{"type":"node","id":7728116413,"tags":{"amenity":"bank","brand":"Първа инвестиционна банка","brand:wikidata":"Q3367065","short_name:bg":"ПИБ"},"wikidata":"Q3367065","coordinates":[42.4232466,25.6198356]},"atp":false,"tags_mismatch":false},{"osm":{"type":"node","id":7828543486,"tags":{"amenity":"bank","brand":"Първа инвестиционна банка","brand:wikidata":"Q3367065","short_name:bg":"ПИБ"},"wikidata":"Q3367065","coordinates":[43.1074745,26.4195921]},"atp":{"id":"ZRigJy5oAYJQzDHFb_NqzjLA8HI=","tags":{"ref":"11111342","amenity":"bank","short_name:bg":"ПИБ","addr:full":"ул. \"28 януари\" 1, гр. Омуртаг","addr:country":"BG","name":"клон \"ФЦ Омуртаг\", гр. Омуртаг","phone":"+359 60 561 043","opening_hours":"Mo-Fr 08:30-17:00","brand":"Fibank","brand:wikidata":"Q3367065"},"coordinates":[43.10784,26.41938]},"dist":44.139,"tags_mismatch":true},{"osm":{"type":"node","id":7925356951,"tags":{"amenity":"bank","brand":"Първа инвестиционна банка","brand:wikidata":"Q3367065","official_name":"Първа Инвестиционна Банка","official_name:en":"First Investment Bank","short_name":"ПИБ","short_name:bg":"ПИБ","short_name:en":"FIB","website":"https://www.fibank.bg/"},"wikidata":"Q3367065","coordinates":[43.5284907,26.5237007]},"atp":false,"tags_mismatch":false},{"osm":{"type":"node","id":8173094960,"tags":{"addr:city":"София","addr:housenumber":"15","addr:postcode":"1324","addr:street":"бул. Царица Йоанна","amenity":"bank","atm":"yes","brand":"Първа инвестиционна банка","brand:wikidata":"Q3367065","drive_through":"no","opening_hours":"Mo-Su 10:00-22:00","phone":"+359 2 800 2510","short_name:bg":"ПИБ","website":"https://fibank.bg/bg/klonove-i-bankomati"},"wikidata":"Q3367065","coordinates":[42.7104409,23.2710925]},"atp":{"id":"TfJO_L0u_ugziRSv8Z2JzUnc1_E=","tags":{"ref":"11111236","amenity":"bank","short_name:bg":"ПИБ","addr:full":"бул. \"Царица Йоанна\" 15, гр. София","addr:country":"BG","name":"клон София Мега Мол, гр. София","phone":"+359 2 800 2510","opening_hours":"Mo-Su 10:00-21:00","brand":"Fibank","brand:wikidata":"Q3367065"},"coordinates":[42.710604,23.270926]},"dist":22.671,"tags_mismatch":true},{"osm":{"type":"node","id":9658081272,"tags":{"amenity":"bank","atm":"yes","brand":"Първа инвестиционна банка","brand:wikidata":"Q3367065","full_name":"Първа Инвестиционна Банка","full_name:en":"First Investment Bank","short_name:bg":"ПИБ"},"wikidata":"Q3367065","coordinates":[42.1556625,24.7482369]},"atp":{"id":"seoUdSid2wxXKDUrqcvRsSJSYBg=","tags":{"ref":"11111259","amenity":"bank","short_name:bg":"ПИБ","addr:full":"бул. \"Марица\" 95, гр. Пловдив","addr:country":"BG","name":"клон Пловдив, гр. Пловдив","phone":"+359 32 270 510","opening_hours":"Mo-Fr 09:00-17:30","brand":"Fibank","brand:wikidata":"Q3367065"},"coordinates":[42.1555196,24.7482484]},"dist":15.918,"tags_mismatch":true},{"osm":{"type":"node","id":10249380526,"tags":{"amenity":"bank","brand":"Първа инвестиционна банка","brand:wikidata":"Q3367065","level":"0","short_name:bg":"ПИБ"},"wikidata":"Q3367065","coordinates":[42.6603583,23.3833547]},"atp":{"id":"5pqaVEnmXPZxrk-IpzNtIkKJI74=","tags":{"ref":"11111346","amenity":"bank","short_name:bg":"ПИБ","addr:full":"бул. \"Цариградско шосе\" 115 \"з\", гр. София","addr:country":"BG","name":"клон The Mall, гр. София","phone":"+359 2 800 2538","opening_hours":"Mo-Su 10:00-22:00","brand":"Fibank","brand:wikidata":"Q3367065"},"coordinates":[42.6606,23.38313]},"dist":32.556,"tags_mismatch":true},{"osm":{"type":"node","id":10855531741,"tags":{"amenity":"bank","brand":"Първа инвестиционна банка","brand:wikidata":"Q3367065","short_name:bg":"ПИБ"},"wikidata":"Q3367065","coordinates":[42.6282006,23.3169412]},"atp":{"id":"O_XJWMEb7a4OjvXKZkfBg3WZVSc=","tags":{"ref":"11111298","amenity":"bank","short_name:bg":"ПИБ","addr:full":"кв. Драгалевци, ул. \"Крушова градина\" 20A (входът е откъм ул. \"Захари Зограф\"), гр. София","addr:country":"BG","name":"клон \"Драгалевци\", гр. София","phone":"+359 2 800 2601","opening_hours":"Mo-Fr 09:00-17:30","brand":"Fibank","brand:wikidata":"Q3367065"},"coordinates":[42.627770178041,23.317837715149]},"dist":87.581,"tags_mismatch":true},{"osm":{"type":"node","id":11078778947,"tags":{"amenity":"bank","atm":"yes","brand":"Първа инвестиционна банка","brand:wikidata":"Q3367065","drive_through":"no","short_name:bg":"ПИБ"},"wikidata":"Q3367065","coordinates":[42.713156,24.1385438]},"atp":{"id":"QmIidvVTHpWhvNmG61-O0v1LaDU=","tags":{"ref":"11111348","amenity":"bank","short_name:bg":"ПИБ","addr:full":"ул. Медет 2, гр. Златица","addr:country":"BG","name":"клон \"Златица\", гр. Златица","phone":"+359 72 868 047","opening_hours":"Mo-Fr 09:00-17:30","brand":"Fibank","brand:wikidata":"Q3367065"},"coordinates":[42.7118785,24.1384757]},"dist":142.16,"tags_mismatch":true},{"osm":{"type":"node","id":11098987393,"tags":{"amenity":"bank","atm":"yes","brand":"Първа инвестиционна банка","brand:wikidata":"Q3367065","short_name:bg":"ПИБ"},"wikidata":"Q3367065","coordinates":[42.1329795,24.7951663]},"atp":{"id":"zeVLh_1EvmtESTRvDxD15xZGPuI=","tags":{"ref":"11111351","amenity":"bank","short_name:bg":"ПИБ","addr:full":"бул. \"Съединение\"41, гр. Пловдив","addr:country":"BG","name":"клон \"Тракия Плаза\", гр. Пловдив","phone":"+359 32 270 580","opening_hours":"Mo-Fr 09:00-17:30","brand":"Fibank","brand:wikidata":"Q3367065"},"coordinates":[42.132955,24.795028]},"dist":11.725,"tags_mismatch":true},{"osm":{"type":"node","id":11887047445,"tags":{"amenity":"bank","brand":"Първа инвестиционна банка","brand:wikidata":"Q3367065","short_name:bg":"ПИБ"},"wikidata":"Q3367065","coordinates":[43.6158428,25.3499265]},"atp":{"id":"wvNeNcYidhWCr_VBZC_hwtsiE1U=","tags":{"ref":"11111282","amenity":"bank","short_name:bg":"ПИБ","addr:full":"ул. \"Никола Петков\" 1, гр. Свищов","addr:country":"BG","name":"клон \"Свищов\", гр. Свищов","phone":"+359 63 161 171","opening_hours":"Mo-Fr 09:00-17:30","brand":"Fibank","brand:wikidata":"Q3367065"},"coordinates":[43.615285027549,25.349214076996]},"dist":84.475,"tags_mismatch":true},{"osm":{"type":"node","id":11969198210,"tags":{"amenity":"bank","atm":"yes","brand":"Първа инвестиционна банка","brand:wikidata":"Q3367065","short_name:bg":"ПИБ"},"wikidata":"Q3367065","coordinates":[42.9071362,23.7927274]},"atp":{"id":"tyaW_HL0XBoGobedSJTlXtKm9MA=","tags":{"ref":"11111320","amenity":"bank","short_name:bg":"ПИБ","addr:full":"пл. \"Освобождение\" 5, гр. Ботевград","addr:country":"BG","name":"клон &amp;quot;Ботевград&amp;quot;, гр. Ботевград","phone":"+359 72 369 046","opening_hours":"Mo-Fr 09:00-17:30","brand":"Fibank","brand:wikidata":"Q3367065"},"coordinates":[42.907405671269,23.792695999146]},"dist":30.073,"tags_mismatch":true},{"osm":{"type":"way","id":252212882,"tags":{"amenity":"bank","atm":"yes","brand":"Първа инвестиционна банка","brand:wikidata":"Q3367065","building":"yes","short_name:bg":"ПИБ"},"wikidata":"Q3367065","coordinates":[43.8511261,25.9530198]},"atp":{"id":"bQAz5VSyZfFfSGyCX68FY8-yDzY=","tags":{"ref":"11111276","amenity":"bank","short_name:bg":"ПИБ","addr:full":"ул. \"Райко Даскалов\" 11, гр. Русе","addr:country":"BG","name":"клон &quot;Русе&quot;, гр. Русе","phone":"+359 82 889 541","opening_hours":"Mo-Fr 09:00-17:30","brand":"Fibank","brand:wikidata":"Q3367065"},"coordinates":[43.8513218,25.9531192]},"dist":23.175,"tags_mismatch":true},{"osm":{"type":"way","id":301561238,"tags":{"addr:postcode":"1527","addr:street":"бул. Янко Сакъзов","amenity":"bank","atm":"yes","brand":"Първа инвестиционна банка","brand:wikidata":"Q3367065","building":"yes","check_date":"2024-06-24","fax":"+359 2 800 2834","official_name":"Първа инвестиционна банка","official_name:en":"First Investment Bank","opening_hours":"Mo-Fr 09:00-19:00","phone":"+359 2 800 2825","short_name":"ПИБ","short_name:bg":"ПИБ","short_name:en":"FIB","website":"https://www.fibank.bg/","wheelchair":"yes"},"wikidata":"Q3367065","coordinates":[42.6964798,23.345486]},"atp":{"id":"lm3ryrEWPWdaxJlf1FFB1JaVpn0=","tags":{"ref":"11111244","amenity":"bank","short_name:bg":"ПИБ","addr:full":"бул. \"Янко Сакъзов\", подхода към Театър \"София\", гр. София","addr:country":"BG","name":"клон &quot;Театър София&quot;, гр. София","phone":"+359 2 800 2825","opening_hours":"Mo-Fr 09:00-17:30","brand":"Fibank","brand:wikidata":"Q3367065"},"coordinates":[42.696473,23.345429]},"dist":4.719,"tags_mismatch":true},{"osm":{"type":"way","id":589843630,"tags":{"alt_name":"Fibank","amenity":"bank","brand":"Първа инвестиционна банка","brand:wikidata":"Q3367065","building":"yes","short_name:bg":"ПИБ"},"wikidata":"Q3367065","coordinates":[43.8259299,27.1407464]},"atp":{"id":"6o93oAcO1y3CHN2E6pfkAKgYJMs=","tags":{"ref":"11111303","amenity":"bank","short_name:bg":"ПИБ","addr:full":"ул. \"Васил Левски\" 6, гр. Дулово","addr:country":"BG","name":"клон \"Дулово\", гр. Дулово","phone":"+359 86 421 180","opening_hours":"Mo-Fr 09:00-17:30","brand":"Fibank","brand:wikidata":"Q3367065"},"coordinates":[43.82702705446,27.140800952911]},"dist":122.076,"tags_mismatch":true},{"osm":{"type":"way","id":848033380,"tags":{"addr:city":"Благоевград","addr:housenumber":"6","addr:postcode":"2700","addr:street":"Тракия","amenity":"bank","brand":"Първа инвестиционна банка","brand:wikidata":"Q3367065","building":"yes","short_name:bg":"ПИБ"},"wikidata":"Q3367065","coordinates":[42.0208149,23.1005034]},"atp":{"id":"Eiia22c3WkRDqjkqaDws7hfgJ9E=","tags":{"ref":"11111308","amenity":"bank","short_name:bg":"ПИБ","addr:full":"ул. \"Тракия\" 6, гр. Благоевград","addr:country":"BG","name":"клон \"ГУМ\", гр. Благоевград","phone":"+359 73 827 756","opening_hours":"Mo-Fr 09:00-17:30","brand":"Fibank","brand:wikidata":"Q3367065"},"coordinates":[42.020860380208,23.100643157959]},"dist":12.604,"tags_mismatch":true},{"osm":{"type":"way","id":963765880,"tags":{"addr:city":"Благоевград","amenity":"bank","brand":"Първа инвестиционна банка","brand:wikidata":"Q3367065","building":"yes","short_name:bg":"ПИБ"},"wikidata":"Q3367065","coordinates":[42.0190324,23.092841]},"atp":{"id":"j7kWNsx7O6SSCMNDdx6wMyLnPWU=","tags":{"ref":"11111307","amenity":"bank","short_name:bg":"ПИБ","addr:full":"бул. \"Св. св. Кирил и Методий\" 11, гр. Благоевград","addr:country":"BG","name":"клон &amp;quot;Благоевград&amp;quot;, гр. Благоевград","phone":"+359 73 827 709","opening_hours":"Mo-Fr 09:00-17:30","brand":"Fibank","brand:wikidata":"Q3367065"},"coordinates":[42.019154677879,23.092832565308]},"dist":13.615,"tags_mismatch":true},{"osm":{"type":"way","id":1073543598,"tags":{"amenity":"bank","brand":"Първа инвестиционна банка","brand:wikidata":"Q3367065","building":"yes","short_name:bg":"ПИБ"},"wikidata":"Q3367065","coordinates":[42.2642487,23.1187484]},"atp":{"id":"saakm-GUhr1z8ecKktmKgzHBUfM=","tags":{"ref":"11111310","amenity":"bank","short_name:bg":"ПИБ","addr:full":"ул. \"Христо Ботев\" 19, гр. Дупница","addr:country":"BG","name":"клон \"Дупница\", гр. Дупница","phone":"+359 701 591 53","opening_hours":"Mo-Fr 09:00-17:30","brand":"Fibank","brand:wikidata":"Q3367065"},"coordinates":[42.263836141489,23.118742704392]},"dist":45.877,"tags_mismatch":true},{"osm":false,"atp":{"id":"Tr6io6tSaZqakoZXz5OButYYAPY=","tags":{"ref":"11111339","amenity":"bank","short_name:bg":"ПИБ","addr:full":"ж.к. Младост IV, ул. \"Бизнес парк София\" 1, блок 5, гр. София","addr:country":"BG","name":"клон \"Бизнес парк София\", гр. София","phone":"+359 2 800 2535","opening_hours":"Mo-Fr 09:00-17:30","brand":"Fibank","brand:wikidata":"Q3367065"},"coordinates":[42.627168,23.374936]},"tags_mismatch":false,"dist":0},{"osm":false,"atp":{"id":"kh_xRi-P0I3e8xt2hEF9JjeM2fs=","tags":{"ref":"11111252","amenity":"bank","short_name:bg":"ПИБ","addr:full":"бул. \"Искърско шосе\" 7, гр. София","addr:country":"BG","name":"клон \"Европа\", гр. София","phone":"+359 2 817 1454","opening_hours":"Mo-Fr 09:00-17:30","brand":"Fibank","brand:wikidata":"Q3367065"},"coordinates":[42.671286,23.396404]},"tags_mismatch":false,"dist":0},{"osm":false,"atp":{"id":"opPcNEVrYI5YZZC5AX4XoFs8-WA=","tags":{"ref":"11111251","amenity":"bank","short_name:bg":"ПИБ","addr:full":"бул. \"Сливница\" 127, гр. София","addr:country":"BG","name":"клон \"Захарна фабрика\", гр. София","phone":"+359 2 817 1586","opening_hours":"Mo-Fr 09:00-17:30","brand":"Fibank","brand:wikidata":"Q3367065"},"coordinates":[42.709616,23.293996]},"tags_mismatch":false,"dist":0},{"osm":false,"atp":{"id":"PQRNn7VpyH2vMyyy4bQwLVa53Zw=","tags":{"ref":"11111332","amenity":"bank","short_name:bg":"ПИБ","addr:full":"бул. \"Никола Мушанов\" бл. 31А, ет. 1, гр. София","addr:country":"BG","name":"клон \"Красна поляна\", гр. София","phone":"+359 2 800 2665","opening_hours":"Mo-Fr 09:00-17:30","brand":"Fibank","brand:wikidata":"Q3367065"},"coordinates":[42.694154387304,23.283848762512]},"tags_mismatch":false,"dist":0},{"osm":false,"atp":{"id":"ZsZJHLuDmMMz0QPLvRi7Qkr765w=","tags":{"ref":"11111350","amenity":"bank","short_name:bg":"ПИБ","addr:full":"ул. \"Околовръстен път\" 214, гр. София","addr:country":"BG","name":"клон \"София Ринг Мол\", гр. София","phone":"+359 2 800 2583","opening_hours":"Mo-Su 10:00-22:00","brand":"Fibank","brand:wikidata":"Q3367065"},"coordinates":[42.624066,23.354255]},"tags_mismatch":false,"dist":0},{"osm":false,"atp":{"id":"jkgybZl513QSZyo8F4KcRaEzgJg=","tags":{"ref":"11111335","amenity":"bank","short_name:bg":"ПИБ","addr:full":"бул. \"Ситняково\" 48, гр. София","addr:country":"BG","name":"клон Мол Сердика, гр. София","phone":"+359 2 800 2550","opening_hours":"Mo-Su 10:00-22:00","brand":"Fibank","brand:wikidata":"Q3367065"},"coordinates":[42.691930630714,23.354058265686]},"tags_mismatch":false,"dist":0},{"osm":false,"atp":{"id":"NX__pr-HOwX9vr-Yo9NLwmhe29c=","tags":{"ref":"11111247","amenity":"bank","short_name:bg":"ПИБ","addr:full":"бул. \"Арсеналски\" 2, гр. София","addr:country":"BG","name":"клон Парк център, гр. София","phone":"+359 2 817 1666","opening_hours":"Mo-Su 10:00-21:00","brand":"Fibank","brand:wikidata":"Q3367065"},"coordinates":[42.6780288,23.3199258]},"tags_mismatch":false,"dist":0},{"osm":false,"atp":{"id":"ZUopZ17rua7oZ23jY8MRqDiGapM=","tags":{"ref":"11111354","amenity":"bank","short_name:bg":"ПИБ","addr:full":"“Цариградско шосе“ № 111 П","addr:country":"BG","name":"София Тех Парк  ","phone":"+359 2 800 2667","opening_hours":"Mo-Fr 09:00-17:30","brand":"Fibank","brand:wikidata":"Q3367065"},"coordinates":[42.6705919,23.3718888]},"tags_mismatch":false,"dist":0},{"osm":false,"atp":{"id":"lzIQr6k58snP2YgPGy1fjMSWEkk=","tags":{"ref":"11111311","amenity":"bank","short_name:bg":"ПИБ","addr:full":"ул. \"Цар Симеон\" 68, гр. Банско","addr:country":"BG","name":"клон \"Банско\", гр. Банско","phone":"+359 74 986 183","opening_hours":"Mo-Fr 09:00-17:30","brand":"Fibank","brand:wikidata":"Q3367065"},"coordinates":[41.83638022363,23.491376638413]},"tags_mismatch":false,"dist":0},{"osm":false,"atp":{"id":"VzDIrrCXhvKkAUaL5BRflc2eaZM=","tags":{"ref":"11111312","amenity":"bank","short_name:bg":"ПИБ","addr:full":"ул. \"Глазне\" 7, гр. Банско","addr:country":"BG","name":"клон \"Стражите\", гр. Банско","phone":"+359 74 986 986","brand":"Fibank","brand:wikidata":"Q3367065"},"coordinates":[41.830256873313,23.480422496796]},"tags_mismatch":false,"dist":0},{"osm":false,"atp":{"id":"uEb5nam5w6rXfgFH7X0z0X-Znf0=","tags":{"ref":"11111283","amenity":"bank","short_name:bg":"ПИБ","addr:full":"ул. \"Иван Вазов\" 2, гр. Белене","addr:country":"BG","name":"клон \"Белене\", гр. Белене","phone":"+359 65 838 411","opening_hours":"Mo-Fr 09:00-17:30","brand":"Fibank","brand:wikidata":"Q3367065"},"coordinates":[43.64737,25.12555]},"tags_mismatch":false,"dist":0},{"osm":false,"atp":{"id":"DAHOkE4eO2uMjFMaxfFEOzfmGsQ=","tags":{"ref":"11111258","amenity":"bank","short_name:bg":"ПИБ","addr:full":"хотел \"Рила\", к.к. Боровец","addr:country":"BG","name":"клон Хотел Рила, к.к. Боровец","phone":"+359 2 800 2549","brand":"Fibank","brand:wikidata":"Q3367065"},"coordinates":[42.265154,23.6068]},"tags_mismatch":false,"dist":0},{"osm":false,"atp":{"id":"sfNaDRuRdPmwGZCja5eB-fr-WFE=","tags":{"ref":"11111268","amenity":"bank","short_name:bg":"ПИБ","addr:full":"ж.к. \"Братя Миладинови\" бл. 117, вх. 5","addr:country":"BG","name":"клон \"Братя Миладинови\", гр. Бургас","phone":"+359 56 804 463","opening_hours":"Mo-Fr 09:00-17:30","brand":"Fibank","brand:wikidata":"Q3367065"},"coordinates":[42.505728822461,27.471925020218]},"tags_mismatch":false,"dist":0},{"osm":false,"atp":{"id":"0_0AjapgUy4Ff4LXYJEZko3B98E=","tags":{"ref":"11111270","amenity":"bank","short_name:bg":"ПИБ","addr:full":"ж.к. \"Славейков\" бл. 107, вх. 2","addr:country":"BG","name":"клон &amp;quot;Славейков&amp;quot;, гр. Бургас","phone":"+359 56 804 472","opening_hours":"Mo-Fr 09:00-17:30","brand":"Fibank","brand:wikidata":"Q3367065"},"coordinates":[42.518374,27.4530491]},"tags_mismatch":false,"dist":0},{"osm":false,"atp":{"id":"EacuBbSRGFaq_6ZvLc-xWq0gY5g=","tags":{"ref":"11111271","amenity":"bank","short_name:bg":"ПИБ","addr:full":"ж.к. \"Меден рудник\", зона Б, бл. 192","addr:country":"BG","name":"клон Меден рудник, гр.Бургас","phone":"+359 56 804 441;+359 56 804 444","opening_hours":"Mo-Fr 09:00-17:30","brand":"Fibank","brand:wikidata":"Q3367065"},"coordinates":[42.459497099809,27.42299079895]},"tags_mismatch":false,"dist":0},{"osm":false,"atp":{"id":"pMnLjM3tbIS-tyuMO6UK0vYE894=","tags":{"ref":"11111266","amenity":"bank","short_name:bg":"ПИБ","addr:full":"ул. \"Дунав\" 2, гр. Варна","addr:country":"BG","name":"клон \"Цариброд\", гр. Варна","phone":"+359 52 662 721","opening_hours":"Mo-Fr 09:00-17:30","brand":"Fibank","brand:wikidata":"Q3367065"},"coordinates":[43.199638778414,27.911796569824]},"tags_mismatch":false,"dist":0},{"osm":false,"atp":{"id":"VrXQIQf8M0WwXiRoqK-gNIvDpK8=","tags":{"ref":"11111341","amenity":"bank","short_name:bg":"ПИБ","addr:full":"бул. \"Владислав Варненчик\" 186, гр. Варна","addr:country":"BG","name":"клон ФЦ Мол, гр. Варна","phone":"+359 52 662 699","opening_hours":"Mo-Su 10:00-20:00","brand":"Fibank","brand:wikidata":"Q3367065"},"coordinates":[43.219462,27.888717]},"tags_mismatch":false,"dist":0},{"osm":false,"atp":{"id":"ADI7GARSkXi0cBiVGlBFSfiBEVk=","tags":{"ref":"11111323","amenity":"bank","short_name:bg":"ПИБ","addr:full":"ул. \"Градинска\" 17","addr:country":"BG","name":"клон \"Видин\", гр. Видин","phone":"+359 94 605 522","opening_hours":"Mo-Fr 09:00-17:30","brand":"Fibank","brand:wikidata":"Q3367065"},"coordinates":[43.986068048959,22.876324653625]},"tags_mismatch":false,"dist":0},{"osm":false,"atp":{"id":"HbQaRMTYTwRPvI_AgOMhuDLVm5U=","tags":{"ref":"11111318","amenity":"bank","short_name:bg":"ПИБ","addr:full":"ул. \"Никола Войводов\" 1, гр. Враца","addr:country":"BG","name":"клон \"Враца\", гр. Враца","phone":"+359 92 669 310","opening_hours":"Mo-Fr 09:00-17:30","brand":"Fibank","brand:wikidata":"Q3367065"},"coordinates":[43.2044808,23.5500902]},"tags_mismatch":false,"dist":0},{"osm":false,"atp":{"id":"nG0BQVd3kCA_XPPP9zHnMvjU2YE=","tags":{"ref":"11111300","amenity":"bank","short_name:bg":"ПИБ","addr:full":"пл. \"Възраждане\" 5, гр. Габрово","addr:country":"BG","name":"клон \"Габрово\", гр. Габрово","phone":"+359 66 819 444","opening_hours":"Mo-Fr 09:00-17:30","brand":"Fibank","brand:wikidata":"Q3367065"},"coordinates":[42.871152128574,25.315407514572]},"tags_mismatch":false,"dist":0},{"osm":false,"atp":{"id":"dQHt1EeXBAyf4KK2ly_FJy25KgE=","tags":{"ref":"11111291","amenity":"bank","short_name:bg":"ПИБ","addr:full":"ул. \"Св. Княз Борис I\" 1, гр. Горна Оряховица","addr:country":"BG","name":"клон \"Горна Оряховица\", гр. Горна Оряховица","phone":"+359 61 861 766","opening_hours":"Mo-Fr 09:00-17:30","brand":"Fibank","brand:wikidata":"Q3367065"},"coordinates":[43.122051810241,25.689725875854]},"tags_mismatch":false,"dist":0},{"osm":false,"atp":{"id":"EVqfempYvnG9yUNkyoTyb5ZkFF8=","tags":{"ref":"11111315","amenity":"bank","short_name:bg":"ПИБ","addr:full":"ул. \"Търговска\" 41, гр. Гоце Делчев","addr:country":"BG","name":"клон \"Гоце Делчев\", гр. Гоце Делчев","phone":"+359 75 169 642","opening_hours":"Mo-Fr 09:00-17:30","brand":"Fibank","brand:wikidata":"Q3367065"},"coordinates":[41.571187,23.724883]},"tags_mismatch":false,"dist":0},{"osm":false,"atp":{"id":"R3t8teZrSkimfeeTwzztA2Sxq7Q=","tags":{"ref":"11111305","amenity":"bank","short_name:bg":"ПИБ","addr:full":"ул. \"Цар Симеон\" 6, гр. Димитровград","addr:country":"BG","name":"клон \"Димитровград\", гр. Димитровград","phone":"+359 39 167 008","opening_hours":"Mo-Fr 09:00-17:30","brand":"Fibank","brand:wikidata":"Q3367065"},"coordinates":[42.060902,25.5941454]},"tags_mismatch":false,"dist":0},{"osm":false,"atp":{"id":"-HYoUEjGVQ2f82jDQqtooln3BWA=","tags":{"ref":"11111322","amenity":"bank","short_name:bg":"ПИБ","addr:full":"площадка АЕЦ, Административна сграда \"Атоменергоремонт\", гр. Козлодуй","addr:country":"BG","name":"клон \"АЕР Козлодуй\", гр. Козлодуй","phone":"+359 97 389 320","brand":"Fibank","brand:wikidata":"Q3367065"},"coordinates":[43.746111,23.770556]},"tags_mismatch":false,"dist":0},{"osm":false,"atp":{"id":"XF7nadcEiv7yRsawvEA6A9dgw0I=","tags":{"ref":"11111321","amenity":"bank","short_name:bg":"ПИБ","addr:full":"ул. \"Васил Воденичарски\" 1В, гр. Козлодуй","addr:country":"BG","name":"клон \"Козлодуй\", гр. Козлодуй","phone":"+359 97 385 020","opening_hours":"Mo-Fr 09:00-17:30","brand":"Fibank","brand:wikidata":"Q3367065"},"coordinates":[43.7789492,23.7297177]},"tags_mismatch":false,"dist":0},{"osm":false,"atp":{"id":"WSW_dCxT6uX6uRfD2eZgzDoujlU=","tags":{"ref":"11111309","amenity":"bank","short_name:bg":"ПИБ","addr:full":"бул. \"Цар Освободител\" 147, гр. Кюстендил","addr:country":"BG","name":"клон \"Кюстендил\", гр. Кюстендил","phone":"+359 78 558 144","opening_hours":"Mo-Fr 09:00-17:30","brand":"Fibank","brand:wikidata":"Q3367065"},"coordinates":[42.280603,22.694405]},"tags_mismatch":false,"dist":0},{"osm":false,"atp":{"id":"4eCzT7gaFo2-Z_6yvD6AyLplmJU=","tags":{"ref":"11111349","amenity":"bank","short_name:bg":"ПИБ","addr:full":"ул. Александър Стамболийски 40, гр. Левски","addr:country":"BG","name":"клон \"Левски\", гр. Левски","phone":"+359 65 088 909","opening_hours":"Mo-Fr 09:00-17:30","brand":"Fibank","brand:wikidata":"Q3367065"},"coordinates":[43.361291,25.143183]},"tags_mismatch":false,"dist":0},{"osm":false,"atp":{"id":"uY-LOjJiorzzVX86rhSWhntXY8U=","tags":{"ref":"11111325","amenity":"bank","short_name:bg":"ПИБ","addr:full":"ул. \"Търговска\" 12, гр. Ловеч","addr:country":"BG","name":"клон \"Ловеч\", гр. Ловеч","phone":"+359 68 689 612","opening_hours":"Mo-Fr 09:00-17:30","brand":"Fibank","brand:wikidata":"Q3367065"},"coordinates":[43.1343501,24.7168897]},"tags_mismatch":false,"dist":0},{"osm":false,"atp":{"id":"wD8ZppLnI4CiatH9kGDL22h9r78=","tags":{"ref":"11111319","amenity":"bank","short_name:bg":"ПИБ","addr:full":"бул. \"3-ти март\" 74, гр. Монтана","addr:country":"BG","name":"клон \"Монтана\", гр. Монтана","phone":"+359 96 399 516","opening_hours":"Mo-Fr 09:00-17:30","brand":"Fibank","brand:wikidata":"Q3367065"},"coordinates":[43.4056984,23.2244215]},"tags_mismatch":false,"dist":0},{"osm":false,"atp":{"id":"0V5M_W0Yp-SmVS1tYILB262mISs=","tags":{"ref":"11111296","amenity":"bank","short_name:bg":"ПИБ","addr:full":"пл. \"Раковски\" 4, гр. Нови пазар","addr:country":"BG","name":"клон \"Нови пазар\", гр. Нови пазар","phone":"+359 53 727 888","opening_hours":"Mo-Fr 09:00-17:30","brand":"Fibank","brand:wikidata":"Q3367065"},"coordinates":[43.345474886093,27.192717790604]},"tags_mismatch":false,"dist":0},{"osm":false,"atp":{"id":"HAbPi_NX-dNWrLqij-ZqWqKfV0Y=","tags":{"ref":"11111257","amenity":"bank","short_name:bg":"ПИБ","addr:full":"ул. \"Райко Даскалов\" 1, гр. Перник","addr:country":"BG","name":"клон &quot;Перник&quot;, гр. Перник","phone":"076  688 626, 076  688 610","opening_hours":"Mo-Fr 09:00-17:30","brand":"Fibank","brand:wikidata":"Q3367065"},"coordinates":[42.601857,23.029376]},"tags_mismatch":false,"dist":0},{"osm":false,"atp":{"id":"qbAJPtTq58egDPWqYh3VAesZtyE=","tags":{"ref":"11111343","amenity":"bank","short_name:bg":"ПИБ","addr:full":"ул. \"Трети март\" 13, гр. Пещера","addr:country":"BG","name":"клон \"ФЦ Пещера\", гр. Пещера","phone":"+359 35 060 702","opening_hours":"Mo-Fr 09:00-17:30","brand":"Fibank","brand:wikidata":"Q3367065"},"coordinates":[42.03348,24.30326]},"tags_mismatch":false,"dist":0},{"osm":false,"atp":{"id":"PHjStEUZVNIeDfENtRu_kH-LMNI=","tags":{"ref":"11111330","amenity":"bank","short_name:bg":"ПИБ","addr:full":"ул. \"Перущица\" 8, гр. Пловдив","addr:country":"BG","name":"клон Мол Пловдив, гр. Пловдив","phone":"+359 32 270 630","opening_hours":"Mo-Su 10:00-21:00","brand":"Fibank","brand:wikidata":"Q3367065"},"coordinates":[42.1403054,24.7191533]},"tags_mismatch":false,"dist":0},{"osm":false,"atp":{"id":"Z7GaahOomINL0ml_PzpuLgyFWEA=","tags":{"ref":"11111297","amenity":"bank","short_name:bg":"ПИБ","addr:full":"ул. \"Васил Левски\" 3, гр. Разград","addr:country":"BG","name":"клон \"Разград\", гр. Разград","phone":"+359 84 631 065","opening_hours":"Mo-Fr 09:00-17:30","brand":"Fibank","brand:wikidata":"Q3367065"},"coordinates":[43.53265,26.52645]},"tags_mismatch":false,"dist":0},{"osm":false,"atp":{"id":"cMq8pOFUuXNYQobiJsT06Rcpk4I=","tags":{"ref":"11111353","amenity":"bank","short_name:bg":"ПИБ","addr:full":"ул., Георги Андрейчин'' 12 (п.к2780)","addr:country":"BG","name":"Клон Белица","phone":"+359 74 986 199","opening_hours":"Mo-Fr 09:00-17:30","brand":"Fibank","brand:wikidata":"Q3367065"},"coordinates":[41.949985,23.5584593]},"tags_mismatch":false,"dist":0},{"osm":false,"atp":{"id":"PG07yXu-GXpbzrFCm9ypaqPImNQ=","tags":{"ref":"11111278","amenity":"bank","short_name:bg":"ПИБ","addr:full":"ул. \"Александровска\" 10, гр. Русе","addr:country":"BG","name":"клон \"Александровска\", гр. Русе","phone":"+359 82 889 534","opening_hours":"Mo-Fr 09:00-17:30","brand":"Fibank","brand:wikidata":"Q3367065"},"coordinates":[43.8462,25.949824]},"tags_mismatch":false,"dist":0},{"osm":false,"atp":{"id":"VGZGYTktC30l-vesvAKXrwps31Q=","tags":{"ref":"11111279","amenity":"bank","short_name:bg":"ПИБ","addr:full":"бул. \"Тутракан\" 100, гр. Русе","addr:country":"BG","name":"клон \"Тежко машиностроене\", гр. Русе","phone":"+359 82 889 551","brand":"Fibank","brand:wikidata":"Q3367065"},"coordinates":[43.8759479,26.0170914]},"tags_mismatch":false,"dist":0},{"osm":false,"atp":{"id":"oZWWIH86_fEDOdJgKMa8bsJ3mC0=","tags":{"ref":"11111277","amenity":"bank","short_name:bg":"ПИБ","addr:full":"бул. \"Цар Освободител\" 1, гр. Русе","addr:country":"BG","name":"клон &amp;amp;quot;Цар Освободител&amp;amp;quot;, гр. Русе","phone":"+359 82 889 488","brand":"Fibank","brand:wikidata":"Q3367065"},"coordinates":[43.8520366,25.9571161]},"tags_mismatch":false,"dist":0},{"osm":false,"atp":{"id":"XKEYuwSi54uVOW45vkNM3aCXDkk=","tags":{"ref":"11111306","amenity":"bank","short_name:bg":"ПИБ","addr:full":"бул. \"България\" 58, гр. Свиленград","addr:country":"BG","name":"клон \"Свиленград\", гр. Свиленград","phone":"+359 37 974 444","opening_hours":"Mo-Fr 09:00-17:30","brand":"Fibank","brand:wikidata":"Q3367065"},"coordinates":[41.7654,26.2034]},"tags_mismatch":false,"dist":0},{"osm":false,"atp":{"id":"ou84ngzk65R9O40R7DWeG99oxxI=","tags":{"ref":"11111301","amenity":"bank","short_name:bg":"ПИБ","addr:full":"пл. \"Свобода\", гр. Севлиево","addr:country":"BG","name":"клон \"Севлиево\", гр. Севлиево","phone":"+359 67 531 053","opening_hours":"Mo-Fr 09:00-17:30","brand":"Fibank","brand:wikidata":"Q3367065"},"coordinates":[43.0266779,25.1037644]},"tags_mismatch":false,"dist":0},{"osm":false,"atp":{"id":"jWCgrJiHlTSIoG7bbkhppfBi8Hw=","tags":{"ref":"11111317","amenity":"bank","short_name:bg":"ПИБ","addr:full":"ул. \"Георги Димитров\" 27, гр. Симитли","addr:country":"BG","name":"клон \"Симитли\", гр. Симитли","phone":"+359 74 789 051","opening_hours":"Mo-Fr 09:00-17:30","brand":"Fibank","brand:wikidata":"Q3367065"},"coordinates":[41.892068,23.112771]},"tags_mismatch":false,"dist":0},{"osm":false,"atp":{"id":"E4HI9APdoiRuLSVP8a6-L-xDJRI=","tags":{"ref":"11111292","amenity":"bank","short_name:bg":"ПИБ","addr:full":"бул. \"Цар Освободител\" 50, гр. Сливен","addr:country":"BG","name":"клон \"Сливен\", гр. Сливен","phone":"+359 44 619 708","opening_hours":"Mo-Fr 09:00-17:30","brand":"Fibank","brand:wikidata":"Q3367065"},"coordinates":[42.6784336,26.324956]},"tags_mismatch":false,"dist":0},{"osm":false,"atp":{"id":"HeuQ50uCcoEXKlbYVaR7DV4gGdc=","tags":{"ref":"11111327","amenity":"bank","short_name:bg":"ПИБ","addr:full":"бул. „България“ 58, гр. Смолян","addr:country":"BG","name":"клон &amp;quot;Смолян&amp;quot;, гр. Смолян","phone":"+359 30 167 020","opening_hours":"Mo-Fr 09:00-17:30","brand":"Fibank","brand:wikidata":"Q3367065"},"coordinates":[41.5774964,24.698781]},"tags_mismatch":false,"dist":0},{"osm":false,"atp":{"id":"CsETWn3wkDCTK-ilwmC4cHekqVU=","tags":{"ref":"11111274","amenity":"bank","short_name:bg":"ПИБ","addr:full":"ул. \"Републиканска\" 7, гр. Созопол","addr:country":"BG","name":"клон \"Созопол\", гр. Созопол","phone":"+359 55 025 191","brand":"Fibank","brand:wikidata":"Q3367065"},"coordinates":[42.4157219,27.6968387]},"tags_mismatch":false,"dist":0},{"osm":false,"atp":{"id":"08T2O0eQXOP59rhK6GFfWmpVQqA=","tags":{"ref":"11111326","amenity":"bank","short_name:bg":"ПИБ","addr:full":"ул. \"Васил Левски\" 108, гр. Троян","addr:country":"BG","name":"клон \"Троян\", гр. Троян","phone":"+359 67 060 040","opening_hours":"Mo-Fr 09:00-17:30","brand":"Fibank","brand:wikidata":"Q3367065"},"coordinates":[42.888252,24.7131]},"tags_mismatch":false,"dist":0},{"osm":false,"atp":{"id":"Zr8Jtb_gV9p0ZBByTgLSThP9YJw=","tags":{"ref":"11111299","amenity":"bank","short_name:bg":"ПИБ","addr:full":"ул. \"Христо Ботев\" 46, гр. Търговище","addr:country":"BG","name":"клон \"Търговище\", гр. Търговище","phone":"+359 60 169 530","opening_hours":"Mo-Fr 09:00-17:30","brand":"Fibank","brand:wikidata":"Q3367065"},"coordinates":[43.250157,26.571205]},"tags_mismatch":false,"dist":0},{"osm":false,"atp":{"id":"xrn_CSAm8ky_rypWvFKUDMY1jJI=","tags":{"ref":"11111295","amenity":"bank","short_name:bg":"ПИБ","addr:full":"бул. \"Симеон Велики\" 67, гр. Шумен","addr:country":"BG","name":"клон \"Шумен\", гр. Шумен","phone":"+359 54 856 611","opening_hours":"Mo-Fr 09:00-17:30","brand":"Fibank","brand:wikidata":"Q3367065"},"coordinates":[43.2730669,26.9243043]},"tags_mismatch":false,"dist":0},{"osm":false,"atp":{"id":"NFs_njvUZUvpD8CyB6dww60fxXs=","tags":{"ref":"11111293","amenity":"bank","short_name:bg":"ПИБ","addr:full":"пл. \"Освобождение\" 10, гр. Ямбол","addr:country":"BG","name":"клон \"Ямбол\", гр. Ямбол","phone":"+359 46 682 363","opening_hours":"Mo-Fr 09:00-17:30","brand":"Fibank","brand:wikidata":"Q3367065"},"coordinates":[42.4836598,26.5050907]},"tags_mismatch":false,"dist":0}]}