{"metadata":{"type":"operator","wikidata":"Q122947768","name":"M-texx","compare_keys":[]},"data":[{"osm":false,"atp":{"id":"wHA4Bz5k50CffgNtk9AIJmr7Qs4=","tags":{"amenity":"recycling","recycling:clothes":"yes","recycling:shoes":"yes","addr:full":"ул. Пирин, 6750 Ардино","addr:city":"Ардино","addr:country":"BG","brand":"M-texx","brand:wikidata":"Q122947768","operator:wikidata":"Q122947768"},"coordinates":[41.583561,25.135276]},"tags_mismatch":false,"dist":0},{"osm":false,"atp":{"id":"h0Rt2oF8XbWzhUQo2Ml4fNzpRQ8=","tags":{"amenity":"recycling","recycling:clothes":"yes","recycling:shoes":"yes","addr:full":"улица Републиканска, 6750 Ардино","addr:city":"Ардино","addr:country":"BG","brand":"M-texx","brand:wikidata":"Q122947768","operator:wikidata":"Q122947768"},"coordinates":[41.583061,25.134152]},"tags_mismatch":false,"dist":0},{"osm":false,"atp":{"id":"KrQyZVL8L9YrSzETlkqy71h-ixY=","tags":{"amenity":"recycling","recycling:clothes":"yes","recycling:shoes":"yes","addr:full":"Ардино","addr:city":"Ардино","addr:country":"BG","brand":"M-texx","brand:wikidata":"Q122947768","operator:wikidata":"Q122947768"},"coordinates":[41.580028,25.133278]},"tags_mismatch":false,"dist":0},{"osm":false,"atp":{"id":"I5ATyNPO8brct0czQ7Ie6HbOGMQ=","tags":{"amenity":"recycling","recycling:clothes":"yes","recycling:shoes":"yes","addr:full":"ул. България, 2089 Антон","addr:city":"Антон","addr:country":"BG","brand":"M-texx","brand:wikidata":"Q122947768","operator:wikidata":"Q122947768"},"coordinates":[42.735078,24.260305]},"tags_mismatch":false,"dist":0},{"osm":false,"atp":{"id":"ptP3tJDh8ZbqFRo7dhleFyz8QCU=","tags":{"amenity":"recycling","recycling:clothes":"yes","recycling:shoes":"yes","addr:full":"ул. „Карловска\" 24-26, 4360 Баня","addr:city":"Баня /Карлово/","addr:country":"BG","brand":"M-texx","brand:wikidata":"Q122947768","operator:wikidata":"Q122947768"},"coordinates":[42.54565,24.829924]},"tags_mismatch":false,"dist":0},{"osm":false,"atp":{"id":"uNJD2GobKHTaNTMIMoEacBVT7Ig=","tags":{"amenity":"recycling","recycling:clothes":"yes","recycling:shoes":"yes","addr:full":"8632 2-1, 4940 Баните","addr:city":"Баните /Смолян/","addr:country":"BG","brand":"M-texx","brand:wikidata":"Q122947768","operator:wikidata":"Q122947768"},"coordinates":[41.613912,25.006642]},"tags_mismatch":false,"dist":0},{"osm":false,"atp":{"id":"AKnBxABFa9SWVkcmgRddmX_NnN0=","tags":{"amenity":"recycling","recycling:clothes":"yes","recycling:shoes":"yes","addr:full":"ул. Димитър Благоев, 8720 Болярово","addr:city":"Болярово","addr:country":"BG","brand":"M-texx","brand:wikidata":"Q122947768","operator:wikidata":"Q122947768"},"coordinates":[42.148889,26.809884]},"tags_mismatch":false,"dist":0},{"osm":false,"atp":{"id":"KFvu14L3F0jTXaXx1p8VmBAfT2c=","tags":{"amenity":"recycling","recycling:clothes":"yes","recycling:shoes":"yes","addr:full":"А, 7174, ж.к. Красно село - кв. Борово, бул. „Никола Й. Вапцаров“ 1","addr:city":"Борово","addr:country":"BG","brand":"M-texx","brand:wikidata":"Q122947768","operator:wikidata":"Q122947768"},"coordinates":[43.488523,25.810327]},"tags_mismatch":false,"dist":0},{"osm":false,"atp":{"id":"W_cQc68beAL7SC2tfivMKNppvK8=","tags":{"amenity":"recycling","recycling:clothes":"yes","recycling:shoes":"yes","addr:full":"197, 4824 Борино","addr:city":"Борино","addr:country":"BG","brand":"M-texx","brand:wikidata":"Q122947768","operator:wikidata":"Q122947768"},"coordinates":[41.683749,24.292708]},"tags_mismatch":false,"dist":0},{"osm":false,"atp":{"id":"KZ6GJ-z_ICOOCqqUT7mgrftfkek=","tags":{"amenity":"recycling","recycling:clothes":"yes","recycling:shoes":"yes","addr:full":"ул. Цар Освободител 41, 7100 Бяла","addr:city":"Бяла","addr:country":"BG","brand":"M-texx","brand:wikidata":"Q122947768","operator:wikidata":"Q122947768"},"coordinates":[43.465115,25.731369]},"tags_mismatch":false,"dist":0},{"osm":false,"atp":{"id":"YLXr4HJcDlxv3SyRWj39vdPT6as=","tags":{"amenity":"recycling","recycling:clothes":"yes","recycling:shoes":"yes","addr:full":"ул. Цар Освободител 113-101, 7100 Бяла","addr:city":"Бяла","addr:country":"BG","brand":"M-texx","brand:wikidata":"Q122947768","operator:wikidata":"Q122947768"},"coordinates":[43.461486,25.739285]},"tags_mismatch":false,"dist":0},{"osm":false,"atp":{"id":"ZNeQbOitzJrxeLN5M1JzjClSPKo=","tags":{"amenity":"recycling","recycling:clothes":"yes","recycling:shoes":"yes","addr:full":"Георги Бенковски 31, 7100 Бяла","addr:city":"Бяла","addr:country":"BG","brand":"M-texx","brand:wikidata":"Q122947768","operator:wikidata":"Q122947768"},"coordinates":[43.45438,25.738575]},"tags_mismatch":false,"dist":0},{"osm":false,"atp":{"id":"uWP0NO9WXdPgyXJlzp6LniMDk8A=","tags":{"amenity":"recycling","recycling:clothes":"yes","recycling:shoes":"yes","addr:full":"ул. Васил Априлов 26, 7101 Гара Бяла","addr:city":"Бяла","addr:country":"BG","brand":"M-texx","brand:wikidata":"Q122947768","operator:wikidata":"Q122947768"},"coordinates":[43.468083,25.67575]},"tags_mismatch":false,"dist":0},{"osm":false,"atp":{"id":"4S38NZ6SVSd4UnggTN-JcdNnFcM=","tags":{"amenity":"recycling","recycling:clothes":"yes","recycling:shoes":"yes","addr:full":"ул. „Неофит Рилски“ 65949, 9850 Велики Преслав","addr:city":"Велики Преслав","addr:country":"BG","brand":"M-texx","brand:wikidata":"Q122947768","operator:wikidata":"Q122947768"},"coordinates":[43.16214,26.801611]},"tags_mismatch":false,"dist":0},{"osm":false,"atp":{"id":"3s2Lonb9uZx1J6PQbU4x6AmMX-E=","tags":{"amenity":"recycling","recycling:clothes":"yes","recycling:shoes":"yes","addr:full":"ул. „Борис Спиров“ 92, 9850 Велики Преслав","addr:city":"Велики Преслав","addr:country":"BG","brand":"M-texx","brand:wikidata":"Q122947768","operator:wikidata":"Q122947768"},"coordinates":[43.162844,26.807639]},"tags_mismatch":false,"dist":0},{"osm":false,"atp":{"id":"C8Qs3flK154Icl1YLjii0hz3wnY=","tags":{"amenity":"recycling","recycling:clothes":"yes","recycling:shoes":"yes","addr:full":"ул. „Панайот Волов“, 9850 Велики Преслав","addr:city":"Велики Преслав","addr:country":"BG","brand":"M-texx","brand:wikidata":"Q122947768","operator:wikidata":"Q122947768"},"coordinates":[43.159336,26.809585]},"tags_mismatch":false,"dist":0},{"osm":false,"atp":{"id":"YOydibD17CR7aRIWj3hJeBUKNZw=","tags":{"amenity":"recycling","recycling:clothes":"yes","recycling:shoes":"yes","addr:full":"9850 Велики Преслав","addr:city":"Велики Преслав","addr:country":"BG","brand":"M-texx","brand:wikidata":"Q122947768","operator:wikidata":"Q122947768"},"coordinates":[43.16188,26.815496]},"tags_mismatch":false,"dist":0},{"osm":false,"atp":{"id":"jUFjkaZIWQ-RksH8axzXiT8nwwM=","tags":{"amenity":"recycling","recycling:clothes":"yes","recycling:shoes":"yes","addr:full":"ул. „Филип Тотю“ 17-15, 5002 Район Западен, - ОУ Бачо Киро","addr:city":"Велико Търново","addr:country":"BG","brand":"M-texx","brand:wikidata":"Q122947768","operator:wikidata":"Q122947768"},"coordinates":[43.076289,25.616931]},"tags_mismatch":false,"dist":0},{"osm":false,"atp":{"id":"1qcC7O3DlZijZUEH0TSxl-ZWgro=","tags":{"amenity":"recycling","recycling:clothes":"yes","recycling:shoes":"yes","addr:full":"5000 ж.к. Акация, Велико Търново","addr:city":"Велико Търново","addr:country":"BG","brand":"M-texx","brand:wikidata":"Q122947768","operator:wikidata":"Q122947768"},"coordinates":[43.080386,25.614729]},"tags_mismatch":false,"dist":0},{"osm":false,"atp":{"id":"4MfVxtFt4dMz0VlTC9zuorCgOEM=","tags":{"amenity":"recycling","recycling:clothes":"yes","recycling:shoes":"yes","addr:full":"ул „Полтава\" 5, 5005 ж.к. Колю Фичето, Велико Търново","addr:city":"Велико Търново","addr:country":"BG","brand":"M-texx","brand:wikidata":"Q122947768","operator:wikidata":"Q122947768"},"coordinates":[43.080727,25.604889]},"tags_mismatch":false,"dist":0},{"osm":false,"atp":{"id":"kBJiHr1KAOUeieyeFcVw3kQepAM=","tags":{"amenity":"recycling","recycling:clothes":"yes","recycling:shoes":"yes","addr:full":"ул. „Лазурна“ 1, 5008 ж.к. Зона Б, Велико Търново","addr:city":"Велико Търново","addr:country":"BG","brand":"M-texx","brand:wikidata":"Q122947768","operator:wikidata":"Q122947768"},"coordinates":[43.068667,25.618111]},"tags_mismatch":false,"dist":0},{"osm":false,"atp":{"id":"7iBag1VLo-UWCvthhfJfbAg-enI=","tags":{"amenity":"recycling","recycling:clothes":"yes","recycling:shoes":"yes","addr:full":"ул. „Иларион Драгостинов“, 5008 ж.к. Бузлуджа, Велико Търново","addr:city":"Велико Търново","addr:country":"BG","brand":"M-texx","brand:wikidata":"Q122947768","operator:wikidata":"Q122947768"},"coordinates":[43.066747,25.611738]},"tags_mismatch":false,"dist":0},{"osm":false,"atp":{"id":"KO9gMlUg38jdpxsm6g9I3nbCTGc=","tags":{"amenity":"recycling","recycling:clothes":"yes","recycling:shoes":"yes","addr:full":"ул. „Райна Княгиня“ 5В, 5004 ж.к. Чолаковци, Велико Търново","addr:city":"Велико Търново","addr:country":"BG","brand":"M-texx","brand:wikidata":"Q122947768","operator:wikidata":"Q122947768"},"coordinates":[43.061876,25.600139]},"tags_mismatch":false,"dist":0},{"osm":false,"atp":{"id":"vYWOYbSm93UFvatD6Fm34FfMyXw=","tags":{"amenity":"recycling","recycling:clothes":"yes","recycling:shoes":"yes","addr:full":"5008 Велико Търново","addr:city":"Велико Търново","addr:country":"BG","brand":"M-texx","brand:wikidata":"Q122947768","operator:wikidata":"Q122947768"},"coordinates":[43.061833,25.605428]},"tags_mismatch":false,"dist":0},{"osm":false,"atp":{"id":"EXAKHixneSs6k8jT_4Tmgi9wbR8=","tags":{"amenity":"recycling","recycling:clothes":"yes","recycling:shoes":"yes","addr:full":"ул. Велико Търново, 7080 Ветово","addr:city":"Ветово","addr:country":"BG","brand":"M-texx","brand:wikidata":"Q122947768","operator:wikidata":"Q122947768"},"coordinates":[43.70424,26.26489]},"tags_mismatch":false,"dist":0},{"osm":false,"atp":{"id":"sDIcX7MlWgagnuy0UwivSeZGsBM=","tags":{"amenity":"recycling","recycling:clothes":"yes","recycling:shoes":"yes","addr:full":"бул. „2-ри юни“ 161-149, 3001 Медковец, Враца - 2 бр.","addr:city":"Враца","addr:country":"BG","brand":"M-texx","brand:wikidata":"Q122947768","operator:wikidata":"Q122947768"},"coordinates":[43.195376,23.566735]},"tags_mismatch":false,"dist":0},{"osm":false,"atp":{"id":"jI9wyDicq3zVqLs9BSY5Ti824EI=","tags":{"amenity":"recycling","recycling:clothes":"yes","recycling:shoes":"yes","addr:full":"ул. „Козлодуйски бряг“ 34, 3002 ж.к. Самуил, Враца - 2 бр.","addr:city":"Враца","addr:country":"BG","brand":"M-texx","brand:wikidata":"Q122947768","operator:wikidata":"Q122947768"},"coordinates":[43.204746,23.562778]},"tags_mismatch":false,"dist":0},{"osm":false,"atp":{"id":"4893QivDV1HoeRBhXkzYykZBgOw=","tags":{"amenity":"recycling","recycling:clothes":"yes","recycling:shoes":"yes","addr:full":"ул. „Климент Охридски“, 3000 Враца Център, Враца","addr:city":"Враца","addr:country":"BG","brand":"M-texx","brand:wikidata":"Q122947768","operator:wikidata":"Q122947768"},"coordinates":[43.208576,23.553164]},"tags_mismatch":false,"dist":0},{"osm":false,"atp":{"id":"fN98graxuB0xjdHW2JBVb93VGD8=","tags":{"amenity":"recycling","recycling:clothes":"yes","recycling:shoes":"yes","addr:full":"ул. „Георги С. Раковски“ 28-30, 3000 Враца Център, Враца","addr:city":"Враца","addr:country":"BG","brand":"M-texx","brand:wikidata":"Q122947768","operator:wikidata":"Q122947768"},"coordinates":[43.207079,23.550581]},"tags_mismatch":false,"dist":0},{"osm":false,"atp":{"id":"wEBdExC9VRP_n--p_kCtW67cW6g=","tags":{"amenity":"recycling","recycling:clothes":"yes","recycling:shoes":"yes","addr:full":"ул. „Сестри Хаджикръстеви“ 7, 3000 ж.к. Металург, Враца","addr:city":"Враца","addr:country":"BG","brand":"M-texx","brand:wikidata":"Q122947768","operator:wikidata":"Q122947768"},"coordinates":[43.213968,23.55162]},"tags_mismatch":false,"dist":0},{"osm":false,"atp":{"id":"--zSSpQlImOYGaB9Wqm_56N7s8I=","tags":{"amenity":"recycling","recycling:clothes":"yes","recycling:shoes":"yes","addr:full":"Стоян Ц. Даскалов, 3005 ж.к. Дъбника, Враца","addr:city":"Враца","addr:country":"BG","brand":"M-texx","brand:wikidata":"Q122947768","operator:wikidata":"Q122947768"},"coordinates":[43.223719,23.552615]},"tags_mismatch":false,"dist":0},{"osm":false,"atp":{"id":"sAnKi76jMLv2WU4wuMQ53TaK4Kc=","tags":{"amenity":"recycling","recycling:clothes":"yes","recycling:shoes":"yes","addr:full":"3005 ж.к. Дъбника, Враца","addr:city":"Враца","addr:country":"BG","brand":"M-texx","brand:wikidata":"Q122947768","operator:wikidata":"Q122947768"},"coordinates":[43.222264,23.544641]},"tags_mismatch":false,"dist":0},{"osm":false,"atp":{"id":"3pjb23sRq5iHqRqC6ZZf96k0zMc=","tags":{"amenity":"recycling","recycling:clothes":"yes","recycling:shoes":"yes","addr:full":"3005 ж.к. Сениче, Враца","addr:city":"Враца","addr:country":"BG","brand":"M-texx","brand:wikidata":"Q122947768","operator:wikidata":"Q122947768"},"coordinates":[43.220804,23.54128]},"tags_mismatch":false,"dist":0},{"osm":false,"atp":{"id":"wOaFOuUph_GxeaegB4qJoAjmHkg=","tags":{"amenity":"recycling","recycling:clothes":"yes","recycling:shoes":"yes","addr:full":"бул. „Христо Ботев“ 140А, 3000 72, Враца","addr:city":"Враца","addr:country":"BG","brand":"M-texx","brand:wikidata":"Q122947768","operator:wikidata":"Q122947768"},"coordinates":[43.215058,23.545027]},"tags_mismatch":false,"dist":0},{"osm":false,"atp":{"id":"r558z9MQo1nNx0DV-DpERmko2C8=","tags":{"amenity":"recycling","recycling:clothes":"yes","recycling:shoes":"yes","addr:full":"бул. „2-ри юни“ 47-45, 3001 Враца Център, Враца - 2 бр.","addr:city":"Враца","addr:country":"BG","brand":"M-texx","brand:wikidata":"Q122947768","operator:wikidata":"Q122947768"},"coordinates":[43.200343,23.554309]},"tags_mismatch":false,"dist":0},{"osm":false,"atp":{"id":"RK-jzr0moAAFJRqBCVBwwdtB1fg=","tags":{"amenity":"recycling","recycling:clothes":"yes","recycling:shoes":"yes","addr:full":"ул. „Генерал Леонов“ 14А, 3000 Враца Център, Враца","addr:city":"Враца","addr:country":"BG","brand":"M-texx","brand:wikidata":"Q122947768","operator:wikidata":"Q122947768"},"coordinates":[43.201511,23.55109]},"tags_mismatch":false,"dist":0},{"osm":false,"atp":{"id":"iygydTMJDod4esJ8TciyxSdfpIE=","tags":{"amenity":"recycling","recycling:clothes":"yes","recycling:shoes":"yes","addr:full":"ул. Оборище 7, 3000 Враца","addr:city":"Враца","addr:country":"BG","brand":"M-texx","brand:wikidata":"Q122947768","operator:wikidata":"Q122947768"},"coordinates":[43.207745,23.544704]},"tags_mismatch":false,"dist":0},{"osm":false,"atp":{"id":"TBBhTcsIQFmonIaotQYFuBD2LMU=","tags":{"amenity":"recycling","recycling:clothes":"yes","recycling:shoes":"yes","addr:full":"ул. „Пирот“ 45, 5100 Горна Оряховица","addr:city":"Горна Оряховица","addr:country":"BG","brand":"M-texx","brand:wikidata":"Q122947768","operator:wikidata":"Q122947768"},"coordinates":[43.118561,25.689403]},"tags_mismatch":false,"dist":0},{"osm":false,"atp":{"id":"6tPp5L_9_9hVo6SiR07COYkrOGE=","tags":{"amenity":"recycling","recycling:clothes":"yes","recycling:shoes":"yes","addr:full":"53 23, 5101 Горна Оряховица","addr:city":"Горна Оряховица","addr:country":"BG","brand":"M-texx","brand:wikidata":"Q122947768","operator:wikidata":"Q122947768"},"coordinates":[43.128493,25.681802]},"tags_mismatch":false,"dist":0},{"osm":false,"atp":{"id":"_AnqVeTjxfDiA9CuOk9nFI1qxTg=","tags":{"amenity":"recycling","recycling:clothes":"yes","recycling:shoes":"yes","addr:full":"ул. Васил Левски 10-8, 5101 Пролет, Горна Оряховица","addr:city":"Горна Оряховица","addr:country":"BG","brand":"M-texx","brand:wikidata":"Q122947768","operator:wikidata":"Q122947768"},"coordinates":[43.13258,25.684167]},"tags_mismatch":false,"dist":0},{"osm":false,"atp":{"id":"qx6qFxAtw9BPw9vnsk1FanzrzD0=","tags":{"amenity":"recycling","recycling:clothes":"yes","recycling:shoes":"yes","addr:full":"5101 Горна Оряховица","addr:city":"Горна Оряховица","addr:country":"BG","brand":"M-texx","brand:wikidata":"Q122947768","operator:wikidata":"Q122947768"},"coordinates":[43.133609,25.679852]},"tags_mismatch":false,"dist":0},{"osm":false,"atp":{"id":"5dRtbVbty4GEV30aCfzfq7pRda8=","tags":{"amenity":"recycling","recycling:clothes":"yes","recycling:shoes":"yes","addr:full":"ул. „Мусала“, 5102 Горна Оряховица","addr:city":"Горна Оряховица","addr:country":"BG","brand":"M-texx","brand:wikidata":"Q122947768","operator:wikidata":"Q122947768"},"coordinates":[43.139128,25.681556]},"tags_mismatch":false,"dist":0},{"osm":false,"atp":{"id":"gSCYrpVEAeAVQf2w04RqacKLZgc=","tags":{"amenity":"recycling","recycling:clothes":"yes","recycling:shoes":"yes","addr:full":"ул. Васил Левски 4-8, 5101 Горна Оряховица","addr:city":"Горна Оряховица","addr:country":"BG","brand":"M-texx","brand:wikidata":"Q122947768","operator:wikidata":"Q122947768"},"coordinates":[43.131262,25.680751]},"tags_mismatch":false,"dist":0},{"osm":false,"atp":{"id":"0jfkRZCtmt0Ghmv68bZ5uzDWnBE=","tags":{"amenity":"recycling","recycling:clothes":"yes","recycling:shoes":"yes","addr:full":"5100 Горна Оряховица","addr:city":"Горна Оряховица","addr:country":"BG","brand":"M-texx","brand:wikidata":"Q122947768","operator:wikidata":"Q122947768"},"coordinates":[43.123234,25.680615]},"tags_mismatch":false,"dist":0},{"osm":false,"atp":{"id":"sI7ljcQZZipYNhVyKhq7QMYYTbA=","tags":{"amenity":"recycling","recycling:clothes":"yes","recycling:shoes":"yes","addr:full":"бул. „Македония“, 5100 Център, Горна Оряховица","addr:city":"Горна Оряховица","addr:country":"BG","brand":"M-texx","brand:wikidata":"Q122947768","operator:wikidata":"Q122947768"},"coordinates":[43.119545,25.687766]},"tags_mismatch":false,"dist":0},{"osm":false,"atp":{"id":"Y6ZUgEdpUFcexBR1cskesAP2mwk=","tags":{"amenity":"recycling","recycling:clothes":"yes","recycling:shoes":"yes","addr:full":"2001, 7040 Глоджево","addr:city":"Гложево","addr:country":"BG","brand":"M-texx","brand:wikidata":"Q122947768","operator:wikidata":"Q122947768"},"coordinates":[43.733477,26.388391]},"tags_mismatch":false,"dist":0},{"osm":false,"atp":{"id":"9b3PQB1Ejk5Y5HHYiBd3rFr4_b0=","tags":{"amenity":"recycling","recycling:clothes":"yes","recycling:shoes":"yes","addr:full":"ул. Александър Стамболийски, 6199 Гурково","addr:city":"Гурково","addr:country":"BG","brand":"M-texx","brand:wikidata":"Q122947768","operator:wikidata":"Q122947768"},"coordinates":[42.65923,25.79228]},"tags_mismatch":false,"dist":0},{"osm":false,"atp":{"id":"MfzpbSMYmoNQPOVa-9mHwd1bxeo=","tags":{"amenity":"recycling","recycling:clothes":"yes","recycling:shoes":"yes","addr:full":"ул. Христо Смирненски 1, 7150 Две могили - 2 бр.","addr:city":"Две Могили","addr:country":"BG","brand":"M-texx","brand:wikidata":"Q122947768","operator:wikidata":"Q122947768"},"coordinates":[43.590957,25.874943]},"tags_mismatch":false,"dist":0},{"osm":false,"atp":{"id":"KQ32FYxYBCD0cKMX1yXiG_Yxwks=","tags":{"amenity":"recycling","recycling:clothes":"yes","recycling:shoes":"yes","addr:full":"ул. Патриарх Евтимий Търновски 50, 5030 Дебелец","addr:city":"Дебелец","addr:country":"BG","brand":"M-texx","brand:wikidata":"Q122947768","operator:wikidata":"Q122947768"},"coordinates":[43.042971,25.62099]},"tags_mismatch":false,"dist":0},{"osm":false,"atp":{"id":"ik-IxnEXWLADLwhEkfFyViCqeGo=","tags":{"amenity":"recycling","recycling:clothes":"yes","recycling:shoes":"yes","addr:full":"ул. „Емилиян Станев“ 8-6, 6404 Димитровград","addr:city":"Димитровград","addr:country":"BG","brand":"M-texx","brand:wikidata":"Q122947768","operator:wikidata":"Q122947768"},"coordinates":[42.055583,25.584083]},"tags_mismatch":false,"dist":0},{"osm":false,"atp":{"id":"w9BYOX_hm4ZwnMylQe0Tmp5om08=","tags":{"amenity":"recycling","recycling:clothes":"yes","recycling:shoes":"yes","addr:full":"бул. Димитър Благоев 19Е, 6400 кв. Димитър Благоев, Димитровград","addr:city":"Димитровград","addr:country":"BG","brand":"M-texx","brand:wikidata":"Q122947768","operator:wikidata":"Q122947768"},"coordinates":[42.055222,25.597306]},"tags_mismatch":false,"dist":0},{"osm":false,"atp":{"id":"y_de2cceCMWkxndoZkEqnhNhHYQ=","tags":{"amenity":"recycling","recycling:clothes":"yes","recycling:shoes":"yes","addr:full":"ул. „Христо Г. Данов“ 8, 6404 Димитровград","addr:city":"Димитровград","addr:country":"BG","brand":"M-texx","brand:wikidata":"Q122947768","operator:wikidata":"Q122947768"},"coordinates":[42.054333,25.581611]},"tags_mismatch":false,"dist":0},{"osm":false,"atp":{"id":"oZCYXFRFsK6ASkzwEQcSvrBZLxg=","tags":{"amenity":"recycling","recycling:clothes":"yes","recycling:shoes":"yes","addr:full":"бул. „Христо Ботев“ 37-35, 6404 Димитровград","addr:city":"Димитровград","addr:country":"BG","brand":"M-texx","brand:wikidata":"Q122947768","operator:wikidata":"Q122947768"},"coordinates":[42.052028,25.583972]},"tags_mismatch":false,"dist":0},{"osm":false,"atp":{"id":"ru7HJNzv9z18bTyS1-C6Ibx4G_0=","tags":{"amenity":"recycling","recycling:clothes":"yes","recycling:shoes":"yes","addr:full":"6400 жк. Дружба, Димитровград","addr:city":"Димитровград","addr:country":"BG","brand":"M-texx","brand:wikidata":"Q122947768","operator:wikidata":"Q122947768"},"coordinates":[42.058044,25.585143]},"tags_mismatch":false,"dist":0},{"osm":false,"atp":{"id":"WKl45jlhuWKkn7KAnlE8KYmrUNE=","tags":{"amenity":"recycling","recycling:clothes":"yes","recycling:shoes":"yes","addr:full":"ул. „Св. Климент Охридски“ 12-6, 6400 кв. Димитър Благоев","addr:city":"Димитровград","addr:country":"BG","brand":"M-texx","brand:wikidata":"Q122947768","operator:wikidata":"Q122947768"},"coordinates":[42.057778,25.595806]},"tags_mismatch":false,"dist":0},{"osm":false,"atp":{"id":"LYLlTDy_Qh0VMeMPE_YGGt-kr98=","tags":{"amenity":"recycling","recycling:clothes":"yes","recycling:shoes":"yes","addr:full":"ул. „Иван Вазов“, 6400 Димитровград","addr:city":"Димитровград","addr:country":"BG","brand":"M-texx","brand:wikidata":"Q122947768","operator:wikidata":"Q122947768"},"coordinates":[42.058,25.60025]},"tags_mismatch":false,"dist":0},{"osm":false,"atp":{"id":"WbpzMrSJxiuEO9AWtuy30iINrwE=","tags":{"amenity":"recycling","recycling:clothes":"yes","recycling:shoes":"yes","addr:full":"Блок 3, ул. „Простор“, 6400 кв. Раковски, Димитровград","addr:city":"Димитровград","addr:country":"BG","brand":"M-texx","brand:wikidata":"Q122947768","operator:wikidata":"Q122947768"},"coordinates":[42.0615,25.601389]},"tags_mismatch":false,"dist":0},{"osm":false,"atp":{"id":"qIAl13ynBh3cNO5O6t6trigiqik=","tags":{"amenity":"recycling","recycling:clothes":"yes","recycling:shoes":"yes","addr:full":"ул. „Христо Смирненски“, 6400 жк. Дружба, Димитровград","addr:city":"Димитровград","addr:country":"BG","brand":"M-texx","brand:wikidata":"Q122947768","operator:wikidata":"Q122947768"},"coordinates":[42.061371,25.587563]},"tags_mismatch":false,"dist":0},{"osm":false,"atp":{"id":"Cqa8K75xqScNykczqkD2Enhvclg=","tags":{"amenity":"recycling","recycling:clothes":"yes","recycling:shoes":"yes","addr:full":"ул. Пенчо Славейков, 2040 Долна баня","addr:city":"Долна Баня","addr:country":"BG","brand":"M-texx","brand:wikidata":"Q122947768","operator:wikidata":"Q122947768"},"coordinates":[42.311279,23.765469]},"tags_mismatch":false,"dist":0},{"osm":false,"atp":{"id":"-of80Jghr0bBF4-H5f1cXQxxwzQ=","tags":{"amenity":"recycling","recycling:clothes":"yes","recycling:shoes":"yes","addr:full":"ул.Стефан Стамболов 43, 5370 Дряново","addr:city":"Дряново","addr:country":"BG","brand":"M-texx","brand:wikidata":"Q122947768","operator:wikidata":"Q122947768"},"coordinates":[42.975347,25.475372]},"tags_mismatch":false,"dist":0},{"osm":false,"atp":{"id":"toqf26YAf8z8BtlkS93JVzZqybk=","tags":{"amenity":"recycling","recycling:clothes":"yes","recycling:shoes":"yes","addr:full":"ул. Шипка 164, 5370 Дряново","addr:city":"Дряново","addr:country":"BG","brand":"M-texx","brand:wikidata":"Q122947768","operator:wikidata":"Q122947768"},"coordinates":[42.97377,25.470752]},"tags_mismatch":false,"dist":0},{"osm":false,"atp":{"id":"nOJC79TzYJqbX5mSJRWuLS88b9c=","tags":{"amenity":"recycling","recycling:clothes":"yes","recycling:shoes":"yes","addr:full":"2180 Осем, Етрополе","addr:city":"Етрополе","addr:country":"BG","brand":"M-texx","brand:wikidata":"Q122947768","operator:wikidata":"Q122947768"},"coordinates":[42.843362,24.005762]},"tags_mismatch":false,"dist":0},{"osm":false,"atp":{"id":"Pw6qGV-m9u220iP62TTfGBg3f6w=","tags":{"amenity":"recycling","recycling:clothes":"yes","recycling:shoes":"yes","addr:full":"37 30-38, 2180 Етрополе","addr:city":"Етрополе","addr:country":"BG","brand":"M-texx","brand:wikidata":"Q122947768","operator:wikidata":"Q122947768"},"coordinates":[42.830544,23.998563]},"tags_mismatch":false,"dist":0},{"osm":false,"atp":{"id":"p1sI6qo7tjxn36jjEPTMJH94uoI=","tags":{"amenity":"recycling","recycling:clothes":"yes","recycling:shoes":"yes","addr:full":"ul. Belovidovo, 4980 Златоград","addr:city":"Златоград","addr:country":"BG","brand":"M-texx","brand:wikidata":"Q122947768","operator:wikidata":"Q122947768"},"coordinates":[41.379188,25.097731]},"tags_mismatch":false,"dist":0},{"osm":false,"atp":{"id":"mzBP0kqVscEYQskl5O5j-khlEAo=","tags":{"amenity":"recycling","recycling:clothes":"yes","recycling:shoes":"yes","addr:full":"ул. Освобождение, 4980 Златоград","addr:city":"Златоград","addr:country":"BG","brand":"M-texx","brand:wikidata":"Q122947768","operator:wikidata":"Q122947768"},"coordinates":[41.380158,25.096032]},"tags_mismatch":false,"dist":0},{"osm":false,"atp":{"id":"Q2loQQtITeq60hFfGOLqOys8cVw=","tags":{"amenity":"recycling","recycling:clothes":"yes","recycling:shoes":"yes","addr:full":"4980 Златоград","addr:city":"Златоград","addr:country":"BG","brand":"M-texx","brand:wikidata":"Q122947768","operator:wikidata":"Q122947768"},"coordinates":[41.383676,25.09121]},"tags_mismatch":false,"dist":0},{"osm":false,"atp":{"id":"oFfpoMfPb3Qr-4g2v_A8Q45yWlg=","tags":{"amenity":"recycling","recycling:clothes":"yes","recycling:shoes":"yes","addr:full":"4980 Стадион Златоград","addr:city":"Златоград","addr:country":"BG","brand":"M-texx","brand:wikidata":"Q122947768","operator:wikidata":"Q122947768"},"coordinates":[41.379998,25.08529]},"tags_mismatch":false,"dist":0},{"osm":false,"atp":{"id":"25bzWuRDTXg2MaIQvwcShfd_28k=","tags":{"amenity":"recycling","recycling:clothes":"yes","recycling:shoes":"yes","addr:full":"ул. Владислав Варненчик 10, 2080 Златица-2бр.","addr:city":"Златица","addr:country":"BG","brand":"M-texx","brand:wikidata":"Q122947768","operator:wikidata":"Q122947768"},"coordinates":[42.712036,24.140551]},"tags_mismatch":false,"dist":0},{"osm":false,"atp":{"id":"ax1cUE7gnSt0mJv5KwXn-zkHaI0=","tags":{"amenity":"recycling","recycling:clothes":"yes","recycling:shoes":"yes","addr:full":"ул. Гълъбец, 2080 Златица","addr:city":"Златица","addr:country":"BG","brand":"M-texx","brand:wikidata":"Q122947768","operator:wikidata":"Q122947768"},"coordinates":[42.719303,24.134066]},"tags_mismatch":false,"dist":0},{"osm":false,"atp":{"id":"l0RW17Ptc192BkRPu4W52DtdgaI=","tags":{"amenity":"recycling","recycling:clothes":"yes","recycling:shoes":"yes","addr:full":"ул.Спартак 4-10, 8629 Кабиле","addr:city":"Кабиле","addr:country":"BG","brand":"M-texx","brand:wikidata":"Q122947768","operator:wikidata":"Q122947768"},"coordinates":[42.529316,26.478958]},"tags_mismatch":false,"dist":0},{"osm":false,"atp":{"id":"ZzvD1ZWI8t5YGZqBpHUILFoIzog=","tags":{"amenity":"recycling","recycling:clothes":"yes","recycling:shoes":"yes","addr:full":"ул. Ненко Балкански 2А, кв. \"Кулата\", Казанлък","addr:city":"Казанлък","addr:country":"BG","brand":"M-texx","brand:wikidata":"Q122947768","operator:wikidata":"Q122947768"},"coordinates":[42.621946,25.403176]},"tags_mismatch":false,"dist":0},{"osm":false,"atp":{"id":"pMEL6GSws9JMK6eWXSFRri_IdQA=","tags":{"amenity":"recycling","recycling:clothes":"yes","recycling:shoes":"yes","addr:full":"ул. „Доктор Стамболски 1, 6100 кв. Родина, Казанлък","addr:city":"Казанлък","addr:country":"BG","brand":"M-texx","brand:wikidata":"Q122947768","operator:wikidata":"Q122947768"},"coordinates":[42.618325,25.396236]},"tags_mismatch":false,"dist":0},{"osm":false,"atp":{"id":"pike5j5HWLbTWgoVst0Uh6SpreU=","tags":{"amenity":"recycling","recycling:clothes":"yes","recycling:shoes":"yes","addr:full":"бул. „23-ти пехотен Шипченски полк“ 27-85, 6100 кв. Къренски, Казанлък","addr:city":"Казанлък","addr:country":"BG","brand":"M-texx","brand:wikidata":"Q122947768","operator:wikidata":"Q122947768"},"coordinates":[42.618177,25.384387]},"tags_mismatch":false,"dist":0},{"osm":false,"atp":{"id":"J-JsGwFUPyBeTvjgsSnXXfQWNUc=","tags":{"amenity":"recycling","recycling:clothes":"yes","recycling:shoes":"yes","addr:full":"бул. „23-ти пехотен Шипченски полк“147, 6103 Казанлък","addr:city":"Казанлък","addr:country":"BG","brand":"M-texx","brand:wikidata":"Q122947768","operator:wikidata":"Q122947768"},"coordinates":[42.617924,25.369985]},"tags_mismatch":false,"dist":0},{"osm":false,"atp":{"id":"TLeGx7cpeFl8akbJrCAthTTjYJU=","tags":{"amenity":"recycling","recycling:clothes":"yes","recycling:shoes":"yes","addr:full":"ж.к. Васил Левски 45 Д, Казанлък","addr:city":"Казанлък","addr:country":"BG","brand":"M-texx","brand:wikidata":"Q122947768","operator:wikidata":"Q122947768"},"coordinates":[42.622067,25.376723]},"tags_mismatch":false,"dist":0},{"osm":false,"atp":{"id":"9II2PczWIc7oQBfmPbu56gaWKU0=","tags":{"amenity":"recycling","recycling:clothes":"yes","recycling:shoes":"yes","addr:full":"ул. „Генерал Столетов“ 22-16, 6100 Розариум, Казанлък","addr:city":"Казанлък","addr:country":"BG","brand":"M-texx","brand:wikidata":"Q122947768","operator:wikidata":"Q122947768"},"coordinates":[42.623637,25.385928]},"tags_mismatch":false,"dist":0},{"osm":false,"atp":{"id":"ZoeMrXBK1LHRKSZ3eMIOs0ekW14=","tags":{"amenity":"recycling","recycling:clothes":"yes","recycling:shoes":"yes","addr:full":"бул. „Освобождение“, 6100 Стадиона, Казанлък","addr:city":"Казанлък","addr:country":"BG","brand":"M-texx","brand:wikidata":"Q122947768","operator:wikidata":"Q122947768"},"coordinates":[42.627781,25.388449]},"tags_mismatch":false,"dist":0},{"osm":false,"atp":{"id":"alhwNOO0s2iLJHlckgPxaJ7-LHg=","tags":{"amenity":"recycling","recycling:clothes":"yes","recycling:shoes":"yes","addr:full":"Депо Казанлък","addr:city":"Казанлък","addr:country":"BG","brand":"M-texx","brand:wikidata":"Q122947768","operator:wikidata":"Q122947768"},"coordinates":[42.609209,25.396414]},"tags_mismatch":false,"dist":0},{"osm":false,"atp":{"id":"GeLvXwf63k42wbhfeDSTtrzfyow=","tags":{"amenity":"recycling","recycling:clothes":"yes","recycling:shoes":"yes","addr:full":"ул. 9-ти септември 5, 4370 Калофер","addr:city":"Калофер","addr:country":"BG","brand":"M-texx","brand:wikidata":"Q122947768","operator:wikidata":"Q122947768"},"coordinates":[42.610825,24.975372]},"tags_mismatch":false,"dist":0},{"osm":false,"atp":{"id":"hFZhd8eAjYCMYf6l6iQJuy-jKHo=","tags":{"amenity":"recycling","recycling:clothes":"yes","recycling:shoes":"yes","addr:full":"ул. Димчо Дебеляанов, 4173 Калояново","addr:city":"Калояново","addr:country":"BG","brand":"M-texx","brand:wikidata":"Q122947768","operator:wikidata":"Q122947768"},"coordinates":[42.356841,24.731222]},"tags_mismatch":false,"dist":0},{"osm":false,"atp":{"id":"r8D_L8J7_fkZlxhe78OEpOg2F2g=","tags":{"amenity":"recycling","recycling:clothes":"yes","recycling:shoes":"yes","addr:full":"ул. Цанко Церковски, 4302 Карлово","addr:city":"Карлово","addr:country":"BG","brand":"M-texx","brand:wikidata":"Q122947768","operator:wikidata":"Q122947768"},"coordinates":[42.645194,24.803179]},"tags_mismatch":false,"dist":0},{"osm":false,"atp":{"id":"uviZEL2RJAr_-WB8idMy6lwoHME=","tags":{"amenity":"recycling","recycling:clothes":"yes","recycling:shoes":"yes","addr:full":"Водопад 1, 4300 Център, Карлово","addr:city":"Карлово","addr:country":"BG","brand":"M-texx","brand:wikidata":"Q122947768","operator:wikidata":"Q122947768"},"coordinates":[42.64448,24.807014]},"tags_mismatch":false,"dist":0},{"osm":false,"atp":{"id":"YyRmlsRvbPCzkgTGQ5tSwJetdMI=","tags":{"amenity":"recycling","recycling:clothes":"yes","recycling:shoes":"yes","addr:full":"ул. Генерал Заимов No 8, 4300 Карлово","addr:city":"Карлово","addr:country":"BG","brand":"M-texx","brand:wikidata":"Q122947768","operator:wikidata":"Q122947768"},"coordinates":[42.639562,24.800176]},"tags_mismatch":false,"dist":0},{"osm":false,"atp":{"id":"YDiEl3n6-aiqmD6YmjYNs7HnSpA=","tags":{"amenity":"recycling","recycling:clothes":"yes","recycling:shoes":"yes","addr:full":"ул. „Александър Стамболийски“ 44-46, 4300 кв. Васил Левски, Карлово","addr:city":"Карлово","addr:country":"BG","brand":"M-texx","brand:wikidata":"Q122947768","operator:wikidata":"Q122947768"},"coordinates":[42.636756,24.807565]},"tags_mismatch":false,"dist":0},{"osm":false,"atp":{"id":"8W9IZf7iFDXdBwHrVLE6wIQfNCA=","tags":{"amenity":"recycling","recycling:clothes":"yes","recycling:shoes":"yes","addr:full":"ул. Димитър Събев 2-6, 4300 кв. Васил Левски, Карлово","addr:city":"Карлово","addr:country":"BG","brand":"M-texx","brand:wikidata":"Q122947768","operator:wikidata":"Q122947768"},"coordinates":[42.640992,24.807323]},"tags_mismatch":false,"dist":0},{"osm":false,"atp":{"id":"okcfeSYYO5E_-392zT-OcdVJ4vE=","tags":{"amenity":"recycling","recycling:clothes":"yes","recycling:shoes":"yes","addr:full":"ул. „Македония“, 9930 Каспичан","addr:city":"Каспичан","addr:country":"BG","brand":"M-texx","brand:wikidata":"Q122947768","operator:wikidata":"Q122947768"},"coordinates":[43.316299,27.159186]},"tags_mismatch":false,"dist":0},{"osm":false,"atp":{"id":"FEPnJQ7Bykbp7zTIOhJc4LWZDvM=","tags":{"amenity":"recycling","recycling:clothes":"yes","recycling:shoes":"yes","addr:full":"ул. „Симеон Велики“ 1a, 9930 Каспичан","addr:city":"Каспичан","addr:country":"BG","brand":"M-texx","brand:wikidata":"Q122947768","operator:wikidata":"Q122947768"},"coordinates":[43.313224,27.159422]},"tags_mismatch":false,"dist":0},{"osm":false,"atp":{"id":"AJg7HI1gdyui9gATRiR8bICwnZs=","tags":{"amenity":"recycling","recycling:clothes":"yes","recycling:shoes":"yes","addr:full":"ул. „В. Михалев“, 8400 Център, Карнобат","addr:city":"Карнобат","addr:country":"BG","brand":"M-texx","brand:wikidata":"Q122947768","operator:wikidata":"Q122947768"},"coordinates":[42.648279,26.990038]},"tags_mismatch":false,"dist":0},{"osm":false,"atp":{"id":"ZDpfYgcPmPCJm1EQQpoOgmwy0cw=","tags":{"amenity":"recycling","recycling:clothes":"yes","recycling:shoes":"yes","addr:full":"ул. „Съби Димитров“ №21, 8400 Център, Карнобат","addr:city":"Карнобат","addr:country":"BG","brand":"M-texx","brand:wikidata":"Q122947768","operator:wikidata":"Q122947768"},"coordinates":[42.643837,26.98464]},"tags_mismatch":false,"dist":0},{"osm":false,"atp":{"id":"OF0HufLq49PiumwBJCOPrpf0Zyk=","tags":{"amenity":"recycling","recycling:clothes":"yes","recycling:shoes":"yes","addr:full":"ул. Възраждане, 8400 Карнобат","addr:city":"Карнобат","addr:country":"BG","brand":"M-texx","brand:wikidata":"Q122947768","operator:wikidata":"Q122947768"},"coordinates":[42.649317,26.968938]},"tags_mismatch":false,"dist":0},{"osm":false,"atp":{"id":"X595sUcVJTxaJ2EyBRKD2hPIQfQ=","tags":{"amenity":"recycling","recycling:clothes":"yes","recycling:shoes":"yes","addr:full":"5391 50, 8400 Център, Карнобат","addr:city":"Карнобат","addr:country":"BG","brand":"M-texx","brand:wikidata":"Q122947768","operator:wikidata":"Q122947768"},"coordinates":[42.648089,26.978402]},"tags_mismatch":false,"dist":0},{"osm":false,"atp":{"id":"ZaCN92bn_5vOXvsAPeJh_qNnq4I=","tags":{"amenity":"recycling","recycling:clothes":"yes","recycling:shoes":"yes","addr:full":"8400 Карнобат","addr:city":"Карнобат","addr:country":"BG","brand":"M-texx","brand:wikidata":"Q122947768","operator:wikidata":"Q122947768"},"coordinates":[42.652151,26.982803]},"tags_mismatch":false,"dist":0},{"osm":false,"atp":{"id":"Ztcx6oUIaaG7w4jFWGwrqW70RHM=","tags":{"amenity":"recycling","recycling:clothes":"yes","recycling:shoes":"yes","addr:full":"улица Александър Стамболийски 10, 5050 Килифарево","addr:city":"Килифарево","addr:country":"BG","brand":"M-texx","brand:wikidata":"Q122947768","operator:wikidata":"Q122947768"},"coordinates":[42.994182,25.621557]},"tags_mismatch":false,"dist":0},{"osm":false,"atp":{"id":"hh4IJH7m8cEq_rgjkeAU7yiUclA=","tags":{"amenity":"recycling","recycling:clothes":"yes","recycling:shoes":"yes","addr:full":"Кърджали Център, ул. „Отец Паисий“, 6600 Кърджали","addr:city":"Кърджали","addr:country":"BG","brand":"M-texx","brand:wikidata":"Q122947768","operator:wikidata":"Q122947768"},"coordinates":[41.6429,25.369521]},"tags_mismatch":false,"dist":0},{"osm":false,"atp":{"id":"yHSMVEIbiocFlUW9nL7VH82fdYg=","tags":{"amenity":"recycling","recycling:clothes":"yes","recycling:shoes":"yes","addr:full":"Кърджали Център, ул. „Македония“, 6600 Кърджали","addr:city":"Кърджали","addr:country":"BG","brand":"M-texx","brand:wikidata":"Q122947768","operator:wikidata":"Q122947768"},"coordinates":[41.643471,25.365227]},"tags_mismatch":false,"dist":0},{"osm":false,"atp":{"id":"HEJxxA-JimUR-JOBNi10hxVh2g8=","tags":{"amenity":"recycling","recycling:clothes":"yes","recycling:shoes":"yes","addr:full":"Кърджали Център, ул. „Екзарх Йосиф“, 6600 Кърджали","addr:city":"Кърджали","addr:country":"BG","brand":"M-texx","brand:wikidata":"Q122947768","operator:wikidata":"Q122947768"},"coordinates":[41.64522,25.3715]},"tags_mismatch":false,"dist":0},{"osm":false,"atp":{"id":"w6PFEenyN6rvkZTTMdZ3EbTG9RY=","tags":{"amenity":"recycling","recycling:clothes":"yes","recycling:shoes":"yes","addr:full":"ул. „Стефан Караджа“, 6600 Кърджали","addr:city":"Кърджали","addr:country":"BG","brand":"M-texx","brand:wikidata":"Q122947768","operator:wikidata":"Q122947768"},"coordinates":[41.641045,25.372789]},"tags_mismatch":false,"dist":0},{"osm":false,"atp":{"id":"xbeH5xzgGz94E8E94SLMBjBLCAU=","tags":{"amenity":"recycling","recycling:clothes":"yes","recycling:shoes":"yes","addr:full":"Кърджали Център, 6600 Кърджали","addr:city":"Кърджали","addr:country":"BG","brand":"M-texx","brand:wikidata":"Q122947768","operator:wikidata":"Q122947768"},"coordinates":[41.63865,25.375544]},"tags_mismatch":false,"dist":0},{"osm":false,"atp":{"id":"XJrLgvYj4TvnTp0BqTl0kCcvvNM=","tags":{"amenity":"recycling","recycling:clothes":"yes","recycling:shoes":"yes","addr:full":"Кърджали Център, бул. „България“ 63В, 6600 Кърджали","addr:city":"Кърджали","addr:country":"BG","brand":"M-texx","brand:wikidata":"Q122947768","operator:wikidata":"Q122947768"},"coordinates":[41.636077,25.373276]},"tags_mismatch":false,"dist":0},{"osm":false,"atp":{"id":"VH1XtJztPlB5YubBmc9wesD-dWY=","tags":{"amenity":"recycling","recycling:clothes":"yes","recycling:shoes":"yes","addr:full":"Кърджали Център, бул. „България“, 6600 Кърджали","addr:city":"Кърджали","addr:country":"BG","brand":"M-texx","brand:wikidata":"Q122947768","operator:wikidata":"Q122947768"},"coordinates":[41.634454,25.376907]},"tags_mismatch":false,"dist":0},{"osm":false,"atp":{"id":"dALMhKlMNIAJFDWsY8V_Qpu7vAA=","tags":{"amenity":"recycling","recycling:clothes":"yes","recycling:shoes":"yes","addr:full":"Веселчане, ул. „8-ми март“ 1, А, 6602 Кърджали","addr:city":"Кърджали","addr:country":"BG","brand":"M-texx","brand:wikidata":"Q122947768","operator:wikidata":"Q122947768"},"coordinates":[41.623045,25.377033]},"tags_mismatch":false,"dist":0},{"osm":false,"atp":{"id":"WP3loeAoRzK0Wrgdcz_is1k9U3g=","tags":{"amenity":"recycling","recycling:clothes":"yes","recycling:shoes":"yes","addr:full":"кв. Възрожденци, Стълби пред 15 Блок, 6609 Кърджали","addr:city":"Кърджали","addr:country":"BG","brand":"M-texx","brand:wikidata":"Q122947768","operator:wikidata":"Q122947768"},"coordinates":[41.630476,25.359286]},"tags_mismatch":false,"dist":0},{"osm":false,"atp":{"id":"td2oXeb7Xu4VD9MT2LMQYPJteWU=","tags":{"amenity":"recycling","recycling:clothes":"yes","recycling:shoes":"yes","addr:full":"кв. Възрожденци, бул. „Христо Ботев“, 6609","addr:city":"Кърджали","addr:country":"BG","brand":"M-texx","brand:wikidata":"Q122947768","operator:wikidata":"Q122947768"},"coordinates":[41.636722,25.355539]},"tags_mismatch":false,"dist":0},{"osm":false,"atp":{"id":"G-UPXNOnKLT2GszG5y_sMBJ6nvk=","tags":{"amenity":"recycling","recycling:clothes":"yes","recycling:shoes":"yes","addr:full":"606, 2077 Копривщица","addr:city":"Копривщица","addr:country":"BG","brand":"M-texx","brand:wikidata":"Q122947768","operator:wikidata":"Q122947768"},"coordinates":[42.636065,24.360544]},"tags_mismatch":false,"dist":0},{"osm":false,"atp":{"id":"VKmsBWoCR-fSlqZUzU5Y8KJtno4=","tags":{"amenity":"recycling","recycling:clothes":"yes","recycling:shoes":"yes","addr:full":"Център, ул. Търговска 4-10, 2030 гр. Костенец","addr:city":"Костенец","addr:country":"BG","brand":"M-texx","brand:wikidata":"Q122947768","operator:wikidata":"Q122947768"},"coordinates":[42.3087,23.858515]},"tags_mismatch":false,"dist":0},{"osm":false,"atp":{"id":"KuwA2bNWzjBTCgHcATuhHaIg8Lc=","tags":{"amenity":"recycling","recycling:clothes":"yes","recycling:shoes":"yes","addr:full":"Център, ул. „Белмекен“, 2030 Костенец","addr:city":"Костенец","addr:country":"BG","brand":"M-texx","brand:wikidata":"Q122947768","operator:wikidata":"Q122947768"},"coordinates":[42.307505,23.857618]},"tags_mismatch":false,"dist":0},{"osm":false,"atp":{"id":"VyqwtcT_url0b_DtnwXq3Au4snA=","tags":{"amenity":"recycling","recycling:clothes":"yes","recycling:shoes":"yes","addr:full":"ул. „Толбухин“ 4, 5835 Център, Кнежа","addr:city":"Кнежа","addr:country":"BG","brand":"M-texx","brand:wikidata":"Q122947768","operator:wikidata":"Q122947768"},"coordinates":[43.494373,24.079062]},"tags_mismatch":false,"dist":0},{"osm":false,"atp":{"id":"1x68zHt6dAIlnCOfT-2PlnuMuwY=","tags":{"amenity":"recycling","recycling:clothes":"yes","recycling:shoes":"yes","addr:full":"ул. Марин Боев 70, 5835 Център, Кнежа","addr:city":"Кнежа","addr:country":"BG","brand":"M-texx","brand:wikidata":"Q122947768","operator:wikidata":"Q122947768"},"coordinates":[43.497405,24.080664]},"tags_mismatch":false,"dist":0},{"osm":false,"atp":{"id":"I4oDfn_uPtVf6EVfsp2UaExVJEQ=","tags":{"amenity":"recycling","recycling:clothes":"yes","recycling:shoes":"yes","addr:full":"улица Димитър Благоев 1, 6900 Крумовград","addr:city":"Крумовград","addr:country":"BG","brand":"M-texx","brand:wikidata":"Q122947768","operator:wikidata":"Q122947768"},"coordinates":[41.474152,25.652264]},"tags_mismatch":false,"dist":0},{"osm":false,"atp":{"id":"_q9lMxWH4-9M_calfwXg_o1gPW4=","tags":{"amenity":"recycling","recycling:clothes":"yes","recycling:shoes":"yes","addr:full":"ул. „Христо Ботев“ 1, 6900 Крумовград","addr:city":"Крумовград","addr:country":"BG","brand":"M-texx","brand:wikidata":"Q122947768","operator:wikidata":"Q122947768"},"coordinates":[41.470428,25.652394]},"tags_mismatch":false,"dist":0},{"osm":false,"atp":{"id":"rUM2d9tZfwTXV_ezPYAAPToIz9Y=","tags":{"amenity":"recycling","recycling:clothes":"yes","recycling:shoes":"yes","addr:full":"5304 10-12, 8673 Кукорево","addr:city":"Кукорево/ Общ.Тунджа","addr:country":"BG","brand":"M-texx","brand:wikidata":"Q122947768","operator:wikidata":"Q122947768"},"coordinates":[42.447169,26.533329]},"tags_mismatch":false,"dist":0},{"osm":false,"atp":{"id":"ATbks1_BN8GFLimfDACm1jRwA1w=","tags":{"amenity":"recycling","recycling:clothes":"yes","recycling:shoes":"yes","addr:full":"5501 ж.к. Младост, Ловеч","addr:city":"Ловеч","addr:country":"BG","brand":"M-texx","brand:wikidata":"Q122947768","operator:wikidata":"Q122947768"},"coordinates":[43.137222,24.699444]},"tags_mismatch":false,"dist":0},{"osm":false,"atp":{"id":"-4Ht8AtFJZjFPjCwN-rU_jGBlUk=","tags":{"amenity":"recycling","recycling:clothes":"yes","recycling:shoes":"yes","addr:full":"5501 ж.к. Младост, Ловеч","addr:city":"Ловеч","addr:country":"BG","brand":"M-texx","brand:wikidata":"Q122947768","operator:wikidata":"Q122947768"},"coordinates":[43.135028,24.701111]},"tags_mismatch":false,"dist":0},{"osm":false,"atp":{"id":"nXzsHD-iTqNR6oqULRuEcbDWAOQ=","tags":{"amenity":"recycling","recycling:clothes":"yes","recycling:shoes":"yes","addr:full":"5507 ж.к. Червен бряг, Ловеч","addr:city":"Ловеч","addr:country":"BG","brand":"M-texx","brand:wikidata":"Q122947768","operator:wikidata":"Q122947768"},"coordinates":[43.143333,24.705417]},"tags_mismatch":false,"dist":0},{"osm":false,"atp":{"id":"x9scDMs89qOTQ8aDxa5wQ-M2KrI=","tags":{"amenity":"recycling","recycling:clothes":"yes","recycling:shoes":"yes","addr:full":"5502 ж.к. Здравец, Ловеч","addr:city":"Ловеч","addr:country":"BG","brand":"M-texx","brand:wikidata":"Q122947768","operator:wikidata":"Q122947768"},"coordinates":[43.157194,24.714667]},"tags_mismatch":false,"dist":0},{"osm":false,"atp":{"id":"61u4hUkZE-RJVy3pXAaG37CjOTo=","tags":{"amenity":"recycling","recycling:clothes":"yes","recycling:shoes":"yes","addr:full":"ж.к. Здравец, 5502 ж.к. Здравец, Ловеч","addr:city":"Ловеч","addr:country":"BG","brand":"M-texx","brand:wikidata":"Q122947768","operator:wikidata":"Q122947768"},"coordinates":[43.155278,24.714722]},"tags_mismatch":false,"dist":0},{"osm":false,"atp":{"id":"_f15DC-Jv4oISM_oRF0brBy7ohU=","tags":{"amenity":"recycling","recycling:clothes":"yes","recycling:shoes":"yes","addr:full":"ул. „Търговска“ 70, 5502 Ловеч Център, Ловеч","addr:city":"Ловеч","addr:country":"BG","brand":"M-texx","brand:wikidata":"Q122947768","operator:wikidata":"Q122947768"},"coordinates":[43.144222,24.717389]},"tags_mismatch":false,"dist":0},{"osm":false,"atp":{"id":"GgtSYbTHYSVhGynVyAr32l0IfBk=","tags":{"amenity":"recycling","recycling:clothes":"yes","recycling:shoes":"yes","addr:full":"ул. „Ж. Терпешев“, 6550 Любимец","addr:city":"Любимец","addr:country":"BG","brand":"M-texx","brand:wikidata":"Q122947768","operator:wikidata":"Q122947768"},"coordinates":[41.844297,26.082242]},"tags_mismatch":false,"dist":0},{"osm":false,"atp":{"id":"KA7u-mA5aGpV3V4sFLVo3uiXdys=","tags":{"amenity":"recycling","recycling:clothes":"yes","recycling:shoes":"yes","addr:full":"ул. „Църковна“ 6, 6550 Любимец","addr:city":"Любимец","addr:country":"BG","brand":"M-texx","brand:wikidata":"Q122947768","operator:wikidata":"Q122947768"},"coordinates":[41.842714,26.080652]},"tags_mismatch":false,"dist":0},{"osm":false,"atp":{"id":"BytqlYChLNtG3_Soikm6adQq7pQ=","tags":{"amenity":"recycling","recycling:clothes":"yes","recycling:shoes":"yes","addr:full":"Лъки, кв. Лъкавица","addr:city":"Лъки","addr:country":"BG","brand":"M-texx","brand:wikidata":"Q122947768","operator:wikidata":"Q122947768"},"coordinates":[41.829517,24.830349]},"tags_mismatch":false,"dist":0},{"osm":false,"atp":{"id":"o0cGMiPDKY4iAHgjilQvEZbPW3g=","tags":{"amenity":"recycling","recycling:clothes":"yes","recycling:shoes":"yes","addr:full":"ул. „Георги Бенковски“, 6800 Момчилград","addr:city":"Момчилград","addr:country":"BG","brand":"M-texx","brand:wikidata":"Q122947768","operator:wikidata":"Q122947768"},"coordinates":[41.523493,25.411973]},"tags_mismatch":false,"dist":0},{"osm":false,"atp":{"id":"iNFUh4Gst2SwcA8syQpr1Tuduyg=","tags":{"amenity":"recycling","recycling:clothes":"yes","recycling:shoes":"yes","addr:full":"ул. Максим Горки, 6800 Момчилград","addr:city":"Момчилград","addr:country":"BG","brand":"M-texx","brand:wikidata":"Q122947768","operator:wikidata":"Q122947768"},"coordinates":[41.525329,25.4138]},"tags_mismatch":false,"dist":0},{"osm":false,"atp":{"id":"MbRkOhS-nqohq1-6hh81fo5zsX0=","tags":{"amenity":"recycling","recycling:clothes":"yes","recycling:shoes":"yes","addr:full":"ул. „Гюмюрджинса“, 6800 Момчилград","addr:city":"Момчилград","addr:country":"BG","brand":"M-texx","brand:wikidata":"Q122947768","operator:wikidata":"Q122947768"},"coordinates":[41.527816,25.408754]},"tags_mismatch":false,"dist":0},{"osm":false,"atp":{"id":"xxWtl7j0cC93sfX8YjR1FWvLhOI=","tags":{"amenity":"recycling","recycling:clothes":"yes","recycling:shoes":"yes","addr:full":"ул. Стефан Караджа, 6800 Момчилград","addr:city":"Момчилград","addr:country":"BG","brand":"M-texx","brand:wikidata":"Q122947768","operator:wikidata":"Q122947768"},"coordinates":[41.531677,25.410343]},"tags_mismatch":false,"dist":0},{"osm":false,"atp":{"id":"zJhhw5iszvy04eorRJDX-C4ORYE=","tags":{"amenity":"recycling","recycling:clothes":"yes","recycling:shoes":"yes","addr:full":"4900 Мадан","addr:city":"Мадан","addr:country":"BG","brand":"M-texx","brand:wikidata":"Q122947768","operator:wikidata":"Q122947768"},"coordinates":[41.503093,24.938064]},"tags_mismatch":false,"dist":0},{"osm":false,"atp":{"id":"g1WDxLKDwoN7HraJuVliwdNsiUk=","tags":{"amenity":"recycling","recycling:clothes":"yes","recycling:shoes":"yes","addr:full":"ул. „Обединение“ 24, 4900 Мадан","addr:city":"Мадан","addr:country":"BG","brand":"M-texx","brand:wikidata":"Q122947768","operator:wikidata":"Q122947768"},"coordinates":[41.498385,24.939248]},"tags_mismatch":false,"dist":0},{"osm":false,"atp":{"id":"E5rAp7ujSWf2gtT3aUht8HHgGNI=","tags":{"amenity":"recycling","recycling:clothes":"yes","recycling:shoes":"yes","addr:full":"с. Средногорци","addr:city":"с. Средногорци","addr:country":"BG","brand":"M-texx","brand:wikidata":"Q122947768","operator:wikidata":"Q122947768"},"coordinates":[41.534519,24.91924]},"tags_mismatch":false,"dist":0},{"osm":false,"atp":{"id":"bvvbxy4fDvbpxpAcyn4GsSlJjB0=","tags":{"amenity":"recycling","recycling:clothes":"yes","recycling:shoes":"yes","addr:full":"7058 Мартен","addr:city":"Мартен /Русе/","addr:country":"BG","brand":"M-texx","brand:wikidata":"Q122947768","operator:wikidata":"Q122947768"},"coordinates":[43.913837,26.091037]},"tags_mismatch":false,"dist":0},{"osm":false,"atp":{"id":"iSjbSucJvBuwN8hfQyH_I3v1CvA=","tags":{"amenity":"recycling","recycling:clothes":"yes","recycling:shoes":"yes","addr:full":"8230 Черно море, Несебър","addr:city":"Несебър","addr:country":"BG","brand":"M-texx","brand:wikidata":"Q122947768","operator:wikidata":"Q122947768"},"coordinates":[42.658962,27.703574]},"tags_mismatch":false,"dist":0},{"osm":false,"atp":{"id":"mHniimlMbtrDn5ZwAPcJMt7iWmg=","tags":{"amenity":"recycling","recycling:clothes":"yes","recycling:shoes":"yes","addr:full":"ул. „Дюни“ 21, 8230 ж.к. Младост, Несебър","addr:city":"Несебър","addr:country":"BG","brand":"M-texx","brand:wikidata":"Q122947768","operator:wikidata":"Q122947768"},"coordinates":[42.659732,27.71502]},"tags_mismatch":false,"dist":0},{"osm":false,"atp":{"id":"IcuexvUGYb6ehLrjQqT9ehy3rNY=","tags":{"amenity":"recycling","recycling:clothes":"yes","recycling:shoes":"yes","addr:full":"8900 Център, Нова Загора","addr:city":"Нова Загора","addr:country":"BG","brand":"M-texx","brand:wikidata":"Q122947768","operator:wikidata":"Q122947768"},"coordinates":[42.492218,26.011413]},"tags_mismatch":false,"dist":0},{"osm":false,"atp":{"id":"Dw-SQ1s3s7IXqzw-sQv94T-h4lY=","tags":{"amenity":"recycling","recycling:clothes":"yes","recycling:shoes":"yes","addr:full":"ул. „Г.С. Раковски“ 28, 8900 Център, Нова Загора","addr:city":"Нова Загора","addr:country":"BG","brand":"M-texx","brand:wikidata":"Q122947768","operator:wikidata":"Q122947768"},"coordinates":[42.487534,26.01541]},"tags_mismatch":false,"dist":0},{"osm":false,"atp":{"id":"0TB3xNzeN0U-YIJHjdgM53XX-O4=","tags":{"amenity":"recycling","recycling:clothes":"yes","recycling:shoes":"yes","addr:full":"8900 Загоре, Нова Загора","addr:city":"Нова Загора","addr:country":"BG","brand":"M-texx","brand:wikidata":"Q122947768","operator:wikidata":"Q122947768"},"coordinates":[42.501895,26.009083]},"tags_mismatch":false,"dist":0},{"osm":false,"atp":{"id":"HC3p8j7vblxwusXQVeIVb1tPp_E=","tags":{"amenity":"recycling","recycling:clothes":"yes","recycling:shoes":"yes","addr:full":"ул. „Христо Ботев“, 8900 Център, Нова Загора","addr:city":"Нова Загора","addr:country":"BG","brand":"M-texx","brand:wikidata":"Q122947768","operator:wikidata":"Q122947768"},"coordinates":[42.491295,26.023641]},"tags_mismatch":false,"dist":0},{"osm":false,"atp":{"id":"oWLtxiYTGV6PRmo5D43xrb2y8KM=","tags":{"amenity":"recycling","recycling:clothes":"yes","recycling:shoes":"yes","addr:full":"E87 30, 8250 Бургас, Обзор","addr:city":"Обзор","addr:country":"BG","brand":"M-texx","brand:wikidata":"Q122947768","operator:wikidata":"Q122947768"},"coordinates":[42.820221,27.880289]},"tags_mismatch":false,"dist":0},{"osm":false,"atp":{"id":"fRCdDpLknVIsK5nBUsMoRLSneBA=","tags":{"amenity":"recycling","recycling:clothes":"yes","recycling:shoes":"yes","addr:full":"ул. Трети март 2, 6155 Павел баня","addr:city":"Павел баня","addr:country":"BG","brand":"M-texx","brand:wikidata":"Q122947768","operator:wikidata":"Q122947768"},"coordinates":[42.595964,25.208878]},"tags_mismatch":false,"dist":0},{"osm":false,"atp":{"id":"QIoSlkZBipmCXRdyNtbo9xb-iYs=","tags":{"amenity":"recycling","recycling:clothes":"yes","recycling:shoes":"yes","addr:full":"ул. Освобождение 31, 6155 Павел баня","addr:city":"Павел баня","addr:country":"BG","brand":"M-texx","brand:wikidata":"Q122947768","operator:wikidata":"Q122947768"},"coordinates":[42.596778,25.203893]},"tags_mismatch":false,"dist":0},{"osm":false,"atp":{"id":"_JOI9X_PcooMcQtMZoH_4DOKN6k=","tags":{"amenity":"recycling","recycling:clothes":"yes","recycling:shoes":"yes","addr:full":"5200 Павликени ул. Филип Тотьо 13","addr:city":"Павликени","addr:country":"BG","brand":"M-texx","brand:wikidata":"Q122947768","operator:wikidata":"Q122947768"},"coordinates":[43.233629,25.317458]},"tags_mismatch":false,"dist":0},{"osm":false,"atp":{"id":"W8MUt9_Ov92pTKLEWEWT4zKvUYw=","tags":{"amenity":"recycling","recycling:clothes":"yes","recycling:shoes":"yes","addr:full":"5200 Център, Павликени ул. Поп Богомил 15","addr:city":"Павликени","addr:country":"BG","brand":"M-texx","brand:wikidata":"Q122947768","operator:wikidata":"Q122947768"},"coordinates":[43.237615,25.310324]},"tags_mismatch":false,"dist":0},{"osm":false,"atp":{"id":"nSAyLtz3_NuWjZd0OKVY954jO_4=","tags":{"amenity":"recycling","recycling:clothes":"yes","recycling:shoes":"yes","addr:full":"пл. „Стефан Караджа\", 5200 Център, Павликени","addr:city":"Павликени","addr:country":"BG","brand":"M-texx","brand:wikidata":"Q122947768","operator:wikidata":"Q122947768"},"coordinates":[43.236398,25.30099]},"tags_mismatch":false,"dist":0},{"osm":false,"atp":{"id":"ODSYmJlmk09tNjk8UCUPgY6hnMk=","tags":{"amenity":"recycling","recycling:clothes":"yes","recycling:shoes":"yes","addr:full":"ул. „Георги Бенковски“ 32, 4500 Панагюрище","addr:city":"Панагюрище","addr:country":"BG","brand":"M-texx","brand:wikidata":"Q122947768","operator:wikidata":"Q122947768"},"coordinates":[42.500519,24.187835]},"tags_mismatch":false,"dist":0},{"osm":false,"atp":{"id":"lnhmHYg_5nKLOPlWT93CxdgZS40=","tags":{"amenity":"recycling","recycling:clothes":"yes","recycling:shoes":"yes","addr:full":"ул. „Петко Мачев“ 59-53, 4500 Център, Панагюрище","addr:city":"Панагюрище","addr:country":"BG","brand":"M-texx","brand:wikidata":"Q122947768","operator:wikidata":"Q122947768"},"coordinates":[42.496707,24.186261]},"tags_mismatch":false,"dist":0},{"osm":false,"atp":{"id":"l8MykRKKV2ajkdTr34SSy2RYJNc=","tags":{"amenity":"recycling","recycling:clothes":"yes","recycling:shoes":"yes","addr:full":"ул. „Петко Мачев“ 51, 4500 Център, Панагюрище","addr:city":"Панагюрище","addr:country":"BG","brand":"M-texx","brand:wikidata":"Q122947768","operator:wikidata":"Q122947768"},"coordinates":[42.496958,24.185845]},"tags_mismatch":false,"dist":0},{"osm":false,"atp":{"id":"0QEp0nIkLBmXwUj1gmHAPddGVas=","tags":{"amenity":"recycling","recycling:clothes":"yes","recycling:shoes":"yes","addr:full":"4500 Център, Панагюрище","addr:city":"Панагюрище","addr:country":"BG","brand":"M-texx","brand:wikidata":"Q122947768","operator:wikidata":"Q122947768"},"coordinates":[42.505351,24.177397]},"tags_mismatch":false,"dist":0},{"osm":false,"atp":{"id":"y-jlB5UE8KnyHil_4dkY7zh9y20=","tags":{"amenity":"recycling","recycling:clothes":"yes","recycling:shoes":"yes","addr:full":"ул. „Нистор Ружеков“, 4500 Център, Панагюрище","addr:city":"Панагюрище","addr:country":"BG","brand":"M-texx","brand:wikidata":"Q122947768","operator:wikidata":"Q122947768"},"coordinates":[42.505547,24.177381]},"tags_mismatch":false,"dist":0},{"osm":false,"atp":{"id":"K73Oq5Sgf4E-h97Wcr0z18RWo3Y=","tags":{"amenity":"recycling","recycling:clothes":"yes","recycling:shoes":"yes","addr:full":"ул. Княз Борис І, 2070 Център, Пирдоп","addr:city":"Пирдоп","addr:country":"BG","brand":"M-texx","brand:wikidata":"Q122947768","operator:wikidata":"Q122947768"},"coordinates":[42.702719,24.17259]},"tags_mismatch":false,"dist":0},{"osm":false,"atp":{"id":"Bd-1G30x-XykUSQkGIyrGu7BWws=","tags":{"amenity":"recycling","recycling:clothes":"yes","recycling:shoes":"yes","addr:full":"ул. Княз Александър Батенберг, 2070 Център, Пирдоп","addr:city":"Пирдоп","addr:country":"BG","brand":"M-texx","brand:wikidata":"Q122947768","operator:wikidata":"Q122947768"},"coordinates":[42.701035,24.179363]},"tags_mismatch":false,"dist":0},{"osm":false,"atp":{"id":"8CuhAaRUtSi2cKXh5fCu2W6jbrw=","tags":{"amenity":"recycling","recycling:clothes":"yes","recycling:shoes":"yes","addr:full":"ул. Капитан Петко войвода, 2070 Център, Пирдоп","addr:city":"Пирдоп","addr:country":"BG","brand":"M-texx","brand:wikidata":"Q122947768","operator:wikidata":"Q122947768"},"coordinates":[42.702669,24.168801]},"tags_mismatch":false,"dist":0},{"osm":false,"atp":{"id":"eN6Xltg6dAl_zb2SpUxPLMwoQFk=","tags":{"amenity":"recycling","recycling:clothes":"yes","recycling:shoes":"yes","addr:full":"609 4-26, 5360 ул. Стара планина, Плачковци","addr:city":"Плачковци","addr:country":"BG","brand":"M-texx","brand:wikidata":"Q122947768","operator:wikidata":"Q122947768"},"coordinates":[42.826329,25.482866]},"tags_mismatch":false,"dist":0},{"osm":false,"atp":{"id":"dT0Ul_m8Rv6DOJHuLm3QDU96jYM=","tags":{"amenity":"recycling","recycling:clothes":"yes","recycling:shoes":"yes","addr:full":"ул. „Лозенград“ 10-18, 5804 Плевен Център, Плевен","addr:city":"Плевен","addr:country":"BG","brand":"M-texx","brand:wikidata":"Q122947768","operator:wikidata":"Q122947768"},"coordinates":[43.403056,24.609583]},"tags_mismatch":false,"dist":0},{"osm":false,"atp":{"id":"a_tIp85nkqP3NreIrIeuVSFthTc=","tags":{"amenity":"recycling","recycling:clothes":"yes","recycling:shoes":"yes","addr:full":"ул. „Марин Дринов“ 2, 5804 Плевен Център, Плевен","addr:city":"Плевен","addr:country":"BG","brand":"M-texx","brand:wikidata":"Q122947768","operator:wikidata":"Q122947768"},"coordinates":[43.402333,24.614222]},"tags_mismatch":false,"dist":0},{"osm":false,"atp":{"id":"rZkXj04PLwXLL03yMiuFebtk-LI=","tags":{"amenity":"recycling","recycling:clothes":"yes","recycling:shoes":"yes","addr:full":"ул. „Бяло море“ 2, 5801 Плевен Център, Плевен","addr:city":"Плевен","addr:country":"BG","brand":"M-texx","brand:wikidata":"Q122947768","operator:wikidata":"Q122947768"},"coordinates":[43.411417,24.614583]},"tags_mismatch":false,"dist":0},{"osm":false,"atp":{"id":"U7jWkceK5yEJS0hyu9ri0lVqdn4=","tags":{"amenity":"recycling","recycling:clothes":"yes","recycling:shoes":"yes","addr:full":"ул. „Синчец“, 5802 ж.к. Сторгозия, Плевен","addr:city":"Плевен","addr:country":"BG","brand":"M-texx","brand:wikidata":"Q122947768","operator:wikidata":"Q122947768"},"coordinates":[43.425111,24.596278]},"tags_mismatch":false,"dist":0},{"osm":false,"atp":{"id":"9K9VTu4oSMBNiGHnii600cFGFFU=","tags":{"amenity":"recycling","recycling:clothes":"yes","recycling:shoes":"yes","addr:full":"5802 ж.к. Сторгозия, Плевен","addr:city":"Плевен","addr:country":"BG","brand":"M-texx","brand:wikidata":"Q122947768","operator:wikidata":"Q122947768"},"coordinates":[43.420378,24.597734]},"tags_mismatch":false,"dist":0},{"osm":false,"atp":{"id":"YlXohbZ4qqi6wLAZ-zmaoSkgzhQ=","tags":{"amenity":"recycling","recycling:clothes":"yes","recycling:shoes":"yes","addr:full":"ул. „Еделвайс“, 5802 ж.к. Сторгозия, Плевен","addr:city":"Плевен","addr:country":"BG","brand":"M-texx","brand:wikidata":"Q122947768","operator:wikidata":"Q122947768"},"coordinates":[43.423167,24.596306]},"tags_mismatch":false,"dist":0},{"osm":false,"atp":{"id":"aUBu125wmFmDS5Cvg4nwzajGrY8=","tags":{"amenity":"recycling","recycling:clothes":"yes","recycling:shoes":"yes","addr:full":"5806 ж.к. Дружба III, Плевен","addr:city":"Плевен","addr:country":"BG","brand":"M-texx","brand:wikidata":"Q122947768","operator:wikidata":"Q122947768"},"coordinates":[43.408111,24.644167]},"tags_mismatch":false,"dist":0},{"osm":false,"atp":{"id":"g6G-H0YhmV91KZQ-Nxnna4P7Stg=","tags":{"amenity":"recycling","recycling:clothes":"yes","recycling:shoes":"yes","addr:full":"ул. „Петко Р. Славейков“ 30, Плевен Център","addr:city":"Плевен","addr:country":"BG","brand":"M-texx","brand:wikidata":"Q122947768","operator:wikidata":"Q122947768"},"coordinates":[43.41475,24.619111]},"tags_mismatch":false,"dist":0},{"osm":false,"atp":{"id":"vKKJjGzMnTkz5KemgIMKyQpfZNo=","tags":{"amenity":"recycling","recycling:clothes":"yes","recycling:shoes":"yes","addr:full":"ж.к. Дружба I, 5806 ж.к. Дружба I, Плевен","addr:city":"Плевен","addr:country":"BG","brand":"M-texx","brand:wikidata":"Q122947768","operator:wikidata":"Q122947768"},"coordinates":[43.403083,24.631778]},"tags_mismatch":false,"dist":0},{"osm":false,"atp":{"id":"gP29WXgQLPEGCMDjFyKnAtf8H0U=","tags":{"amenity":"recycling","recycling:clothes":"yes","recycling:shoes":"yes","addr:full":"5806 ж.к. Дружба I, Плевен","addr:city":"Плевен","addr:country":"BG","brand":"M-texx","brand:wikidata":"Q122947768","operator:wikidata":"Q122947768"},"coordinates":[43.404,24.633972]},"tags_mismatch":false,"dist":0},{"osm":false,"atp":{"id":"u2dHpQs4klixDJycrOwfp9jpCqQ=","tags":{"amenity":"recycling","recycling:clothes":"yes","recycling:shoes":"yes","addr:full":"5806 ж.к. Дружба II, Плевен","addr:city":"Плевен","addr:country":"BG","brand":"M-texx","brand:wikidata":"Q122947768","operator:wikidata":"Q122947768"},"coordinates":[43.401583,24.636861]},"tags_mismatch":false,"dist":0},{"osm":false,"atp":{"id":"CNkMctb4GMIo0CtMzeQt-sSt1e0=","tags":{"amenity":"recycling","recycling:clothes":"yes","recycling:shoes":"yes","addr:full":"ул. „Уилям Гладстон“ 13-9, 5803 Плевен Център, Плевен","addr:city":"Плевен","addr:country":"BG","brand":"M-texx","brand:wikidata":"Q122947768","operator:wikidata":"Q122947768"},"coordinates":[43.409278,24.624389]},"tags_mismatch":false,"dist":0},{"osm":false,"atp":{"id":"iEBfMK8y-RYVBw860dYiCMZQECQ=","tags":{"amenity":"recycling","recycling:clothes":"yes","recycling:shoes":"yes","addr:full":"ул. „Петко Каравелов“, 5800 Плевен","addr:city":"Плевен","addr:country":"BG","brand":"M-texx","brand:wikidata":"Q122947768","operator:wikidata":"Q122947768"},"coordinates":[43.398056,24.622194]},"tags_mismatch":false,"dist":0},{"osm":false,"atp":{"id":"Sv-xWV4c7nrTV7lxKmOPihWU244=","tags":{"amenity":"recycling","recycling:clothes":"yes","recycling:shoes":"yes","addr:full":"ул. „Мануш Войвода“, 5800 Мара Денчева, Плевен","addr:city":"Плевен","addr:country":"BG","brand":"M-texx","brand:wikidata":"Q122947768","operator:wikidata":"Q122947768"},"coordinates":[43.397722,24.62625]},"tags_mismatch":false,"dist":0},{"osm":false,"atp":{"id":"Q7qCeax0O_MhK0o4wFzkhQ1oVhY=","tags":{"amenity":"recycling","recycling:clothes":"yes","recycling:shoes":"yes","addr:full":"ул. „Гургулят“ 21, 5804 Плевен Център, Плевен","addr:city":"Плевен","addr:country":"BG","brand":"M-texx","brand:wikidata":"Q122947768","operator:wikidata":"Q122947768"},"coordinates":[43.402265,24.617297]},"tags_mismatch":false,"dist":0},{"osm":false,"atp":{"id":"E_Lwq-yvwQwSXVd5LTnOi5ccggI=","tags":{"amenity":"recycling","recycling:clothes":"yes","recycling:shoes":"yes","addr:full":"ул. „Генерал Колев“ 21-11, 5800 Плевен Център, Плевен","addr:city":"Плевен","addr:country":"BG","brand":"M-texx","brand:wikidata":"Q122947768","operator:wikidata":"Q122947768"},"coordinates":[43.400829,24.622145]},"tags_mismatch":false,"dist":0},{"osm":false,"atp":{"id":"iAkLH1F6ZesEAjPo-3WbNzjgqws=","tags":{"amenity":"recycling","recycling:clothes":"yes","recycling:shoes":"yes","addr:full":"5806 Дружба 4, Плевен","addr:city":"Плевен","addr:country":"BG","brand":"M-texx","brand:wikidata":"Q122947768","operator:wikidata":"Q122947768"},"coordinates":[43.408595,24.648723]},"tags_mismatch":false,"dist":0},{"osm":false,"atp":{"id":"HAz6Fhpt32LFM64eeS-vDRLMLSc=","tags":{"amenity":"recycling","recycling:clothes":"yes","recycling:shoes":"yes","addr:full":"ул. „Свети Климент Охридски“, 5803 Плевен Център, Плевен","addr:city":"Плевен","addr:country":"BG","brand":"M-texx","brand:wikidata":"Q122947768","operator:wikidata":"Q122947768"},"coordinates":[43.409716,24.627308]},"tags_mismatch":false,"dist":0},{"osm":false,"atp":{"id":"k25-tZRjESN4vdPhSPMVds1KK5Y=","tags":{"amenity":"recycling","recycling:clothes":"yes","recycling:shoes":"yes","addr:full":"ул. „Георги Кочев“ 23-15, 5803 Плевен Център, Плевен","addr:city":"Плевен","addr:country":"BG","brand":"M-texx","brand:wikidata":"Q122947768","operator:wikidata":"Q122947768"},"coordinates":[43.413781,24.631873]},"tags_mismatch":false,"dist":0},{"osm":false,"atp":{"id":"I_AiNB40rDt3oVNIZQ4smQOZN0o=","tags":{"amenity":"recycling","recycling:clothes":"yes","recycling:shoes":"yes","addr:full":"ул. „Цар Самуил“, 5802 Северна промишлена зона, Плевен","addr:city":"Плевен","addr:country":"BG","brand":"M-texx","brand:wikidata":"Q122947768","operator:wikidata":"Q122947768"},"coordinates":[43.429554,24.5861]},"tags_mismatch":false,"dist":0},{"osm":false,"atp":{"id":"48PpkiJl60APzVW_zObU9ZAlMl4=","tags":{"amenity":"recycling","recycling:clothes":"yes","recycling:shoes":"yes","addr:full":"2007 7, 9920 Плиска","addr:city":"Плиска","addr:country":"BG","brand":"M-texx","brand:wikidata":"Q122947768","operator:wikidata":"Q122947768"},"coordinates":[43.360957,27.124063]},"tags_mismatch":false,"dist":0},{"osm":false,"atp":{"id":"WHO4ud9aTxiVGlPn5Lyp5HATFbA=","tags":{"amenity":"recycling","recycling:clothes":"yes","recycling:shoes":"yes","addr:full":"бул. „Пещерско шосе“ 30, 4000 ж.к. Младежки хълм, Пловдив","addr:city":"Пловдив","addr:country":"BG","brand":"M-texx","brand:wikidata":"Q122947768","operator:wikidata":"Q122947768"},"coordinates":[42.139764,24.728705]},"tags_mismatch":false,"dist":0},{"osm":false,"atp":{"id":"fNR7Z6Cue9MFMceIP7niYQGiWJ8=","tags":{"amenity":"recycling","recycling:clothes":"yes","recycling:shoes":"yes","addr:full":"ул. „Янко Сакъзов“, 4002 Мараша, Пловдив","addr:city":"Пловдив","addr:country":"BG","brand":"M-texx","brand:wikidata":"Q122947768","operator:wikidata":"Q122947768"},"coordinates":[42.151472,24.7335]},"tags_mismatch":false,"dist":0},{"osm":false,"atp":{"id":"AoHQF5Q12Rz9wEi4JIZVDbhEHDU=","tags":{"amenity":"recycling","recycling:clothes":"yes","recycling:shoes":"yes","addr:full":"Мараша, Пловдив","addr:city":"Пловдив","addr:country":"BG","brand":"M-texx","brand:wikidata":"Q122947768","operator:wikidata":"Q122947768"},"coordinates":[42.148557,24.732043]},"tags_mismatch":false,"dist":0},{"osm":false,"atp":{"id":"8YFneOCA1ONb7w6O7g16mA0SA_4=","tags":{"amenity":"recycling","recycling:clothes":"yes","recycling:shoes":"yes","addr:full":"ул. „Прогрес“ 4002, 4002 Център, Пловдив","addr:city":"Пловдив","addr:country":"BG","brand":"M-texx","brand:wikidata":"Q122947768","operator:wikidata":"Q122947768"},"coordinates":[42.148144,24.726623]},"tags_mismatch":false,"dist":0},{"osm":false,"atp":{"id":"DPTVlbb5mSRAcjZzGrfxfYxlOqE=","tags":{"amenity":"recycling","recycling:clothes":"yes","recycling:shoes":"yes","addr:full":"4002 ж.к. Младежки хълм, Пловдив","addr:city":"Пловдив","addr:country":"BG","brand":"M-texx","brand:wikidata":"Q122947768","operator:wikidata":"Q122947768"},"coordinates":[42.140729,24.726658]},"tags_mismatch":false,"dist":0},{"osm":false,"atp":{"id":"jLJKDQsdQUr-B11IeqfDx9TFtqg=","tags":{"amenity":"recycling","recycling:clothes":"yes","recycling:shoes":"yes","addr:full":"ул. „Ян Хус“ 7, 4027 ж.к. Захарна фабрика, Пловдив","addr:city":"Пловдив","addr:country":"BG","brand":"M-texx","brand:wikidata":"Q122947768","operator:wikidata":"Q122947768"},"coordinates":[42.160315,24.729712]},"tags_mismatch":false,"dist":0},{"osm":false,"atp":{"id":"jpnSzzfXndkl0OpFueP4S6Pyl6E=","tags":{"amenity":"recycling","recycling:clothes":"yes","recycling:shoes":"yes","addr:full":"ул. „Гонда вода“, 4021 Гагарин, Пловдив","addr:city":"Пловдив","addr:country":"BG","brand":"M-texx","brand:wikidata":"Q122947768","operator:wikidata":"Q122947768"},"coordinates":[42.161408,24.757139]},"tags_mismatch":false,"dist":0},{"osm":false,"atp":{"id":"2jb2Ftn8m6p2FyIAQqb2a4fL2rs=","tags":{"amenity":"recycling","recycling:clothes":"yes","recycling:shoes":"yes","addr:full":"4023 Тракия, Пловдив","addr:city":"Пловдив","addr:country":"BG","brand":"M-texx","brand:wikidata":"Q122947768","operator:wikidata":"Q122947768"},"coordinates":[42.131283,24.791734]},"tags_mismatch":false,"dist":0},{"osm":false,"atp":{"id":"QsJqBUNEHDion7AlhtZxs13C-J0=","tags":{"amenity":"recycling","recycling:clothes":"yes","recycling:shoes":"yes","addr:full":"ул. „Съединение“ 45-43, 4023 Тракия, Пловдив","addr:city":"Пловдив","addr:country":"BG","brand":"M-texx","brand:wikidata":"Q122947768","operator:wikidata":"Q122947768"},"coordinates":[42.131902,24.794659]},"tags_mismatch":false,"dist":0},{"osm":false,"atp":{"id":"I_nZ6G1CGptPfHrBpUB3vezfqxk=","tags":{"amenity":"recycling","recycling:clothes":"yes","recycling:shoes":"yes","addr:full":"жк. Тракия 96Е, 4023 кв. Капитан Бураго - А7, Пловдив","addr:city":"Пловдив","addr:country":"BG","brand":"M-texx","brand:wikidata":"Q122947768","operator:wikidata":"Q122947768"},"coordinates":[42.137435,24.796935]},"tags_mismatch":false,"dist":0},{"osm":false,"atp":{"id":"de8qzbSSDbn_B12pWh__jgSdvuo=","tags":{"amenity":"recycling","recycling:clothes":"yes","recycling:shoes":"yes","addr:full":"Блок 14, 4023 кв. Хан Аспарух - А9, Пловдив","addr:city":"Пловдив","addr:country":"BG","brand":"M-texx","brand:wikidata":"Q122947768","operator:wikidata":"Q122947768"},"coordinates":[42.140689,24.79451]},"tags_mismatch":false,"dist":0},{"osm":false,"atp":{"id":"GtktjGSfaYViFNpdSQuWN0cD1Fs=","tags":{"amenity":"recycling","recycling:clothes":"yes","recycling:shoes":"yes","addr:full":"бул. „Освобождение“, 4023 кв. Захари Зограф - А11, Пловдив","addr:city":"Пловдив","addr:country":"BG","brand":"M-texx","brand:wikidata":"Q122947768","operator:wikidata":"Q122947768"},"coordinates":[42.136382,24.790941]},"tags_mismatch":false,"dist":0},{"osm":false,"atp":{"id":"AYG4f7TOyLP460Rlc5-d1NyOtgA=","tags":{"amenity":"recycling","recycling:clothes":"yes","recycling:shoes":"yes","addr:full":"4023 кв. Търговски - А5, Пловдив","addr:city":"Пловдив","addr:country":"BG","brand":"M-texx","brand:wikidata":"Q122947768","operator:wikidata":"Q122947768"},"coordinates":[42.133329,24.788513]},"tags_mismatch":false,"dist":0},{"osm":false,"atp":{"id":"Cwj5E2Xa0ziETRyPfBs7was_Caw=","tags":{"amenity":"recycling","recycling:clothes":"yes","recycling:shoes":"yes","addr:full":"4002 Южна промишлена зона, Пловдив","addr:city":"Пловдив","addr:country":"BG","brand":"M-texx","brand:wikidata":"Q122947768","operator:wikidata":"Q122947768"},"coordinates":[42.134585,24.74065]},"tags_mismatch":false,"dist":0},{"osm":false,"atp":{"id":"9nmugal-noYocAxSpyXQ9hbtWK8=","tags":{"amenity":"recycling","recycling:clothes":"yes","recycling:shoes":"yes","addr:full":"4000 Център, Пловдив","addr:city":"Пловдив","addr:country":"BG","brand":"M-texx","brand:wikidata":"Q122947768","operator:wikidata":"Q122947768"},"coordinates":[42.152033,24.761521]},"tags_mismatch":false,"dist":0},{"osm":false,"atp":{"id":"l-eEPYtX_qH0_FYf0cRPflNXlfw=","tags":{"amenity":"recycling","recycling:clothes":"yes","recycling:shoes":"yes","addr:full":"ул. „Капитан Георги Мамарчев“ 31, 4000 Център, Пловдив","addr:city":"Пловдив","addr:country":"BG","brand":"M-texx","brand:wikidata":"Q122947768","operator:wikidata":"Q122947768"},"coordinates":[42.149303,24.762397]},"tags_mismatch":false,"dist":0},{"osm":false,"atp":{"id":"e2WYLDEEiy5H-cz_0Nai7fD8kOs=","tags":{"amenity":"recycling","recycling:clothes":"yes","recycling:shoes":"yes","addr:full":"ул. „Стойчо Мушанов“ 50, 4000 Пловдив","addr:city":"Пловдив","addr:country":"BG","brand":"M-texx","brand:wikidata":"Q122947768","operator:wikidata":"Q122947768"},"coordinates":[42.148026,24.761793]},"tags_mismatch":false,"dist":0},{"osm":false,"atp":{"id":"A8nUMy3wtMGpZn0xGjaMkJybSbo=","tags":{"amenity":"recycling","recycling:clothes":"yes","recycling:shoes":"yes","addr:full":"ул. „Родопи“, 4000 Пловдив","addr:city":"Пловдив","addr:country":"BG","brand":"M-texx","brand:wikidata":"Q122947768","operator:wikidata":"Q122947768"},"coordinates":[42.145563,24.758573]},"tags_mismatch":false,"dist":0},{"osm":false,"atp":{"id":"9Kuv-KGJ0f4hSExzkLqZiK1Elj4=","tags":{"amenity":"recycling","recycling:clothes":"yes","recycling:shoes":"yes","addr:full":"ул. „Родопи“, 4000 Пловдив","addr:city":"Пловдив","addr:country":"BG","brand":"M-texx","brand:wikidata":"Q122947768","operator:wikidata":"Q122947768"},"coordinates":[42.145563,24.758573]},"tags_mismatch":false,"dist":0},{"osm":false,"atp":{"id":"ceVOINtAtkacSjaZL5CfrCqnWuY=","tags":{"amenity":"recycling","recycling:clothes":"yes","recycling:shoes":"yes","addr:full":"4019 бул. Цариградско шосе 15, Пловдив","addr:city":"Пловдив","addr:country":"BG","brand":"M-texx","brand:wikidata":"Q122947768","operator:wikidata":"Q122947768"},"coordinates":[42.149,24.782847]},"tags_mismatch":false,"dist":0},{"osm":false,"atp":{"id":"TGmMecimnGML1IxKSTAAQVlyz4o=","tags":{"amenity":"recycling","recycling:clothes":"yes","recycling:shoes":"yes","addr:full":"4006 Столипиново, Пловдив","addr:city":"Пловдив","addr:country":"BG","brand":"M-texx","brand:wikidata":"Q122947768","operator:wikidata":"Q122947768"},"coordinates":[42.156297,24.783706]},"tags_mismatch":false,"dist":0},{"osm":false,"atp":{"id":"WJZ6ncdXWTi-vyQGsVrNJzeL0l4=","tags":{"amenity":"recycling","recycling:clothes":"yes","recycling:shoes":"yes","addr:full":"ул. „Ландос“, 4006 Столипиново, Пловдив","addr:city":"Пловдив","addr:country":"BG","brand":"M-texx","brand:wikidata":"Q122947768","operator:wikidata":"Q122947768"},"coordinates":[42.149964,24.786161]},"tags_mismatch":false,"dist":0},{"osm":false,"atp":{"id":"uxUsROIy6W6taKSdFN260sqcfUI=","tags":{"amenity":"recycling","recycling:clothes":"yes","recycling:shoes":"yes","addr:full":"ул. „Буная“ 1, 4006 Изгрев, Пловдив","addr:city":"Пловдив","addr:country":"BG","brand":"M-texx","brand:wikidata":"Q122947768","operator:wikidata":"Q122947768"},"coordinates":[42.149819,24.788045]},"tags_mismatch":false,"dist":0},{"osm":false,"atp":{"id":"nyrtqOIIGEtpWp0XdXlWflgamnI=","tags":{"amenity":"recycling","recycling:clothes":"yes","recycling:shoes":"yes","addr:full":"ул. „Златорог“, 4006 Изгрев, Пловдив","addr:city":"Пловдив","addr:country":"BG","brand":"M-texx","brand:wikidata":"Q122947768","operator:wikidata":"Q122947768"},"coordinates":[42.150698,24.788878]},"tags_mismatch":false,"dist":0},{"osm":false,"atp":{"id":"3n_mln0TRMnO_zvmce3ISYfdaxI=","tags":{"amenity":"recycling","recycling:clothes":"yes","recycling:shoes":"yes","addr:full":"ул. „Богомил“ 89, 4017 Казарми, Пловдив","addr:city":"Пловдив","addr:country":"BG","brand":"M-texx","brand:wikidata":"Q122947768","operator:wikidata":"Q122947768"},"coordinates":[42.141266,24.771914]},"tags_mismatch":false,"dist":0},{"osm":false,"atp":{"id":"ZFeOWvijTRjyOq1vOdIvJCDeiLU=","tags":{"amenity":"recycling","recycling:clothes":"yes","recycling:shoes":"yes","addr:full":"4004 Южна промишлена зона, Пловдив","addr:city":"Пловдив","addr:country":"BG","brand":"M-texx","brand:wikidata":"Q122947768","operator:wikidata":"Q122947768"},"coordinates":[42.123687,24.759897]},"tags_mismatch":false,"dist":0},{"osm":false,"atp":{"id":"QJvVLKrLSb3tth8TrPANUi1i3UM=","tags":{"amenity":"recycling","recycling:clothes":"yes","recycling:shoes":"yes","addr:full":"бул. „Цариградско шосе“, 4019 Гладно Поле, Пловдив","addr:city":"Пловдив","addr:country":"BG","brand":"M-texx","brand:wikidata":"Q122947768","operator:wikidata":"Q122947768"},"coordinates":[42.148057,24.775839]},"tags_mismatch":false,"dist":0},{"osm":false,"atp":{"id":"ZlJmMoHm2aIkB2kuTxO4c8zG_vM=","tags":{"amenity":"recycling","recycling:clothes":"yes","recycling:shoes":"yes","addr:full":"ул. „Лев Толстой“ 1, 4017 Каменица 2, Пловдив","addr:city":"Пловдив","addr:country":"BG","brand":"M-texx","brand:wikidata":"Q122947768","operator:wikidata":"Q122947768"},"coordinates":[42.141009,24.768455]},"tags_mismatch":false,"dist":0},{"osm":false,"atp":{"id":"PMnqZdXQdykA5sbshTphN7LUMuw=","tags":{"amenity":"recycling","recycling:clothes":"yes","recycling:shoes":"yes","addr:full":"ул. „Богомил“ 34, 4000 Каменица 1, Пловдив","addr:city":"Пловдив","addr:country":"BG","brand":"M-texx","brand:wikidata":"Q122947768","operator:wikidata":"Q122947768"},"coordinates":[42.138923,24.756441]},"tags_mismatch":false,"dist":0},{"osm":false,"atp":{"id":"XIllarZJAmtqI3P-cEQyMUUyTNc=","tags":{"amenity":"recycling","recycling:clothes":"yes","recycling:shoes":"yes","addr:full":"ул. „Ралица“ 2, 4017 Каменица 2, Пловдив","addr:city":"Пловдив","addr:country":"BG","brand":"M-texx","brand:wikidata":"Q122947768","operator:wikidata":"Q122947768"},"coordinates":[42.142059,24.765438]},"tags_mismatch":false,"dist":0},{"osm":false,"atp":{"id":"iWeDBQ6naByQ4v3-6pqGCS-T6Ds=","tags":{"amenity":"recycling","recycling:clothes":"yes","recycling:shoes":"yes","addr:full":"Северен, 4003 Пловдив","addr:city":"Пловдив","addr:country":"BG","brand":"M-texx","brand:wikidata":"Q122947768","operator:wikidata":"Q122947768"},"coordinates":[42.155399,24.717789]},"tags_mismatch":false,"dist":0},{"osm":false,"atp":{"id":"LvzEkhFhvqPr5GoeVBF8ElrRvxc=","tags":{"amenity":"recycling","recycling:clothes":"yes","recycling:shoes":"yes","addr:full":"бул. Васил Априлов 146, Северен, 4027 Пловдив","addr:city":"Пловдив","addr:country":"BG","brand":"M-texx","brand:wikidata":"Q122947768","operator:wikidata":"Q122947768"},"coordinates":[42.159938,24.731152]},"tags_mismatch":false,"dist":0},{"osm":false,"atp":{"id":"4chwfn6IfGEYX8N-7GoQ5Bt7k_4=","tags":{"amenity":"recycling","recycling:clothes":"yes","recycling:shoes":"yes","addr:full":"ул. „Полковник Сава Муткуров“ 93, 4003 Пловдив","addr:city":"Пловдив","addr:country":"BG","brand":"M-texx","brand:wikidata":"Q122947768","operator:wikidata":"Q122947768"},"coordinates":[42.155782,24.732499]},"tags_mismatch":false,"dist":0},{"osm":false,"atp":{"id":"UFgE0e03ekDEeiQZieoUnzqqg_w=","tags":{"amenity":"recycling","recycling:clothes":"yes","recycling:shoes":"yes","addr:full":"ул. „Цар Иван Александър“ 1, 4000 Център, Пловдив","addr:city":"Пловдив","addr:country":"BG","brand":"M-texx","brand:wikidata":"Q122947768","operator:wikidata":"Q122947768"},"coordinates":[42.143594,24.743194]},"tags_mismatch":false,"dist":0},{"osm":false,"atp":{"id":"sGTq503jGyf_2RdUmT1adR0wVdI=","tags":{"amenity":"recycling","recycling:clothes":"yes","recycling:shoes":"yes","addr:full":"ул. „Генерал Данаил Николаев“ 22-28, 4020 Център, Пловдив","addr:city":"Пловдив","addr:country":"BG","brand":"M-texx","brand:wikidata":"Q122947768","operator:wikidata":"Q122947768"},"coordinates":[42.148096,24.738282]},"tags_mismatch":false,"dist":0},{"osm":false,"atp":{"id":"VPehOqQga9EmsKgllw1iDdC-d9s=","tags":{"amenity":"recycling","recycling:clothes":"yes","recycling:shoes":"yes","addr:full":"ул. „Хан Аспарух“ 141-137, 4000 Съдийски, Пловдив","addr:city":"Пловдив","addr:country":"BG","brand":"M-texx","brand:wikidata":"Q122947768","operator:wikidata":"Q122947768"},"coordinates":[42.134665,24.757262]},"tags_mismatch":false,"dist":0},{"osm":false,"atp":{"id":"ZfvPzQ48nR_D5hfI-H7KaDiSwE8=","tags":{"amenity":"recycling","recycling:clothes":"yes","recycling:shoes":"yes","addr:full":"4016 Коматево, Пловдив","addr:city":"Пловдив","addr:country":"BG","brand":"M-texx","brand:wikidata":"Q122947768","operator:wikidata":"Q122947768"},"coordinates":[42.100357,24.70239]},"tags_mismatch":false,"dist":0},{"osm":false,"atp":{"id":"00MdFhcIh1e8hlKk3pH5BUzu5Ac=","tags":{"amenity":"recycling","recycling:clothes":"yes","recycling:shoes":"yes","addr:full":"ул. „Константин Геров“, 4004 ж.к. Христо Ботев - Юг, Пловдив","addr:city":"Пловдив","addr:country":"BG","brand":"M-texx","brand:wikidata":"Q122947768","operator:wikidata":"Q122947768"},"coordinates":[42.126011,24.724392]},"tags_mismatch":false,"dist":0},{"osm":false,"atp":{"id":"xmGy8xq7T7pl54DH1FStGnN5TJ4=","tags":{"amenity":"recycling","recycling:clothes":"yes","recycling:shoes":"yes","addr:full":"ул. „Пере Тошев“ 83-81, 4004 ж.к. Христо Ботев - Юг, Пловдив","addr:city":"Пловдив","addr:country":"BG","brand":"M-texx","brand:wikidata":"Q122947768","operator:wikidata":"Q122947768"},"coordinates":[42.12224,24.747679]},"tags_mismatch":false,"dist":0},{"osm":false,"atp":{"id":"gwO1QmqTRNvvtRSqeLj7FujY0Ko=","tags":{"amenity":"recycling","recycling:clothes":"yes","recycling:shoes":"yes","addr:full":"ул. „Иван Гарванов“, 4030 ж.к. Христо Ботев - Север, Пловдив","addr:city":"Пловдив","addr:country":"BG","brand":"M-texx","brand:wikidata":"Q122947768","operator:wikidata":"Q122947768"},"coordinates":[42.126071,24.74958]},"tags_mismatch":false,"dist":0},{"osm":false,"atp":{"id":"-UHDgq4vO4xDRndbqT_qoAvCHqU=","tags":{"amenity":"recycling","recycling:clothes":"yes","recycling:shoes":"yes","addr:full":"4004 ж.к. Христо Ботев - Юг, Пловдив","addr:city":"Пловдив","addr:country":"BG","brand":"M-texx","brand:wikidata":"Q122947768","operator:wikidata":"Q122947768"},"coordinates":[42.120976,24.746962]},"tags_mismatch":false,"dist":0},{"osm":false,"atp":{"id":"GqemRzgka7F1CoXEHez1HtIWhLk=","tags":{"amenity":"recycling","recycling:clothes":"yes","recycling:shoes":"yes","addr:full":"4004 ж.к. Христо Ботев - Север, Пловдив","addr:city":"Пловдив","addr:country":"BG","brand":"M-texx","brand:wikidata":"Q122947768","operator:wikidata":"Q122947768"},"coordinates":[42.123523,24.752668]},"tags_mismatch":false,"dist":0},{"osm":false,"atp":{"id":"cmhHAiXcmJOqQGGfaYgpLAjteNQ=","tags":{"amenity":"recycling","recycling:clothes":"yes","recycling:shoes":"yes","addr:full":"4004 ж.к. Христо Ботев - Юг, Пловдив","addr:city":"Пловдив","addr:country":"BG","brand":"M-texx","brand:wikidata":"Q122947768","operator:wikidata":"Q122947768"},"coordinates":[42.123658,24.738564]},"tags_mismatch":false,"dist":0},{"osm":false,"atp":{"id":"Xhl79KyJHDK_BYy9Bjxe33_W0G0=","tags":{"amenity":"recycling","recycling:clothes":"yes","recycling:shoes":"yes","addr:full":"ул. „Македония“ 9, 4013 ж.к. Христо Ботев - Север, Пловдив","addr:city":"Пловдив","addr:country":"BG","brand":"M-texx","brand:wikidata":"Q122947768","operator:wikidata":"Q122947768"},"coordinates":[42.133037,24.746162]},"tags_mismatch":false,"dist":0},{"osm":false,"atp":{"id":"COsQ_PBDU3EAuUjp87h4JreLViY=","tags":{"amenity":"recycling","recycling:clothes":"yes","recycling:shoes":"yes","addr:full":"ул.Марко Николов 5, 7800 Попово","addr:city":"Попово","addr:country":"BG","brand":"M-texx","brand:wikidata":"Q122947768","operator:wikidata":"Q122947768"},"coordinates":[43.35186,26.227054]},"tags_mismatch":false,"dist":0},{"osm":false,"atp":{"id":"w-Ah7UUn-fv-Tm80VbXUYcMtQAY=","tags":{"amenity":"recycling","recycling:clothes":"yes","recycling:shoes":"yes","addr:full":"ж.к. Русаля МБАЛ вход, 7800 Попово","addr:city":"Попово","addr:country":"BG","brand":"M-texx","brand:wikidata":"Q122947768","operator:wikidata":"Q122947768"},"coordinates":[43.341838,26.217689]},"tags_mismatch":false,"dist":0},{"osm":false,"atp":{"id":"f65R6vUbEL2OvJMUhRiA8hZSkPk=","tags":{"amenity":"recycling","recycling:clothes":"yes","recycling:shoes":"yes","addr:full":"ул.Юрий А.Гагарин 17, 7800 Попово","addr:city":"Попово","addr:country":"BG","brand":"M-texx","brand:wikidata":"Q122947768","operator:wikidata":"Q122947768"},"coordinates":[43.348704,26.23022]},"tags_mismatch":false,"dist":0},{"osm":false,"atp":{"id":"f2AOirC3d4cfz7lYWnzjcgLPRFE=","tags":{"amenity":"recycling","recycling:clothes":"yes","recycling:shoes":"yes","addr:full":"бул.\"България\"170, 7800 Попово","addr:city":"Попово","addr:country":"BG","brand":"M-texx","brand:wikidata":"Q122947768","operator:wikidata":"Q122947768"},"coordinates":[43.348289,26.214075]},"tags_mismatch":false,"dist":0},{"osm":false,"atp":{"id":"ee7FbwFZFhwWAlYiSQmwBJebDqU=","tags":{"amenity":"recycling","recycling:clothes":"yes","recycling:shoes":"yes","addr:full":"2161 кв. Север, Правец","addr:city":"Правец","addr:country":"BG","brand":"M-texx","brand:wikidata":"Q122947768","operator:wikidata":"Q122947768"},"coordinates":[42.897726,23.911944]},"tags_mismatch":false,"dist":0},{"osm":false,"atp":{"id":"cS_ALgrl5zXsgdLrGXAr_3b8inU=","tags":{"amenity":"recycling","recycling:clothes":"yes","recycling:shoes":"yes","addr:full":"ул. „Стара река“ 3, 2161 Център, Правец","addr:city":"Правец","addr:country":"BG","brand":"M-texx","brand:wikidata":"Q122947768","operator:wikidata":"Q122947768"},"coordinates":[42.893184,23.916548]},"tags_mismatch":false,"dist":0},{"osm":false,"atp":{"id":"SIMMCGmj8iFD6-qZ5Ev0D4314-o=","tags":{"amenity":"recycling","recycling:clothes":"yes","recycling:shoes":"yes","addr:full":"ул. Клокотница, 5180 Център, Полски Тръмбеш","addr:city":"Полски Тръмбеш","addr:country":"BG","brand":"M-texx","brand:wikidata":"Q122947768","operator:wikidata":"Q122947768"},"coordinates":[43.372312,25.638195]},"tags_mismatch":false,"dist":0},{"osm":false,"atp":{"id":"LOikDbu_rpmGX0lwdfCt-Vi2nIs=","tags":{"amenity":"recycling","recycling:clothes":"yes","recycling:shoes":"yes","addr:full":"ул. Търговска 45-53, 5180 Център, Полски Тръмбеш","addr:city":"Полски Тръмбеш","addr:country":"BG","brand":"M-texx","brand:wikidata":"Q122947768","operator:wikidata":"Q122947768"},"coordinates":[43.368896,25.636062]},"tags_mismatch":false,"dist":0},{"osm":false,"atp":{"id":"riBXjKbO5Qcc8LguUENZpEobygo=","tags":{"amenity":"recycling","recycling:clothes":"yes","recycling:shoes":"yes","addr:full":"6273 Център, Раднево","addr:city":"Раднево","addr:country":"BG","brand":"M-texx","brand:wikidata":"Q122947768","operator:wikidata":"Q122947768"},"coordinates":[42.292612,25.936842]},"tags_mismatch":false,"dist":0},{"osm":false,"atp":{"id":"F1RE69DsZit8m7NZrSLX8i9kQ6E=","tags":{"amenity":"recycling","recycling:clothes":"yes","recycling:shoes":"yes","addr:full":"6260 Раднево","addr:city":"Раднево","addr:country":"BG","brand":"M-texx","brand:wikidata":"Q122947768","operator:wikidata":"Q122947768"},"coordinates":[42.288772,25.932747]},"tags_mismatch":false,"dist":0},{"osm":false,"atp":{"id":"vyyYPWpSPMmM9zFDSuKcyDjrQEs=","tags":{"amenity":"recycling","recycling:clothes":"yes","recycling:shoes":"yes","addr:full":"ул. „Несебър“ 15, 8238 Равда","addr:city":"Равда","addr:country":"BG","brand":"M-texx","brand:wikidata":"Q122947768","operator:wikidata":"Q122947768"},"coordinates":[42.644567,27.679052]},"tags_mismatch":false,"dist":0},{"osm":false,"atp":{"id":"iuFevFJWPPD9Ze3dnmVm4R7wSWQ=","tags":{"amenity":"recycling","recycling:clothes":"yes","recycling:shoes":"yes","addr:full":"ул. „Свети Климент“ 102, 7200 АБРИТУС, Разград","addr:city":"Разград","addr:country":"BG","brand":"M-texx","brand:wikidata":"Q122947768","operator:wikidata":"Q122947768"},"coordinates":[43.524472,26.54095]},"tags_mismatch":false,"dist":0},{"osm":false,"atp":{"id":"XTOS7ykvXbD0LL6xFuNgaJ1nJLw=","tags":{"amenity":"recycling","recycling:clothes":"yes","recycling:shoes":"yes","addr:full":"ул. „Гаврил Кръстевич“ 1, 7200 ж.к. Васил Левски, Разград","addr:city":"Разград","addr:country":"BG","brand":"M-texx","brand:wikidata":"Q122947768","operator:wikidata":"Q122947768"},"coordinates":[43.534643,26.524851]},"tags_mismatch":false,"dist":0},{"osm":false,"atp":{"id":"3HN6HWakj78MM09Ri5oj5Mi0UZA=","tags":{"amenity":"recycling","recycling:clothes":"yes","recycling:shoes":"yes","addr:full":"7200 ж.к. Лудогорие, Разград","addr:city":"Разград","addr:country":"BG","brand":"M-texx","brand:wikidata":"Q122947768","operator:wikidata":"Q122947768"},"coordinates":[43.531461,26.51791]},"tags_mismatch":false,"dist":0},{"osm":false,"atp":{"id":"9I7yr9rLnwIJiluuoH37Q1SLCOQ=","tags":{"amenity":"recycling","recycling:clothes":"yes","recycling:shoes":"yes","addr:full":"7200 ж.к. Освобождение, Разград","addr:city":"Разград","addr:country":"BG","brand":"M-texx","brand:wikidata":"Q122947768","operator:wikidata":"Q122947768"},"coordinates":[43.532898,26.521951]},"tags_mismatch":false,"dist":0},{"osm":false,"atp":{"id":"Y4blaGJlIHbCCYYT8GbyxscsYNE=","tags":{"amenity":"recycling","recycling:clothes":"yes","recycling:shoes":"yes","addr:full":"ул. „Борис Йончев“ 23, 7205 Оборище, Разград","addr:city":"Разград","addr:country":"BG","brand":"M-texx","brand:wikidata":"Q122947768","operator:wikidata":"Q122947768"},"coordinates":[43.518946,26.520507]},"tags_mismatch":false,"dist":0},{"osm":false,"atp":{"id":"yHbqrHH7pQPx2nz-miVZcjaYxqc=","tags":{"amenity":"recycling","recycling:clothes":"yes","recycling:shoes":"yes","addr:full":"ул. „Преслав“, 7200 Бели Лом, Разград","addr:city":"Разград","addr:country":"BG","brand":"M-texx","brand:wikidata":"Q122947768","operator:wikidata":"Q122947768"},"coordinates":[43.52908,26.512092]},"tags_mismatch":false,"dist":0},{"osm":false,"atp":{"id":"jco81YGkiesZFKx1YYP0fkvFaxM=","tags":{"amenity":"recycling","recycling:clothes":"yes","recycling:shoes":"yes","addr:full":"ул. „Тополница“ 5, 7200 ж.к. Освобождение, Разград","addr:city":"Разград","addr:country":"BG","brand":"M-texx","brand:wikidata":"Q122947768","operator:wikidata":"Q122947768"},"coordinates":[43.529312,26.521158]},"tags_mismatch":false,"dist":0},{"osm":false,"atp":{"id":"L9xAnYMO6j8SkQgmnhQ1lT8Ujc8=","tags":{"amenity":"recycling","recycling:clothes":"yes","recycling:shoes":"yes","addr:full":"7200 Разград Център, Разград","addr:city":"Разград","addr:country":"BG","brand":"M-texx","brand:wikidata":"Q122947768","operator:wikidata":"Q122947768"},"coordinates":[43.525057,26.520571]},"tags_mismatch":false,"dist":0},{"osm":false,"atp":{"id":"xgrNP33iK32I28YyJ-tVNBoPwsY=","tags":{"amenity":"recycling","recycling:clothes":"yes","recycling:shoes":"yes","addr:full":"7200 Стефан Караджа, Разград","addr:city":"Разград","addr:country":"BG","brand":"M-texx","brand:wikidata":"Q122947768","operator:wikidata":"Q122947768"},"coordinates":[43.524199,26.536214]},"tags_mismatch":false,"dist":0},{"osm":false,"atp":{"id":"sr_0EPkprYE-jAuPgrmozRVUwnw=","tags":{"amenity":"recycling","recycling:clothes":"yes","recycling:shoes":"yes","addr:full":"7205 ж.к. Орел, Разград","addr:city":"Разград","addr:country":"BG","brand":"M-texx","brand:wikidata":"Q122947768","operator:wikidata":"Q122947768"},"coordinates":[43.516946,26.517153]},"tags_mismatch":false,"dist":0},{"osm":false,"atp":{"id":"JGDthWDC5mjEFl4jsKoUC8zDKaQ=","tags":{"amenity":"recycling","recycling:clothes":"yes","recycling:shoes":"yes","addr:full":"5060 Ресен","addr:city":"Ресен","addr:country":"BG","brand":"M-texx","brand:wikidata":"Q122947768","operator:wikidata":"Q122947768"},"coordinates":[43.201038,25.544551]},"tags_mismatch":false,"dist":0},{"osm":false,"atp":{"id":"iKjir06vGBXXFTNbjkOHoyal79U=","tags":{"amenity":"recycling","recycling:clothes":"yes","recycling:shoes":"yes","addr:full":"бул. „Мидия-енос“ 2, 7001 ж.к. Мидия-Енос, Русе","addr:city":"Русе","addr:country":"BG","brand":"M-texx","brand:wikidata":"Q122947768","operator:wikidata":"Q122947768"},"coordinates":[43.83352,25.95413]},"tags_mismatch":false,"dist":0},{"osm":false,"atp":{"id":"GlGznQBSV-bXoVdnKcNRlhQq8mM=","tags":{"amenity":"recycling","recycling:clothes":"yes","recycling:shoes":"yes","addr:full":"ул. „Никола Й. Вапцаров“ 191-193, 7015 ж.к. Дружба 3, Русе","addr:city":"Русе","addr:country":"BG","brand":"M-texx","brand:wikidata":"Q122947768","operator:wikidata":"Q122947768"},"coordinates":[43.828139,25.976306]},"tags_mismatch":false,"dist":0},{"osm":false,"atp":{"id":"9MU-0K7YTWGYIcqvScTcbPh6a8w=","tags":{"amenity":"recycling","recycling:clothes":"yes","recycling:shoes":"yes","addr:full":"ул. „Опълченска“, 7018 ж.к. Чародейка - север, Русе","addr:city":"Русе","addr:country":"BG","brand":"M-texx","brand:wikidata":"Q122947768","operator:wikidata":"Q122947768"},"coordinates":[43.838417,25.969528]},"tags_mismatch":false,"dist":0},{"osm":false,"atp":{"id":"Kfv6ZqaP-ZCfZkbTsR-0xE1lvl4=","tags":{"amenity":"recycling","recycling:clothes":"yes","recycling:shoes":"yes","addr:full":"ул. „Тодор Икономов“ 1-6, 7019 ж.к. Чародейка - юг, Русе","addr:city":"Русе","addr:country":"BG","brand":"M-texx","brand:wikidata":"Q122947768","operator:wikidata":"Q122947768"},"coordinates":[43.832333,25.976417]},"tags_mismatch":false,"dist":0},{"osm":false,"atp":{"id":"Sf92_EDXpON2iR_4QT1n4ETajnE=","tags":{"amenity":"recycling","recycling:clothes":"yes","recycling:shoes":"yes","addr:full":"ул. „Стоян Михайловски“ 94, 7015 ж.к. Дружба 3, Русе","addr:city":"Русе","addr:country":"BG","brand":"M-texx","brand:wikidata":"Q122947768","operator:wikidata":"Q122947768"},"coordinates":[43.823389,25.973833]},"tags_mismatch":false,"dist":0},{"osm":false,"atp":{"id":"jvM4qs-hQOe8Ck6uMsLoNrYWVQ4=","tags":{"amenity":"recycling","recycling:clothes":"yes","recycling:shoes":"yes","addr:full":"ул. „Даме Груев“ 44, 7015 ж.к. Дружба 3, Русе","addr:city":"Русе","addr:country":"BG","brand":"M-texx","brand:wikidata":"Q122947768","operator:wikidata":"Q122947768"},"coordinates":[43.825889,25.971389]},"tags_mismatch":false,"dist":0},{"osm":false,"atp":{"id":"FfqG9UHgO4_AKtlA8E5lsEOj1iY=","tags":{"amenity":"recycling","recycling:clothes":"yes","recycling:shoes":"yes","addr:full":"ул. „Луи Айер“, Русе","addr:city":"Русе","addr:country":"BG","brand":"M-texx","brand:wikidata":"Q122947768","operator:wikidata":"Q122947768"},"coordinates":[43.831028,25.959278]},"tags_mismatch":false,"dist":0},{"osm":false,"atp":{"id":"81MXnsKhHwtFlGOnTaN0ghZqKAA=","tags":{"amenity":"recycling","recycling:clothes":"yes","recycling:shoes":"yes","addr:full":"ул. „Антим I-ви“ 10, 7001 Веждата, Русе","addr:city":"Русе","addr:country":"BG","brand":"M-texx","brand:wikidata":"Q122947768","operator:wikidata":"Q122947768"},"coordinates":[43.834778,25.950528]},"tags_mismatch":false,"dist":0},{"osm":false,"atp":{"id":"I_snxrGZ2be-6zr42I0mduDxmmU=","tags":{"amenity":"recycling","recycling:clothes":"yes","recycling:shoes":"yes","addr:full":"7000 Русе Център, Русе","addr:city":"Русе","addr:country":"BG","brand":"M-texx","brand:wikidata":"Q122947768","operator:wikidata":"Q122947768"},"coordinates":[43.844361,25.946361]},"tags_mismatch":false,"dist":0},{"osm":false,"atp":{"id":"ZMXzWmnTtZbmtjExu75D8rcbptw=","tags":{"amenity":"recycling","recycling:clothes":"yes","recycling:shoes":"yes","addr:full":"ул. „Нови Сад“, 7013 Здравец Изток, Русе","addr:city":"Русе","addr:country":"BG","brand":"M-texx","brand:wikidata":"Q122947768","operator:wikidata":"Q122947768"},"coordinates":[43.848472,25.990722]},"tags_mismatch":false,"dist":0},{"osm":false,"atp":{"id":"JEovgNOfhYKVPsMxtDcpgjxjuRY=","tags":{"amenity":"recycling","recycling:clothes":"yes","recycling:shoes":"yes","addr:full":"ул. „Райна Княгиня“, 7013 Здравец Изток, Русе","addr:city":"Русе","addr:country":"BG","brand":"M-texx","brand:wikidata":"Q122947768","operator:wikidata":"Q122947768"},"coordinates":[43.852222,25.998111]},"tags_mismatch":false,"dist":0},{"osm":false,"atp":{"id":"6y4yKdvB9eYhAWfkj_K3zTCdXyw=","tags":{"amenity":"recycling","recycling:clothes":"yes","recycling:shoes":"yes","addr:full":"ул. „Родопи“ 3, 7005 ж.к. Здравец - Север 1, Русе","addr:city":"Русе","addr:country":"BG","brand":"M-texx","brand:wikidata":"Q122947768","operator:wikidata":"Q122947768"},"coordinates":[43.851611,25.975806]},"tags_mismatch":false,"dist":0},{"osm":false,"atp":{"id":"E7xMTZmZ9A_sXEj7XcMuaBO9bs8=","tags":{"amenity":"recycling","recycling:clothes":"yes","recycling:shoes":"yes","addr:full":"ул. „Княз Ал. Дондуков-Корсаков“ 19-15, 7012 Русе Център, Русе","addr:city":"Русе","addr:country":"BG","brand":"M-texx","brand:wikidata":"Q122947768","operator:wikidata":"Q122947768"},"coordinates":[43.842056,25.950083]},"tags_mismatch":false,"dist":0},{"osm":false,"atp":{"id":"TmLRnaEHeaPBnVaUEIOa6_CXo-Q=","tags":{"amenity":"recycling","recycling:clothes":"yes","recycling:shoes":"yes","addr:full":"ул. „Велико Търново“ 3, 7000 Русе Център, Русе","addr:city":"Русе","addr:country":"BG","brand":"M-texx","brand:wikidata":"Q122947768","operator:wikidata":"Q122947768"},"coordinates":[43.849194,25.949806]},"tags_mismatch":false,"dist":0},{"osm":false,"atp":{"id":"Kzv8XFGMxuhl1GDJMcF0saIw2ms=","tags":{"amenity":"recycling","recycling:clothes":"yes","recycling:shoes":"yes","addr:full":"ул. „Гургулят“ 7002, 7002 Русе Център, Русе","addr:city":"Русе","addr:country":"BG","brand":"M-texx","brand:wikidata":"Q122947768","operator:wikidata":"Q122947768"},"coordinates":[43.853111,25.960833]},"tags_mismatch":false,"dist":0},{"osm":false,"atp":{"id":"xiIcPl6HuM5wu5jw-pUkNdQ-PKQ=","tags":{"amenity":"recycling","recycling:clothes":"yes","recycling:shoes":"yes","addr:full":"ул. „Капитан Маринов“ 46-41, 7020 ж.к. Възраждане - юг, Русе","addr:city":"Русе","addr:country":"BG","brand":"M-texx","brand:wikidata":"Q122947768","operator:wikidata":"Q122947768"},"coordinates":[43.851083,25.967806]},"tags_mismatch":false,"dist":0},{"osm":false,"atp":{"id":"KAgmo1zNKC_ewNRcz2CBk2SgECQ=","tags":{"amenity":"recycling","recycling:clothes":"yes","recycling:shoes":"yes","addr:full":"ул. „Щип“ 2-6, 7002 Ялта, Русе","addr:city":"Русе","addr:country":"BG","brand":"M-texx","brand:wikidata":"Q122947768","operator:wikidata":"Q122947768"},"coordinates":[43.849306,25.962]},"tags_mismatch":false,"dist":0},{"osm":false,"atp":{"id":"oUROKThUcONn8U7Dr65MqhDCh2I=","tags":{"amenity":"recycling","recycling:clothes":"yes","recycling:shoes":"yes","addr:full":"Алеи Възраждане 16, 7002 ж.к. Възраждане, Русе","addr:city":"Русе","addr:country":"BG","brand":"M-texx","brand:wikidata":"Q122947768","operator:wikidata":"Q122947768"},"coordinates":[43.857333,25.966611]},"tags_mismatch":false,"dist":0},{"osm":false,"atp":{"id":"IcMmcJuKDFIcVO83eRNqc3lDUCg=","tags":{"amenity":"recycling","recycling:clothes":"yes","recycling:shoes":"yes","addr:full":"ул. „Битоля“, 7004 ж.к. Възраждане Североизток, Русе","addr:city":"Русе","addr:country":"BG","brand":"M-texx","brand:wikidata":"Q122947768","operator:wikidata":"Q122947768"},"coordinates":[43.860667,25.976417]},"tags_mismatch":false,"dist":0},{"osm":false,"atp":{"id":"_Q7eNfL2x0-G4DVbJ_895qPRoGA=","tags":{"amenity":"recycling","recycling:clothes":"yes","recycling:shoes":"yes","addr:full":"7001 ж.к. Дружба 1, Русе","addr:city":"Русе","addr:country":"BG","brand":"M-texx","brand:wikidata":"Q122947768","operator:wikidata":"Q122947768"},"coordinates":[43.832278,25.969111]},"tags_mismatch":false,"dist":0},{"osm":false,"atp":{"id":"2GjNNI7OIRijGFvHaNutNWh9oxU=","tags":{"amenity":"recycling","recycling:clothes":"yes","recycling:shoes":"yes","addr:full":"бул. „Цар Освободител“, 7012 ж.к. Централен южен район, Русе","addr:city":"Русе","addr:country":"BG","brand":"M-texx","brand:wikidata":"Q122947768","operator:wikidata":"Q122947768"},"coordinates":[43.838806,25.959194]},"tags_mismatch":false,"dist":0},{"osm":false,"atp":{"id":"6LOvJDgEN6CzGMoEY083O-4CyMU=","tags":{"amenity":"recycling","recycling:clothes":"yes","recycling:shoes":"yes","addr:full":"ул. „Чипровци“, 7006 Русе","addr:city":"Русе","addr:country":"BG","brand":"M-texx","brand:wikidata":"Q122947768","operator:wikidata":"Q122947768"},"coordinates":[43.844222,25.970667]},"tags_mismatch":false,"dist":0},{"osm":false,"atp":{"id":"Ke-YHRwLRDg0gpwkxLpkoMVl2s4=","tags":{"amenity":"recycling","recycling:clothes":"yes","recycling:shoes":"yes","addr:full":"7020 ж.к. Възраждане - юг, Русе","addr:city":"Русе","addr:country":"BG","brand":"M-texx","brand:wikidata":"Q122947768","operator:wikidata":"Q122947768"},"coordinates":[43.851556,25.966]},"tags_mismatch":false,"dist":0},{"osm":false,"atp":{"id":"KCFGaeAvMh66ox2-5B1pFBiKLkg=","tags":{"amenity":"recycling","recycling:clothes":"yes","recycling:shoes":"yes","addr:full":"7013 Здравец Изток, Русе","addr:city":"Русе","addr:country":"BG","brand":"M-texx","brand:wikidata":"Q122947768","operator:wikidata":"Q122947768"},"coordinates":[43.85125,25.985861]},"tags_mismatch":false,"dist":0},{"osm":false,"atp":{"id":"IMturj_V2s_DMrWlEP6Bt0y5yjk=","tags":{"amenity":"recycling","recycling:clothes":"yes","recycling:shoes":"yes","addr:full":"ул. „Тулча“, Жп Гара Товарна, Рус","addr:city":"Русе","addr:country":"BG","brand":"M-texx","brand:wikidata":"Q122947768","operator:wikidata":"Q122947768"},"coordinates":[43.857194,25.9755]},"tags_mismatch":false,"dist":0},{"osm":false,"atp":{"id":"SHJll3htdfC1X8ched2pal41k_k=","tags":{"amenity":"recycling","recycling:clothes":"yes","recycling:shoes":"yes","addr:full":"ул. „Тулча“, Жп Гара Товарна, Русе","addr:city":"Русе","addr:country":"BG","brand":"M-texx","brand:wikidata":"Q122947768","operator:wikidata":"Q122947768"},"coordinates":[43.857194,25.9755]},"tags_mismatch":false,"dist":0},{"osm":false,"atp":{"id":"esmzudtrq2GyjAvceE8cJSWG0Jo=","tags":{"amenity":"recycling","recycling:clothes":"yes","recycling:shoes":"yes","addr:full":"7000 Пазара, Русе","addr:city":"Русе","addr:country":"BG","brand":"M-texx","brand:wikidata":"Q122947768","operator:wikidata":"Q122947768"},"coordinates":[43.842806,25.961861]},"tags_mismatch":false,"dist":0},{"osm":false,"atp":{"id":"K8v7ueYzDnHCfLnkcsArZjI-A8A=","tags":{"amenity":"recycling","recycling:clothes":"yes","recycling:shoes":"yes","addr:full":"ул. „Професор Асен Златаров“ 24, 7000 Русе Център, Русе","addr:city":"Русе","addr:country":"BG","brand":"M-texx","brand:wikidata":"Q122947768","operator:wikidata":"Q122947768"},"coordinates":[43.847306,25.956361]},"tags_mismatch":false,"dist":0},{"osm":false,"atp":{"id":"zxc8sqckWF6EL3LcxYzXyJVpZhM=","tags":{"amenity":"recycling","recycling:clothes":"yes","recycling:shoes":"yes","addr:full":"ул. „Иван Вазов“, 7000 Русе Център, Русе","addr:city":"Русе","addr:country":"BG","brand":"M-texx","brand:wikidata":"Q122947768","operator:wikidata":"Q122947768"},"coordinates":[43.845361,25.952194]},"tags_mismatch":false,"dist":0},{"osm":false,"atp":{"id":"NVwpa3Q0Y8EloWvhEU5nb3vWc-0=","tags":{"amenity":"recycling","recycling:clothes":"yes","recycling:shoes":"yes","addr:full":"7000 Западна промишлена зона METRO, Русе","addr:city":"Русе","addr:country":"BG","brand":"M-texx","brand:wikidata":"Q122947768","operator:wikidata":"Q122947768"},"coordinates":[43.814528,25.926778]},"tags_mismatch":false,"dist":0},{"osm":false,"atp":{"id":"1WIdRIUniNBlswRO9XMjvHvLrGs=","tags":{"amenity":"recycling","recycling:clothes":"yes","recycling:shoes":"yes","addr:full":"ул. „Майор Атанас Узунов“ 10-12, 7002 Русе Център, Русе","addr:city":"Русе","addr:country":"BG","brand":"M-texx","brand:wikidata":"Q122947768","operator:wikidata":"Q122947768"},"coordinates":[43.855583,25.959111]},"tags_mismatch":false,"dist":0},{"osm":false,"atp":{"id":"Bso0yUQhzCnTPkdU1jhQnZsK03M=","tags":{"amenity":"recycling","recycling:clothes":"yes","recycling:shoes":"yes","addr:full":"ул. „Еленин връх“, 7001 ж.к. Дружба 1, Русе","addr:city":"Русе","addr:country":"BG","brand":"M-texx","brand:wikidata":"Q122947768","operator:wikidata":"Q122947768"},"coordinates":[43.831481,25.96778]},"tags_mismatch":false,"dist":0},{"osm":false,"atp":{"id":"Qwa4Nn4-hOVcLZ9Kx6I8gcfcNQU=","tags":{"amenity":"recycling","recycling:clothes":"yes","recycling:shoes":"yes","addr:full":"Лилд, ул. „Околчица“, 7005 Дунав, Русе -2 бр","addr:city":"Русе","addr:country":"BG","brand":"M-texx","brand:wikidata":"Q122947768","operator:wikidata":"Q122947768"},"coordinates":[43.846694,25.976611]},"tags_mismatch":false,"dist":0},{"osm":false,"atp":{"id":"9i4qqT30_XCXs4byxfs-uJYVaj8=","tags":{"amenity":"recycling","recycling:clothes":"yes","recycling:shoes":"yes","addr:full":"52, 5250 Център, Свищов","addr:city":"Свищов","addr:country":"BG","brand":"M-texx","brand:wikidata":"Q122947768","operator:wikidata":"Q122947768"},"coordinates":[43.619019,25.350296]},"tags_mismatch":false,"dist":0},{"osm":false,"atp":{"id":"tNAQ1o33LUKFgC-_duk_Qce2W-c=","tags":{"amenity":"recycling","recycling:clothes":"yes","recycling:shoes":"yes","addr:full":"ул. Академик Александър Божинов, 5250 жк. Химик, Свищов","addr:city":"Свищов","addr:country":"BG","brand":"M-texx","brand:wikidata":"Q122947768","operator:wikidata":"Q122947768"},"coordinates":[43.614123,25.344555]},"tags_mismatch":false,"dist":0},{"osm":false,"atp":{"id":"ibkI2zrjN6pNOcqt9JLWMLEcIJw=","tags":{"amenity":"recycling","recycling:clothes":"yes","recycling:shoes":"yes","addr:full":"5252 Младост, Свищов","addr:city":"Свищов","addr:country":"BG","brand":"M-texx","brand:wikidata":"Q122947768","operator:wikidata":"Q122947768"},"coordinates":[43.60918,25.363867]},"tags_mismatch":false,"dist":0},{"osm":false,"atp":{"id":"ndGBNfC5JEhcyWsOlfcfgXdVSIk=","tags":{"amenity":"recycling","recycling:clothes":"yes","recycling:shoes":"yes","addr:full":"ж.к. Младост 3, 5252 Младост, Свищов","addr:city":"Свищов","addr:country":"BG","brand":"M-texx","brand:wikidata":"Q122947768","operator:wikidata":"Q122947768"},"coordinates":[43.611194,25.358049]},"tags_mismatch":false,"dist":0},{"osm":false,"atp":{"id":"1ppyNrW4stVSTQuDTmFRatO_12U=","tags":{"amenity":"recycling","recycling:clothes":"yes","recycling:shoes":"yes","addr:full":"ул. 33-ти Свищовски полк 104, Свищов","addr:city":"Свищов","addr:country":"BG","brand":"M-texx","brand:wikidata":"Q122947768","operator:wikidata":"Q122947768"},"coordinates":[43.615633,25.362262]},"tags_mismatch":false,"dist":0},{"osm":false,"atp":{"id":"ZcCi5JOG2vBui6wtjaMNAKnfX7c=","tags":{"amenity":"recycling","recycling:clothes":"yes","recycling:shoes":"yes","addr:full":"5403 Севлиево","addr:city":"Севлиево","addr:country":"BG","brand":"M-texx","brand:wikidata":"Q122947768","operator:wikidata":"Q122947768"},"coordinates":[43.015471,25.098914]},"tags_mismatch":false,"dist":0},{"osm":false,"atp":{"id":"jqRwEvMCsEw1ksRAY2xObphwgKg=","tags":{"amenity":"recycling","recycling:clothes":"yes","recycling:shoes":"yes","addr:full":"5403 Севлиево","addr:city":"Севлиево","addr:country":"BG","brand":"M-texx","brand:wikidata":"Q122947768","operator:wikidata":"Q122947768"},"coordinates":[43.019491,25.093206]},"tags_mismatch":false,"dist":0},{"osm":false,"atp":{"id":"MgZc-pLQfhdGCbvsBKRZGO9DWw4=","tags":{"amenity":"recycling","recycling:clothes":"yes","recycling:shoes":"yes","addr:full":"5400 д-р Атанас Москов, Севлиево","addr:city":"Севлиево","addr:country":"BG","brand":"M-texx","brand:wikidata":"Q122947768","operator:wikidata":"Q122947768"},"coordinates":[43.030416,25.089017]},"tags_mismatch":false,"dist":0},{"osm":false,"atp":{"id":"TJ_YahGbj78zIOw4xhtPu8bSpJo=","tags":{"amenity":"recycling","recycling:clothes":"yes","recycling:shoes":"yes","addr:full":"Генeрал Никола Генев, 5400 Център, Севлиево","addr:city":"Севлиево","addr:country":"BG","brand":"M-texx","brand:wikidata":"Q122947768","operator:wikidata":"Q122947768"},"coordinates":[43.025465,25.105113]},"tags_mismatch":false,"dist":0},{"osm":false,"atp":{"id":"tsGB2hYBdkoB1AoVmSmXabw9ZR4=","tags":{"amenity":"recycling","recycling:clothes":"yes","recycling:shoes":"yes","addr:full":"Център, ул. „Александър Стамболийски“ 2-10, Севлиево","addr:city":"Севлиево","addr:country":"BG","brand":"M-texx","brand:wikidata":"Q122947768","operator:wikidata":"Q122947768"},"coordinates":[43.021685,25.097507]},"tags_mismatch":false,"dist":0},{"osm":false,"atp":{"id":"WtLuYW7ytg1MRgQByk7Ptfqzy5U=","tags":{"amenity":"recycling","recycling:clothes":"yes","recycling:shoes":"yes","addr:full":"8801 Сливен Център, Сливен","addr:city":"Сливен","addr:country":"BG","brand":"M-texx","brand:wikidata":"Q122947768","operator:wikidata":"Q122947768"},"coordinates":[42.678041,26.324479]},"tags_mismatch":false,"dist":0},{"osm":false,"atp":{"id":"OzCiELcgsUXogVJnxtX3yNDRhJQ=","tags":{"amenity":"recycling","recycling:clothes":"yes","recycling:shoes":"yes","addr:full":"бул. „Хаджи Димитър“ 3, 8800 Сливен Център, Сливен","addr:city":"Сливен","addr:country":"BG","brand":"M-texx","brand:wikidata":"Q122947768","operator:wikidata":"Q122947768"},"coordinates":[42.680314,26.316682]},"tags_mismatch":false,"dist":0},{"osm":false,"atp":{"id":"kQmbIM1l7bJ9SYOu2yN2UsKYvH0=","tags":{"amenity":"recycling","recycling:clothes":"yes","recycling:shoes":"yes","addr:full":"ул. „Георги Икономов“ 58-60, 8800 Клуцохор, Сливен","addr:city":"Сливен","addr:country":"BG","brand":"M-texx","brand:wikidata":"Q122947768","operator:wikidata":"Q122947768"},"coordinates":[42.677338,26.305914]},"tags_mismatch":false,"dist":0},{"osm":false,"atp":{"id":"7TyHw-LfzEFqXai0_8Nbaxa8U5g=","tags":{"amenity":"recycling","recycling:clothes":"yes","recycling:shoes":"yes","addr:full":"8801 Сливен Център, Сливен","addr:city":"Сливен","addr:country":"BG","brand":"M-texx","brand:wikidata":"Q122947768","operator:wikidata":"Q122947768"},"coordinates":[42.681819,26.325397]},"tags_mismatch":false,"dist":0},{"osm":false,"atp":{"id":"L-7XfBHqLZBta1BYqfqS4girpBQ=","tags":{"amenity":"recycling","recycling:clothes":"yes","recycling:shoes":"yes","addr:full":"ул. „Добри Димитров“ 1, 8802 Сливен","addr:city":"Сливен","addr:country":"BG","brand":"M-texx","brand:wikidata":"Q122947768","operator:wikidata":"Q122947768"},"coordinates":[42.687655,26.326506]},"tags_mismatch":false,"dist":0},{"osm":false,"atp":{"id":"YGZnIv4Ai0wLSIHa31IWOpUeBvQ=","tags":{"amenity":"recycling","recycling:clothes":"yes","recycling:shoes":"yes","addr:full":"ул. „Добри Димитров“, 8802 Сливен","addr:city":"Сливен","addr:country":"BG","brand":"M-texx","brand:wikidata":"Q122947768","operator:wikidata":"Q122947768"},"coordinates":[42.6908,26.329682]},"tags_mismatch":false,"dist":0},{"osm":false,"atp":{"id":"vSisflO80YmckqSyW4deVIkVScs=","tags":{"amenity":"recycling","recycling:clothes":"yes","recycling:shoes":"yes","addr:full":"488 20, 8802 Ново село, Сливен","addr:city":"Сливен","addr:country":"BG","brand":"M-texx","brand:wikidata":"Q122947768","operator:wikidata":"Q122947768"},"coordinates":[42.687742,26.332641]},"tags_mismatch":false,"dist":0},{"osm":false,"atp":{"id":"R9rJsxQBE6eOLDGXOtHUua9wsqI=","tags":{"amenity":"recycling","recycling:clothes":"yes","recycling:shoes":"yes","addr:full":"8808 ж.к. Сините камъни, Сливен","addr:city":"Сливен","addr:country":"BG","brand":"M-texx","brand:wikidata":"Q122947768","operator:wikidata":"Q122947768"},"coordinates":[42.690506,26.343259]},"tags_mismatch":false,"dist":0},{"osm":false,"atp":{"id":"kPpfZpajlIw5KEa1oRmX0AfQkkk=","tags":{"amenity":"recycling","recycling:clothes":"yes","recycling:shoes":"yes","addr:full":"8808 ж.к. Сините камъни, Сливен","addr:city":"Сливен","addr:country":"BG","brand":"M-texx","brand:wikidata":"Q122947768","operator:wikidata":"Q122947768"},"coordinates":[42.685909,26.342598]},"tags_mismatch":false,"dist":0},{"osm":false,"atp":{"id":"Ve2KP4SktPme_aDRhRmQiU1jkGE=","tags":{"amenity":"recycling","recycling:clothes":"yes","recycling:shoes":"yes","addr:full":"8808 ж.к. Българка, Сливен","addr:city":"Сливен","addr:country":"BG","brand":"M-texx","brand:wikidata":"Q122947768","operator:wikidata":"Q122947768"},"coordinates":[42.684823,26.341928]},"tags_mismatch":false,"dist":0},{"osm":false,"atp":{"id":"jSGl16qC5U499-F-RdP_g4UNebU=","tags":{"amenity":"recycling","recycling:clothes":"yes","recycling:shoes":"yes","addr:full":"ж.к. Стоян Заимов 62, 8804 Стоян Заимов, Сливен","addr:city":"Сливен","addr:country":"BG","brand":"M-texx","brand:wikidata":"Q122947768","operator:wikidata":"Q122947768"},"coordinates":[42.674075,26.334841]},"tags_mismatch":false,"dist":0},{"osm":false,"atp":{"id":"vpZSOdcnhJiY2puMOERENu7hfsY=","tags":{"amenity":"recycling","recycling:clothes":"yes","recycling:shoes":"yes","addr:full":"ул. Мандикарска 4702 Устово, Смолян","addr:city":"Смолян","addr:country":"BG","brand":"M-texx","brand:wikidata":"Q122947768","operator:wikidata":"Q122947768"},"coordinates":[41.573437,24.781063]},"tags_mismatch":false,"dist":0},{"osm":false,"atp":{"id":"Y_sRNpA-ZVDnHNaDkDjr2sqR26s=","tags":{"amenity":"recycling","recycling:clothes":"yes","recycling:shoes":"yes","addr:full":"ул. „Хан Пресиян“ 19, 4703 Стар център, Смолян","addr:city":"Смолян","addr:country":"BG","brand":"M-texx","brand:wikidata":"Q122947768","operator:wikidata":"Q122947768"},"coordinates":[41.579255,24.693702]},"tags_mismatch":false,"dist":0},{"osm":false,"atp":{"id":"IZpZd2A0yWXsYTqR2_T_QwcKfoY=","tags":{"amenity":"recycling","recycling:clothes":"yes","recycling:shoes":"yes","addr:full":"ул. „Невястата“ 16-18, 4703 Стар център, Смолян","addr:city":"Смолян","addr:country":"BG","brand":"M-texx","brand:wikidata":"Q122947768","operator:wikidata":"Q122947768"},"coordinates":[41.587284,24.683293]},"tags_mismatch":false,"dist":0},{"osm":false,"atp":{"id":"84yBHjXjglUrjBvDnpMhUywZ9Co=","tags":{"amenity":"recycling","recycling:clothes":"yes","recycling:shoes":"yes","addr:full":"ул. „Баба Тонка“ 9-1, 4701 Райково, Смолян","addr:city":"Смолян","addr:country":"BG","brand":"M-texx","brand:wikidata":"Q122947768","operator:wikidata":"Q122947768"},"coordinates":[41.569819,24.728469]},"tags_mismatch":false,"dist":0},{"osm":false,"atp":{"id":"bPDz3PxsxHuQbVo3zKDNVN35HiY=","tags":{"amenity":"recycling","recycling:clothes":"yes","recycling:shoes":"yes","addr:full":"ул. „Хан Аспарух“, 4700 ж.к. Нов център, Смолян","addr:city":"Смолян","addr:country":"BG","brand":"M-texx","brand:wikidata":"Q122947768","operator:wikidata":"Q122947768"},"coordinates":[41.575725,24.712767]},"tags_mismatch":false,"dist":0},{"osm":false,"atp":{"id":"nrZx9co1oW06UYksB7Bk9hE3luA=","tags":{"amenity":"recycling","recycling:clothes":"yes","recycling:shoes":"yes","addr:full":"ул. Никола Вапцаров 8-16, 9820 Смядово","addr:city":"Смядово","addr:country":"BG","brand":"M-texx","brand:wikidata":"Q122947768","operator:wikidata":"Q122947768"},"coordinates":[43.063254,27.020055]},"tags_mismatch":false,"dist":0},{"osm":false,"atp":{"id":"u_ngVhu_BKpUWQcaix33V0WJBkQ=","tags":{"amenity":"recycling","recycling:clothes":"yes","recycling:shoes":"yes","addr:full":"ул. Черноризец Храбър 27, 9820 Смядово","addr:city":"Смядово","addr:country":"BG","brand":"M-texx","brand:wikidata":"Q122947768","operator:wikidata":"Q122947768"},"coordinates":[43.067841,27.014215]},"tags_mismatch":false,"dist":0},{"osm":false,"atp":{"id":"OwpKuFgW1tBxsNstD2U5u9l1_3g=","tags":{"amenity":"recycling","recycling:clothes":"yes","recycling:shoes":"yes","addr:full":"ул. Георги Бенковски, 9820 Смядово","addr:city":"Смядово","addr:country":"BG","brand":"M-texx","brand:wikidata":"Q122947768","operator:wikidata":"Q122947768"},"coordinates":[43.067221,27.00735]},"tags_mismatch":false,"dist":0},{"osm":false,"atp":{"id":"oh7cJW47DfEveYd3v7AT6ldF-_Y=","tags":{"amenity":"recycling","recycling:clothes":"yes","recycling:shoes":"yes","addr:full":"9820 Смядово","addr:city":"Смядово","addr:country":"BG","brand":"M-texx","brand:wikidata":"Q122947768","operator:wikidata":"Q122947768"},"coordinates":[43.063216,27.014623]},"tags_mismatch":false,"dist":0},{"osm":false,"atp":{"id":"T3H1mPvkolvRrSSQCLMqXyxxQOA=","tags":{"amenity":"recycling","recycling:clothes":"yes","recycling:shoes":"yes","addr:full":"ул. „Христо Ботев“ 2, 4330 Сопот","addr:city":"Сопот","addr:country":"BG","brand":"M-texx","brand:wikidata":"Q122947768","operator:wikidata":"Q122947768"},"coordinates":[42.653584,24.754764]},"tags_mismatch":false,"dist":0},{"osm":false,"atp":{"id":"kS_xZBqXJwF-mPo5JYfz54JPheA=","tags":{"amenity":"recycling","recycling:clothes":"yes","recycling:shoes":"yes","addr:full":"4330 жк. Сарая, Сопот","addr:city":"Сопот","addr:country":"BG","brand":"M-texx","brand:wikidata":"Q122947768","operator:wikidata":"Q122947768"},"coordinates":[42.656608,24.763827]},"tags_mismatch":false,"dist":0},{"osm":false,"atp":{"id":"ycup0-luVknRPSbm6_fwlNwlGO4=","tags":{"amenity":"recycling","recycling:clothes":"yes","recycling:shoes":"yes","addr:full":"ул. „полк. Стоян Топузов“ 722-718, 1324 ж.к. Люлин 7, София","addr:city":"София","addr:country":"BG","brand":"M-texx","brand:wikidata":"Q122947768","operator:wikidata":"Q122947768"},"coordinates":[42.710796,23.263071]},"tags_mismatch":false,"dist":0},{"osm":false,"atp":{"id":"LxocnG-2hFEushZX6VwA8WOUeSU=","tags":{"amenity":"recycling","recycling:clothes":"yes","recycling:shoes":"yes","addr:full":"ул. „Златопласт“, 1324 ж.к. Люлин 8, София","addr:city":"София","addr:country":"BG","brand":"M-texx","brand:wikidata":"Q122947768","operator:wikidata":"Q122947768"},"coordinates":[42.72159,23.260872]},"tags_mismatch":false,"dist":0},{"osm":false,"atp":{"id":"3r9wNml1BTPing3bMkdsPGNjmH4=","tags":{"amenity":"recycling","recycling:clothes":"yes","recycling:shoes":"yes","addr:full":"ул. „ген. Никола Генев“, 1324 ж.к. Люлин 9, София","addr:city":"София","addr:country":"BG","brand":"M-texx","brand:wikidata":"Q122947768","operator:wikidata":"Q122947768"},"coordinates":[42.717993,23.265152]},"tags_mismatch":false,"dist":0},{"osm":false,"atp":{"id":"cP3gLU9wZsYrhkPNscCD6MlryoI=","tags":{"amenity":"recycling","recycling:clothes":"yes","recycling:shoes":"yes","addr:full":"63 ОУ \"Христо Ботев\", ул. „Леденика“ 12, 1298 кв. Требич, София","addr:city":"София","addr:country":"BG","brand":"M-texx","brand:wikidata":"Q122947768","operator:wikidata":"Q122947768"},"coordinates":[42.77475,23.313079]},"tags_mismatch":false,"dist":0},{"osm":false,"atp":{"id":"VoJrVyDfF6_GmiakAjo5F4S3yjE=","tags":{"amenity":"recycling","recycling:clothes":"yes","recycling:shoes":"yes","addr:full":"ул. „Възрожденска“, 1220 ж.к. Надежда 1, София","addr:city":"София","addr:country":"BG","brand":"M-texx","brand:wikidata":"Q122947768","operator:wikidata":"Q122947768"},"coordinates":[42.729129,23.295165]},"tags_mismatch":false,"dist":0},{"osm":false,"atp":{"id":"_MssKDT-28zBbWMfX16I3Awc0Uo=","tags":{"amenity":"recycling","recycling:clothes":"yes","recycling:shoes":"yes","addr:full":"1220 ж.к. Надежда 1, София","addr:city":"София","addr:country":"BG","brand":"M-texx","brand:wikidata":"Q122947768","operator:wikidata":"Q122947768"},"coordinates":[42.726955,23.300061]},"tags_mismatch":false,"dist":0},{"osm":false,"atp":{"id":"B93xDLj8aqO3EOCNTCVkPo75xl8=","tags":{"amenity":"recycling","recycling:clothes":"yes","recycling:shoes":"yes","addr:full":"бул. „Петко Каравелов“ 3, ж.к. Иван Вазов, София","addr:city":"София","addr:country":"BG","brand":"M-texx","brand:wikidata":"Q122947768","operator:wikidata":"Q122947768"},"coordinates":[42.678881,23.313415]},"tags_mismatch":false,"dist":0},{"osm":false,"atp":{"id":"F9eCXDrMQ-ZiMAnju57f92KJVq0=","tags":{"amenity":"recycling","recycling:clothes":"yes","recycling:shoes":"yes","addr:full":"ул. „Ана Ахматова“ 520, 1729 ж.к. Младост 1А, София","addr:city":"София","addr:country":"BG","brand":"M-texx","brand:wikidata":"Q122947768","operator:wikidata":"Q122947768"},"coordinates":[42.650924,23.384588]},"tags_mismatch":false,"dist":0},{"osm":false,"atp":{"id":"V_kEpVKdmN-AC7td7lfKZ1lx8yU=","tags":{"amenity":"recycling","recycling:clothes":"yes","recycling:shoes":"yes","addr:full":"1715 ж.к. Младост 4, София","addr:city":"София","addr:country":"BG","brand":"M-texx","brand:wikidata":"Q122947768","operator:wikidata":"Q122947768"},"coordinates":[42.635173,23.37999]},"tags_mismatch":false,"dist":0},{"osm":false,"atp":{"id":"O1uZjjOhBDcw-mqEuuk_6oFAHPw=","tags":{"amenity":"recycling","recycling:clothes":"yes","recycling:shoes":"yes","addr:full":"1582 ж.к. Дружба 2, София","addr:city":"София","addr:country":"BG","brand":"M-texx","brand:wikidata":"Q122947768","operator:wikidata":"Q122947768"},"coordinates":[42.646673,23.409176]},"tags_mismatch":false,"dist":0},{"osm":false,"atp":{"id":"Lw1QzX788CZ5iFSmvlBkybW5Yso=","tags":{"amenity":"recycling","recycling:clothes":"yes","recycling:shoes":"yes","addr:full":"1582 ж.к. Дружба 2, София","addr:city":"София","addr:country":"BG","brand":"M-texx","brand:wikidata":"Q122947768","operator:wikidata":"Q122947768"},"coordinates":[42.65178,23.402433]},"tags_mismatch":false,"dist":0},{"osm":false,"atp":{"id":"WSZBPHmSKyqCOMPOfj1ynn23NQ4=","tags":{"amenity":"recycling","recycling:clothes":"yes","recycling:shoes":"yes","addr:full":"ул. „Тирана“, 1592 ж.к. Дружба 1, София - 2 бр.","addr:city":"София","addr:country":"BG","brand":"M-texx","brand:wikidata":"Q122947768","operator:wikidata":"Q122947768"},"coordinates":[42.660393,23.399789]},"tags_mismatch":false,"dist":0},{"osm":false,"atp":{"id":"-HgEFCVaF-0QARgUCAer6zz9qZU=","tags":{"amenity":"recycling","recycling:clothes":"yes","recycling:shoes":"yes","addr:full":"ул. „5019-та“, 1592 ж.к. Дружба 1, София","addr:city":"София","addr:country":"BG","brand":"M-texx","brand:wikidata":"Q122947768","operator:wikidata":"Q122947768"},"coordinates":[42.6661,23.397151]},"tags_mismatch":false,"dist":0},{"osm":false,"atp":{"id":"vzGp9_qiEatkJL33JuLdVBCgDCw=","tags":{"amenity":"recycling","recycling:clothes":"yes","recycling:shoes":"yes","addr:full":"ул. „капитан Димитър Списаревски“, 1592 7-ми 11-ти километър","addr:city":"София","addr:country":"BG","brand":"M-texx","brand:wikidata":"Q122947768","operator:wikidata":"Q122947768"},"coordinates":[42.660381,23.394546]},"tags_mismatch":false,"dist":0},{"osm":false,"atp":{"id":"kPck4iVmx_pFHDa2B-Ca8bITzmA=","tags":{"amenity":"recycling","recycling:clothes":"yes","recycling:shoes":"yes","addr:full":"ул. „Йерусалим“ 24, 1784 ж.к. Младост 1, София","addr:city":"София","addr:country":"BG","brand":"M-texx","brand:wikidata":"Q122947768","operator:wikidata":"Q122947768"},"coordinates":[42.655467,23.374179]},"tags_mismatch":false,"dist":0},{"osm":false,"atp":{"id":"S8Rmg0GuVwYEo_2S815zVxdFPtQ=","tags":{"amenity":"recycling","recycling:clothes":"yes","recycling:shoes":"yes","addr:full":"1784 Младост 1, София","addr:city":"София","addr:country":"BG","brand":"M-texx","brand:wikidata":"Q122947768","operator:wikidata":"Q122947768"},"coordinates":[42.653171,23.372122]},"tags_mismatch":false,"dist":0},{"osm":false,"atp":{"id":"cUJmip96sxj4ox_67dHJKyKsoc4=","tags":{"amenity":"recycling","recycling:clothes":"yes","recycling:shoes":"yes","addr:full":"1784 Младост 1, София","addr:city":"София","addr:country":"BG","brand":"M-texx","brand:wikidata":"Q122947768","operator:wikidata":"Q122947768"},"coordinates":[42.651708,23.374458]},"tags_mismatch":false,"dist":0},{"osm":false,"atp":{"id":"EPw8fC_rN0JL-cqTbkAVBBF8Zgc=","tags":{"amenity":"recycling","recycling:clothes":"yes","recycling:shoes":"yes","addr:full":"бул. „Андрей Сахаров“ 4, 1784 Младост 1, София","addr:city":"София","addr:country":"BG","brand":"M-texx","brand:wikidata":"Q122947768","operator:wikidata":"Q122947768"},"coordinates":[42.651026,23.37682]},"tags_mismatch":false,"dist":0},{"osm":false,"atp":{"id":"eeVP2LTj7oFx_bNMNJ4xH-X5oQI=","tags":{"amenity":"recycling","recycling:clothes":"yes","recycling:shoes":"yes","addr:full":"ул. „проф. Александър Танев“ 469, 1715 ж.к. Младост 4","addr:city":"София","addr:country":"BG","brand":"M-texx","brand:wikidata":"Q122947768","operator:wikidata":"Q122947768"},"coordinates":[42.627173,23.383914]},"tags_mismatch":false,"dist":0},{"osm":false,"atp":{"id":"Fnpbki39f4kCbACL9e3zhhp3GBc=","tags":{"amenity":"recycling","recycling:clothes":"yes","recycling:shoes":"yes","addr:full":"1715 ж.к. Младост 4, София","addr:city":"София","addr:country":"BG","brand":"M-texx","brand:wikidata":"Q122947768","operator:wikidata":"Q122947768"},"coordinates":[42.633333,23.378099]},"tags_mismatch":false,"dist":0},{"osm":false,"atp":{"id":"lw4pRNIUX9WWzv3saMI1IAaIm9s=","tags":{"amenity":"recycling","recycling:clothes":"yes","recycling:shoes":"yes","addr:full":"ул. „ген. Радко Димитриев“, 1712 ж.к. Младост 3","addr:city":"София","addr:country":"BG","brand":"M-texx","brand:wikidata":"Q122947768","operator:wikidata":"Q122947768"},"coordinates":[42.645478,23.383176]},"tags_mismatch":false,"dist":0},{"osm":false,"atp":{"id":"W2bhWY6evNDvfxANwW5CN-dTuKc=","tags":{"amenity":"recycling","recycling:clothes":"yes","recycling:shoes":"yes","addr:full":"ул. „Бъднина“, 1712 ж.к. Младост 3, София","addr:city":"София","addr:country":"BG","brand":"M-texx","brand:wikidata":"Q122947768","operator:wikidata":"Q122947768"},"coordinates":[42.645279,23.379575]},"tags_mismatch":false,"dist":0},{"osm":false,"atp":{"id":"yJ0x9qnWSCYg2mkFwj-OQynwS2U=","tags":{"amenity":"recycling","recycling:clothes":"yes","recycling:shoes":"yes","addr:full":"ул. „Проф. д-р Иван Странски“ 3, 1700 Студентски Комплекс","addr:city":"София","addr:country":"BG","brand":"M-texx","brand:wikidata":"Q122947768","operator:wikidata":"Q122947768"},"coordinates":[42.64319,23.338752]},"tags_mismatch":false,"dist":0},{"osm":false,"atp":{"id":"OlPq6tisGjrz_NFI3T5qK1QO1KQ=","tags":{"amenity":"recycling","recycling:clothes":"yes","recycling:shoes":"yes","addr:full":"ул. „акад. Борис Стефанов\", 1700 Студентски Комплекс","addr:city":"София","addr:country":"BG","brand":"M-texx","brand:wikidata":"Q122947768","operator:wikidata":"Q122947768"},"coordinates":[42.644056,23.342008]},"tags_mismatch":false,"dist":0},{"osm":false,"atp":{"id":"w8DQSOaxyXUeKPWim72eFBy2FzY=","tags":{"amenity":"recycling","recycling:clothes":"yes","recycling:shoes":"yes","addr:full":"ул. „Акад. Стефан Младенов“ 80, 1700 Студентски Комплекс","addr:city":"София","addr:country":"BG","brand":"M-texx","brand:wikidata":"Q122947768","operator:wikidata":"Q122947768"},"coordinates":[42.644931,23.345101]},"tags_mismatch":false,"dist":0},{"osm":false,"atp":{"id":"evD8ODaLT7PBsMX0Yb2ayMe52i0=","tags":{"amenity":"recycling","recycling:clothes":"yes","recycling:shoes":"yes","addr:full":"ул. „Проф. д-р Иван Странски“, 1700 Студентски Комплекс","addr:city":"София","addr:country":"BG","brand":"M-texx","brand:wikidata":"Q122947768","operator:wikidata":"Q122947768"},"coordinates":[42.642932,23.343674]},"tags_mismatch":false,"dist":0},{"osm":false,"atp":{"id":"92_bOy7AR8b3d9l8ccEPeoTxchA=","tags":{"amenity":"recycling","recycling:clothes":"yes","recycling:shoes":"yes","addr:full":"ул. „Ралевица“, 1618 кв. Манастирски ливади, София","addr:city":"София","addr:country":"BG","brand":"M-texx","brand:wikidata":"Q122947768","operator:wikidata":"Q122947768"},"coordinates":[42.661214,23.283138]},"tags_mismatch":false,"dist":0},{"osm":false,"atp":{"id":"R10weJAn3w8944Nv0IDOrn4fH3E=","tags":{"amenity":"recycling","recycling:clothes":"yes","recycling:shoes":"yes","addr:full":"ул. „Ралевица“ 75, 1618 кв. Манастирски ливади, София","addr:city":"София","addr:country":"BG","brand":"M-texx","brand:wikidata":"Q122947768","operator:wikidata":"Q122947768"},"coordinates":[42.658684,23.280501]},"tags_mismatch":false,"dist":0},{"osm":false,"atp":{"id":"wFtDgHEdiv_aqurwpdVy9FAxSzk=","tags":{"amenity":"recycling","recycling:clothes":"yes","recycling:shoes":"yes","addr:full":"ул. „Буземска“, 1618 кв. Овча купел, София","addr:city":"София","addr:country":"BG","brand":"M-texx","brand:wikidata":"Q122947768","operator:wikidata":"Q122947768"},"coordinates":[42.678639,23.267639]},"tags_mismatch":false,"dist":0},{"osm":false,"atp":{"id":"NrGcfuHNAWIvgwIx_GZAYe2xmZM=","tags":{"amenity":"recycling","recycling:clothes":"yes","recycling:shoes":"yes","addr:full":"Паркинг, ул. „Орчо Войвода“ 7, 1618 ж.к. Овча купел 1","addr:city":"София","addr:country":"BG","brand":"M-texx","brand:wikidata":"Q122947768","operator:wikidata":"Q122947768"},"coordinates":[42.683071,23.270644]},"tags_mismatch":false,"dist":0},{"osm":false,"atp":{"id":"rnWE9JMqG-0AL2SArtdv8WKJBB8=","tags":{"amenity":"recycling","recycling:clothes":"yes","recycling:shoes":"yes","addr:full":"1324 ж.к. Люлин - Център, София","addr:city":"София","addr:country":"BG","brand":"M-texx","brand:wikidata":"Q122947768","operator:wikidata":"Q122947768"},"coordinates":[42.717943,23.257555]},"tags_mismatch":false,"dist":0},{"osm":false,"atp":{"id":"wwXy-_eBIhoVHAJ5x9SAF0zdLyo=","tags":{"amenity":"recycling","recycling:clothes":"yes","recycling:shoes":"yes","addr:full":"бул. „Константин Величков“ 61, 1309 София център, София","addr:city":"София","addr:country":"BG","brand":"M-texx","brand:wikidata":"Q122947768","operator:wikidata":"Q122947768"},"coordinates":[42.702344,23.297987]},"tags_mismatch":false,"dist":0},{"osm":false,"atp":{"id":"mqkQ16vSAEtyncd1jJE54edeXKw=","tags":{"amenity":"recycling","recycling:clothes":"yes","recycling:shoes":"yes","addr:full":"ул. „Монтевидео“, 1632 София","addr:city":"София","addr:country":"BG","brand":"M-texx","brand:wikidata":"Q122947768","operator:wikidata":"Q122947768"},"coordinates":[42.683969,23.256667]},"tags_mismatch":false,"dist":0},{"osm":false,"atp":{"id":"sImvnhxgJ-EqXWNkBeJ9mmwEYv4=","tags":{"amenity":"recycling","recycling:clothes":"yes","recycling:shoes":"yes","addr:full":"Братя Прошек, 1632 ж.к. Овча купел 2, София","addr:city":"София","addr:country":"BG","brand":"M-texx","brand:wikidata":"Q122947768","operator:wikidata":"Q122947768"},"coordinates":[42.684277,23.248293]},"tags_mismatch":false,"dist":0},{"osm":false,"atp":{"id":"reLUC_gsN-fXGaAYsU0WotRzCno=","tags":{"amenity":"recycling","recycling:clothes":"yes","recycling:shoes":"yes","addr:full":"ул. „Витошка зорница“, 1415 Водолей-1, София","addr:city":"София","addr:country":"BG","brand":"M-texx","brand:wikidata":"Q122947768","operator:wikidata":"Q122947768"},"coordinates":[42.639582,23.312751]},"tags_mismatch":false,"dist":0},{"osm":false,"atp":{"id":"7-6ddMO_rDJtqee0zUpszyzt-10=","tags":{"amenity":"recycling","recycling:clothes":"yes","recycling:shoes":"yes","addr:full":"ул. „Божан Ангелов“ 426, 1715 ж.к. Младост 4, София","addr:city":"София","addr:country":"BG","brand":"M-texx","brand:wikidata":"Q122947768","operator:wikidata":"Q122947768"},"coordinates":[42.633176,23.375416]},"tags_mismatch":false,"dist":0},{"osm":false,"atp":{"id":"G0zuF7iDqsa-u7dguMuqd6g-Nl0=","tags":{"amenity":"recycling","recycling:clothes":"yes","recycling:shoes":"yes","addr:full":"ул. „Капиновски манастир“ 2-10, 1225 кв. Орландовци, София","addr:city":"София","addr:country":"BG","brand":"M-texx","brand:wikidata":"Q122947768","operator:wikidata":"Q122947768"},"coordinates":[42.720712,23.333605]},"tags_mismatch":false,"dist":0},{"osm":false,"atp":{"id":"7LGETs2HPuJydGPgTy8cdPSZnfg=","tags":{"amenity":"recycling","recycling:clothes":"yes","recycling:shoes":"yes","addr:full":"ул. „Гео Милев“ 2, 1111 Гео Милев, София","addr:city":"София","addr:country":"BG","brand":"M-texx","brand:wikidata":"Q122947768","operator:wikidata":"Q122947768"},"coordinates":[42.686565,23.352962]},"tags_mismatch":false,"dist":0},{"osm":false,"atp":{"id":"XBYEpfMBll_fw_LsFF19tyQW9Nc=","tags":{"amenity":"recycling","recycling:clothes":"yes","recycling:shoes":"yes","addr:full":"1309 ж.к. Илинден, София","addr:city":"София","addr:country":"BG","brand":"M-texx","brand:wikidata":"Q122947768","operator:wikidata":"Q122947768"},"coordinates":[42.702981,23.285755]},"tags_mismatch":false,"dist":0},{"osm":false,"atp":{"id":"w5VJ76FL7RDt3A-BxiPxNATydlw=","tags":{"amenity":"recycling","recycling:clothes":"yes","recycling:shoes":"yes","addr:full":"ул. „Село Кръвеник“ 15-17, 1220 ж.к. Надежда 1, София","addr:city":"София","addr:country":"BG","brand":"M-texx","brand:wikidata":"Q122947768","operator:wikidata":"Q122947768"},"coordinates":[42.727924,23.299445]},"tags_mismatch":false,"dist":0},{"osm":false,"atp":{"id":"za_6UTzxJwwFhM9xpPeBQL4ZzLM=","tags":{"amenity":"recycling","recycling:clothes":"yes","recycling:shoes":"yes","addr:full":"ул. „Садина“, 1582 ж.к. Дружба 2, София","addr:city":"София","addr:country":"BG","brand":"M-texx","brand:wikidata":"Q122947768","operator:wikidata":"Q122947768"},"coordinates":[42.642215,23.414677]},"tags_mismatch":false,"dist":0},{"osm":false,"atp":{"id":"2iBaR_3NQ98oc8Yrc2U196Yu8Cc=","tags":{"amenity":"recycling","recycling:clothes":"yes","recycling:shoes":"yes","addr:full":"бул. „Черни връх“ 189G, 1415 Водолей-2, София","addr:city":"София","addr:country":"BG","brand":"M-texx","brand:wikidata":"Q122947768","operator:wikidata":"Q122947768"},"coordinates":[42.636582,23.31092]},"tags_mismatch":false,"dist":0},{"osm":false,"atp":{"id":"0J4Rm5WcitshrChcgAnVz2ATagk=","tags":{"amenity":"recycling","recycling:clothes":"yes","recycling:shoes":"yes","addr:full":"кв. Чайка, 8240 Стария възел, Слънчев бряг","addr:city":"Слънчев бряг","addr:country":"BG","brand":"M-texx","brand:wikidata":"Q122947768","operator:wikidata":"Q122947768"},"coordinates":[42.696467,27.707971]},"tags_mismatch":false,"dist":0},{"osm":false,"atp":{"id":"VsYrL7XcDHW1ptDqtpwDKLsQh28=","tags":{"amenity":"recycling","recycling:clothes":"yes","recycling:shoes":"yes","addr:full":"8256 Свети Влас","addr:city":"Св. Влас","addr:country":"BG","brand":"M-texx","brand:wikidata":"Q122947768","operator:wikidata":"Q122947768"},"coordinates":[42.71373,27.758482]},"tags_mismatch":false,"dist":0},{"osm":false,"atp":{"id":"rl2hlF6H83LjEt-ILaDn4qvJiIg=","tags":{"amenity":"recycling","recycling:clothes":"yes","recycling:shoes":"yes","addr:full":"Иван Вазов, 4530 Стрелча","addr:city":"Стрелча","addr:country":"BG","brand":"M-texx","brand:wikidata":"Q122947768","operator:wikidata":"Q122947768"},"coordinates":[42.50332,24.322031]},"tags_mismatch":false,"dist":0},{"osm":false,"atp":{"id":"raURXY3H6HFPYdwDFoMZCGSd8D4=","tags":{"amenity":"recycling","recycling:clothes":"yes","recycling:shoes":"yes","addr:full":"ул. Тодор Каблешков, 4530 Стрелча","addr:city":"Стрелча","addr:country":"BG","brand":"M-texx","brand:wikidata":"Q122947768","operator:wikidata":"Q122947768"},"coordinates":[42.506844,24.317143]},"tags_mismatch":false,"dist":0},{"osm":false,"atp":{"id":"ctOpK9HfPsaC-HV0kfQ9CSkd9NA=","tags":{"amenity":"recycling","recycling:clothes":"yes","recycling:shoes":"yes","addr:full":"Димитър Благоев, 4530 Стрелча","addr:city":"Стрелча","addr:country":"BG","brand":"M-texx","brand:wikidata":"Q122947768","operator:wikidata":"Q122947768"},"coordinates":[42.510405,24.321859]},"tags_mismatch":false,"dist":0},{"osm":false,"atp":{"id":"bCbXrPX7SiXhXRSil9dcfYCH8w8=","tags":{"amenity":"recycling","recycling:clothes":"yes","recycling:shoes":"yes","addr:full":"ул. Любен Каравелов, 4987 Старцево","addr:city":"Старцево /Златоград/","addr:country":"BG","brand":"M-texx","brand:wikidata":"Q122947768","operator:wikidata":"Q122947768"},"coordinates":[41.430421,25.050478]},"tags_mismatch":false,"dist":0},{"osm":false,"atp":{"id":"amPsV3TEXIx8z5xJUPJagE8dlAE=","tags":{"amenity":"recycling","recycling:clothes":"yes","recycling:shoes":"yes","addr:full":"Център, ул. Хан Аспарух 17, 8890 Твърдица","addr:city":"Твърдица","addr:country":"BG","brand":"M-texx","brand:wikidata":"Q122947768","operator:wikidata":"Q122947768"},"coordinates":[42.701362,25.898362]},"tags_mismatch":false,"dist":0},{"osm":false,"atp":{"id":"NNbAtY1uk1cfybKfsniU92JSZmU=","tags":{"amenity":"recycling","recycling:clothes":"yes","recycling:shoes":"yes","addr:full":"ул. „Кирил и Методий“ 43-29, 5600 Троян","addr:city":"Троян","addr:country":"BG","brand":"M-texx","brand:wikidata":"Q122947768","operator:wikidata":"Q122947768"},"coordinates":[42.890589,24.709161]},"tags_mismatch":false,"dist":0},{"osm":false,"atp":{"id":"FD2XvVu1zxvqgks7uJ-Nc6-2eYI=","tags":{"amenity":"recycling","recycling:clothes":"yes","recycling:shoes":"yes","addr:full":"ул. „Професор н. Шипковенски“ 11-15, 5600 Черногор, Троян","addr:city":"Троян","addr:country":"BG","brand":"M-texx","brand:wikidata":"Q122947768","operator:wikidata":"Q122947768"},"coordinates":[42.891603,24.705772]},"tags_mismatch":false,"dist":0},{"osm":false,"atp":{"id":"m9-tM8PTUUWzVfNO6q-8wB-1u_8=","tags":{"amenity":"recycling","recycling:clothes":"yes","recycling:shoes":"yes","addr:full":"ул. „Буковец“, 5602 Младост, Троян","addr:city":"Троян","addr:country":"BG","brand":"M-texx","brand:wikidata":"Q122947768","operator:wikidata":"Q122947768"},"coordinates":[42.89919,24.713044]},"tags_mismatch":false,"dist":0},{"osm":false,"atp":{"id":"Mddt0myS9QAQxSgOyLfR05z4mzk=","tags":{"amenity":"recycling","recycling:clothes":"yes","recycling:shoes":"yes","addr:full":"ул. „Г.С. Раковски“ 53-17, 5600 Център, Троян","addr:city":"Троян","addr:country":"BG","brand":"M-texx","brand:wikidata":"Q122947768","operator:wikidata":"Q122947768"},"coordinates":[42.883472,24.711398]},"tags_mismatch":false,"dist":0},{"osm":false,"atp":{"id":"WJRwwptqoicc6C0NIZcRsILuwgw=","tags":{"amenity":"recycling","recycling:clothes":"yes","recycling:shoes":"yes","addr:full":"ж.к. Лъгът 19, 5600 Троян","addr:city":"Троян","addr:country":"BG","brand":"M-texx","brand:wikidata":"Q122947768","operator:wikidata":"Q122947768"},"coordinates":[42.871267,24.711246]},"tags_mismatch":false,"dist":0},{"osm":false,"atp":{"id":"bP49hUTTw_5_HVLgB7ndmIl1rKo=","tags":{"amenity":"recycling","recycling:clothes":"yes","recycling:shoes":"yes","addr:full":"ул. „Балкан\" 23, 5601 Лъгът, Троян","addr:city":"Троян","addr:country":"BG","brand":"M-texx","brand:wikidata":"Q122947768","operator:wikidata":"Q122947768"},"coordinates":[42.872866,24.712044]},"tags_mismatch":false,"dist":0},{"osm":false,"atp":{"id":"zk0ZhQ-EqyM-8MeoVfgRGyPWW0U=","tags":{"amenity":"recycling","recycling:clothes":"yes","recycling:shoes":"yes","addr:full":"5350 ул.Васил Априлов 1, Трявна","addr:city":"Трявна","addr:country":"BG","brand":"M-texx","brand:wikidata":"Q122947768","operator:wikidata":"Q122947768"},"coordinates":[42.879348,25.495262]},"tags_mismatch":false,"dist":0},{"osm":false,"atp":{"id":"9gkRXSy0nMe7uLrdWweUvWaYbTU=","tags":{"amenity":"recycling","recycling:clothes":"yes","recycling:shoes":"yes","addr:full":"ул. „Александър Стамболийски“, 5350 Трявна","addr:city":"Трявна","addr:country":"BG","brand":"M-texx","brand:wikidata":"Q122947768","operator:wikidata":"Q122947768"},"coordinates":[42.870956,25.498128]},"tags_mismatch":false,"dist":0},{"osm":false,"atp":{"id":"euz0dxGcNZhnZwQIJf9GZV_pFFY=","tags":{"amenity":"recycling","recycling:clothes":"yes","recycling:shoes":"yes","addr:full":"ул. „Ангел Кънчев“ 21, 5350 Трявна","addr:city":"Трявна","addr:country":"BG","brand":"M-texx","brand:wikidata":"Q122947768","operator:wikidata":"Q122947768"},"coordinates":[42.866638,25.49192]},"tags_mismatch":false,"dist":0},{"osm":false,"atp":{"id":"XPWi439qr2V93rCwHZCLhgAvZKM=","tags":{"amenity":"recycling","recycling:clothes":"yes","recycling:shoes":"yes","addr:full":"ул. „Преслав“ 9А, 7700 Търговище Център, Търговище","addr:city":"Търговище","addr:country":"BG","brand":"M-texx","brand:wikidata":"Q122947768","operator:wikidata":"Q122947768"},"coordinates":[43.246124,26.576055]},"tags_mismatch":false,"dist":0},{"osm":false,"atp":{"id":"QEVAcaX0wlYNReHPlf6QtQuQJOw=","tags":{"amenity":"recycling","recycling:clothes":"yes","recycling:shoes":"yes","addr:full":"ул. „Паисий“ 17А, 7700 Боровец, Търговище","addr:city":"Търговище","addr:country":"BG","brand":"M-texx","brand:wikidata":"Q122947768","operator:wikidata":"Q122947768"},"coordinates":[43.242744,26.579518]},"tags_mismatch":false,"dist":0},{"osm":false,"atp":{"id":"DaYL0wGpSUWAmg66Zy2zFkxdDJk=","tags":{"amenity":"recycling","recycling:clothes":"yes","recycling:shoes":"yes","addr:full":"ул. „Стефан Караджа“ 7-11, 7700 Търговище","addr:city":"Търговище","addr:country":"BG","brand":"M-texx","brand:wikidata":"Q122947768","operator:wikidata":"Q122947768"},"coordinates":[43.247696,26.576553]},"tags_mismatch":false,"dist":0},{"osm":false,"atp":{"id":"s1b6JxfRRRhmUao9BHFYi5Wod3k=","tags":{"amenity":"recycling","recycling:clothes":"yes","recycling:shoes":"yes","addr:full":"ул. „Цар Симеон“ 3, 7700 Търговище Център, Търговище","addr:city":"Търговище","addr:country":"BG","brand":"M-texx","brand:wikidata":"Q122947768","operator:wikidata":"Q122947768"},"coordinates":[43.251077,26.570607]},"tags_mismatch":false,"dist":0},{"osm":false,"atp":{"id":"FD6dmdze6K-dpPPCkBCmo1uO5UI=","tags":{"amenity":"recycling","recycling:clothes":"yes","recycling:shoes":"yes","addr:full":"ул. „Васил Петлешков“, 7700 Вароша, Търговище","addr:city":"Търговище","addr:country":"BG","brand":"M-texx","brand:wikidata":"Q122947768","operator:wikidata":"Q122947768"},"coordinates":[43.243958,26.564234]},"tags_mismatch":false,"dist":0},{"osm":false,"atp":{"id":"tlQpq_z982YBKOycdZ-2FmU7cjY=","tags":{"amenity":"recycling","recycling:clothes":"yes","recycling:shoes":"yes","addr:full":"бул., Сюрен\", 7705 ж.к. Запад 1, Търговище","addr:city":"Търговище","addr:country":"BG","brand":"M-texx","brand:wikidata":"Q122947768","operator:wikidata":"Q122947768"},"coordinates":[43.24231,26.56015]},"tags_mismatch":false,"dist":0},{"osm":false,"atp":{"id":"ZL6iGn0gErWvot3lMV2eZkDzxgs=","tags":{"amenity":"recycling","recycling:clothes":"yes","recycling:shoes":"yes","addr:full":"ж.к. Запад 2 58Г, 7705 ж.к. Запад 2, Търговище","addr:city":"Търговище","addr:country":"BG","brand":"M-texx","brand:wikidata":"Q122947768","operator:wikidata":"Q122947768"},"coordinates":[43.239546,26.556783]},"tags_mismatch":false,"dist":0},{"osm":false,"atp":{"id":"oWGG8e-MYLbvBIOgiiHK-eX5_pc=","tags":{"amenity":"recycling","recycling:clothes":"yes","recycling:shoes":"yes","addr:full":"5, ул. „Беласица“, 7703 Вароша, Търговище","addr:city":"Търговище","addr:country":"BG","brand":"M-texx","brand:wikidata":"Q122947768","operator:wikidata":"Q122947768"},"coordinates":[43.239482,26.568422]},"tags_mismatch":false,"dist":0},{"osm":false,"atp":{"id":"VM-8Wk3nA_4SfYNRtLzX6dnY9VY=","tags":{"amenity":"recycling","recycling:clothes":"yes","recycling:shoes":"yes","addr:full":"7702 ж.к. Запад 3, Търговище","addr:city":"Търговище","addr:country":"BG","brand":"M-texx","brand:wikidata":"Q122947768","operator:wikidata":"Q122947768"},"coordinates":[43.248292,26.553866]},"tags_mismatch":false,"dist":0},{"osm":false,"atp":{"id":"B695lg3QuZQUOP5Ol2yQOHuT0Ds=","tags":{"amenity":"recycling","recycling:clothes":"yes","recycling:shoes":"yes","addr:full":"7700 Вароша, Търговище","addr:city":"Търговище","addr:country":"BG","brand":"M-texx","brand:wikidata":"Q122947768","operator:wikidata":"Q122947768"},"coordinates":[43.238619,26.571243]},"tags_mismatch":false,"dist":0},{"osm":false,"atp":{"id":"Wo2zVx71sc3z14eE_UzOlauXjqw=","tags":{"amenity":"recycling","recycling:clothes":"yes","recycling:shoes":"yes","addr:full":"ул. „Мургаш“, 7700 Боровец, Търговище","addr:city":"Търговище","addr:country":"BG","brand":"M-texx","brand:wikidata":"Q122947768","operator:wikidata":"Q122947768"},"coordinates":[43.239849,26.574848]},"tags_mismatch":false,"dist":0},{"osm":false,"atp":{"id":"SSSCDbiDAGj2niP6nAHBGDUxMIQ=","tags":{"amenity":"recycling","recycling:clothes":"yes","recycling:shoes":"yes","addr:full":"ул. „Лилия“ 3-5, 7700 Търговище Център, Търговище","addr:city":"Търговище","addr:country":"BG","brand":"M-texx","brand:wikidata":"Q122947768","operator:wikidata":"Q122947768"},"coordinates":[43.247852,26.574379]},"tags_mismatch":false,"dist":0},{"osm":false,"atp":{"id":"FZ2T8hqGWdSTc50SUkcxDrMM4g0=","tags":{"amenity":"recycling","recycling:clothes":"yes","recycling:shoes":"yes","addr:full":"Бряг, ул. „Велес“ 38, 7704 Търговище","addr:city":"Търговище","addr:country":"BG","brand":"M-texx","brand:wikidata":"Q122947768","operator:wikidata":"Q122947768"},"coordinates":[43.282093,26.596163]},"tags_mismatch":false,"dist":0},{"osm":false,"atp":{"id":"Mhqz-QOjRLp4C2gW1PPVon3uook=","tags":{"amenity":"recycling","recycling:clothes":"yes","recycling:shoes":"yes","addr:full":"Въбел, бул. „Александър Стамболийски“ 95, 7701 Търговище","addr:city":"Търговище","addr:country":"BG","brand":"M-texx","brand:wikidata":"Q122947768","operator:wikidata":"Q122947768"},"coordinates":[43.25755,26.530135]},"tags_mismatch":false,"dist":0},{"osm":false,"atp":{"id":"h_CcqqP-8hUMDv-R0NbkuRmOhXI=","tags":{"amenity":"recycling","recycling:clothes":"yes","recycling:shoes":"yes","addr:full":"ул.Светулка, 5580 Угърчин","addr:city":"Угърчин","addr:country":"BG","brand":"M-texx","brand:wikidata":"Q122947768","operator:wikidata":"Q122947768"},"coordinates":[43.106276,24.412629]},"tags_mismatch":false,"dist":0},{"osm":false,"atp":{"id":"1PN2nn3OSdmSDY028FV0GdAGYV0=","tags":{"amenity":"recycling","recycling:clothes":"yes","recycling:shoes":"yes","addr:full":"бул. „Илинден“ 89-87, 6302 ж.к. Овчарски, Хасково","addr:city":"Хасково","addr:country":"BG","brand":"M-texx","brand:wikidata":"Q122947768","operator:wikidata":"Q122947768"},"coordinates":[41.925201,25.564538]},"tags_mismatch":false,"dist":0},{"osm":false,"atp":{"id":"ySHjuDtuOO-dfJ30vOhp0uNx0BM=","tags":{"amenity":"recycling","recycling:clothes":"yes","recycling:shoes":"yes","addr:full":"ул. „Дунав“ 4, 6301 ж.к. Любен Каравелов, Хасково","addr:city":"Хасково","addr:country":"BG","brand":"M-texx","brand:wikidata":"Q122947768","operator:wikidata":"Q122947768"},"coordinates":[41.937988,25.546277]},"tags_mismatch":false,"dist":0},{"osm":false,"atp":{"id":"KSoD3_rW_qV3R3bymnn4YdrcSaw=","tags":{"amenity":"recycling","recycling:clothes":"yes","recycling:shoes":"yes","addr:full":"ул. „Мадара“, 6301 ж.к. Любен Каравелов, Хасково","addr:city":"Хасково","addr:country":"BG","brand":"M-texx","brand:wikidata":"Q122947768","operator:wikidata":"Q122947768"},"coordinates":[41.938471,25.54342]},"tags_mismatch":false,"dist":0},{"osm":false,"atp":{"id":"vIgjUai8xWfYNPPLmMHdbORviZQ=","tags":{"amenity":"recycling","recycling:clothes":"yes","recycling:shoes":"yes","addr:full":"6301 ж.к. Бадема, Хасково","addr:city":"Хасково","addr:country":"BG","brand":"M-texx","brand:wikidata":"Q122947768","operator:wikidata":"Q122947768"},"coordinates":[41.937621,25.537943]},"tags_mismatch":false,"dist":0},{"osm":false,"atp":{"id":"KrP_d1FE12cL8zXdpGSKcU_FUec=","tags":{"amenity":"recycling","recycling:clothes":"yes","recycling:shoes":"yes","addr:full":"бул. „Г.С.Раковски“, 6300 ж.к. Дружба I, Хасково","addr:city":"Хасково","addr:country":"BG","brand":"M-texx","brand:wikidata":"Q122947768","operator:wikidata":"Q122947768"},"coordinates":[41.936233,25.554985]},"tags_mismatch":false,"dist":0},{"osm":false,"atp":{"id":"MlrdWlofGDea79DPYsZIjTOvnhE=","tags":{"amenity":"recycling","recycling:clothes":"yes","recycling:shoes":"yes","addr:full":"6304 Хасково Център, Хасково","addr:city":"Хасково","addr:country":"BG","brand":"M-texx","brand:wikidata":"Q122947768","operator:wikidata":"Q122947768"},"coordinates":[41.930641,25.565215]},"tags_mismatch":false,"dist":0},{"osm":false,"atp":{"id":"V6US3FlTcmq_iezxR5dx5Y8HSno=","tags":{"amenity":"recycling","recycling:clothes":"yes","recycling:shoes":"yes","addr:full":"бул. „Стефан Стамболов“, 6304 Хасково Център, Хасково","addr:city":"Хасково","addr:country":"BG","brand":"M-texx","brand:wikidata":"Q122947768","operator:wikidata":"Q122947768"},"coordinates":[41.929748,25.563026]},"tags_mismatch":false,"dist":0},{"osm":false,"atp":{"id":"dsGqRQwT3IQzJHfrvbQRc9w8Fuo=","tags":{"amenity":"recycling","recycling:clothes":"yes","recycling:shoes":"yes","addr:full":"ул. „Драгоман“ 77-73, 6300 ж.к. Овчарски, Хасково","addr:city":"Хасково","addr:country":"BG","brand":"M-texx","brand:wikidata":"Q122947768","operator:wikidata":"Q122947768"},"coordinates":[41.927727,25.565871]},"tags_mismatch":false,"dist":0},{"osm":false,"atp":{"id":"qusy-5RSxtMxJh3ZSDpQWe-IQk4=","tags":{"amenity":"recycling","recycling:clothes":"yes","recycling:shoes":"yes","addr:full":"ж.к. Орфей, 6303 Орфей, Хасково - 2 бр","addr:city":"Хасково","addr:country":"BG","brand":"M-texx","brand:wikidata":"Q122947768","operator:wikidata":"Q122947768"},"coordinates":[41.944292,25.55621]},"tags_mismatch":false,"dist":0},{"osm":false,"atp":{"id":"sN17QcD1IFQNCFe6jUEmKiKFFeg=","tags":{"amenity":"recycling","recycling:clothes":"yes","recycling:shoes":"yes","addr:full":"бул. Генерал Гурко 31-27, 4180 Център, Хисаря","addr:city":"Хисаря","addr:country":"BG","brand":"M-texx","brand:wikidata":"Q122947768","operator:wikidata":"Q122947768"},"coordinates":[42.506325,24.708514]},"tags_mismatch":false,"dist":0},{"osm":false,"atp":{"id":"vB7eQ1nz2AqaGzeR81jU9Upppus=","tags":{"amenity":"recycling","recycling:clothes":"yes","recycling:shoes":"yes","addr:full":"бул. Генерал Гурко 3, 4180 Център, Хисаря","addr:city":"Хисаря","addr:country":"BG","brand":"M-texx","brand:wikidata":"Q122947768","operator:wikidata":"Q122947768"},"coordinates":[42.500365,24.712332]},"tags_mismatch":false,"dist":0},{"osm":false,"atp":{"id":"sD9-FobNvVjqTZk2RmbNa4yKvRU=","tags":{"amenity":"recycling","recycling:clothes":"yes","recycling:shoes":"yes","addr:full":"54, 7139 Ценово","addr:city":"Ценово","addr:country":"BG","brand":"M-texx","brand:wikidata":"Q122947768","operator:wikidata":"Q122947768"},"coordinates":[43.537295,25.656414]},"tags_mismatch":false,"dist":0},{"osm":false,"atp":{"id":"_rBxG5TIy6CdmaKw6ksMJMjbEd4=","tags":{"amenity":"recycling","recycling:clothes":"yes","recycling:shoes":"yes","addr:full":"ул. Беловска 2-6, 4850 Чепеларе","addr:city":"Чепеларе","addr:country":"BG","brand":"M-texx","brand:wikidata":"Q122947768","operator:wikidata":"Q122947768"},"coordinates":[41.724494,24.685657]},"tags_mismatch":false,"dist":0},{"osm":false,"atp":{"id":"3fRTYjk4I1UFczWY1rbmH-FcQ9Y=","tags":{"amenity":"recycling","recycling:clothes":"yes","recycling:shoes":"yes","addr:full":"ул. Хан Аспарух 2-8, 4850 Чепеларе","addr:city":"Чепеларе","addr:country":"BG","brand":"M-texx","brand:wikidata":"Q122947768","operator:wikidata":"Q122947768"},"coordinates":[41.728116,24.685059]},"tags_mismatch":false,"dist":0},{"osm":false,"atp":{"id":"fHuOn3uwkVWr_iK0bB4I1Uyytjk=","tags":{"amenity":"recycling","recycling:clothes":"yes","recycling:shoes":"yes","addr:full":"ул. 24 май 50, 4850 Чепеларе","addr:city":"Чепеларе","addr:country":"BG","brand":"M-texx","brand:wikidata":"Q122947768","operator:wikidata":"Q122947768"},"coordinates":[41.72604,24.67858]},"tags_mismatch":false,"dist":0},{"osm":false,"atp":{"id":"0b2B5T32_a1Kvi_-VGD2cuBvyrA=","tags":{"amenity":"recycling","recycling:clothes":"yes","recycling:shoes":"yes","addr:full":"9705 Шумен","addr:city":"Шумен","addr:country":"BG","brand":"M-texx","brand:wikidata":"Q122947768","operator:wikidata":"Q122947768"},"coordinates":[43.278,26.914821]},"tags_mismatch":false,"dist":0},{"osm":false,"atp":{"id":"d1A0SjRn3ur3mPq2VHd2lRzr0Ik=","tags":{"amenity":"recycling","recycling:clothes":"yes","recycling:shoes":"yes","addr:full":"ул. „Самара“, 9710 ж.к. Боян Българанов II, Шумен","addr:city":"Шумен","addr:country":"BG","brand":"M-texx","brand:wikidata":"Q122947768","operator:wikidata":"Q122947768"},"coordinates":[43.276828,26.907867]},"tags_mismatch":false,"dist":0},{"osm":false,"atp":{"id":"M_GLkzcO0a97RX2n8EHP0S7kmfE=","tags":{"amenity":"recycling","recycling:clothes":"yes","recycling:shoes":"yes","addr:full":"9702 Шумен Център, Шумен","addr:city":"Шумен","addr:country":"BG","brand":"M-texx","brand:wikidata":"Q122947768","operator:wikidata":"Q122947768"},"coordinates":[43.270588,26.911365]},"tags_mismatch":false,"dist":0},{"osm":false,"atp":{"id":"0MtURtKooWdo0DWMrX0vgwqU-Hg=","tags":{"amenity":"recycling","recycling:clothes":"yes","recycling:shoes":"yes","addr:full":"ул. „Август Попов“ 8-18, 9700 Шумен Център, Шумен","addr:city":"Шумен","addr:country":"BG","brand":"M-texx","brand:wikidata":"Q122947768","operator:wikidata":"Q122947768"},"coordinates":[43.271337,26.914797]},"tags_mismatch":false,"dist":0},{"osm":false,"atp":{"id":"wbWCidzrLWSkjxhoPi_fTfdIv58=","tags":{"amenity":"recycling","recycling:clothes":"yes","recycling:shoes":"yes","addr:full":"ул. „Панайот Волов“ 53, 9700 Шумен Център, Шумен - 2 бр.","addr:city":"Шумен","addr:country":"BG","brand":"M-texx","brand:wikidata":"Q122947768","operator:wikidata":"Q122947768"},"coordinates":[43.275949,26.928042]},"tags_mismatch":false,"dist":0},{"osm":false,"atp":{"id":"Gwp-01k-YK2-cFhxxPRv_mX5PKs=","tags":{"amenity":"recycling","recycling:clothes":"yes","recycling:shoes":"yes","addr:full":"Паркинг, Градски, Шумен","addr:city":"Шумен","addr:country":"BG","brand":"M-texx","brand:wikidata":"Q122947768","operator:wikidata":"Q122947768"},"coordinates":[43.272288,26.938185]},"tags_mismatch":false,"dist":0},{"osm":false,"atp":{"id":"c4ku8dudrXbW0Lg2N8_4Exercr4=","tags":{"amenity":"recycling","recycling:clothes":"yes","recycling:shoes":"yes","addr:full":"ул. „Родопи“ 261, 9704 ж.к. Тракия, Шумен - 2 бр.","addr:city":"Шумен","addr:country":"BG","brand":"M-texx","brand:wikidata":"Q122947768","operator:wikidata":"Q122947768"},"coordinates":[43.275329,26.955108]},"tags_mismatch":false,"dist":0},{"osm":false,"atp":{"id":"j-qlWzqX4eNqqhjn6e5tqvMklOQ=","tags":{"amenity":"recycling","recycling:clothes":"yes","recycling:shoes":"yes","addr:full":"9704 ж.к. Тракия, ул. Дедеагач, Шумен","addr:city":"Шумен","addr:country":"BG","brand":"M-texx","brand:wikidata":"Q122947768","operator:wikidata":"Q122947768"},"coordinates":[43.272188,26.956588]},"tags_mismatch":false,"dist":0},{"osm":false,"atp":{"id":"NSJoArbgjghfvG_M3BcFhblBqq4=","tags":{"amenity":"recycling","recycling:clothes":"yes","recycling:shoes":"yes","addr:full":"ул. „Университетска“ 10, 9703 Шумен","addr:city":"Шумен","addr:country":"BG","brand":"M-texx","brand:wikidata":"Q122947768","operator:wikidata":"Q122947768"},"coordinates":[43.276745,26.937124]},"tags_mismatch":false,"dist":0},{"osm":false,"atp":{"id":"mz3VrS0578FHNXTRB8ExcQqZ7Js=","tags":{"amenity":"recycling","recycling:clothes":"yes","recycling:shoes":"yes","addr:full":"ул. „Съединение“, 9700 Шумен Център, Шумен - 2 бр","addr:city":"Шумен","addr:country":"BG","brand":"M-texx","brand:wikidata":"Q122947768","operator:wikidata":"Q122947768"},"coordinates":[43.269175,26.92651]},"tags_mismatch":false,"dist":0},{"osm":false,"atp":{"id":"MnRz8BIRGX9-0MGycrUujFWhMPI=","tags":{"amenity":"recycling","recycling:clothes":"yes","recycling:shoes":"yes","addr:full":"ул. „Преслав“ 28-40, 9701 Шумен Център, Шумен","addr:city":"Шумен","addr:country":"BG","brand":"M-texx","brand:wikidata":"Q122947768","operator:wikidata":"Q122947768"},"coordinates":[43.266292,26.936617]},"tags_mismatch":false,"dist":0},{"osm":false,"atp":{"id":"mF7yiZI0wYJV3JE7zWsw2el2iD8=","tags":{"amenity":"recycling","recycling:clothes":"yes","recycling:shoes":"yes","addr:full":"ул. „Каварна“, 9708 Добруджански, Шумен - 2 бр.","addr:city":"Шумен","addr:country":"BG","brand":"M-texx","brand:wikidata":"Q122947768","operator:wikidata":"Q122947768"},"coordinates":[43.266485,26.944257]},"tags_mismatch":false,"dist":0},{"osm":false,"atp":{"id":"Sa83vK92V3AxvRHbDEQkkEXDLOA=","tags":{"amenity":"recycling","recycling:clothes":"yes","recycling:shoes":"yes","addr:full":"бул. „Велики Преслав“ 142, 9706 Дивдядово, Шумен","addr:city":"Шумен","addr:country":"BG","brand":"M-texx","brand:wikidata":"Q122947768","operator:wikidata":"Q122947768"},"coordinates":[43.241054,26.927159]},"tags_mismatch":false,"dist":0},{"osm":false,"atp":{"id":"-gku5jTJx2YHBxi90VPBM8hj1nY=","tags":{"amenity":"recycling","recycling:clothes":"yes","recycling:shoes":"yes","addr:full":"ж.к. Диана 70-17, 8602 ж.к. Диана, Ямбол","addr:city":"Ямбол","addr:country":"BG","brand":"M-texx","brand:wikidata":"Q122947768","operator:wikidata":"Q122947768"},"coordinates":[42.470722,26.528381]},"tags_mismatch":false,"dist":0},{"osm":false,"atp":{"id":"WnwEXkms-7I4BWOYtE9kxBFLABw=","tags":{"amenity":"recycling","recycling:clothes":"yes","recycling:shoes":"yes","addr:full":"ул. „Доктор Кръстев“ 7, 8601 Каргон, Ямбол","addr:city":"Ямбол","addr:country":"BG","brand":"M-texx","brand:wikidata":"Q122947768","operator:wikidata":"Q122947768"},"coordinates":[42.476608,26.499763]},"tags_mismatch":false,"dist":0},{"osm":false,"atp":{"id":"aJUihtVx4ymm057FawwTihf11wg=","tags":{"amenity":"recycling","recycling:clothes":"yes","recycling:shoes":"yes","addr:full":"ул. „Дружба“ 5, 8600 Ямбол Център, Ямбол","addr:city":"Ямбол","addr:country":"BG","brand":"M-texx","brand:wikidata":"Q122947768","operator:wikidata":"Q122947768"},"coordinates":[42.482256,26.499042]},"tags_mismatch":false,"dist":0},{"osm":false,"atp":{"id":"9cy4Dzy4nO29sMxAhDznDODWQ28=","tags":{"amenity":"recycling","recycling:clothes":"yes","recycling:shoes":"yes","addr:full":"бул. „Граф Игнатиев“ 27, 8600 ж.к. Изток, Ямбол","addr:city":"Ямбол","addr:country":"BG","brand":"M-texx","brand:wikidata":"Q122947768","operator:wikidata":"Q122947768"},"coordinates":[42.479598,26.518539]},"tags_mismatch":false,"dist":0},{"osm":false,"atp":{"id":"DVzThM9ISbUa7ZWBou5HObv2NEw=","tags":{"amenity":"recycling","recycling:clothes":"yes","recycling:shoes":"yes","addr:full":"ул. „Цар Иван Шишман“, 8600 Ямбол Център, Ямбол","addr:city":"Ямбол","addr:country":"BG","brand":"M-texx","brand:wikidata":"Q122947768","operator:wikidata":"Q122947768"},"coordinates":[42.485673,26.507722]},"tags_mismatch":false,"dist":0},{"osm":false,"atp":{"id":"VZkS0PM0ULaNKequ5uHa43ny1yI=","tags":{"amenity":"recycling","recycling:clothes":"yes","recycling:shoes":"yes","addr:full":"Златен Рог 5А, 8606 ж.к. Златен рог, Ямбол","addr:city":"Ямбол","addr:country":"BG","brand":"M-texx","brand:wikidata":"Q122947768","operator:wikidata":"Q122947768"},"coordinates":[42.482941,26.489602]},"tags_mismatch":false,"dist":0}]}