{"metadata":{"type":"operator","wikidata":"Q85614408","name":"TexCycle","compare_keys":false},"data":[{"osm":{"type":"node","id":6373884048,"tags":{"amenity":"recycling","operator:wikidata":"Q85614408","recycling:clothes":"yes","recycling:shoes":"yes","recycling_type":"container"},"wikidata":"Q85614408","coordinates":[42.6696372,23.3040096]},"atp":{"id":"OlFasGRjaUZztUrQ7boLwzrUNTs=","tags":{"amenity":"recycling","recycling:clothes":"yes","recycling:shoes":"yes","addr:country":"BG","name":"ТРИАДИЦА – Южен парк, вход от ул. Нишава","brand":"TexCycle","brand:wikidata":"Q85614408","operator:wikidata":"Q85614408"},"coordinates":[42.669761,23.303832]},"dist":20.009,"tags_mismatch":true},{"osm":{"type":"node","id":7222282001,"tags":{"amenity":"recycling","operator:wikidata":"Q85614408","recycling:clothes":"yes","recycling:shoes":"yes","recycling_type":"container","website":"https://texcycle.bg/"},"wikidata":"Q85614408","coordinates":[42.6464677,23.2672104]},"atp":{"id":"qMzXPo-e8t3LiXFoDoKhaUC_dbg=","tags":{"amenity":"recycling","recycling:clothes":"yes","recycling:shoes":"yes","addr:country":"BG","name":"ВИТОША – кв. Бояна, спирката до Боянско ханче","brand":"TexCycle","brand:wikidata":"Q85614408","operator:wikidata":"Q85614408"},"coordinates":[42.64649,23.267196]},"dist":2.745,"tags_mismatch":true},{"osm":{"type":"node","id":7227339349,"tags":{"amenity":"recycling","operator:wikidata":"Q85614408","recycling:clothes":"yes","recycling:shoes":"yes","recycling_type":"container","website":"https://texcycle.bg/"},"wikidata":"Q85614408","coordinates":[42.6894214,23.3328253]},"atp":{"id":"ojEWk6_BChPsCUo8iJhzWTrrZEk=","tags":{"amenity":"recycling","recycling:clothes":"yes","recycling:shoes":"yes","addr:country":"BG","name":"СРЕДЕЦ – ул. Ген. Гурко 62, от страната на парка, срещу ул. Любен Каравелов","brand":"TexCycle","brand:wikidata":"Q85614408","operator:wikidata":"Q85614408"},"coordinates":[42.68939,23.33284]},"dist":3.692,"tags_mismatch":true},{"osm":{"type":"node","id":8220596880,"tags":{"amenity":"recycling","count":"2","operator:wikidata":"Q85614408","recycling:clothes":"yes","recycling:shoes":"yes","recycling_type":"container"},"wikidata":"Q85614408","coordinates":[42.6753784,23.3583481]},"atp":{"id":"_vcx9mbfvnGQ604-wEQZiinuMdI=","tags":{"amenity":"recycling","recycling:clothes":"yes","recycling:shoes":"yes","addr:country":"BG","name":"ИЗГРЕВ – ж.к. Изгрев, бул. Цариградско шосе, вляво от Билла на ул. Фредерик Жолио Кюри","brand":"TexCycle","brand:wikidata":"Q85614408","operator:wikidata":"Q85614408"},"coordinates":[42.67534,23.358419]},"dist":7.199,"tags_mismatch":true},{"osm":{"type":"node","id":8252048816,"tags":{"amenity":"recycling","location":"overground","operator:wikidata":"Q85614408","recycling:clothes":"yes","recycling:shoes":"yes","recycling_type":"container"},"wikidata":"Q85614408","coordinates":[42.6746041,23.3337823]},"atp":{"id":"Scr9nts6TMm-hCdRQDdrxP6Ox3s=","tags":{"amenity":"recycling","recycling:clothes":"yes","recycling:shoes":"yes","addr:country":"BG","name":"ЛОЗЕНЕЦ – ул. Златовръх срещу №1","brand":"TexCycle","brand:wikidata":"Q85614408","operator:wikidata":"Q85614408"},"coordinates":[42.674645,23.334]},"dist":18.369,"tags_mismatch":true},{"osm":{"type":"node","id":8710187172,"tags":{"amenity":"recycling","covered":"no","indoor":"no","material":"metal","operator:wikidata":"Q85614408","recycling:cans":"no","recycling:cardboard":"no","recycling:clothes":"yes","recycling:glass":"no","recycling:glass_bottles":"no","recycling:paper":"no","recycling:plastic":"no","recycling:plastic_bottles":"no","recycling:plastic_packaging":"no","recycling:shoes":"yes","recycling_type":"container"},"wikidata":"Q85614408","coordinates":[42.7034071,23.3088]},"atp":{"id":"PVbqvqUcXB0SMDiJzcpJjzut85g=","tags":{"amenity":"recycling","recycling:clothes":"yes","recycling:shoes":"yes","addr:country":"BG","name":"ВЪЗРАЖДАНЕ – ул. Цар Симеон, пред ДКЦ 11","brand":"TexCycle","brand:wikidata":"Q85614408","operator:wikidata":"Q85614408"},"coordinates":[42.703421,23.308854]},"dist":4.675,"tags_mismatch":true},{"osm":{"type":"node","id":9831451617,"tags":{"amenity":"recycling","operator:wikidata":"Q85614408","recycling:clothes":"yes","recycling:shoes":"yes","recycling:textiles":"yes","recycling_type":"container"},"wikidata":"Q85614408","coordinates":[42.6714505,23.2833437]},"atp":{"id":"ixThNeRw7c-IK1YpA7X2yCak4pE=","tags":{"amenity":"recycling","recycling:clothes":"yes","recycling:shoes":"yes","addr:country":"BG","name":"КРАСНО СЕЛО – ж.к. Борово, бул. Ген. Стефан Тошев, пред бл. 223, вх.А","brand":"TexCycle","brand:wikidata":"Q85614408","operator:wikidata":"Q85614408"},"coordinates":[42.671354,23.28328]},"dist":11.927,"tags_mismatch":true},{"osm":{"type":"node","id":10034961044,"tags":{"amenity":"recycling","operator:wikidata":"Q85614408","recycling:clothes":"yes","recycling:shoes":"yes","recycling_type":"container"},"wikidata":"Q85614408","coordinates":[43.2225373,27.9422416]},"atp":{"id":"H52uU2ejjjLeJivoHv0y0NszyWo=","tags":{"amenity":"recycling","recycling:clothes":"yes","recycling:shoes":"yes","addr:country":"BG","name":"Бриз, ул. Д-р Петър Скорчев, след кръговото на Кауфланд","brand":"TexCycle","brand:wikidata":"Q85614408","operator:wikidata":"Q85614408"},"coordinates":[43.222549,27.942318]},"dist":6.326,"tags_mismatch":true},{"osm":{"type":"node","id":10155525512,"tags":{"amenity":"recycling","count":"2","operator:wikidata":"Q85614408","recycling:clothes":"yes","recycling:shoes":"yes","recycling_type":"container"},"wikidata":"Q85614408","coordinates":[42.6801826,23.2967207]},"atp":{"id":"cYtxdqy0mBhgT6KbW4w2ifumUDY=","tags":{"amenity":"recycling","recycling:clothes":"yes","recycling:shoes":"yes","addr:country":"BG","name":"КРАСНО СЕЛО – ж.к. Хиподрума, ъгъла на ул. Урвич и ул. Булаир","brand":"TexCycle","brand:wikidata":"Q85614408","operator:wikidata":"Q85614408"},"coordinates":[42.680023,23.296743]},"dist":17.84,"tags_mismatch":true},{"osm":{"type":"node","id":10171895495,"tags":{"amenity":"recycling","operator:wikidata":"Q85614408","recycling:clothes":"yes","recycling:shoes":"yes","recycling_type":"container"},"wikidata":"Q85614408","coordinates":[42.6618365,23.2956366]},"atp":{"id":"FcKRL10da6T6SFsqGTLnLAfp9D8=","tags":{"amenity":"recycling","recycling:clothes":"yes","recycling:shoes":"yes","addr:country":"BG","name":"ТРИАДИЦА – ул. Костенски водопад до бл. 247","brand":"TexCycle","brand:wikidata":"Q85614408","operator:wikidata":"Q85614408"},"coordinates":[42.66181,23.29561]},"dist":3.662,"tags_mismatch":true},{"osm":{"type":"node","id":10171895497,"tags":{"amenity":"recycling","operator:wikidata":"Q85614408","recycling:clothes":"yes","recycling:shoes":"yes","recycling_type":"container"},"wikidata":"Q85614408","coordinates":[42.6763796,23.303123]},"atp":{"id":"nm-ms8fWAu3If-vxThvujl8-HTE=","tags":{"amenity":"recycling","recycling:clothes":"yes","recycling:shoes":"yes","addr:country":"BG","name":"ТРИАДИЦА – бул. Петко Ю. Тодоров, подлез срещу пазар Иван Вазов","brand":"TexCycle","brand:wikidata":"Q85614408","operator:wikidata":"Q85614408"},"coordinates":[42.676331,23.303142]},"dist":5.623,"tags_mismatch":true},{"osm":{"type":"node","id":10171952281,"tags":{"amenity":"recycling","location":"overground","operator:wikidata":"Q85614408","recycling:clothes":"yes","recycling:shoes":"yes","recycling_type":"container"},"wikidata":"Q85614408","coordinates":[42.6600537,23.3476469]},"atp":{"id":"_dwj2BU7m5GWExyCg7v_0ltRAwQ=","tags":{"amenity":"recycling","recycling:clothes":"yes","recycling:shoes":"yes","addr:country":"BG","name":"ИЗГРЕВ – Дианабад – кръстовището на бул. Г.М.Димитров и ул. Никола Габровски, до бензиностанция Шел","brand":"TexCycle","brand:wikidata":"Q85614408","operator:wikidata":"Q85614408"},"coordinates":[42.660042,23.347566]},"dist":6.742,"tags_mismatch":true},{"osm":{"type":"node","id":10171990390,"tags":{"amenity":"recycling","location":"overground","operator:wikidata":"Q85614408","recycling:clothes":"yes","recycling:shoes":"yes","recycling_type":"container"},"wikidata":"Q85614408","coordinates":[42.6123302,23.3391426]},"atp":{"id":"NyYBHXZnSnAR1eQomWrlWciUbCk=","tags":{"amenity":"recycling","recycling:clothes":"yes","recycling:shoes":"yes","addr:country":"BG","name":"ВИТОША – бул. Симеоновско шосе, до спирката","brand":"TexCycle","brand:wikidata":"Q85614408","operator:wikidata":"Q85614408"},"coordinates":[42.612267,23.339092]},"dist":8.157,"tags_mismatch":true},{"osm":{"type":"node","id":10200190546,"tags":{"amenity":"recycling","operator:wikidata":"Q85614408","recycling:clothes":"yes","recycling:shoes":"yes","recycling_type":"container"},"wikidata":"Q85614408","coordinates":[42.6876151,23.3114795]},"atp":{"id":"02s_Oh45mfx721C20YJnzyvZI7o=","tags":{"amenity":"recycling","recycling:clothes":"yes","recycling:shoes":"yes","addr:country":"BG","name":"ТРИАДИЦА – бул. Прага, до плувен басейн Мадара","brand":"TexCycle","brand:wikidata":"Q85614408","operator:wikidata":"Q85614408"},"coordinates":[42.687672,23.31145]},"dist":6.771,"tags_mismatch":true},{"osm":{"type":"node","id":10215722434,"tags":{"amenity":"recycling","location":"overground","operator:wikidata":"Q85614408","recycling:clothes":"yes","recycling:shoes":"yes","recycling_type":"container"},"wikidata":"Q85614408","coordinates":[42.6791677,23.321896]},"atp":{"id":"wiAPghfb0rYYa3OUltde7iwMQDI=","tags":{"amenity":"recycling","recycling:clothes":"yes","recycling:shoes":"yes","addr:country":"BG","name":"ЛОЗЕНЕЦ – бул. Черни връх, метростанция Европейски съюз, посока НДК","brand":"TexCycle","brand:wikidata":"Q85614408","operator:wikidata":"Q85614408"},"coordinates":[42.679196,23.32189]},"dist":3.185,"tags_mismatch":true},{"osm":{"type":"node","id":10228889101,"tags":{"amenity":"recycling","operator:wikidata":"Q85614408","recycling:clothes":"yes","recycling:shoes":"yes","recycling_type":"container"},"wikidata":"Q85614408","coordinates":[42.6290283,23.3094382]},"atp":{"id":"n1SyS59ZHSq8_6t15j0TCTB6KFY=","tags":{"amenity":"recycling","recycling:clothes":"yes","recycling:shoes":"yes","addr:country":"BG","name":"ВИТОША – кв. Драгалевци, спирка кв. Драгалевци","brand":"TexCycle","brand:wikidata":"Q85614408","operator:wikidata":"Q85614408"},"coordinates":[42.629083,23.309487]},"dist":7.276,"tags_mismatch":true},{"osm":{"type":"node","id":10248611620,"tags":{"amenity":"recycling","location":"overground","operator:wikidata":"Q85614408","recycling:clothes":"yes","recycling:shoes":"yes","recycling_type":"container"},"wikidata":"Q85614408","coordinates":[42.6602661,23.318049]},"atp":{"id":"wmAntUl7KWt-BQAITvkcV742lKs=","tags":{"amenity":"recycling","recycling:clothes":"yes","recycling:shoes":"yes","addr:country":"BG","name":"ЛОЗЕНЕЦ – ж.к. Хладилника, пазар Сребърна","brand":"TexCycle","brand:wikidata":"Q85614408","operator:wikidata":"Q85614408"},"coordinates":[42.660363,23.318103]},"dist":11.644,"tags_mismatch":true},{"osm":{"type":"node","id":10253386079,"tags":{"amenity":"recycling","count":"2","operator:wikidata":"Q85614408","recycling:clothes":"yes","recycling:shoes":"yes","recycling_type":"container"},"wikidata":"Q85614408","coordinates":[42.6663446,23.3004649]},"atp":{"id":"fKiUzimUbizPpIeE1Aqy2Sl1CCA=","tags":{"amenity":"recycling","recycling:clothes":"yes","recycling:shoes":"yes","addr:country":"BG","name":"ТРИАДИЦА – ж.к. Гоце Делчев, кръстовището на ул. Костенски водопад с бул. Гоце Делчев, до бл.102","brand":"TexCycle","brand:wikidata":"Q85614408","operator:wikidata":"Q85614408"},"coordinates":[42.666423,23.300544]},"dist":10.855,"tags_mismatch":true},{"osm":{"type":"node","id":10265991862,"tags":{"amenity":"recycling","operator:wikidata":"Q85614408","recycling:clothes":"yes","recycling:shoes":"yes","recycling_type":"container"},"wikidata":"Q85614408","coordinates":[42.6777746,23.36028]},"atp":{"id":"4_oUf0gv9PhczKqDLeElZijfHxk=","tags":{"amenity":"recycling","recycling:clothes":"yes","recycling:shoes":"yes","addr:country":"BG","name":"СЛАТИНА – ул. Николай Коперник, пред 22 ДКЦ","brand":"TexCycle","brand:wikidata":"Q85614408","operator:wikidata":"Q85614408"},"coordinates":[42.67774,23.360347]},"dist":6.693,"tags_mismatch":true},{"osm":{"type":"node","id":10273939934,"tags":{"amenity":"recycling","location":"overground","operator:wikidata":"Q85614408","recycling:clothes":"yes","recycling:shoes":"yes","recycling_type":"container"},"wikidata":"Q85614408","coordinates":[42.6725126,23.2939356]},"atp":{"id":"vJPA49WFn1ecHugpp5CZTYATha8=","tags":{"amenity":"recycling","recycling:clothes":"yes","recycling:shoes":"yes","addr:country":"BG","name":"ТРИАДИЦА – кръстовището на бул. Гоце Делчев с бул. България, до пешеходния подлез","brand":"TexCycle","brand:wikidata":"Q85614408","operator:wikidata":"Q85614408"},"coordinates":[42.672434,23.293976]},"dist":9.343,"tags_mismatch":true},{"osm":{"type":"node","id":10312663667,"tags":{"amenity":"recycling","operator:wikidata":"Q85614408","recycling:clothes":"yes","recycling:shoes":"yes","recycling_type":"container"},"wikidata":"Q85614408","coordinates":[42.6752483,23.2935083]},"atp":{"id":"o0JXlj-TwqhPweL5jzpV7k_8jJ0=","tags":{"amenity":"recycling","recycling:clothes":"yes","recycling:shoes":"yes","addr:country":"BG","name":"КРАСНО СЕЛО – ж.к. Белите брези, ул. Лерин – срещу ДГ Брезичка","brand":"TexCycle","brand:wikidata":"Q85614408","operator:wikidata":"Q85614408"},"coordinates":[42.675249,23.293521]},"dist":1.041,"tags_mismatch":true},{"osm":{"type":"node","id":10683707971,"tags":{"amenity":"recycling","operator:wikidata":"Q85614408","recycling:clothes":"yes","recycling:shoes":"yes","recycling_type":"container"},"wikidata":"Q85614408","coordinates":[42.6550383,23.3811853]},"atp":{"id":"QMSrQyG4TV7sC-6myIEii5JH9g8=","tags":{"amenity":"recycling","recycling:clothes":"yes","recycling:shoes":"yes","addr:country":"BG","name":"МЛАДОСТ – кв. Младост 1, ул. Никола Генадиев, до трафопоста до 125 СУ „Боян Пенев“","brand":"TexCycle","brand:wikidata":"Q85614408","operator:wikidata":"Q85614408"},"coordinates":[42.653169,23.37814]},"dist":324.386,"tags_mismatch":true},{"osm":{"type":"node","id":10844468457,"tags":{"amenity":"recycling","operator:wikidata":"Q85614408","recycling:clothes":"yes","recycling:shoes":"yes","recycling_type":"container"},"wikidata":"Q85614408","coordinates":[42.6694188,23.2977996]},"atp":{"id":"e0ULwIpTx5l2spThzkxHTVM3210=","tags":{"amenity":"recycling","recycling:clothes":"yes","recycling:shoes":"yes","addr:country":"BG","name":"ТРИАДИЦА – кв. Стрелбище – ъгъла на ул. Орехова гора с бул. Гоце Делчев, до ТОТО пункта","brand":"TexCycle","brand:wikidata":"Q85614408","operator:wikidata":"Q85614408"},"coordinates":[42.669355,23.297802]},"dist":7.097,"tags_mismatch":true},{"osm":{"type":"node","id":10852912477,"tags":{"amenity":"recycling","operator:wikidata":"Q85614408","recycling:clothes":"yes","recycling:shoes":"yes","recycling_type":"container"},"wikidata":"Q85614408","coordinates":[42.9217516,22.9305403]},"atp":{"id":"yQIzNQcA2-3VGnQLT2obEuYgDqg=","tags":{"amenity":"recycling","recycling:clothes":"yes","recycling:shoes":"yes","addr:country":"BG","name":"ул. Захари Стоянов 26, пред Общината","brand":"TexCycle","brand:wikidata":"Q85614408","operator:wikidata":"Q85614408"},"coordinates":[42.921712,22.930317]},"dist":18.708,"tags_mismatch":true},{"osm":{"type":"node","id":10870927847,"tags":{"amenity":"recycling","operator:wikidata":"Q85614408","recycling:clothes":"yes","recycling:shoes":"yes","recycling_type":"container"},"wikidata":"Q85614408","coordinates":[42.6598769,23.2991196]},"atp":{"id":"9cfcABsywOzAtsNE9fw2pJBnOmY=","tags":{"amenity":"recycling","recycling:clothes":"yes","recycling:shoes":"yes","addr:country":"BG","name":"ТРИАДИЦА – кръстовището на бул. Тодор Каблешков с ул. Деян Белишки","brand":"TexCycle","brand:wikidata":"Q85614408","operator:wikidata":"Q85614408"},"coordinates":[42.659848,23.298994]},"dist":10.762,"tags_mismatch":true},{"osm":{"type":"node","id":10873966562,"tags":{"amenity":"recycling","operator:wikidata":"Q85614408","recycling:clothes":"yes","recycling:shoes":"yes","recycling_type":"container"},"wikidata":"Q85614408","coordinates":[42.6657864,23.2875214]},"atp":{"id":"rJlMnxLl8u5SJOL59YL0XSyFCRY=","tags":{"amenity":"recycling","recycling:clothes":"yes","recycling:shoes":"yes","addr:country":"BG","name":"КРАСНО СЕЛО – бул. Тодор Каблешков, подход към пешеходен подлез","brand":"TexCycle","brand:wikidata":"Q85614408","operator:wikidata":"Q85614408"},"coordinates":[42.665868,23.287454]},"dist":10.616,"tags_mismatch":true},{"osm":{"type":"node","id":10892003079,"tags":{"amenity":"recycling","operator:wikidata":"Q85614408","recycling:clothes":"yes","recycling:shoes":"yes","recycling_type":"container"},"wikidata":"Q85614408","coordinates":[42.6825369,23.2930917]},"atp":{"id":"J4VHxIPuLSdZDQP7NG5_6u3NSa4=","tags":{"amenity":"recycling","recycling:clothes":"yes","recycling:shoes":"yes","addr:country":"BG","name":"КРАСНО СЕЛО – ж.к. Хиподрума, ул. Булаир, алея към ОКИ Красно село","brand":"TexCycle","brand:wikidata":"Q85614408","operator:wikidata":"Q85614408"},"coordinates":[42.682437,23.293118]},"dist":11.314,"tags_mismatch":true},{"osm":{"type":"node","id":10921015340,"tags":{"amenity":"recycling","operator:wikidata":"Q85614408","recycling:clothes":"yes","recycling:shoes":"yes","recycling_type":"container"},"wikidata":"Q85614408","coordinates":[42.7001688,23.2982127]},"atp":{"id":"inSk1vCFDSXZMct0pdCYHg9IzZE=","tags":{"amenity":"recycling","recycling:clothes":"yes","recycling:shoes":"yes","addr:country":"BG","name":"ВЪЗРАЖДАНЕ – кръстовището на ул. Зайчар с бул. Ал. Стамболийски, пред Национален дворец на децата","brand":"TexCycle","brand:wikidata":"Q85614408","operator:wikidata":"Q85614408"},"coordinates":[42.700312,23.298797]},"dist":50.333,"tags_mismatch":true},{"osm":{"type":"node","id":10931274078,"tags":{"amenity":"recycling","operator:wikidata":"Q85614408","recycling:clothes":"yes","recycling:shoes":"yes","recycling_type":"container"},"wikidata":"Q85614408","coordinates":[42.6655424,23.293683]},"atp":{"id":"QN8p51eaM4ZCzRXDsMML2tTTMgc=","tags":{"amenity":"recycling","recycling:clothes":"yes","recycling:shoes":"yes","addr:country":"BG","name":"ТРИАДИЦА – ж.к. Мотописта, до 121 СУ „Георги Измерлиев“","brand":"TexCycle","brand:wikidata":"Q85614408","operator:wikidata":"Q85614408"},"coordinates":[42.665504,23.29369]},"dist":4.308,"tags_mismatch":true},{"osm":{"type":"node","id":10932537014,"tags":{"amenity":"recycling","operator:wikidata":"Q85614408","recycling:clothes":"yes","recycling:shoes":"yes","recycling_type":"container"},"wikidata":"Q85614408","coordinates":[42.6723609,23.2918163]},"atp":{"id":"ic9eq50zSbhg0lxwixUvjjRxy-I=","tags":{"amenity":"recycling","recycling:clothes":"yes","recycling:shoes":"yes","addr:country":"BG","name":"КРАСНО СЕЛО – ж.к. Борово, ул. Солун 25, пред бл. 34","brand":"TexCycle","brand:wikidata":"Q85614408","operator:wikidata":"Q85614408"},"coordinates":[42.672433,23.291899]},"dist":10.488,"tags_mismatch":true},{"osm":{"type":"node","id":10932537026,"tags":{"amenity":"recycling","operator:wikidata":"Q85614408","recycling:clothes":"yes","recycling:shoes":"yes","recycling_type":"container"},"wikidata":"Q85614408","coordinates":[42.6685088,23.2867925]},"atp":{"id":"CJuQzJXgDGqbEBhNopCvljIDw20=","tags":{"amenity":"recycling","recycling:clothes":"yes","recycling:shoes":"yes","addr:country":"BG","name":"КРАСНО СЕЛО – ж.к. Борово, ъгъла на ул. Солун с ул. Невестина скала, пред бл. 13 А, вх. А","brand":"TexCycle","brand:wikidata":"Q85614408","operator:wikidata":"Q85614408"},"coordinates":[42.668527,23.286933]},"dist":11.664,"tags_mismatch":true},{"osm":{"type":"node","id":10942396373,"tags":{"amenity":"recycling","operator:wikidata":"Q85614408","recycling:clothes":"yes","recycling:shoes":"yes","recycling_type":"container"},"wikidata":"Q85614408","coordinates":[42.6623209,23.3976773]},"atp":{"id":"K6Y04fl-v7ymaYdHkrycRXwD6ro=","tags":{"amenity":"recycling","recycling:clothes":"yes","recycling:shoes":"yes","addr:country":"BG","name":"ИСКЪР – бул. Кръстьо Пастухов, ъгъла с ул. Тирана, на входа на Парк Езерото","brand":"TexCycle","brand:wikidata":"Q85614408","operator:wikidata":"Q85614408"},"coordinates":[42.662207,23.397442]},"dist":23.034,"tags_mismatch":true},{"osm":{"type":"node","id":11034611812,"tags":{"amenity":"recycling","operator:wikidata":"Q85614408","recycling:clothes":"yes","recycling:shoes":"yes","recycling_type":"container"},"wikidata":"Q85614408","coordinates":[42.668885,23.2751176]},"atp":{"id":"EkXWQmNe8ikGFWU2XsNFl1vaGzc=","tags":{"amenity":"recycling","recycling:clothes":"yes","recycling:shoes":"yes","addr:country":"BG","name":"ВИТОША – ж.к. Павлово, ул. Ген.Александър Суворов, до бл.11","brand":"TexCycle","brand:wikidata":"Q85614408","operator:wikidata":"Q85614408"},"coordinates":[42.668931,23.274994]},"dist":11.326,"tags_mismatch":true},{"osm":{"type":"node","id":11139567186,"tags":{"amenity":"recycling","operator:wikidata":"Q85614408","recycling:clothes":"yes","recycling:shoes":"yes","recycling_type":"container"},"wikidata":"Q85614408","coordinates":[42.6587855,23.2407246]},"atp":{"id":"Hk6KMHkeAQ8hechN-dDoHolgaX4=","tags":{"amenity":"recycling","recycling:clothes":"yes","recycling:shoes":"yes","addr:country":"BG","name":"ВИТОША – бул. Цар Борис III, обръщалото на автобус №58","brand":"TexCycle","brand:wikidata":"Q85614408","operator:wikidata":"Q85614408"},"coordinates":[42.658829,23.240721]},"dist":4.846,"tags_mismatch":true},{"osm":{"type":"node","id":11247603030,"tags":{"amenity":"recycling","operator:wikidata":"Q85614408","recycling:clothes":"yes","recycling:shoes":"yes"},"wikidata":"Q85614408","coordinates":[42.6851413,23.2956528]},"atp":{"id":"Df0msH2oeRVZBYj2pF4FFxZ2qZ0=","tags":{"amenity":"recycling","recycling:clothes":"yes","recycling:shoes":"yes","addr:country":"BG","name":"КРАСНО СЕЛО – ул. Боговец, до Районен Съд","brand":"TexCycle","brand:wikidata":"Q85614408","operator:wikidata":"Q85614408"},"coordinates":[42.685236,23.295664]},"dist":10.57,"tags_mismatch":true},{"osm":{"type":"node","id":11255770764,"tags":{"amenity":"recycling","operator:wikidata":"Q85614408","recycling:clothes":"yes","recycling:shoes":"yes","recycling_type":"container"},"wikidata":"Q85614408","coordinates":[42.7020621,23.35489]},"atp":{"id":"pBEoznHfwccxIm70JiFlu_k6iqM=","tags":{"amenity":"recycling","recycling:clothes":"yes","recycling:shoes":"yes","addr:country":"BG","name":"ПОДУЯНЕ – ул. Тодорини кукли, спирката до ДМ","brand":"TexCycle","brand:wikidata":"Q85614408","operator:wikidata":"Q85614408"},"coordinates":[42.702086,23.354842]},"dist":4.738,"tags_mismatch":true},{"osm":{"type":"node","id":11255827345,"tags":{"amenity":"recycling","operator:wikidata":"Q85614408","recycling:clothes":"yes","recycling:shoes":"yes","recycling_type":"container"},"wikidata":"Q85614408","coordinates":[42.7020273,23.3590583]},"atp":{"id":"WPVEkn3nJ3BQ-EIREfA61ilN_fI=","tags":{"amenity":"recycling","recycling:clothes":"yes","recycling:shoes":"yes","addr:country":"BG","name":"ПОДУЯНЕ – ж.к. Сухата река, ул. Тодорини кукли, срещу Била","brand":"TexCycle","brand:wikidata":"Q85614408","operator:wikidata":"Q85614408"},"coordinates":[42.702082,23.359135]},"dist":8.734,"tags_mismatch":true},{"osm":{"type":"node","id":11373412754,"tags":{"amenity":"recycling","operator:wikidata":"Q85614408","recycling:clothes":"yes","recycling:shoes":"yes","recycling_type":"container"},"wikidata":"Q85614408","coordinates":[42.6825457,23.3256445]},"atp":{"id":"JXtg0oZ36DE4x_pmR95Ck_RJrjg=","tags":{"amenity":"recycling","recycling:clothes":"yes","recycling:shoes":"yes","addr:country":"BG","name":"ЛОЗЕНЕЦ – пл. проф. Васил Геров","brand":"TexCycle","brand:wikidata":"Q85614408","operator:wikidata":"Q85614408"},"coordinates":[42.682364,23.325706]},"dist":20.82,"tags_mismatch":true},{"osm":{"type":"node","id":11420102678,"tags":{"amenity":"recycling","location":"overground","operator:wikidata":"Q85614408","recycling:clothes":"yes","recycling:shoes":"yes","recycling_type":"container"},"wikidata":"Q85614408","coordinates":[42.6854386,23.3305911]},"atp":{"id":"IjFjmAB77jmAmqIoj0IrGAp2rQw=","tags":{"amenity":"recycling","recycling:clothes":"yes","recycling:shoes":"yes","addr:country":"BG","name":"ЛОЗЕНЕЦ – бул. Хр. Смирненски 2","brand":"TexCycle","brand:wikidata":"Q85614408","operator:wikidata":"Q85614408"},"coordinates":[42.685309,23.330577]},"dist":14.457,"tags_mismatch":true},{"osm":{"type":"node","id":11532108067,"tags":{"amenity":"recycling","operator:wikidata":"Q85614408","recycling:clothes":"yes","recycling:shoes":"yes","recycling_type":"container"},"wikidata":"Q85614408","coordinates":[42.6657014,23.2849444]},"atp":{"id":"P5WCakcM9mR3JTWQu052-ukIHP4=","tags":{"amenity":"recycling","recycling:clothes":"yes","recycling:shoes":"yes","addr:country":"BG","name":"ВИТОША – кв. Манастирски ливади, ул. Казбек 59А","brand":"TexCycle","brand:wikidata":"Q85614408","operator:wikidata":"Q85614408"},"coordinates":[42.665696,23.284945]},"dist":0.602,"tags_mismatch":true},{"osm":{"type":"node","id":11573528833,"tags":{"amenity":"recycling","operator:wikidata":"Q85614408","recycling:bags":"yes","recycling:clothes":"yes","recycling:shoes":"yes","recycling_type":"container"},"wikidata":"Q85614408","coordinates":[42.6592427,23.2729019]},"atp":{"id":"oJSKjX-zHiAwHEoD7_JBdzWVbRk=","tags":{"amenity":"recycling","recycling:clothes":"yes","recycling:shoes":"yes","addr:country":"BG","name":"ВИТОША – кв. Манастирски ливади, обръщача на ТБ2 – спирката","brand":"TexCycle","brand:wikidata":"Q85614408","operator:wikidata":"Q85614408"},"coordinates":[42.659218,23.272876]},"dist":3.468,"tags_mismatch":true},{"osm":{"type":"node","id":11704051869,"tags":{"amenity":"recycling","operator:wikidata":"Q85614408","recycling:clothes":"yes","recycling:shoes":"yes","recycling_type":"container"},"wikidata":"Q85614408","coordinates":[42.5769182,23.4142914]},"atp":{"id":"Lk4CKa_cd1m8Kuyjj1vk5D5YPHk=","tags":{"amenity":"recycling","recycling:clothes":"yes","recycling:shoes":"yes","addr:country":"BG","name":"СРЕДЕЦ – ул. Калоян 5","brand":"TexCycle","brand:wikidata":"Q85614408","operator:wikidata":"Q85614408"},"coordinates":[42.69543,23.322409]},"tags_mismatch":true},{"osm":{"type":"node","id":11742072073,"tags":{"amenity":"recycling","operator:wikidata":"Q85614408","recycling:clothes":"yes","recycling:shoes":"yes","recycling_type":"container"},"wikidata":"Q85614408","coordinates":[42.6679124,23.2687878]},"atp":{"id":"F96nkpgJfzWgPUuH4hjlmmUFW4Y=","tags":{"amenity":"recycling","recycling:clothes":"yes","recycling:shoes":"yes","addr:country":"BG","name":"ВИТОША – ъгъла на ул. Белмекен с ул. Мусала, пред 55 ДЯ","brand":"TexCycle","brand:wikidata":"Q85614408","operator:wikidata":"Q85614408"},"coordinates":[42.667903,23.268514]},"dist":22.411,"tags_mismatch":true},{"osm":{"type":"node","id":11746027554,"tags":{"amenity":"recycling","operator:wikidata":"Q85614408","recycling:clothes":"yes","recycling:shoes":"yes","recycling_type":"container"},"wikidata":"Q85614408","coordinates":[42.671262,23.2770541]},"atp":{"id":"Hd6PvF7u2oKShK3fHHt4eDrf-rk=","tags":{"amenity":"recycling","recycling:clothes":"yes","recycling:shoes":"yes","addr:country":"BG","name":"КРАСНО СЕЛО – ж.к. Бъкстон, бул. Братя Бъкстон до бл. 5","brand":"TexCycle","brand:wikidata":"Q85614408","operator:wikidata":"Q85614408"},"coordinates":[42.671217,23.277078]},"dist":5.372,"tags_mismatch":true},{"osm":{"type":"node","id":11766969617,"tags":{"amenity":"recycling","operator:wikidata":"Q85614408","recycling:clothes":"yes","recycling:shoes":"yes","recycling_type":"container"},"wikidata":"Q85614408","coordinates":[42.681102,23.286299]},"atp":{"id":"3V5XvT82LkLQUkPnNl3soYYvA_o=","tags":{"amenity":"recycling","recycling:clothes":"yes","recycling:shoes":"yes","addr:country":"BG","name":"КРАСНА ПОЛЯНА – ж.к. Лагера, ул. Балчик, до 25 ОУ","brand":"TexCycle","brand:wikidata":"Q85614408","operator:wikidata":"Q85614408"},"coordinates":[42.681133,23.286334]},"dist":4.48,"tags_mismatch":true},{"osm":{"type":"node","id":12048889229,"tags":{"amenity":"recycling","operator:wikidata":"Q85614408","recycling:clothes":"yes","recycling:shoes":"yes","recycling_type":"container"},"wikidata":"Q85614408","coordinates":[42.6778929,23.321229]},"atp":{"id":"W6SDBtSgWOWNpgKpL4a7MKye9Cs=","tags":{"amenity":"recycling","recycling:clothes":"yes","recycling:shoes":"yes","addr:country":"BG","name":"ЛОЗЕНЕЦ – пл. Хелзинки, ул. Димитър Хаджикоцев","brand":"TexCycle","brand:wikidata":"Q85614408","operator:wikidata":"Q85614408"},"coordinates":[42.677212,23.320387]},"dist":102.324,"tags_mismatch":true},{"osm":{"type":"node","id":12100640485,"tags":{"amenity":"recycling","count":"2","operator:wikidata":"Q85614408","recycling:clothes":"yes","recycling:shoes":"yes","recycling_type":"container"},"wikidata":"Q85614408","coordinates":[42.7150641,23.2672223]},"atp":{"id":"aTLZU94k_dbSgWQpZ2zdim91Xhk=","tags":{"amenity":"recycling","recycling:clothes":"yes","recycling:shoes":"yes","addr:country":"BG","name":"ЛЮЛИН – Люлин 10, бул. Луи Пастьор, до бл. 101","brand":"TexCycle","brand:wikidata":"Q85614408","operator:wikidata":"Q85614408"},"coordinates":[42.715067,23.267211]},"dist":0.978,"tags_mismatch":true},{"osm":{"type":"node","id":12101361950,"tags":{"amenity":"recycling","operator:wikidata":"Q85614408","recycling:clothes":"yes","recycling:shoes":"yes"},"wikidata":"Q85614408","coordinates":[42.5864494,23.3604068]},"atp":{"id":"aRt3qxULBwuCu8nEmFAJPSGv1ps=","tags":{"amenity":"recycling","recycling:clothes":"yes","recycling:shoes":"yes","addr:country":"BG","name":"ПАНЧАРЕВО – с. Бистрица, площада","brand":"TexCycle","brand:wikidata":"Q85614408","operator:wikidata":"Q85614408"},"coordinates":[42.586447,23.360402]},"dist":0.475,"tags_mismatch":true},{"osm":{"type":"node","id":12126034535,"tags":{"amenity":"recycling","location":"overground","operator:wikidata":"Q85614408","recycling:clothes":"yes","recycling:shoes":"yes","recycling_type":"container"},"wikidata":"Q85614408","coordinates":[42.6736236,23.2996271]},"atp":{"id":"Gqsad1W8T0_ZZ3B7tO0MOBv-m7s=","tags":{"amenity":"recycling","recycling:clothes":"yes","recycling:shoes":"yes","addr:country":"BG","name":"ТРИАДИЦА – кв. Стрелбище – ул. Тулча, до читалище „Светлина 1940“","brand":"TexCycle","brand:wikidata":"Q85614408","operator:wikidata":"Q85614408"},"coordinates":[42.67365,23.29953]},"dist":8.464,"tags_mismatch":true},{"osm":{"type":"node","id":12155259636,"tags":{"amenity":"recycling","operator:wikidata":"Q85614408","recycling:clothes":"yes","recycling:shoes":"yes","recycling_type":"container"},"wikidata":"Q85614408","coordinates":[42.6351063,23.3749201]},"atp":{"id":"QxgnqV32zjHZbTuaUvdF6JIyPM8=","tags":{"amenity":"recycling","recycling:clothes":"yes","recycling:shoes":"yes","addr:country":"BG","name":"МЛАДОСТ – кв. Младост 4, ул. Атанас Москов, след кръстовището с ул. Ал. Паскалев спирка посока Бизнес парк","brand":"TexCycle","brand:wikidata":"Q85614408","operator:wikidata":"Q85614408"},"coordinates":[42.635072,23.374926]},"dist":3.844,"tags_mismatch":true},{"osm":{"type":"node","id":12155283983,"tags":{"amenity":"recycling","count":"2","operator:wikidata":"Q85614408","recycling:clothes":"yes","recycling:shoes":"yes","recycling_type":"container"},"wikidata":"Q85614408","coordinates":[42.6411337,23.3727704]},"atp":{"id":"hUIxoj-Nd7i31c-ScNL-P7YTKgU=","tags":{"amenity":"recycling","recycling:clothes":"yes","recycling:shoes":"yes","addr:country":"BG","name":"МЛАДОСТ – кв. Младост 2, бул. Александър Малинов и бул. Атанас Москов (до магазин Хит)","brand":"TexCycle","brand:wikidata":"Q85614408","operator:wikidata":"Q85614408"},"coordinates":[42.641238,23.372969]},"dist":19.96,"tags_mismatch":true},{"osm":{"type":"node","id":12157835946,"tags":{"amenity":"recycling","operator:wikidata":"Q85614408","recycling:clothes":"yes","recycling:shoes":"yes"},"wikidata":"Q85614408","coordinates":[42.7021599,23.2833797]},"atp":{"id":"6fptOlix9d_pMKC_kRNMNLowG1c=","tags":{"amenity":"recycling","recycling:clothes":"yes","recycling:shoes":"yes","addr:country":"BG","name":"КРАСНА ПОЛЯНА – кръстовището на бул. Ал. Стамболийски с ул. Булина ливада, до Фантастико","brand":"TexCycle","brand:wikidata":"Q85614408","operator:wikidata":"Q85614408"},"coordinates":[42.70219,23.283367]},"dist":3.504,"tags_mismatch":true},{"osm":false,"atp":{"id":"xsSA8Czd9emsHt5e3iaekMKjSC8=","tags":{"amenity":"recycling","recycling:clothes":"yes","recycling:shoes":"yes","addr:country":"BG","name":"СРЕДЕЦ – кръстовището на ул. Цар Иван Асен II с ул. Мизия","brand":"TexCycle","brand:wikidata":"Q85614408","operator:wikidata":"Q85614408"},"coordinates":[42.689144,23.344159]},"tags_mismatch":false,"dist":0},{"osm":false,"atp":{"id":"jJoDjm9XlAgrMV5gleLxtn13pQ0=","tags":{"amenity":"recycling","recycling:clothes":"yes","recycling:shoes":"yes","addr:country":"BG","name":"КРАСНО СЕЛО – ж.к. Лагера, ул. Хайдушка поляна, бл. 4 срещу Балкантон","brand":"TexCycle","brand:wikidata":"Q85614408","operator:wikidata":"Q85614408"},"coordinates":[42.683682,23.287439]},"tags_mismatch":false,"dist":0},{"osm":false,"atp":{"id":"rmGcFVPfpQC0L6Kx73vcKsQUpUM=","tags":{"amenity":"recycling","recycling:clothes":"yes","recycling:shoes":"yes","addr:country":"BG","name":"ВЪЗРАЖДАНЕ – ул. Партений Нишавски, Парк Възраждане","brand":"TexCycle","brand:wikidata":"Q85614408","operator:wikidata":"Q85614408"},"coordinates":[42.696325,23.307557]},"tags_mismatch":false,"dist":0},{"osm":false,"atp":{"id":"D6AgqsLkSupgsQUUVBMxcB_0zTs=","tags":{"amenity":"recycling","recycling:clothes":"yes","recycling:shoes":"yes","addr:country":"BG","name":"ВЪЗРАЖДАНЕ – УНИКРЕДИТ, ул. Гюешево 14, паркинга встрани от Билла","brand":"TexCycle","brand:wikidata":"Q85614408","operator:wikidata":"Q85614408"},"coordinates":[42.69715,23.30158]},"tags_mismatch":false,"dist":0},{"osm":false,"atp":{"id":"pjQKpXftOSL4V6GYmiEghtGH7YM=","tags":{"amenity":"recycling","recycling:clothes":"yes","recycling:shoes":"yes","addr:country":"BG","name":"ВЪЗРАЖДАНЕ – ъгъла на ул. Пиротска с бул. инж. Иван Иванов","brand":"TexCycle","brand:wikidata":"Q85614408","operator:wikidata":"Q85614408"},"coordinates":[42.702434,23.303371]},"tags_mismatch":false,"dist":0},{"osm":false,"atp":{"id":"EL1g2xlqTKgu2b-dQGMj030HEvc=","tags":{"amenity":"recycling","recycling:clothes":"yes","recycling:shoes":"yes","addr:country":"BG","name":"ОБОРИЩЕ – ул. Париж 5, на паркинга на Столичен инспекторат","brand":"TexCycle","brand:wikidata":"Q85614408","operator:wikidata":"Q85614408"},"coordinates":[42.697689,23.331146]},"tags_mismatch":false,"dist":0},{"osm":false,"atp":{"id":"JbzF-fF7ApWYOhYKzuXibTDMqOo=","tags":{"amenity":"recycling","recycling:clothes":"yes","recycling:shoes":"yes","addr:country":"BG","name":"ОБОРИЩЕ – Парк Заимов, срещу ул. Васил Априлов","brand":"TexCycle","brand:wikidata":"Q85614408","operator:wikidata":"Q85614408"},"coordinates":[42.69646,23.34235]},"tags_mismatch":false,"dist":0},{"osm":false,"atp":{"id":"QydJ3Gx4NkQW-gLYvvGpqwjyt5U=","tags":{"amenity":"recycling","recycling:clothes":"yes","recycling:shoes":"yes","addr:country":"BG","name":"ОБОРИЩЕ – ул. Каймакчалан, вляво от входа на МОЛ Сердика","brand":"TexCycle","brand:wikidata":"Q85614408","operator:wikidata":"Q85614408"},"coordinates":[42.692411,23.354802]},"tags_mismatch":false,"dist":0},{"osm":false,"atp":{"id":"NIIZG4LJoTtOnQB2Z5xI1YhE1bE=","tags":{"amenity":"recycling","recycling:clothes":"yes","recycling:shoes":"yes","addr:country":"BG","name":"ОБОРИЩЕ – бул. Сливница 182, пред Софийска Професионална Гимназия по Туризъм","brand":"TexCycle","brand:wikidata":"Q85614408","operator:wikidata":"Q85614408"},"coordinates":[42.70442,23.325817]},"tags_mismatch":false,"dist":0},{"osm":false,"atp":{"id":"uiBPw1nRMseRWOG3xQaipzS6hWM=","tags":{"amenity":"recycling","recycling:clothes":"yes","recycling:shoes":"yes","addr:country":"BG","name":"ОБОРИЩЕ – ъгъла на ул. Ангиста с ул. Кешан, до ЛИДЛ","brand":"TexCycle","brand:wikidata":"Q85614408","operator:wikidata":"Q85614408"},"coordinates":[42.703893,23.334758]},"tags_mismatch":false,"dist":0},{"osm":false,"atp":{"id":"yzV6Jdh_QUdndnRcKELpIPUI3y4=","tags":{"amenity":"recycling","recycling:clothes":"yes","recycling:shoes":"yes","addr:country":"BG","name":"СЛАТИНА – ж.к. Гео Милев, ул. Атанас Узунов – срещу Асикс Арена","brand":"TexCycle","brand:wikidata":"Q85614408","operator:wikidata":"Q85614408"},"coordinates":[42.684515,23.364293]},"tags_mismatch":false,"dist":0},{"osm":false,"atp":{"id":"dODPbxby3V01im8UW6-tPbENepM=","tags":{"amenity":"recycling","recycling:clothes":"yes","recycling:shoes":"yes","addr:country":"BG","name":"СЛАТИНА – кръстовището на ул. Слатинска и ул. Борис Новоселски, до бл.41 А","brand":"TexCycle","brand:wikidata":"Q85614408","operator:wikidata":"Q85614408"},"coordinates":[42.687755,23.371406]},"tags_mismatch":false,"dist":0},{"osm":false,"atp":{"id":"S-4fgBNKMLbX02pGVNr8fYusE6M=","tags":{"amenity":"recycling","recycling:clothes":"yes","recycling:shoes":"yes","addr:country":"BG","name":"СЛАТИНА – ул. Гео Милев, спирка „Слатина“","brand":"TexCycle","brand:wikidata":"Q85614408","operator:wikidata":"Q85614408"},"coordinates":[42.680456,23.372742]},"tags_mismatch":false,"dist":0},{"osm":false,"atp":{"id":"npdjrINllr8Odtwsf9QSLMLbYaE=","tags":{"amenity":"recycling","recycling:clothes":"yes","recycling:shoes":"yes","addr:country":"BG","name":"СЛАТИНА – ул. Николай Коперник, спирката до 93 СУ „Ал.Теодоров-Балан“","brand":"TexCycle","brand:wikidata":"Q85614408","operator:wikidata":"Q85614408"},"coordinates":[42.681886,23.362338]},"tags_mismatch":false,"dist":0},{"osm":false,"atp":{"id":"JXvqngNDobkndeKFzC-jjygEIcA=","tags":{"amenity":"recycling","recycling:clothes":"yes","recycling:shoes":"yes","addr:country":"BG","name":"СЛАТИНА – бул. Шипченски проход, пред зала Универсиада","brand":"TexCycle","brand:wikidata":"Q85614408","operator:wikidata":"Q85614408"},"coordinates":[42.68137,23.356288]},"tags_mismatch":false,"dist":0},{"osm":false,"atp":{"id":"FuneUdj5fQeVyXTHjpQWwUEEqUk=","tags":{"amenity":"recycling","recycling:clothes":"yes","recycling:shoes":"yes","addr:country":"BG","name":"СЛАТИНА – кръстовището на ул. Коста Лулчев и ул. Ал. Вон Хумболт","brand":"TexCycle","brand:wikidata":"Q85614408","operator:wikidata":"Q85614408"},"coordinates":[42.68137,23.356288]},"tags_mismatch":false,"dist":0},{"osm":false,"atp":{"id":"WUKzf0MR70hGloj-Z_awFxpIAgc=","tags":{"amenity":"recycling","recycling:clothes":"yes","recycling:shoes":"yes","addr:country":"BG","name":"СЛАТИНА – ул. Кутловица, пред 23 СУ Фредерик Ж. Кюри","brand":"TexCycle","brand:wikidata":"Q85614408","operator:wikidata":"Q85614408"},"coordinates":[42.695116,23.356506]},"tags_mismatch":false,"dist":0},{"osm":false,"atp":{"id":"xHfcfc4uvmhEzDs4LfMd9ROAjeQ=","tags":{"amenity":"recycling","recycling:clothes":"yes","recycling:shoes":"yes","addr:country":"BG","name":"ИЗГРЕВ – кв. Дианабад, ул. Васил Калчев до 105 СУ „Атанас Далчев“","brand":"TexCycle","brand:wikidata":"Q85614408","operator:wikidata":"Q85614408"},"coordinates":[42.663935,23.349723]},"tags_mismatch":false,"dist":0},{"osm":false,"atp":{"id":"RHtkgh4iBkoVol9DaAqWkonO0Vw=","tags":{"amenity":"recycling","recycling:clothes":"yes","recycling:shoes":"yes","addr:country":"BG","name":"ИЗГРЕВ – ул. Пиер Дегейтър, детска площадка до супермаркет Изток","brand":"TexCycle","brand:wikidata":"Q85614408","operator:wikidata":"Q85614408"},"coordinates":[42.669598,23.357995]},"tags_mismatch":false,"dist":0},{"osm":false,"atp":{"id":"mGJAhv1Ss7lHzygEbr9LeGRYQm8=","tags":{"amenity":"recycling","recycling:clothes":"yes","recycling:shoes":"yes","addr:country":"BG","name":"ЛОЗЕНЕЦ – ул. Милин Камък 3","brand":"TexCycle","brand:wikidata":"Q85614408","operator:wikidata":"Q85614408"},"coordinates":[42.684074,23.326887]},"tags_mismatch":false,"dist":0},{"osm":false,"atp":{"id":"VBAYkekQt7DmkIlDrZRgmPAGdoE=","tags":{"amenity":"recycling","recycling:clothes":"yes","recycling:shoes":"yes","addr:country":"BG","name":"ТРИАДИЦА – ул. Орехова гора, пред ДГ „Звънче“","brand":"TexCycle","brand:wikidata":"Q85614408","operator:wikidata":"Q85614408"},"coordinates":[42.668415,23.295734]},"tags_mismatch":false,"dist":0},{"osm":false,"atp":{"id":"XA4HjWH1ZkiI7FQrL2ie6NANRu8=","tags":{"amenity":"recycling","recycling:clothes":"yes","recycling:shoes":"yes","addr:country":"BG","name":"КРАСНА ПОЛЯНА – ул. Алеко Туранджа и ул. Хъшове, до ЦДГ Коледарче","brand":"TexCycle","brand:wikidata":"Q85614408","operator:wikidata":"Q85614408"},"coordinates":[42.699148,23.290147]},"tags_mismatch":false,"dist":0},{"osm":false,"atp":{"id":"oIujilI6I0pWlmf6lTjiPqPSbJY=","tags":{"amenity":"recycling","recycling:clothes":"yes","recycling:shoes":"yes","addr:country":"BG","name":"КРАСНА ПОЛЯНА – ул. Добротич 329 А, след кръстовището с бул. Никола Мушанов","brand":"TexCycle","brand:wikidata":"Q85614408","operator:wikidata":"Q85614408"},"coordinates":[42.692707,23.282032]},"tags_mismatch":false,"dist":0},{"osm":false,"atp":{"id":"ISdXLwl5bvtttJ9LyQYzAdnf2CY=","tags":{"amenity":"recycling","recycling:clothes":"yes","recycling:shoes":"yes","addr:country":"BG","name":"КРАСНА ПОЛЯНА – бул. Александър Стамболийски, до 10 ДКЦ","brand":"TexCycle","brand:wikidata":"Q85614408","operator:wikidata":"Q85614408"},"coordinates":[42.701485,23.291885]},"tags_mismatch":false,"dist":0},{"osm":false,"atp":{"id":"IVuwmtMg12xajh9DgNGZNOYMmfw=","tags":{"amenity":"recycling","recycling:clothes":"yes","recycling:shoes":"yes","addr:country":"BG","name":"КРАСНА ПОЛЯНА – кръстовището на ул. Румяна с ул. Стария войн, до бл. 24Ж","brand":"TexCycle","brand:wikidata":"Q85614408","operator:wikidata":"Q85614408"},"coordinates":[42.696886,23.283013]},"tags_mismatch":false,"dist":0},{"osm":false,"atp":{"id":"DsSL0UP69jBJoN79TCTrWC7-iB0=","tags":{"amenity":"recycling","recycling:clothes":"yes","recycling:shoes":"yes","addr:country":"BG","name":"КРАСНА ПОЛЯНА – ул. Суходолска до бл. 124В","brand":"TexCycle","brand:wikidata":"Q85614408","operator:wikidata":"Q85614408"},"coordinates":[42.700726,23.278682]},"tags_mismatch":false,"dist":0},{"osm":false,"atp":{"id":"jXFdLOdqXmZ5NZdz9wE8_FWUrEs=","tags":{"amenity":"recycling","recycling:clothes":"yes","recycling:shoes":"yes","addr:country":"BG","name":"ИЛИНДЕН – ул. Виктор Палов до Т-Маркет – спирка Вардар на метрото","brand":"TexCycle","brand:wikidata":"Q85614408","operator:wikidata":"Q85614408"},"coordinates":[42.706412,23.28484]},"tags_mismatch":false,"dist":0},{"osm":false,"atp":{"id":"cGtgFSlYWY7_XgW9TAapv5wKnZk=","tags":{"amenity":"recycling","recycling:clothes":"yes","recycling:shoes":"yes","addr:country":"BG","name":"ИЛИНДЕН – ул. Габрово, до бл.374","brand":"TexCycle","brand:wikidata":"Q85614408","operator:wikidata":"Q85614408"},"coordinates":[42.710159,23.300021]},"tags_mismatch":false,"dist":0},{"osm":false,"atp":{"id":"IVjSztVP5-t4GYnj5tmBIaloi-I=","tags":{"amenity":"recycling","recycling:clothes":"yes","recycling:shoes":"yes","addr:country":"BG","name":"ИЛИНДЕН – ж.к. Света Троица, ъгъла на ул. Насте Стоянов и ул. Цар Иван Александър, до магазин Била","brand":"TexCycle","brand:wikidata":"Q85614408","operator:wikidata":"Q85614408"},"coordinates":[42.707634,23.295007]},"tags_mismatch":false,"dist":0},{"osm":false,"atp":{"id":"0sIbGkY3UfaBCfBp-IdErkWPLOg=","tags":{"amenity":"recycling","recycling:clothes":"yes","recycling:shoes":"yes","addr:country":"BG","name":"НАДЕЖДА – ул. Република, до 137 ОДЗ „Калина Малина“","brand":"TexCycle","brand:wikidata":"Q85614408","operator:wikidata":"Q85614408"},"coordinates":[42.732003,23.310308]},"tags_mismatch":false,"dist":0},{"osm":false,"atp":{"id":"4QIoXdmuc3fqG3jf3cAzAAnjWIc=","tags":{"amenity":"recycling","recycling:clothes":"yes","recycling:shoes":"yes","addr:country":"BG","name":"НАДЕЖДА – паркинга на бл. 172, до метростанция Надежда","brand":"TexCycle","brand:wikidata":"Q85614408","operator:wikidata":"Q85614408"},"coordinates":[42.72715,23.30141]},"tags_mismatch":false,"dist":0},{"osm":false,"atp":{"id":"WkrFwEci0fXglGSYYyK1ySt9Wh8=","tags":{"amenity":"recycling","recycling:clothes":"yes","recycling:shoes":"yes","addr:country":"BG","name":"НАДЕЖДА – Северен парк, входа откъм Надежда, до обръщача","brand":"TexCycle","brand:wikidata":"Q85614408","operator:wikidata":"Q85614408"},"coordinates":[42.73937,23.30335]},"tags_mismatch":false,"dist":0},{"osm":false,"atp":{"id":"LJJatallJY9hghmhG1snlai-qSU=","tags":{"amenity":"recycling","recycling:clothes":"yes","recycling:shoes":"yes","addr:country":"BG","name":"НАДЕЖДА – кв. Илиенци, площада на ул. Жасмин и бул. Рожен","brand":"TexCycle","brand:wikidata":"Q85614408","operator:wikidata":"Q85614408"},"coordinates":[42.750978,23.318027]},"tags_mismatch":false,"dist":0},{"osm":false,"atp":{"id":"KcMTg42wu9oBUl1_w9BeHBzeQWE=","tags":{"amenity":"recycling","recycling:clothes":"yes","recycling:shoes":"yes","addr:country":"BG","name":"НАДЕЖДА – кв. Требич – ул. Латин Колев, Паметник на загиналите","brand":"TexCycle","brand:wikidata":"Q85614408","operator:wikidata":"Q85614408"},"coordinates":[42.772696,23.316201]},"tags_mismatch":false,"dist":0},{"osm":false,"atp":{"id":"q2gMK_tjz0dTkUBcJH2dV9YfMkM=","tags":{"amenity":"recycling","recycling:clothes":"yes","recycling:shoes":"yes","addr:country":"BG","name":"ИСКЪР – Цариградски комплекс, бл. 285В","brand":"TexCycle","brand:wikidata":"Q85614408","operator:wikidata":"Q85614408"},"coordinates":[42.647363,23.401194]},"tags_mismatch":false,"dist":0},{"osm":false,"atp":{"id":"RSrIHIBHaYPr4fwcu58eKs6eVNU=","tags":{"amenity":"recycling","recycling:clothes":"yes","recycling:shoes":"yes","addr:country":"BG","name":"ИСКЪР – ж.к. Дружба – бул. Цветан Лазаров, до храм „Св.Пророк Илия 2“","brand":"TexCycle","brand:wikidata":"Q85614408","operator:wikidata":"Q85614408"},"coordinates":[42.655119,23.399704]},"tags_mismatch":false,"dist":0},{"osm":false,"atp":{"id":"df1UmeouL2vUT_wYNB1AKlmmYcY=","tags":{"amenity":"recycling","recycling:clothes":"yes","recycling:shoes":"yes","addr:country":"BG","name":"ИСКЪР – ж.к. Дружба, ул. 5038, до Т-Маркет","brand":"TexCycle","brand:wikidata":"Q85614408","operator:wikidata":"Q85614408"},"coordinates":[42.669663,23.389977]},"tags_mismatch":false,"dist":0},{"osm":false,"atp":{"id":"mby1zJOJihHwscDb_ypeKfVuBHw=","tags":{"amenity":"recycling","recycling:clothes":"yes","recycling:shoes":"yes","addr:country":"BG","name":"ИСКЪР – ж.к. Дружба, ул. 5041, зад бл.108","brand":"TexCycle","brand:wikidata":"Q85614408","operator:wikidata":"Q85614408"},"coordinates":[42.66751,23.391851]},"tags_mismatch":false,"dist":0},{"osm":false,"atp":{"id":"m5mtd1NM0sfD7dqWXL8KSf506As=","tags":{"amenity":"recycling","recycling:clothes":"yes","recycling:shoes":"yes","addr:country":"BG","name":"МЛАДОСТ – кв. Младост 3, бул. Свето Преображение – срещу сградата на районна администрация Младост","brand":"TexCycle","brand:wikidata":"Q85614408","operator:wikidata":"Q85614408"},"coordinates":[42.640909,23.380704]},"tags_mismatch":false,"dist":0},{"osm":false,"atp":{"id":"WQyQZOQZy7GOlX7bQJByDWM9BiI=","tags":{"amenity":"recycling","recycling:clothes":"yes","recycling:shoes":"yes","addr:country":"BG","name":"МЛАДОСТ – кв. Младост 1А, ул. Ресен, до 145 ОУ","brand":"TexCycle","brand:wikidata":"Q85614408","operator:wikidata":"Q85614408"},"coordinates":[42.648231,23.384672]},"tags_mismatch":false,"dist":0},{"osm":false,"atp":{"id":"C3ZhSbqR9-q_c6d8mymEI8mrWE8=","tags":{"amenity":"recycling","recycling:clothes":"yes","recycling:shoes":"yes","addr:country":"BG","name":"МЛАДОСТ – кв. Младост 4, Метростанция Бизнес Парк, до буферен паркинг","brand":"TexCycle","brand:wikidata":"Q85614408","operator:wikidata":"Q85614408"},"coordinates":[42.628852,23.373459]},"tags_mismatch":false,"dist":0},{"osm":false,"atp":{"id":"d2gxx3jeG6oK26cHoSHfQo5FPD8=","tags":{"amenity":"recycling","recycling:clothes":"yes","recycling:shoes":"yes","addr:country":"BG","name":"МЛАДОСТ – кв. Младост 1, до подлеза на кръстовището на ул. Димитър Моллов и локалното Цариградско шосе","brand":"TexCycle","brand:wikidata":"Q85614408","operator:wikidata":"Q85614408"},"coordinates":[42.662475,23.376131]},"tags_mismatch":false,"dist":0},{"osm":false,"atp":{"id":"hwjt99AeVL3sW0QFJR88nfvz0WU=","tags":{"amenity":"recycling","recycling:clothes":"yes","recycling:shoes":"yes","addr:country":"BG","name":"МЛАДОСТ – кв. Младост 3, ул.Бъднина, пред 144 СУ „Народни будители“","brand":"TexCycle","brand:wikidata":"Q85614408","operator:wikidata":"Q85614408"},"coordinates":[42.642804,23.377676]},"tags_mismatch":false,"dist":0},{"osm":false,"atp":{"id":"aiOTiXYXNkRNostOzhGTNcSkrQU=","tags":{"amenity":"recycling","recycling:clothes":"yes","recycling:shoes":"yes","addr:country":"BG","name":"МЛАДОСТ – ул. проф. д-р Васил Златарски, трафопоста до бл. 221","brand":"TexCycle","brand:wikidata":"Q85614408","operator:wikidata":"Q85614408"},"coordinates":[42.643467,23.37276]},"tags_mismatch":false,"dist":0},{"osm":false,"atp":{"id":"EDPJCK6FOfMRscafyn5eGi87LA8=","tags":{"amenity":"recycling","recycling:clothes":"yes","recycling:shoes":"yes","addr:country":"BG","name":"МЛАДОСТ – кв. Горубляне, ъгъла на бул. Самоковско шосе и ул. Петър Дипларов","brand":"TexCycle","brand:wikidata":"Q85614408","operator:wikidata":"Q85614408"},"coordinates":[42.626614,23.406901]},"tags_mismatch":false,"dist":0},{"osm":false,"atp":{"id":"3yKQaNt5GeT6W_B4DE679vK1pUE=","tags":{"amenity":"recycling","recycling:clothes":"yes","recycling:shoes":"yes","addr:country":"BG","name":"ВИТОША – кв. Княжево, площад Сред село","brand":"TexCycle","brand:wikidata":"Q85614408","operator:wikidata":"Q85614408"},"coordinates":[42.660818,23.242946]},"tags_mismatch":false,"dist":0},{"osm":false,"atp":{"id":"n-ZSrNoza_5x6EbHD6Y4xX9KDZM=","tags":{"amenity":"recycling","recycling:clothes":"yes","recycling:shoes":"yes","addr:country":"BG","name":"ВИТОША – с. Владая, ул. Войнишко възстание, до читалище „Светлина“","brand":"TexCycle","brand:wikidata":"Q85614408","operator:wikidata":"Q85614408"},"coordinates":[42.628908,23.196045]},"tags_mismatch":false,"dist":0},{"osm":false,"atp":{"id":"O6qKPToHztJXb8FTdXi4_tMqh7c=","tags":{"amenity":"recycling","recycling:clothes":"yes","recycling:shoes":"yes","addr:country":"BG","name":"ВИТОША – с. Мърчаево, ъгъла на ул. Маниш с ул. Черешова градина","brand":"TexCycle","brand:wikidata":"Q85614408","operator:wikidata":"Q85614408"},"coordinates":[42.600056,23.169826]},"tags_mismatch":false,"dist":0},{"osm":false,"atp":{"id":"G_h_6FDSFsBub2E9SOsSgDR5E4o=","tags":{"amenity":"recycling","recycling:clothes":"yes","recycling:shoes":"yes","addr:country":"BG","name":"ЛЮЛИН – бул. Царица Йоанна, паркинг Била и метростанция Люлин","brand":"TexCycle","brand:wikidata":"Q85614408","operator:wikidata":"Q85614408"},"coordinates":[42.718792,23.25676]},"tags_mismatch":false,"dist":0},{"osm":false,"atp":{"id":"bgGXgQe5SABrhnQzhkoXgEkG5Ns=","tags":{"amenity":"recycling","recycling:clothes":"yes","recycling:shoes":"yes","addr:country":"BG","name":"ЛЮЛИН – бул. Райко Даскалов 5, Люлин 4","brand":"TexCycle","brand:wikidata":"Q85614408","operator:wikidata":"Q85614408"},"coordinates":[42.71357,23.24644]},"tags_mismatch":false,"dist":0},{"osm":false,"atp":{"id":"RFd3ZGHFsOk4AtEJF_2ZKPOkC1c=","tags":{"amenity":"recycling","recycling:clothes":"yes","recycling:shoes":"yes","addr:country":"BG","name":"СЕРДИКА – ж.к. Банишора, ул. Опълченска 117, бл. 37, вх. В","brand":"TexCycle","brand:wikidata":"Q85614408","operator:wikidata":"Q85614408"},"coordinates":[42.711996,23.314445]},"tags_mismatch":false,"dist":0},{"osm":false,"atp":{"id":"nJeuF27JeEQ73zHIrUZKPsO6roI=","tags":{"amenity":"recycling","recycling:clothes":"yes","recycling:shoes":"yes","addr:country":"BG","name":"СЕРДИКА – кв. Орландовци, ул. Железопътна 18, до Билла","brand":"TexCycle","brand:wikidata":"Q85614408","operator:wikidata":"Q85614408"},"coordinates":[42.717684,23.342967]},"tags_mismatch":false,"dist":0},{"osm":false,"atp":{"id":"jaYGa7ioQ09U7bOvJj_leR_KhZw=","tags":{"amenity":"recycling","recycling:clothes":"yes","recycling:shoes":"yes","addr:country":"BG","name":"СЕРДИКА – кв. Банишора, кръстовището на ул. Ген. Иван Чернаев и ул. Подполковник Калитин","brand":"TexCycle","brand:wikidata":"Q85614408","operator:wikidata":"Q85614408"},"coordinates":[42.709211,23.311016]},"tags_mismatch":false,"dist":0},{"osm":false,"atp":{"id":"aHVIARNn6PtQ8tJlVxs_RDODJyw=","tags":{"amenity":"recycling","recycling:clothes":"yes","recycling:shoes":"yes","addr:country":"BG","name":"СЕРДИКА – кв. Банишора, бул. Ген. Николай Г. Столетов 5А","brand":"TexCycle","brand:wikidata":"Q85614408","operator:wikidata":"Q85614408"},"coordinates":[42.711901,23.311969]},"tags_mismatch":false,"dist":0},{"osm":false,"atp":{"id":"xi9N7DU01othsYouvjsLKadUL1Q=","tags":{"amenity":"recycling","recycling:clothes":"yes","recycling:shoes":"yes","addr:country":"BG","name":"ОВЧА КУПЕЛ – ул. Иван Хаджийски, срещу 149 СОУ","brand":"TexCycle","brand:wikidata":"Q85614408","operator:wikidata":"Q85614408"},"coordinates":[42.686322,23.247092]},"tags_mismatch":false,"dist":0},{"osm":false,"atp":{"id":"OqBQDMcytxy8nvpT5rT_m77ojuk=","tags":{"amenity":"recycling","recycling:clothes":"yes","recycling:shoes":"yes","addr:country":"BG","name":"ОВЧА КУПЕЛ – ул. Любляна 38, пазарчето под Фантастико","brand":"TexCycle","brand:wikidata":"Q85614408","operator:wikidata":"Q85614408"},"coordinates":[42.671169,23.259138]},"tags_mismatch":false,"dist":0},{"osm":false,"atp":{"id":"Q4pqo3jdZJMAgDhKAqQoztXhhRA=","tags":{"amenity":"recycling","recycling:clothes":"yes","recycling:shoes":"yes","addr:country":"BG","name":"ОВЧА КУПЕЛ – бул. Президент Линкълн, до спирка „пазара Овча купел“","brand":"TexCycle","brand:wikidata":"Q85614408","operator:wikidata":"Q85614408"},"coordinates":[42.686574,23.255546]},"tags_mismatch":false,"dist":0},{"osm":false,"atp":{"id":"5HMsSEPLds1ZUhJi-oCPs39EyEk=","tags":{"amenity":"recycling","recycling:clothes":"yes","recycling:shoes":"yes","addr:country":"BG","name":"ОВЧА КУПЕЛ – кв. Суходол, ул. Бъдеще, пред магазин Фреш маркет","brand":"TexCycle","brand:wikidata":"Q85614408","operator:wikidata":"Q85614408"},"coordinates":[42.696156,23.227013]},"tags_mismatch":false,"dist":0},{"osm":false,"atp":{"id":"emMCsp4I9b01SbtmKpdK59YOpRM=","tags":{"amenity":"recycling","recycling:clothes":"yes","recycling:shoes":"yes","addr:country":"BG","name":"ПОДУЯНЕ – ул. Тодорини кукли 47, до Т-Маркет","brand":"TexCycle","brand:wikidata":"Q85614408","operator:wikidata":"Q85614408"},"coordinates":[42.684128,23.241579]},"tags_mismatch":false,"dist":0},{"osm":false,"atp":{"id":"gnHMqzj1qhgp6SI8DxlDWe6Gh_w=","tags":{"amenity":"recycling","recycling:clothes":"yes","recycling:shoes":"yes","addr:country":"BG","name":"ПОДУЯНЕ – кв. Левски В – ул. Поп Грую, срещу бл. 9","brand":"TexCycle","brand:wikidata":"Q85614408","operator:wikidata":"Q85614408"},"coordinates":[42.708782,23.380417]},"tags_mismatch":false,"dist":0},{"osm":false,"atp":{"id":"TJTd93uN4fTJgAsjE7CL54kmMzU=","tags":{"amenity":"recycling","recycling:clothes":"yes","recycling:shoes":"yes","addr:country":"BG","name":"ПОДУЯНЕ – кв. Левски Г – ул. Г. Кюмюрджиев, между 199 ОУ и 91 ОДЗ","brand":"TexCycle","brand:wikidata":"Q85614408","operator:wikidata":"Q85614408"},"coordinates":[42.713776,23.377171]},"tags_mismatch":false,"dist":0},{"osm":false,"atp":{"id":"O-sued_DuVipF3U5aKbhXmLhYEs=","tags":{"amenity":"recycling","recycling:clothes":"yes","recycling:shoes":"yes","addr:country":"BG","name":"ПОДУЯНЕ – кв. Левски Г – ул. Г. Кюмюрджиев срещу бл. 29","brand":"TexCycle","brand:wikidata":"Q85614408","operator:wikidata":"Q85614408"},"coordinates":[42.713031,23.387106]},"tags_mismatch":false,"dist":0},{"osm":false,"atp":{"id":"-QOBMlOEQDegjl6m4gs-VqR4JnA=","tags":{"amenity":"recycling","recycling:clothes":"yes","recycling:shoes":"yes","addr:country":"BG","name":"ПОДУЯНЕ – кв. Стефан Караджа – ул. Васил Кънчев, спирката до бл.142","brand":"TexCycle","brand:wikidata":"Q85614408","operator:wikidata":"Q85614408"},"coordinates":[42.706867,23.357795]},"tags_mismatch":false,"dist":0},{"osm":false,"atp":{"id":"m_vaozib-d5W27vedk2dRP2urks=","tags":{"amenity":"recycling","recycling:clothes":"yes","recycling:shoes":"yes","addr:country":"BG","name":"ПОДУЯНЕ – кв. Хаджи Димитър – ул. Резбарска до бл. 100","brand":"TexCycle","brand:wikidata":"Q85614408","operator:wikidata":"Q85614408"},"coordinates":[42.708675,23.343833]},"tags_mismatch":false,"dist":0},{"osm":false,"atp":{"id":"6DzGk33SEoVmtK4yvyxlLOOjvos=","tags":{"amenity":"recycling","recycling:clothes":"yes","recycling:shoes":"yes","addr:country":"BG","name":"ПОДУЯНЕ – кв. Хаджи Димитър – ул. Никола Войновски, до 42 ОУ","brand":"TexCycle","brand:wikidata":"Q85614408","operator:wikidata":"Q85614408"},"coordinates":[42.706641,23.345008]},"tags_mismatch":false,"dist":0},{"osm":false,"atp":{"id":"LZJVmbpDgyokv0xw0icJDzMRTZc=","tags":{"amenity":"recycling","recycling:clothes":"yes","recycling:shoes":"yes","addr:country":"BG","name":"ПОДУЯНЕ – ъгъла на ул. Сава Цонев с ул. Емануил Васкидович, пред 44 СУ „Неофит Бозвели“","brand":"TexCycle","brand:wikidata":"Q85614408","operator:wikidata":"Q85614408"},"coordinates":[42.701452,23.368026]},"tags_mismatch":false,"dist":0},{"osm":false,"atp":{"id":"--yU4du_aPfzfTXuz3mOQpnxPkg=","tags":{"amenity":"recycling","recycling:clothes":"yes","recycling:shoes":"yes","addr:country":"BG","name":"ПОДУЯНЕ – ъгъла на бул. Ботевградско шосе с ул. Вършец, бл. 6, вх. А","brand":"TexCycle","brand:wikidata":"Q85614408","operator:wikidata":"Q85614408"},"coordinates":[42.699887,23.370897]},"tags_mismatch":false,"dist":0},{"osm":false,"atp":{"id":"ua2UC0prCHIkQVCdydbgCyul8TM=","tags":{"amenity":"recycling","recycling:clothes":"yes","recycling:shoes":"yes","addr:country":"BG","name":"ВРЪБНИЦА – кръстовището на ул. Златен клас с ул. Асен Трайков, до Т-Маркет","brand":"TexCycle","brand:wikidata":"Q85614408","operator:wikidata":"Q85614408"},"coordinates":[42.73831,23.29498]},"tags_mismatch":false,"dist":0},{"osm":false,"atp":{"id":"7zL0b584Spg39GL-BOCQwxJFrVg=","tags":{"amenity":"recycling","recycling:clothes":"yes","recycling:shoes":"yes","addr:country":"BG","name":"ВРЪБНИЦА – кв. Връбница 2 – ул. Тричко Велев, обръщалото на автобус 285","brand":"TexCycle","brand:wikidata":"Q85614408","operator:wikidata":"Q85614408"},"coordinates":[42.739277,23.290783]},"tags_mismatch":false,"dist":0},{"osm":false,"atp":{"id":"jhL7_Bzam6IdQwYH49J_CHXbW1w=","tags":{"amenity":"recycling","recycling:clothes":"yes","recycling:shoes":"yes","addr:country":"BG","name":"ВРЪБНИЦА – с. Мрамор, ул. Васил Левски, градинката пред кметсвото","brand":"TexCycle","brand:wikidata":"Q85614408","operator:wikidata":"Q85614408"},"coordinates":[42.785959,23.273957]},"tags_mismatch":false,"dist":0},{"osm":false,"atp":{"id":"bvr20xXcwKbaVXM-wvAnwjkXsfo=","tags":{"amenity":"recycling","recycling:clothes":"yes","recycling:shoes":"yes","addr:country":"BG","name":"КРЕМИКОВЦИ – с. Челопечене, площада","brand":"TexCycle","brand:wikidata":"Q85614408","operator:wikidata":"Q85614408"},"coordinates":[42.73199,23.476029]},"tags_mismatch":false,"dist":0},{"osm":false,"atp":{"id":"mxVdf29jI2OE1F6oOtBdNi4ncwQ=","tags":{"amenity":"recycling","recycling:clothes":"yes","recycling:shoes":"yes","addr:country":"BG","name":"КРЕМИКОВЦИ – с. Горни Богров, до кметството","brand":"TexCycle","brand:wikidata":"Q85614408","operator:wikidata":"Q85614408"},"coordinates":[42.719278,23.529757]},"tags_mismatch":false,"dist":0},{"osm":false,"atp":{"id":"N4UsALV1Ih7yEvObJhLUiYqIwhk=","tags":{"amenity":"recycling","recycling:clothes":"yes","recycling:shoes":"yes","addr:country":"BG","name":"ПАНЧАРЕВО – с. Кривина, ул. Розова градина, на площада","brand":"TexCycle","brand:wikidata":"Q85614408","operator:wikidata":"Q85614408"},"coordinates":[42.680355,23.465201]},"tags_mismatch":false,"dist":0},{"osm":false,"atp":{"id":"r9o3UAkiwX3b4J3nnuM5voK16Kg=","tags":{"amenity":"recycling","recycling:clothes":"yes","recycling:shoes":"yes","addr:country":"BG","name":"ПАНЧАРЕВО – с. Кокаляне, ъгъла на ул. Искър с ул. Кръстан Младенов","brand":"TexCycle","brand:wikidata":"Q85614408","operator:wikidata":"Q85614408"},"coordinates":[42.680355,23.465201]},"tags_mismatch":false,"dist":0},{"osm":false,"atp":{"id":"8B6Egsoedue7d0NeaPGJwbfvqrM=","tags":{"amenity":"recycling","recycling:clothes":"yes","recycling:shoes":"yes","addr:country":"BG","name":"БАНКЯ – ул. Цар Симеон 1","brand":"TexCycle","brand:wikidata":"Q85614408","operator:wikidata":"Q85614408"},"coordinates":[42.705471,23.148053]},"tags_mismatch":false,"dist":0},{"osm":false,"atp":{"id":"MPSV0RuBHYkg26EBZITAbPjBVWA=","tags":{"amenity":"recycling","recycling:clothes":"yes","recycling:shoes":"yes","addr:country":"BG","name":"БАНКЯ – ул. Цар Освободител 1","brand":"TexCycle","brand:wikidata":"Q85614408","operator:wikidata":"Q85614408"},"coordinates":[42.705801,23.150936]},"tags_mismatch":false,"dist":0},{"osm":false,"atp":{"id":"XxyPI4d0dvVHwmFxImvF2OlzUiU=","tags":{"amenity":"recycling","recycling:clothes":"yes","recycling:shoes":"yes","addr:country":"BG","name":"БАНКЯ – с. Иваняне, до кметсвото","brand":"TexCycle","brand:wikidata":"Q85614408","operator:wikidata":"Q85614408"},"coordinates":[42.706298,23.18133]},"tags_mismatch":false,"dist":0},{"osm":false,"atp":{"id":"Qip6p1hQdvLTdOG5-e4p-uuR91c=","tags":{"amenity":"recycling","recycling:clothes":"yes","recycling:shoes":"yes","addr:country":"BG","name":"СТУДЕНТСКИ – Мусагеница – ул. Полк. Г.Янков, до 8 СУ „Васил Левски“","brand":"TexCycle","brand:wikidata":"Q85614408","operator:wikidata":"Q85614408"},"coordinates":[42.662258,23.363312]},"tags_mismatch":false,"dist":0},{"osm":false,"atp":{"id":"MoLZIQPzbWkn-ihYqB2rBXjXnm8=","tags":{"amenity":"recycling","recycling:clothes":"yes","recycling:shoes":"yes","addr:country":"BG","name":"СТУДЕНТСКИ – ж.к. Дървеница – ул. Бели мел, зад Фантастико","brand":"TexCycle","brand:wikidata":"Q85614408","operator:wikidata":"Q85614408"},"coordinates":[42.654,23.360852]},"tags_mismatch":false,"dist":0},{"osm":false,"atp":{"id":"EcghRLjMG4anUZk1Rzl_25-4DdE=","tags":{"amenity":"recycling","recycling:clothes":"yes","recycling:shoes":"yes","addr:country":"BG","name":"СТУДЕНТСКИ – ж.к. Младост 1 – ул. Въртопо, пред бл. 85","brand":"TexCycle","brand:wikidata":"Q85614408","operator:wikidata":"Q85614408"},"coordinates":[42.663941,23.367948]},"tags_mismatch":false,"dist":0},{"osm":false,"atp":{"id":"H69LVn8TJfSTGDxsNx_j-XGqDPU=","tags":{"amenity":"recycling","recycling:clothes":"yes","recycling:shoes":"yes","addr:country":"BG","name":"СТУДЕНТСКИ – кв. Мусагеница – кръстовището на ул. Белимел и ул. проф. Стоян Киркович, до 72 ДГ и пред бл. 40, вх. Д","brand":"TexCycle","brand:wikidata":"Q85614408","operator:wikidata":"Q85614408"},"coordinates":[42.651348,23.363783]},"tags_mismatch":false,"dist":0},{"osm":false,"atp":{"id":"xpt1vlT-wogvXnYJH8mkvi-1rEg=","tags":{"amenity":"recycling","recycling:clothes":"yes","recycling:shoes":"yes","addr:country":"BG","name":"СТУДЕНТСКИ – Студенстки град, ул. Ак. Стефан Младенов 8","brand":"TexCycle","brand:wikidata":"Q85614408","operator:wikidata":"Q85614408"},"coordinates":[42.65288,23.347201]},"tags_mismatch":false,"dist":0},{"osm":false,"atp":{"id":"8UugEyN5SnkC36Rs_OdFEjeHg6k=","tags":{"amenity":"recycling","recycling:clothes":"yes","recycling:shoes":"yes","addr:country":"BG","name":"СТУДЕНТСКИ – кв. Малинова долина, ул. проф. Живко Сталев, зад бл. 23","brand":"TexCycle","brand:wikidata":"Q85614408","operator:wikidata":"Q85614408"},"coordinates":[42.63706,23.341039]},"tags_mismatch":false,"dist":0},{"osm":false,"atp":{"id":"ISXNF7XBRLSr4tX8j4IYYv9B-90=","tags":{"amenity":"recycling","recycling:clothes":"yes","recycling:shoes":"yes","addr:country":"BG","name":"НОВИ ИСКЪР – с. Негован, ул. Васил Левски, на площада","brand":"TexCycle","brand:wikidata":"Q85614408","operator:wikidata":"Q85614408"},"coordinates":[42.768989,23.404968]},"tags_mismatch":false,"dist":0},{"osm":false,"atp":{"id":"o4RPT4mqcBpj6rz8pEngxz6Vyx8=","tags":{"amenity":"recycling","recycling:clothes":"yes","recycling:shoes":"yes","addr:country":"BG","name":"НОВИ ИСКЪР – с. Мировяне, ул. Чавдар Войвода, пред читалище Христо Ботев","brand":"TexCycle","brand:wikidata":"Q85614408","operator:wikidata":"Q85614408"},"coordinates":[42.790947,23.304259]},"tags_mismatch":false,"dist":0},{"osm":false,"atp":{"id":"rwtp388gsfY2h-FDoeeLcJ9lZU8=","tags":{"amenity":"recycling","recycling:clothes":"yes","recycling:shoes":"yes","addr:country":"BG","name":"НОВИ ИСКЪР – с. Кубратово, ул. Куманица, срещу кметството","brand":"TexCycle","brand:wikidata":"Q85614408","operator:wikidata":"Q85614408"},"coordinates":[42.772766,23.362085]},"tags_mismatch":false,"dist":0},{"osm":false,"atp":{"id":"BqIqxdwWAui7zpi7DxBH7nQ9g0s=","tags":{"amenity":"recycling","recycling:clothes":"yes","recycling:shoes":"yes","addr:country":"BG","name":"НОВИ ИСКЪР – кв. Курило, ул. Чавдар войвода, до Пощата","brand":"TexCycle","brand:wikidata":"Q85614408","operator:wikidata":"Q85614408"},"coordinates":[42.822451,23.354284]},"tags_mismatch":false,"dist":0},{"osm":false,"atp":{"id":"AeEMBqTHsoTVg2NlDyu8xX347xc=","tags":{"amenity":"recycling","recycling:clothes":"yes","recycling:shoes":"yes","addr:country":"BG","name":"НОВИ ИСКЪР – кв. Гниляне, площад Гнилянска република","brand":"TexCycle","brand:wikidata":"Q85614408","operator:wikidata":"Q85614408"},"coordinates":[42.808857,23.376268]},"tags_mismatch":false,"dist":0},{"osm":false,"atp":{"id":"5b55pEm6qonmvdG5oAZ-71zgDuA=","tags":{"amenity":"recycling","recycling:clothes":"yes","recycling:shoes":"yes","addr:country":"BG","name":"НОВИ ИСКЪР – с. Подгумер, площад Васил Левски","brand":"TexCycle","brand:wikidata":"Q85614408","operator:wikidata":"Q85614408"},"coordinates":[42.802756,23.403911]},"tags_mismatch":false,"dist":0},{"osm":false,"atp":{"id":"g08Qn6rbwpYFqg-oseeFcLeydns=","tags":{"amenity":"recycling","recycling:clothes":"yes","recycling:shoes":"yes","addr:country":"BG","name":"НОВИ ИСКЪР – с. Доброславци, площад На Мегдана","brand":"TexCycle","brand:wikidata":"Q85614408","operator:wikidata":"Q85614408"},"coordinates":[42.821538,23.282703]},"tags_mismatch":false,"dist":0},{"osm":false,"atp":{"id":"EL4baTyF8HLZxxD1GK4fad54gXQ=","tags":{"amenity":"recycling","recycling:clothes":"yes","recycling:shoes":"yes","addr:country":"BG","name":"НОВИ ИСКЪР – с. Локорско, площад Чавдарци","brand":"TexCycle","brand:wikidata":"Q85614408","operator:wikidata":"Q85614408"},"coordinates":[42.795619,23.447044]},"tags_mismatch":false,"dist":0},{"osm":false,"atp":{"id":"dYD8WuSXYcQRou_WMX5M2poFgbI=","tags":{"amenity":"recycling","recycling:clothes":"yes","recycling:shoes":"yes","addr:country":"BG","name":"ж.к. Лазур до бл. 1","brand":"TexCycle","brand:wikidata":"Q85614408","operator:wikidata":"Q85614408"},"coordinates":[42.50166,27.47826]},"tags_mismatch":false,"dist":0},{"osm":false,"atp":{"id":"YC5bH-QElfaoHDWzSLkspoglCIQ=","tags":{"amenity":"recycling","recycling:clothes":"yes","recycling:shoes":"yes","addr:country":"BG","name":"ж.к. Лазур, ул. Места, срещу бл.21","brand":"TexCycle","brand:wikidata":"Q85614408","operator:wikidata":"Q85614408"},"coordinates":[42.50823,27.47651]},"tags_mismatch":false,"dist":0},{"osm":false,"atp":{"id":"4dhq-Pq0xYMaqVx6M-h88P3L6gc=","tags":{"amenity":"recycling","recycling:clothes":"yes","recycling:shoes":"yes","addr:country":"BG","name":"ж.к. Изгрев срещу бл. 32 до трафопоста","brand":"TexCycle","brand:wikidata":"Q85614408","operator:wikidata":"Q85614408"},"coordinates":[42.53001,27.46512]},"tags_mismatch":false,"dist":0},{"osm":false,"atp":{"id":"0ld-j6zrWkHnmJvCRq7-sSKLUtM=","tags":{"amenity":"recycling","recycling:clothes":"yes","recycling:shoes":"yes","addr:country":"BG","name":"ж. к. Зорница на гърба на спортна зала Бойчо Брънзов, с/у бл. 38","brand":"TexCycle","brand:wikidata":"Q85614408","operator:wikidata":"Q85614408"},"coordinates":[42.51561,27.46756]},"tags_mismatch":false,"dist":0},{"osm":false,"atp":{"id":"Fcl8bs3XhYw5br7iDWDq8ATCjiA=","tags":{"amenity":"recycling","recycling:clothes":"yes","recycling:shoes":"yes","addr:country":"BG","name":"ж.к. Братя Миладинови между училище Васил Априлов и бл. Народен юмрук","brand":"TexCycle","brand:wikidata":"Q85614408","operator:wikidata":"Q85614408"},"coordinates":[42.5045,27.47237]},"tags_mismatch":false,"dist":0},{"osm":false,"atp":{"id":"jiYUPsn_U4pv2hRCZqMiOM3y_0c=","tags":{"amenity":"recycling","recycling:clothes":"yes","recycling:shoes":"yes","addr:country":"BG","name":"ЦГЧ , кв. 172 – зад бл. 104, срещу защитеното жилище","brand":"TexCycle","brand:wikidata":"Q85614408","operator:wikidata":"Q85614408"},"coordinates":[42.50284,27.47435]},"tags_mismatch":false,"dist":0},{"osm":false,"atp":{"id":"P728TM5iLlQRX5UxJNzqww3Zrg8=","tags":{"amenity":"recycling","recycling:clothes":"yes","recycling:shoes":"yes","addr:country":"BG","name":"ЗЦГЧ кв.38, срещу хотел Вега, в края на Фердинандова до Мария Луиза","brand":"TexCycle","brand:wikidata":"Q85614408","operator:wikidata":"Q85614408"},"coordinates":[42.49196,27.46233]},"tags_mismatch":false,"dist":0},{"osm":false,"atp":{"id":"HkAgE7f3bgjSG5WMaTEYo9j4o_Y=","tags":{"amenity":"recycling","recycling:clothes":"yes","recycling:shoes":"yes","addr:country":"BG","name":"ж.к. Меден Рудник, бл. 369 (битака)","brand":"TexCycle","brand:wikidata":"Q85614408","operator:wikidata":"Q85614408"},"coordinates":[42.45253,27.41437]},"tags_mismatch":false,"dist":0},{"osm":false,"atp":{"id":"h2m1L44usO05JQytRAjnuyKcBcA=","tags":{"amenity":"recycling","recycling:clothes":"yes","recycling:shoes":"yes","addr:country":"BG","name":"ж.к. Меден рудник, зона В, кв. 34 – срещу третата секция на бл. 77, на паркинга","brand":"TexCycle","brand:wikidata":"Q85614408","operator:wikidata":"Q85614408"},"coordinates":[42.45254,27.41708]},"tags_mismatch":false,"dist":0},{"osm":false,"atp":{"id":"6cFKC0yxRTV6vU3xPcKxojXOEvs=","tags":{"amenity":"recycling","recycling:clothes":"yes","recycling:shoes":"yes","addr:country":"BG","name":"ж.к. Меден рудник, зона Б, кв. 37 – между 84 и 85 блок","brand":"TexCycle","brand:wikidata":"Q85614408","operator:wikidata":"Q85614408"},"coordinates":[42.4528,27.42093]},"tags_mismatch":false,"dist":0},{"osm":false,"atp":{"id":"YYKGlopnvQ4vC7i_pWfB8fSWEjU=","tags":{"amenity":"recycling","recycling:clothes":"yes","recycling:shoes":"yes","addr:country":"BG","name":"ж.к. Меден рудник, зона А , кв. 16 – между бл. 38 и 34, пред тото пункта, срещу Лидъл","brand":"TexCycle","brand:wikidata":"Q85614408","operator:wikidata":"Q85614408"},"coordinates":[42.45951,27.41622]},"tags_mismatch":false,"dist":0},{"osm":false,"atp":{"id":"_fVqgvuDjLqSb7dpewn8MowIbWg=","tags":{"amenity":"recycling","recycling:clothes":"yes","recycling:shoes":"yes","addr:country":"BG","name":"ж.к. Меден рудник, зона А на паркинга срещу ОУ Елин Пелин","brand":"TexCycle","brand:wikidata":"Q85614408","operator:wikidata":"Q85614408"},"coordinates":[42.46101,27.42108]},"tags_mismatch":false,"dist":0},{"osm":false,"atp":{"id":"NVd76YL4JgH_42qLeF8py3MjmLg=","tags":{"amenity":"recycling","recycling:clothes":"yes","recycling:shoes":"yes","addr:country":"BG","name":"ж.к. Меден рудник, зона Б , кв. 22а – срещу спортна площадка до бл. 449","brand":"TexCycle","brand:wikidata":"Q85614408","operator:wikidata":"Q85614408"},"coordinates":[42.45644,27.42087]},"tags_mismatch":false,"dist":0},{"osm":false,"atp":{"id":"e2uuStgiruhFJGC7o9eALfF-8A4=","tags":{"amenity":"recycling","recycling:clothes":"yes","recycling:shoes":"yes","addr:country":"BG","name":"ж.к. Зорница до подлеза срещу бл. 20","brand":"TexCycle","brand:wikidata":"Q85614408","operator:wikidata":"Q85614408"},"coordinates":[42.52036,27.46553]},"tags_mismatch":false,"dist":0},{"osm":false,"atp":{"id":"xGnIUA_nos4AdVsnLIyogQWDstc=","tags":{"amenity":"recycling","recycling:clothes":"yes","recycling:shoes":"yes","addr:country":"BG","name":"ж.к. Братя Миладинови, кв. 23 – зад блока на Трапезица, зад бл. 56","brand":"TexCycle","brand:wikidata":"Q85614408","operator:wikidata":"Q85614408"},"coordinates":[42.50456,27.46499]},"tags_mismatch":false,"dist":0},{"osm":false,"atp":{"id":"xEE1DD680g_ivyf8X0oS97q1BAQ=","tags":{"amenity":"recycling","recycling:clothes":"yes","recycling:shoes":"yes","addr:country":"BG","name":"ж.к. Славейков между ПТТС 8005 и бл. 8","brand":"TexCycle","brand:wikidata":"Q85614408","operator:wikidata":"Q85614408"},"coordinates":[42.51599,27.45617]},"tags_mismatch":false,"dist":0},{"osm":false,"atp":{"id":"-KpCKrgAlNGAEzZzRbgVf_3z_7c=","tags":{"amenity":"recycling","recycling:clothes":"yes","recycling:shoes":"yes","addr:country":"BG","name":"ж.к. Изгрев, кв. 18 – между бл.66/65","brand":"TexCycle","brand:wikidata":"Q85614408","operator:wikidata":"Q85614408"},"coordinates":[42.52692,27.45948]},"tags_mismatch":false,"dist":0},{"osm":false,"atp":{"id":"p8q_SybJ6qqSIMXXBT771COexWM=","tags":{"amenity":"recycling","recycling:clothes":"yes","recycling:shoes":"yes","addr:country":"BG","name":"кв. Сарафово – кв. 42 кръстовище ул. Ангел Димитров и ул. Ремсова до трафопоста","brand":"TexCycle","brand:wikidata":"Q85614408","operator:wikidata":"Q85614408"},"coordinates":[42.55708,27.51562]},"tags_mismatch":false,"dist":0},{"osm":false,"atp":{"id":"nSSL5hOSdIRNiedrtDA0VN9s17Y=","tags":{"amenity":"recycling","recycling:clothes":"yes","recycling:shoes":"yes","addr:country":"BG","name":"ж.к. Славейков – до бл. 365, срещу училище Михаил Лъкатник – 82","brand":"TexCycle","brand:wikidata":"Q85614408","operator:wikidata":"Q85614408"},"coordinates":[42.52238,27.44745]},"tags_mismatch":false,"dist":0},{"osm":false,"atp":{"id":"a8SE0wiYsRCe3YQ8dQpu9iaCLBI=","tags":{"amenity":"recycling","recycling:clothes":"yes","recycling:shoes":"yes","addr:country":"BG","name":"ж.к. Зорница до бл. 3","brand":"TexCycle","brand:wikidata":"Q85614408","operator:wikidata":"Q85614408"},"coordinates":[42.515037,27.463327]},"tags_mismatch":false,"dist":0},{"osm":false,"atp":{"id":"W802BGU6ImCsuvs54fbBqCUbj_o=","tags":{"amenity":"recycling","recycling:clothes":"yes","recycling:shoes":"yes","addr:country":"BG","name":"ж.к. Изгрев, ул. Петко Загорски до бл. 41А","brand":"TexCycle","brand:wikidata":"Q85614408","operator:wikidata":"Q85614408"},"coordinates":[42.521932,27.464235]},"tags_mismatch":false,"dist":0},{"osm":false,"atp":{"id":"6uNwxDzHfFhi7Zm8SCuSLqYZ1Qc=","tags":{"amenity":"recycling","recycling:clothes":"yes","recycling:shoes":"yes","addr:country":"BG","name":"ж.к. Изгрев, ул. Георги Калоянчев, до пазар Велека","brand":"TexCycle","brand:wikidata":"Q85614408","operator:wikidata":"Q85614408"},"coordinates":[42.525563,27.464937]},"tags_mismatch":false,"dist":0},{"osm":false,"atp":{"id":"wrjc_Qn9obOeA8wLA_Js2U6ILWY=","tags":{"amenity":"recycling","recycling:clothes":"yes","recycling:shoes":"yes","addr:country":"BG","name":"ж.к. Братя Миладинови, ул. Шар планина, срещу магазин Болеро","brand":"TexCycle","brand:wikidata":"Q85614408","operator:wikidata":"Q85614408"},"coordinates":[42.505313,27.468045]},"tags_mismatch":false,"dist":0},{"osm":false,"atp":{"id":"rnCm4QcU66K_SHdOADho40Y8uHM=","tags":{"amenity":"recycling","recycling:clothes":"yes","recycling:shoes":"yes","addr:country":"BG","name":"ж.к. Лазур, ъгъла на ул. Копривщица с ул. Батак, до ГЧЕ „Васил Левски“","brand":"TexCycle","brand:wikidata":"Q85614408","operator:wikidata":"Q85614408"},"coordinates":[42.508693,27.472924]},"tags_mismatch":false,"dist":0},{"osm":false,"atp":{"id":"YFpy2TYX_k0jXnPhBfFlptyP_k4=","tags":{"amenity":"recycling","recycling:clothes":"yes","recycling:shoes":"yes","addr:country":"BG","name":"ж.к. Лазур, ъгъла на ул. Великов Търново с ул. Поморие, до Флора бар и грил","brand":"TexCycle","brand:wikidata":"Q85614408","operator:wikidata":"Q85614408"},"coordinates":[42.503659,27.4796]},"tags_mismatch":false,"dist":0},{"osm":false,"atp":{"id":"YJ1LE_7kEYc8O9g9W6kUezbrFAU=","tags":{"amenity":"recycling","recycling:clothes":"yes","recycling:shoes":"yes","addr:country":"BG","name":"ж.к. Лазур, ул. Васил Петлешков, срещу бл. 70","brand":"TexCycle","brand:wikidata":"Q85614408","operator:wikidata":"Q85614408"},"coordinates":[42.511574,27.468991]},"tags_mismatch":false,"dist":0},{"osm":false,"atp":{"id":"AGVcKl4ryIPzgO_bVREQFYD6JUA=","tags":{"amenity":"recycling","recycling:clothes":"yes","recycling:shoes":"yes","addr:country":"BG","name":"ж.к. Славейков, ТЦ „Престиж“, до бл. 62","brand":"TexCycle","brand:wikidata":"Q85614408","operator:wikidata":"Q85614408"},"coordinates":[42.518105,27.456054]},"tags_mismatch":false,"dist":0},{"osm":false,"atp":{"id":"gx5azADGB5Lz-DDNFagQk2flnvc=","tags":{"amenity":"recycling","recycling:clothes":"yes","recycling:shoes":"yes","addr:country":"BG","name":"ж.к. Славейков пред бл. 34, вх. 8","brand":"TexCycle","brand:wikidata":"Q85614408","operator:wikidata":"Q85614408"},"coordinates":[42.521007,27.444605]},"tags_mismatch":false,"dist":0},{"osm":false,"atp":{"id":"gq8u6vS2wAOvp382yXHjJYhGYmA=","tags":{"amenity":"recycling","recycling:clothes":"yes","recycling:shoes":"yes","addr:country":"BG","name":"ж.к. Славейков пред бл. 82","brand":"TexCycle","brand:wikidata":"Q85614408","operator:wikidata":"Q85614408"},"coordinates":[42.52118,27.450617]},"tags_mismatch":false,"dist":0},{"osm":false,"atp":{"id":"ugGYeo7nHhaSGhbrfzpeRz-sHJI=","tags":{"amenity":"recycling","recycling:clothes":"yes","recycling:shoes":"yes","addr:country":"BG","name":"кв. Ветрен, ул. Българка 54, Център за административни услуги","brand":"TexCycle","brand:wikidata":"Q85614408","operator:wikidata":"Q85614408"},"coordinates":[42.603762,27.384742]},"tags_mismatch":false,"dist":0},{"osm":false,"atp":{"id":"qfNDx1FpKHvqjsGReaPhPphMbGo=","tags":{"amenity":"recycling","recycling:clothes":"yes","recycling:shoes":"yes","addr:country":"BG","name":"кв. Банево, ул. Хаджи Димитър 2, пред Кметството","brand":"TexCycle","brand:wikidata":"Q85614408","operator:wikidata":"Q85614408"},"coordinates":[42.627924,27.394079]},"tags_mismatch":false,"dist":0},{"osm":false,"atp":{"id":"XsSOqncIe4QqWyj_fstx8naTOfU=","tags":{"amenity":"recycling","recycling:clothes":"yes","recycling:shoes":"yes","addr:country":"BG","name":"На източния тротоар на ул. Княз Александър Батенберг, в близост до пресечката с бул. Цар Симеон Велики","brand":"TexCycle","brand:wikidata":"Q85614408","operator:wikidata":"Q85614408"},"coordinates":[42.423134,25.616687]},"tags_mismatch":false,"dist":0},{"osm":false,"atp":{"id":"bO4wVuUkBuVGOEkTDnfpaH1Qv_8=","tags":{"amenity":"recycling","recycling:clothes":"yes","recycling:shoes":"yes","addr:country":"BG","name":"На паркинга на парк Артилерийски, до ул. Одринска епопея","brand":"TexCycle","brand:wikidata":"Q85614408","operator:wikidata":"Q85614408"},"coordinates":[42.41926,25.61357]},"tags_mismatch":false,"dist":0},{"osm":false,"atp":{"id":"iX6TK9tCclxAV2iMu4fODa1uDWc=","tags":{"amenity":"recycling","recycling:clothes":"yes","recycling:shoes":"yes","addr:country":"BG","name":"В близост до парк Зеленият клин","brand":"TexCycle","brand:wikidata":"Q85614408","operator:wikidata":"Q85614408"},"coordinates":[42.43039,25.63478]},"tags_mismatch":false,"dist":0},{"osm":false,"atp":{"id":"9sE-FVLve0G4aKVP9uZcFor6ogY=","tags":{"amenity":"recycling","recycling:clothes":"yes","recycling:shoes":"yes","addr:country":"BG","name":"Квартал Железник – пресечката на ул. Ген. Иван Пашинов и ул. Алеко Константинов","brand":"TexCycle","brand:wikidata":"Q85614408","operator:wikidata":"Q85614408"},"coordinates":[42.4135,25.5938]},"tags_mismatch":false,"dist":0},{"osm":false,"atp":{"id":"4jVVqCIs_3L8vINS4WwKqeIRMVY=","tags":{"amenity":"recycling","recycling:clothes":"yes","recycling:shoes":"yes","addr:country":"BG","name":"На паркинга на пресечката на ул. Любор Байер и бул. Руски","brand":"TexCycle","brand:wikidata":"Q85614408","operator:wikidata":"Q85614408"},"coordinates":[42.42645,25.62677]},"tags_mismatch":false,"dist":0},{"osm":false,"atp":{"id":"JoleuK1cZPyTCUCXvt9duA2C9lQ=","tags":{"amenity":"recycling","recycling:clothes":"yes","recycling:shoes":"yes","addr:country":"BG","name":"Северно от пресечката на ул. Стефан Караджа и ул. Ген. Гурко до източната ограда на Детска градина № 9 Светулка","brand":"TexCycle","brand:wikidata":"Q85614408","operator:wikidata":"Q85614408"},"coordinates":[42.42527,25.63969]},"tags_mismatch":false,"dist":0},{"osm":false,"atp":{"id":"yuuhWXPZhvxr6hKa9JDJDMk2m5I=","tags":{"amenity":"recycling","recycling:clothes":"yes","recycling:shoes":"yes","addr:country":"BG","name":"В квартал Три чучура юг срещу бл. 54","brand":"TexCycle","brand:wikidata":"Q85614408","operator:wikidata":"Q85614408"},"coordinates":[42.41605,25.60717]},"tags_mismatch":false,"dist":0},{"osm":false,"atp":{"id":"sGGNKNRZ2NtYsUWauGwvwDU6AiQ=","tags":{"amenity":"recycling","recycling:clothes":"yes","recycling:shoes":"yes","addr:country":"BG","name":"В кв. Зора на пресечката на ул. Златен клас и ул. Камчия","brand":"TexCycle","brand:wikidata":"Q85614408","operator:wikidata":"Q85614408"},"coordinates":[42.42504,25.68625]},"tags_mismatch":false,"dist":0},{"osm":false,"atp":{"id":"a8S5FLu567_Xql1qfHNb1YjRIPs=","tags":{"amenity":"recycling","recycling:clothes":"yes","recycling:shoes":"yes","addr:country":"BG","name":"бул. Никола Петков, паркинга до църква Св. Игнатий Старозагорски","brand":"TexCycle","brand:wikidata":"Q85614408","operator:wikidata":"Q85614408"},"coordinates":[42.428358,25.657672]},"tags_mismatch":false,"dist":0},{"osm":false,"atp":{"id":"jizaqExPKjM0EAgV8y483-SmoW0=","tags":{"amenity":"recycling","recycling:clothes":"yes","recycling:shoes":"yes","addr:country":"BG","name":"ул. Св.Отец Паисий 89, пред сградата на EVN","brand":"TexCycle","brand:wikidata":"Q85614408","operator:wikidata":"Q85614408"},"coordinates":[42.426599,25.620574]},"tags_mismatch":false,"dist":0},{"osm":false,"atp":{"id":"uQxIFyLOWivfB3qIsxTcBdtuAU8=","tags":{"amenity":"recycling","recycling:clothes":"yes","recycling:shoes":"yes","addr:country":"BG","name":"кръстовището на ул. Васил Левски с ул. Пенчо Минев, пред сградата на Районна Здравноосигурителна Каса","brand":"TexCycle","brand:wikidata":"Q85614408","operator:wikidata":"Q85614408"},"coordinates":[42.429885,25.628814]},"tags_mismatch":false,"dist":0},{"osm":false,"atp":{"id":"J66bjTKL6yg-9-t_ZJHLdUrg24s=","tags":{"amenity":"recycling","recycling:clothes":"yes","recycling:shoes":"yes","addr:country":"BG","name":"ул. Подполковник Калитин, до Първо ОУ Г.Бакалов","brand":"TexCycle","brand:wikidata":"Q85614408","operator:wikidata":"Q85614408"},"coordinates":[42.425715,25.64481]},"tags_mismatch":false,"dist":0},{"osm":false,"atp":{"id":"npd97uKiUMVJl3_AIIQNh1r1IEM=","tags":{"amenity":"recycling","recycling:clothes":"yes","recycling:shoes":"yes","addr:country":"BG","name":"Червен площад, кръстовището на ул. Княз Николаевич с ул. Иван Аксаков","brand":"TexCycle","brand:wikidata":"Q85614408","operator:wikidata":"Q85614408"},"coordinates":[43.210424,27.922967]},"tags_mismatch":false,"dist":0},{"osm":false,"atp":{"id":"mY5QKnRa9bNnfA5a6c0HxbIY9AA=","tags":{"amenity":"recycling","recycling:clothes":"yes","recycling:shoes":"yes","addr:country":"BG","name":"Чаталджа – кръстовището на ул. Цар Иван Асен с ул. Драва Чех","brand":"TexCycle","brand:wikidata":"Q85614408","operator:wikidata":"Q85614408"},"coordinates":[43.215221,27.924534]},"tags_mismatch":false,"dist":0},{"osm":false,"atp":{"id":"iDNbLRsbiNdUygAowIGygHrXhZs=","tags":{"amenity":"recycling","recycling:clothes":"yes","recycling:shoes":"yes","addr:country":"BG","name":"жк. Чайка, бул. Ал.Стамболийски, пиацата на такситата","brand":"TexCycle","brand:wikidata":"Q85614408","operator:wikidata":"Q85614408"},"coordinates":[43.215378,27.941853]},"tags_mismatch":false,"dist":0},{"osm":false,"atp":{"id":"OD5ptGf5BdDul73Hhb0IvNSx1f4=","tags":{"amenity":"recycling","recycling:clothes":"yes","recycling:shoes":"yes","addr:country":"BG","name":"ул. Найден Геров, подлеза срещу Професионална гимназия по Туризъм","brand":"TexCycle","brand:wikidata":"Q85614408","operator:wikidata":"Q85614408"},"coordinates":[43.210153,27.929927]},"tags_mismatch":false,"dist":0},{"osm":false,"atp":{"id":"H1h5QAI5V73pzoSCHkv-eyTbJNU=","tags":{"amenity":"recycling","recycling:clothes":"yes","recycling:shoes":"yes","addr:country":"BG","name":"бул. Цар Борис III Обединител, Бизнес парк Флавия","brand":"TexCycle","brand:wikidata":"Q85614408","operator:wikidata":"Q85614408"},"coordinates":[42.11965,24.756219]},"tags_mismatch":false,"dist":0},{"osm":false,"atp":{"id":"UNmdA3VNEgQ-UQ8Sif8vKH0WXeE=","tags":{"amenity":"recycling","recycling:clothes":"yes","recycling:shoes":"yes","addr:country":"BG","name":"жк. Запад, ул. Марица, пред магазин БГ Маркет","brand":"TexCycle","brand:wikidata":"Q85614408","operator:wikidata":"Q85614408"},"coordinates":[42.01687,23.08553]},"tags_mismatch":false,"dist":0},{"osm":false,"atp":{"id":"6icrfW3XpINvopBqDa26CMKdkGw=","tags":{"amenity":"recycling","recycling:clothes":"yes","recycling:shoes":"yes","addr:country":"BG","name":"сградата на Камерната опера, ъгъла на ул. Св. Иван Рилски и ул. Иван Вазов","brand":"TexCycle","brand:wikidata":"Q85614408","operator:wikidata":"Q85614408"},"coordinates":[42.02232,23.1014]},"tags_mismatch":false,"dist":0},{"osm":false,"atp":{"id":"Y0AqFGqZD4JeJ3yLGLJpu8g1dGY=","tags":{"amenity":"recycling","recycling:clothes":"yes","recycling:shoes":"yes","addr:country":"BG","name":"магазин Билла, ъгъла на ул. Крали Марко и ул. Т. Александров","brand":"TexCycle","brand:wikidata":"Q85614408","operator:wikidata":"Q85614408"},"coordinates":[42.0177,23.09669]},"tags_mismatch":false,"dist":0},{"osm":false,"atp":{"id":"knedrejiGTarrcmTY-ry0J7hnx4=","tags":{"amenity":"recycling","recycling:clothes":"yes","recycling:shoes":"yes","addr:country":"BG","name":"жк. Еленово, ул. Георги Андрейчин, до автобусната спирка","brand":"TexCycle","brand:wikidata":"Q85614408","operator:wikidata":"Q85614408"},"coordinates":[42.004,23.10608]},"tags_mismatch":false,"dist":0},{"osm":false,"atp":{"id":"1OMDiqXMPknSbyensG1JHZy1lN4=","tags":{"amenity":"recycling","recycling:clothes":"yes","recycling:shoes":"yes","addr:country":"BG","name":"жк. Струмско, ул. Яне Сандански, срещу VI СУ и магазин „Стоми“","brand":"TexCycle","brand:wikidata":"Q85614408","operator:wikidata":"Q85614408"},"coordinates":[41.9927,23.0886]},"tags_mismatch":false,"dist":0},{"osm":false,"atp":{"id":"s_ej4Gkh88PP7nltH4FaPcQZLbs=","tags":{"amenity":"recycling","recycling:clothes":"yes","recycling:shoes":"yes","addr:country":"BG","name":"парк Марно поле – ул. Цар Тодор – Светослав и ул. Марно поле","brand":"TexCycle","brand:wikidata":"Q85614408","operator:wikidata":"Q85614408"},"coordinates":[43.08081,25.63224]},"tags_mismatch":false,"dist":0},{"osm":false,"atp":{"id":"JNToB3mohnknhabxUa_05vtEZI0=","tags":{"amenity":"recycling","recycling:clothes":"yes","recycling:shoes":"yes","addr:country":"BG","name":"кв. Дружба – на ъгъла на ул Козлодуй и ул. Мармарлийска","brand":"TexCycle","brand:wikidata":"Q85614408","operator:wikidata":"Q85614408"},"coordinates":[43.07594,25.6279]},"tags_mismatch":false,"dist":0},{"osm":false,"atp":{"id":"_pYLwuTwwpFyGzJHmWTxmZgjIqA=","tags":{"amenity":"recycling","recycling:clothes":"yes","recycling:shoes":"yes","addr:country":"BG","name":"кв. Бузлуджа – на ъгъла на ул. Константин Паница и ул. Иван Хаджидимитров","brand":"TexCycle","brand:wikidata":"Q85614408","operator:wikidata":"Q85614408"},"coordinates":[43.06925,25.60788]},"tags_mismatch":false,"dist":0},{"osm":false,"atp":{"id":"EllmhusIdvF1urj9_UGXFsP6678=","tags":{"amenity":"recycling","recycling:clothes":"yes","recycling:shoes":"yes","addr:country":"BG","name":"кв. Колю Фичето – ул. Симеон Велико – до Мол Велико Търново","brand":"TexCycle","brand:wikidata":"Q85614408","operator:wikidata":"Q85614408"},"coordinates":[43.07948,25.60095]},"tags_mismatch":false,"dist":0},{"osm":false,"atp":{"id":"4mfoLEXtWN_hj1K7Z1DhtcAdNyk=","tags":{"amenity":"recycling","recycling:clothes":"yes","recycling:shoes":"yes","addr:country":"BG","name":"кв. Картала – ъгъла на ул. Стоян Михайловски и ул. Петко Ю. Тодоров","brand":"TexCycle","brand:wikidata":"Q85614408","operator:wikidata":"Q85614408"},"coordinates":[43.08394,25.62093]},"tags_mismatch":false,"dist":0},{"osm":false,"atp":{"id":"gdd_1dNuGzAMQZzCkX7BfuHjKaQ=","tags":{"amenity":"recycling","recycling:clothes":"yes","recycling:shoes":"yes","addr:country":"BG","name":"кръстовището на ул. Орловска с ул. Иван Н. Момчилов, пред ЦДГ „Ана Брадел“","brand":"TexCycle","brand:wikidata":"Q85614408","operator:wikidata":"Q85614408"},"coordinates":[42.932458,25.885589]},"tags_mismatch":false,"dist":0},{"osm":false,"atp":{"id":"x8JcndH6Mzps4jaRijsbqpShi6U=","tags":{"amenity":"recycling","recycling:clothes":"yes","recycling:shoes":"yes","addr:country":"BG","name":"паркинга на Общински Младежки Център Захари Стоянов","brand":"TexCycle","brand:wikidata":"Q85614408","operator:wikidata":"Q85614408"},"coordinates":[43.566754,27.8282]},"tags_mismatch":false,"dist":0},{"osm":false,"atp":{"id":"59OnS1lzv58FL_xQ10AtxyfYXbk=","tags":{"amenity":"recycling","recycling:clothes":"yes","recycling:shoes":"yes","addr:country":"BG","name":"На ъгъла на ул. Димитър Петков и Отец Паисий – до сградата на стоматологията","brand":"TexCycle","brand:wikidata":"Q85614408","operator:wikidata":"Q85614408"},"coordinates":[43.5712,27.83293]},"tags_mismatch":false,"dist":0},{"osm":false,"atp":{"id":"hy_nqOlO8oDu-hvezyDY7U-aVwo=","tags":{"amenity":"recycling","recycling:clothes":"yes","recycling:shoes":"yes","addr:country":"BG","name":"ж.к. Добротица – до основно училище Хан Аспарух","brand":"TexCycle","brand:wikidata":"Q85614408","operator:wikidata":"Q85614408"},"coordinates":[43.55294,27.83427]},"tags_mismatch":false,"dist":0},{"osm":false,"atp":{"id":"tu9ugztHoHFOstpckX7BZI8svrI=","tags":{"amenity":"recycling","recycling:clothes":"yes","recycling:shoes":"yes","addr:country":"BG","name":"ул.Христо Ботев, паркинга между бл.4 и бл.6, до Тото пункта","brand":"TexCycle","brand:wikidata":"Q85614408","operator:wikidata":"Q85614408"},"coordinates":[43.574358,27.840896]},"tags_mismatch":false,"dist":0},{"osm":false,"atp":{"id":"BolxeN14aD8hYOrnjtOswZeDtSY=","tags":{"amenity":"recycling","recycling:clothes":"yes","recycling:shoes":"yes","addr:country":"BG","name":"ул. Христо Ботев 68, площадка за разделно събиране на отпадъци на Община Добрич","brand":"TexCycle","brand:wikidata":"Q85614408","operator:wikidata":"Q85614408"},"coordinates":[43.578051,27.855624]},"tags_mismatch":false,"dist":0},{"osm":false,"atp":{"id":"HSf63qzHMQ0lkgwXSRu169MOx4o=","tags":{"amenity":"recycling","recycling:clothes":"yes","recycling:shoes":"yes","addr:country":"BG","name":"ул. Хаджи Димитър, пиацата на такситата, до Т Маркет","brand":"TexCycle","brand:wikidata":"Q85614408","operator:wikidata":"Q85614408"},"coordinates":[42.704755,27.249105]},"tags_mismatch":false,"dist":0},{"osm":false,"atp":{"id":"-8qHAxtZ0XL0WO1AM0l0f6sk-GU=","tags":{"amenity":"recycling","recycling:clothes":"yes","recycling:shoes":"yes","addr:country":"BG","name":"ул. Станционна 27, срещу Уникредит Булбанк","brand":"TexCycle","brand:wikidata":"Q85614408","operator:wikidata":"Q85614408"},"coordinates":[42.703156,27.252212]},"tags_mismatch":false,"dist":0},{"osm":false,"atp":{"id":"rVF7xzkNDJyv4D1dgQk7YDXvn0E=","tags":{"amenity":"recycling","recycling:clothes":"yes","recycling:shoes":"yes","addr:country":"BG","name":"ул. Солна 5, на паркинга срещу Общинска администрация","brand":"TexCycle","brand:wikidata":"Q85614408","operator:wikidata":"Q85614408"},"coordinates":[42.55853,27.64189]},"tags_mismatch":false,"dist":0},{"osm":false,"atp":{"id":"NndfzKRzttKX2rKOck_ZWSbt9UI=","tags":{"amenity":"recycling","recycling:clothes":"yes","recycling:shoes":"yes","addr:country":"BG","name":"ул. Княз Борис I 98, до сградата на Районно управление","brand":"TexCycle","brand:wikidata":"Q85614408","operator:wikidata":"Q85614408"},"coordinates":[42.56098,27.63478]},"tags_mismatch":false,"dist":0},{"osm":false,"atp":{"id":"FqpAjlHYCGM_2rcJkEkQxEL8yrM=","tags":{"amenity":"recycling","recycling:clothes":"yes","recycling:shoes":"yes","addr:country":"BG","name":"ул. Княз Борис I 211, на автогарата в кв. Свети Георги","brand":"TexCycle","brand:wikidata":"Q85614408","operator:wikidata":"Q85614408"},"coordinates":[42.5659,27.61124]},"tags_mismatch":false,"dist":0},{"osm":false,"atp":{"id":"rKqZ0-wF0OaBBCJbsYxq_ivSFBc=","tags":{"amenity":"recycling","recycling:clothes":"yes","recycling:shoes":"yes","addr:country":"BG","name":"ул. Захари Стоянов, пред Арена Ботевград","brand":"TexCycle","brand:wikidata":"Q85614408","operator:wikidata":"Q85614408"},"coordinates":[42.90043,23.788711]},"tags_mismatch":false,"dist":0},{"osm":false,"atp":{"id":"I5Blo7acuFEj3Z-WYJwMelmoDHs=","tags":{"amenity":"recycling","recycling:clothes":"yes","recycling:shoes":"yes","addr:country":"BG","name":"ул. Илия Стоянов, до ОУ Св. Св. Кирил и Методий","brand":"TexCycle","brand:wikidata":"Q85614408","operator:wikidata":"Q85614408"},"coordinates":[42.903007,23.80421]},"tags_mismatch":false,"dist":0},{"osm":false,"atp":{"id":"9ztkw8koiQ9HsqR0yW9_Kz2Dxfs=","tags":{"amenity":"recycling","recycling:clothes":"yes","recycling:shoes":"yes","addr:country":"BG","name":"ул. Плиска, до детската площадка пред бл. 10","brand":"TexCycle","brand:wikidata":"Q85614408","operator:wikidata":"Q85614408"},"coordinates":[42.915487,23.793518]},"tags_mismatch":false,"dist":0},{"osm":false,"atp":{"id":"Qpd0fO8p1bKvTQ0O0V1HWHiOA7s=","tags":{"amenity":"recycling","recycling:clothes":"yes","recycling:shoes":"yes","addr:country":"BG","name":"ул. Никола Вапцаров 51","brand":"TexCycle","brand:wikidata":"Q85614408","operator:wikidata":"Q85614408"},"coordinates":[41.575067,23.283789]},"tags_mismatch":false,"dist":0},{"osm":false,"atp":{"id":"u40Q2xsVBhwV2MxwYimR1L2SHJA=","tags":{"amenity":"recycling","recycling:clothes":"yes","recycling:shoes":"yes","addr:country":"BG","name":"ж.к. Спартак, ул. Беласица 31","brand":"TexCycle","brand:wikidata":"Q85614408","operator:wikidata":"Q85614408"},"coordinates":[41.553668,23.268442]},"tags_mismatch":false,"dist":0},{"osm":false,"atp":{"id":"-hj0Az9g5HHQoyDhgT9ClwBBRd0=","tags":{"amenity":"recycling","recycling:clothes":"yes","recycling:shoes":"yes","addr:country":"BG","name":"ул. Тодор Каблешков 5, под IV ОУ Св.Св. Козма и Дамян","brand":"TexCycle","brand:wikidata":"Q85614408","operator:wikidata":"Q85614408"},"coordinates":[41.554259,23.27525]},"tags_mismatch":false,"dist":0},{"osm":false,"atp":{"id":"dSigsfLu9a3Iq4hNcbeqPmw37FI=","tags":{"amenity":"recycling","recycling:clothes":"yes","recycling:shoes":"yes","addr:country":"BG","name":"кръговото кръстовище на ул. Добрич и ул. 7ми Септември","brand":"TexCycle","brand:wikidata":"Q85614408","operator:wikidata":"Q85614408"},"coordinates":[44.111727,27.272667]},"tags_mismatch":false,"dist":0},{"osm":false,"atp":{"id":"iDHqdpn1SWE_6hvFm1HgT-nsODw=","tags":{"amenity":"recycling","recycling:clothes":"yes","recycling:shoes":"yes","addr:country":"BG","name":"кръстовището на ул. Сан Стефано с бул. Македония, пред кафе The Red one","brand":"TexCycle","brand:wikidata":"Q85614408","operator:wikidata":"Q85614408"},"coordinates":[44.119394,27.268571]},"tags_mismatch":false,"dist":0},{"osm":false,"atp":{"id":"CKyx0BibOPvQLqapjQP6s-MnQbs=","tags":{"amenity":"recycling","recycling:clothes":"yes","recycling:shoes":"yes","addr:country":"BG","name":"бул. Македония 88, до спирката","brand":"TexCycle","brand:wikidata":"Q85614408","operator:wikidata":"Q85614408"},"coordinates":[44.112561,27.263277]},"tags_mismatch":false,"dist":0},{"osm":false,"atp":{"id":"5wYf4x5brU0cE7V0BdDvsTILNoA=","tags":{"amenity":"recycling","recycling:clothes":"yes","recycling:shoes":"yes","addr:country":"BG","name":"кръстовището на ул. Христо Ботев и ул. Искър","brand":"TexCycle","brand:wikidata":"Q85614408","operator:wikidata":"Q85614408"},"coordinates":[44.045199,26.61484]},"tags_mismatch":false,"dist":0},{"osm":false,"atp":{"id":"Kw_8_52zQOf9F3ZbMZI7hXvMSbA=","tags":{"amenity":"recycling","recycling:clothes":"yes","recycling:shoes":"yes","addr:country":"BG","name":"пред Районен съд","brand":"TexCycle","brand:wikidata":"Q85614408","operator:wikidata":"Q85614408"},"coordinates":[43.357605,25.143226]},"tags_mismatch":false,"dist":0},{"osm":false,"atp":{"id":"RV120XnBXikFVgZgUmjIJDdgkPA=","tags":{"amenity":"recycling","recycling:clothes":"yes","recycling:shoes":"yes","addr:country":"BG","name":"ул. Александър Стамболийски 9","brand":"TexCycle","brand:wikidata":"Q85614408","operator:wikidata":"Q85614408"},"coordinates":[43.40961,28.165151]},"tags_mismatch":false,"dist":0},{"osm":false,"atp":{"id":"TC6e39uhmxk0fPijShQaLVHti98=","tags":{"amenity":"recycling","recycling:clothes":"yes","recycling:shoes":"yes","addr:country":"BG","name":"жк. Балик, паркинга на магазин Аквилон","brand":"TexCycle","brand:wikidata":"Q85614408","operator:wikidata":"Q85614408"},"coordinates":[43.421424,28.163493]},"tags_mismatch":false,"dist":0},{"osm":false,"atp":{"id":"tiqBl5R-K90PxNfocZs_uTjw18E=","tags":{"amenity":"recycling","recycling:clothes":"yes","recycling:shoes":"yes","addr:country":"BG","name":"на паркинга между ул. Л. Каравелов и ул. Добротица","brand":"TexCycle","brand:wikidata":"Q85614408","operator:wikidata":"Q85614408"},"coordinates":[43.431244,28.336729]},"tags_mismatch":false,"dist":0},{"osm":false,"atp":{"id":"EMCo63Z3UVjZ1HKkmP3oM-9e51o=","tags":{"amenity":"recycling","recycling:clothes":"yes","recycling:shoes":"yes","addr:country":"BG","name":"на паркинга между ул. България и ул. Георги Кирков","brand":"TexCycle","brand:wikidata":"Q85614408","operator:wikidata":"Q85614408"},"coordinates":[43.435263,28.338082]},"tags_mismatch":false,"dist":0},{"osm":false,"atp":{"id":"ruax7j2cDrQpf0PlVeg-srwuanQ=","tags":{"amenity":"recycling","recycling:clothes":"yes","recycling:shoes":"yes","addr:country":"BG","name":"ул. Михаил Иванов, срещу сградата на Община Акасково","brand":"TexCycle","brand:wikidata":"Q85614408","operator:wikidata":"Q85614408"},"coordinates":[43.259252,27.81814]},"tags_mismatch":false,"dist":0},{"osm":false,"atp":{"id":"omdonjskEx7qBEI1GZpeYczFRaw=","tags":{"amenity":"recycling","recycling:clothes":"yes","recycling:shoes":"yes","addr:country":"BG","name":"ул. Трети март 44, до сградата на община Белослав","brand":"TexCycle","brand:wikidata":"Q85614408","operator:wikidata":"Q85614408"},"coordinates":[43.189357,27.705293]},"tags_mismatch":false,"dist":0},{"osm":false,"atp":{"id":"ceKMwnLZ0XXbj6K3si_0zk1OPqo=","tags":{"amenity":"recycling","recycling:clothes":"yes","recycling:shoes":"yes","addr:country":"BG","name":"ул.Оборище, на паркинга зад Народно читалище Зора","brand":"TexCycle","brand:wikidata":"Q85614408","operator:wikidata":"Q85614408"},"coordinates":[43.536162,28.533044]},"tags_mismatch":false,"dist":0},{"osm":false,"atp":{"id":"TRKvZox_fJCRxkVmkhNy0r18tRE=","tags":{"amenity":"recycling","recycling:clothes":"yes","recycling:shoes":"yes","addr:country":"BG","name":"ул. „Г.С.Раковски“, срещу сградата на Община Ветрино","brand":"TexCycle","brand:wikidata":"Q85614408","operator:wikidata":"Q85614408"},"coordinates":[43.31532,27.434891]},"tags_mismatch":false,"dist":0},{"osm":false,"atp":{"id":"e1Hn9lfjua60sJuPJKFf6WYJN6M=","tags":{"amenity":"recycling","recycling:clothes":"yes","recycling:shoes":"yes","addr:country":"BG","name":"с. Аврен, ул. Йордан Ноев 50, пред Информационен център","brand":"TexCycle","brand:wikidata":"Q85614408","operator:wikidata":"Q85614408"},"coordinates":[43.10985,27.674448]},"tags_mismatch":false,"dist":0},{"osm":false,"atp":{"id":"YzySoYYlqf4oDToXb8X6bxn4L3g=","tags":{"amenity":"recycling","recycling:clothes":"yes","recycling:shoes":"yes","addr:country":"BG","name":"ул. Г. Б. Ковски, площада срещу Общината","brand":"TexCycle","brand:wikidata":"Q85614408","operator:wikidata":"Q85614408"},"coordinates":[42.918076,24.264459]},"tags_mismatch":false,"dist":0},{"osm":false,"atp":{"id":"asIGJEopKgqm92ymxa9keV7kPq0=","tags":{"amenity":"recycling","recycling:clothes":"yes","recycling:shoes":"yes","addr:country":"BG","name":"ул. Бели Вит, до автобусната спирка","brand":"TexCycle","brand:wikidata":"Q85614408","operator:wikidata":"Q85614408"},"coordinates":[42.913822,24.282264]},"tags_mismatch":false,"dist":0},{"osm":false,"atp":{"id":"8ip4bvgnpCvlPjnMG8aolAAxC0w=","tags":{"amenity":"recycling","recycling:clothes":"yes","recycling:shoes":"yes","addr:country":"BG","name":"ул. Шар, на гърба на СУ Св. Св. Кирил и Методий","brand":"TexCycle","brand:wikidata":"Q85614408","operator:wikidata":"Q85614408"},"coordinates":[42.546239,22.963393]},"tags_mismatch":false,"dist":0},{"osm":false,"atp":{"id":"lO0RFE4bsfL4UrLrD8F7SYL-NRQ=","tags":{"amenity":"recycling","recycling:clothes":"yes","recycling:shoes":"yes","addr:country":"BG","name":"ъгъла на ул. Батенберг и ул. Васил Левски","brand":"TexCycle","brand:wikidata":"Q85614408","operator:wikidata":"Q85614408"},"coordinates":[42.546752,22.965886]},"tags_mismatch":false,"dist":0},{"osm":false,"atp":{"id":"ZH3xDi-nKN6BZiU6MwK1SqAWMms=","tags":{"amenity":"recycling","recycling:clothes":"yes","recycling:shoes":"yes","addr:country":"BG","name":"ул. Княз Борис I, градинката зад спирката на Лидл","brand":"TexCycle","brand:wikidata":"Q85614408","operator:wikidata":"Q85614408"},"coordinates":[42.266065,23.112869]},"tags_mismatch":false,"dist":0},{"osm":false,"atp":{"id":"jmljiz8tDO0i0oA9g2cBjiHXp80=","tags":{"amenity":"recycling","recycling:clothes":"yes","recycling:shoes":"yes","addr:country":"BG","name":"ул. Орлинска, до Била","brand":"TexCycle","brand:wikidata":"Q85614408","operator:wikidata":"Q85614408"},"coordinates":[42.273505,23.130632]},"tags_mismatch":false,"dist":0},{"osm":false,"atp":{"id":"zAQxY1ELqlki1pqPfftdpZDt_Os=","tags":{"amenity":"recycling","recycling:clothes":"yes","recycling:shoes":"yes","addr:country":"BG","name":"кв. Бистрица, ул. Асен Мердиджиев, Обръщалото на автобусите","brand":"TexCycle","brand:wikidata":"Q85614408","operator:wikidata":"Q85614408"},"coordinates":[42.251874,23.128021]},"tags_mismatch":false,"dist":0},{"osm":false,"atp":{"id":"UaL0SehhNcVO71xxqKjq0EvM9i0=","tags":{"amenity":"recycling","recycling:clothes":"yes","recycling:shoes":"yes","addr:country":"BG","name":"ул. Цар Симеон 72, пред входа на Градския парк","brand":"TexCycle","brand:wikidata":"Q85614408","operator:wikidata":"Q85614408"},"coordinates":[41.836118,23.492084]},"tags_mismatch":false,"dist":0},{"osm":false,"atp":{"id":"Ji1EUrdyZxhMbizo58NYAtAJDlM=","tags":{"amenity":"recycling","recycling:clothes":"yes","recycling:shoes":"yes","addr:country":"BG","name":"ул. Иконом К. Чучулайн","brand":"TexCycle","brand:wikidata":"Q85614408","operator:wikidata":"Q85614408"},"coordinates":[41.837306,23.483308]},"tags_mismatch":false,"dist":0},{"osm":false,"atp":{"id":"GTGlrmCORBfGwRPDCrJPhg56nuw=","tags":{"amenity":"recycling","recycling:clothes":"yes","recycling:shoes":"yes","addr:country":"BG","name":"ъгъла на ул. Спартак с ул. Власина, пред Спортно училище","brand":"TexCycle","brand:wikidata":"Q85614408","operator:wikidata":"Q85614408"},"coordinates":[42.282748,22.67527]},"tags_mismatch":false,"dist":0},{"osm":false,"atp":{"id":"zOIuGFDoGQ2uvw8XCmJ5p1REEaE=","tags":{"amenity":"recycling","recycling:clothes":"yes","recycling:shoes":"yes","addr:country":"BG","name":"ъгъла на ул. Добрич с ул. Нов Живот, срещу Енергото","brand":"TexCycle","brand:wikidata":"Q85614408","operator:wikidata":"Q85614408"},"coordinates":[42.277827,22.671917]},"tags_mismatch":false,"dist":0},{"osm":false,"atp":{"id":"5Ept1K_DlpQa1Lv9OeKcVALDW3w=","tags":{"amenity":"recycling","recycling:clothes":"yes","recycling:shoes":"yes","addr:country":"BG","name":"ул. Гоце Делчев до бл. 99","brand":"TexCycle","brand:wikidata":"Q85614408","operator:wikidata":"Q85614408"},"coordinates":[42.292736,22.698935]},"tags_mismatch":false,"dist":0},{"osm":false,"atp":{"id":"VgeZcAZesqRsGRZTr4Hvq17-x8g=","tags":{"amenity":"recycling","recycling:clothes":"yes","recycling:shoes":"yes","addr:country":"BG","name":"ул. Синчец, пред ЦНСТ „Сияние“","brand":"TexCycle","brand:wikidata":"Q85614408","operator:wikidata":"Q85614408"},"coordinates":[42.275722,22.703907]},"tags_mismatch":false,"dist":0},{"osm":false,"atp":{"id":"V8QqzIEyPYtWyUOIQLeh0mPDdx0=","tags":{"amenity":"recycling","recycling:clothes":"yes","recycling:shoes":"yes","addr:country":"BG","name":"ул. Камчия, пред стадион „Странджа“","brand":"TexCycle","brand:wikidata":"Q85614408","operator:wikidata":"Q85614408"},"coordinates":[42.286035,22.702251]},"tags_mismatch":false,"dist":0},{"osm":false,"atp":{"id":"MfbvDi1nDG0CyGjrc_Iwt9DB8O8=","tags":{"amenity":"recycling","recycling:clothes":"yes","recycling:shoes":"yes","addr:country":"BG","name":"кв. Младост, паркинга между бл. 6 и бл. 7","brand":"TexCycle","brand:wikidata":"Q85614408","operator:wikidata":"Q85614408"},"coordinates":[42.273851,22.671358]},"tags_mismatch":false,"dist":0},{"osm":false,"atp":{"id":"X4KuIcnLQiO4ia3o_Gh0rfkZJDc=","tags":{"amenity":"recycling","recycling:clothes":"yes","recycling:shoes":"yes","addr:country":"BG","name":"ъгъла на ул. Васил Левски с ул. Христо Смирненски","brand":"TexCycle","brand:wikidata":"Q85614408","operator:wikidata":"Q85614408"},"coordinates":[41.892968,23.110737]},"tags_mismatch":false,"dist":0},{"osm":false,"atp":{"id":"nR_lCRhmMHs-ohUuk8ZSZ0deg7Q=","tags":{"amenity":"recycling","recycling:clothes":"yes","recycling:shoes":"yes","addr:country":"BG","name":"кв. Ораново, ъгъла на ул. Септемврийска с ул. Панайот Хитов","brand":"TexCycle","brand:wikidata":"Q85614408","operator:wikidata":"Q85614408"},"coordinates":[41.892806,23.124141]},"tags_mismatch":false,"dist":0},{"osm":false,"atp":{"id":"W-2Z3kegHLVUSCFECbEfoXh22Uw=","tags":{"amenity":"recycling","recycling:clothes":"yes","recycling:shoes":"yes","addr:country":"BG","name":"кв. Вратлек, ул. Рожен","brand":"TexCycle","brand:wikidata":"Q85614408","operator:wikidata":"Q85614408"},"coordinates":[41.741595,24.405834]},"tags_mismatch":false,"dist":0},{"osm":false,"atp":{"id":"qTBs0fZYOOI8fNRXULfQJk0CXJI=","tags":{"amenity":"recycling","recycling:clothes":"yes","recycling:shoes":"yes","addr:country":"BG","name":"ъгъла на ул. Родопи и ул. Спартак, до пешеходния мост","brand":"TexCycle","brand:wikidata":"Q85614408","operator:wikidata":"Q85614408"},"coordinates":[41.743436,24.391773]},"tags_mismatch":false,"dist":0},{"osm":false,"atp":{"id":"4j9841-saUaUYkoccg7_zugFFz8=","tags":{"amenity":"recycling","recycling:clothes":"yes","recycling:shoes":"yes","addr:country":"BG","name":"ул. Атанас Кабов, на паркинга","brand":"TexCycle","brand:wikidata":"Q85614408","operator:wikidata":"Q85614408"},"coordinates":[42.025642,24.370843]},"tags_mismatch":false,"dist":0},{"osm":false,"atp":{"id":"qbVxSQHLrZsL5ZreRD8hRCUDMcM=","tags":{"amenity":"recycling","recycling:clothes":"yes","recycling:shoes":"yes","addr:country":"BG","name":"кръстовището на ул. Атанас Кабов с ул. 377","brand":"TexCycle","brand:wikidata":"Q85614408","operator:wikidata":"Q85614408"},"coordinates":[42.023141,24.36954]},"tags_mismatch":false,"dist":0},{"osm":false,"atp":{"id":"IiuYb0T3TkByr_Ur6gvKMsShZUM=","tags":{"amenity":"recycling","recycling:clothes":"yes","recycling:shoes":"yes","addr:country":"BG","name":"ул. Шипка, срещу входа на градския парк","brand":"TexCycle","brand:wikidata":"Q85614408","operator:wikidata":"Q85614408"},"coordinates":[42.08463,23.059738]},"tags_mismatch":false,"dist":0},{"osm":false,"atp":{"id":"7jHMcpsVWwSx_dsOwke-lCpiotk=","tags":{"amenity":"recycling","recycling:clothes":"yes","recycling:shoes":"yes","addr:country":"BG","name":"ул. Цар Асен, над входа на парк Свети Георги Победоносец","brand":"TexCycle","brand:wikidata":"Q85614408","operator:wikidata":"Q85614408"},"coordinates":[43.236322,23.132098]},"tags_mismatch":false,"dist":0},{"osm":false,"atp":{"id":"JdKrqUxX0N78fm1EFxn_G44ge-I=","tags":{"amenity":"recycling","recycling:clothes":"yes","recycling:shoes":"yes","addr:country":"BG","name":"ул. Сава Цонев до парк Ангел Каралийчев","brand":"TexCycle","brand:wikidata":"Q85614408","operator:wikidata":"Q85614408"},"coordinates":[43.227249,25.960981]},"tags_mismatch":false,"dist":0},{"osm":false,"atp":{"id":"M6zvNV25XDgBoBD2srHJ7O7M_-w=","tags":{"amenity":"recycling","recycling:clothes":"yes","recycling:shoes":"yes","addr:country":"BG","name":"бул. Европа 85, пред Уникредит Булбанк","brand":"TexCycle","brand:wikidata":"Q85614408","operator:wikidata":"Q85614408"},"coordinates":[42.763639,23.197758]},"tags_mismatch":false,"dist":0},{"osm":false,"atp":{"id":"oT254rByrJa80t3F-bPUOWaQDNw=","tags":{"amenity":"recycling","recycling:clothes":"yes","recycling:shoes":"yes","addr:country":"BG","name":"ъгъла на ул. Самуил с ул. Пенчо Славейков","brand":"TexCycle","brand:wikidata":"Q85614408","operator:wikidata":"Q85614408"},"coordinates":[42.440356,23.818876]},"tags_mismatch":false,"dist":0},{"osm":false,"atp":{"id":"0dw1wd7x-XYxLGn5voJqJue05TQ=","tags":{"amenity":"recycling","recycling:clothes":"yes","recycling:shoes":"yes","addr:country":"BG","name":"ъгъла на ул. Княз Борис I с ул. Св. Софроний Врачански, пред бл. 22","brand":"TexCycle","brand:wikidata":"Q85614408","operator:wikidata":"Q85614408"},"coordinates":[42.436374,23.815277]},"tags_mismatch":false,"dist":0},{"osm":false,"atp":{"id":"1-79Kx7h8q_0jqrYteLaOxHFoG8=","tags":{"amenity":"recycling","recycling:clothes":"yes","recycling:shoes":"yes","addr:country":"BG","name":"кв. Повеляново, ул. Рила 3, пред Общински Младежки дом","brand":"TexCycle","brand:wikidata":"Q85614408","operator:wikidata":"Q85614408"},"coordinates":[43.213484,27.648153]},"tags_mismatch":false,"dist":0},{"osm":false,"atp":{"id":"IGptawNXfONlYlwW-f4cbfiLygc=","tags":{"amenity":"recycling","recycling:clothes":"yes","recycling:shoes":"yes","addr:country":"BG","name":"бул. Съединение 165","brand":"TexCycle","brand:wikidata":"Q85614408","operator:wikidata":"Q85614408"},"coordinates":[43.218673,27.556605]},"tags_mismatch":false,"dist":0},{"osm":false,"atp":{"id":"XBf081dyZ40kx3V0ThtqaYPmYg4=","tags":{"amenity":"recycling","recycling:clothes":"yes","recycling:shoes":"yes","addr:country":"BG","name":"ул. Вела Пеева, между Община Добринище и Читалище „Димитър Благоев“","brand":"TexCycle","brand:wikidata":"Q85614408","operator:wikidata":"Q85614408"},"coordinates":[41.821323,23.5632]},"tags_mismatch":false,"dist":0},{"osm":false,"atp":{"id":"PjBWpwWAbz05YlLmlSgoHpgRQl0=","tags":{"amenity":"recycling","recycling:clothes":"yes","recycling:shoes":"yes","addr:country":"BG","name":"ул. Бела Река 88","brand":"TexCycle","brand:wikidata":"Q85614408","operator:wikidata":"Q85614408"},"coordinates":[41.886873,23.458661]},"tags_mismatch":false,"dist":0},{"osm":false,"atp":{"id":"iIEpHvikvujtnRRjPsqwaLs57R8=","tags":{"amenity":"recycling","recycling:clothes":"yes","recycling:shoes":"yes","addr:country":"BG","name":"ул. Опълченска, кръговото кръстовище до Тото пункта","brand":"TexCycle","brand:wikidata":"Q85614408","operator:wikidata":"Q85614408"},"coordinates":[41.885574,23.467666]},"tags_mismatch":false,"dist":0},{"osm":false,"atp":{"id":"E2jNPpVRGMEeXL7fxCpam5sUqoY=","tags":{"amenity":"recycling","recycling:clothes":"yes","recycling:shoes":"yes","addr:country":"BG","name":"ул. Хан Пресиян 34, на гърба на Лидл","brand":"TexCycle","brand:wikidata":"Q85614408","operator:wikidata":"Q85614408"},"coordinates":[42.034379,24.309085]},"tags_mismatch":false,"dist":0},{"osm":false,"atp":{"id":"4AsNIzsmu1dALWQBUopAdL7kLOg=","tags":{"amenity":"recycling","recycling:clothes":"yes","recycling:shoes":"yes","addr:country":"BG","name":"ул. Симон Налбант, пред бл. 50Б","brand":"TexCycle","brand:wikidata":"Q85614408","operator:wikidata":"Q85614408"},"coordinates":[42.038109,24.313409]},"tags_mismatch":false,"dist":0},{"osm":false,"atp":{"id":"31Kemqo_ofGIhvjpg2yXkuuZ350=","tags":{"amenity":"recycling","recycling:clothes":"yes","recycling:shoes":"yes","addr:country":"BG","name":"ъгъла на ул. Възраждане с ул. Стефан Караджа","brand":"TexCycle","brand:wikidata":"Q85614408","operator:wikidata":"Q85614408"},"coordinates":[43.329049,27.591346]},"tags_mismatch":false,"dist":0},{"osm":false,"atp":{"id":"K1cjHuweRB7_94p-EJH84s7nJZs=","tags":{"amenity":"recycling","recycling:clothes":"yes","recycling:shoes":"yes","addr:country":"BG","name":"ул. Муткурова, срещу ДЯ 4","brand":"TexCycle","brand:wikidata":"Q85614408","operator:wikidata":"Q85614408"},"coordinates":[43.836426,25.957601]},"tags_mismatch":false,"dist":0},{"osm":false,"atp":{"id":"kucKnAupUfjAqusqZlkeRmdfjKQ=","tags":{"amenity":"recycling","recycling:clothes":"yes","recycling:shoes":"yes","addr:country":"BG","name":"бул. Ген. Скобелев, подлеза до бл. Българска роза","brand":"TexCycle","brand:wikidata":"Q85614408","operator:wikidata":"Q85614408"},"coordinates":[43.845166,25.956655]},"tags_mismatch":false,"dist":0},{"osm":false,"atp":{"id":"WM2kvPUM5hjBm7I29Wtrwbi3ASw=","tags":{"amenity":"recycling","recycling:clothes":"yes","recycling:shoes":"yes","addr:country":"BG","name":"ул. Чипровци, пред бл. Иван Дечев, вх. Е","brand":"TexCycle","brand:wikidata":"Q85614408","operator:wikidata":"Q85614408"},"coordinates":[43.843102,25.96922]},"tags_mismatch":false,"dist":0},{"osm":false,"atp":{"id":"JE1ENEgTdmOEQwi198Ir1pJNGlU=","tags":{"amenity":"recycling","recycling:clothes":"yes","recycling:shoes":"yes","addr:country":"BG","name":"ъгъла на ул. Петрохан с ул. Тича","brand":"TexCycle","brand:wikidata":"Q85614408","operator:wikidata":"Q85614408"},"coordinates":[43.843531,25.976438]},"tags_mismatch":false,"dist":0},{"osm":false,"atp":{"id":"1F9TXwlUbIceSUHH85cf16Xg1_k=","tags":{"amenity":"recycling","recycling:clothes":"yes","recycling:shoes":"yes","addr:country":"BG","name":"ъгъла на ул. Байкал с ул. Захари Стоянов, до бл. 19","brand":"TexCycle","brand:wikidata":"Q85614408","operator:wikidata":"Q85614408"},"coordinates":[43.847347,25.980617]},"tags_mismatch":false,"dist":0},{"osm":false,"atp":{"id":"dyz6sBJgjIlFl0phJ86rsrzSdY0=","tags":{"amenity":"recycling","recycling:clothes":"yes","recycling:shoes":"yes","addr:country":"BG","name":"ул. Киев, до бл. Сметана срещу ДЯ 12","brand":"TexCycle","brand:wikidata":"Q85614408","operator:wikidata":"Q85614408"},"coordinates":[43.851106,25.995072]},"tags_mismatch":false,"dist":0},{"osm":false,"atp":{"id":"Xhvrn8wXH-J7p5TYm0ScLFOG-Ro=","tags":{"amenity":"recycling","recycling:clothes":"yes","recycling:shoes":"yes","addr:country":"BG","name":"ул. Измаил до бл. Дилянка и ДГ Зора","brand":"TexCycle","brand:wikidata":"Q85614408","operator:wikidata":"Q85614408"},"coordinates":[43.849017,25.988403]},"tags_mismatch":false,"dist":0},{"osm":false,"atp":{"id":"p6nyPSZIxl4FvgsWC0FNuQM-Jd8=","tags":{"amenity":"recycling","recycling:clothes":"yes","recycling:shoes":"yes","addr:country":"BG","name":"ул. Никола Петков между бл. П. Вичев и бл. Ив. Кръстев 2","brand":"TexCycle","brand:wikidata":"Q85614408","operator:wikidata":"Q85614408"},"coordinates":[43.851533,25.979219]},"tags_mismatch":false,"dist":0},{"osm":false,"atp":{"id":"hPZXydOErO8UWROLf8BLX46S1L8=","tags":{"amenity":"recycling","recycling:clothes":"yes","recycling:shoes":"yes","addr:country":"BG","name":"ул. Св. Св. Кирил и Методий между бл. Средец и бл. Перла","brand":"TexCycle","brand:wikidata":"Q85614408","operator:wikidata":"Q85614408"},"coordinates":[43.856286,25.969967]},"tags_mismatch":false,"dist":0},{"osm":false,"atp":{"id":"kEC4F0dc5rv9jBgWPShaz5W3raM=","tags":{"amenity":"recycling","recycling:clothes":"yes","recycling:shoes":"yes","addr:country":"BG","name":"ул. Тодор Каблешков, между ул. Видин и ул. Княз Ал. Д. Корсаков","brand":"TexCycle","brand:wikidata":"Q85614408","operator:wikidata":"Q85614408"},"coordinates":[43.836697,25.954242]},"tags_mismatch":false,"dist":0},{"osm":false,"atp":{"id":"26vfCJpsD_KaFoxudlAwW-qilLU=","tags":{"amenity":"recycling","recycling:clothes":"yes","recycling:shoes":"yes","addr:country":"BG","name":"площада в края на ул. Искър към ул. Тича","brand":"TexCycle","brand:wikidata":"Q85614408","operator:wikidata":"Q85614408"},"coordinates":[43.742533,27.413167]},"tags_mismatch":false,"dist":0},{"osm":false,"atp":{"id":"aaeizNrreBMhLKYJXXJpLFMfVx8=","tags":{"amenity":"recycling","recycling:clothes":"yes","recycling:shoes":"yes","addr:country":"BG","name":"кв. Чепино, площад Македония, пред Пощата","brand":"TexCycle","brand:wikidata":"Q85614408","operator:wikidata":"Q85614408"},"coordinates":[42.005778,23.983909]},"tags_mismatch":false,"dist":0},{"osm":false,"atp":{"id":"tjswNYtdCan8JJVEPnGeRTR0Q3k=","tags":{"amenity":"recycling","recycling:clothes":"yes","recycling:shoes":"yes","addr:country":"BG","name":"бул. Съединение 123, на спирката","brand":"TexCycle","brand:wikidata":"Q85614408","operator:wikidata":"Q85614408"},"coordinates":[42.02903,23.991916]},"tags_mismatch":false,"dist":0},{"osm":false,"atp":{"id":"Y3o54eJZKnZJaFM1HJY0vtF-QwI=","tags":{"amenity":"recycling","recycling:clothes":"yes","recycling:shoes":"yes","addr:country":"BG","name":"кв. Каменица, площад Възраждане","brand":"TexCycle","brand:wikidata":"Q85614408","operator:wikidata":"Q85614408"},"coordinates":[42.042514,23.987174]},"tags_mismatch":false,"dist":0},{"osm":false,"atp":{"id":"t1fUPDSbxTeekJTlB5kjfolJ4vU=","tags":{"amenity":"recycling","recycling:clothes":"yes","recycling:shoes":"yes","addr:country":"BG","name":"ул. Дунав, пред бл. 16","brand":"TexCycle","brand:wikidata":"Q85614408","operator:wikidata":"Q85614408"},"coordinates":[41.571359,23.739296]},"tags_mismatch":false,"dist":0},{"osm":false,"atp":{"id":"T3KBiYp5jhnQz-WtHsobNGzm2dk=","tags":{"amenity":"recycling","recycling:clothes":"yes","recycling:shoes":"yes","addr:country":"BG","name":"локалното на ул. Иларион Макариополски, до бл. 3А","brand":"TexCycle","brand:wikidata":"Q85614408","operator:wikidata":"Q85614408"},"coordinates":[41.571885,23.722913]},"tags_mismatch":false,"dist":0},{"osm":false,"atp":{"id":"z_Rs6rJsHyczwn5ftd2syMkKvns=","tags":{"amenity":"recycling","recycling:clothes":"yes","recycling:shoes":"yes","addr:country":"BG","name":"с. Владо Тричков, на площада до спирката","brand":"TexCycle","brand:wikidata":"Q85614408","operator:wikidata":"Q85614408"},"coordinates":[42.866724,23.367389]},"tags_mismatch":false,"dist":0},{"osm":false,"atp":{"id":"A60Dm9Xty3xRa2WBFtAELeMlwkM=","tags":{"amenity":"recycling","recycling:clothes":"yes","recycling:shoes":"yes","addr:country":"BG","name":"ул. Цар Симеон 35","brand":"TexCycle","brand:wikidata":"Q85614408","operator:wikidata":"Q85614408"},"coordinates":[42.959973,23.346537]},"tags_mismatch":false,"dist":0}]}