{"metadata":{"type":"brand","wikidata":"Q5206146","name":"Банка ДСК","compare_keys":["cash_in"]},"data":[{"osm":{"type":"node","id":2672509440,"tags":{"amenity":"atm","brand":"Банка ДСК","brand:wikidata":"Q5206146","cash_in":"no","check_date":"2023-05-22","disabled":"no","opening_hours":"24/7","operator:wikidata":"Q5206146"},"wikidata":"Q5206146","coordinates":[43.2217209,27.9252264]},"atp":{"id":"CpvOFWcYltZxBeX97CtMZTlFgc0=","tags":{"ref":"afe852b1-4d38-650e-9d59-ff0900048325","amenity":"atm","addr:full":"ул. \"Петър Райчев\", блок 35","addr:city":"Варна, обл. Варна","addr:country":"BG","name":"Варна","brand":"Банка ДСК","brand:wikidata":"Q5206146","operator:wikidata":"Q5206146"},"coordinates":[43.221737,27.925508]},"dist":22.888,"tags_mismatch":true},{"osm":{"type":"node","id":5037737062,"tags":{"amenity":"atm","brand":"Банка ДСК","brand:wikidata":"Q5206146","cash_in":"no","check_date":"2023-06-03","covered":"yes","currency:BGN":"yes","drive_through":"no","indoor":"no","lit":"yes","operator:wikidata":"Q5206146"},"wikidata":"Q5206146","coordinates":[42.6647888,23.2931444]},"atp":{"id":"wu7ODKcRk5dqxIvl9U8_SAbpsec=","tags":{"ref":"0f0853b1-4d38-650e-9d59-ff0900048325","amenity":"atm","addr:full":"ж.к. \"Гоце Делчев\", ул.\"Георги Измирлиев\", до бл.236","addr:city":"София, обл. София-град","addr:country":"BG","name":"София","brand":"Банка ДСК","brand:wikidata":"Q5206146","operator:wikidata":"Q5206146"},"coordinates":[42.6646227,23.2932978]},"dist":22.326,"tags_mismatch":true},{"osm":{"type":"node","id":5526773257,"tags":{"amenity":"atm","brand":"Банка ДСК","brand:wikidata":"Q5206146","cash_in":"no","operator:wikidata":"Q5206146"},"wikidata":"Q5206146","coordinates":[43.2236055,27.9188414]},"atp":{"id":"axk2YcGXPxJDMsI_iarNb9yFsqU=","tags":{"ref":"7fe752b1-4d38-650e-9d59-ff0900048325","amenity":"atm","addr:full":"ж.к. \"Левски\", ул. \"Железни врата\" 2","addr:city":"Варна, обл. Варна","addr:country":"BG","name":"Варна","brand":"Банка ДСК","brand:wikidata":"Q5206146","operator:wikidata":"Q5206146"},"coordinates":[43.2236622,27.9188564]},"dist":6.421,"tags_mismatch":true},{"osm":{"type":"node","id":5726077846,"tags":{"amenity":"atm","brand":"Банка ДСК","brand:wikidata":"Q5206146","cash_in":"no","currency:BGN":"yes","indoor":"no","opening_hours":"24/7","operator:wikidata":"Q5206146"},"wikidata":"Q5206146","coordinates":[42.6439008,23.3416743]},"atp":{"id":"cokgqDZ5kNIuJUVymT0fxXuu3A4=","tags":{"ref":"9f0a53b1-4d38-650e-9d59-ff0900048325","amenity":"atm","addr:full":"Студентски град, бл.58, вх.Б","addr:city":"София, обл. София-град","addr:country":"BG","name":"София","brand":"Банка ДСК","brand:wikidata":"Q5206146","operator:wikidata":"Q5206146"},"coordinates":[42.64413,23.34173]},"dist":25.89,"tags_mismatch":true},{"osm":{"type":"node","id":6139467606,"tags":{"amenity":"atm","brand":"Банка ДСК","brand:wikidata":"Q5206146","cash_in":"yes","currency:BGN":"yes","drive_through":"no","operator:wikidata":"Q5206146"},"wikidata":"Q5206146","coordinates":[42.1416878,24.755741]},"atp":{"id":"y8vnVr6QUZLO8WeNCOisvxo_LjU=","tags":{"ref":"a7e452b1-4d38-650e-9d59-ff0900048325","amenity":"atm","addr:full":"кв. \"Васил Левски\", бл.2 А","addr:city":"Ботевград, обл. София–област","addr:country":"BG","name":"Ботевград","brand":"Банка ДСК","brand:wikidata":"Q5206146","operator:wikidata":"Q5206146"},"coordinates":[42.9029898,23.799902]},"tags_mismatch":true},{"osm":{"type":"node","id":9105777820,"tags":{"amenity":"atm","brand":"Банка ДСК","brand:wikidata":"Q5206146","cash_in":"no","drive_through":"no","operator:wikidata":"Q5206146"},"wikidata":"Q5206146","coordinates":[43.8264612,27.1407908]},"atp":{"id":"b_W9ErWIpn4JkMXu0VINsQubDrs=","tags":{"ref":"77ef52b1-4d38-650e-9d59-ff0900048325","amenity":"atm","addr:full":"ул. Васил Левски 4","addr:city":"Дулово, обл. Добрич","addr:country":"BG","name":"Дулово","brand":"Банка ДСК","brand:wikidata":"Q5206146","operator:wikidata":"Q5206146"},"coordinates":[43.826508,27.140799]},"dist":5.245,"tags_mismatch":true},{"osm":{"type":"node","id":9519559913,"tags":{"amenity":"atm","brand":"Банка ДСК","brand:wikidata":"Q5206146","cash_in":"no","indoor":"yes","operator:wikidata":"Q5206146"},"wikidata":"Q5206146","coordinates":[42.6738111,23.2924429]},"atp":{"id":"_gp1Qq9Cp_a7GLaQrztTtFAFa9E=","tags":{"ref":"07e652b1-4d38-650e-9d59-ff0900048325","amenity":"atm","addr:full":"ул. Апостол войвода, до бл.424","addr:city":"Бургас, обл. Бургас","addr:country":"BG","name":"Бургас","brand":"Банка ДСК","brand:wikidata":"Q5206146","operator:wikidata":"Q5206146"},"coordinates":[42.462589,27.418744]},"tags_mismatch":true},{"osm":{"type":"node","id":9519559914,"tags":{"amenity":"atm","brand":"Банка ДСК","brand:wikidata":"Q5206146","cash_in":"yes","indoor":"yes","operator:wikidata":"Q5206146"},"wikidata":"Q5206146","coordinates":[42.6738015,23.2924269]},"atp":{"id":"vZqUNAYI67P51nL96HfJBvm2On4=","tags":{"ref":"1fe652b1-4d38-650e-9d59-ff0900048325","amenity":"atm","addr:full":"ул. Георги Димитров 45","addr:city":"Бутан, обл. Враца","addr:country":"BG","name":"Бутан","brand":"Банка ДСК","brand:wikidata":"Q5206146","operator:wikidata":"Q5206146"},"coordinates":[43.647535,23.749049]},"tags_mismatch":true},{"osm":{"type":"node","id":9527155504,"tags":{"amenity":"atm","brand":"Банка ДСК","brand:wikidata":"Q5206146","cash_in":"no","currency:BGN":"yes","operator:wikidata":"Q5206146"},"wikidata":"Q5206146","coordinates":[42.7461624,23.2320617]},"atp":{"id":"ymt4GWFQC0S932sBfYxWOcPh9dw=","tags":{"ref":"470853b1-4d38-650e-9d59-ff0900048325","amenity":"atm","addr:full":"ж.к. \"Люлин\", бул. \"Европа\" 182","addr:city":"София, обл. София-град","addr:country":"BG","name":"София","brand":"Банка ДСК","brand:wikidata":"Q5206146","operator:wikidata":"Q5206146"},"coordinates":[42.7463188,23.2321491]},"dist":18.798,"tags_mismatch":true},{"osm":{"type":"node","id":9580999161,"tags":{"amenity":"atm","brand":"Банка ДСК","brand:wikidata":"Q5206146","cash_in":"yes","indoor":"yes","operator:wikidata":"Q5206146"},"wikidata":"Q5206146","coordinates":[42.6981371,23.3085523]},"atp":{"id":"nWWa1YHXUeVFP1x_S82p44znJQI=","tags":{"ref":"3f0453b1-4d38-650e-9d59-ff0900048325","amenity":"atm","addr:full":"бул. \"Александър Стамболийски\" 101","addr:city":"София, обл. София-град","addr:country":"BG","name":"София","brand":"Банка ДСК","brand:wikidata":"Q5206146","operator:wikidata":"Q5206146"},"coordinates":[42.698455,23.309047]},"dist":53.702,"tags_mismatch":true},{"osm":{"type":"node","id":10606390337,"tags":{"amenity":"atm","brand":"Банка ДСК","brand:wikidata":"Q5206146","cash_in":"no","drive_through":"no","operator:wikidata":"Q5206146"},"wikidata":"Q5206146","coordinates":[42.4840896,26.5106088]},"atp":{"id":"azXIU9v0SJf6c6YPdFJ4dxcmtis=","tags":{"ref":"b71253b1-4d38-650e-9d59-ff0900048325","amenity":"atm","addr:full":"ул. \"Георги С. Раковски\" 13","addr:city":"Ямбол, обл. Ямбол","addr:country":"BG","name":"Ямбол","brand":"Банка ДСК","brand:wikidata":"Q5206146","operator:wikidata":"Q5206146"},"coordinates":[42.4838443,26.5105459]},"dist":27.76,"tags_mismatch":true},{"osm":{"type":"node","id":11017596071,"tags":{"amenity":"atm","brand":"Банка ДСК","brand:wikidata":"Q5206146","cash_in":"no","check_date":"2023-07-01","covered":"yes","currency:BGN":"yes","indoor":"no","opening_hours":"24/7","operator:wikidata":"Q5206146","wheelchair":"no"},"wikidata":"Q5206146","coordinates":[41.9434779,24.2188599]},"atp":{"id":"JcWEtSTyIFfZJc8pduZzDw9Eifk=","tags":{"ref":"8fe852b1-4d38-650e-9d59-ff0900048325","amenity":"atm","addr:full":"ул. \"Дрин\" 65, Кооперативен пазар","addr:city":"Варна, обл. Варна","addr:country":"BG","name":"Варна","brand":"Банка ДСК","brand:wikidata":"Q5206146","operator:wikidata":"Q5206146"},"coordinates":[43.2080455,27.9020305]},"tags_mismatch":true},{"osm":{"type":"node","id":11085084764,"tags":{"amenity":"atm","brand":"Банка ДСК","brand:wikidata":"Q5206146","cash_in":"no","check_date":"2023-08-03","currency:BGN":"yes","operator:wikidata":"Q5206146"},"wikidata":"Q5206146","coordinates":[42.6855782,23.4028341]},"atp":{"id":"Ewz4fHVIzm0DiDUH_aW3YF_2aM0=","tags":{"ref":"d22a83b3-4d38-650e-9d59-ff0900048325","amenity":"atm","addr:full":"бул. Христофор Колумб 80","addr:city":"София, обл. София-град","addr:country":"BG","name":"София","brand":"Банка ДСК","brand:wikidata":"Q5206146","operator:wikidata":"Q5206146"},"coordinates":[42.685452,23.402938]},"dist":16.403,"tags_mismatch":true},{"osm":{"type":"node","id":11245370713,"tags":{"amenity":"atm","brand":"Банка ДСК","brand:wikidata":"Q5206146","cash_in":"no","check_date":"2023-10-07","covered":"yes","currency:BGN":"yes","drive_through":"no","indoor":"yes","lit":"yes","operator:wikidata":"Q5206146"},"wikidata":"Q5206146","coordinates":[42.6613808,23.35358]},"atp":{"id":"FJtUybfWqOhVLATHEa9QL6jd09c=","tags":{"ref":"d9997db3-4d38-650e-9d59-ff0900048325","amenity":"atm","addr:full":"Бул. Г.М Димитров 57","addr:city":"София, обл. София-град","addr:country":"BG","name":"София","brand":"Банка ДСК","brand:wikidata":"Q5206146","operator:wikidata":"Q5206146"},"coordinates":[42.661685,23.353518]},"dist":34.203,"tags_mismatch":true},{"osm":{"type":"node","id":11247542561,"tags":{"amenity":"atm","brand":"Банка ДСК","brand:wikidata":"Q5206146","cash_in":"yes","check_date":"2023-10-08","currency:BGN":"yes","opening_hours":"24/7","operator:wikidata":"Q5206146"},"wikidata":"Q5206146","coordinates":[42.707505,23.1451058]},"atp":{"id":"vdOVORxWjknHtDSKoRxWUWNXcc8=","tags":{"ref":"9fe852b1-4d38-650e-9d59-ff0900048325","amenity":"atm","addr:full":"ул. \"Марин Дринов\" 55","addr:city":"Варна, обл. Варна","addr:country":"BG","name":"Варна","brand":"Банка ДСК","brand:wikidata":"Q5206146","operator:wikidata":"Q5206146"},"coordinates":[43.211699,27.921463]},"tags_mismatch":true},{"osm":false,"atp":{"id":"ndb0EvjcXs8BTupb1F3pQnroU0M=","tags":{"ref":"b7f052b1-4d38-650e-9d59-ff0900048325","amenity":"atm","addr:full":"бул. \"България\" 11","addr:city":"Златоград, обл. Смолян","addr:country":"BG","name":"Златоград","brand":"Банка ДСК","brand:wikidata":"Q5206146","operator:wikidata":"Q5206146"},"coordinates":[41.3798446,25.096520999]},"tags_mismatch":false,"dist":0},{"osm":false,"atp":{"id":"_yyFokmFwlQdAF_eW7OOhQ_Ant8=","tags":{"ref":"c7f052b1-4d38-650e-9d59-ff0900048325","amenity":"atm","addr:full":"ул. „Прогрес“ № 1","addr:city":"Златоград, обл. Кърджали","addr:country":"BG","name":"Златоград","brand":"Банка ДСК","brand:wikidata":"Q5206146","operator:wikidata":"Q5206146"},"coordinates":[41.379722,25.101552]},"tags_mismatch":false,"dist":0},{"osm":false,"atp":{"id":"qJH1wY0jzOxvR5AdGNJANSaGarw=","tags":{"ref":"aff152b1-4d38-650e-9d59-ff0900048325","amenity":"atm","addr:full":"бул. \"Ал. Батенберг\" 3Б","addr:city":"Казанлък, обл. Стара Загора","addr:country":"BG","name":"Казанлък","brand":"Банка ДСК","brand:wikidata":"Q5206146","operator:wikidata":"Q5206146"},"coordinates":[42.6187073,25.3947504]},"tags_mismatch":false,"dist":0},{"osm":false,"atp":{"id":"EC235dwakLnZSYtMPqaM64OvjII=","tags":{"ref":"b7f152b1-4d38-650e-9d59-ff0900048325","amenity":"atm","addr:full":"бул. \"Ал. Батенберг\" 93","addr:city":"Казанлък, обл. Стара Загора","addr:country":"BG","name":"Казанлък","brand":"Банка ДСК","brand:wikidata":"Q5206146","operator:wikidata":"Q5206146"},"coordinates":[42.6178675,25.405276]},"tags_mismatch":false,"dist":0},{"osm":false,"atp":{"id":"BDrEy6-TgYVdmMTbUCBcEdrbk7Q=","tags":{"ref":"d7f152b1-4d38-650e-9d59-ff0900048325","amenity":"atm","addr:full":"кв. \"Васил Левски\", бл.5","addr:city":"Казанлък, обл. Стара Загора","addr:country":"BG","name":"Казанлък","brand":"Банка ДСК","brand:wikidata":"Q5206146","operator:wikidata":"Q5206146"},"coordinates":[42.618531,25.3760597]},"tags_mismatch":false,"dist":0},{"osm":false,"atp":{"id":"LJyqnDfUr1GQKrXOQmr5yQg5TEE=","tags":{"ref":"dff152b1-4d38-650e-9d59-ff0900048325","amenity":"atm","addr:full":"ул. \"Стара планина\" 12","addr:city":"Казанлък, обл. Стара Загора","addr:country":"BG","name":"Казанлък","brand":"Банка ДСК","brand:wikidata":"Q5206146","operator:wikidata":"Q5206146"},"coordinates":[42.6216242,25.388377]},"tags_mismatch":false,"dist":0},{"osm":false,"atp":{"id":"RPYQJM-QDopVKfh75TSeR-fp2RE=","tags":{"ref":"e7f152b1-4d38-650e-9d59-ff0900048325","amenity":"atm","addr:full":"ул. Розова долина 100","addr:city":"Казанлък, обл. Стара Загора","addr:country":"BG","name":"Казанлък","brand":"Банка ДСК","brand:wikidata":"Q5206146","operator:wikidata":"Q5206146"},"coordinates":[42.610622,25.387043]},"tags_mismatch":false,"dist":0},{"osm":false,"atp":{"id":"jatzIAZZqnFOdRoV7Ha1nhlaffo=","tags":{"ref":"eff152b1-4d38-650e-9d59-ff0900048325","amenity":"atm","addr:full":"ул. „Любен Каравелов“ № 44","addr:city":"Казичене, обл. София–област","addr:country":"BG","name":"Казичене","brand":"Банка ДСК","brand:wikidata":"Q5206146","operator:wikidata":"Q5206146"},"coordinates":[42.660913,23.462125]},"tags_mismatch":false,"dist":0},{"osm":false,"atp":{"id":"N1QRnVUbuwCwrUYJ2NbEJJkMoUE=","tags":{"ref":"f7f152b1-4d38-650e-9d59-ff0900048325","amenity":"atm","addr:full":"пл. Възраждане №21","addr:city":"Калояново, обл. Пловдив","addr:country":"BG","name":"Калояново","brand":"Банка ДСК","brand:wikidata":"Q5206146","operator:wikidata":"Q5206146"},"coordinates":[42.356449,24.732695]},"tags_mismatch":false,"dist":0},{"osm":false,"atp":{"id":"qQNSzX_2PyzvFKaLPmepLiYgp54=","tags":{"ref":"fff152b1-4d38-650e-9d59-ff0900048325","amenity":"atm","addr:full":"Кметство","addr:city":"Камен, обл. Велико Търново","addr:country":"BG","name":"Камен","brand":"Банка ДСК","brand:wikidata":"Q5206146","operator:wikidata":"Q5206146"},"coordinates":[41.3641223,23.0707337]},"tags_mismatch":false,"dist":0},{"osm":false,"atp":{"id":"KSbUEB-i3nmRhVxp0dylgCT0Frs=","tags":{"ref":"0ff252b1-4d38-650e-9d59-ff0900048325","amenity":"atm","addr:full":"ул. \"Украйна\" 4","addr:city":"Каолиново, обл. Шумен","addr:country":"BG","name":"Каолиново","brand":"Банка ДСК","brand:wikidata":"Q5206146","operator:wikidata":"Q5206146"},"coordinates":[43.6169369,27.090883]},"tags_mismatch":false,"dist":0},{"osm":false,"atp":{"id":"NJUm7SLB8VDglJ6DEj08SvzpLX0=","tags":{"ref":"cff252b1-4d38-650e-9d59-ff0900048325","amenity":"atm","addr:full":"ул. \"Република\" 1","addr:city":"Карлово, обл. Пловдив","addr:country":"BG","name":"Карлово","brand":"Банка ДСК","brand:wikidata":"Q5206146","operator:wikidata":"Q5206146"},"coordinates":[42.6367045,24.8192007]},"tags_mismatch":false,"dist":0},{"osm":false,"atp":{"id":"OP8j3_bL1vZCF6Fk975LYkxbrxg=","tags":{"ref":"d7f252b1-4d38-650e-9d59-ff0900048325","amenity":"atm","addr:full":"\"България\" № 1","addr:city":"Карнобат, обл. Бургас","addr:country":"BG","name":"Карнобат","brand":"Банка ДСК","brand:wikidata":"Q5206146","operator:wikidata":"Q5206146"},"coordinates":[42.65316,26.980405]},"tags_mismatch":false,"dist":0},{"osm":false,"atp":{"id":"blxl7lQR2HrpYbFbi83IQXwOnfo=","tags":{"ref":"dff252b1-4d38-650e-9d59-ff0900048325","amenity":"atm","addr:full":"Източна промишлена зона","addr:city":"Карнобат, обл. Бургас","addr:country":"BG","name":"Карнобат","brand":"Банка ДСК","brand:wikidata":"Q5206146","operator:wikidata":"Q5206146"},"coordinates":[42.6559303,26.9820935]},"tags_mismatch":false,"dist":0},{"osm":false,"atp":{"id":"bsl5UusP9Lpwuwd_veZPJffMJKQ=","tags":{"ref":"fff252b1-4d38-650e-9d59-ff0900048325","amenity":"atm","addr:full":"ул. \"Иван Вазов\" 27","addr:city":"Кермен, обл. Сливен","addr:country":"BG","name":"Кермен","brand":"Банка ДСК","brand:wikidata":"Q5206146","operator:wikidata":"Q5206146"},"coordinates":[42.5062237,26.2576119]},"tags_mismatch":false,"dist":0},{"osm":false,"atp":{"id":"9mkyk1q5qaezimMX_2BWUnbeDbA=","tags":{"ref":"07f352b1-4d38-650e-9d59-ff0900048325","amenity":"atm","addr:full":"ул. \"Ал. Стамболийски\" 10","addr:city":"Килифарево, обл. Велико Търново","addr:country":"BG","name":"Килифарево","brand":"Банка ДСК","brand:wikidata":"Q5206146","operator:wikidata":"Q5206146"},"coordinates":[42.994269,25.6213216]},"tags_mismatch":false,"dist":0},{"osm":false,"atp":{"id":"PCjfLyDodXgypHX36dk0GcDiSpw=","tags":{"ref":"47f352b1-4d38-650e-9d59-ff0900048325","amenity":"atm","addr:full":"ул.“Млада Гвардия“ №7","addr:city":"Кортен, обл. Стара Загора","addr:country":"BG","name":"Кортен","brand":"Банка ДСК","brand:wikidata":"Q5206146","operator:wikidata":"Q5206146"},"coordinates":[42.546621,25.995831]},"tags_mismatch":false,"dist":0},{"osm":false,"atp":{"id":"XtTfx0Z8qtb_RF3kuYEiHqDmUoI=","tags":{"ref":"4ff352b1-4d38-650e-9d59-ff0900048325","amenity":"atm","addr:full":"ул. \"Христо Ботев\" 41","addr:city":"Костандово, обл. Пазарджик","addr:country":"BG","name":"Костандово","brand":"Банка ДСК","brand:wikidata":"Q5206146","operator:wikidata":"Q5206146"},"coordinates":[42.0247514,24.1099977]},"tags_mismatch":false,"dist":0},{"osm":false,"atp":{"id":"uo3wdPS_MJ8ra1cpE3eLhOhjVsM=","tags":{"ref":"1ff452b1-4d38-650e-9d59-ff0900048325","amenity":"atm","addr:full":"ул. \"Трети Март\"","addr:city":"КОЧЕРИНОВО, обл. Благоевград","addr:country":"BG","name":"КОЧЕРИНОВО","brand":"Банка ДСК","brand:wikidata":"Q5206146","operator:wikidata":"Q5206146"},"coordinates":[42.02569,23.098353]},"tags_mismatch":false,"dist":0},{"osm":false,"atp":{"id":"wKMqUeUcJzHzq3JGz3gFLd5GbxM=","tags":{"ref":"2ff452b1-4d38-650e-9d59-ff0900048325","amenity":"atm","addr:full":"ул. Македония 102","addr:city":"Кресна, обл. Благоевград","addr:country":"BG","name":"Кресна","brand":"Банка ДСК","brand:wikidata":"Q5206146","operator:wikidata":"Q5206146"},"coordinates":[41.7204847,23.166437399]},"tags_mismatch":false,"dist":0},{"osm":false,"atp":{"id":"XojagFYzmRo3_eY7VW8jl5kf5dM=","tags":{"ref":"5ff452b1-4d38-650e-9d59-ff0900048325","amenity":"atm","addr:full":"ул. \"Радецка\" 1А","addr:city":"Крън, обл. Стара Загора","addr:country":"BG","name":"Крън","brand":"Банка ДСК","brand:wikidata":"Q5206146","operator:wikidata":"Q5206146"},"coordinates":[42.6663867,25.3830709]},"tags_mismatch":false,"dist":0},{"osm":false,"atp":{"id":"5OJ2fUKhgCqNYj9oSzZWlJ5d5PQ=","tags":{"ref":"6ff452b1-4d38-650e-9d59-ff0900048325","amenity":"atm","addr:full":"ул. \"Цар Освободител\" 55","addr:city":"Кубрат, обл. Разград","addr:country":"BG","name":"Кубрат","brand":"Банка ДСК","brand:wikidata":"Q5206146","operator:wikidata":"Q5206146"},"coordinates":[43.7968943,26.5004008]},"tags_mismatch":false,"dist":0},{"osm":false,"atp":{"id":"QhaK2w5fGPi88biJC72Vuv5uR4I=","tags":{"ref":"77f452b1-4d38-650e-9d59-ff0900048325","amenity":"atm","addr:full":"ул. \"Възраждане\" № 29","addr:city":"КУЛА, обл. Плевен","addr:country":"BG","name":"КУЛА","brand":"Банка ДСК","brand:wikidata":"Q5206146","operator:wikidata":"Q5206146"},"coordinates":[43.889116,22.522609]},"tags_mismatch":false,"dist":0},{"osm":false,"atp":{"id":"XmuirKi8ypufeFEY4EItYRKVpsE=","tags":{"ref":"7ff452b1-4d38-650e-9d59-ff0900048325","amenity":"atm","addr:full":"ул. \"Първа\" 98","addr:city":"Куртово Конаре, обл. Пловдив","addr:country":"BG","name":"Куртово Конаре","brand":"Банка ДСК","brand:wikidata":"Q5206146","operator:wikidata":"Q5206146"},"coordinates":[42.090953,24.5009409]},"tags_mismatch":false,"dist":0},{"osm":false,"atp":{"id":"gpznpipMsg3ZMDnv3ig1fdjOz50=","tags":{"ref":"87f452b1-4d38-650e-9d59-ff0900048325","amenity":"atm","addr:full":"бул. \"България\" 63","addr:city":"Кърджали, обл. Кърджали","addr:country":"BG","name":"Кърджали","brand":"Банка ДСК","brand:wikidata":"Q5206146","operator:wikidata":"Q5206146"},"coordinates":[41.6360713,25.3727484]},"tags_mismatch":false,"dist":0},{"osm":false,"atp":{"id":"V2i9D13qeNGRc0-xNAlJOK5jaIk=","tags":{"ref":"9ff452b1-4d38-650e-9d59-ff0900048325","amenity":"atm","addr:full":"ж.к. \"Възрожденци\", ул. \"Христо Ботев\"","addr:city":"Кърджали, обл. Кърджали","addr:country":"BG","name":"Кърджали","brand":"Банка ДСК","brand:wikidata":"Q5206146","operator:wikidata":"Q5206146"},"coordinates":[41.634548,25.3560219]},"tags_mismatch":false,"dist":0},{"osm":false,"atp":{"id":"Ok1La29f6mvLKB-EbQaJ84ypTNw=","tags":{"ref":"bff452b1-4d38-650e-9d59-ff0900048325","amenity":"atm","addr:full":"ул. \"Тина Киркова\"","addr:city":"Кърджали, обл. Кърджали","addr:country":"BG","name":"Кърджали","brand":"Банка ДСК","brand:wikidata":"Q5206146","operator:wikidata":"Q5206146"},"coordinates":[41.611182,25.3783148]},"tags_mismatch":false,"dist":0},{"osm":false,"atp":{"id":"NeZnNZpwBt9CQqRplIhFGbTZfiI=","tags":{"ref":"77f552b1-4d38-650e-9d59-ff0900048325","amenity":"atm","addr:full":"бул. \"България\" 46","addr:city":"Кюстендил, обл. Кюстендил","addr:country":"BG","name":"Кюстендил","brand":"Банка ДСК","brand:wikidata":"Q5206146","operator:wikidata":"Q5206146"},"coordinates":[42.286656,22.6840611]},"tags_mismatch":false,"dist":0},{"osm":false,"atp":{"id":"5zgJXW1vtd-ubj2MLNb5kseIpwM=","tags":{"ref":"7ff552b1-4d38-650e-9d59-ff0900048325","amenity":"atm","addr:full":"ул. \"Демокрация\" 44","addr:city":"Кюстендил, обл. Кюстендил","addr:country":"BG","name":"Кюстендил","brand":"Банка ДСК","brand:wikidata":"Q5206146","operator:wikidata":"Q5206146"},"coordinates":[42.2811877,22.6902873]},"tags_mismatch":false,"dist":0},{"osm":false,"atp":{"id":"RC7CJjBR0Hr0p_P9gkOwFNbIpm8=","tags":{"ref":"8ff552b1-4d38-650e-9d59-ff0900048325","amenity":"atm","addr:full":"ул. Ракла 30","addr:city":"Кюстендил, обл. Кюстендил","addr:country":"BG","name":"Кюстендил","brand":"Банка ДСК","brand:wikidata":"Q5206146","operator:wikidata":"Q5206146"},"coordinates":[42.280139,22.676596]},"tags_mismatch":false,"dist":0},{"osm":false,"atp":{"id":"Z7BbvRbQDzLAvsuVMBD8hJvpx9o=","tags":{"ref":"a7f552b1-4d38-650e-9d59-ff0900048325","amenity":"atm","addr:full":"ж.к. \"Младост\"","addr:city":"Ловеч, обл. Ловеч","addr:country":"BG","name":"Ловеч","brand":"Банка ДСК","brand:wikidata":"Q5206146","operator:wikidata":"Q5206146"},"coordinates":[43.136174,24.6999597]},"tags_mismatch":false,"dist":0},{"osm":false,"atp":{"id":"eFazlRNcVwZZE78qX-be5zHJdhM=","tags":{"ref":"aff552b1-4d38-650e-9d59-ff0900048325","amenity":"atm","addr:full":"ул. \"Търговска\" 105","addr:city":"Ловеч, обл. Ловеч","addr:country":"BG","name":"Ловеч","brand":"Банка ДСК","brand:wikidata":"Q5206146","operator:wikidata":"Q5206146"},"coordinates":[43.1433854,24.7177172]},"tags_mismatch":false,"dist":0},{"osm":false,"atp":{"id":"PX6kd9nTBPU34pQVlOE5emzTYOc=","tags":{"ref":"b7f552b1-4d38-650e-9d59-ff0900048325","amenity":"atm","addr:full":"ул. \"Търговска\" 22","addr:city":"Ловеч, обл. Ловеч","addr:country":"BG","name":"Ловеч","brand":"Банка ДСК","brand:wikidata":"Q5206146","operator:wikidata":"Q5206146"},"coordinates":[43.134589,24.7171256]},"tags_mismatch":false,"dist":0},{"osm":false,"atp":{"id":"RRayjZqnkYbfLvk2dFL00qSPqQY=","tags":{"ref":"e7f552b1-4d38-650e-9d59-ff0900048325","amenity":"atm","addr:full":"ул. \"Дружба\" № 14","addr:city":"Лозница, обл. Велико Търново","addr:country":"BG","name":"Лозница","brand":"Банка ДСК","brand:wikidata":"Q5206146","operator:wikidata":"Q5206146"},"coordinates":[43.373527,26.609412]},"tags_mismatch":false,"dist":0},{"osm":false,"atp":{"id":"Zpwc49qfWJHg3Zs_9YZpADvVjkE=","tags":{"ref":"eff552b1-4d38-650e-9d59-ff0900048325","amenity":"atm","addr:full":"ул. \"Георги Манавски\" 17","addr:city":"Лом, обл. Монтана","addr:country":"BG","name":"Лом","brand":"Банка ДСК","brand:wikidata":"Q5206146","operator:wikidata":"Q5206146"},"coordinates":[43.8265335,23.2390061]},"tags_mismatch":false,"dist":0},{"osm":false,"atp":{"id":"aUJBD0J3ect9h65nhdti_sFy5AU=","tags":{"ref":"f7f552b1-4d38-650e-9d59-ff0900048325","amenity":"atm","addr:full":"ул. \"Каблешков\" 2","addr:city":"Лом, обл. Монтана","addr:country":"BG","name":"Лом","brand":"Банка ДСК","brand:wikidata":"Q5206146","operator:wikidata":"Q5206146"},"coordinates":[43.8277564,23.2319465]},"tags_mismatch":false,"dist":0},{"osm":false,"atp":{"id":"3QhDIbgkCyy36qfuiKCKUxx35Dk=","tags":{"ref":"07f652b1-4d38-650e-9d59-ff0900048325","amenity":"atm","addr:full":"ул. \"Възраждане\" 81","addr:city":"Луковит, обл. Ловеч","addr:country":"BG","name":"Луковит","brand":"Банка ДСК","brand:wikidata":"Q5206146","operator:wikidata":"Q5206146"},"coordinates":[43.208925,24.1643588]},"tags_mismatch":false,"dist":0},{"osm":false,"atp":{"id":"15S0uVQ7p61YrshKUZBPRqIVMm0=","tags":{"ref":"c7f652b1-4d38-650e-9d59-ff0900048325","amenity":"atm","addr:full":"ул. Освобождение №2","addr:city":"Лъки, обл. Пловдив","addr:country":"BG","name":"Лъки","brand":"Банка ДСК","brand:wikidata":"Q5206146","operator:wikidata":"Q5206146"},"coordinates":[41.833013,24.831427]},"tags_mismatch":false,"dist":0},{"osm":false,"atp":{"id":"uCB3ohsdwWXM9D7l0N9k19YdRGY=","tags":{"ref":"cff652b1-4d38-650e-9d59-ff0900048325","amenity":"atm","addr:full":"пл. \"Трети март\"","addr:city":"Любимец, обл. Хасково","addr:country":"BG","name":"Любимец","brand":"Банка ДСК","brand:wikidata":"Q5206146","operator:wikidata":"Q5206146"},"coordinates":[41.8433225,26.0809328]},"tags_mismatch":false,"dist":0},{"osm":false,"atp":{"id":"dWy9SzyAdltff82qKOm3G9Z2nvg=","tags":{"ref":"e7f652b1-4d38-650e-9d59-ff0900048325","amenity":"atm","addr:full":"ул. \"Република\" 16","addr:city":"Мадан, обл. Смолян","addr:country":"BG","name":"Мадан","brand":"Банка ДСК","brand:wikidata":"Q5206146","operator:wikidata":"Q5206146"},"coordinates":[41.5027225,24.9383983]},"tags_mismatch":false,"dist":0},{"osm":false,"atp":{"id":"mb7qy38b_njHOnNtrU7iYPiUY2o=","tags":{"ref":"eff652b1-4d38-650e-9d59-ff0900048325","amenity":"atm","addr:full":"ул. \"Явор\" 1","addr:city":"Мадан, обл. Смолян","addr:country":"BG","name":"Мадан","brand":"Банка ДСК","brand:wikidata":"Q5206146","operator:wikidata":"Q5206146"},"coordinates":[41.5027225,24.9383983]},"tags_mismatch":false,"dist":0},{"osm":false,"atp":{"id":"WPZTshHdXvg3Spv2IFhhm2aZtlQ=","tags":{"ref":"07f752b1-4d38-650e-9d59-ff0900048325","amenity":"atm","addr:full":"ул. \"Шеста\" №1А, Кметство","addr:city":"Мало Конаре, обл. Пловдив","addr:country":"BG","name":"Мало Конаре","brand":"Банка ДСК","brand:wikidata":"Q5206146","operator:wikidata":"Q5206146"},"coordinates":[42.197215,24.432611]},"tags_mismatch":false,"dist":0},{"osm":false,"atp":{"id":"mogn90GNeSmazQ7v3CL5cB-K4Z8=","tags":{"ref":"0ff752b1-4d38-650e-9d59-ff0900048325","amenity":"atm","addr:full":"ул. \"Захари Стоянов\" № 74","addr:city":"Марково, обл. Пловдив","addr:country":"BG","name":"Марково","brand":"Банка ДСК","brand:wikidata":"Q5206146","operator:wikidata":"Q5206146"},"coordinates":[42.064531,24.703222]},"tags_mismatch":false,"dist":0},{"osm":false,"atp":{"id":"vtaGddzcwfOvHDlXLgJB79Z7cdE=","tags":{"ref":"17f752b1-4d38-650e-9d59-ff0900048325","amenity":"atm","addr:full":"ул. \"Брусненско шосе\" 13","addr:city":"Мездра, обл. Враца","addr:country":"BG","name":"Мездра","brand":"Банка ДСК","brand:wikidata":"Q5206146","operator:wikidata":"Q5206146"},"coordinates":[43.1453006,23.709063]},"tags_mismatch":false,"dist":0},{"osm":false,"atp":{"id":"AuHQItnIHgy0JKSGI5MnWLXJ7sc=","tags":{"ref":"27f752b1-4d38-650e-9d59-ff0900048325","amenity":"atm","addr:full":"ул. \"Христо Ботев\" 26","addr:city":"Мездра, обл. Враца","addr:country":"BG","name":"Мездра","brand":"Банка ДСК","brand:wikidata":"Q5206146","operator:wikidata":"Q5206146"},"coordinates":[43.1454258,23.7095779]},"tags_mismatch":false,"dist":0},{"osm":false,"atp":{"id":"55p9ps9phmZP6X1g9govmFgVhHI=","tags":{"ref":"47f752b1-4d38-650e-9d59-ff0900048325","amenity":"atm","addr:full":"бул. \"Александър Стамболийски\" 58","addr:city":"Монтана, обл. Монтана","addr:country":"BG","name":"Монтана","brand":"Банка ДСК","brand:wikidata":"Q5206146","operator:wikidata":"Q5206146"},"coordinates":[43.4009352,23.2330676]},"tags_mismatch":false,"dist":0},{"osm":false,"atp":{"id":"kG2qKxXBJ7UYfWVnIZMEYWHBb4Q=","tags":{"ref":"57f752b1-4d38-650e-9d59-ff0900048325","amenity":"atm","addr:full":"бул. \"Монтана\" 28","addr:city":"Монтана, обл. Монтана","addr:country":"BG","name":"Монтана","brand":"Банка ДСК","brand:wikidata":"Q5206146","operator:wikidata":"Q5206146"},"coordinates":[43.4249567,23.2231864]},"tags_mismatch":false,"dist":0},{"osm":false,"atp":{"id":"xUI1AYn_91r_JYj_T82ojxoPSIo=","tags":{"ref":"0ff852b1-4d38-650e-9d59-ff0900048325","amenity":"atm","addr:full":"пл. \"Алеко Константинов\"","addr:city":"Монтана, обл. Монтана","addr:country":"BG","name":"Монтана","brand":"Банка ДСК","brand:wikidata":"Q5206146","operator:wikidata":"Q5206146"},"coordinates":[43.4085848,23.2256973]},"tags_mismatch":false,"dist":0},{"osm":false,"atp":{"id":"p9nr8K63I-4GjMgTidM0M2-cw9k=","tags":{"ref":"17f852b1-4d38-650e-9d59-ff0900048325","amenity":"atm","addr:full":"ул. \"Владимир Поптомов\" 17","addr:city":"Невестино, обл. Кюстендил","addr:country":"BG","name":"Невестино","brand":"Банка ДСК","brand:wikidata":"Q5206146","operator:wikidata":"Q5206146"},"coordinates":[42.2555458,22.8541215]},"tags_mismatch":false,"dist":0},{"osm":false,"atp":{"id":"IzRp4SjBsvJAKmRVic4hUBxlv8c=","tags":{"ref":"1ff852b1-4d38-650e-9d59-ff0900048325","amenity":"atm","addr:full":"ул.\"Ал. Стамболийски\" №100","addr:city":"Неделино, обл. Смолян","addr:country":"BG","name":"Неделино","brand":"Банка ДСК","brand:wikidata":"Q5206146","operator:wikidata":"Q5206146"},"coordinates":[41.455298,25.080728]},"tags_mismatch":false,"dist":0},{"osm":false,"atp":{"id":"Wa68DIZiPS5Tvg8SF5xmbvlv7Po=","tags":{"ref":"27f852b1-4d38-650e-9d59-ff0900048325","amenity":"atm","addr:full":"бул. \"Аурелия\", к.к. \"Академика Сии Палас\"","addr:city":"Несебър, обл. Бургас","addr:country":"BG","name":"Несебър","brand":"Банка ДСК","brand:wikidata":"Q5206146","operator:wikidata":"Q5206146"},"coordinates":[42.6534043,27.6994817]},"tags_mismatch":false,"dist":0},{"osm":false,"atp":{"id":"-36hZkS26ForxsB-F6rDGHPAYJc=","tags":{"ref":"47f852b1-4d38-650e-9d59-ff0900048325","amenity":"atm","addr:full":"ул. Елия 1","addr:city":"Никопол, обл. Плевен","addr:country":"BG","name":"Никопол","brand":"Банка ДСК","brand:wikidata":"Q5206146","operator:wikidata":"Q5206146"},"coordinates":[43.700859,24.894662799]},"tags_mismatch":false,"dist":0},{"osm":false,"atp":{"id":"t_oaiYG-J18LuiTauHLsLs9ZDYQ=","tags":{"ref":"5ff852b1-4d38-650e-9d59-ff0900048325","amenity":"atm","addr:full":"ул. \"Сливница\" 21","addr:city":"Нова Загора, обл. Сливен","addr:country":"BG","name":"Нова Загора","brand":"Банка ДСК","brand:wikidata":"Q5206146","operator:wikidata":"Q5206146"},"coordinates":[42.4981806,26.0092584]},"tags_mismatch":false,"dist":0},{"osm":false,"atp":{"id":"dil4NTstuokpBZw50l59L9m5YKA=","tags":{"ref":"6ff852b1-4d38-650e-9d59-ff0900048325","amenity":"atm","addr:full":"ул. \"Кременица\"","addr:city":"Нови Искър, обл. София-град","addr:country":"BG","name":"Нови Искър","brand":"Банка ДСК","brand:wikidata":"Q5206146","operator:wikidata":"Q5206146"},"coordinates":[42.8194767,23.3613103]},"tags_mismatch":false,"dist":0},{"osm":false,"atp":{"id":"k7GseFFFt-QETqlHULJe_3VA9Yk=","tags":{"ref":"8ff852b1-4d38-650e-9d59-ff0900048325","amenity":"atm","addr:full":"ул. Цар Освободител 16","addr:city":"Нови Пазар, обл. Шумен","addr:country":"BG","name":"Нови Пазар","brand":"Банка ДСК","brand:wikidata":"Q5206146","operator:wikidata":"Q5206146"},"coordinates":[43.3443512,27.191891]},"tags_mismatch":false,"dist":0},{"osm":false,"atp":{"id":"XMmBaz1bOi0HATY_nYHY8sK0DWg=","tags":{"ref":"67f952b1-4d38-650e-9d59-ff0900048325","amenity":"atm","addr:full":"ул. \"Цар Иван Асен ІІ\" 15","addr:city":"Павликени, обл. Велико Търново","addr:country":"BG","name":"Павликени","brand":"Банка ДСК","brand:wikidata":"Q5206146","operator:wikidata":"Q5206146"},"coordinates":[43.2381138,25.3071351]},"tags_mismatch":false,"dist":0},{"osm":false,"atp":{"id":"HS3BhTUUzr6yVUG1Nod2e5kgPuI=","tags":{"ref":"87f952b1-4d38-650e-9d59-ff0900048325","amenity":"atm","addr:full":"ул. \"К. Величков\" 29","addr:city":"Пазарджик, обл. Пазарджик","addr:country":"BG","name":"Пазарджик","brand":"Банка ДСК","brand:wikidata":"Q5206146","operator:wikidata":"Q5206146"},"coordinates":[42.1907678,24.329756]},"tags_mismatch":false,"dist":0},{"osm":false,"atp":{"id":"OvyJ7QBOKstKsEvoTrVaYa5H0JQ=","tags":{"ref":"97f952b1-4d38-650e-9d59-ff0900048325","amenity":"atm","addr:full":"ул. \"Христо Ботев\" 17","addr:city":"Пазарджик, обл. Пазарджик","addr:country":"BG","name":"Пазарджик","brand":"Банка ДСК","brand:wikidata":"Q5206146","operator:wikidata":"Q5206146"},"coordinates":[42.19330598,24.320265054]},"tags_mismatch":false,"dist":0},{"osm":false,"atp":{"id":"ZlaDzouvm3pGtHoJ1eAGZgyL0i4=","tags":{"ref":"b7f952b1-4d38-650e-9d59-ff0900048325","amenity":"atm","addr:full":"ж.к. \"Изток\", ул. \"Юрий Гагарин\" до бл. 38","addr:city":"Перник, обл. Перник","addr:country":"BG","name":"Перник","brand":"Банка ДСК","brand:wikidata":"Q5206146","operator:wikidata":"Q5206146"},"coordinates":[42.6095173,23.1062042]},"tags_mismatch":false,"dist":0},{"osm":false,"atp":{"id":"bVjQp_Yb9uMLcRYuHe_0j5UvEcs=","tags":{"ref":"dff952b1-4d38-650e-9d59-ff0900048325","amenity":"atm","addr:full":"ул. \"Отец Паисий\" 50","addr:city":"Перник, обл. Перник","addr:country":"BG","name":"Перник","brand":"Банка ДСК","brand:wikidata":"Q5206146","operator:wikidata":"Q5206146"},"coordinates":[42.6016468,23.0296292]},"tags_mismatch":false,"dist":0},{"osm":false,"atp":{"id":"tdRWKz3gVdZc1J7J5BdtWgslIWM=","tags":{"ref":"bffa52b1-4d38-650e-9d59-ff0900048325","amenity":"atm","addr:full":"ул. \"Цар Освободител\" 83","addr:city":"Пирдоп, обл. София–област","addr:country":"BG","name":"Пирдоп","brand":"Банка ДСК","brand:wikidata":"Q5206146","operator:wikidata":"Q5206146"},"coordinates":[42.7014029,24.1745294]},"tags_mismatch":false,"dist":0},{"osm":false,"atp":{"id":"RXKNFRNJ8QMy3cP29GPGc-5Q9AU=","tags":{"ref":"c7fa52b1-4d38-650e-9d59-ff0900048325","amenity":"atm","addr:full":"ул. \"Стара планина\" 40","addr:city":"Плачковци, обл. Габрово","addr:country":"BG","name":"Плачковци","brand":"Банка ДСК","brand:wikidata":"Q5206146","operator:wikidata":"Q5206146"},"coordinates":[42.823439,25.4807232]},"tags_mismatch":false,"dist":0},{"osm":false,"atp":{"id":"XtSHuZLa3W7ld6OMBn5veOcfk0o=","tags":{"ref":"d7fa52b1-4d38-650e-9d59-ff0900048325","amenity":"atm","addr:full":"ж.к. \"Сторгозия\"","addr:city":"Плевен, обл. Плевен","addr:country":"BG","name":"Плевен","brand":"Банка ДСК","brand:wikidata":"Q5206146","operator:wikidata":"Q5206146"},"coordinates":[43.421453006,24.595416784]},"tags_mismatch":false,"dist":0},{"osm":false,"atp":{"id":"x6CXUdcXS9CPxwVskKDbgEuFjxM=","tags":{"ref":"dffa52b1-4d38-650e-9d59-ff0900048325","amenity":"atm","addr:full":"ж.к. Сторгозия, ул. Цар Самуил","addr:city":"Плевен, обл. Плевен","addr:country":"BG","name":"Плевен","brand":"Банка ДСК","brand:wikidata":"Q5206146","operator:wikidata":"Q5206146"},"coordinates":[43.4171043,24.6059078]},"tags_mismatch":false,"dist":0},{"osm":false,"atp":{"id":"0PMnppuKu-CxzC4K-QVvRvMi89Q=","tags":{"ref":"e7fa52b1-4d38-650e-9d59-ff0900048325","amenity":"atm","addr:full":"пл. \"Възраждане\" 3","addr:city":"Плевен, обл. Плевен","addr:country":"BG","name":"Плевен","brand":"Банка ДСК","brand:wikidata":"Q5206146","operator:wikidata":"Q5206146"},"coordinates":[43.4074851,24.6206594]},"tags_mismatch":false,"dist":0},{"osm":false,"atp":{"id":"L1xcZfAclrjrz0Vuwi0NYZs0HRg=","tags":{"ref":"17fb52b1-4d38-650e-9d59-ff0900048325","amenity":"atm","addr:full":"ул. \"Метро\" 11","addr:city":"Плевен, обл. Плевен","addr:country":"BG","name":"Плевен","brand":"Банка ДСК","brand:wikidata":"Q5206146","operator:wikidata":"Q5206146"},"coordinates":[43.4373364,24.5921309]},"tags_mismatch":false,"dist":0},{"osm":false,"atp":{"id":"77So-XZmOxryHBazNFWSEnlobO8=","tags":{"ref":"27fb52b1-4d38-650e-9d59-ff0900048325","amenity":"atm","addr:full":"ул. „Васил Априлов“ №30, каса на Easypay","addr:city":"Плевен, обл. Велико Търново","addr:country":"BG","name":"Плевен","brand":"Банка ДСК","brand:wikidata":"Q5206146","operator:wikidata":"Q5206146"},"coordinates":[43.416151,24.620542]},"tags_mismatch":false,"dist":0},{"osm":false,"atp":{"id":"Mp90WQZOORjoDI-yJrQ20REJbGQ=","tags":{"ref":"2ffb52b1-4d38-650e-9d59-ff0900048325","amenity":"atm","addr:full":"ул. „Гривишко шосе“ №6","addr:city":"Плевен, обл. Плевен","addr:country":"BG","name":"Плевен","brand":"Банка ДСК","brand:wikidata":"Q5206146","operator:wikidata":"Q5206146"},"coordinates":[43.417897,24.647518]},"tags_mismatch":false,"dist":0},{"osm":false,"atp":{"id":"mTsySEwsy_vRCX2WsNbq6_CJuFc=","tags":{"ref":"37fb52b1-4d38-650e-9d59-ff0900048325","amenity":"atm","addr:full":"ул. Българска авиация\" МБАЛ Света Марина","addr:city":"Плевен, обл. Плевен","addr:country":"BG","name":"Плевен","brand":"Банка ДСК","brand:wikidata":"Q5206146","operator:wikidata":"Q5206146"},"coordinates":[43.4406632,24.5910088]},"tags_mismatch":false,"dist":0},{"osm":false,"atp":{"id":"lKKj1MpMn9aPwErHjQJ8aAiTP8w=","tags":{"ref":"3ffb52b1-4d38-650e-9d59-ff0900048325","amenity":"atm","addr:full":"бул. \"България\" 236","addr:city":"Пловдив, обл. Пловдив","addr:country":"BG","name":"Пловдив","brand":"Банка ДСК","brand:wikidata":"Q5206146","operator:wikidata":"Q5206146"},"coordinates":[42.1578601,24.7130181]},"tags_mismatch":false,"dist":0},{"osm":false,"atp":{"id":"ljIOJY89nkdumLRAl1pZNaPBEZw=","tags":{"ref":"4ffb52b1-4d38-650e-9d59-ff0900048325","amenity":"atm","addr:full":"бул. \"Санкт Петербург\" 135","addr:city":"Пловдив, обл. Пловдив","addr:country":"BG","name":"Пловдив","brand":"Банка ДСК","brand:wikidata":"Q5206146","operator:wikidata":"Q5206146"},"coordinates":[42.1433921,24.783645]},"tags_mismatch":false,"dist":0},{"osm":false,"atp":{"id":"86ZuFLdhB5GOqRv8dBonOgdDS5Q=","tags":{"ref":"27fc52b1-4d38-650e-9d59-ff0900048325","amenity":"atm","addr:full":"кв. \"Изгрев\", ул. \"Вратцата\" 7","addr:city":"Пловдив, обл. Пловдив","addr:country":"BG","name":"Пловдив","brand":"Банка ДСК","brand:wikidata":"Q5206146","operator:wikidata":"Q5206146"},"coordinates":[42.1526133,24.7891778]},"tags_mismatch":false,"dist":0},{"osm":false,"atp":{"id":"pBIwVaIaPcVz3hh3W82Kli6gIdo=","tags":{"ref":"2ffc52b1-4d38-650e-9d59-ff0900048325","amenity":"atm","addr:full":"Местност \"Каса Ирилик\", ул. \"Костиевска\" 1","addr:city":"Пловдив, обл. Пловдив","addr:country":"BG","name":"Пловдив","brand":"Банка ДСК","brand:wikidata":"Q5206146","operator:wikidata":"Q5206146"},"coordinates":[42.1587071,24.6796953]},"tags_mismatch":false,"dist":0},{"osm":false,"atp":{"id":"mQTJngWLa57KjNq4wJUl7edwmuc=","tags":{"ref":"3ffc52b1-4d38-650e-9d59-ff0900048325","amenity":"atm","addr:full":"ул. \"Колхида\" - продължение","addr:city":"Пловдив, обл. Пловдив","addr:country":"BG","name":"Пловдив","brand":"Банка ДСК","brand:wikidata":"Q5206146","operator:wikidata":"Q5206146"},"coordinates":[42.1269662,24.7153701]},"tags_mismatch":false,"dist":0},{"osm":false,"atp":{"id":"aW0My_nmxtUOoN-wEzqU_DOfMxw=","tags":{"ref":"47fc52b1-4d38-650e-9d59-ff0900048325","amenity":"atm","addr:full":"ул. \"Лазар Маджаров\" 10","addr:city":"Пловдив, обл. Пловдив","addr:country":"BG","name":"Пловдив","brand":"Банка ДСК","brand:wikidata":"Q5206146","operator:wikidata":"Q5206146"},"coordinates":[42.1265173,24.7402735]},"tags_mismatch":false,"dist":0},{"osm":false,"atp":{"id":"bDrEUtl-5-3Zg3NYagyZe649q9c=","tags":{"ref":"87fc52b1-4d38-650e-9d59-ff0900048325","amenity":"atm","addr:full":"ул. \"Цар Асен\" 24","addr:city":"Пловдив, обл. Пловдив","addr:country":"BG","name":"Пловдив","brand":"Банка ДСК","brand:wikidata":"Q5206146","operator:wikidata":"Q5206146"},"coordinates":[42.1383528,24.7514949]},"tags_mismatch":false,"dist":0},{"osm":false,"atp":{"id":"91rYWcXpFXB5Od6XMftGFIvXTF4=","tags":{"ref":"57fd52b1-4d38-650e-9d59-ff0900048325","amenity":"atm","addr:full":"ул.“Перущица“ №1А","addr:city":"Пловдив, обл. Пловдив","addr:country":"BG","name":"Пловдив","brand":"Банка ДСК","brand:wikidata":"Q5206146","operator:wikidata":"Q5206146"},"coordinates":[42.138455,24.717874]},"tags_mismatch":false,"dist":0},{"osm":false,"atp":{"id":"LGDiDhc9AwRwIhyY9VU0AN_QPd0=","tags":{"ref":"77fd52b1-4d38-650e-9d59-ff0900048325","amenity":"atm","addr:full":"ул. \"Княз Борис I\" 38","addr:city":"Поморие, обл. Бургас","addr:country":"BG","name":"Поморие","brand":"Банка ДСК","brand:wikidata":"Q5206146","operator:wikidata":"Q5206146"},"coordinates":[42.5635482,27.6276053]},"tags_mismatch":false,"dist":0},{"osm":false,"atp":{"id":"40L56Bro1pqjdjwzRwI62KcKzzs=","tags":{"ref":"7ffd52b1-4d38-650e-9d59-ff0900048325","amenity":"atm","addr:full":"ул. \"Княз Борис\" 113","addr:city":"Поморие, обл. Бургас","addr:country":"BG","name":"Поморие","brand":"Банка ДСК","brand:wikidata":"Q5206146","operator:wikidata":"Q5206146"},"coordinates":[42.5635482,27.6276053]},"tags_mismatch":false,"dist":0},{"osm":false,"atp":{"id":"sDYMDWw3yG9JqFSjJMWHfKp9CjA=","tags":{"ref":"97fd52b1-4d38-650e-9d59-ff0900048325","amenity":"atm","addr:full":"ул.“Добри Чинтулов“ №48, магазин Болеро","addr:city":"Поморие, обл. Бургас","addr:country":"BG","name":"Поморие","brand":"Банка ДСК","brand:wikidata":"Q5206146","operator:wikidata":"Q5206146"},"coordinates":[42.570363,27.613059]},"tags_mismatch":false,"dist":0},{"osm":false,"atp":{"id":"q7n6GFENBRJxYVCixOS0vhGaBuQ=","tags":{"ref":"bffd52b1-4d38-650e-9d59-ff0900048325","amenity":"atm","addr:full":"ул. \"Дунав\" 78","addr:city":"Провадия, обл. Варна","addr:country":"BG","name":"Провадия","brand":"Банка ДСК","brand:wikidata":"Q5206146","operator:wikidata":"Q5206146"},"coordinates":[43.179975,27.4424719]},"tags_mismatch":false,"dist":0},{"osm":false,"atp":{"id":"dwlNQd-0qhl1wCM9SMRZqy8Y4c8=","tags":{"ref":"e7fd52b1-4d38-650e-9d59-ff0900048325","amenity":"atm","addr:full":"ул.“Студенец“ №2","addr:city":"Първомай, обл. Пловдив","addr:country":"BG","name":"Първомай","brand":"Банка ДСК","brand:wikidata":"Q5206146","operator:wikidata":"Q5206146"},"coordinates":[41.725091,24.683676]},"tags_mismatch":false,"dist":0},{"osm":false,"atp":{"id":"IRVpatOX93S1OJCt9FBbIxSPdvY=","tags":{"ref":"b7fe52b1-4d38-650e-9d59-ff0900048325","amenity":"atm","addr:full":"ул.Марица 1","addr:city":"Разград, обл. Велико Търново","addr:country":"BG","name":"Разград","brand":"Банка ДСК","brand:wikidata":"Q5206146","operator:wikidata":"Q5206146"},"coordinates":[43.526737,26.521597]},"tags_mismatch":false,"dist":0},{"osm":false,"atp":{"id":"6NJMROeAadiK6-QFPWN2-W0zYBk=","tags":{"ref":"fffe52b1-4d38-650e-9d59-ff0900048325","amenity":"atm","addr:full":"ул. Първа 56","addr:city":"Рибново, обл. Благоевград","addr:country":"BG","name":"Рибново","brand":"Банка ДСК","brand:wikidata":"Q5206146","operator:wikidata":"Q5206146"},"coordinates":[41.718179,23.763199]},"tags_mismatch":false,"dist":0},{"osm":false,"atp":{"id":"_xArCxCc1C63VXJzzqES7mBfGtA=","tags":{"ref":"1fff52b1-4d38-650e-9d59-ff0900048325","amenity":"atm","addr:full":"ул. България 15","addr:city":"Рудозем, обл. Пловдив","addr:country":"BG","name":"Рудозем","brand":"Банка ДСК","brand:wikidata":"Q5206146","operator:wikidata":"Q5206146"},"coordinates":[41.489378,24.8490046]},"tags_mismatch":false,"dist":0},{"osm":false,"atp":{"id":"vvfHPSn9A9ruOK9zP_LrBjQf9qw=","tags":{"ref":"27ff52b1-4d38-650e-9d59-ff0900048325","amenity":"atm","addr:full":"ул. \"Изгрев\" 37","addr:city":"Руен, обл. Бургас","addr:country":"BG","name":"Руен","brand":"Банка ДСК","brand:wikidata":"Q5206146","operator:wikidata":"Q5206146"},"coordinates":[42.8001,27.2829824]},"tags_mismatch":false,"dist":0},{"osm":false,"atp":{"id":"lCGLnLNP0fqA57-RV0hpyKPDneE=","tags":{"ref":"3fff52b1-4d38-650e-9d59-ff0900048325","amenity":"atm","addr:full":"ж.к. \"Родина\", ул. \"Чипровци\", бл.\"Колос\"","addr:city":"Русе, обл. Русе","addr:country":"BG","name":"Русе","brand":"Банка ДСК","brand:wikidata":"Q5206146","operator:wikidata":"Q5206146"},"coordinates":[43.8455104,25.9750461]},"tags_mismatch":false,"dist":0},{"osm":false,"atp":{"id":"u0eAiSdj-RyvarFGaIKEvFVVtg4=","tags":{"ref":"170053b1-4d38-650e-9d59-ff0900048325","amenity":"atm","addr:full":"ул. \"Рига\" 30","addr:city":"Русе, обл. Русе","addr:country":"BG","name":"Русе","brand":"Банка ДСК","brand:wikidata":"Q5206146","operator:wikidata":"Q5206146"},"coordinates":[43.8516515,25.9993824]},"tags_mismatch":false,"dist":0},{"osm":false,"atp":{"id":"ACKGHt3nn94Q1jSsjXnupHZ7wWk=","tags":{"ref":"1f0053b1-4d38-650e-9d59-ff0900048325","amenity":"atm","addr:full":"ул. \"Студентска\" 5","addr:city":"Русе, обл. Русе","addr:country":"BG","name":"Русе","brand":"Банка ДСК","brand:wikidata":"Q5206146","operator:wikidata":"Q5206146"},"coordinates":[43.8545405,25.9690338]},"tags_mismatch":false,"dist":0},{"osm":false,"atp":{"id":"c02118eZDuYNbm7MBb7adPiKYOc=","tags":{"ref":"270053b1-4d38-650e-9d59-ff0900048325","amenity":"atm","addr:full":"ул. \"Студентска\" 8 - вътрешен","addr:city":"Русе, обл. Русе","addr:country":"BG","name":"Русе","brand":"Банка ДСК","brand:wikidata":"Q5206146","operator:wikidata":"Q5206146"},"coordinates":[43.8540513,25.9698102]},"tags_mismatch":false,"dist":0},{"osm":false,"atp":{"id":"LI4MJHqE-1Qmf-qKd84BbzT3CfU=","tags":{"ref":"2f0053b1-4d38-650e-9d59-ff0900048325","amenity":"atm","addr:full":"ул. \"Трети март\" 60","addr:city":"Русе, обл. Русе","addr:country":"BG","name":"Русе","brand":"Банка ДСК","brand:wikidata":"Q5206146","operator:wikidata":"Q5206146"},"coordinates":[43.8145194,25.926058]},"tags_mismatch":false,"dist":0},{"osm":false,"atp":{"id":"4UyG9ByFSRsF8rDTy83lPTIL7Qg=","tags":{"ref":"370053b1-4d38-650e-9d59-ff0900048325","amenity":"atm","addr:full":"ул. \"Цар Освободител\" 113А","addr:city":"Русе, обл. Русе","addr:country":"BG","name":"Русе","brand":"Банка ДСК","brand:wikidata":"Q5206146","operator:wikidata":"Q5206146"},"coordinates":[43.842401,25.9606502]},"tags_mismatch":false,"dist":0},{"osm":false,"atp":{"id":"L4lJD5WrPTkcXKaIdxWVmdHAaJg=","tags":{"ref":"3f0053b1-4d38-650e-9d59-ff0900048325","amenity":"atm","addr:full":"ул. \"Черни връх\" 2","addr:city":"Русе, обл. Русе","addr:country":"BG","name":"Русе","brand":"Банка ДСК","brand:wikidata":"Q5206146","operator:wikidata":"Q5206146"},"coordinates":[43.8407953,25.9647037]},"tags_mismatch":false,"dist":0},{"osm":false,"atp":{"id":"lwgSsbUYVgo0FmtDG6FGh2MCi48=","tags":{"ref":"4f0053b1-4d38-650e-9d59-ff0900048325","amenity":"atm","addr:full":"ул. Николаевска №72","addr:city":"Русе, обл. Русе","addr:country":"BG","name":"Русе","brand":"Банка ДСК","brand:wikidata":"Q5206146","operator:wikidata":"Q5206146"},"coordinates":[43.836244,25.952435]},"tags_mismatch":false,"dist":0},{"osm":false,"atp":{"id":"bU39kOGjeRxVwi6ddZk77ay4UeM=","tags":{"ref":"570053b1-4d38-650e-9d59-ff0900048325","amenity":"atm","addr:full":"ул.“Липник“ №66","addr:city":"Русе, обл. Велико Търново","addr:country":"BG","name":"Русе","brand":"Банка ДСК","brand:wikidata":"Q5206146","operator:wikidata":"Q5206146"},"coordinates":[43.851733,25.987268]},"tags_mismatch":false,"dist":0},{"osm":false,"atp":{"id":"0wK1t4OWBJfyZQqepVMWIuvvaT4=","tags":{"ref":"5f0053b1-4d38-650e-9d59-ff0900048325","amenity":"atm","addr:full":"ул.“Независимост\" № 2 ДКЦ 1","addr:city":"Русе, обл. Велико Търново","addr:country":"BG","name":"Русе","brand":"Банка ДСК","brand:wikidata":"Q5206146","operator:wikidata":"Q5206146"},"coordinates":[43.858252,25.96121]},"tags_mismatch":false,"dist":0},{"osm":false,"atp":{"id":"J7SVce3eOFs61Q58WBVttO4D164=","tags":{"ref":"670053b1-4d38-650e-9d59-ff0900048325","amenity":"atm","addr:full":"ул. \"Георги Ангелиев\" № 44","addr:city":"с. Радилово, общ. Пещера, обл. Пловдив","addr:country":"BG","name":"с. Радилово, общ. Пещера","brand":"Банка ДСК","brand:wikidata":"Q5206146","operator:wikidata":"Q5206146"},"coordinates":[42.03744,24.3003]},"tags_mismatch":false,"dist":0},{"osm":false,"atp":{"id":"x-sQe7WkAjE_pmfR73EG9QueUL4=","tags":{"ref":"6f0053b1-4d38-650e-9d59-ff0900048325","amenity":"atm","addr:full":"ул. \"Иван Вазов\" 2","addr:city":"Садово, обл. Пловдив","addr:country":"BG","name":"Садово","brand":"Банка ДСК","brand:wikidata":"Q5206146","operator:wikidata":"Q5206146"},"coordinates":[42.1333898,24.9383779]},"tags_mismatch":false,"dist":0},{"osm":false,"atp":{"id":"rYJ_Mlnt1LCVA3141MISIfJETf0=","tags":{"ref":"4f0153b1-4d38-650e-9d59-ff0900048325","amenity":"atm","addr:full":"бул. \"България\" 151","addr:city":"Свиленград, обл. Хасково","addr:country":"BG","name":"Свиленград","brand":"Банка ДСК","brand:wikidata":"Q5206146","operator:wikidata":"Q5206146"},"coordinates":[41.76563,26.20287]},"tags_mismatch":false,"dist":0},{"osm":false,"atp":{"id":"R2E7cNxVx1xWX4di7ynZy_esrlM=","tags":{"ref":"5f0153b1-4d38-650e-9d59-ff0900048325","amenity":"atm","addr:full":"ул. \"Петър Ангелов\" 18","addr:city":"Свищов, обл. Велико Търново","addr:country":"BG","name":"Свищов","brand":"Банка ДСК","brand:wikidata":"Q5206146","operator:wikidata":"Q5206146"},"coordinates":[43.6201164,25.3460445]},"tags_mismatch":false,"dist":0},{"osm":false,"atp":{"id":"rE7LAJnulC3jYDUeXXPmmBhEnCE=","tags":{"ref":"870153b1-4d38-650e-9d59-ff0900048325","amenity":"atm","addr:full":"ж.к. Митко Палаузов","addr:city":"Севлиево, обл. Велико Търново","addr:country":"BG","name":"Севлиево","brand":"Банка ДСК","brand:wikidata":"Q5206146","operator:wikidata":"Q5206146"},"coordinates":[43.016337,25.098328]},"tags_mismatch":false,"dist":0},{"osm":false,"atp":{"id":"IwdhzVpjnIVcFcSGPr8AM7f9kqs=","tags":{"ref":"9f0153b1-4d38-650e-9d59-ff0900048325","amenity":"atm","addr:full":"ул. Сергей Румянцев 2","addr:city":"Селановци, общ. Оряхово, обл. Враца","addr:country":"BG","name":"Селановци, общ. Оряхово","brand":"Банка ДСК","brand:wikidata":"Q5206146","operator:wikidata":"Q5206146"},"coordinates":[43.6724239,24.001830499]},"tags_mismatch":false,"dist":0},{"osm":false,"atp":{"id":"xOqA5E8ZGFYKTLnvYxr2z1yONaM=","tags":{"ref":"af0153b1-4d38-650e-9d59-ff0900048325","amenity":"atm","addr:full":"бул. \"Македония\" 86","addr:city":"Силистра, обл. Силистра","addr:country":"BG","name":"Силистра","brand":"Банка ДСК","brand:wikidata":"Q5206146","operator:wikidata":"Q5206146"},"coordinates":[44.1123158,27.2633457]},"tags_mismatch":false,"dist":0},{"osm":false,"atp":{"id":"Ixhtt0u_Eyg7y-ua7PedCFXpTew=","tags":{"ref":"b70153b1-4d38-650e-9d59-ff0900048325","amenity":"atm","addr:full":"бул.“Македония“ №199","addr:city":"Силистра, обл. Варна","addr:country":"BG","name":"Силистра","brand":"Банка ДСК","brand:wikidata":"Q5206146","operator:wikidata":"Q5206146"},"coordinates":[44.119949,27.268215]},"tags_mismatch":false,"dist":0},{"osm":false,"atp":{"id":"ktdaTRimsLtvOEsU_9iIvSiAqyU=","tags":{"ref":"bf0153b1-4d38-650e-9d59-ff0900048325","amenity":"atm","addr:full":"ул. \"Добрич\" 142","addr:city":"Силистра, обл. Силистра","addr:country":"BG","name":"Силистра","brand":"Банка ДСК","brand:wikidata":"Q5206146","operator:wikidata":"Q5206146"},"coordinates":[44.109715,27.2740959]},"tags_mismatch":false,"dist":0},{"osm":false,"atp":{"id":"UlQQoUhTmYstCVGMJyjsd57lh5w=","tags":{"ref":"c70153b1-4d38-650e-9d59-ff0900048325","amenity":"atm","addr:full":"ул. \"Добрич\" 79","addr:city":"Силистра, обл. Силистра","addr:country":"BG","name":"Силистра","brand":"Банка ДСК","brand:wikidata":"Q5206146","operator:wikidata":"Q5206146"},"coordinates":[44.1127772,27.2708288]},"tags_mismatch":false,"dist":0},{"osm":false,"atp":{"id":"jjqI4uzmzrZEbGaZufyqNgaqNKI=","tags":{"ref":"d70153b1-4d38-650e-9d59-ff0900048325","amenity":"atm","addr:full":"ул. \"Шар планина\" 2","addr:city":"Силистра, обл. Силистра","addr:country":"BG","name":"Силистра","brand":"Банка ДСК","brand:wikidata":"Q5206146","operator:wikidata":"Q5206146"},"coordinates":[44.1165337,27.2579688]},"tags_mismatch":false,"dist":0},{"osm":false,"atp":{"id":"OEHjvLE80UkJuss8MSscMZsIFKY=","tags":{"ref":"8f0253b1-4d38-650e-9d59-ff0900048325","amenity":"atm","addr:full":"ул. \"Търговска\" № 24","addr:city":"Симеоновград, обл. Хасково","addr:country":"BG","name":"Симеоновград","brand":"Банка ДСК","brand:wikidata":"Q5206146","operator:wikidata":"Q5206146"},"coordinates":[42.034441,25.831405]},"tags_mismatch":false,"dist":0},{"osm":false,"atp":{"id":"UIke_LqbA_bjLV4PME_c_URRlVQ=","tags":{"ref":"970253b1-4d38-650e-9d59-ff0900048325","amenity":"atm","addr:full":"ул. \"Янко Сакъзов \" 20","addr:city":"Симеоновград, обл. Хасково","addr:country":"BG","name":"Симеоновград","brand":"Банка ДСК","brand:wikidata":"Q5206146","operator:wikidata":"Q5206146"},"coordinates":[42.033775206,25.832800269]},"tags_mismatch":false,"dist":0},{"osm":false,"atp":{"id":"rPyb3YC-iJVfmvKOLF8ocHabzqY=","tags":{"ref":"a70253b1-4d38-650e-9d59-ff0900048325","amenity":"atm","addr:full":"ул. \"Толбухин\" 5","addr:city":"Славяново, обл. Плевен","addr:country":"BG","name":"Славяново","brand":"Банка ДСК","brand:wikidata":"Q5206146","operator:wikidata":"Q5206146"},"coordinates":[43.465368,24.869882]},"tags_mismatch":false,"dist":0},{"osm":false,"atp":{"id":"AGO65SSoltw7odktm1gI1CqXwfs=","tags":{"ref":"af0253b1-4d38-650e-9d59-ff0900048325","amenity":"atm","addr:full":"ул. Демокрация №45","addr:city":"Слащен, обл. Благоевград","addr:country":"BG","name":"Слащен","brand":"Банка ДСК","brand:wikidata":"Q5206146","operator:wikidata":"Q5206146"},"coordinates":[41.497287,24.019889]},"tags_mismatch":false,"dist":0},{"osm":false,"atp":{"id":"JJaTQQNszOTzqk_OPX8GB3fnA_I=","tags":{"ref":"bf0253b1-4d38-650e-9d59-ff0900048325","amenity":"atm","addr:full":"бул. Бургаско шосе №60","addr:city":"Сливен, обл. Сливен","addr:country":"BG","name":"Сливен","brand":"Банка ДСК","brand:wikidata":"Q5206146","operator:wikidata":"Q5206146"},"coordinates":[42.673295,26.336807]},"tags_mismatch":false,"dist":0},{"osm":false,"atp":{"id":"JRN_gEYAJxLY7emZHM_o-4Tffnk=","tags":{"ref":"c70253b1-4d38-650e-9d59-ff0900048325","amenity":"atm","addr:full":"бул. Панайот Хитов 18","addr:city":"Сливен, обл. Сливен","addr:country":"BG","name":"Сливен","brand":"Банка ДСК","brand:wikidata":"Q5206146","operator:wikidata":"Q5206146"},"coordinates":[42.687537,26.332289]},"tags_mismatch":false,"dist":0},{"osm":false,"atp":{"id":"FlB-N9D0n7I7VBL3F5tSgoyLbHY=","tags":{"ref":"cf0253b1-4d38-650e-9d59-ff0900048325","amenity":"atm","addr:full":"ж.к. Дружба до бл. 20","addr:city":"Сливен, обл. Сливен","addr:country":"BG","name":"Сливен","brand":"Банка ДСК","brand:wikidata":"Q5206146","operator:wikidata":"Q5206146"},"coordinates":[42.677068,26.34921]},"tags_mismatch":false,"dist":0},{"osm":false,"atp":{"id":"HD3PFdtpQpTlePht2Dkymtrew8k=","tags":{"ref":"e70253b1-4d38-650e-9d59-ff0900048325","amenity":"atm","addr:full":"кв. \"Речица\", ул. \"Тодор Асенов\"","addr:city":"Сливен, обл. Сливен","addr:country":"BG","name":"Сливен","brand":"Банка ДСК","brand:wikidata":"Q5206146","operator:wikidata":"Q5206146"},"coordinates":[42.6249181,26.276499]},"tags_mismatch":false,"dist":0},{"osm":false,"atp":{"id":"Or-8MXMkL65mU5BDsEwt3JCyOfc=","tags":{"ref":"ef0253b1-4d38-650e-9d59-ff0900048325","amenity":"atm","addr:full":"кв. Българка 65","addr:city":"Сливен, обл. Сливен","addr:country":"BG","name":"Сливен","brand":"Банка ДСК","brand:wikidata":"Q5206146","operator:wikidata":"Q5206146"},"coordinates":[42.5303591,26.4773976]},"tags_mismatch":false,"dist":0},{"osm":false,"atp":{"id":"68EV26Y_jJEcMmNHi_cZofGty9U=","tags":{"ref":"f70253b1-4d38-650e-9d59-ff0900048325","amenity":"atm","addr:full":"ул. \"Георги Икономов\", бл.88","addr:city":"Сливен, обл. Сливен","addr:country":"BG","name":"Сливен","brand":"Банка ДСК","brand:wikidata":"Q5206146","operator:wikidata":"Q5206146"},"coordinates":[42.677388,26.305448]},"tags_mismatch":false,"dist":0},{"osm":false,"atp":{"id":"4XzPEsDboc2i8N8GID0Jm0U7ti8=","tags":{"ref":"170353b1-4d38-650e-9d59-ff0900048325","amenity":"atm","addr:full":"ул. Алескандър Стамболийски 8","addr:city":"Сливен, обл. Сливен","addr:country":"BG","name":"Сливен","brand":"Банка ДСК","brand:wikidata":"Q5206146","operator:wikidata":"Q5206146"},"coordinates":[42.681729,26.325214]},"tags_mismatch":false,"dist":0},{"osm":false,"atp":{"id":"cy746qtzarXxUgHKjDs3RDN3Ndw=","tags":{"ref":"1f0353b1-4d38-650e-9d59-ff0900048325","amenity":"atm","addr:full":"бул. Стефан Стамболов 50","addr:city":"Сливен, обл. Сливен","addr:country":"BG","name":"Сливен","brand":"Банка ДСК","brand:wikidata":"Q5206146","operator:wikidata":"Q5206146"},"coordinates":[42.677061,26.349201]},"tags_mismatch":false,"dist":0},{"osm":false,"atp":{"id":"OGje2knRzmFf86nKKHDFAkVbGn0=","tags":{"ref":"df0353b1-4d38-650e-9d59-ff0900048325","amenity":"atm","addr:full":"Х-Л \"СРЕДЕЦ\"","addr:city":"СЛЪНЧЕВ БРЯГ, обл. Бургас","addr:country":"BG","name":"СЛЪНЧЕВ БРЯГ","brand":"Банка ДСК","brand:wikidata":"Q5206146","operator:wikidata":"Q5206146"},"coordinates":[42.683627,27.708633]},"tags_mismatch":false,"dist":0},{"osm":false,"atp":{"id":"XrsIJ1s72D1p1r1_Ne_N4CHetzs=","tags":{"ref":"ff0353b1-4d38-650e-9d59-ff0900048325","amenity":"atm","addr:full":"бул. \"България\" 85","addr:city":"Смолян, обл. Смолян","addr:country":"BG","name":"Смолян","brand":"Банка ДСК","brand:wikidata":"Q5206146","operator:wikidata":"Q5206146"},"coordinates":[41.58042882,24.686751365]},"tags_mismatch":false,"dist":0},{"osm":false,"atp":{"id":"eXQzarOgEBenvkb8nZRVWNR8Wwc=","tags":{"ref":"0f0453b1-4d38-650e-9d59-ff0900048325","amenity":"atm","addr:full":"бул. България 72","addr:city":"Смолян, обл. Смолян","addr:country":"BG","name":"Смолян","brand":"Банка ДСК","brand:wikidata":"Q5206146","operator:wikidata":"Q5206146"},"coordinates":[41.578019,24.697362]},"tags_mismatch":false,"dist":0},{"osm":false,"atp":{"id":"B4geyqmmTYNlEo0Owcgfa1-tzRA=","tags":{"ref":"770453b1-4d38-650e-9d59-ff0900048325","amenity":"atm","addr:full":"бул. \"Г. С. Раковски\" 42","addr:city":"София, обл. София-град","addr:country":"BG","name":"София","brand":"Банка ДСК","brand:wikidata":"Q5206146","operator:wikidata":"Q5206146"},"coordinates":[42.7027097,23.328931799]},"tags_mismatch":false,"dist":0},{"osm":false,"atp":{"id":"ZqGdblOjZesWkujaSfzG03d6vig=","tags":{"ref":"7f0453b1-4d38-650e-9d59-ff0900048325","amenity":"atm","addr:full":"бул. \"Г.М. Димитров\" № 52 В","addr:city":"София, обл. София-град","addr:country":"BG","name":"СОФИЯ","brand":"Банка ДСК","brand:wikidata":"Q5206146","operator:wikidata":"Q5206146"},"coordinates":[42.665045,23.357906]},"tags_mismatch":false,"dist":0},{"osm":false,"atp":{"id":"zxyPPEiNZbQxM_G2UrYk_vSPg84=","tags":{"ref":"570553b1-4d38-650e-9d59-ff0900048325","amenity":"atm","addr:full":"бул. \"Илиенско шосе\" 8","addr:city":"София, обл. София-град","addr:country":"BG","name":"София","brand":"Банка ДСК","brand:wikidata":"Q5206146","operator:wikidata":"Q5206146"},"coordinates":[42.7402747,23.3181141]},"tags_mismatch":false,"dist":0},{"osm":false,"atp":{"id":"m9CIAjdhMLn_fUyR6mqrAzUyl6A=","tags":{"ref":"6f0553b1-4d38-650e-9d59-ff0900048325","amenity":"atm","addr:full":"бул. \"Монтевидео\" 21","addr:city":"София, обл. София-град","addr:country":"BG","name":"София","brand":"Банка ДСК","brand:wikidata":"Q5206146","operator:wikidata":"Q5206146"},"coordinates":[42.6771952,23.252924]},"tags_mismatch":false,"dist":0},{"osm":false,"atp":{"id":"bGCL8Nsi_L6SnExG51HJZhpJiNE=","tags":{"ref":"970553b1-4d38-650e-9d59-ff0900048325","amenity":"atm","addr:full":"бул. \"Христофор Колумб\" 1","addr:city":"София, обл. София-град","addr:country":"BG","name":"София","brand":"Банка ДСК","brand:wikidata":"Q5206146","operator:wikidata":"Q5206146"},"coordinates":[42.6891784,23.413786]},"tags_mismatch":false,"dist":0},{"osm":false,"atp":{"id":"OO8hOmB3SUKSkBFnMg6t5-qigQw=","tags":{"ref":"9f0553b1-4d38-650e-9d59-ff0900048325","amenity":"atm","addr:full":"бул. \"Цар Борис III\" 130","addr:city":"София, обл. София-град","addr:country":"BG","name":"София","brand":"Банка ДСК","brand:wikidata":"Q5206146","operator:wikidata":"Q5206146"},"coordinates":[42.6757297,23.2743259]},"tags_mismatch":false,"dist":0},{"osm":false,"atp":{"id":"6SgJqmKcN7oAUGt8-2wa3IjauzQ=","tags":{"ref":"bf0553b1-4d38-650e-9d59-ff0900048325","amenity":"atm","addr:full":"Бул. \"Цариградско шосе\" 115 М","addr:city":"София, обл. София-град","addr:country":"BG","name":"София","brand":"Банка ДСК","brand:wikidata":"Q5206146","operator:wikidata":"Q5206146"},"coordinates":[42.660743,23.383002]},"tags_mismatch":false,"dist":0},{"osm":false,"atp":{"id":"OsfCT9Toksn6x58G18NQXbulPOQ=","tags":{"ref":"c70553b1-4d38-650e-9d59-ff0900048325","amenity":"atm","addr:full":"бул. \"Цариградско шосе\" 7 - 11 км","addr:city":"София, обл. София-град","addr:country":"BG","name":"София","brand":"Банка ДСК","brand:wikidata":"Q5206146","operator:wikidata":"Q5206146"},"coordinates":[42.6550523,23.3894588]},"tags_mismatch":false,"dist":0},{"osm":false,"atp":{"id":"xhgF27V7qlktF9OEgcLYhZ_h_Xs=","tags":{"ref":"cf0553b1-4d38-650e-9d59-ff0900048325","amenity":"atm","addr:full":"Бул. \"Цариградско шосе\" № 115 М","addr:city":"София, обл. София-град","addr:country":"BG","name":"София","brand":"Банка ДСК","brand:wikidata":"Q5206146","operator:wikidata":"Q5206146"},"coordinates":[42.660735,23.383034]},"tags_mismatch":false,"dist":0},{"osm":false,"atp":{"id":"psme5au4oI9GSRhPL1nPi3bG1Ds=","tags":{"ref":"b70653b1-4d38-650e-9d59-ff0900048325","amenity":"atm","addr:full":"бул. Околовръстен път 127, Сити клиник","addr:city":"София, обл. София-град","addr:country":"BG","name":"София","brand":"Банка ДСК","brand:wikidata":"Q5206146","operator:wikidata":"Q5206146"},"coordinates":[42.6391946,23.318862399]},"tags_mismatch":false,"dist":0},{"osm":false,"atp":{"id":"QCTgSu5imnQkhsrEyIcGzrxNX08=","tags":{"ref":"c70653b1-4d38-650e-9d59-ff0900048325","amenity":"atm","addr:full":"бул. Петър Дертлиев №56, Люлин","addr:city":"София, обл. София-град","addr:country":"BG","name":"София","brand":"Банка ДСК","brand:wikidata":"Q5206146","operator:wikidata":"Q5206146"},"coordinates":[42.710211,23.258153]},"tags_mismatch":false,"dist":0},{"osm":false,"atp":{"id":"GUOQJjIzpGsdMObPh7vXCt0VeP4=","tags":{"ref":"ef0653b1-4d38-650e-9d59-ff0900048325","amenity":"atm","addr:full":"бул. Цариградско шосе 66","addr:city":"София, обл. София-град","addr:country":"BG","name":"София","brand":"Банка ДСК","brand:wikidata":"Q5206146","operator:wikidata":"Q5206146"},"coordinates":[42.655315,23.385615]},"tags_mismatch":false,"dist":0},{"osm":false,"atp":{"id":"PeEXvXCkkOk-dITibW_kEUKdR18=","tags":{"ref":"070753b1-4d38-650e-9d59-ff0900048325","amenity":"atm","addr:full":"бул. Янко Сакъзов","addr:city":"София, обл. София-град","addr:country":"BG","name":"София","brand":"Банка ДСК","brand:wikidata":"Q5206146","operator:wikidata":"Q5206146"},"coordinates":[42.696555,23.335806]},"tags_mismatch":false,"dist":0},{"osm":false,"atp":{"id":"q69K1ylofbu1RAXiRsrYcWZdIVo=","tags":{"ref":"0f0753b1-4d38-650e-9d59-ff0900048325","amenity":"atm","addr:full":"бул.\"Царица Йоана\" №15","addr:city":"София, обл. София-град","addr:country":"BG","name":"София","brand":"Банка ДСК","brand:wikidata":"Q5206146","operator:wikidata":"Q5206146"},"coordinates":[42.710481,23.271111]},"tags_mismatch":false,"dist":0},{"osm":false,"atp":{"id":"ZYYmXRhXgcBbbYG6bgQa6mTJg_Q=","tags":{"ref":"cf0753b1-4d38-650e-9d59-ff0900048325","amenity":"atm","addr:full":"бул.“Сливница“ №441","addr:city":"София, обл. София-град","addr:country":"BG","name":"София","brand":"Банка ДСК","brand:wikidata":"Q5206146","operator:wikidata":"Q5206146"},"coordinates":[42.740023,23.237882]},"tags_mismatch":false,"dist":0},{"osm":false,"atp":{"id":"37wY920Zu98YFezsgbByFyb6oPc=","tags":{"ref":"e70753b1-4d38-650e-9d59-ff0900048325","amenity":"atm","addr:full":"бул.“Цариградско“ №90","addr:city":"София, обл. София-град","addr:country":"BG","name":"София","brand":"Банка ДСК","brand:wikidata":"Q5206146","operator:wikidata":"Q5206146"},"coordinates":[42.647029,23.395692]},"tags_mismatch":false,"dist":0},{"osm":false,"atp":{"id":"a0GeBXmt6dJbmqmWnvMWfMC7XJU=","tags":{"ref":"270953b1-4d38-650e-9d59-ff0900048325","amenity":"atm","addr:full":"ж.к. \"Овча купел\" РУМ-2, супермаркет \"КОМЕ\"","addr:city":"София, обл. София-град","addr:country":"BG","name":"София","brand":"Банка ДСК","brand:wikidata":"Q5206146","operator:wikidata":"Q5206146"},"coordinates":[42.6866226,23.246541]},"tags_mismatch":false,"dist":0},{"osm":false,"atp":{"id":"_wOYW4jFZbcOlYEkbv6H4ttk8Z4=","tags":{"ref":"470953b1-4d38-650e-9d59-ff0900048325","amenity":"atm","addr:full":"ж.к. \"Слатина\", до бл.41","addr:city":"София, обл. София-град","addr:country":"BG","name":"София","brand":"Банка ДСК","brand:wikidata":"Q5206146","operator:wikidata":"Q5206146"},"coordinates":[42.687665,23.372041]},"tags_mismatch":false,"dist":0},{"osm":false,"atp":{"id":"MS1mZ3b7ze0AM2ncH1dMu_4pdyY=","tags":{"ref":"4f0953b1-4d38-650e-9d59-ff0900048325","amenity":"atm","addr:full":"ж.к. „Студентски град“, ул. „Акад. Борис Стефанов“ и ул. „Атанас Манчев“","addr:city":"София, обл. София-град","addr:country":"BG","name":"София","brand":"Банка ДСК","brand:wikidata":"Q5206146","operator:wikidata":"Q5206146"},"coordinates":[42.648258,23.341499]},"tags_mismatch":false,"dist":0},{"osm":false,"atp":{"id":"5yyG-dszVLnPFaicCRar9SdiyK4=","tags":{"ref":"570953b1-4d38-650e-9d59-ff0900048325","amenity":"atm","addr:full":"ж.к. Студентски град, ул. акад Борис Стефанов","addr:city":"София, обл. София-град","addr:country":"BG","name":"София","brand":"Банка ДСК","brand:wikidata":"Q5206146","operator:wikidata":"Q5206146"},"coordinates":[42.64422,23.342085]},"tags_mismatch":false,"dist":0},{"osm":false,"atp":{"id":"iaKEFDRhjT18XckMDQzOOGPFiCY=","tags":{"ref":"670953b1-4d38-650e-9d59-ff0900048325","amenity":"atm","addr:full":"ж.к.“Младост І“, бл.111","addr:city":"София, обл. София-град","addr:country":"BG","name":"София","brand":"Банка ДСК","brand:wikidata":"Q5206146","operator:wikidata":"Q5206146"},"coordinates":[42.653804,23.35827]},"tags_mismatch":false,"dist":0},{"osm":false,"atp":{"id":"ITFlTe0QmfR444pP4xd6Cp8q-EU=","tags":{"ref":"8f0953b1-4d38-650e-9d59-ff0900048325","amenity":"atm","addr:full":"кв. \"Ботунец\", ул. \"Васил Левски\" 2А","addr:city":"София, обл. София-град","addr:country":"BG","name":"София","brand":"Банка ДСК","brand:wikidata":"Q5206146","operator:wikidata":"Q5206146"},"coordinates":[42.738524,23.5063267]},"tags_mismatch":false,"dist":0},{"osm":false,"atp":{"id":"6OXhzt37LUFNY9CQm5TPECH8k4c=","tags":{"ref":"9f0953b1-4d38-650e-9d59-ff0900048325","amenity":"atm","addr:full":"кв. \"Надежда\", ул. \"Христо Силянов\" 77","addr:city":"София, обл. София-град","addr:country":"BG","name":"София","brand":"Банка ДСК","brand:wikidata":"Q5206146","operator:wikidata":"Q5206146"},"coordinates":[42.7299451,23.2945453]},"tags_mismatch":false,"dist":0},{"osm":false,"atp":{"id":"eDl_0_WYusl08MWSlKPsRfVn3P4=","tags":{"ref":"6f0a53b1-4d38-650e-9d59-ff0900048325","amenity":"atm","addr:full":"кв. \"Студентски град\", бл.5","addr:city":"София, обл. София-град","addr:country":"BG","name":"София","brand":"Банка ДСК","brand:wikidata":"Q5206146","operator:wikidata":"Q5206146"},"coordinates":[42.6591827,23.3508566]},"tags_mismatch":false,"dist":0},{"osm":false,"atp":{"id":"ID646cMk48pOz2VctFbyw4ynYOA=","tags":{"ref":"bf0a53b1-4d38-650e-9d59-ff0900048325","amenity":"atm","addr:full":"ул. \"Атанас Узунов\" 34","addr:city":"София, обл. София-град","addr:country":"BG","name":"София","brand":"Банка ДСК","brand:wikidata":"Q5206146","operator:wikidata":"Q5206146"},"coordinates":[42.6902856,23.363847699]},"tags_mismatch":false,"dist":0},{"osm":false,"atp":{"id":"ixS2UeeuIdE8ZN9q2UT2cbxSS3c=","tags":{"ref":"e70a53b1-4d38-650e-9d59-ff0900048325","amenity":"atm","addr:full":"ул. \"Коньовица\" 65","addr:city":"София, обл. София-град","addr:country":"BG","name":"София","brand":"Банка ДСК","brand:wikidata":"Q5206146","operator:wikidata":"Q5206146"},"coordinates":[42.7064346,23.2880476]},"tags_mismatch":false,"dist":0},{"osm":false,"atp":{"id":"ekuVdy0XRX6muFj9mfVsxaqIGH8=","tags":{"ref":"0f0b53b1-4d38-650e-9d59-ff0900048325","amenity":"atm","addr:full":"ул. \"Панайот Волов\" 2","addr:city":"София, обл. София-град","addr:country":"BG","name":"София","brand":"Банка ДСК","brand:wikidata":"Q5206146","operator:wikidata":"Q5206146"},"coordinates":[42.6976463,23.336394]},"tags_mismatch":false,"dist":0},{"osm":false,"atp":{"id":"xsviJswg6ivzy8tuPm8yF94J8k4=","tags":{"ref":"c70b53b1-4d38-650e-9d59-ff0900048325","amenity":"atm","addr:full":"ул. \"Пирин\" 52","addr:city":"София, обл. София-град","addr:country":"BG","name":"София","brand":"Банка ДСК","brand:wikidata":"Q5206146","operator:wikidata":"Q5206146"},"coordinates":[42.664332077,23.28395605]},"tags_mismatch":false,"dist":0},{"osm":false,"atp":{"id":"dQfeOm5Qxx_u_wb-EVSX4T5xlxE=","tags":{"ref":"cf0b53b1-4d38-650e-9d59-ff0900048325","amenity":"atm","addr:full":"ул. \"Пиротска\" 120","addr:city":"София, обл. София-град","addr:country":"BG","name":"София","brand":"Банка ДСК","brand:wikidata":"Q5206146","operator:wikidata":"Q5206146"},"coordinates":[42.7027119,23.301682]},"tags_mismatch":false,"dist":0},{"osm":false,"atp":{"id":"btc-O_ncsszkda3Gx-UK1frGox0=","tags":{"ref":"f70b53b1-4d38-650e-9d59-ff0900048325","amenity":"atm","addr:full":"ул. Васил Кънчев 26","addr:city":"София, обл. София-град","addr:country":"BG","name":"София","brand":"Банка ДСК","brand:wikidata":"Q5206146","operator:wikidata":"Q5206146"},"coordinates":[42.7094345,23.3560032]},"tags_mismatch":false,"dist":0},{"osm":false,"atp":{"id":"5kAzTMO_MpZIAxkCZdNT5aR7ltI=","tags":{"ref":"170c53b1-4d38-650e-9d59-ff0900048325","amenity":"atm","addr:full":"ул. Тодорини кукли 7","addr:city":"София, обл. София-град","addr:country":"BG","name":"София","brand":"Банка ДСК","brand:wikidata":"Q5206146","operator:wikidata":"Q5206146"},"coordinates":[42.70234,23.3557]},"tags_mismatch":false,"dist":0},{"osm":false,"atp":{"id":"cWvQbzBfsoEU02gtxXQvjXowles=","tags":{"ref":"1f0c53b1-4d38-650e-9d59-ff0900048325","amenity":"atm","addr:full":"ул. Хан Кубрат №61","addr:city":"София, обл. София-град","addr:country":"BG","name":"София","brand":"Банка ДСК","brand:wikidata":"Q5206146","operator:wikidata":"Q5206146"},"coordinates":[42.728221,23.286147]},"tags_mismatch":false,"dist":0},{"osm":false,"atp":{"id":"wgodXm9-CobdXy-cd6sjIJqJKdQ=","tags":{"ref":"270c53b1-4d38-650e-9d59-ff0900048325","amenity":"atm","addr:full":"ул.\"Зографски манастир\" №15","addr:city":"София, обл. София-град","addr:country":"BG","name":"София","brand":"Банка ДСК","brand:wikidata":"Q5206146","operator:wikidata":"Q5206146"},"coordinates":[42.7058045,23.2927607]},"tags_mismatch":false,"dist":0},{"osm":false,"atp":{"id":"G6I1-hiCW6ZrSg3FS-eaTcmW3TY=","tags":{"ref":"2f0c53b1-4d38-650e-9d59-ff0900048325","amenity":"atm","addr:full":"ул.\"Урал\" №1","addr:city":"София, обл. София-град","addr:country":"BG","name":"София","brand":"Банка ДСК","brand:wikidata":"Q5206146","operator:wikidata":"Q5206146"},"coordinates":[42.677471,23.237924]},"tags_mismatch":false,"dist":0},{"osm":false,"atp":{"id":"v51cIXCjcmwOoXjbDyOUYkJDmck=","tags":{"ref":"3f0c53b1-4d38-650e-9d59-ff0900048325","amenity":"atm","addr:full":"ул.“Околовръстен път“ №135, магазин Айко","addr:city":"София, обл. София-град","addr:country":"BG","name":"София","brand":"Банка ДСК","brand:wikidata":"Q5206146","operator:wikidata":"Q5206146"},"coordinates":[42.639157,23.319912]},"tags_mismatch":false,"dist":0},{"osm":false,"atp":{"id":"lEbIOsDq_MIEEZaZI0FyFjTkpvo=","tags":{"ref":"270d53b1-4d38-650e-9d59-ff0900048325","amenity":"atm","addr:full":"ж.к.“Железник“, ул„Младост“ №25, ТЦ","addr:city":"Стара Загора, обл. Стара Загора","addr:country":"BG","name":"Стара Загора","brand":"Банка ДСК","brand:wikidata":"Q5206146","operator:wikidata":"Q5206146"},"coordinates":[42.41329,25.590878]},"tags_mismatch":false,"dist":0},{"osm":false,"atp":{"id":"o2hCLMQygEAU40ru7as6Kdj9lX0=","tags":{"ref":"4f0d53b1-4d38-650e-9d59-ff0900048325","amenity":"atm","addr:full":"ул. \"Свещ. Георги Клисаров\" 2","addr:city":"Стара Загора, обл. Стара Загора","addr:country":"BG","name":"Стара Загора","brand":"Банка ДСК","brand:wikidata":"Q5206146","operator:wikidata":"Q5206146"},"coordinates":[42.429023892,25.616930723]},"tags_mismatch":false,"dist":0},{"osm":false,"atp":{"id":"gYWY9w_PVVCh3t6-8_aszeuBsVo=","tags":{"ref":"570d53b1-4d38-650e-9d59-ff0900048325","amenity":"atm","addr:full":"ул. \"Хан Аспарух\" 30","addr:city":"Стара Загора, обл. Стара Загора","addr:country":"BG","name":"Стара Загора","brand":"Банка ДСК","brand:wikidata":"Q5206146","operator:wikidata":"Q5206146"},"coordinates":[42.4377432,25.6321548]},"tags_mismatch":false,"dist":0},{"osm":false,"atp":{"id":"WzEGJRHkPnNDBdcgygSnZS7t2IU=","tags":{"ref":"670d53b1-4d38-650e-9d59-ff0900048325","amenity":"atm","addr:full":"ул. \"Хрищян Войвода\" 30","addr:city":"Стара Загора, обл. Стара Загора","addr:country":"BG","name":"Стара Загора","brand":"Банка ДСК","brand:wikidata":"Q5206146","operator:wikidata":"Q5206146"},"coordinates":[42.4322001,25.6908344]},"tags_mismatch":false,"dist":0},{"osm":false,"atp":{"id":"bTfdV24bpevwxvGv3py-5j11YG8=","tags":{"ref":"6f0d53b1-4d38-650e-9d59-ff0900048325","amenity":"atm","addr:full":"ул. Патриарх Евтимий 50","addr:city":"Стара Загора, обл. Стара Загора","addr:country":"BG","name":"Стара Загора","brand":"Банка ДСК","brand:wikidata":"Q5206146","operator:wikidata":"Q5206146"},"coordinates":[42.408241,25.641037]},"tags_mismatch":false,"dist":0},{"osm":false,"atp":{"id":"fQUD19I_jZGj9nvKaHfnOKvJKtY=","tags":{"ref":"770d53b1-4d38-650e-9d59-ff0900048325","amenity":"atm","addr:full":"ул.“Васил Левски“ №43","addr:city":"Старцево, обл. Смолян","addr:country":"BG","name":"Старцево","brand":"Банка ДСК","brand:wikidata":"Q5206146","operator:wikidata":"Q5206146"},"coordinates":[41.430746,25.051823]},"tags_mismatch":false,"dist":0},{"osm":false,"atp":{"id":"wQrhQrnu4LqTq0FUHakPYfj_4wI=","tags":{"ref":"870d53b1-4d38-650e-9d59-ff0900048325","amenity":"atm","addr:full":"ул. \"Михаил Друмев\" 4","addr:city":"Стражица, обл. Велико Търново","addr:country":"BG","name":"Стражица","brand":"Банка ДСК","brand:wikidata":"Q5206146","operator:wikidata":"Q5206146"},"coordinates":[43.2270806,25.9614363]},"tags_mismatch":false,"dist":0},{"osm":false,"atp":{"id":"VIR72oMB5ZLC79js27Y_7EBJezc=","tags":{"ref":"970d53b1-4d38-650e-9d59-ff0900048325","amenity":"atm","addr:full":"ул. \"Васил Левски\" 56","addr:city":"Стряма, обл. Пловдив","addr:country":"BG","name":"Стряма","brand":"Банка ДСК","brand:wikidata":"Q5206146","operator:wikidata":"Q5206146"},"coordinates":[42.2610474,24.8819809]},"tags_mismatch":false,"dist":0},{"osm":false,"atp":{"id":"zLEvc8IpEcZ76b_jA2cx3oqnMzw=","tags":{"ref":"9f0d53b1-4d38-650e-9d59-ff0900048325","amenity":"atm","addr:full":"ул. \"Стефан Караджа\" 2","addr:city":"Суворово, обл. Варна","addr:country":"BG","name":"Суворово","brand":"Банка ДСК","brand:wikidata":"Q5206146","operator:wikidata":"Q5206146"},"coordinates":[43.3287769,27.5914952]},"tags_mismatch":false,"dist":0},{"osm":false,"atp":{"id":"lmf3HG2FbBtkU3g1Wk8Xtj0pIjY=","tags":{"ref":"8f0e53b1-4d38-650e-9d59-ff0900048325","amenity":"atm","addr:full":"пл. \"Възраждане\" 1","addr:city":"Троян, обл. Ловеч","addr:country":"BG","name":"Троян","brand":"Банка ДСК","brand:wikidata":"Q5206146","operator:wikidata":"Q5206146"},"coordinates":[42.8844853,24.7099641]},"tags_mismatch":false,"dist":0},{"osm":false,"atp":{"id":"mgG73ZLbRcM4i_xiESxP-hJUz6A=","tags":{"ref":"9f0e53b1-4d38-650e-9d59-ff0900048325","amenity":"atm","addr:full":"ул. \"Никола Петков\" 18","addr:city":"Труд, обл. Пловдив","addr:country":"BG","name":"Труд","brand":"Банка ДСК","brand:wikidata":"Q5206146","operator:wikidata":"Q5206146"},"coordinates":[42.2332913,24.7273424]},"tags_mismatch":false,"dist":0},{"osm":false,"atp":{"id":"saNXfEs4pLgHr0ezW-IUx81ga54=","tags":{"ref":"a70e53b1-4d38-650e-9d59-ff0900048325","amenity":"atm","addr:full":"с. Трудовец","addr:city":"Трудовец, обл. София–област","addr:country":"BG","name":"Трудовец","brand":"Банка ДСК","brand:wikidata":"Q5206146","operator:wikidata":"Q5206146"},"coordinates":[42.9160832,23.839012]},"tags_mismatch":false,"dist":0},{"osm":false,"atp":{"id":"eg9XBGXICurFbExQp4B6ftZZ9uE=","tags":{"ref":"c70e53b1-4d38-650e-9d59-ff0900048325","amenity":"atm","addr:full":"ул. \"6-ти Септември\" 72","addr:city":"Тръстеник, обл. Плевен","addr:country":"BG","name":"Тръстеник","brand":"Банка ДСК","brand:wikidata":"Q5206146","operator:wikidata":"Q5206146"},"coordinates":[43.5208094,24.4719271]},"tags_mismatch":false,"dist":0},{"osm":false,"atp":{"id":"Rs8vrmb4sYU2G-QdtRdQOdhnAEg=","tags":{"ref":"cf0e53b1-4d38-650e-9d59-ff0900048325","amenity":"atm","addr:full":"ул. \"Ангел Кънчев\" 21","addr:city":"Трявна, обл. Габрово","addr:country":"BG","name":"Трявна","brand":"Банка ДСК","brand:wikidata":"Q5206146","operator:wikidata":"Q5206146"},"coordinates":[42.8665936,25.4919453]},"tags_mismatch":false,"dist":0},{"osm":false,"atp":{"id":"1abx7ShUb7OKCbFRdcDi55KFT2g=","tags":{"ref":"df0e53b1-4d38-650e-9d59-ff0900048325","amenity":"atm","addr:full":"ул. \"Росица\" 2","addr:city":"Тутракан, обл. Силистра","addr:country":"BG","name":"Тутракан","brand":"Банка ДСК","brand:wikidata":"Q5206146","operator:wikidata":"Q5206146"},"coordinates":[44.044935,26.6144888]},"tags_mismatch":false,"dist":0},{"osm":false,"atp":{"id":"U8FXc91YlKdv7NKHiMRTjGx8VnY=","tags":{"ref":"f70e53b1-4d38-650e-9d59-ff0900048325","amenity":"atm","addr:full":"кв. \"Запад\"","addr:city":"Търговище, обл. Търговище","addr:country":"BG","name":"Търговище","brand":"Банка ДСК","brand:wikidata":"Q5206146","operator:wikidata":"Q5206146"},"coordinates":[43.242217,26.5622937]},"tags_mismatch":false,"dist":0},{"osm":false,"atp":{"id":"dl7D_7IxtCFdee6NcPlg5192zB8=","tags":{"ref":"b70f53b1-4d38-650e-9d59-ff0900048325","amenity":"atm","addr:full":"ул. \"Генерал Столетов\" 14","addr:city":"Търговище, обл. Търговище","addr:country":"BG","name":"Търговище","brand":"Банка ДСК","brand:wikidata":"Q5206146","operator:wikidata":"Q5206146"},"coordinates":[43.24269,26.57588]},"tags_mismatch":false,"dist":0},{"osm":false,"atp":{"id":"SvZpYZv_i_AAY-Z-zNzyRfghch4=","tags":{"ref":"bf0f53b1-4d38-650e-9d59-ff0900048325","amenity":"atm","addr:full":"ул. \"Гладстон\" 4","addr:city":"Търговище, обл. Търговище","addr:country":"BG","name":"Търговище","brand":"Банка ДСК","brand:wikidata":"Q5206146","operator:wikidata":"Q5206146"},"coordinates":[43.2514344,26.5712931]},"tags_mismatch":false,"dist":0},{"osm":false,"atp":{"id":"g5-mypP0K3rgn-MfvmwBccPJIEc=","tags":{"ref":"c70f53b1-4d38-650e-9d59-ff0900048325","amenity":"atm","addr:full":"ул. \"Спиридон Грамадов\" 36","addr:city":"Търговище, обл. Търговище","addr:country":"BG","name":"Търговище","brand":"Банка ДСК","brand:wikidata":"Q5206146","operator:wikidata":"Q5206146"},"coordinates":[43.2425648,26.5608219]},"tags_mismatch":false,"dist":0},{"osm":false,"atp":{"id":"CwJSyMExC2ca54YZBL71WdC3yIs=","tags":{"ref":"cf0f53b1-4d38-650e-9d59-ff0900048325","amenity":"atm","addr:full":"ул.“Гладстон“, нов магазин „ЦБА“ с/у старият","addr:city":"Търговище, обл. Велико Търново","addr:country":"BG","name":"Търговище","brand":"Банка ДСК","brand:wikidata":"Q5206146","operator:wikidata":"Q5206146"},"coordinates":[43.251361,26.570924]},"tags_mismatch":false,"dist":0},{"osm":false,"atp":{"id":"9rgREoc2AJIgnz8eYk0G2H-iHEM=","tags":{"ref":"d70f53b1-4d38-650e-9d59-ff0900048325","amenity":"atm","addr:full":"пл. \"Свобода\" 13","addr:city":"Угърчин, обл. Ловеч","addr:country":"BG","name":"Угърчин","brand":"Банка ДСК","brand:wikidata":"Q5206146","operator:wikidata":"Q5206146"},"coordinates":[43.094643,24.4189796]},"tags_mismatch":false,"dist":0},{"osm":false,"atp":{"id":"VXsfG7R5Pt_7a65Kp5MkInP9Z8c=","tags":{"ref":"e70f53b1-4d38-650e-9d59-ff0900048325","amenity":"atm","addr:full":"Площад на героите","addr:city":"Хайредин, обл. Плевен","addr:country":"BG","name":"Хайредин","brand":"Банка ДСК","brand:wikidata":"Q5206146","operator:wikidata":"Q5206146"},"coordinates":[43.600835,23.661467]},"tags_mismatch":false,"dist":0},{"osm":false,"atp":{"id":"6eBP8vA4xpkOM-rmkIbzwUa0-Gg=","tags":{"ref":"ef0f53b1-4d38-650e-9d59-ff0900048325","amenity":"atm","addr:full":"бул. \"България\" 31А","addr:city":"Харманли, обл. Хасково","addr:country":"BG","name":"Харманли","brand":"Банка ДСК","brand:wikidata":"Q5206146","operator:wikidata":"Q5206146"},"coordinates":[41.9303283,25.9020631]},"tags_mismatch":false,"dist":0},{"osm":false,"atp":{"id":"KuKQchpgNjvKjg8GZDL6MSodQ4M=","tags":{"ref":"071053b1-4d38-650e-9d59-ff0900048325","amenity":"atm","addr:full":"ж.к. \"Орфей\", до блок 29","addr:city":"Хасково, обл. Хасково","addr:country":"BG","name":"Хасково","brand":"Банка ДСК","brand:wikidata":"Q5206146","operator:wikidata":"Q5206146"},"coordinates":[41.9455319,25.5593636]},"tags_mismatch":false,"dist":0},{"osm":false,"atp":{"id":"RdhDXZAjKtfNNyrhXjYQaNbSWYc=","tags":{"ref":"271053b1-4d38-650e-9d59-ff0900048325","amenity":"atm","addr:full":"ул. \"Г. Кирков\" 56-66","addr:city":"Хасково, обл. Хасково","addr:country":"BG","name":"Хасково","brand":"Банка ДСК","brand:wikidata":"Q5206146","operator:wikidata":"Q5206146"},"coordinates":[41.9401401,25.5538773]},"tags_mismatch":false,"dist":0},{"osm":false,"atp":{"id":"rO13YWqQLKRUznfnWxJoF7Y7xpg=","tags":{"ref":"371053b1-4d38-650e-9d59-ff0900048325","amenity":"atm","addr:full":"ул. \"Дунав\" 1А","addr:city":"Хасково, обл. Хасково","addr:country":"BG","name":"Хасково","brand":"Банка ДСК","brand:wikidata":"Q5206146","operator:wikidata":"Q5206146"},"coordinates":[41.9381444,25.5470688]},"tags_mismatch":false,"dist":0},{"osm":false,"atp":{"id":"pXn2LOMusMzPou-4E6BCs_pkQ2I=","tags":{"ref":"4f1053b1-4d38-650e-9d59-ff0900048325","amenity":"atm","addr:full":"ул. „Генерал Гурко“ №1","addr:city":"Хисаря, обл. Пловдив","addr:country":"BG","name":"Хисаря","brand":"Банка ДСК","brand:wikidata":"Q5206146","operator:wikidata":"Q5206146"},"coordinates":[42.501337,24.713332]},"tags_mismatch":false,"dist":0},{"osm":false,"atp":{"id":"4Xt28kuDW2wYp58F62qt3EQA4g0=","tags":{"ref":"071153b1-4d38-650e-9d59-ff0900048325","amenity":"atm","addr:full":"ул. \"Демокрация\" 17","addr:city":"Цалапица, обл. Пловдив","addr:country":"BG","name":"Цалапица","brand":"Банка ДСК","brand:wikidata":"Q5206146","operator:wikidata":"Q5206146"},"coordinates":[42.1860505,24.568344]},"tags_mismatch":false,"dist":0},{"osm":false,"atp":{"id":"VoI0sVTKD30W7ra4DUqFvYkkA54=","tags":{"ref":"171153b1-4d38-650e-9d59-ff0900048325","amenity":"atm","addr:full":"ул. Милин камък №3","addr:city":"Царево, обл. Бургас","addr:country":"BG","name":"Царево","brand":"Банка ДСК","brand:wikidata":"Q5206146","operator:wikidata":"Q5206146"},"coordinates":[42.167442,27.844489]},"tags_mismatch":false,"dist":0},{"osm":false,"atp":{"id":"C-J8lgSJP5KqRjkDlrspbTA0VkI=","tags":{"ref":"1f1153b1-4d38-650e-9d59-ff0900048325","amenity":"atm","addr:full":"УПИ 1, кв. 54 А","addr:city":"Царево, обл. Бургас","addr:country":"BG","name":"Царево","brand":"Банка ДСК","brand:wikidata":"Q5206146","operator:wikidata":"Q5206146"},"coordinates":[42.1699262,27.842898]},"tags_mismatch":false,"dist":0},{"osm":false,"atp":{"id":"D16Sm4eUs6HrCB5Npe2g3SVZYMM=","tags":{"ref":"271153b1-4d38-650e-9d59-ff0900048325","amenity":"atm","addr:full":"ул. \"Девети септември\" 66","addr:city":"Чакаларово, обл. Кърджали","addr:country":"BG","name":"Чакаларово","brand":"Банка ДСК","brand:wikidata":"Q5206146","operator:wikidata":"Q5206146"},"coordinates":[41.296766,25.305867]},"tags_mismatch":false,"dist":0},{"osm":false,"atp":{"id":"oWDfkRuUZ9jaofDSjoWQ6Oo1_i4=","tags":{"ref":"4f1153b1-4d38-650e-9d59-ff0900048325","amenity":"atm","addr:full":"ул. \"Свети Никола\" № 3","addr:city":"ЧЕРНОМОРЕЦ, обл. Бургас","addr:country":"BG","name":"ЧЕРНОМОРЕЦ","brand":"Банка ДСК","brand:wikidata":"Q5206146","operator:wikidata":"Q5206146"},"coordinates":[42.443704,27.638754]},"tags_mismatch":false,"dist":0},{"osm":false,"atp":{"id":"_o-uWZx6cUkcKCdrb-Z5pa9dMX4=","tags":{"ref":"571153b1-4d38-650e-9d59-ff0900048325","amenity":"atm","addr:full":"бул. Петър Парчевич 45","addr:city":"Чипровци, обл. Монтана","addr:country":"BG","name":"Чипровци","brand":"Банка ДСК","brand:wikidata":"Q5206146","operator:wikidata":"Q5206146"},"coordinates":[43.38415,22.88123]},"tags_mismatch":false,"dist":0},{"osm":false,"atp":{"id":"0khpxf16rafe0oXPByYIaCiiLyM=","tags":{"ref":"671153b1-4d38-650e-9d59-ff0900048325","amenity":"atm","addr:full":"кв.\"Индустриален\", сграда на \"Бъдещност\" АД","addr:city":"Чирпан, обл. Стара Загора","addr:country":"BG","name":"Чирпан","brand":"Банка ДСК","brand:wikidata":"Q5206146","operator:wikidata":"Q5206146"},"coordinates":[42.205979,25.343057]},"tags_mismatch":false,"dist":0},{"osm":false,"atp":{"id":"8aj0tYNwwp6JksWluUwAPfWMMVc=","tags":{"ref":"6f1153b1-4d38-650e-9d59-ff0900048325","amenity":"atm","addr:full":"пл. Съединение 1","addr:city":"Чирпан, обл. Стара Загора","addr:country":"BG","name":"Чирпан","brand":"Банка ДСК","brand:wikidata":"Q5206146","operator:wikidata":"Q5206146"},"coordinates":[42.199046,25.324386]},"tags_mismatch":false,"dist":0},{"osm":false,"atp":{"id":"5dlGocqWtPviN0t53wgYVbSsmZA=","tags":{"ref":"771153b1-4d38-650e-9d59-ff0900048325","amenity":"atm","addr:full":"ул. \"Пейо Яворов\" 9, хотел \"Чирпан\"","addr:city":"Чирпан, обл. Стара Загора","addr:country":"BG","name":"Чирпан","brand":"Банка ДСК","brand:wikidata":"Q5206146","operator:wikidata":"Q5206146"},"coordinates":[42.19995,25.326827]},"tags_mismatch":false,"dist":0},{"osm":false,"atp":{"id":"gW54pgb1zqAlstZYl2Wr6PFaLnM=","tags":{"ref":"8f1153b1-4d38-650e-9d59-ff0900048325","amenity":"atm","addr:full":"ул. \"Георги Димитров\" 16","addr:city":"Шивачево, обл. Сливен","addr:country":"BG","name":"Шивачево","brand":"Банка ДСК","brand:wikidata":"Q5206146","operator:wikidata":"Q5206146"},"coordinates":[42.6863617,26.0279358]},"tags_mismatch":false,"dist":0},{"osm":false,"atp":{"id":"AuB_Db9rDXlSRrgzabe-gN-dwX4=","tags":{"ref":"4f1253b1-4d38-650e-9d59-ff0900048325","amenity":"atm","addr:full":"ул. \" Панайот Хитов\" 2","addr:city":"Шумен, обл. Шумен","addr:country":"BG","name":"Шумен","brand":"Банка ДСК","brand:wikidata":"Q5206146","operator:wikidata":"Q5206146"},"coordinates":[43.2716576,26.9106732]},"tags_mismatch":false,"dist":0},{"osm":false,"atp":{"id":"oCEYmYZiwifOwwVye0HON4_0U34=","tags":{"ref":"571253b1-4d38-650e-9d59-ff0900048325","amenity":"atm","addr:full":"ул. \"Искър\" № 7","addr:city":"Шумен, обл. Варна","addr:country":"BG","name":"ШУМЕН","brand":"Банка ДСК","brand:wikidata":"Q5206146","operator:wikidata":"Q5206146"},"coordinates":[43.279325,26.912811]},"tags_mismatch":false,"dist":0},{"osm":false,"atp":{"id":"J4yQRYoCmBqVM5aZmHimMkp9MkI=","tags":{"ref":"5f1253b1-4d38-650e-9d59-ff0900048325","amenity":"atm","addr:full":"ул. \"Македония\" 40","addr:city":"Шумен, обл. Шумен","addr:country":"BG","name":"Шумен","brand":"Банка ДСК","brand:wikidata":"Q5206146","operator:wikidata":"Q5206146"},"coordinates":[43.2765123,26.9208432]},"tags_mismatch":false,"dist":0},{"osm":false,"atp":{"id":"en1rAbATaO7uNqJNV--vJUPjsSM=","tags":{"ref":"671253b1-4d38-650e-9d59-ff0900048325","amenity":"atm","addr:full":"ул. \"Съединение\"","addr:city":"Шумен, обл. Шумен","addr:country":"BG","name":"Шумен","brand":"Банка ДСК","brand:wikidata":"Q5206146","operator:wikidata":"Q5206146"},"coordinates":[43.2679919,26.9302698]},"tags_mismatch":false,"dist":0},{"osm":false,"atp":{"id":"Mk5yGznUG-TTGLwwCy2oD4hOGf0=","tags":{"ref":"7f1253b1-4d38-650e-9d59-ff0900048325","amenity":"atm","addr:full":"ул. Цар Освободител 102","addr:city":"Шумен, обл. Варна","addr:country":"BG","name":"Шумен","brand":"Банка ДСК","brand:wikidata":"Q5206146","operator:wikidata":"Q5206146"},"coordinates":[43.272812,26.925957]},"tags_mismatch":false,"dist":0},{"osm":false,"atp":{"id":"dQ6ubgWEMxhsR6qMCfug4ecxNeU=","tags":{"ref":"971253b1-4d38-650e-9d59-ff0900048325","amenity":"atm","addr:full":"ул. \"Цар Борис\" 111","addr:city":"Якоруда, обл. Благоевград","addr:country":"BG","name":"Якоруда","brand":"Банка ДСК","brand:wikidata":"Q5206146","operator:wikidata":"Q5206146"},"coordinates":[42.0177306,23.669004]},"tags_mismatch":false,"dist":0},{"osm":false,"atp":{"id":"uw3jO1w9xWh-062n2mAJbxko9T8=","tags":{"ref":"bf1253b1-4d38-650e-9d59-ff0900048325","amenity":"atm","addr:full":"ул. \"Милин камък\" 30","addr:city":"Ямбол, обл. Ямбол","addr:country":"BG","name":"Ямбол","brand":"Банка ДСК","brand:wikidata":"Q5206146","operator:wikidata":"Q5206146"},"coordinates":[42.4764832,26.5270146]},"tags_mismatch":false,"dist":0},{"osm":false,"atp":{"id":"Hzd7Ca7TdzGEsdgv267Ras5FLfk=","tags":{"ref":"05da56b1-4d38-650e-9d59-ff0900048325","amenity":"atm","addr:full":"бул.“Цариградско шосе“ 115 М, The Mall","addr:city":"София, обл. София-град","addr:country":"BG","name":"София","brand":"Банка ДСК","brand:wikidata":"Q5206146","operator:wikidata":"Q5206146"},"coordinates":[42.6604,23.3827]},"tags_mismatch":false,"dist":0},{"osm":false,"atp":{"id":"YF29vMMGKJXhz9a1HSjkJGc6y_8=","tags":{"ref":"694078b1-4d38-650e-9d59-ff0900048325","amenity":"atm","addr:full":"к.к. Златни пясъци","addr:city":"Златни пясъци, обл. Варна","addr:country":"BG","name":"Златни пясъци","brand":"Банка ДСК","brand:wikidata":"Q5206146","operator:wikidata":"Q5206146"},"coordinates":[43.2899804,28.0432537]},"tags_mismatch":false,"dist":0},{"osm":false,"atp":{"id":"zrGRLQjHFQCCy9ZcPp0Jynj5KHs=","tags":{"ref":"23167eb1-4d38-650e-9d59-ff0900048325","amenity":"atm","addr:full":"к.к. Златни пясъци хотел „Алегра“","addr:city":"Златни пясъци, обл. Варна","addr:country":"BG","name":"Златни пясъци","brand":"Банка ДСК","brand:wikidata":"Q5206146","operator:wikidata":"Q5206146"},"coordinates":[43.285185,28.039395]},"tags_mismatch":false,"dist":0},{"osm":false,"atp":{"id":"5XVUSAAvMAE8AboH-CpkZf8PJEY=","tags":{"ref":"37c495b1-4d38-650e-9d59-ff0900048325","amenity":"atm","addr:full":"к.к. Елените","addr:city":"Елените, обл. Бургас","addr:country":"BG","name":"Елените","brand":"Банка ДСК","brand:wikidata":"Q5206146","operator:wikidata":"Q5206146"},"coordinates":[42.7043477,27.8101973]},"tags_mismatch":false,"dist":0},{"osm":false,"atp":{"id":"IYJAtYeJlXezSX-8Y0rv28UtrZk=","tags":{"ref":"67c995b1-4d38-650e-9d59-ff0900048325","amenity":"atm","addr:full":"к.к. Слънчев бряг","addr:city":"СЛЪНЧЕВ БРЯГ, обл. Бургас","addr:country":"BG","name":"Слънчев бряг","brand":"Банка ДСК","brand:wikidata":"Q5206146","operator:wikidata":"Q5206146"},"coordinates":[42.7087645,27.7257783]},"tags_mismatch":false,"dist":0},{"osm":false,"atp":{"id":"hpTSBKEzFfsqRHybZbahl7vWd8c=","tags":{"ref":"71c995b1-4d38-650e-9d59-ff0900048325","amenity":"atm","addr:full":"Хотел \"Иберостар Съни Бийч Ризорт\"","addr:city":"СЛЪНЧЕВ БРЯГ, обл. Бургас","addr:country":"BG","name":"Слънчев бряг","brand":"Банка ДСК","brand:wikidata":"Q5206146","operator:wikidata":"Q5206146"},"coordinates":[42.6916605,27.711466]},"tags_mismatch":false,"dist":0},{"osm":false,"atp":{"id":"-h1xXkvessR023vLTzAB0agIPms=","tags":{"ref":"aea597b1-4d38-650e-9d59-ff0900048325","amenity":"atm","addr:full":"Хотел \"Sol Luna Bay Resort\"","addr:city":"Бяла, обл. Русе","addr:country":"BG","name":"Бяла","brand":"Банка ДСК","brand:wikidata":"Q5206146","operator:wikidata":"Q5206146"},"coordinates":[42.8727578,27.8863102]},"tags_mismatch":false,"dist":0},{"osm":false,"atp":{"id":"WyBMTuh6KKB4pd0mMBygZ8FMyzY=","tags":{"ref":"e0ac97b1-4d38-650e-9d59-ff0900048325","amenity":"atm","addr:full":"Хотел \"Ралица\" - Почивна станция на БНБ","addr:city":"Св. Св. Константин и Елена, обл. Варна","addr:country":"BG","name":"Св. Св. Константин и Елена","brand":"Банка ДСК","brand:wikidata":"Q5206146","operator:wikidata":"Q5206146"},"coordinates":[43.2376416,28.0145937]},"tags_mismatch":false,"dist":0},{"osm":false,"atp":{"id":"s4Uwj2ZrZFNdqTcGaSMAddFMkfM=","tags":{"ref":"a8829db1-4d38-650e-9d59-ff0900048325","amenity":"atm","addr:full":"Хотел \"Ифа Академика Сий палас\"","addr:city":"Равда, обл. Бургас","addr:country":"BG","name":"Равда","brand":"Банка ДСК","brand:wikidata":"Q5206146","operator:wikidata":"Q5206146"},"coordinates":[42.6444521,27.6778788]},"tags_mismatch":false,"dist":0},{"osm":false,"atp":{"id":"EMNxW3rQt-L1Q8XNtptig3P2osQ=","tags":{"ref":"d9b0a3b1-4d38-650e-9d59-ff0900048325","amenity":"atm","addr:full":"МОЛ Слънчев бряг - северен вход","addr:city":"СЛЪНЧЕВ БРЯГ, обл. Бургас","addr:country":"BG","name":"Слънчев бряг","brand":"Банка ДСК","brand:wikidata":"Q5206146","operator:wikidata":"Q5206146"},"coordinates":[42.6951525,27.7104213]},"tags_mismatch":false,"dist":0},{"osm":false,"atp":{"id":"Ip6R03VaOSVK17D-5kGqAeLHKKI=","tags":{"ref":"e1b0a3b1-4d38-650e-9d59-ff0900048325","amenity":"atm","addr:full":"МОЛ Слънчев бряг, стая \"Охрана Водни басейни\"","addr:city":"СЛЪНЧЕВ БРЯГ, обл. Бургас","addr:country":"BG","name":"Слънчев бряг","brand":"Банка ДСК","brand:wikidata":"Q5206146","operator:wikidata":"Q5206146"},"coordinates":[42.6951525,27.7104213]},"tags_mismatch":false,"dist":0},{"osm":false,"atp":{"id":"vPyTQQBnxkOVrKhzQzo9HjpOqHg=","tags":{"ref":"3316b2b1-4d38-650e-9d59-ff0900048325","amenity":"atm","addr:full":"Хотел \"Витоша\"","addr:city":"СЛЪНЧЕВ БРЯГ, обл. Бургас","addr:country":"BG","name":"Слънчев бряг","brand":"Банка ДСК","brand:wikidata":"Q5206146","operator:wikidata":"Q5206146"},"coordinates":[42.6952386,27.7104709]},"tags_mismatch":false,"dist":0},{"osm":false,"atp":{"id":"-FiywVLTckz69rYZIv7kpkDsWyA=","tags":{"ref":"f5e9b9b1-4d38-650e-9d59-ff0900048325","amenity":"atm","addr:full":"ул. Трети март 60","addr:city":"Приморско, обл. Бургас","addr:country":"BG","name":"Приморско","brand":"Банка ДСК","brand:wikidata":"Q5206146","operator:wikidata":"Q5206146"},"coordinates":[42.266723,27.754009]},"tags_mismatch":false,"dist":0},{"osm":false,"atp":{"id":"yvHSWzOfurUa3w5p-ojP50rqY1c=","tags":{"ref":"a668bab1-4d38-650e-9d59-ff0900048325","amenity":"atm","addr:full":"бул. Ломско шосе бл.171","addr:city":"София, обл. София-град","addr:country":"BG","name":"София","brand":"Банка ДСК","brand:wikidata":"Q5206146","operator:wikidata":"Q5206146"},"coordinates":[42.725905,23.30255]},"tags_mismatch":false,"dist":0},{"osm":false,"atp":{"id":"zbVbbLfV6rkcX3B5LuLN4BBK7-g=","tags":{"ref":"bcb8d2b2-4d38-650e-9d59-ff0900048325","amenity":"atm","addr:full":"бул.„Джавахарлал Неру” № 12” - главен вход","addr:city":"София, обл. София-град","addr:country":"BG","name":"София","brand":"Банка ДСК","brand:wikidata":"Q5206146","operator:wikidata":"Q5206146"},"coordinates":[42.714753,23.256528]},"tags_mismatch":false,"dist":0},{"osm":false,"atp":{"id":"EA5BLjGty7eqMOK-_8WanpmtsAI=","tags":{"ref":"b3072fb3-4d38-650e-9d59-ff0900048325","amenity":"atm","addr:full":"ул. Недялчо Камбов 8","addr:city":"КАМЕНО, обл. Бургас","addr:country":"BG","name":"Камено","brand":"Банка ДСК","brand:wikidata":"Q5206146","operator:wikidata":"Q5206146"},"coordinates":[42.573924,27.294947]},"tags_mismatch":false,"dist":0},{"osm":false,"atp":{"id":"NPyLzRvMkpvHAnGq8DbkTrdgZqM=","tags":{"ref":"714469b3-4d38-650e-9d59-ff0900048325","amenity":"atm","addr:full":"ул. Михаил Герджиков № 19","addr:city":"Царево, обл. Бургас","addr:country":"BG","name":"Царево","brand":"Банка ДСК","brand:wikidata":"Q5206146","operator:wikidata":"Q5206146"},"coordinates":[42.165212,27.844491]},"tags_mismatch":false,"dist":0},{"osm":false,"atp":{"id":"lYIL5A1QeVOioOD-WOc1dHUhiIw=","tags":{"ref":"81b27bb3-4d38-650e-9d59-ff0900048325","amenity":"atm","addr:full":"местност „Чаирите“ № 357","addr:city":"Несебър, обл. Бургас","addr:country":"BG","name":"Несебър","brand":"Банка ДСК","brand:wikidata":"Q5206146","operator:wikidata":"Q5206146"},"coordinates":[42.651844,27.671208]},"tags_mismatch":false,"dist":0},{"osm":false,"atp":{"id":"eefmbWfIvTiwhngQxtsiPThA7BM=","tags":{"ref":"8ea47cb3-4d38-650e-9d59-ff0900048325","amenity":"atm","addr:full":"к-с Зорница, бл. 57","addr:city":"Бургас, обл. Бургас","addr:country":"BG","name":"Бургас","brand":"Банка ДСК","brand:wikidata":"Q5206146","operator:wikidata":"Q5206146"},"coordinates":[42.515072,27.465817]},"tags_mismatch":false,"dist":0},{"osm":false,"atp":{"id":"PRp0MHoVbDbcuCnwWGuBcU6bSEY=","tags":{"ref":"e88e7db3-4d38-650e-9d59-ff0900048325","amenity":"atm","addr:full":"ул. \"Андрей Премянов\" 20","addr:city":"Бяла, обл. Русе","addr:country":"BG","name":"Бяла","brand":"Банка ДСК","brand:wikidata":"Q5206146","operator:wikidata":"Q5206146"},"coordinates":[43.459772,25.738246]},"tags_mismatch":false,"dist":0},{"osm":false,"atp":{"id":"BFrc-VAq9Ad2hH_PoN-1pDItN2I=","tags":{"ref":"908f7db3-4d38-650e-9d59-ff0900048325","amenity":"atm","addr:full":"бул.Константин и Фружин","addr:city":"Варна, обл. Варна","addr:country":"BG","name":"Варна","brand":"Банка ДСК","brand:wikidata":"Q5206146","operator:wikidata":"Q5206146"},"coordinates":[43.24819,27.846992]},"tags_mismatch":false,"dist":0},{"osm":false,"atp":{"id":"wbcf8QoOPyh5bPDs6k5rRL9oJmE=","tags":{"ref":"b68f7db3-4d38-650e-9d59-ff0900048325","amenity":"atm","addr:full":"Република 62","addr:city":"Варна, обл. Варна","addr:country":"BG","name":"Варна","brand":"Банка ДСК","brand:wikidata":"Q5206146","operator:wikidata":"Q5206146"},"coordinates":[43.23654,27.881636]},"tags_mismatch":false,"dist":0},{"osm":false,"atp":{"id":"AqqnETOsfXmDebVqtaQON2RMNqQ=","tags":{"ref":"13907db3-4d38-650e-9d59-ff0900048325","amenity":"atm","addr:full":"ул. \"Преслав\" 26","addr:city":"Варна, обл. Варна","addr:country":"BG","name":"Варна","brand":"Банка ДСК","brand:wikidata":"Q5206146","operator:wikidata":"Q5206146"},"coordinates":[43.201245,27.915748]},"tags_mismatch":false,"dist":0},{"osm":false,"atp":{"id":"3xZZXWqZnqIHcwCgziKnzi_a3Qg=","tags":{"ref":"38907db3-4d38-650e-9d59-ff0900048325","amenity":"atm","addr:full":"ул. Младежка 141","addr:city":"Варна, обл. Варна","addr:country":"BG","name":"Варна","brand":"Банка ДСК","brand:wikidata":"Q5206146","operator:wikidata":"Q5206146"},"coordinates":[43.226067,27.879263]},"tags_mismatch":false,"dist":0},{"osm":false,"atp":{"id":"woH0qMdk4EjAXfurTJGQzWLd1Hk=","tags":{"ref":"12937db3-4d38-650e-9d59-ff0900048325","amenity":"atm","addr:full":"ул. \"Климент Охридски\" 7","addr:city":"Каблешково, обл. Бургас","addr:country":"BG","name":"Каблешково","brand":"Банка ДСК","brand:wikidata":"Q5206146","operator:wikidata":"Q5206146"},"coordinates":[42.659992,27.566661]},"tags_mismatch":false,"dist":0},{"osm":false,"atp":{"id":"NA6aoDTM1GIXh9esrTWz7IZi6mw=","tags":{"ref":"9a967db3-4d38-650e-9d59-ff0900048325","amenity":"atm","addr:full":"ул. Перущица 15","addr:city":"Пловдив, обл. Пловдив","addr:country":"BG","name":"Пловдив","brand":"Банка ДСК","brand:wikidata":"Q5206146","operator:wikidata":"Q5206146"},"coordinates":[42.140379,24.718838]},"tags_mismatch":false,"dist":0},{"osm":false,"atp":{"id":"XE6Yuf3rwpWK8PSG8OIrIkjB3v0=","tags":{"ref":"0a977db3-4d38-650e-9d59-ff0900048325","amenity":"atm","addr:full":"ул. \"Черноризец Храбър\" 6В","addr:city":"Първомай, обл. Пловдив","addr:country":"BG","name":"Първомай","brand":"Банка ДСК","brand:wikidata":"Q5206146","operator:wikidata":"Q5206146"},"coordinates":[42.102372,25.225648]},"tags_mismatch":false,"dist":0},{"osm":false,"atp":{"id":"uuwVGw-nSOHzb6j39MKWwgjsTOM=","tags":{"ref":"27987db3-4d38-650e-9d59-ff0900048325","amenity":"atm","addr:full":"ул. България 80 Б","addr:city":"Септември, обл. Пазарджик","addr:country":"BG","name":"Септември","brand":"Банка ДСК","brand:wikidata":"Q5206146","operator:wikidata":"Q5206146"},"coordinates":[42.214294,24.127792]},"tags_mismatch":false,"dist":0},{"osm":false,"atp":{"id":"VUP-AGXRKg5D3rOhq__FD7eYruA=","tags":{"ref":"e1997db3-4d38-650e-9d59-ff0900048325","amenity":"atm","addr:full":"бул. Ген. Е. И. Тотлебен 30-32","addr:city":"София, обл. София-град","addr:country":"BG","name":"София","brand":"Банка ДСК","brand:wikidata":"Q5206146","operator:wikidata":"Q5206146"},"coordinates":[42.691041,23.307244]},"tags_mismatch":false,"dist":0},{"osm":false,"atp":{"id":"ofR6eClPyb3oUWKsAG664S3ipaE=","tags":{"ref":"719a7db3-4d38-650e-9d59-ff0900048325","amenity":"atm","addr:full":"в.з. Малинова долина, ул. Околовръстен път №214","addr:city":"София, обл. София-град","addr:country":"BG","name":"София","brand":"Банка ДСК","brand:wikidata":"Q5206146","operator:wikidata":"Q5206146"},"coordinates":[42.625002,23.351092]},"tags_mismatch":false,"dist":0},{"osm":false,"atp":{"id":"HMdepaeaLj5SaF1PLWJH88aKNl4=","tags":{"ref":"819b7db3-4d38-650e-9d59-ff0900048325","amenity":"atm","addr:full":"ул. Тодорини кукли 7","addr:city":"София, обл. София-град","addr:country":"BG","name":"София","brand":"Банка ДСК","brand:wikidata":"Q5206146","operator:wikidata":"Q5206146"},"coordinates":[42.702162,23.355706]},"tags_mismatch":false,"dist":0},{"osm":false,"atp":{"id":"zdNJZ6Xkc5CZSndxVwOMr8gtk6M=","tags":{"ref":"e59b7db3-4d38-650e-9d59-ff0900048325","amenity":"atm","addr:full":"бул.Цар Симеон Велики 2","addr:city":"Стара Загора, обл. Стара Загора","addr:country":"BG","name":"Стара Загора","brand":"Банка ДСК","brand:wikidata":"Q5206146","operator:wikidata":"Q5206146"},"coordinates":[42.418635,25.608592]},"tags_mismatch":false,"dist":0},{"osm":false,"atp":{"id":"YZFy8vFw89KCMv__dJAKoVJJ3eE=","tags":{"ref":"7b9c7db3-4d38-650e-9d59-ff0900048325","amenity":"atm","addr:full":"ул.“Бедек“ №1, сграда на ЕМКО ЕООД","addr:city":"Трявна, обл. Велико Търново","addr:country":"BG","name":"Трявна","brand":"Банка ДСК","brand:wikidata":"Q5206146","operator:wikidata":"Q5206146"},"coordinates":[42.875822,25.500519]},"tags_mismatch":false,"dist":0},{"osm":false,"atp":{"id":"X3k5hhzQG4XlyvRz-ilpATBdF50=","tags":{"ref":"d48b7fb3-4d38-650e-9d59-ff0900048325","amenity":"atm","addr:full":"бул. България 2","addr:city":"Асеновград, обл. Пловдив","addr:country":"BG","name":"Асеновград","brand":"Банка ДСК","brand:wikidata":"Q5206146","operator:wikidata":"Q5206146"},"coordinates":[42.009201,24.871776]},"tags_mismatch":false,"dist":0},{"osm":false,"atp":{"id":"YlaX4tq3N3deYD2HFIwrJPtAbAY=","tags":{"ref":"ec8b7fb3-4d38-650e-9d59-ff0900048325","amenity":"atm","addr:full":"ул. Дунав №5","addr:city":"Балчик, обл. Добрич","addr:country":"BG","name":"Балчик","brand":"Банка ДСК","brand:wikidata":"Q5206146","operator:wikidata":"Q5206146"},"coordinates":[43.427774,28.15923]},"tags_mismatch":false,"dist":0},{"osm":false,"atp":{"id":"fsSc8h7we6vF1P9jnddWpc0K_lM=","tags":{"ref":"ca8c7fb3-4d38-650e-9d59-ff0900048325","amenity":"atm","addr:full":"ул.Цар Иван Шишман 43","addr:city":"Ботевград, обл. София–област","addr:country":"BG","name":"Ботевград","brand":"Банка ДСК","brand:wikidata":"Q5206146","operator:wikidata":"Q5206146"},"coordinates":[42.910133,23.809507]},"tags_mismatch":false,"dist":0},{"osm":false,"atp":{"id":"1k36U-M7EO5tNIDDvknEnZg2JI4=","tags":{"ref":"d88c7fb3-4d38-650e-9d59-ff0900048325","amenity":"atm","addr:full":"пл. 9-ти септември 1","addr:city":"Брезник, обл. Перник","addr:country":"BG","name":"Брезник","brand":"Банка ДСК","brand:wikidata":"Q5206146","operator:wikidata":"Q5206146"},"coordinates":[42.740144,22.909873]},"tags_mismatch":false,"dist":0},{"osm":false,"atp":{"id":"EtDfJailxzJRtY0T3yA4GG_CKGc=","tags":{"ref":"3e8d7fb3-4d38-650e-9d59-ff0900048325","amenity":"atm","addr:full":"жк. Братя Миладинови, Бл. 147, партер","addr:city":"Бургас, обл. Бургас","addr:country":"BG","name":"Бургас","brand":"Банка ДСК","brand:wikidata":"Q5206146","operator:wikidata":"Q5206146"},"coordinates":[42.50895,27.465296]},"tags_mismatch":false,"dist":0},{"osm":false,"atp":{"id":"Es_KVJ1x5MvDtMVF1JFTtsdMcgY=","tags":{"ref":"c18d7fb3-4d38-650e-9d59-ff0900048325","amenity":"atm","addr:full":"ул. \"Трайчо Костов\" №1","addr:city":"Бяла,Област Русе, обл. Русе","addr:country":"BG","name":"Бяла,Област Русе","brand":"Банка ДСК","brand:wikidata":"Q5206146","operator:wikidata":"Q5206146"},"coordinates":[43.469718,25.677841]},"tags_mismatch":false,"dist":0},{"osm":false,"atp":{"id":"IPKhnD6fMEz9EIKbgnEKRYbvCU4=","tags":{"ref":"ea8e7fb3-4d38-650e-9d59-ff0900048325","amenity":"atm","addr:full":"бул.“Никола Габровски“ №4","addr:city":"Велико Търново, обл. Велико Търново","addr:country":"BG","name":"Велико Търново","brand":"Банка ДСК","brand:wikidata":"Q5206146","operator:wikidata":"Q5206146"},"coordinates":[43.077402,25.625281]},"tags_mismatch":false,"dist":0},{"osm":false,"atp":{"id":"p37r9Cp2JdFSWk1ALr3QonN_F_I=","tags":{"ref":"2a8f7fb3-4d38-650e-9d59-ff0900048325","amenity":"atm","addr:full":"кв. Зона Б ул. Стоян Коледаров 44","addr:city":"Велико Търново, обл. Велико Търново","addr:country":"BG","name":"Велико Търново","brand":"Банка ДСК","brand:wikidata":"Q5206146","operator:wikidata":"Q5206146"},"coordinates":[43.069525,25.618885]},"tags_mismatch":false,"dist":0},{"osm":false,"atp":{"id":"gaizHhQufVvHQ736CTaYiQnTNAc=","tags":{"ref":"498f7fb3-4d38-650e-9d59-ff0900048325","amenity":"atm","addr:full":"ул. Ниш №1","addr:city":"Велико Търново, обл. Велико Търново","addr:country":"BG","name":"Велико Търново","brand":"Банка ДСК","brand:wikidata":"Q5206146","operator:wikidata":"Q5206146"},"coordinates":[43.07561,25.614455]},"tags_mismatch":false,"dist":0},{"osm":false,"atp":{"id":"6niXQbtq5iUbMcE581vzqe-Hu5Y=","tags":{"ref":"798f7fb3-4d38-650e-9d59-ff0900048325","amenity":"atm","addr:full":"Бул. „Втори юни“ № 66","addr:city":"Враца, обл. Враца","addr:country":"BG","name":"Враца","brand":"Банка ДСК","brand:wikidata":"Q5206146","operator:wikidata":"Q5206146"},"coordinates":[43.197031,23.560614]},"tags_mismatch":false,"dist":0},{"osm":false,"atp":{"id":"kWfUQ2shG_qrOh54n0l-bULkbHc=","tags":{"ref":"c28f7fb3-4d38-650e-9d59-ff0900048325","amenity":"atm","addr:full":"ж.к. Сениче, бул. Европа №74","addr:city":"Враца, обл. Враца","addr:country":"BG","name":"Враца","brand":"Банка ДСК","brand:wikidata":"Q5206146","operator:wikidata":"Q5206146"},"coordinates":[43.229263,23.531563]},"tags_mismatch":false,"dist":0},{"osm":false,"atp":{"id":"hLTh4cSks23vcdT9OZ3Aw1s8eNs=","tags":{"ref":"88907fb3-4d38-650e-9d59-ff0900048325","amenity":"atm","addr:full":"ул. „Цар Освободител“ №1","addr:city":"Горна Оряховица, обл. Велико Търново","addr:country":"BG","name":"Горна Оряховица","brand":"Банка ДСК","brand:wikidata":"Q5206146","operator:wikidata":"Q5206146"},"coordinates":[43.138489,25.68804]},"tags_mismatch":false,"dist":0},{"osm":false,"atp":{"id":"z9cQ5gPJWXFcWVAUxutDl_WEOQQ=","tags":{"ref":"09917fb3-4d38-650e-9d59-ff0900048325","amenity":"atm","addr:full":"ул. Еделвайс 17","addr:city":"Джебел, обл. Кърджали","addr:country":"BG","name":"Джебел","brand":"Банка ДСК","brand:wikidata":"Q5206146","operator:wikidata":"Q5206146"},"coordinates":[41.497341,25.303205]},"tags_mismatch":false,"dist":0},{"osm":false,"atp":{"id":"7dWGLgmb9KGjANuoVHX-Vx_4xRE=","tags":{"ref":"28917fb3-4d38-650e-9d59-ff0900048325","amenity":"atm","addr:full":"бул. Добруджа 4","addr:city":"Добрич, обл. Добрич","addr:country":"BG","name":"Добрич","brand":"Банка ДСК","brand:wikidata":"Q5206146","operator:wikidata":"Q5206146"},"coordinates":[43.569744,27.844221]},"tags_mismatch":false,"dist":0},{"osm":false,"atp":{"id":"fZs96V7ASXkTPmcnLidUI_08V2E=","tags":{"ref":"94917fb3-4d38-650e-9d59-ff0900048325","amenity":"atm","addr:full":"Международен Път София – Калотина, в близост до табелата Драгоман","addr:city":"Драгоман, обл. София–област","addr:country":"BG","name":"Драгоман","brand":"Банка ДСК","brand:wikidata":"Q5206146","operator:wikidata":"Q5206146"},"coordinates":[42.906679,22.941603]},"tags_mismatch":false,"dist":0},{"osm":false,"atp":{"id":"rcUirL1_-wCtXmXQp-xZ7lTFAsk=","tags":{"ref":"4f927fb3-4d38-650e-9d59-ff0900048325","amenity":"atm","addr:full":"ул. 45-та №27","addr:city":"К.К. Св.Св.Константин и Елена, обл. Варна","addr:country":"BG","name":"К.К. Св.Св.Константин и Елена","brand":"Банка ДСК","brand:wikidata":"Q5206146","operator:wikidata":"Q5206146"},"coordinates":[43.231275,28.005419]},"tags_mismatch":false,"dist":0},{"osm":false,"atp":{"id":"oioPZIDBP_M7kCV2ruI7rt1vKxw=","tags":{"ref":"8c927fb3-4d38-650e-9d59-ff0900048325","amenity":"atm","addr:full":"ул. Марица №1","addr:city":"Каварна, обл. Добрич","addr:country":"BG","name":"Каварна","brand":"Банка ДСК","brand:wikidata":"Q5206146","operator:wikidata":"Q5206146"},"coordinates":[43.435643,28.325989]},"tags_mismatch":false,"dist":0},{"osm":false,"atp":{"id":"VGg8L1XCah8V2GKGxnZACOgoLo8=","tags":{"ref":"32937fb3-4d38-650e-9d59-ff0900048325","amenity":"atm","addr:full":"ул. 1306 № 47","addr:city":"Койнаре, обл. Плевен","addr:country":"BG","name":"Койнаре","brand":"Банка ДСК","brand:wikidata":"Q5206146","operator:wikidata":"Q5206146"},"coordinates":[43.355772,24.143575]},"tags_mismatch":false,"dist":0},{"osm":false,"atp":{"id":"SnKx2lcUgBkJkXeVxwsSKQo2k_Y=","tags":{"ref":"0c947fb3-4d38-650e-9d59-ff0900048325","amenity":"atm","addr:full":"бул. България 19","addr:city":"Летница, обл. Плевен","addr:country":"BG","name":"Летница","brand":"Банка ДСК","brand:wikidata":"Q5206146","operator:wikidata":"Q5206146"},"coordinates":[43.307245,25.058407]},"tags_mismatch":false,"dist":0},{"osm":false,"atp":{"id":"YGT6-D-kCLxXAUIvbBMhsSVpYZ8=","tags":{"ref":"a9947fb3-4d38-650e-9d59-ff0900048325","amenity":"atm","addr:full":"бул. 3-ти март №139","addr:city":"Монтана, обл. Монтана","addr:country":"BG","name":"Монтана","brand":"Банка ДСК","brand:wikidata":"Q5206146","operator:wikidata":"Q5206146"},"coordinates":[43.422313,23.227086]},"tags_mismatch":false,"dist":0},{"osm":false,"atp":{"id":"UP_yLwVNpDhFqbf88OhcSs7b9WQ=","tags":{"ref":"4d957fb3-4d38-650e-9d59-ff0900048325","amenity":"atm","addr:full":"ул. Хан Крум 4","addr:city":"Пазарджик, обл. Пазарджик","addr:country":"BG","name":"Пазарджик","brand":"Банка ДСК","brand:wikidata":"Q5206146","operator:wikidata":"Q5206146"},"coordinates":[42.194949,24.333788]},"tags_mismatch":false,"dist":0},{"osm":false,"atp":{"id":"qhe1QyKzMmFC0jn7EQ7D19HqUm0=","tags":{"ref":"9f957fb3-4d38-650e-9d59-ff0900048325","amenity":"atm","addr:full":"пл. „Кракра“","addr:city":"Перник, обл. Перник","addr:country":"BG","name":"Перник","brand":"Банка ДСК","brand:wikidata":"Q5206146","operator:wikidata":"Q5206146"},"coordinates":[42.607865,23.031009]},"tags_mismatch":false,"dist":0},{"osm":false,"atp":{"id":"tHN_nzko-ltuYcNELI1mtt4_Dx4=","tags":{"ref":"b5957fb3-4d38-650e-9d59-ff0900048325","amenity":"atm","addr:full":"ул. Цар Симеон №24","addr:city":"Петрич, обл. Благоевград","addr:country":"BG","name":"Петрич","brand":"Банка ДСК","brand:wikidata":"Q5206146","operator:wikidata":"Q5206146"},"coordinates":[41.39442,23.207373]},"tags_mismatch":false,"dist":0},{"osm":false,"atp":{"id":"zS8gB16OMaBN98WNxeXiH8qKs8I=","tags":{"ref":"41967fb3-4d38-650e-9d59-ff0900048325","amenity":"atm","addr:full":"бул.Н.Вапцаров№3","addr:city":"Пловдив, обл. Пловдив","addr:country":"BG","name":"Пловдив","brand":"Банка ДСК","brand:wikidata":"Q5206146","operator:wikidata":"Q5206146"},"coordinates":[42.122502,24.752572]},"tags_mismatch":false,"dist":0},{"osm":false,"atp":{"id":"wQmTOvxWLjZox0kd3Nmccii8yf4=","tags":{"ref":"56967fb3-4d38-650e-9d59-ff0900048325","amenity":"atm","addr:full":"Летище Пловдив","addr:city":"Пловдив, обл. Пловдив","addr:country":"BG","name":"Пловдив","brand":"Банка ДСК","brand:wikidata":"Q5206146","operator:wikidata":"Q5206146"},"coordinates":[42.077092,24.843939]},"tags_mismatch":false,"dist":0},{"osm":false,"atp":{"id":"8V-O2Vul9IBEJfeexR6W5LI1HSg=","tags":{"ref":"b1967fb3-4d38-650e-9d59-ff0900048325","amenity":"atm","addr:full":"ул. \"Стефан Ботев\" 14","addr:city":"Пловдив, обл. Пловдив","addr:country":"BG","name":"Пловдив","brand":"Банка ДСК","brand:wikidata":"Q5206146","operator:wikidata":"Q5206146"},"coordinates":[42.158061,24.738326]},"tags_mismatch":false,"dist":0},{"osm":false,"atp":{"id":"0uis7OhbiEaiLPXOMvbG6fZpIdg=","tags":{"ref":"de967fb3-4d38-650e-9d59-ff0900048325","amenity":"atm","addr:full":"ул. “Княз Борис I“ № 102a","addr:city":"Поморие, обл. Бургас","addr:country":"BG","name":"Поморие","brand":"Банка ДСК","brand:wikidata":"Q5206146","operator:wikidata":"Q5206146"},"coordinates":[42.565857,27.623235]},"tags_mismatch":false,"dist":0},{"osm":false,"atp":{"id":"s5FPED1a6xzD-IO6LN3t6uS1WwA=","tags":{"ref":"f1967fb3-4d38-650e-9d59-ff0900048325","amenity":"atm","addr:full":"бул. \"България\" №117, вх. Б, партер","addr:city":"Попово, обл. Търговище","addr:country":"BG","name":"Попово","brand":"Банка ДСК","brand:wikidata":"Q5206146","operator:wikidata":"Q5206146"},"coordinates":[43.348719,26.221148]},"tags_mismatch":false,"dist":0},{"osm":false,"atp":{"id":"HcaUC7kCIg8gsofVBpH3NQItGv8=","tags":{"ref":"3e977fb3-4d38-650e-9d59-ff0900048325","amenity":"atm","addr:full":"ул. Иван Божилов №1","addr:city":"Пордим, обл. Плевен","addr:country":"BG","name":"Пордим","brand":"Банка ДСК","brand:wikidata":"Q5206146","operator:wikidata":"Q5206146"},"coordinates":[43.376909,24.846853]},"tags_mismatch":false,"dist":0},{"osm":false,"atp":{"id":"6mvCa6YsAlHGrqKwqxqH3OFuirk=","tags":{"ref":"63977fb3-4d38-650e-9d59-ff0900048325","amenity":"atm","addr:full":"кр. Е87","addr:city":"Равда, обл. Бургас","addr:country":"BG","name":"Равда","brand":"Банка ДСК","brand:wikidata":"Q5206146","operator:wikidata":"Q5206146"},"coordinates":[42.652376,27.670988]},"tags_mismatch":false,"dist":0},{"osm":false,"atp":{"id":"jQrnIBiieO1mqbzMU6Q-viFC8ZQ=","tags":{"ref":"3e987fb3-4d38-650e-9d59-ff0900048325","amenity":"atm","addr:full":"ул. Григор Пърличев 5","addr:city":"Русе, обл. Русе","addr:country":"BG","name":"Русе","brand":"Банка ДСК","brand:wikidata":"Q5206146","operator:wikidata":"Q5206146"},"coordinates":[43.828757,25.970802]},"tags_mismatch":false,"dist":0},{"osm":false,"atp":{"id":"hC4Fgqo0lV_RtuFdUIbkupZQ51E=","tags":{"ref":"52987fb3-4d38-650e-9d59-ff0900048325","amenity":"atm","addr:full":"Чорбаджийско","addr:city":"с. Чорбаджийско, общ. Кирково, обл. Кърджали","addr:country":"BG","name":"с. Чорбаджийско, общ. Кирково","brand":"Банка ДСК","brand:wikidata":"Q5206146","operator:wikidata":"Q5206146"},"coordinates":[41.372262,25.40356]},"tags_mismatch":false,"dist":0},{"osm":false,"atp":{"id":"NdWoFAN2HRVQrnMGYMy5pIA8QgA=","tags":{"ref":"69987fb3-4d38-650e-9d59-ff0900048325","amenity":"atm","addr:full":"бул. Свобода 19","addr:city":"Сандански, обл. Благоевград","addr:country":"BG","name":"Сандански","brand":"Банка ДСК","brand:wikidata":"Q5206146","operator:wikidata":"Q5206146"},"coordinates":[41.558157,23.274651]},"tags_mismatch":false,"dist":0},{"osm":false,"atp":{"id":"OsTj1Ru9eEl5kqadMputlwJnUIQ=","tags":{"ref":"7d987fb3-4d38-650e-9d59-ff0900048325","amenity":"atm","addr:full":"ул. Германея №3","addr:city":"Сапарева Баня, обл. Кюстендил","addr:country":"BG","name":"Сапарева баня","brand":"Банка ДСК","brand:wikidata":"Q5206146","operator:wikidata":"Q5206146"},"coordinates":[42.288609,23.262835]},"tags_mismatch":false,"dist":0},{"osm":false,"atp":{"id":"TLB-Tvxu9fGyy9LbxZvBJhV_35o=","tags":{"ref":"0d997fb3-4d38-650e-9d59-ff0900048325","amenity":"atm","addr:full":"ул.“Добруджа“ №1","addr:city":"Силистра, обл. Силистра","addr:country":"BG","name":"Силистра","brand":"Банка ДСК","brand:wikidata":"Q5206146","operator:wikidata":"Q5206146"},"coordinates":[44.117113,27.26055]},"tags_mismatch":false,"dist":0},{"osm":false,"atp":{"id":"85Gxwg6FsMLYfOlk_L9D_uP46nU=","tags":{"ref":"7a997fb3-4d38-650e-9d59-ff0900048325","amenity":"atm","addr:full":"бул. „Княз Александър I Батенберг“ №14А","addr:city":"Сливница, обл. София–област","addr:country":"BG","name":"Сливница","brand":"Банка ДСК","brand:wikidata":"Q5206146","operator:wikidata":"Q5206146"},"coordinates":[42.855584,23.038695]},"tags_mismatch":false,"dist":0},{"osm":false,"atp":{"id":"zIhpo53QOutr63AuUQAz0M-7ZuA=","tags":{"ref":"89997fb3-4d38-650e-9d59-ff0900048325","amenity":"atm","addr:full":"Аква парк","addr:city":"СЛЪНЧЕВ БРЯГ, обл. Бургас","addr:country":"BG","name":"Слънчев бряг","brand":"Банка ДСК","brand:wikidata":"Q5206146","operator:wikidata":"Q5206146"},"coordinates":[42.701745,27.706705]},"tags_mismatch":false,"dist":0},{"osm":false,"atp":{"id":"6wLmsJH8dVXBHlhLrWEZNQXnDAs=","tags":{"ref":"d5997fb3-4d38-650e-9d59-ff0900048325","amenity":"atm","addr:full":"Хотел Бриз Бийч","addr:city":"СЛЪНЧЕВ БРЯГ, обл. Бургас","addr:country":"BG","name":"Слънчев бряг","brand":"Банка ДСК","brand:wikidata":"Q5206146","operator:wikidata":"Q5206146"},"coordinates":[42.700421,27.717972]},"tags_mismatch":false,"dist":0},{"osm":false,"atp":{"id":"4c1LjYF5YL4oZOL-8cEa9eU_tiA=","tags":{"ref":"dd997fb3-4d38-650e-9d59-ff0900048325","amenity":"atm","addr:full":"бул. \"България\" 10","addr:city":"Смолян, обл. Смолян","addr:country":"BG","name":"Смолян","brand":"Банка ДСК","brand:wikidata":"Q5206146","operator:wikidata":"Q5206146"},"coordinates":[41.573604,24.715989]},"tags_mismatch":false,"dist":0},{"osm":false,"atp":{"id":"Xo_OYUJtOitQVD-LTWRPwyvHxzY=","tags":{"ref":"f7997fb3-4d38-650e-9d59-ff0900048325","amenity":"atm","addr:full":"ж.к. Нов център, ул. „Белия камък“ №24ул. България 26А","addr:city":"Смолян, обл. Смолян","addr:country":"BG","name":"Смолян","brand":"Банка ДСК","brand:wikidata":"Q5206146","operator:wikidata":"Q5206146"},"coordinates":[41.571946,24.716125]},"tags_mismatch":false,"dist":0},{"osm":false,"atp":{"id":"kIzG2AdtWybt8qaExvrk14D3KuQ=","tags":{"ref":"ff997fb3-4d38-650e-9d59-ff0900048325","amenity":"atm","addr:full":"кв Устово ул. Братан Шукеров №3","addr:city":"Смолян, обл. Смолян","addr:country":"BG","name":"Смолян","brand":"Банка ДСК","brand:wikidata":"Q5206146","operator:wikidata":"Q5206146"},"coordinates":[41.572759,24.781208]},"tags_mismatch":false,"dist":0},{"osm":false,"atp":{"id":"uJd8XUeiiW1HVGKsdxT2LJT0XCk=","tags":{"ref":"0a9a7fb3-4d38-650e-9d59-ff0900048325","amenity":"atm","addr:full":"пл.Княз Борис 1 №2","addr:city":"Смядово, обл. Шумен","addr:country":"BG","name":"Смядово","brand":"Банка ДСК","brand:wikidata":"Q5206146","operator:wikidata":"Q5206146"},"coordinates":[43.063948,27.013462]},"tags_mismatch":false,"dist":0},{"osm":false,"atp":{"id":"wU79JcKY2-er8Rc3UzzTF0ay2ZM=","tags":{"ref":"129a7fb3-4d38-650e-9d59-ff0900048325","amenity":"atm","addr:full":"ул. Беласица 3","addr:city":"Смядово, обл. Шумен","addr:country":"BG","name":"Смядово","brand":"Банка ДСК","brand:wikidata":"Q5206146","operator:wikidata":"Q5206146"},"coordinates":[43.064599,27.014]},"tags_mismatch":false,"dist":0},{"osm":false,"atp":{"id":"GPc1369sdqlwhInmU6-kuvzalvs=","tags":{"ref":"0f9d7fb3-4d38-650e-9d59-ff0900048325","amenity":"atm","addr:full":"ул. Неделчо Бончев 10","addr:city":"София, обл. София-град","addr:country":"BG","name":"София","brand":"Банка ДСК","brand:wikidata":"Q5206146","operator:wikidata":"Q5206146"},"coordinates":[42.673765,23.405538]},"tags_mismatch":false,"dist":0},{"osm":false,"atp":{"id":"cwVbnUAE6gw8okw0N6IT_Fiar2w=","tags":{"ref":"2f9d7fb3-4d38-650e-9d59-ff0900048325","amenity":"atm","addr:full":"ул.Васил Коларов №94","addr:city":"Средец, обл. Бургас","addr:country":"BG","name":"Средец","brand":"Банка ДСК","brand:wikidata":"Q5206146","operator:wikidata":"Q5206146"},"coordinates":[42.344203,27.182234]},"tags_mismatch":false,"dist":0},{"osm":false,"atp":{"id":"OPrSUkrvmQA3u1o4x1fFStlq0e4=","tags":{"ref":"c69d7fb3-4d38-650e-9d59-ff0900048325","amenity":"atm","addr:full":"ул. Божко Иванов","addr:city":"Стрелча, обл. Пазарджик","addr:country":"BG","name":"Стрелча","brand":"Банка ДСК","brand:wikidata":"Q5206146","operator:wikidata":"Q5206146"},"coordinates":[42.506642,24.321665]},"tags_mismatch":false,"dist":0},{"osm":false,"atp":{"id":"w-OFatK2G0psmyoSN77cnINfnWI=","tags":{"ref":"109e7fb3-4d38-650e-9d59-ff0900048325","amenity":"atm","addr:full":"Пищиговски път, УПИ III-158020","addr:city":"Съединение, обл. Пловдив","addr:country":"BG","name":"Съединение","brand":"Банка ДСК","brand:wikidata":"Q5206146","operator:wikidata":"Q5206146"},"coordinates":[42.25351,24.524212]},"tags_mismatch":false,"dist":0},{"osm":false,"atp":{"id":"Wiz4x-m6TpE-gy8umaYzeb1LM-Q=","tags":{"ref":"349e7fb3-4d38-650e-9d59-ff0900048325","amenity":"atm","addr:full":"ул. България 58","addr:city":"Тополовград, обл. Бургас","addr:country":"BG","name":"Тополовград","brand":"Банка ДСК","brand:wikidata":"Q5206146","operator:wikidata":"Q5206146"},"coordinates":[42.084337,26.336888]},"tags_mismatch":false,"dist":0},{"osm":false,"atp":{"id":"y9t40dVv_Ykg1xH4h2algBchI8Y=","tags":{"ref":"bd9e7fb3-4d38-650e-9d59-ff0900048325","amenity":"atm","addr:full":"ж. к. Бадема кв. 616, по ул. \"22-ри Септември“ № 12","addr:city":"Хасково, обл. Хасково","addr:country":"BG","name":"Хасково","brand":"Банка ДСК","brand:wikidata":"Q5206146","operator:wikidata":"Q5206146"},"coordinates":[41.937638,25.536616]},"tags_mismatch":false,"dist":0},{"osm":false,"atp":{"id":"SlulzAzRDA7IKP1euuYV94LoCss=","tags":{"ref":"1b9f7fb3-4d38-650e-9d59-ff0900048325","amenity":"atm","addr:full":"ул. Еделвайс 13","addr:city":"Хитрино, обл. Шумен","addr:country":"BG","name":"Хитрино","brand":"Банка ДСК","brand:wikidata":"Q5206146","operator:wikidata":"Q5206146"},"coordinates":[43.42572,26.913587]},"tags_mismatch":false,"dist":0},{"osm":false,"atp":{"id":"HsUJmGm1KSfNvG9DPFcSpLUxJdQ=","tags":{"ref":"399f7fb3-4d38-650e-9d59-ff0900048325","amenity":"atm","addr:full":"Палфингер","addr:city":"Червен Бряг, обл. Плевен","addr:country":"BG","name":"Червен бряг","brand":"Банка ДСК","brand:wikidata":"Q5206146","operator:wikidata":"Q5206146"},"coordinates":[43.275439,24.129244]},"tags_mismatch":false,"dist":0},{"osm":false,"atp":{"id":"_TS3K3bNutSz-vr_QEKJeF98H9o=","tags":{"ref":"b69f7fb3-4d38-650e-9d59-ff0900048325","amenity":"atm","addr:full":"ул. Ген. Скобелев № 124","addr:city":"Шумен, обл. Шумен","addr:country":"BG","name":"Шумен","brand":"Банка ДСК","brand:wikidata":"Q5206146","operator:wikidata":"Q5206146"},"coordinates":[43.278186,26.906304]},"tags_mismatch":false,"dist":0},{"osm":false,"atp":{"id":"6bxo-XG5LuEOx3uBmF1YkltE8jc=","tags":{"ref":"d51983b3-4d38-650e-9d59-ff0900048325","amenity":"atm","addr:full":"кв. Деленките, ул. София 6","addr:city":"Айдемир, обл. Велико Търново","addr:country":"BG","name":"Айдемир","brand":"Банка ДСК","brand:wikidata":"Q5206146","operator:wikidata":"Q5206146"},"coordinates":[44.101247,27.194249]},"tags_mismatch":false,"dist":0},{"osm":false,"atp":{"id":"muu-HA_x4uvBy3ZuzlzT3Gqv2L0=","tags":{"ref":"f41983b3-4d38-650e-9d59-ff0900048325","amenity":"atm","addr:full":"хотел Ралица Аква","addr:city":"Албена, обл. Варна","addr:country":"BG","name":"Албена","brand":"Банка ДСК","brand:wikidata":"Q5206146","operator:wikidata":"Q5206146"},"coordinates":[43.368079,28.071116]},"tags_mismatch":false,"dist":0},{"osm":false,"atp":{"id":"4AURM7nlQpH-ow12IodhjN1mIUY=","tags":{"ref":"571a83b3-4d38-650e-9d59-ff0900048325","amenity":"atm","addr:full":"ул. \"Пирин\" 83","addr:city":"Банско, обл. Благоевград","addr:country":"BG","name":"Банско","brand":"Банка ДСК","brand:wikidata":"Q5206146","operator:wikidata":"Q5206146"},"coordinates":[41.829886,23.480836]},"tags_mismatch":false,"dist":0},{"osm":false,"atp":{"id":"qaFqFR39yeNCXJhbzNzDgx59tKc=","tags":{"ref":"841a83b3-4d38-650e-9d59-ff0900048325","amenity":"atm","addr:full":"ул. Васил Коларов 14","addr:city":"Бенковски, обл. Стара Загора","addr:country":"BG","name":"Бенковски","brand":"Банка ДСК","brand:wikidata":"Q5206146","operator:wikidata":"Q5206146"},"coordinates":[41.380729,25.256876]},"tags_mismatch":false,"dist":0},{"osm":false,"atp":{"id":"EkXlEzBBHu9Qi8JP_3hGBnuGyCU=","tags":{"ref":"0a1b83b3-4d38-650e-9d59-ff0900048325","amenity":"atm","addr:full":"пл. Саранск 5","addr:city":"Ботевград, обл. София–област","addr:country":"BG","name":"Ботевград","brand":"Банка ДСК","brand:wikidata":"Q5206146","operator:wikidata":"Q5206146"},"coordinates":[42.907448,23.792999]},"tags_mismatch":false,"dist":0},{"osm":false,"atp":{"id":"ExrZnd6XqvR_-IgYnjQCBPyeXhQ=","tags":{"ref":"751b83b3-4d38-650e-9d59-ff0900048325","amenity":"atm","addr:full":"жк. Меден Рудник Районен център 420","addr:city":"Бургас, обл. Бургас","addr:country":"BG","name":"Бургас","brand":"Банка ДСК","brand:wikidata":"Q5206146","operator:wikidata":"Q5206146"},"coordinates":[42.451259,27.415716]},"tags_mismatch":false,"dist":0},{"osm":false,"atp":{"id":"RhXkFSc_7auN1DaeE_uVuZ_SWKI=","tags":{"ref":"161c83b3-4d38-650e-9d59-ff0900048325","amenity":"atm","addr:full":"\"Кайсиева градина\" 2","addr:city":"Варна, обл. Варна","addr:country":"BG","name":"Варна","brand":"Банка ДСК","brand:wikidata":"Q5206146","operator:wikidata":"Q5206146"},"coordinates":[43.23916,27.860622]},"tags_mismatch":false,"dist":0},{"osm":false,"atp":{"id":"b32DdKPj8K8mgYbsW5FMU8okbCk=","tags":{"ref":"801c83b3-4d38-650e-9d59-ff0900048325","amenity":"atm","addr:full":"бул. Константин и Фружин 41","addr:city":"Варна, обл. Варна","addr:country":"BG","name":"Варна","brand":"Банка ДСК","brand:wikidata":"Q5206146","operator:wikidata":"Q5206146"},"coordinates":[43.249534,27.848783]},"tags_mismatch":false,"dist":0},{"osm":false,"atp":{"id":"PFVA4QGTX05vOk6LLMSPOAMxrO8=","tags":{"ref":"ac1c83b3-4d38-650e-9d59-ff0900048325","amenity":"atm","addr:full":"жк. Младост, бул.Сливница","addr:city":"Варна, обл. Варна","addr:country":"BG","name":"Варна","brand":"Банка ДСК","brand:wikidata":"Q5206146","operator:wikidata":"Q5206146"},"coordinates":[43.229045,27.870763]},"tags_mismatch":false,"dist":0},{"osm":false,"atp":{"id":"mfKLhYkx1kBTycJNkyvJnj-9q18=","tags":{"ref":"d11d83b3-4d38-650e-9d59-ff0900048325","amenity":"atm","addr:full":"Централна спирка Галата","addr:city":"Варна, обл. Варна","addr:country":"BG","name":"Варна","brand":"Банка ДСК","brand:wikidata":"Q5206146","operator:wikidata":"Q5206146"},"coordinates":[43.164017,27.937726]},"tags_mismatch":false,"dist":0},{"osm":false,"atp":{"id":"617fVyRvcHRbaCr12DNgXKuoSyw=","tags":{"ref":"461e83b3-4d38-650e-9d59-ff0900048325","amenity":"atm","addr:full":"пл. Н. Гяуров, бл. Дружба 28","addr:city":"Велинград, обл. Пловдив","addr:country":"BG","name":"Велинград","brand":"Банка ДСК","brand:wikidata":"Q5206146","operator:wikidata":"Q5206146"},"coordinates":[42.027243,23.994144]},"tags_mismatch":false,"dist":0},{"osm":false,"atp":{"id":"1NPWAac-NDS13cyEOsVCR0oewfA=","tags":{"ref":"551e83b3-4d38-650e-9d59-ff0900048325","amenity":"atm","addr:full":"Община Венец","addr:city":"Венец, обл. Велико Търново","addr:country":"BG","name":"Венец","brand":"Банка ДСК","brand:wikidata":"Q5206146","operator:wikidata":"Q5206146"},"coordinates":[43.542095,26.923034]},"tags_mismatch":false,"dist":0},{"osm":false,"atp":{"id":"fjcBaSFWnqx4nJlxqYzkV03MZyY=","tags":{"ref":"bf1e83b3-4d38-650e-9d59-ff0900048325","amenity":"atm","addr:full":"ул. Мито Цветков 2","addr:city":"Враца, обл. Враца","addr:country":"BG","name":"Враца","brand":"Банка ДСК","brand:wikidata":"Q5206146","operator:wikidata":"Q5206146"},"coordinates":[43.203422,23.549199]},"tags_mismatch":false,"dist":0},{"osm":false,"atp":{"id":"za4dB_r9i8Ka4R4drDAShTH7x1k=","tags":{"ref":"471f83b3-4d38-650e-9d59-ff0900048325","amenity":"atm","addr:full":"ул. Драма 50","addr:city":"Гоце Делчев, обл. Благоевград","addr:country":"BG","name":"Гоце Делчев","brand":"Банка ДСК","brand:wikidata":"Q5206146","operator:wikidata":"Q5206146"},"coordinates":[41.56812,23.72758]},"tags_mismatch":false,"dist":0},{"osm":false,"atp":{"id":"ehfPCrfb0wUDuSlR1KA9yEvdN8k=","tags":{"ref":"5f1f83b3-4d38-650e-9d59-ff0900048325","amenity":"atm","addr:full":"ул. Стефан Стамболов 3","addr:city":"Гълъбово, обл. Стара Загора","addr:country":"BG","name":"Гълъбово","brand":"Банка ДСК","brand:wikidata":"Q5206146","operator:wikidata":"Q5206146"},"coordinates":[42.135826,25.864958]},"tags_mismatch":false,"dist":0},{"osm":false,"atp":{"id":"hTS9h0KWt8aEUqdhqgy6xvhql9U=","tags":{"ref":"b11f83b3-4d38-650e-9d59-ff0900048325","amenity":"atm","addr:full":"Индустриална зона, циментов завод","addr:city":"Девня, обл. Варна","addr:country":"BG","name":"Девня","brand":"Банка ДСК","brand:wikidata":"Q5206146","operator:wikidata":"Q5206146"},"coordinates":[43.230059,27.59374]},"tags_mismatch":false,"dist":0},{"osm":false,"atp":{"id":"kXjbN84r2LYq4eX83dRsA7Q-FkE=","tags":{"ref":"3d2083b3-4d38-650e-9d59-ff0900048325","amenity":"atm","addr:full":"ул. Тракия 3б","addr:city":"Доспат, обл. Пловдив","addr:country":"BG","name":"Доспат","brand":"Банка ДСК","brand:wikidata":"Q5206146","operator:wikidata":"Q5206146"},"coordinates":[41.646814,24.159009]},"tags_mismatch":false,"dist":0},{"osm":false,"atp":{"id":"JFCoQUDyMZheRYAB4FAc7abQ7ZI=","tags":{"ref":"d82083b3-4d38-650e-9d59-ff0900048325","amenity":"atm","addr:full":"х-л Марина Палас","addr:city":"Златни пясъци, обл. Варна","addr:country":"BG","name":"Златни пясъци","brand":"Банка ДСК","brand:wikidata":"Q5206146","operator:wikidata":"Q5206146"},"coordinates":[43.280213,28.042851]},"tags_mismatch":false,"dist":0},{"osm":false,"atp":{"id":"7FevFiDyVCHbGKDiAnvN-XszQ5w=","tags":{"ref":"1e2183b3-4d38-650e-9d59-ff0900048325","amenity":"atm","addr:full":"ул. Г. Димитров 38","addr:city":"Искър, обл. Плевен","addr:country":"BG","name":"Искър","brand":"Банка ДСК","brand:wikidata":"Q5206146","operator:wikidata":"Q5206146"},"coordinates":[43.455261,24.262255]},"tags_mismatch":false,"dist":0},{"osm":false,"atp":{"id":"XR4uQgWYFD88tftuOYcvp5RpQ80=","tags":{"ref":"2b2183b3-4d38-650e-9d59-ff0900048325","amenity":"atm","addr:full":"ул. Васил Левски 63","addr:city":"Исперих, обл. Велико Търново","addr:country":"BG","name":"Исперих","brand":"Банка ДСК","brand:wikidata":"Q5206146","operator:wikidata":"Q5206146"},"coordinates":[43.713638,26.831987]},"tags_mismatch":false,"dist":0},{"osm":false,"atp":{"id":"ewpfCE07d9_XC7aqZ3EDXF7DwOY=","tags":{"ref":"d42183b3-4d38-650e-9d59-ff0900048325","amenity":"atm","addr:full":"обл. Стара Загора, с. Ковечево","addr:city":"Ковачево, обл. Стара Загора","addr:country":"BG","name":"Ковачево","brand":"Банка ДСК","brand:wikidata":"Q5206146","operator:wikidata":"Q5206146"},"coordinates":[42.239336,26.070376]},"tags_mismatch":false,"dist":0},{"osm":false,"atp":{"id":"CHZwjPEaP7S4nlS1GapXYAxBmxE=","tags":{"ref":"282283b3-4d38-650e-9d59-ff0900048325","amenity":"atm","addr:full":"ул. Охрид 1","addr:city":"Костинброд, обл. София–област","addr:country":"BG","name":"Костинброд","brand":"Банка ДСК","brand:wikidata":"Q5206146","operator:wikidata":"Q5206146"},"coordinates":[42.809108,23.199647]},"tags_mismatch":false,"dist":0},{"osm":false,"atp":{"id":"oiSxMkZypNU_Y4K-RFOzdhV04IE=","tags":{"ref":"a42283b3-4d38-650e-9d59-ff0900048325","amenity":"atm","addr:full":"Индустриална зона ЮГ","addr:city":"Кърджали, обл. Кърджали","addr:country":"BG","name":"Кърджали","brand":"Банка ДСК","brand:wikidata":"Q5206146","operator:wikidata":"Q5206146"},"coordinates":[41.633928,25.377986]},"tags_mismatch":false,"dist":0},{"osm":false,"atp":{"id":"bw4JRhgDywgD6eL-MrnPoj3Bit0=","tags":{"ref":"d72283b3-4d38-650e-9d59-ff0900048325","amenity":"atm","addr:full":"бул. България 1Г","addr:city":"Летница, обл. Плевен","addr:country":"BG","name":"Летница","brand":"Банка ДСК","brand:wikidata":"Q5206146","operator:wikidata":"Q5206146"},"coordinates":[43.31291,25.07415]},"tags_mismatch":false,"dist":0},{"osm":false,"atp":{"id":"7HSCZPFesVA5zXqxNvp0RX92TCA=","tags":{"ref":"5d2383b3-4d38-650e-9d59-ff0900048325","amenity":"atm","addr:full":"Адм. сграда Ел. Компания","addr:city":"Медникарово, обл. Стара Загора","addr:country":"BG","name":"Медникарово","brand":"Банка ДСК","brand:wikidata":"Q5206146","operator:wikidata":"Q5206146"},"coordinates":[42.12434,26.002905]},"tags_mismatch":false,"dist":0},{"osm":false,"atp":{"id":"r1nvrsQzmm1kKMEtmlYxxSo0iPc=","tags":{"ref":"562483b3-4d38-650e-9d59-ff0900048325","amenity":"atm","addr:full":"Адм. сграда Асарел Медет, Експресбанк","addr:city":"Панагюрище, обл. Пловдив","addr:country":"BG","name":"Панагюрище","brand":"Банка ДСК","brand:wikidata":"Q5206146","operator:wikidata":"Q5206146"},"coordinates":[42.53759,24.152676]},"tags_mismatch":false,"dist":0},{"osm":false,"atp":{"id":"yRTpEgdHIvsbsWU_slHBEQOoN4U=","tags":{"ref":"5e2483b3-4d38-650e-9d59-ff0900048325","amenity":"atm","addr:full":"бул. Пягигорски 58","addr:city":"Панагюрище, обл. Пловдив","addr:country":"BG","name":"Панагюрище","brand":"Банка ДСК","brand:wikidata":"Q5206146","operator:wikidata":"Q5206146"},"coordinates":[42.504347,24.171762]},"tags_mismatch":false,"dist":0},{"osm":false,"atp":{"id":"TghmsOIC6jqKUF0PuI7CKGBeqQ0=","tags":{"ref":"9e2583b3-4d38-650e-9d59-ff0900048325","amenity":"atm","addr:full":"ул. \"Иван Вазов\" 59","addr:city":"Пловдив, обл. Пловдив","addr:country":"BG","name":"Пловдив","brand":"Банка ДСК","brand:wikidata":"Q5206146","operator:wikidata":"Q5206146"},"coordinates":[42.36397,24.74318]},"tags_mismatch":false,"dist":0},{"osm":false,"atp":{"id":"qnovUYzjWxXFSWgO0YIUwnJ_dAc=","tags":{"ref":"df2583b3-4d38-650e-9d59-ff0900048325","amenity":"atm","addr:full":"ул. Перущица 15","addr:city":"Пловдив, обл. Пловдив","addr:country":"BG","name":"Пловдив","brand":"Банка ДСК","brand:wikidata":"Q5206146","operator:wikidata":"Q5206146"},"coordinates":[42.140378,24.718839]},"tags_mismatch":false,"dist":0},{"osm":false,"atp":{"id":"rgYLz671MhdLN8eEKKIjc7FBN1E=","tags":{"ref":"e72583b3-4d38-650e-9d59-ff0900048325","amenity":"atm","addr:full":"ул. София 64","addr:city":"Пловдив, обл. Пловдив","addr:country":"BG","name":"Пловдив","brand":"Банка ДСК","brand:wikidata":"Q5206146","operator:wikidata":"Q5206146"},"coordinates":[42.130221,24.716879]},"tags_mismatch":false,"dist":0},{"osm":false,"atp":{"id":"Dc6Z72lpX5qcwMbbeF8Zk4zxkpE=","tags":{"ref":"ac2683b3-4d38-650e-9d59-ff0900048325","amenity":"atm","addr:full":"Адм.сграда Родопи-М","addr:city":"Равнища общ Мадан, обл. Пловдив","addr:country":"BG","name":"Равнища общ Мадан","brand":"Банка ДСК","brand:wikidata":"Q5206146","operator:wikidata":"Q5206146"},"coordinates":[41.545272,24.909529]},"tags_mismatch":false,"dist":0},{"osm":false,"atp":{"id":"-5Xp0XoLcRazQslBUuVhQD6N_rM=","tags":{"ref":"be2683b3-4d38-650e-9d59-ff0900048325","amenity":"atm","addr:full":"ул. Тачо Даскалов 2","addr:city":"Раднево, обл. Стара Загора","addr:country":"BG","name":"Раднево","brand":"Банка ДСК","brand:wikidata":"Q5206146","operator:wikidata":"Q5206146"},"coordinates":[42.28959,25.932643]},"tags_mismatch":false,"dist":0},{"osm":false,"atp":{"id":"lAStyejmX21lpF04dOhry913ldI=","tags":{"ref":"d52683b3-4d38-650e-9d59-ff0900048325","amenity":"atm","addr:full":"ул. Бели лом 37А","addr:city":"Разград, обл. Велико Търново","addr:country":"BG","name":"Разград","brand":"Банка ДСК","brand:wikidata":"Q5206146","operator:wikidata":"Q5206146"},"coordinates":[43.526131,26.526547]},"tags_mismatch":false,"dist":0},{"osm":false,"atp":{"id":"xQESnwDsmmkwYZog7YnjdX9RuPk=","tags":{"ref":"442783b3-4d38-650e-9d59-ff0900048325","amenity":"atm","addr:full":"Площад \"Свобода\" 1","addr:city":"Русе, обл. Русе","addr:country":"BG","name":"Русе","brand":"Банка ДСК","brand:wikidata":"Q5206146","operator:wikidata":"Q5206146"},"coordinates":[43.848815,25.951578]},"tags_mismatch":false,"dist":0},{"osm":false,"atp":{"id":"uCnTE_IKcTjCshdtIlGX4cztCU0=","tags":{"ref":"c42783b3-4d38-650e-9d59-ff0900048325","amenity":"atm","addr:full":"ул. Хаджи Димитър 2","addr:city":"Самуил, обл. Велико Търново","addr:country":"BG","name":"Самуил","brand":"Банка ДСК","brand:wikidata":"Q5206146","operator:wikidata":"Q5206146"},"coordinates":[43.512555,26.743605]},"tags_mismatch":false,"dist":0},{"osm":false,"atp":{"id":"hDyvv2S9ZxApHF7hSGDVn2katUM=","tags":{"ref":"f92783b3-4d38-650e-9d59-ff0900048325","amenity":"atm","addr:full":"ул. Цар Симеон 18","addr:city":"Своге, обл. София-град","addr:country":"BG","name":"Своге","brand":"Банка ДСК","brand:wikidata":"Q5206146","operator:wikidata":"Q5206146"},"coordinates":[42.95979,23.349746]},"tags_mismatch":false,"dist":0},{"osm":false,"atp":{"id":"w9OA3OcS-4dOJ6OfrcnxqAi18wo=","tags":{"ref":"ea2883b3-4d38-650e-9d59-ff0900048325","amenity":"atm","addr:full":"х-л Лагуна парк","addr:city":"СЛЪНЧЕВ БРЯГ, обл. Бургас","addr:country":"BG","name":"Слънчев бряг","brand":"Банка ДСК","brand:wikidata":"Q5206146","operator:wikidata":"Q5206146"},"coordinates":[42.690582,27.709691]},"tags_mismatch":false,"dist":0},{"osm":false,"atp":{"id":"O9SxqUc7HBQoK78iAambDrQujlU=","tags":{"ref":"482983b3-4d38-650e-9d59-ff0900048325","amenity":"atm","addr:full":"ул. Созополски манастири 26","addr:city":"Созопол, обл. Бургас","addr:country":"BG","name":"Созопол","brand":"Банка ДСК","brand:wikidata":"Q5206146","operator:wikidata":"Q5206146"},"coordinates":[42.406263,27.706517]},"tags_mismatch":false,"dist":0},{"osm":false,"atp":{"id":"LTiDkBorVkh3Y5UL53fmP9FsWXo=","tags":{"ref":"2d2a83b3-4d38-650e-9d59-ff0900048325","amenity":"atm","addr:full":"бул. Ал. Стамболийски 73","addr:city":"София, обл. София-град","addr:country":"BG","name":"София","brand":"Банка ДСК","brand:wikidata":"Q5206146","operator:wikidata":"Q5206146"},"coordinates":[42.69811,23.311785]},"tags_mismatch":false,"dist":0},{"osm":false,"atp":{"id":"JHLN8jyOqsy1UNwApCx_LbsJauY=","tags":{"ref":"5d2a83b3-4d38-650e-9d59-ff0900048325","amenity":"atm","addr:full":"бул. Евлоги и Христо Георгиеви 82","addr:city":"София, обл. София-град","addr:country":"BG","name":"София","brand":"Банка ДСК","brand:wikidata":"Q5206146","operator:wikidata":"Q5206146"},"coordinates":[42.692414,23.3452]},"tags_mismatch":false,"dist":0},{"osm":false,"atp":{"id":"6-IHMwPVzlLaLpsjiIxN4BJIqAU=","tags":{"ref":"da2a83b3-4d38-650e-9d59-ff0900048325","amenity":"atm","addr:full":"бул. Цар Борис III 223","addr:city":"София, обл. София-град","addr:country":"BG","name":"София","brand":"Банка ДСК","brand:wikidata":"Q5206146","operator:wikidata":"Q5206146"},"coordinates":[43.715155,26.828188]},"tags_mismatch":false,"dist":0},{"osm":false,"atp":{"id":"H60MrNqnYeH4vb7TDZYiiyY1xoE=","tags":{"ref":"672c83b3-4d38-650e-9d59-ff0900048325","amenity":"atm","addr:full":"ул. Андрей Германов 11","addr:city":"София, обл. София-град","addr:country":"BG","name":"София","brand":"Банка ДСК","brand:wikidata":"Q5206146","operator:wikidata":"Q5206146"},"coordinates":[42.736137,23.26214]},"tags_mismatch":false,"dist":0},{"osm":false,"atp":{"id":"U0pqCNyg2NYk1yfd5gznNnbmin4=","tags":{"ref":"b62c83b3-4d38-650e-9d59-ff0900048325","amenity":"atm","addr:full":"ул. Р Петков Казанджията 8","addr:city":"София, обл. София-град","addr:country":"BG","name":"София","brand":"Банка ДСК","brand:wikidata":"Q5206146","operator:wikidata":"Q5206146"},"coordinates":[42.621502,23.369297]},"tags_mismatch":false,"dist":0},{"osm":false,"atp":{"id":"rkT93xFfZh5avpk_KYU6k6dA130=","tags":{"ref":"c42c83b3-4d38-650e-9d59-ff0900048325","amenity":"atm","addr:full":"ул. Филип Кутев 10","addr:city":"София, обл. София-град","addr:country":"BG","name":"София","brand":"Банка ДСК","brand:wikidata":"Q5206146","operator:wikidata":"Q5206146"},"coordinates":[42.656357,23.320672]},"tags_mismatch":false,"dist":0},{"osm":false,"atp":{"id":"-6FmuUdcleahnVdxHYWAjYV8cmk=","tags":{"ref":"d72c83b3-4d38-650e-9d59-ff0900048325","amenity":"atm","addr:full":"ул. Христо Благоев 25","addr:city":"София, обл. София-град","addr:country":"BG","name":"София","brand":"Банка ДСК","brand:wikidata":"Q5206146","operator:wikidata":"Q5206146"},"coordinates":[42.699945,23.287458]},"tags_mismatch":false,"dist":0},{"osm":false,"atp":{"id":"puxsOEMyW6QQwC0MJ8deFBSSvbc=","tags":{"ref":"692d83b3-4d38-650e-9d59-ff0900048325","amenity":"atm","addr:full":"бул. Цар Симеон Велики 2","addr:city":"Стара Загора, обл. Стара Загора","addr:country":"BG","name":"Стара Загора","brand":"Банка ДСК","brand:wikidata":"Q5206146","operator:wikidata":"Q5206146"},"coordinates":[42.418634,25.608591]},"tags_mismatch":false,"dist":0},{"osm":false,"atp":{"id":"jotfnZlNVFkabndZz-5HQhda2DI=","tags":{"ref":"db2e83b3-4d38-650e-9d59-ff0900048325","amenity":"atm","addr:full":"ул. Христо Трендафилов 44, Експресбанк","addr:city":"Цонево, обл. Варна","addr:country":"BG","name":"Цонево","brand":"Банка ДСК","brand:wikidata":"Q5206146","operator:wikidata":"Q5206146"},"coordinates":[43.029155,27.438996]},"tags_mismatch":false,"dist":0},{"osm":false,"atp":{"id":"UsmfoPUb_l-XimnjSoIbSzViTlI=","tags":{"ref":"5c2087b3-4d38-650e-9d59-ff0900048325","amenity":"atm","addr:full":"ул. Трети март 8","addr:city":"Правец, обл. София–област","addr:country":"BG","name":"Правец","brand":"Банка ДСК","brand:wikidata":"Q5206146","operator:wikidata":"Q5206146"},"coordinates":[42.894367,23.918245]},"tags_mismatch":false,"dist":0}]}