{"metadata":{"type":"brand","wikidata":"Q1788862","name":"Rompetrol","compare_keys":["opening_hours","fuel:*","compressed_air","vacuum_cleaner"]},"data":[{"osm":{"type":"node","id":280315066,"tags":{"amenity":"fuel","brand":"Rompetrol","brand:wikidata":"Q1788862","fuel:lpg":"yes","fuel:octane_95":"yes","fuel:octane_98":"yes"},"wikidata":"Q1788862","coordinates":[43.2243021,26.553713]},"atp":{"id":"DebIQpM_-yjfWp-gyeriK_xEblU=","tags":{"ref":"https://www.rompetrol.ro/routeplanner/stations?language_id=1:4376","amenity":"fuel","addr:street_address":"Targovishte, Main Road Sofia-Varna, Targhovishte exit to Sofia, Parvi Dolap locality","addr:city":"Tragovishte","addr:state":"Targovishte","addr:country":"BG","name":"Targovishte","brand":"Rompetrol","brand:wikidata":"Q1788862"},"coordinates":[43.224232,26.55398]},"dist":22.995,"tags_mismatch":true},{"osm":{"type":"node","id":811382533,"tags":{"amenity":"fuel","brand":"Rompetrol","brand:wikidata":"Q1788862","opening_hours":"24/7"},"wikidata":"Q1788862","coordinates":[42.7358056,23.3147183]},"atp":{"id":"T9Gsqa505kfMMaEcxSBYPtP18l0=","tags":{"ref":"https://www.rompetrol.ro/routeplanner/stations?language_id=1:4363","amenity":"fuel","addr:street_address":"Sofia, 23B, Rojen Blvd.","addr:city":"Sofia","addr:state":"Sofia","addr:country":"BG","name":"Sofia 2","brand":"Rompetrol","brand:wikidata":"Q1788862"},"coordinates":[42.735832,23.314672]},"dist":4.787,"tags_mismatch":true},{"osm":{"type":"node","id":1410374743,"tags":{"amenity":"fuel","brand":"Rompetrol","brand:wikidata":"Q1788862","fuel:diesel":"yes","fuel:octane_95":"yes","fuel:octane_98":"yes"},"wikidata":"Q1788862","coordinates":[43.8551275,25.985804]},"atp":{"id":"lVwpevYpV8cMqr8y3VttzoRWEqY=","tags":{"ref":"https://www.rompetrol.ro/routeplanner/stations?language_id=1:4357","amenity":"fuel","addr:street_address":"Ruse, 2, Mihail Arnaudov Str.","addr:city":"Ruse","addr:state":"Ruse","addr:country":"BG","name":"Ruse 2 (Potsdam)","brand":"Rompetrol","brand:wikidata":"Q1788862"},"coordinates":[43.854977,25.985992]},"dist":22.523,"tags_mismatch":true},{"osm":{"type":"node","id":1497297549,"tags":{"amenity":"fuel","brand":"Rompetrol","brand:wikidata":"Q1788862","fuel:lpg":"yes","fuel:octane_95":"yes","fuel:octane_98":"yes","outdoor_seating":"yes"},"wikidata":"Q1788862","coordinates":[43.3376258,25.6372403]},"atp":{"id":"k_ZUApCBumQn-RTFZpGNLHDbA2s=","tags":{"ref":"https://www.rompetrol.ro/routeplanner/stations?language_id=1:4371","amenity":"fuel","addr:street_address":"Radanovo, Main road Ruse - Veliko Tarnovo","addr:city":"Radanovo","addr:state":"Radanovo","addr:country":"BG","name":"Radanovo","brand":"Rompetrol","brand:wikidata":"Q1788862"},"coordinates":[43.337536,25.637321]},"dist":11.929,"tags_mismatch":true},{"osm":{"type":"node","id":1630204635,"tags":{"addr:city":"Велико Търново","addr:postcode":"5000","addr:street":"Южна промишлена зона, Дълга лъка","amenity":"fuel","brand":"Rompetrol","brand:wikidata":"Q1788862","fuel:100LL":"yes","fuel:adblue":"yes","fuel:diesel":"yes","fuel:lpg":"yes","fuel:octane_95":"yes","internet_access":"wlan","opening_hours":"24/7","outdoor_seating":"yes","payment:cards":"yes","payment:cash":"yes","phone":"+359 88 508 0687","website":"https://www.rompetrol.bg/"},"wikidata":"Q1788862","coordinates":[43.0621123,25.6327425]},"atp":{"id":"UiJe6PhyxxQ5cio6a0HvSD3StrI=","tags":{"ref":"https://www.rompetrol.ro/routeplanner/stations?language_id=1:4372","amenity":"fuel","addr:street_address":"Veliko Tarnovo, South industrial zone - Dalga laka","addr:city":"Veliko Tarnovo","addr:state":"Veliko Tarnovo","addr:country":"BG","name":"Veliko Tarnovo","brand":"Rompetrol","brand:wikidata":"Q1788862"},"coordinates":[43.061939,25.632833]},"dist":20.625,"tags_mismatch":true},{"osm":{"type":"node","id":2572104573,"tags":{"addr:housenumber":"132км","addr:street":"Автомагистрала Тракия","amenity":"fuel","brand":"Rompetrol","brand:wikidata":"Q1788862","check_date":"2023-02-26","compressed_air":"yes","fuel:diesel":"yes","fuel:lpg":"yes","fuel:octane_100":"yes","fuel:octane_95":"yes","internet_access":"wlan","internet_access:fee":"no","opening_hours":"24/7","payment:cash":"yes","payment:mastercard":"yes","payment:visa":"yes","phone":"+359 800 11012","self_service":"yes","source":"survey","toilets:wheelchair":"yes","website":"https://rompetrol.bg/","wheelchair":"yes"},"wikidata":"Q1788862","coordinates":[42.2116321,24.8034865]},"atp":{"id":"GmhGXTDfzBM453MjbTALLJtbiuY=","tags":{"ref":"https://www.rompetrol.ro/routeplanner/stations?language_id=1:4353","amenity":"fuel","addr:street_address":"Plovdiv, High road Trakia-132 km","addr:city":"Plovdiv","addr:state":"Plovdiv","addr:country":"BG","name":"Plovdiv 1","brand":"Rompetrol","brand:wikidata":"Q1788862"},"coordinates":[42.211666,24.803612]},"dist":11.002,"tags_mismatch":true},{"osm":{"type":"node","id":2740859997,"tags":{"amenity":"fuel","brand":"Rompetrol","brand:wikidata":"Q1788862","fuel:diesel":"yes","fuel:octane_95":"yes","fuel:octane_98":"yes"},"wikidata":"Q1788862","coordinates":[43.0325022,24.4042578]},"atp":{"id":"W8MmIsMGN7-zETvrq-sQStJ7GV8=","tags":{"ref":"https://www.rompetrol.ro/routeplanner/stations?language_id=1:4345","amenity":"fuel","addr:street_address":"Sopot village, Main road Sofia-Varna, Sopot village","addr:city":"Sopot village","addr:state":"Lovech","addr:country":"BG","name":"Sopot village","brand":"Rompetrol","brand:wikidata":"Q1788862"},"coordinates":[43.032528,24.404266]},"dist":2.945,"tags_mismatch":true},{"osm":{"type":"node","id":3534151018,"tags":{"amenity":"fuel","brand":"Rompetrol","brand:wikidata":"Q1788862","compressed_air":"yes","fuel:diesel":"yes","fuel:octane_95":"yes","fuel:octane_98":"yes"},"wikidata":"Q1788862","coordinates":[43.2343802,27.8602649]},"atp":{"id":"B0a5xtFFtfgHcDk96Qgr_Q8b15U=","tags":{"ref":"https://www.rompetrol.ro/routeplanner/stations?language_id=1:4370","amenity":"fuel","addr:street_address":"Varna, 182 B, Tsar Osvoboditel Blvd.","addr:city":"Varna","addr:state":"Varna","addr:country":"BG","name":"Varna","brand":"Rompetrol","brand:wikidata":"Q1788862"},"coordinates":[43.234211,27.860483]},"dist":25.81,"tags_mismatch":true},{"osm":{"type":"node","id":3662520331,"tags":{"amenity":"fuel","brand":"Rompetrol","brand:wikidata":"Q1788862"},"wikidata":"Q1788862","coordinates":[42.9968717,27.7271302]},"atp":false,"tags_mismatch":false},{"osm":{"type":"node","id":5648342705,"tags":{"addr:city":"Асеновград","amenity":"fuel","brand":"Rompetrol","brand:wikidata":"Q1788862","fuel:diesel":"yes","fuel:octane_95":"yes","fuel:octane_98":"yes","payment:cash":"yes","payment:debit_cards":"yes","payment:mastercard":"yes","payment:visa":"yes"},"wikidata":"Q1788862","coordinates":[42.0194209,24.8630567]},"atp":{"id":"1OVPOoRZmjMqXFXp9z5dMlbTsjk=","tags":{"ref":"https://www.rompetrol.ro/routeplanner/stations?language_id=1:4383","amenity":"fuel","addr:street_address":"Asenovgrad, 68, Bulgaria Blvd","addr:city":"Asenovgrad","addr:state":"Plovdiv","addr:country":"BG","name":"Asenovgrad","brand":"Rompetrol","brand:wikidata":"Q1788862"},"coordinates":[42.019325,24.863165]},"dist":13.92,"tags_mismatch":true},{"osm":{"type":"node","id":6407302385,"tags":{"amenity":"fuel","brand":"Rompetrol","brand:wikidata":"Q1788862"},"wikidata":"Q1788862","coordinates":[43.2611322,26.9445318]},"atp":false,"tags_mismatch":false},{"osm":{"type":"node","id":7802956308,"tags":{"amenity":"fuel","brand":"Rompetrol","brand:wikidata":"Q1788862","fuel:diesel":"yes","fuel:octane_95":"yes","fuel:octane_98":"yes","opening_hours":"24/7"},"wikidata":"Q1788862","coordinates":[42.4538987,26.0514635]},"atp":{"id":"1oJMDsAHZyciHLgG0RVz-qyOe5c=","tags":{"ref":"https://www.rompetrol.ro/routeplanner/stations?language_id=1:4368","amenity":"fuel","addr:street_address":"Trakia Highway, Dryanova Mogila locality, Ezero village - Nova Zagora Municipality - km. 243 + 126 - 243 + 243 left","addr:city":"Nova Zagora","addr:state":"Nova Zagora","addr:country":"BG","name":"Nova Zagora","brand":"Rompetrol","brand:wikidata":"Q1788862"},"coordinates":[42.453701,26.05184]},"dist":37.913,"tags_mismatch":true},{"osm":{"type":"node","id":9631555398,"tags":{"amenity":"fuel","brand":"Rompetrol","brand:wikidata":"Q1788862"},"wikidata":"Q1788862","coordinates":[42.4627717,26.0673515]},"atp":false,"tags_mismatch":false},{"osm":{"type":"node","id":9788822646,"tags":{"addr:city":"Пловдив","addr:housenumber":"94","addr:street":"бул. Коматевско шосе","amenity":"fuel","brand":"Rompetrol","brand:wikidata":"Q1788862","fuel:diesel":"yes","fuel:lpg":"yes","fuel:octane_100":"yes","fuel:octane_95":"yes","opening_hours":"24/7","self_service":"no"},"wikidata":"Q1788862","coordinates":[42.1203677,24.7155358]},"atp":{"id":"TbxGNlCNiW-mygREZ1AsWh9DsZA=","tags":{"ref":"https://www.rompetrol.ro/routeplanner/stations?language_id=1:4352","amenity":"fuel","addr:street_address":"Plovdiv, 94, Komatevsko shose Str.","addr:city":"Plovdiv","addr:state":"Plovdiv","addr:country":"BG","name":"Plovdiv 2","brand":"Rompetrol","brand:wikidata":"Q1788862"},"coordinates":[42.120556,24.715555]},"dist":20.998,"tags_mismatch":true},{"osm":{"type":"node","id":9975270598,"tags":{"amenity":"fuel","brand":"Rompetrol","brand:wikidata":"Q1788862","fuel:diesel":"yes","fuel:octane_95":"yes","opening_hours":"24/7"},"wikidata":"Q1788862","coordinates":[41.4948538,25.3019701]},"atp":{"id":"eAqUZpPv81Ct--7r_oSoMhv6X_I=","tags":{"ref":"https://www.rompetrol.ro/routeplanner/stations?language_id=1:4336","amenity":"fuel","addr:street_address":"Djebel, main road Kardjali - Zlatograd","addr:city":"Djebel","addr:state":"Kardjali","addr:country":"BG","name":"Djebel","brand":"Rompetrol","brand:wikidata":"Q1788862"},"coordinates":[41.494843,25.301971]},"dist":1.203,"tags_mismatch":true},{"osm":{"type":"node","id":11239984651,"tags":{"amenity":"fuel","brand":"Rompetrol","brand:wikidata":"Q1788862","opening_hours":"24/7"},"wikidata":"Q1788862","coordinates":[43.2119335,27.877923]},"atp":{"id":"Vm9b5QL2EQMybgnBnTFdp3aMaBM=","tags":{"ref":"https://www.rompetrol.ro/routeplanner/stations?language_id=1:4382","amenity":"fuel","addr:street_address":"Varna, 104 Devnya Str.","addr:city":"Varna","addr:state":"Varna","addr:country":"BG","name":"Varna 2","brand":"Rompetrol","brand:wikidata":"Q1788862"},"coordinates":[43.211857,27.877939]},"dist":8.605,"tags_mismatch":true},{"osm":{"type":"node","id":12119016756,"tags":{"amenity":"fuel","brand":"Rompetrol","brand:wikidata":"Q1788862","opening_hours":"24/7"},"wikidata":"Q1788862","coordinates":[44.1159086,27.2497765]},"atp":{"id":"NyInVX9bQ4eED8a2HFYWlo4dMAI=","tags":{"ref":"https://www.rompetrol.ro/routeplanner/stations?language_id=1:4360","amenity":"fuel","addr:street_address":"SiliStra, 12, Lom Str.","addr:city":"Silistra","addr:state":"Silistra","addr:country":"BG","name":"Silistra","brand":"Rompetrol","brand:wikidata":"Q1788862"},"coordinates":[44.115917,27.250151]},"dist":29.911,"tags_mismatch":true},{"osm":{"type":"way","id":185604179,"tags":{"amenity":"fuel","brand":"Rompetrol","brand:wikidata":"Q1788862","fuel:lpg":"yes","fuel:octane_95":"yes","fuel:octane_98":"yes"},"wikidata":"Q1788862","coordinates":[42.1273827,24.757904]},"atp":{"id":"XjcuJO2PQn3ZZkM5KX72AFUmuXQ=","tags":{"ref":"https://www.rompetrol.ro/routeplanner/stations?language_id=1:4350","amenity":"fuel","addr:street_address":"Plovdiv, 13A, Kuklensko shose, Southern Industrial Zone","addr:city":"Plovdiv","addr:state":"Plovdiv","addr:country":"BG","name":"Plovdiv 7","brand":"Rompetrol","brand:wikidata":"Q1788862"},"coordinates":[42.127361,24.757723]},"dist":15.121,"tags_mismatch":true},{"osm":{"type":"way","id":216248412,"tags":{"amenity":"fuel","brand":"Rompetrol","brand:wikidata":"Q1788862","fuel:diesel":"yes","fuel:octane_95":"yes"},"wikidata":"Q1788862","coordinates":[42.2525924,23.0963026]},"atp":{"id":"nYU3TuNKVaGcPSSLmqv08oSPmNA=","tags":{"ref":"https://www.rompetrol.ro/routeplanner/stations?language_id=1:4470","amenity":"fuel","addr:street_address":"Dupnitsa, 5, Arakchiyski most","addr:city":"Dupnitsa","addr:state":"Dupnitsa","addr:country":"BG","name":"Dupnitsa","brand":"Rompetrol","brand:wikidata":"Q1788862"},"coordinates":[42.252647,23.096119]},"dist":16.285,"tags_mismatch":true},{"osm":{"type":"way","id":251357002,"tags":{"amenity":"fuel","brand":"Rompetrol","brand:wikidata":"Q1788862","building":"yes","fuel:diesel":"yes","fuel:lpg":"yes","fuel:octane_95":"yes","fuel:octane_98":"yes"},"wikidata":"Q1788862","coordinates":[43.5793088,27.8249247]},"atp":false,"tags_mismatch":false},{"osm":{"type":"way","id":451691206,"tags":{"addr:street":"бул. Ломско шосе","amenity":"fuel","brand":"Rompetrol","brand:wikidata":"Q1788862","building":"roof","fuel:diesel":"yes","fuel:lpg":"yes","fuel:octane_95":"yes","fuel:octane_98":"yes"},"wikidata":"Q1788862","coordinates":[42.7383612,23.2890759]},"atp":{"id":"RcloHFmQbHwm3HiusDF3ZgbHW9w=","tags":{"ref":"https://www.rompetrol.ro/routeplanner/stations?language_id=1:4362","amenity":"fuel","addr:street_address":"Sofia, 175, Lomsko Shose Blvd.","addr:city":"Sofia","addr:state":"Sofia","addr:country":"BG","name":"Sofia 1","brand":"Rompetrol","brand:wikidata":"Q1788862"},"coordinates":[42.738426,23.289009]},"dist":9.043,"tags_mismatch":true},{"osm":{"type":"way","id":524076191,"tags":{"amenity":"fuel","brand":"Rompetrol","brand:wikidata":"Q1788862","building":"yes","fuel:diesel":"yes","fuel:lpg":"yes","fuel:octane_92":"yes","fuel:octane_98":"yes"},"wikidata":"Q1788862","coordinates":[43.5333506,27.843305]},"atp":false,"tags_mismatch":false},{"osm":{"type":"way","id":700629898,"tags":{"addr:city":"София","addr:housenumber":"74","addr:postcode":"1404","addr:street":"Тодор Каблешков","amenity":"fuel","brand":"Rompetrol","brand:wikidata":"Q1788862","check_date":"2024-09-12","compressed_air":"yes","fuel:diesel":"yes","fuel:octane_100":"yes","fuel:octane_95":"yes","opening_hours":"24/7","payment:cash":"yes","payment:credit_cards":"yes","payment:debit_cards":"yes","phone":"+359 2 859 6908","wheelchair":"yes"},"wikidata":"Q1788862","coordinates":[42.6631564,23.291375]},"atp":false,"tags_mismatch":false},{"osm":false,"atp":{"id":"-JELoQbnBNI-fwzbSLIpC0TH2Kg=","tags":{"ref":"https://www.rompetrol.ro/routeplanner/stations?language_id=1:4380","amenity":"fuel","addr:street_address":"Sliven, 51, Tsar Simeon Str. (Southern Industrial Zone)","addr:city":"Sliven","addr:state":"Sliven","addr:country":"BG","name":"Sliven 2","brand":"Rompetrol","brand:wikidata":"Q1788862"},"coordinates":[42.661587,26.334648]},"tags_mismatch":false,"dist":0}]}