{"metadata":{"type":"brand","wikidata":"Q168238","name":"OMV","compare_keys":["addr:city","addr:postcode","phone","opening_hours","car_wash","vacuum_cleaner","emergency","atm","fuel:*"]},"data":[{"osm":{"type":"node","id":198946127,"tags":{"amenity":"fuel","brand":"ОМВ","brand:wikidata":"Q168238","opening_hours":"24/7","phone":"+359 2 93298038"},"wikidata":"Q168238","coordinates":[42.4728164,26.5230365]},"atp":{"id":"26zs3HZOw3NkaQgAcmyyd5nkf8Q=","tags":{"ref":"BG.1038.8","atm":"yes","fuel:lpg":"yes","fuel:diesel":"yes","payment:routex":"yes","payment:visa":"yes","payment:diners_club":"yes","payment:mastercard":"yes","payment:american_express":"yes","amenity":"fuel","addr:street_address":"Milin Kamak Str.","addr:city":"Ямбол","addr:postcode":"8600","addr:country":"BG","name":"ОМВ","phone":"+359 87 631 8684","opening_hours":"24/7","brand":"OMV","brand:wikidata":"Q168238"},"coordinates":[42.47278,26.5225]},"dist":44.188,"tags_mismatch":true},{"osm":{"type":"node","id":254476709,"tags":{"amenity":"fuel","brand":"ОМВ","brand:wikidata":"Q168238","check_date":"2023-09-03","fuel:diesel":"yes","fuel:electricity":"no","fuel:lpg":"no","fuel:octane_95":"yes","fuel:octane_98":"yes","int_name":"OMV","opening_hours":"24/7","phone":"+359 2 93298063","wheelchair":"yes"},"wikidata":"Q168238","coordinates":[42.7035766,23.3108261]},"atp":{"id":"24ATaQDcpsYJ6zMnYRqskLs0hQY=","tags":{"ref":"BG.1063.8","fuel:diesel":"yes","payment:routex":"yes","payment:visa":"yes","payment:diners_club":"yes","payment:mastercard":"yes","payment:american_express":"yes","amenity":"fuel","addr:street_address":"Opalchenska Str.","addr:city":"София","addr:postcode":"1309","addr:country":"BG","name":"ОМВ","phone":"+359 87 691 9733","opening_hours":"24/7","brand":"OMV","brand:wikidata":"Q168238"},"coordinates":[42.70362,23.31081]},"dist":5.002,"tags_mismatch":true},{"osm":{"type":"node","id":254476794,"tags":{"amenity":"fuel","brand":"ОМВ","brand:wikidata":"Q168238","int_name":"OMV","opening_hours":"24/7","phone":"+359 2 93298043"},"wikidata":"Q168238","coordinates":[42.6616567,23.3917118]},"atp":{"id":"qQV2pQFUoHidXBbiS-HcUOeQrNo=","tags":{"ref":"BG.1043.8","atm":"yes","car_wash":"yes","fuel:lpg":"yes","vacuum_cleaner":"yes","fuel:diesel":"yes","payment:routex":"yes","payment:visa":"yes","payment:diners_club":"yes","payment:mastercard":"yes","payment:american_express":"yes","amenity":"fuel","addr:street_address":"Prof. Tsvetan Lazarov Blvd.","addr:city":"София","addr:postcode":"1574","addr:country":"BG","name":"ОМВ","phone":"+359 87 630 7743","opening_hours":"24/7","brand":"OMV","brand:wikidata":"Q168238"},"coordinates":[42.66152,23.39176]},"dist":15.703,"tags_mismatch":true},{"osm":{"type":"node","id":254476890,"tags":{"addr:housenumber":"49В","addr:street":"бул. България","amenity":"fuel","brand":"ОМВ","brand:wikidata":"Q168238","check_date":"2023-04-24","compressed_air":"yes","int_name":"OMV","internet_access":"wlan","internet_access:fee":"no","opening_hours":"24/7","payment:mastercard":"yes","payment:visa":"yes","phone":"+359 2 93298037","source":"survey","wheelchair":"yes"},"wikidata":"Q168238","coordinates":[42.6675058,23.2907696]},"atp":{"id":"MPGVbbThfD25VJBvfHv3AfCH0BE=","tags":{"ref":"BG.1037.8","atm":"yes","car_wash":"yes","fuel:lpg":"yes","vacuum_cleaner":"yes","fuel:diesel":"yes","payment:routex":"yes","payment:visa":"yes","payment:diners_club":"yes","payment:mastercard":"yes","payment:american_express":"yes","amenity":"fuel","addr:street_address":"Bulgaria Blvd.","addr:city":"София","addr:postcode":"1404","addr:country":"BG","name":"ОМВ","phone":"+359 87 866 8737","opening_hours":"24/7","brand":"OMV","brand:wikidata":"Q168238"},"coordinates":[42.66757,23.29071]},"dist":8.643,"tags_mismatch":true},{"osm":{"type":"node","id":254476911,"tags":{"amenity":"fuel","brand":"ОМВ","brand:wikidata":"Q168238","fuel:diesel":"yes","fuel:lpg":"yes","fuel:octane_95":"yes","int_name":"OMV","opening_hours":"24/7","phone":"+359 2 93298069","shop":"convenience"},"wikidata":"Q168238","coordinates":[42.7117498,23.3310944]},"atp":{"id":"zAM1kBxl3gR6-Izq7beD4b5UmsQ=","tags":{"ref":"BG.1069.8","fuel:lpg":"yes","fuel:diesel":"yes","payment:routex":"yes","payment:visa":"yes","payment:diners_club":"yes","payment:mastercard":"yes","payment:american_express":"yes","amenity":"fuel","addr:street_address":"Istoriya Slavyanobalgarska","addr:city":"София","addr:postcode":"1202","addr:country":"BG","name":"ОМВ","phone":"+359 87 631 5967","opening_hours":"24/7","brand":"OMV","brand:wikidata":"Q168238"},"coordinates":[42.7117,23.33111]},"dist":5.682,"tags_mismatch":true},{"osm":{"type":"node","id":267735643,"tags":{"amenity":"fuel","brand":"ОМВ","brand:wikidata":"Q168238","opening_hours":"24/7","payment:dkv":"yes","payment:uta":"yes","phone":"+359 2 93298035"},"wikidata":"Q168238","coordinates":[42.3193923,24.130402]},"atp":{"id":"teHRicERT_ekO2J4CJOlBZ_cpO8=","tags":{"ref":"BG.1035.8","fuel:lpg":"yes","fuel:diesel":"yes","payment:routex":"yes","payment:visa":"yes","payment:diners_club":"yes","payment:mastercard":"yes","payment:american_express":"yes","amenity":"fuel","addr:street_address":"Trakiya MW","addr:city":"Виноградец","addr:postcode":"4487","addr:country":"BG","name":"ОМВ","phone":"+359 87 619 8175","opening_hours":"24/7","brand":"OMV","brand:wikidata":"Q168238"},"coordinates":[42.31957,24.13007]},"dist":33.697,"tags_mismatch":true},{"osm":{"type":"node","id":271629496,"tags":{"amenity":"fuel","brand":"OMV","brand:wikidata":"Q168238","opening_hours":"24/7","phone":"+359 2 93298110"},"wikidata":"Q168238","coordinates":[42.2846745,23.1229803]},"atp":{"id":"Txlft7SvUYoQ5e39wZejDVGTcnA=","tags":{"ref":"BG.1110.8","atm":"yes","fuel:lpg":"yes","fuel:diesel":"yes","payment:routex":"yes","payment:visa":"yes","payment:diners_club":"yes","payment:mastercard":"yes","payment:american_express":"yes","amenity":"fuel","addr:street_address":"Е-79 Sofia-Kulata","addr:city":"Дупница","addr:postcode":"2600","addr:country":"BG","name":"ОМВ","phone":"+359 87 783 1527","opening_hours":"24/7","brand":"OMV","brand:wikidata":"Q168238"},"coordinates":[42.28482,23.12303]},"dist":16.687,"tags_mismatch":true},{"osm":{"type":"node","id":279111892,"tags":{"amenity":"fuel","brand":"ОМВ","brand:wikidata":"Q168238","fuel:diesel":"yes","fuel:octane_95":"yes","fuel:octane_98":"yes","opening_hours":"24/7","phone":"+359 2 93298080","shop":"convenience","wheelchair":"yes"},"wikidata":"Q168238","coordinates":[43.3198195,27.1159983]},"atp":{"id":"rq1dV6bmhUHdwTXjJTuiPE2Zfqo=","tags":{"ref":"BG.1080.8","fuel:lpg":"yes","fuel:diesel":"yes","payment:routex":"yes","payment:visa":"yes","payment:diners_club":"yes","payment:mastercard":"yes","payment:american_express":"yes","amenity":"fuel","addr:street_address":"Hemus MW","addr:city":"Каспичан","addr:postcode":"9930","addr:country":"BG","name":"ОМВ","phone":"+359 87 649 1980","opening_hours":"24/7","brand":"OMV","brand:wikidata":"Q168238"},"coordinates":[43.31972,27.11556]},"dist":37.144,"tags_mismatch":true},{"osm":{"type":"node","id":279111896,"tags":{"amenity":"fuel","brand":"ОМВ","brand:wikidata":"Q168238","fuel:diesel":"yes","fuel:octane_95":"yes","fuel:octane_98":"yes","opening_hours":"24/7","phone":"+359 2 93298081","wheelchair":"yes"},"wikidata":"Q168238","coordinates":[43.3206218,27.1156725]},"atp":{"id":"KQrhoiocCkHLXmhXi5N2Het7Bl4=","tags":{"ref":"BG.1081.8","atm":"yes","fuel:lpg":"yes","fuel:diesel":"yes","payment:routex":"yes","payment:visa":"yes","payment:diners_club":"yes","payment:mastercard":"yes","payment:american_express":"yes","amenity":"fuel","addr:street_address":"Hemus MW","addr:city":"Каспичан","addr:postcode":"9930","addr:country":"BG","name":"ОМВ","phone":"+359 87 679 7694","opening_hours":"24/7","brand":"OMV","brand:wikidata":"Q168238"},"coordinates":[43.32056,27.11556]},"dist":11.404,"tags_mismatch":true},{"osm":{"type":"node","id":279997958,"tags":{"amenity":"fuel","brand":"ОМВ","brand:wikidata":"Q168238","compressed_air":"yes","fuel:diesel":"yes","fuel:octane_95":"yes","fuel:octane_98":"yes","opening_hours":"24/7","phone":"+359 2 93298008"},"wikidata":"Q168238","coordinates":[43.2201426,27.9384557]},"atp":{"id":"5cWKjLMxvd4OvrfRgxy6ukfmhaE=","tags":{"ref":"BG.1008.8","atm":"yes","car_wash":"yes","fuel:lpg":"yes","vacuum_cleaner":"yes","fuel:diesel":"yes","payment:routex":"yes","payment:visa":"yes","payment:diners_club":"yes","payment:mastercard":"yes","payment:american_express":"yes","amenity":"fuel","addr:street_address":"Vasil Levski Blvd.","addr:city":"Варна","addr:postcode":"9010","addr:country":"BG","name":"ОМВ","phone":"+359 87 782 1092","opening_hours":"24/7","brand":"OMV","brand:wikidata":"Q168238"},"coordinates":[43.22008,27.93833]},"dist":12.337,"tags_mismatch":true},{"osm":{"type":"node","id":280314913,"tags":{"amenity":"fuel","brand":"ОМВ","brand:wikidata":"Q168238","fuel:diesel":"yes","fuel:lpg":"yes","fuel:octane_95":"yes","fuel:octane_98":"yes","opening_hours":"24/7","phone":"+359 2 93298018"},"wikidata":"Q168238","coordinates":[43.2489072,26.5505993]},"atp":{"id":"jFDep4GX9nwZ5jT6jC41a_3wMxo=","tags":{"ref":"BG.1018.8","atm":"yes","fuel:lpg":"yes","fuel:diesel":"yes","payment:routex":"yes","payment:visa":"yes","payment:diners_club":"yes","payment:mastercard":"yes","payment:american_express":"yes","amenity":"fuel","addr:street_address":"Aleksandar Stamboliyski Blvd.","addr:city":"Търговище","addr:postcode":"7700","addr:country":"BG","name":"ОМВ","phone":"+359 87 690 7784","opening_hours":"24/7","brand":"OMV","brand:wikidata":"Q168238"},"coordinates":[43.24889,26.55083]},"dist":18.783,"tags_mismatch":true},{"osm":{"type":"node","id":291471310,"tags":{"amenity":"fuel","brand":"ОМВ","brand:wikidata":"Q168238","ele":"56.6","opening_hours":"24/7","phone":"+359 2 93298005"},"wikidata":"Q168238","coordinates":[43.2160153,27.8965373]},"atp":{"id":"nWDemhdPx2dc3hnM02vSVa7M5wE=","tags":{"ref":"BG.1005.8","atm":"yes","car_wash":"yes","vacuum_cleaner":"yes","fuel:diesel":"yes","payment:omv":"yes","payment:routex":"yes","payment:visa":"yes","payment:diners_club":"yes","payment:mastercard":"yes","payment:american_express":"yes","amenity":"fuel","addr:street_address":"Vladislav Varnenchik Blvd.","addr:city":"Варна","addr:postcode":"9009","addr:country":"BG","name":"ОМВ","phone":"+359 87 680 1657","opening_hours":"24/7","brand":"OMV","brand:wikidata":"Q168238"},"coordinates":[43.216,27.89665]},"dist":9.29,"tags_mismatch":true},{"osm":{"type":"node","id":295390325,"tags":{"amenity":"fuel","brand":"ОМВ","brand:wikidata":"Q168238","name:ro":"OMV","opening_hours":"24/7","phone":"+359 2 93298017","wheelchair":"yes"},"wikidata":"Q168238","coordinates":[43.9919845,22.866094]},"atp":{"id":"gYKvrw4xGY95If2NE2F7EDb63ng=","tags":{"ref":"BG.1017.8","atm":"yes","fuel:lpg":"yes","fuel:diesel":"yes","payment:routex":"yes","payment:visa":"yes","payment:diners_club":"yes","payment:mastercard":"yes","payment:american_express":"yes","amenity":"fuel","addr:street_address":"Panoniya Blvd.","addr:city":"Видин","addr:postcode":"3700","addr:country":"BG","name":"ОМВ","phone":"+359 87 618 7317","opening_hours":"24/7","brand":"OMV","brand:wikidata":"Q168238"},"coordinates":[43.99194,22.86663]},"dist":43.163,"tags_mismatch":true},{"osm":{"type":"node","id":339794728,"tags":{"addr:housenumber":"2","addr:street":"пл.Албена","amenity":"fuel","brand":"ОМВ","brand:wikidata":"Q168238","fuel:diesel":"yes","fuel:octane_97":"yes","name:ro":"OMV","opening_hours":"24/7","phone":"+359 2 93298020"},"wikidata":"Q168238","coordinates":[44.1136413,27.2536766]},"atp":{"id":"3nMj2g6AJJI05tpap7555eYUmz4=","tags":{"ref":"BG.1020.8","atm":"yes","fuel:lpg":"yes","fuel:diesel":"yes","payment:routex":"yes","payment:visa":"yes","payment:diners_club":"yes","payment:mastercard":"yes","payment:american_express":"yes","amenity":"fuel","addr:street_address":"Makedoniya Blvd.","addr:city":"Силистра","addr:postcode":"7500","addr:country":"BG","name":"ОМВ","phone":"+359 87 692 8545","opening_hours":"24/7","brand":"OMV","brand:wikidata":"Q168238"},"coordinates":[44.11333,27.25333]},"dist":44.315,"tags_mismatch":true},{"osm":{"type":"node","id":357444369,"tags":{"addr:city":"Казанлък","addr:housenumber":"220","addr:postcode":"6100","addr:street":"Княз Александър Батенберг","amenity":"fuel","brand":"ОМВ","brand:wikidata":"Q168238","opening_hours":"24/7","phone":"+359 2 93298071"},"wikidata":"Q168238","coordinates":[42.6162731,25.4205216]},"atp":{"id":"TbytDunTruEr-_zDX9Hi9ReVP_A=","tags":{"ref":"BG.1071.8","atm":"yes","fuel:lpg":"yes","fuel:diesel":"yes","payment:routex":"yes","payment:visa":"yes","payment:diners_club":"yes","payment:mastercard":"yes","payment:american_express":"yes","amenity":"fuel","addr:street_address":"Knyaz Aleksandar Batenberg Blvd.","addr:city":"Казанлък","addr:postcode":"6100","addr:country":"BG","name":"ОМВ","phone":"+359 87 786 3871","opening_hours":"24/7","brand":"OMV","brand:wikidata":"Q168238"},"coordinates":[42.61611,25.42083]},"dist":31.077,"tags_mismatch":true},{"osm":{"type":"node","id":410521877,"tags":{"amenity":"fuel","brand":"ОМВ","brand:wikidata":"Q168238","fuel:diesel":"yes","fuel:octane_95":"yes","fuel:octane_98":"yes","opening_hours":"24/7","phone":"+359 87 657 3832"},"wikidata":"Q168238","coordinates":[43.2284242,27.9028815]},"atp":{"id":"ajpMtjxZjxac03H5G_OTe-zihmA=","tags":{"ref":"BG.1056.8","atm":"yes","fuel:cng":"yes","fuel:lpg":"yes","fuel:diesel":"yes","payment:routex":"yes","payment:visa":"yes","payment:diners_club":"yes","payment:mastercard":"yes","payment:american_express":"yes","amenity":"fuel","addr:street_address":"Hristo Smirnenski Blvd.","addr:city":"Варна","addr:postcode":"9009","addr:country":"BG","name":"ОМВ","phone":"+359 87 657 3832","opening_hours":"24/7","brand":"OMV","brand:wikidata":"Q168238"},"coordinates":[43.2284,27.90302]},"dist":11.539,"tags_mismatch":true},{"osm":{"type":"node","id":441086666,"tags":{"amenity":"fuel","brand":"OMV","brand:wikidata":"Q168238","fuel:diesel":"yes","fuel:octane_95":"yes","fuel:octane_98":"yes","opening_hours":"24/7","phone":"+359 2 93298033"},"wikidata":"Q168238","coordinates":[42.2189368,25.0413967]},"atp":{"id":"zh_j9sllC6paypu3viOhb_xFosI=","tags":{"ref":"BG.1033.8","atm":"yes","fuel:lpg":"yes","fuel:diesel":"yes","payment:routex":"yes","payment:visa":"yes","payment:diners_club":"yes","payment:mastercard":"yes","payment:american_express":"yes","amenity":"fuel","addr:street_address":"Trakiya MW","addr:city":"Белозем","addr:postcode":"4130","addr:country":"BG","name":"ОМВ","phone":"+359 87 696 4813","opening_hours":"24/7","brand":"OMV","brand:wikidata":"Q168238"},"coordinates":[42.21897,25.04147]},"dist":7.076,"tags_mismatch":true},{"osm":{"type":"node","id":527345498,"tags":{"amenity":"fuel","brand":"ОМВ","brand:wikidata":"Q168238","compressed_air":"yes","opening_hours":"24/7","phone":"+359 2 93298054"},"wikidata":"Q168238","coordinates":[43.228441,27.8774215]},"atp":{"id":"kcyJF14w9JfHtNvlOCMnWE5wTdI=","tags":{"ref":"BG.1054.8","atm":"yes","fuel:lpg":"yes","fuel:diesel":"yes","payment:routex":"yes","payment:visa":"yes","payment:diners_club":"yes","payment:mastercard":"yes","payment:american_express":"yes","amenity":"fuel","addr:street_address":"Slivnitsa Blvd.","addr:city":"Варна","addr:postcode":"9027","addr:country":"BG","name":"ОМВ","phone":"+359 87 866 8514","opening_hours":"24/7","brand":"OMV","brand:wikidata":"Q168238"},"coordinates":[43.22822,27.87754]},"dist":26.383,"tags_mismatch":true},{"osm":{"type":"node","id":577529104,"tags":{"amenity":"fuel","brand":"ОМВ","brand:wikidata":"Q168238","opening_hours":"24/7","phone":"+359 2 93298113"},"wikidata":"Q168238","coordinates":[42.6079355,27.3815989]},"atp":{"id":"dy1j3F6rrl4n4ryVKV3Hyh7lazM=","tags":{"ref":"BG.1113.8","atm":"yes","fuel:lpg":"yes","fuel:diesel":"yes","payment:routex":"yes","payment:visa":"yes","payment:diners_club":"yes","payment:mastercard":"yes","payment:american_express":"yes","amenity":"fuel","addr:street_address":"Balgarka Str. (Vetren qu. Е-773 14th km)","addr:city":"Ветрен","addr:postcode":"8127","addr:country":"BG","name":"ОМВ","phone":"+359 87 678 4912","opening_hours":"24/7","brand":"OMV","brand:wikidata":"Q168238"},"coordinates":[42.608,27.3815]},"dist":10.814,"tags_mismatch":true},{"osm":{"type":"node","id":603694478,"tags":{"amenity":"fuel","brand":"ОМВ","brand:wikidata":"Q168238","opening_hours":"24/7","phone":"+359 87 782 6198"},"wikidata":"Q168238","coordinates":[42.6463988,26.6688503]},"atp":{"id":"cfqantQyHn7-x_P6r8JJIWDiDeM=","tags":{"ref":"BG.1112.8","atm":"yes","fuel:lpg":"yes","fuel:diesel":"yes","payment:routex":"yes","payment:visa":"yes","payment:diners_club":"yes","payment:mastercard":"yes","payment:american_express":"yes","amenity":"fuel","addr:street_address":"Burgas-Sofia Main Road, Petolachkata area","addr:city":"Горно Александрово","addr:postcode":"8883","addr:country":"BG","name":"ОМВ","phone":"+359 87 782 6198","opening_hours":"24/7","brand":"OMV","brand:wikidata":"Q168238"},"coordinates":[42.64637,26.66864]},"dist":17.496,"tags_mismatch":true},{"osm":{"type":"node","id":688820149,"tags":{"amenity":"fuel","brand":"ОМВ","brand:wikidata":"Q168238","int_name":"OMV","opening_hours":"24/7","phone":"+359 2 93298102"},"wikidata":"Q168238","coordinates":[42.7106476,23.3084807]},"atp":{"id":"Hlm2wsu-6pj1pJ-FbSnGw39l24U=","tags":{"ref":"BG.1102.8","atm":"yes","fuel:lpg":"yes","fuel:diesel":"yes","payment:routex":"yes","payment:visa":"yes","payment:diners_club":"yes","payment:mastercard":"yes","payment:american_express":"yes","amenity":"fuel","addr:street_address":"Gen. Nikolay G. Stoletov Blvd.","addr:city":"София","addr:postcode":"1233","addr:country":"BG","name":"ОМВ","phone":"+359 87 857 6621","opening_hours":"24/7","brand":"OMV","brand:wikidata":"Q168238"},"coordinates":[42.71073,23.30837]},"dist":12.875,"tags_mismatch":true},{"osm":{"type":"node","id":1404550118,"tags":{"amenity":"fuel","brand":"OMV","brand:wikidata":"Q168238","opening_hours":"24/7","phone":"+359 87 789 0078"},"wikidata":"Q168238","coordinates":[42.0940277,24.7392353]},"atp":{"id":"7ZubJ28P3MM8zQz-kaF9Jh-1ZuQ=","tags":{"ref":"BG.1087.8","atm":"yes","fuel:lpg":"yes","fuel:diesel":"yes","payment:routex":"yes","payment:visa":"yes","payment:diners_club":"yes","payment:mastercard":"yes","payment:american_express":"yes","amenity":"fuel","addr:street_address":"Plovdiv Ring Road","addr:city":"Пловдив","addr:postcode":"4000","addr:country":"BG","name":"ОМВ","phone":"+359 87 789 0078","opening_hours":"24/7","brand":"OMV","brand:wikidata":"Q168238"},"coordinates":[42.09407,24.73973]},"dist":41.089,"tags_mismatch":true},{"osm":{"type":"node","id":1404550164,"tags":{"amenity":"fuel","brand":"OMV","brand:wikidata":"Q168238","opening_hours":"24/7","phone":"+359 2 93298086"},"wikidata":"Q168238","coordinates":[42.278438,24.277615]},"atp":{"id":"HdN42KwvLBm3e7YQiM4KB7OsnU4=","tags":{"ref":"BG.1086.8","atm":"yes","fuel:lpg":"yes","fuel:diesel":"yes","payment:routex":"yes","payment:visa":"yes","payment:diners_club":"yes","payment:mastercard":"yes","amenity":"fuel","addr:street_address":"Trakiya MW","addr:city":"Динката","addr:postcode":"4458","addr:country":"BG","name":"ОМВ","phone":"+359 87 996 6306","opening_hours":"24/7","brand":"OMV","brand:wikidata":"Q168238"},"coordinates":[42.27847,24.27792]},"dist":25.344,"tags_mismatch":true},{"osm":{"type":"node","id":1404557064,"tags":{"amenity":"fuel","brand":"OMV","brand:wikidata":"Q168238","opening_hours":"24/7","phone":"+359 2 93298128"},"wikidata":"Q168238","coordinates":[41.5833985,24.6842259]},"atp":{"id":"UNgnRT3-VqqAEYTd4hE1OyBltk4=","tags":{"ref":"BG.1128.8","atm":"yes","fuel:lpg":"yes","fuel:diesel":"yes","payment:routex":"yes","payment:visa":"yes","payment:diners_club":"yes","payment:mastercard":"yes","payment:american_express":"yes","amenity":"fuel","addr:street_address":"Parvi May Str.","addr:city":"Смолян","addr:postcode":"4700","addr:country":"BG","name":"ОМВ","phone":"+359 87 730 8659","opening_hours":"24/7","brand":"OMV","brand:wikidata":"Q168238"},"coordinates":[41.58333,24.68389]},"dist":28.957,"tags_mismatch":true},{"osm":{"type":"node","id":1425864118,"tags":{"amenity":"fuel","brand":"OMV","brand:wikidata":"Q168238","opening_hours":"24/7","phone":"+359 2 93298026","wheelchair":"no"},"wikidata":"Q168238","coordinates":[41.5468817,23.2702747]},"atp":{"id":"vCfJ-i43NG2zh19CEfXW70CQd0o=","tags":{"ref":"BG.1026.8","fuel:lpg":"yes","fuel:diesel":"yes","payment:routex":"yes","payment:visa":"yes","payment:diners_club":"yes","payment:mastercard":"yes","payment:american_express":"yes","amenity":"fuel","addr:street_address":"Е-79 Main Road","addr:city":"Сандански","addr:postcode":"2800","addr:country":"BG","name":"ОМВ","phone":"+359 87 630 7759","opening_hours":"24/7","brand":"OMV","brand:wikidata":"Q168238"},"coordinates":[41.54677,23.27037]},"dist":14.737,"tags_mismatch":true},{"osm":{"type":"node","id":1435147870,"tags":{"amenity":"fuel","brand":"ОМВ","brand:wikidata":"Q168238","compressed_air":"yes","fuel:lpg":"yes","opening_hours":"24/7","phone":"+359 2 93298070"},"wikidata":"Q168238","coordinates":[42.9545466,24.0211278]},"atp":{"id":"vw6E2HKZfA1e-K2LMMymadYHCTs=","tags":{"ref":"BG.1070.8","atm":"yes","fuel:lpg":"yes","fuel:diesel":"yes","payment:routex":"yes","payment:visa":"yes","payment:diners_club":"yes","payment:mastercard":"yes","payment:american_express":"yes","amenity":"fuel","addr:street_address":"Hemus MW","addr:city":"Осиковица","addr:postcode":"2164","addr:country":"BG","name":"ОМВ","phone":"+359 87 761 2160","opening_hours":"24/7","brand":"OMV","brand:wikidata":"Q168238"},"coordinates":[42.9548,24.02133]},"dist":32.63,"tags_mismatch":true},{"osm":{"type":"node","id":1503765509,"tags":{"addr:housenumber":"21А","addr:street":"бул. Васил Левски","amenity":"fuel","brand":"OMV","brand:wikidata":"Q168238","fuel:diesel":"yes","fuel:lpg":"yes","fuel:octane_95":"yes","opening_hours":"24/7","phone":"+359 2 93298218","toilets":"yes","wheelchair":"yes"},"wikidata":"Q168238","coordinates":[43.1845907,25.6207774]},"atp":{"id":"Czgq4A2WNB23ao7nEqix3vhi93k=","tags":{"ref":"BG.1218.8","atm":"yes","fuel:lpg":"yes","fuel:diesel":"yes","payment:routex":"yes","payment:visa":"yes","payment:diners_club":"yes","payment:mastercard":"yes","payment:american_express":"yes","amenity":"fuel","addr:street_address":"Polikraishte village","addr:city":"Поликраище","addr:postcode":"5138","addr:country":"BG","name":"ОМВ","phone":"+359 87 694 8476","opening_hours":"24/7","brand":"OMV","brand:wikidata":"Q168238"},"coordinates":[43.18417,25.62056]},"dist":49.99,"tags_mismatch":true},{"osm":{"type":"node","id":1700132381,"tags":{"addr:city":"Габрово","addr:housenumber":"52","addr:street":"бул. Априлов","amenity":"fuel","brand":"ОМВ","brand:wikidata":"Q168238","compressed_air":"yes","note:cadastre:building_use":"Сграда за тьрговия","opening_hours":"24/7","phone":"+359 2 93298032","wheelchair":"yes"},"wikidata":"Q168238","coordinates":[42.8654697,25.3175025]},"atp":{"id":"KjycZ3N7CRNElSpQ0DnmUJNlj90=","tags":{"ref":"BG.1032.8","atm":"yes","fuel:lpg":"yes","fuel:diesel":"yes","payment:routex":"yes","payment:visa":"yes","payment:diners_club":"yes","payment:mastercard":"yes","payment:american_express":"yes","amenity":"fuel","addr:street_address":"Vasil Aprilov Blvd.","addr:city":"Габрово","addr:postcode":"5300","addr:country":"BG","name":"ОМВ","phone":"+359 87 673 1804","opening_hours":"24/7","brand":"OMV","brand:wikidata":"Q168238"},"coordinates":[42.86558,25.31773]},"dist":22.231,"tags_mismatch":true},{"osm":{"type":"node","id":1858918567,"tags":{"amenity":"fuel","brand":"OMV","brand:wikidata":"Q168238","opening_hours":"24/7","phone":"+359 2 93298116","wheelchair":"limited"},"wikidata":"Q168238","coordinates":[42.1863717,24.3510594]},"atp":{"id":"AYOC1NrVWi8IRvQWTRdqaf9kHY8=","tags":{"ref":"BG.1116.8","atm":"yes","fuel:cng":"yes","fuel:lpg":"yes","fuel:diesel":"yes","payment:routex":"yes","payment:visa":"yes","payment:diners_club":"yes","payment:mastercard":"yes","payment:american_express":"yes","amenity":"fuel","addr:street_address":"Plovdivska Str.","addr:city":"Пазарджик","addr:postcode":"4400","addr:country":"BG","name":"ОМВ","phone":"+359 87 926 7775","opening_hours":"24/7","brand":"OMV","brand:wikidata":"Q168238"},"coordinates":[42.18627,24.35109]},"dist":11.586,"tags_mismatch":true},{"osm":{"type":"node","id":1896065539,"tags":{"amenity":"fuel","brand":"OMV","brand:wikidata":"Q168238","opening_hours":"24/7","phone":"+359 2 93298073","toilets:wheelchair":"no","wheelchair":"yes"},"wikidata":"Q168238","coordinates":[42.0552872,25.6037135]},"atp":{"id":"rlYy5UEqOUZj5w9vD3W5toK-Gjk=","tags":{"ref":"BG.1073.8","fuel:lpg":"yes","fuel:diesel":"yes","payment:routex":"yes","payment:visa":"yes","payment:diners_club":"yes","payment:mastercard":"yes","payment:american_express":"yes","amenity":"fuel","addr:street_address":"G. S. Rakovski Blvd.","addr:city":"Димитровград","addr:postcode":"6400","addr:country":"BG","name":"ОМВ","phone":"+359 87 690 7747","opening_hours":"24/7","brand":"OMV","brand:wikidata":"Q168238"},"coordinates":[42.05495,25.60401]},"dist":44.779,"tags_mismatch":true},{"osm":{"type":"node","id":2292971680,"tags":{"amenity":"fuel","brand":"OMV","brand:wikidata":"Q168238","opening_hours":"24/7","phone":"+359 2 93298092"},"wikidata":"Q168238","coordinates":[41.8127336,26.1615382]},"atp":{"id":"J6kAckPWVA3FgLpvwP9N7miwsI8=","tags":{"ref":"BG.1092.8","fuel:lpg":"yes","fuel:diesel":"yes","payment:routex":"yes","amenity":"fuel","addr:street_address":"Maritsa MW","addr:city":"Момково","addr:postcode":"6558","addr:country":"BG","name":"ОМВ","phone":"+359 87 866 8392","opening_hours":"24/7","brand":"OMV","brand:wikidata":"Q168238"},"coordinates":[41.8127,26.1616]},"dist":6.34,"tags_mismatch":true},{"osm":{"type":"node","id":2408245931,"tags":{"amenity":"fuel","brand":"OMV","brand:wikidata":"Q168238","opening_hours":"24/7","phone":"+359 2 93298039"},"wikidata":"Q168238","coordinates":[43.5282514,26.5183416]},"atp":{"id":"_E3oJNqjdsmKEAmgzCYx2OJFJxQ=","tags":{"ref":"BG.1039.8","atm":"yes","fuel:lpg":"yes","fuel:diesel":"yes","payment:routex":"yes","payment:visa":"yes","payment:diners_club":"yes","payment:mastercard":"yes","payment:american_express":"yes","amenity":"fuel","addr:street_address":"Strandzha Blvd.","addr:city":"Разград","addr:postcode":"7200","addr:country":"BG","name":"ОМВ","phone":"+359 87 649 7584","opening_hours":"24/7","brand":"OMV","brand:wikidata":"Q168238"},"coordinates":[43.52806,26.51806]},"dist":31.119,"tags_mismatch":true},{"osm":{"type":"node","id":2456061084,"tags":{"amenity":"fuel","brand":"ОМВ","brand:wikidata":"Q168238","opening_hours":"24/7","phone":"+359 2 93298025"},"wikidata":"Q168238","coordinates":[42.5007584,26.0105026]},"atp":{"id":"l8pfKwd30Bvl4w6O4bhOF9F77Jg=","tags":{"ref":"BG.1025.8","atm":"yes","fuel:lpg":"yes","fuel:diesel":"yes","payment:routex":"yes","payment:visa":"yes","payment:diners_club":"yes","payment:mastercard":"yes","payment:american_express":"yes","amenity":"fuel","addr:street_address":"Patriarh Evtimiy Blvd.","addr:city":"Нова Загора","addr:postcode":"8900","addr:country":"BG","name":"ОМВ","phone":"+359 87 782 4435","opening_hours":"24/7","brand":"OMV","brand:wikidata":"Q168238"},"coordinates":[42.50073,26.01038]},"dist":10.535,"tags_mismatch":true},{"osm":{"type":"node","id":2982152760,"tags":{"amenity":"fuel","brand":"ОМВ","brand:wikidata":"Q168238","opening_hours":"24/7","phone":"+359 87 866 8785"},"wikidata":"Q168238","coordinates":[42.6932282,27.7004148]},"atp":{"id":"QeonX8DOym0Ur5ovYpCcuth0yU0=","tags":{"ref":"BG.1085.8","atm":"yes","fuel:lpg":"yes","fuel:diesel":"yes","payment:omv":"yes","payment:routex":"yes","payment:visa":"yes","payment:diners_club":"yes","payment:mastercard":"yes","amenity":"fuel","addr:street_address":"Е-87 Varna-Burgas","addr:city":"Несебър","addr:postcode":"8232","addr:country":"BG","name":"ОМВ","phone":"+359 87 866 8785","opening_hours":"24/7","brand":"OMV","brand:wikidata":"Q168238"},"coordinates":[42.69306,27.70056]},"dist":22.15,"tags_mismatch":true},{"osm":{"type":"node","id":3334249114,"tags":{"amenity":"fuel","brand":"ОМВ","brand:wikidata":"Q168238","int_name":"OMV","opening_hours":"24/7","phone":"+359 2 93298023"},"wikidata":"Q168238","coordinates":[42.6076426,23.0500038]},"atp":{"id":"bZvy53KQ_dpj45OGVway3cpzFZU=","tags":{"ref":"BG.1023.8","atm":"yes","fuel:lpg":"yes","fuel:diesel":"yes","payment:routex":"yes","payment:visa":"yes","payment:diners_club":"yes","payment:mastercard":"yes","payment:american_express":"yes","amenity":"fuel","addr:street_address":"Dimova Mahala qu.","addr:city":"Перник","addr:postcode":"2300","addr:country":"BG","name":"ОМВ","phone":"+359 87 627 7857","opening_hours":"24/7","brand":"OMV","brand:wikidata":"Q168238"},"coordinates":[42.60764,23.05]},"dist":0.425,"tags_mismatch":true},{"osm":{"type":"node","id":3334249508,"tags":{"addr:city":"Благоевград","addr:postcode":"2700","amenity":"fuel","atm":"yes","brand":"OMV","brand:wikidata":"Q168238","building":"yes","car_wash":"yes","fuel:diesel":"yes","fuel:lpg":"yes","opening_hours":"24/7","phone":"+359 2 932 98 119","vacuum_cleaner":"yes"},"wikidata":"Q168238","coordinates":[42.0064583,23.0951967]},"atp":{"id":"Nag38mmg0HHX2WUf6Tf0V5GeBgA=","tags":{"ref":"BG.1119.8","atm":"yes","car_wash":"yes","fuel:lpg":"yes","vacuum_cleaner":"yes","fuel:diesel":"yes","payment:routex":"yes","payment:visa":"yes","payment:diners_club":"yes","payment:mastercard":"yes","payment:american_express":"yes","amenity":"fuel","addr:street_address":"Dimitar Solunski Blvd.","addr:city":"Благоевград","addr:postcode":"2700","addr:country":"BG","name":"ОМВ","phone":"+359 87 652 9934","opening_hours":"24/7","brand":"OMV","brand:wikidata":"Q168238"},"coordinates":[42.00646,23.0952]},"dist":0.332,"tags_mismatch":true},{"osm":{"type":"node","id":3334249601,"tags":{"addr:city":"Стара Загора","addr:street":"бул. Славянски","amenity":"fuel","brand":"OMV","brand:wikidata":"Q168238","internet_access":"wlan","opening_hours":"24/7","phone":"+359 2 93298004","wheelchair":"yes"},"wikidata":"Q168238","coordinates":[42.4193869,25.6303403]},"atp":{"id":"LCXYVjCK3dgIF1nr_3WcqA09MDQ=","tags":{"ref":"BG.1004.8","atm":"yes","fuel:cng":"yes","car_wash":"yes","fuel:lpg":"yes","vacuum_cleaner":"yes","fuel:diesel":"yes","payment:routex":"yes","payment:visa":"yes","payment:diners_club":"yes","payment:mastercard":"yes","payment:american_express":"yes","amenity":"fuel","addr:street_address":"Slavyanski Blvd.","addr:city":"Стара Загора","addr:postcode":"6000","addr:country":"BG","name":"ОМВ","phone":"+359 87 866 8523","opening_hours":"24/7","brand":"OMV","brand:wikidata":"Q168238"},"coordinates":[42.41939,25.63034]},"dist":0.346,"tags_mismatch":true},{"osm":{"type":"node","id":3334249611,"tags":{"amenity":"fuel","brand":"OMV","brand:wikidata":"Q168238","opening_hours":"24/7","phone":"+359 2 93298123"},"wikidata":"Q168238","coordinates":[43.2342662,23.1415194]},"atp":{"id":"6-vsh58Wh1tpHqyQABLoJDrNNZs=","tags":{"ref":"BG.1123.8","atm":"yes","fuel:lpg":"yes","fuel:diesel":"yes","payment:routex":"yes","payment:visa":"yes","payment:diners_club":"yes","payment:mastercard":"yes","payment:american_express":"yes","amenity":"fuel","addr:street_address":"Aleksandrovska Str.","addr:city":"Берковица","addr:postcode":"3500","addr:country":"BG","name":"ОМВ","phone":"+359 87 661 0112","opening_hours":"24/7","brand":"OMV","brand:wikidata":"Q168238"},"coordinates":[43.23427,23.14152]},"dist":0.425,"tags_mismatch":true},{"osm":{"type":"node","id":3334249705,"tags":{"addr:housenumber":"214А","addr:street":"бул. Трети март","amenity":"fuel","brand":"OMV","brand:wikidata":"Q168238","check_date":"2023-09-18","contact:website":"https://omv.bg/","fuel:diesel":"yes","fuel:lpg":"yes","fuel:octane_95":"yes","internet_access":"wlan","internet_access:fee":"customers","opening_hours":"24/7","payment:mastercard":"yes","payment:visa":"yes","phone":"+359 2 93298118","self_service":"yes","wheelchair":"yes"},"wikidata":"Q168238","coordinates":[43.4208876,23.228225]},"atp":{"id":"KySZylpvkT-aKZDZTjEXmpHaECQ=","tags":{"ref":"BG.1118.8","atm":"yes","car_wash":"yes","fuel:lpg":"yes","vacuum_cleaner":"yes","fuel:diesel":"yes","payment:routex":"yes","payment:visa":"yes","payment:diners_club":"yes","payment:mastercard":"yes","payment:american_express":"yes","amenity":"fuel","addr:street_address":"Treti Mart Blvd.","addr:city":"Монтана","addr:postcode":"3400","addr:country":"BG","name":"ОМВ","phone":"+359 87 673 0386","opening_hours":"24/7","brand":"OMV","brand:wikidata":"Q168238"},"coordinates":[43.42083,23.22833]},"dist":10.627,"tags_mismatch":true},{"osm":{"type":"node","id":3474635528,"tags":{"amenity":"fuel","brand":"OMV","brand:wikidata":"Q168238","opening_hours":"24/7","phone":"+359 2 93298090"},"wikidata":"Q168238","coordinates":[42.5453677,26.4469079]},"atp":{"id":"XrNvcQwrsuwgP07a5T7M0h1tehY=","tags":{"ref":"BG.1090.8","atm":"yes","fuel:lpg":"yes","fuel:diesel":"yes","payment:routex":"yes","payment:dkv":"yes","payment:cards":"yes","payment:visa":"yes","payment:american_express":"yes","amenity":"fuel","addr:street_address":"Trakiya MW","addr:city":"Дражево","addr:postcode":"8634","addr:country":"BG","name":"ОМВ","phone":"+359 87 679 7688","opening_hours":"24/7","brand":"OMV","brand:wikidata":"Q168238"},"coordinates":[42.5453,26.44623]},"dist":56.043,"tags_mismatch":true},{"osm":{"type":"node","id":3750853290,"tags":{"amenity":"fuel","brand":"OMV","brand:wikidata":"Q168238","fuel:diesel":"yes","fuel:lpg":"yes","fuel:octane_95":"yes","opening_hours":"24/7","payment:mastercard":"yes","payment:visa_electron":"yes","phone":"+359 293298091","toilets":"yes","toilets:wheelchair":"yes","wheelchair":"yes"},"wikidata":"Q168238","coordinates":[41.9088732,25.9629837]},"atp":{"id":"3ABOk0K7lIKgP1JAjken4Tlhzbo=","tags":{"ref":"BG.1091.8","fuel:lpg":"yes","fuel:diesel":"yes","payment:routex":"yes","payment:dkv":"yes","payment:cards":"yes","payment:visa":"yes","payment:diners_club":"yes","payment:mastercard":"yes","payment:american_express":"yes","amenity":"fuel","addr:street_address":"Maritsa MW","addr:city":"Harmanli","addr:postcode":"6469","addr:country":"BG","name":"ОМВ","phone":"+359 87 679 7651","opening_hours":"24/7","brand":"OMV","brand:wikidata":"Q168238"},"coordinates":[41.90899,25.96322]},"dist":23.474,"tags_mismatch":true},{"osm":{"type":"node","id":4367443089,"tags":{"addr:street":"Автомагистрала Тракия","amenity":"fuel","brand":"OMV","brand:wikidata":"Q168238","fuel:diesel":"yes","fuel:octane_95":"yes","fuel:octane_98":"yes","opening_hours":"24/7","phone":"+359 2 93298089"},"wikidata":"Q168238","coordinates":[42.5304846,26.3982157]},"atp":{"id":"EFP12Ryg9-kME08XMPLY13Pedq4=","tags":{"ref":"BG.1089.8","fuel:lpg":"yes","fuel:diesel":"yes","payment:routex":"yes","payment:visa":"yes","payment:mastercard":"yes","amenity":"fuel","addr:street_address":"Trakiya MW","addr:city":"Автомагистрала Тракия + 277 км","addr:postcode":"8635","addr:country":"BG","name":"ОМВ","phone":"+359 87 783 7964","opening_hours":"24/7","brand":"OMV","brand:wikidata":"Q168238"},"coordinates":[42.5308,26.3984]},"dist":38.184,"tags_mismatch":true},{"osm":{"type":"node","id":5429039005,"tags":{"amenity":"fuel","brand":"OMV","brand:wikidata":"Q168238","opening_hours":"24/7","phone":"+359 2 93298097"},"wikidata":"Q168238","coordinates":[41.3969717,23.355826]},"atp":{"id":"jzTzfwgm7y2E44rD-rEJ1GqqvIk=","tags":{"ref":"BG.1097.8","fuel:lpg":"yes","fuel:diesel":"yes","payment:routex":"yes","payment:uta":"yes","payment:dkv":"yes","amenity":"fuel","addr:street_address":"Struma MW","addr:city":"Чучулигово","addr:postcode":"2865","addr:country":"BG","name":"ОМВ","phone":"+359 87 679 7618","opening_hours":"24/7","brand":"OMV","brand:wikidata":"Q168238"},"coordinates":[41.39726,23.35516]},"dist":64.139,"tags_mismatch":true},{"osm":{"type":"node","id":6044086521,"tags":{"amenity":"fuel","brand":"ОМВ","brand:wikidata":"Q168238","int_name":"OMV","opening_hours":"24/7","phone":"+359 2 93298096"},"wikidata":"Q168238","coordinates":[42.6089886,23.1326681]},"atp":{"id":"zWGHT7NtK3J-Skhg5M9kJGMawDM=","tags":{"ref":"BG.1096.8","atm":"yes","fuel:lpg":"yes","fuel:diesel":"yes","payment:routex":"yes","amenity":"fuel","addr:street_address":"Lyulin MW","addr:city":"Даскалово","addr:postcode":"2304","addr:country":"BG","name":"ОМВ","phone":"+359 87 658 4096","opening_hours":"24/7","brand":"OMV","brand:wikidata":"Q168238"},"coordinates":[42.60887,23.13187]},"dist":66.633,"tags_mismatch":true},{"osm":{"type":"node","id":6723546893,"tags":{"amenity":"fuel","brand":"OMV","brand:wikidata":"Q168238","compressed_air":"yes","opening_hours":"24/7","phone":"+359 87 675 8706"},"wikidata":"Q168238","coordinates":[41.3963582,23.354923]},"atp":{"id":"dJUHjBgsk96dNNIAKOK44d30tCU=","tags":{"ref":"BG.1098.8","fuel:lpg":"yes","fuel:diesel":"yes","payment:routex":"yes","amenity":"fuel","addr:street_address":"Struma MW","addr:city":"Чучулигово","addr:postcode":"2865","addr:country":"BG","name":"ОМВ","phone":"+359 87 675 8706","opening_hours":"24/7","brand":"OMV","brand:wikidata":"Q168238"},"coordinates":[41.39662,23.35518]},"dist":36.152,"tags_mismatch":true},{"osm":{"type":"node","id":6899520910,"tags":{"amenity":"fuel","brand":"OMV","brand:wikidata":"Q168238","opening_hours":"24/7","phone":"+359 87 605 2031"},"wikidata":"Q168238","coordinates":[42.1915403,24.6728727]},"atp":{"id":"Is6gNTypt9-H_NuqqS80JXA60Qs=","tags":{"ref":"BG.1099.8","fuel:lpg":"yes","fuel:diesel":"yes","payment:routex":"yes","amenity":"fuel","addr:street_address":"Golyamokonarsko Shosse, Tsaratsovo village","addr:city":"Пловдив","addr:postcode":"4204","addr:country":"BG","name":"ОМВ","phone":"+359 87 605 2031","opening_hours":"24/7","brand":"OMV","brand:wikidata":"Q168238"},"coordinates":[42.1908,24.67367]},"dist":105.313,"tags_mismatch":true},{"osm":{"type":"node","id":8563848903,"tags":{"amenity":"fuel","brand":"OMV","brand:wikidata":"Q168238","opening_hours":"24/7","phone":"+359 87 630 1918"},"wikidata":"Q168238","coordinates":[42.7048502,23.2104973]},"atp":{"id":"IrC-T2l8QTGrIs7Iinuca-cVjIA=","tags":{"ref":"BG.1108.8","atm":"yes","fuel:lpg":"yes","fuel:diesel":"yes","payment:routex":"yes","payment:visa":"yes","payment:diners_club":"yes","payment:mastercard":"yes","payment:american_express":"yes","amenity":"fuel","addr:street_address":"Botevgradsko Shosse","addr:city":"София","addr:postcode":"1839","addr:country":"BG","name":"ОМВ","phone":"+359 87 689 6352","opening_hours":"24/7","brand":"OMV","brand:wikidata":"Q168238"},"coordinates":[42.70958,23.42812]},"tags_mismatch":true},{"osm":{"type":"node","id":9111454045,"tags":{"addr:city":"Враца","addr:country":"BG","addr:housenumber":"12","addr:neighbourhood":"кв. Медковец","addr:postcode":"3000","addr:street":"бул. Втори юни","amenity":"fuel","brand":"OMV","brand:wikidata":"Q168238","fuel:HGV_diesel":"yes","fuel:diesel":"yes","fuel:lpg":"yes","fuel:octane_98":"yes","opening_hours":"24/7","phone":"+359 2 93298010","self_service":"yes"},"wikidata":"Q168238","coordinates":[43.1950873,23.5664462]},"atp":{"id":"gglhaVf3rUWuIpi1P0ce1FbbpSA=","tags":{"ref":"BG.1010.8","atm":"yes","fuel:lpg":"yes","fuel:diesel":"yes","payment:routex":"yes","payment:visa":"yes","payment:diners_club":"yes","payment:mastercard":"yes","payment:american_express":"yes","amenity":"fuel","addr:street_address":"Vtori Yuni Blvd.","addr:city":"Враца","addr:postcode":"3000","addr:country":"BG","name":"ОМВ","phone":"+359 87 690 7752","opening_hours":"24/7","brand":"OMV","brand:wikidata":"Q168238"},"coordinates":[43.1951,23.56628]},"dist":13.547,"tags_mismatch":true},{"osm":{"type":"node","id":9137114354,"tags":{"amenity":"fuel","brand":"OMV","brand:wikidata":"Q168238","opening_hours":"24/7","phone":"+359 2 93298120"},"wikidata":"Q168238","coordinates":[43.2748454,26.9353643]},"atp":{"id":"9WtJcO2plkAogpBfQUtkwyNVDLg=","tags":{"ref":"BG.1120.8","atm":"yes","fuel:lpg":"yes","fuel:diesel":"yes","payment:routex":"yes","payment:visa":"yes","payment:diners_club":"yes","payment:mastercard":"yes","payment:american_express":"yes","amenity":"fuel","addr:street_address":"Simeon Veliki Blvd.","addr:city":"Шумен","addr:postcode":"9700","addr:country":"BG","name":"ОМВ","phone":"+359 87 656 4549","opening_hours":"24/7","brand":"OMV","brand:wikidata":"Q168238"},"coordinates":[43.27507,26.93526]},"dist":26.363,"tags_mismatch":true},{"osm":{"type":"node","id":9587927428,"tags":{"amenity":"fuel","brand":"ОМВ","brand:wikidata":"Q168238","int_name":"OMV","opening_hours":"24/7","phone":"+359 2 93298108","toilets":"yes"},"wikidata":"Q168238","coordinates":[42.7095472,23.4282214]},"atp":{"id":"dNvtOPcMGrmVUe1C15z5Ji4w_5g=","tags":{"ref":"BG.1072.8","atm":"yes","car_wash":"yes","fuel:lpg":"yes","fuel:diesel":"yes","payment:routex":"yes","payment:visa":"yes","payment:diners_club":"yes","payment:mastercard":"yes","payment:american_express":"yes","amenity":"fuel","addr:street_address":"Kuklensko Shosse Str.","addr:city":"Пловдив","addr:postcode":"4000","addr:country":"BG","name":"ОМВ","phone":"+359 87 630 7772","opening_hours":"24/7","brand":"OMV","brand:wikidata":"Q168238"},"coordinates":[42.12917,24.75639]},"tags_mismatch":true},{"osm":{"type":"node","id":10178502676,"tags":{"addr:street":"бул. Цариградско шосе","amenity":"fuel","brand":"OMV","brand:wikidata":"Q168238","compressed_air":"yes","int_name":"OMV","opening_hours":"24/7","phone":"+359 2 93298107","wheelchair":"yes"},"wikidata":"Q168238","coordinates":[42.6616919,23.3773054]},"atp":{"id":"o3MvZy_LfjemTsRshgS2RUqIb_8=","tags":{"ref":"BG.1107.8","atm":"yes","fuel:lpg":"yes","fuel:diesel":"yes","payment:routex":"yes","payment:visa":"yes","payment:diners_club":"yes","payment:mastercard":"yes","payment:american_express":"yes","amenity":"fuel","addr:street_address":"Tsarigradsko Shose Blvd.","addr:city":"София","addr:postcode":"1113","addr:country":"BG","name":"ОМВ","phone":"+359 87 691 4722","opening_hours":"24/7","brand":"OMV","brand:wikidata":"Q168238"},"coordinates":[42.66168,23.3774]},"dist":7.848,"tags_mismatch":true},{"osm":{"type":"node","id":10267722764,"tags":{"amenity":"fuel","brand":"OMV","brand:wikidata":"Q168238","opening_hours":"24/7","phone":"+359 2 93298260"},"wikidata":"Q168238","coordinates":[41.4072797,23.2098078]},"atp":{"id":"UjwYyXRVzvSdTutbkERlDgppTMk=","tags":{"ref":"BG.1601.8","fuel:lpg":"yes","vacuum_cleaner":"yes","amenity":"fuel","addr:street_address":"Tzar Boris Str.","addr:city":"Петрич","addr:postcode":"2850","addr:country":"BG","name":"ОМВ","phone":"+359 87 692 3210","opening_hours":"24/7","brand":"OMV","brand:wikidata":"Q168238"},"coordinates":[41.40801,23.20903]},"dist":103.933,"tags_mismatch":true},{"osm":{"type":"node","id":10754518430,"tags":{"amenity":"fuel","brand":"OMV","brand:wikidata":"Q168238","compressed_air":"yes","nohousenumber":"yes","opening_hours":"24/7","phone":"+359 2 93298006"},"wikidata":"Q168238","coordinates":[42.9573361,24.0248391]},"atp":{"id":"i_F32MZWOGddcTYO1vOGolXw_1M=","tags":{"ref":"BG.1006.8","fuel:lpg":"yes","fuel:diesel":"yes","payment:routex":"yes","payment:visa":"yes","payment:diners_club":"yes","payment:mastercard":"yes","payment:american_express":"yes","amenity":"fuel","addr:street_address":"Hemus MW","addr:city":"Осиковица","addr:postcode":"2164","addr:country":"BG","name":"ОМВ","phone":"+359 87 690 7749","opening_hours":"24/7","brand":"OMV","brand:wikidata":"Q168238"},"coordinates":[42.95709,24.02452]},"dist":37.725,"tags_mismatch":true},{"osm":{"type":"node","id":11329351525,"tags":{"amenity":"fuel","brand":"ОМВ","brand:wikidata":"Q168238","compressed_air":"yes","int_name":"OMV","opening_hours":"24/7","phone":"+359 2 93298068"},"wikidata":"Q168238","coordinates":[42.6509989,23.3576597]},"atp":{"id":"_gzimvpi-whXE22KUB1n0XDamAw=","tags":{"ref":"BG.1068.8","fuel:lpg":"yes","fuel:diesel":"yes","payment:routex":"yes","payment:visa":"yes","payment:diners_club":"yes","payment:mastercard":"yes","payment:american_express":"yes","amenity":"fuel","addr:street_address":"8-mi Dekemvri Str.","addr:city":"София","addr:postcode":"1756","addr:country":"BG","name":"ОМВ","phone":"+359 87 969 1037","opening_hours":"24/7","brand":"OMV","brand:wikidata":"Q168238"},"coordinates":[42.65093,23.35752]},"dist":13.756,"tags_mismatch":true},{"osm":{"type":"node","id":11343276289,"tags":{"amenity":"fuel","brand":"ОМВ","brand:wikidata":"Q168238","check_date":"2022-12-05","compressed_air":"yes","fuel:diesel":"yes","fuel:octane_100":"yes","fuel:octane_95":"yes","int_name":"OMV","opening_hours":"24/7","phone":"+359 2 93298041","self_service":"no"},"wikidata":"Q168238","coordinates":[42.6514376,23.2876012]},"atp":{"id":"l80X_3hTqMcAJtK9fXN70y30iAo=","tags":{"ref":"BG.1041.8","atm":"yes","fuel:lpg":"yes","fuel:diesel":"yes","payment:routex":"yes","payment:visa":"yes","payment:diners_club":"yes","payment:mastercard":"yes","payment:american_express":"yes","amenity":"fuel","addr:street_address":"Okolovrasten Pat Str.","addr:city":"София","addr:postcode":"1404","addr:country":"BG","name":"ОМВ","phone":"+359 87 866 8351","opening_hours":"24/7","brand":"OMV","brand:wikidata":"Q168238"},"coordinates":[42.65153,23.28747]},"dist":14.856,"tags_mismatch":true},{"osm":{"type":"node","id":11535071218,"tags":{"amenity":"fuel","brand":"OMV","brand:wikidata":"Q168238","compressed_air":"yes","fuel:diesel":"yes","fuel:octane_95":"yes","fuel:octane_98":"yes","int_name":"OMV","opening_hours":"24/7","phone":"+359 2 93298078"},"wikidata":"Q168238","coordinates":[42.1921397,25.191369]},"atp":{"id":"8Kbd9KJt7UCyg9FbFP7QdR5YHGw=","tags":{"ref":"BG.1078.8","atm":"yes","fuel:lpg":"yes","fuel:diesel":"yes","payment:routex":"yes","payment:visa":"yes","payment:diners_club":"yes","payment:mastercard":"yes","payment:american_express":"yes","amenity":"fuel","addr:street_address":"Trakiya MW","addr:city":"Оризово","addr:postcode":"6253","addr:country":"BG","name":"ОМВ","phone":"+359 87 617 8160","opening_hours":"24/7","brand":"OMV","brand:wikidata":"Q168238"},"coordinates":[42.19156,25.19136]},"dist":64.464,"tags_mismatch":true},{"osm":{"type":"way","id":28645143,"tags":{"addr:city":"Кърджали","addr:country":"BG","addr:postcode":"6600","addr:street":"Беломорски","amenity":"fuel","brand":"OMV","brand:wikidata":"Q168238","building":"yes","building:levels":"1","opening_hours":"24/7","phone":"+359 87 664 7810","source":"bgtopomaps"},"wikidata":"Q168238","coordinates":[41.6296491,25.3777597]},"atp":{"id":"qZ_mU7YvpKiV2rDG2vq48qzEFtI=","tags":{"ref":"BG.1024.8","atm":"yes","fuel:lpg":"yes","fuel:diesel":"yes","payment:routex":"yes","payment:visa":"yes","payment:diners_club":"yes","payment:mastercard":"yes","payment:american_express":"yes","amenity":"fuel","addr:street_address":"Belomorski Blvd.","addr:city":"Кърджали","addr:postcode":"6600","addr:country":"BG","name":"ОМВ","phone":"+359 87 664 7810","opening_hours":"24/7","brand":"OMV","brand:wikidata":"Q168238"},"coordinates":[41.62982,25.37768]},"dist":20.125,"tags_mismatch":true},{"osm":{"type":"way","id":40199919,"tags":{"amenity":"fuel","brand":"OMV","brand:wikidata":"Q168238","building":"yes","compressed_air":"yes","layer":"1","opening_hours":"24/7","phone":"+359 2 93298009","wheelchair":"yes"},"wikidata":"Q168238","coordinates":[42.5282878,27.4523739]},"atp":{"id":"24-swpP3hD7Cqby0bdBG98G51qU=","tags":{"ref":"BG.1009.8","car_wash":"yes","fuel:lpg":"yes","vacuum_cleaner":"yes","fuel:diesel":"yes","payment:routex":"yes","payment:visa":"yes","payment:diners_club":"yes","payment:mastercard":"yes","payment:american_express":"yes","amenity":"fuel","addr:street_address":"Transportna Str.","addr:city":"Бургас","addr:postcode":"8000","addr:country":"BG","name":"ОМВ","phone":"+359 87 782 1097","opening_hours":"24/7","brand":"OMV","brand:wikidata":"Q168238"},"coordinates":[42.52816,27.45284]},"dist":40.752,"tags_mismatch":true},{"osm":{"type":"way","id":40635903,"tags":{"amenity":"fuel","brand":"OMV","brand:wikidata":"Q168238","building":"yes","compressed_air":"yes","layer":"1","opening_hours":"24/7","phone":"+359 2 93298114","wheelchair":"yes"},"wikidata":"Q168238","coordinates":[42.516088,27.4611455]},"atp":{"id":"xxV6E3kLWKPu8ZezAVY3eqbxv24=","tags":{"ref":"BG.1114.8","atm":"yes","fuel:cng":"yes","car_wash":"yes","fuel:lpg":"yes","vacuum_cleaner":"yes","fuel:diesel":"yes","payment:routex":"yes","payment:visa":"yes","payment:diners_club":"yes","payment:mastercard":"yes","payment:american_express":"yes","amenity":"fuel","addr:street_address":"P. R. Slaveykov r.c.","addr:city":"Бургас","addr:postcode":"8000","addr:country":"BG","name":"ОМВ","phone":"+359 87 904 9751","opening_hours":"24/7","brand":"OMV","brand:wikidata":"Q168238"},"coordinates":[42.5159,27.46141]},"dist":30.116,"tags_mismatch":true},{"osm":{"type":"way","id":68607569,"tags":{"amenity":"fuel","brand":"OMV","brand:wikidata":"Q168238","opening_hours":"24/7","phone":"+359 2 93298117"},"wikidata":"Q168238","coordinates":[42.4188548,25.6066566]},"atp":{"id":"14r8Cdsr56KwF-o03qzlmhNlPUs=","tags":{"ref":"BG.1117.8","atm":"yes","fuel:lpg":"yes","fuel:diesel":"yes","payment:routex":"yes","payment:visa":"yes","payment:diners_club":"yes","payment:mastercard":"yes","payment:american_express":"yes","amenity":"fuel","addr:street_address":"Tri Chuchura qu.","addr:city":"Стара Загора","addr:postcode":"6000","addr:country":"BG","name":"ОМВ","phone":"+359 87 626 5934","opening_hours":"24/7","brand":"OMV","brand:wikidata":"Q168238"},"coordinates":[42.41889,25.60664]},"dist":4.144,"tags_mismatch":true},{"osm":{"type":"way","id":94400011,"tags":{"amenity":"fuel","brand":"OMV","brand:wikidata":"Q168238","fuel:diesel":"yes","fuel:lpg":"yes","fuel:octane_100":"yes","fuel:octane_95":"yes","opening_hours":"24/7","phone":"+359 2 93298034"},"wikidata":"Q168238","coordinates":[42.1497182,24.7778078]},"atp":{"id":"ryeFsD0IKpHNLJax5992Hsj4ZdQ=","tags":{"ref":"BG.1034.8","atm":"yes","fuel:lpg":"yes","fuel:diesel":"yes","payment:routex":"yes","payment:visa":"yes","payment:diners_club":"yes","payment:mastercard":"yes","payment:american_express":"yes","amenity":"fuel","addr:street_address":"Shesti Septemvri Blvd.","addr:city":"Пловдив","addr:postcode":"4000","addr:country":"BG","name":"ОМВ","phone":"+359 87 660 3593","opening_hours":"24/7","brand":"OMV","brand:wikidata":"Q168238"},"coordinates":[42.1494,24.77762]},"dist":38.621,"tags_mismatch":true},{"osm":{"type":"way","id":100888415,"tags":{"amenity":"fuel","brand":"OMV","brand:wikidata":"Q168238","fuel:diesel":"yes","fuel:lpg":"yes","fuel:octane_100":"yes","fuel:octane_95":"yes","fuel:octane_98":"no","opening_hours":"24/7","phone":"+359 2 93298072"},"wikidata":"Q168238","coordinates":[42.1295104,24.7561861]},"atp":{"id":"aKfZMBV6Kw50YzFyDao-Pl_7pH4=","tags":{"ref":"BG.1016.8","atm":"yes","car_wash":"yes","fuel:lpg":"yes","vacuum_cleaner":"yes","fuel:diesel":"yes","payment:routex":"yes","payment:visa":"yes","payment:diners_club":"yes","payment:mastercard":"yes","payment:american_express":"yes","amenity":"fuel","addr:street_address":"Tsarigradsko Shosse Blvd.","addr:city":"София","addr:postcode":"1784","addr:country":"BG","name":"ОМВ","phone":"+359 87 679 6383","opening_hours":"24/7","brand":"OMV","brand:wikidata":"Q168238"},"coordinates":[42.65704,23.38586]},"tags_mismatch":true},{"osm":{"type":"way","id":115022774,"tags":{"amenity":"fuel","brand":"OMV","brand:wikidata":"Q168238","fuel:diesel":"yes","fuel:lpg":"yes","fuel:octane_100":"yes","fuel:octane_95":"yes","fuel:octane_98":"yes","opening_hours":"24/7","phone":"+359 2 93298212"},"wikidata":"Q168238","coordinates":[42.158279,24.7343713]},"atp":{"id":"HlqBJvq1kNEp5seiPKtIVUCcXRM=","tags":{"ref":"BG.1212.8","atm":"yes","fuel:lpg":"yes","fuel:diesel":"yes","payment:routex":"yes","payment:visa":"yes","payment:diners_club":"yes","payment:mastercard":"yes","payment:american_express":"yes","amenity":"fuel","addr:street_address":"Bulgaria Blvd.","addr:city":"Пловдив","addr:postcode":"4000","addr:country":"BG","name":"ОМВ","phone":"+359 87 719 6349","opening_hours":"24/7","brand":"OMV","brand:wikidata":"Q168238"},"coordinates":[42.15807,24.73444]},"dist":23.92,"tags_mismatch":true},{"osm":{"type":"way","id":154496421,"tags":{"amenity":"fuel","brand":"OMV","brand:wikidata":"Q168238","building":"yes","building:levels":"1","fuel:diesel":"yes","fuel:lpg":"yes","fuel:octane_95":"yes","fuel:octane_98":"yes","opening_hours":"24/7","phone":"+359 2 93298014","wheelchair":"yes"},"wikidata":"Q168238","coordinates":[43.8300471,25.97336]},"atp":{"id":"_IfuIJHSgKJxk2AzO0DSSS-GVxw=","tags":{"ref":"BG.1014.8","atm":"yes","fuel:lpg":"yes","fuel:diesel":"yes","payment:routex":"yes","payment:visa":"yes","payment:diners_club":"yes","payment:mastercard":"yes","payment:american_express":"yes","amenity":"fuel","addr:street_address":"Hristo Botev Blvd.","addr:city":"Русе","addr:postcode":"7000","addr:country":"BG","name":"ОМВ","phone":"+359 87 690 7714","opening_hours":"24/7","brand":"OMV","brand:wikidata":"Q168238"},"coordinates":[43.83,25.97345]},"dist":8.919,"tags_mismatch":true},{"osm":{"type":"way","id":166110289,"tags":{"addr:street":"бул. Д-р Г. М. Димитров","amenity":"fuel","brand":"ОМВ","brand:wikidata":"Q168238","building":"yes","compressed_air":"yes","int_name":"OMV","opening_hours":"24/7","phone":"+359 2 93298028","wheelchair":"limited"},"wikidata":"Q168238","coordinates":[42.663267,23.358555]},"atp":{"id":"JO4xJZ0vKes_wEZIz5IL_xNSvSU=","tags":{"ref":"BG.1028.8","atm":"yes","car_wash":"yes","fuel:lpg":"yes","vacuum_cleaner":"yes","fuel:diesel":"yes","payment:routex":"yes","payment:visa":"yes","payment:diners_club":"yes","payment:mastercard":"yes","payment:american_express":"yes","amenity":"fuel","addr:street_address":"Dr. G. M. Dimitrov Blvd.","addr:city":"София","addr:postcode":"1756","addr:country":"BG","name":"ОМВ","phone":"+359 87 694 5114","opening_hours":"24/7","brand":"OMV","brand:wikidata":"Q168238"},"coordinates":[42.66324,23.35833]},"dist":18.641,"tags_mismatch":true},{"osm":{"type":"way","id":221303767,"tags":{"amenity":"fuel","brand":"ОМВ","brand:wikidata":"Q168238","building":"roof","int_name":"OMV","opening_hours":"24/7","phone":"+359 2 93298002"},"wikidata":"Q168238","coordinates":[42.6288603,23.3449766]},"atp":{"id":"cTkvwSZceV4qWwO3j4ttKLWGUQo=","tags":{"ref":"BG.1002.8","atm":"yes","fuel:lpg":"yes","vacuum_cleaner":"yes","fuel:diesel":"yes","payment:routex":"yes","payment:visa":"yes","payment:diners_club":"yes","payment:mastercard":"yes","payment:american_express":"yes","amenity":"fuel","addr:street_address":"Okolovrasten Pat Str.","addr:city":"София","addr:postcode":"1797","addr:country":"BG","name":"ОМВ","phone":"+359 87 866 8565","opening_hours":"24/7","brand":"OMV","brand:wikidata":"Q168238"},"coordinates":[42.62885,23.34503]},"dist":4.516,"tags_mismatch":true},{"osm":{"type":"way","id":222848324,"tags":{"amenity":"fuel","brand":"ОМВ","brand:wikidata":"Q168238","fuel:diesel":"yes","fuel:lpg":"yes","fuel:octane_95":"yes","opening_hours":"24/7","phone":"+359 2 93298021"},"wikidata":"Q168238","coordinates":[43.0737042,25.6158065]},"atp":{"id":"WU7FyW-iQn6VaGSKhZU53570fFs=","tags":{"ref":"BG.1021.8","fuel:lpg":"yes","fuel:diesel":"yes","payment:routex":"yes","payment:visa":"yes","payment:diners_club":"yes","payment:mastercard":"yes","payment:american_express":"yes","amenity":"fuel","addr:street_address":"Magistralna Str.","addr:city":"Велико Търново","addr:postcode":"5000","addr:country":"BG","name":"ОМВ","phone":"+359 87 866 8521","opening_hours":"24/7","brand":"OMV","brand:wikidata":"Q168238"},"coordinates":[43.07364,25.61575]},"dist":8.487,"tags_mismatch":true},{"osm":{"type":"way","id":222953249,"tags":{"addr:city":"Велико Търново","amenity":"fuel","brand":"OMV","brand:wikidata":"Q168238","compressed_air":"yes","opening_hours":"24/7","phone":"+359 2 93298217"},"wikidata":"Q168238","coordinates":[43.0730269,25.6170905]},"atp":{"id":"g1I5_jJ15436V3I1m49jFxbUTR4=","tags":{"ref":"BG.1217.8","car_wash":"yes","fuel:lpg":"yes","fuel:diesel":"yes","payment:routex":"yes","payment:visa":"yes","payment:diners_club":"yes","payment:mastercard":"yes","payment:american_express":"yes","amenity":"fuel","addr:street_address":"Magistralna Str.","addr:city":"Велико Търново","addr:postcode":"5000","addr:country":"BG","name":"ОМВ","phone":"+359 87 624 9945","opening_hours":"24/7","brand":"OMV","brand:wikidata":"Q168238"},"coordinates":[43.07306,25.61722]},"dist":11.144,"tags_mismatch":true},{"osm":{"type":"way","id":235066466,"tags":{"amenity":"fuel","brand":"ОМВ","brand:wikidata":"Q168238","building":"commercial","compressed_air":"yes","opening_hours":"24/7","phone":"+359 2 93298121"},"wikidata":"Q168238","coordinates":[43.2195931,27.9270974]},"atp":{"id":"IeB8cL5SVYRtuS4k7CG7qf-RGNg=","tags":{"ref":"BG.1121.8","atm":"yes","fuel:lpg":"yes","fuel:diesel":"yes","payment:routex":"yes","payment:visa":"yes","payment:diners_club":"yes","payment:mastercard":"yes","payment:american_express":"yes","amenity":"fuel","addr:street_address":"Sveta Irina Str.","addr:city":"Варна","addr:postcode":"9010","addr:country":"BG","name":"ОМВ","phone":"+359 87 664 5584","opening_hours":"24/7","brand":"OMV","brand:wikidata":"Q168238"},"coordinates":[43.21956,27.92707]},"dist":4.298,"tags_mismatch":true},{"osm":{"type":"way","id":238300413,"tags":{"amenity":"fuel","brand":"OMV","brand:wikidata":"Q168238","building":"yes","layer":"1","opening_hours":"24/7","phone":"+359 2 93298015","roof:colour":"maroon","roof:height":"3","roof:material":"roof_tiles","roof:shape":"hipped"},"wikidata":"Q168238","coordinates":[43.8335533,25.9541134]},"atp":{"id":"xUXjvMslLIq5L14iPKukrHLPKKE=","tags":{"ref":"BG.1015.8","atm":"yes","fuel:lpg":"yes","fuel:diesel":"yes","payment:routex":"yes","payment:visa":"yes","payment:diners_club":"yes","payment:mastercard":"yes","payment:american_express":"yes","amenity":"fuel","addr:street_address":"Midiya Enos Blvd.","addr:city":"Русе","addr:postcode":"7000","addr:country":"BG","name":"ОМВ","phone":"+359 87 690 7793","opening_hours":"24/7","brand":"OMV","brand:wikidata":"Q168238"},"coordinates":[43.83352,25.95413]},"dist":3.935,"tags_mismatch":true},{"osm":{"type":"way","id":252133650,"tags":{"amenity":"fuel","brand":"OMV","brand:wikidata":"Q168238","building":"commercial","fuel:biodiesel":"no","fuel:diesel":"yes","fuel:ethanol":"no","fuel:lpg":"yes","fuel:octane_95":"yes","fuel:octane_98":"yes","opening_hours":"24/7","phone":"+359 2 93298040"},"wikidata":"Q168238","coordinates":[43.5701706,27.8375828]},"atp":{"id":"lOtw2sqBa1kOTLgK1AFtKO3t6Jc=","tags":{"ref":"BG.1040.8","atm":"yes","fuel:lpg":"yes","fuel:diesel":"yes","payment:routex":"yes","payment:visa":"yes","payment:diners_club":"yes","payment:mastercard":"yes","payment:american_express":"yes","amenity":"fuel","addr:street_address":"Gotse Delchev Str.","addr:city":"Добрич","addr:postcode":"9300","addr:country":"BG","name":"ОМВ","phone":"+359 87 692 9840","opening_hours":"24/7","brand":"OMV","brand:wikidata":"Q168238"},"coordinates":[43.57028,27.8375]},"dist":13.874,"tags_mismatch":true},{"osm":{"type":"way","id":292060644,"tags":{"addr:street":"Димитровградско шосе","amenity":"fuel","brand":"ОМВ","brand:wikidata":"Q168238","building":"yes","opening_hours":"24/7","phone":"+359 2 93298126"},"wikidata":"Q168238","coordinates":[41.9522557,25.5574013]},"atp":{"id":"4ipqvkDlbufEMX3OywnbKREHU90=","tags":{"ref":"BG.1126.8","atm":"yes","fuel:lpg":"yes","fuel:diesel":"yes","payment:routex":"yes","payment:visa":"yes","payment:diners_club":"yes","payment:mastercard":"yes","payment:american_express":"yes","amenity":"fuel","addr:street_address":"Dimitrovgradsko Shosse Str.","addr:city":"Хасково","addr:postcode":"6300","addr:country":"BG","name":"ОМВ","phone":"+359 87 662 3652","opening_hours":"24/7","brand":"OMV","brand:wikidata":"Q168238"},"coordinates":[41.95209,25.55736]},"dist":18.739,"tags_mismatch":true},{"osm":{"type":"way","id":321479873,"tags":{"amenity":"fuel","brand":"ОМВ","brand:wikidata":"Q168238","building":"yes","building:levels":"1","int_name":"OMV","opening_hours":"24/7","phone":"+359 2 93298210"},"wikidata":"Q168238","coordinates":[42.7230847,23.3068469]},"atp":{"id":"ifB5vBU1ADD2i8HrhltCiPlS4zw=","tags":{"ref":"BG.1210.8","atm":"yes","fuel:lpg":"yes","fuel:diesel":"yes","payment:routex":"yes","payment:visa":"yes","payment:diners_club":"yes","payment:mastercard":"yes","payment:american_express":"yes","amenity":"fuel","addr:street_address":"Lomsko Shosse","addr:city":"София","addr:postcode":"1220","addr:country":"BG","name":"ОМВ","phone":"+359 87 730 8639","opening_hours":"24/7","brand":"OMV","brand:wikidata":"Q168238"},"coordinates":[42.72291,23.30678]},"dist":20.18,"tags_mismatch":true},{"osm":{"type":"way","id":359263606,"tags":{"amenity":"fuel","brand":"OMV","brand:wikidata":"Q168238","check_date":"2024-05-25","compressed_air":"yes","fuel:diesel":"yes","fuel:octane_95":"yes","opening_hours":"24/7","payment:cash":"yes","payment:credit_cards":"yes","payment:debit_cards":"yes","phone":"+359 2 93298012","wheelchair":"limited"},"wikidata":"Q168238","coordinates":[43.4238255,24.600701]},"atp":{"id":"-9sN-We0MzYMzXyqmqc1lSLtUE4=","tags":{"ref":"BG.1012.8","atm":"yes","fuel:lpg":"yes","fuel:diesel":"yes","payment:routex":"yes","payment:visa":"yes","payment:diners_club":"yes","payment:mastercard":"yes","payment:american_express":"yes","amenity":"fuel","addr:street_address":"Storgoziya r.c.","addr:city":"Плевен","addr:postcode":"5800","addr:country":"BG","name":"ОМВ","phone":"+359 87 619 7596","opening_hours":"24/7","brand":"OMV","brand:wikidata":"Q168238"},"coordinates":[43.42398,24.60045]},"dist":26.571,"tags_mismatch":true},{"osm":{"type":"way","id":364042288,"tags":{"amenity":"fuel","brand":"ОМВ","brand:wikidata":"Q168238","building":"yes","int_name":"OMV","opening_hours":"24/7","phone":"+359 2 93298211","source":"Bing"},"wikidata":"Q168238","coordinates":[42.7070178,23.4107723]},"atp":{"id":"0Giqowe0SGuzJ1Ae96tEON6h8us=","tags":{"ref":"BG.1211.8","atm":"yes","fuel:lpg":"yes","fuel:diesel":"yes","payment:routex":"yes","payment:visa":"yes","payment:diners_club":"yes","payment:mastercard":"yes","payment:american_express":"yes","amenity":"fuel","addr:street_address":"Botevgradsko Shosse","addr:city":"София","addr:postcode":"1517","addr:country":"BG","name":"ОМВ","phone":"+359 87 693 8402","opening_hours":"24/7","brand":"OMV","brand:wikidata":"Q168238"},"coordinates":[42.7071,23.41056]},"dist":19.608,"tags_mismatch":true},{"osm":{"type":"way","id":365090828,"tags":{"amenity":"fuel","brand":"ОМВ","brand:wikidata":"Q168238","building":"yes","fuel:diesel":"yes","fuel:lpg":"yes","fuel:octane_95":"yes","int_name":"OMV","opening_hours":"24/7","phone":"+359 2 93298101","wheelchair":"yes"},"wikidata":"Q168238","coordinates":[42.7078184,23.3415944]},"atp":{"id":"zyE6WBK3TCGS5IPECPalk-9VTWM=","tags":{"ref":"BG.1101.8","atm":"yes","fuel:lpg":"yes","fuel:diesel":"yes","payment:routex":"yes","payment:visa":"yes","payment:diners_club":"yes","payment:mastercard":"yes","payment:american_express":"yes","amenity":"fuel","addr:street_address":"Rezbarska Str.","addr:city":"София","addr:postcode":"1510","addr:country":"BG","name":"ОМВ","phone":"+359 87 749 5836","opening_hours":"24/7","brand":"OMV","brand:wikidata":"Q168238"},"coordinates":[42.70792,23.34167]},"dist":12.876,"tags_mismatch":true},{"osm":{"type":"way","id":464062270,"tags":{"addr:city":"София","addr:street":"бул. Владимир Вазов","amenity":"fuel","brand":"ОМВ","brand:wikidata":"Q168238","check_date":"2023-06-18","fuel:diesel":"yes","fuel:lpg":"yes","fuel:octane_95":"yes","int_name":"OMV","opening_hours":"24/7","payment:mastercard":"yes","payment:visa":"yes","phone":"+359 2 93298216","wheelchair":"yes"},"wikidata":"Q168238","coordinates":[42.7017795,23.3511091]},"atp":{"id":"8ALoL-QhmdghUbTehmAjc8n2xxQ=","tags":{"ref":"BG.1216.8","fuel:lpg":"yes","fuel:diesel":"yes","payment:routex":"yes","payment:visa":"yes","payment:diners_club":"yes","payment:mastercard":"yes","payment:american_express":"yes","amenity":"fuel","addr:street_address":"Vladimir Vazov Blvd.","addr:city":"София","addr:postcode":"1505","addr:country":"BG","name":"ОМВ","phone":"+359 87 702 9411","opening_hours":"24/7","brand":"OMV","brand:wikidata":"Q168238"},"coordinates":[42.70181,23.35125]},"dist":12.003,"tags_mismatch":true},{"osm":{"type":"way","id":506785603,"tags":{"addr:city":"София","addr:housenumber":"83","addr:postcode":"1618","addr:street":"бул. Братя Бъкстон","amenity":"fuel","brand":"ОМВ","brand:wikidata":"Q168238","compressed_air":"yes","fuel:diesel":"yes","fuel:lpg":"yes","fuel:octane_95":"yes","int_name":"OMV","opening_hours":"24/7","phone":"+359 2 93298214"},"wikidata":"Q168238","coordinates":[42.6580831,23.2717839]},"atp":{"id":"BhfUeOJhXFEZiOyE-S1whpEOSR8=","tags":{"ref":"BG.1214.8","atm":"yes","fuel:lpg":"yes","fuel:diesel":"yes","payment:routex":"yes","payment:visa":"yes","payment:diners_club":"yes","payment:mastercard":"yes","payment:american_express":"yes","amenity":"fuel","addr:street_address":"Bratya Bakston Blvd.","addr:city":"София","addr:postcode":"1618","addr:country":"BG","name":"ОМВ","phone":"+359 87 956 4812","opening_hours":"24/7","brand":"OMV","brand:wikidata":"Q168238"},"coordinates":[42.65824,23.27166]},"dist":20.175,"tags_mismatch":true},{"osm":{"type":"way","id":538552718,"tags":{"amenity":"fuel","brand":"ОМВ","brand:wikidata":"Q168238","int_name":"OMV","opening_hours":"24/7","phone":"+359 2 93298001"},"wikidata":"Q168238","coordinates":[42.7327259,23.3142193]},"atp":{"id":"pH54g6Bns6yNIWz19n4TmyzA3yk=","tags":{"ref":"BG.1001.8","atm":"yes","car_wash":"yes","fuel:lpg":"yes","vacuum_cleaner":"yes","fuel:diesel":"yes","payment:omv":"yes","payment:routex":"yes","payment:visa":"yes","payment:diners_club":"yes","payment:mastercard":"yes","payment:american_express":"yes","amenity":"fuel","addr:street_address":"Rozhen Blvd.","addr:city":"София","addr:postcode":"1220","addr:country":"BG","name":"ОМВ","phone":"+359 87 657 0338","opening_hours":"24/7","brand":"OMV","brand:wikidata":"Q168238"},"coordinates":[42.73249,23.3139]},"dist":36.989,"tags_mismatch":true},{"osm":{"type":"way","id":655421823,"tags":{"amenity":"fuel","brand":"ОМВ","brand:wikidata":"Q168238","building":"retail","building:levels":"1","compressed_air":"yes","ele":"2.1","opening_hours":"24/7","phone":"+359 2 93298122","roof:levels":"0","roof:shape":"flat"},"wikidata":"Q168238","coordinates":[43.1995108,27.9112249]},"atp":{"id":"s5e-Y9KxORzjNS-7q5KovailIkg=","tags":{"ref":"BG.1122.8","atm":"yes","fuel:lpg":"yes","fuel:diesel":"yes","payment:routex":"yes","payment:visa":"yes","payment:diners_club":"yes","payment:mastercard":"yes","payment:american_express":"yes","amenity":"fuel","addr:street_address":"Dunav Str.","addr:city":"Варна","addr:postcode":"9000","addr:country":"BG","name":"ОМВ","phone":"+359 87 794 7489","opening_hours":"24/7","brand":"OMV","brand:wikidata":"Q168238"},"coordinates":[43.19954,27.91147]},"dist":20.131,"tags_mismatch":true},{"osm":{"type":"way","id":669833056,"tags":{"addr:city":"София","addr:street":"бул. Царица Йоанна","amenity":"fuel","branch":"Люлин","brand":"ОМВ","brand:wikidata":"Q168238","compressed_air":"yes","fuel:1_25":"no","fuel:1_50":"no","fuel:GTL_diesel":"no","fuel:HGV_diesel":"no","fuel:biodiesel":"yes","fuel:biogas":"no","fuel:cng":"no","fuel:diesel":"yes","fuel:e85":"yes","fuel:electricity":"no","fuel:lpg":"yes","fuel:octane_100":"yes","fuel:octane_91":"no","fuel:octane_95":"no","fuel:octane_98":"yes","int_name":"OMV","opening_hours":"24/7","phone":"+359 2 93298013"},"wikidata":"Q168238","coordinates":[42.7108082,23.2722217]},"atp":{"id":"WOQ9h6soxw8azh-T497ZDReEnz0=","tags":{"ref":"BG.1013.8","atm":"yes","car_wash":"yes","fuel:lpg":"yes","vacuum_cleaner":"yes","fuel:diesel":"yes","payment:routex":"yes","payment:visa":"yes","payment:diners_club":"yes","payment:mastercard":"yes","payment:american_express":"yes","amenity":"fuel","addr:street_address":"Tsaritsa Yoana Blvd.","addr:city":"София","addr:postcode":"1335","addr:country":"BG","name":"ОМВ","phone":"+359 87 785 4355","opening_hours":"24/7","brand":"OMV","brand:wikidata":"Q168238"},"coordinates":[42.71063,23.27221]},"dist":19.838,"tags_mismatch":true},{"osm":{"type":"way","id":672943898,"tags":{"amenity":"fuel","brand":"ОМВ","brand:wikidata":"Q168238","building":"roof","compressed_air":"yes","int_name":"OMV","opening_hours":"24/7","phone":"+359 2 93298045"},"wikidata":"Q168238","coordinates":[42.6512367,23.3795809]},"atp":{"id":"N_IXvZFmW3HFqO8OYpJa4Z4utnU=","tags":{"ref":"BG.1045.8","atm":"yes","car_wash":"yes","fuel:lpg":"yes","vacuum_cleaner":"yes","fuel:diesel":"yes","payment:routex":"yes","payment:visa":"yes","payment:diners_club":"yes","payment:mastercard":"yes","payment:american_express":"yes","amenity":"fuel","addr:street_address":"Aleksandar Malinov Blvd.","addr:city":"София","addr:postcode":"1729","addr:country":"BG","name":"ОМВ","phone":"+359 87 866 8734","opening_hours":"24/7","brand":"OMV","brand:wikidata":"Q168238"},"coordinates":[42.65127,23.37949]},"dist":8.305,"tags_mismatch":true},{"osm":{"type":"way","id":674082866,"tags":{"addr:street":"бул. Цариградско шосе","amenity":"fuel","brand":"ОМВ","brand:wikidata":"Q168238","int_name":"OMV","internet_access":"wlan","opening_hours":"24/7","phone":"+359 2 93298109"},"wikidata":"Q168238","coordinates":[42.6415727,23.4046368]},"atp":{"id":"_D6Xqm6JmbX8rA8koDJPeamTDgA=","tags":{"ref":"BG.1109.8","atm":"yes","fuel:cng":"yes","car_wash":"yes","fuel:lpg":"yes","vacuum_cleaner":"yes","fuel:diesel":"yes","payment:routex":"yes","payment:visa":"yes","payment:diners_club":"yes","payment:mastercard":"yes","payment:american_express":"yes","amenity":"fuel","addr:street_address":"Tsarigradsko Shosse Blvd.","addr:city":"София","addr:postcode":"1784","addr:country":"BG","name":"ОМВ","phone":"+359 87 769 4580","opening_hours":"24/7","brand":"OMV","brand:wikidata":"Q168238"},"coordinates":[42.64167,23.40421]},"dist":36.548,"tags_mismatch":true},{"osm":{"type":"way","id":700495231,"tags":{"amenity":"fuel","branch":"Красна поляна","brand":"ОМВ","brand:wikidata":"Q168238","int_name":"OMV","opening_hours":"24/7","phone":"+359 2 93298106"},"wikidata":"Q168238","coordinates":[42.6894381,23.2767736]},"atp":{"id":"tQxWx2k4JuJCErpJlxwinJrz35A=","tags":{"ref":"BG.1106.8","atm":"yes","fuel:lpg":"yes","fuel:diesel":"yes","payment:routex":"yes","payment:visa":"yes","payment:diners_club":"yes","payment:mastercard":"yes","payment:american_express":"yes","amenity":"fuel","addr:street_address":"Nikola Mushanov Blvd.","addr:city":"София","addr:postcode":"1001","addr:country":"BG","name":"ОМВ","phone":"+359 87 760 3794","opening_hours":"24/7","brand":"OMV","brand:wikidata":"Q168238"},"coordinates":[42.68958,23.27669]},"dist":17.194,"tags_mismatch":true},{"osm":{"type":"way","id":724502927,"tags":{"addr:city":"София","addr:street":"бул. Цариградско шосе","amenity":"fuel","brand":"ОМВ","brand:wikidata":"Q168238","int_name":"OMV","opening_hours":"24/7","phone":"+359 2 93298016","shop":"kiosk"},"wikidata":"Q168238","coordinates":[42.6569541,23.3858547]},"atp":{"id":"ZYipPKhyYISbmZcBdkpbC-kik5g=","tags":{"ref":"BG.1103.8","atm":"yes","fuel:diesel":"yes","payment:routex":"yes","payment:visa":"yes","payment:diners_club":"yes","payment:mastercard":"yes","payment:american_express":"yes","amenity":"fuel","addr:street_address":"Samokovsko Shosse St.","addr:city":"София","addr:postcode":"1138","addr:country":"BG","name":"ОМВ","phone":"+359 87 858 6618","opening_hours":"24/7","brand":"OMV","brand:wikidata":"Q168238"},"coordinates":[42.62146,23.40391]},"tags_mismatch":true},{"osm":{"type":"way","id":726734763,"tags":{"addr:street":"Бойчо Бойчев","amenity":"fuel","brand":"ОМВ","brand:wikidata":"Q168238","fuel:diesel":"yes","fuel:lpg":"yes","fuel:octane_95":"yes","int_name":"OMV","opening_hours":"24/7","phone":"+359 2 93298213"},"wikidata":"Q168238","coordinates":[42.6822606,23.2430276]},"atp":{"id":"HyqGSMlpsPbGG1ihYFY5VQ_2OPk=","tags":{"ref":"BG.1213.8","atm":"yes","fuel:lpg":"yes","fuel:diesel":"yes","payment:routex":"yes","payment:visa":"yes","payment:diners_club":"yes","payment:mastercard":"yes","payment:american_express":"yes","amenity":"fuel","addr:street_address":"Boycho Boychev Str.","addr:city":"София","addr:postcode":"1632","addr:country":"BG","name":"ОМВ","phone":"+359 87 702 4320","opening_hours":"24/7","brand":"OMV","brand:wikidata":"Q168238"},"coordinates":[42.68244,23.24291]},"dist":22.144,"tags_mismatch":true},{"osm":{"type":"way","id":739490327,"tags":{"addr:city":"София","addr:housenumber":"86","addr:street":"Самоковско шосе","amenity":"fuel","branch":"ОМВ Самоковско Шосе","brand":"ОМВ","brand:wikidata":"Q168238","fuel:diesel":"yes","fuel:lpg":"yes","fuel:octane_95":"yes","int_name":"OMV","opening_hours":"24/7","payment:cash":"yes","payment:diners_club":"yes","payment:maestro":"yes","payment:mastercard":"yes","payment:visa":"yes","phone":"+359 2 93298103","wheelchair":"yes"},"wikidata":"Q168238","coordinates":[42.6214072,23.4040089]},"atp":{"id":"yqrbLebXN31BG0Hem94vp6WBDwQ=","tags":{"ref":"BG.1074.8","fuel:diesel":"yes","payment:routex":"yes","payment:visa":"yes","payment:diners_club":"yes","payment:mastercard":"yes","payment:american_express":"yes","amenity":"fuel","addr:street_address":"Slatinska Str.","addr:city":"София","addr:postcode":"1003","addr:country":"BG","name":"ОМВ","phone":"+359 87 630 7774","opening_hours":"24/7","brand":"OMV","brand:wikidata":"Q168238"},"coordinates":[42.69093,23.36995]},"tags_mismatch":true},{"osm":{"type":"way","id":745128892,"tags":{"addr:street":"бул. Сливница","amenity":"fuel","brand":"ОМВ","brand:wikidata":"Q168238","fuel:lpg":"yes","fuel:octane_95":"yes","int_name":"OMV","opening_hours":"24/7","phone":"+359 2 93298104"},"wikidata":"Q168238","coordinates":[42.7161284,23.2822653]},"atp":{"id":"LvhCRpPW4GczkwiNOiNLtpMogBM=","tags":{"ref":"BG.1104.8","atm":"yes","fuel:lpg":"yes","fuel:diesel":"yes","payment:routex":"yes","payment:visa":"yes","payment:diners_club":"yes","payment:mastercard":"yes","payment:american_express":"yes","amenity":"fuel","addr:street_address":"Slivnitsa Blvd.","addr:city":"София","addr:postcode":"1303","addr:country":"BG","name":"ОМВ","phone":"+359 87 845 8478","opening_hours":"24/7","brand":"OMV","brand:wikidata":"Q168238"},"coordinates":[42.71614,23.28222]},"dist":3.919,"tags_mismatch":true},{"osm":{"type":"way","id":858391721,"tags":{"addr:city":"София","addr:housenumber":"9","addr:street":"Слатинска","amenity":"fuel","brand":"ОМВ","brand:wikidata":"Q168238","compressed_air":"yes","int_name":"OMV","opening_hours":"24/7","phone":"+359 2 93298074"},"wikidata":"Q168238","coordinates":[42.6909395,23.3699966]},"atp":{"id":"crzCWz7_Lr_4CluWCK--RyzkbEQ=","tags":{"ref":"BG.1127.8","atm":"yes","fuel:lpg":"yes","fuel:diesel":"yes","payment:routex":"yes","payment:visa":"yes","payment:diners_club":"yes","payment:mastercard":"yes","payment:american_express":"yes","amenity":"fuel","addr:street_address":"Popovitsa, Е-80 Main Road","addr:city":"Поповица","addr:postcode":"4127","addr:country":"BG","name":"ОМВ","phone":"+359 87 784 5084","opening_hours":"24/7","brand":"OMV","brand:wikidata":"Q168238"},"coordinates":[42.13472,25.06583]},"tags_mismatch":true},{"osm":{"type":"way","id":904459287,"tags":{"amenity":"fuel","brand":"OMV","brand:wikidata":"Q168238","landuse":"commercial","opening_hours":"24/7","phone":"+359 2 93298082"},"wikidata":"Q168238","coordinates":[42.0301492,23.0572837]},"atp":{"id":"0KTReVpGKZ_ZuBx8h2EcrrTV2mk=","tags":{"ref":"BG.1082.8","atm":"yes","fuel:lpg":"yes","fuel:diesel":"yes","payment:routex":"yes","payment:visa":"yes","payment:diners_club":"yes","payment:mastercard":"yes","payment:american_express":"yes","amenity":"fuel","addr:street_address":"Road I-1 /Е79/","addr:city":"Благоевград","addr:postcode":"2700","addr:country":"BG","name":"ОМВ","phone":"+359 87 690 7782","opening_hours":"24/7","brand":"OMV","brand:wikidata":"Q168238"},"coordinates":[42.03031,23.0572]},"dist":19.17,"tags_mismatch":true},{"osm":{"type":"way","id":971968873,"tags":{"amenity":"fuel","brand":"OMV","brand:wikidata":"Q168238","building":"yes","opening_hours":"24/7","phone":"+359 87 784 5084"},"wikidata":"Q168238","coordinates":[42.1344727,25.0667687]},"atp":{"id":"QMuNETiXBwl_BTOJGVylNMbXgVE=","tags":{"ref":"BG.1042.8","atm":"yes","fuel:cng":"yes","fuel:lpg":"yes","vacuum_cleaner":"yes","fuel:diesel":"yes","payment:routex":"yes","payment:visa":"yes","payment:diners_club":"yes","payment:mastercard":"yes","payment:american_express":"yes","amenity":"fuel","addr:street_address":"Acad. Ivan Evstatiev Geshov Str.","addr:city":"София","addr:postcode":"1330","addr:country":"BG","name":"ОМВ","phone":"+359 87 651 4466","opening_hours":"24/7","brand":"OMV","brand:wikidata":"Q168238"},"coordinates":[42.69113,23.29554]},"tags_mismatch":true},{"osm":{"type":"way","id":1034828516,"tags":{"amenity":"fuel","brand":"ОМВ","brand:wikidata":"Q168238","fuel:cng":"yes","fuel:diesel":"yes","fuel:lpg":"yes","int_name":"OMV","opening_hours":"24/7","phone":"+359 2 93298042"},"wikidata":"Q168238","coordinates":[42.6910458,23.2955263]},"atp":false,"tags_mismatch":false}]}