{"metadata":{"type":"brand","wikidata":"Q329347","name":"Лукойл","compare_keys":["opening_hours","fuel:*"]},"data":[{"osm":{"type":"node","id":248624357,"tags":{"amenity":"fuel","brand":"Лукойл","brand:wikidata":"Q329347","fuel:HGV_diesel":"yes","fuel:ecto_diesel":"yes","fuel:lpg":"yes","fuel:octane_100":"yes","fuel:octane_95":"yes","name:int":"Lukoil","opening_hours":"24/7","phone":"+359 800 20 220","ref":"401","website":"https://lukoil.bg"},"wikidata":"Q329347","coordinates":[42.0554304,24.8264273]},"atp":{"id":"7ENWkZo3iIpS9hntlG985eOusDo=","tags":{"ref":"5012410","payment:cards":"yes","internet_access":"wlan","amenity":"fuel","addr:full":"Куклен, Куклен","addr:street":"Куклен","addr:state":"Plovdiv","addr:country":"BG","name":"Ф 522","phone":"032;623 977","email":"f522@benz.lukoil.bg","opening_hours":"24/7","image":"https://lukoil.ru/FileSystem/0/1005602.jpeg","brand":"Лукойл","brand:wikidata":"Q329347"},"coordinates":[42.05605,24.82561]},"dist":96.436,"tags_mismatch":true},{"osm":{"type":"node","id":254476719,"tags":{"amenity":"fuel","brand":"Лукойл","brand:wikidata":"Q329347","int_name":"Lukoil","website":"https://www.lukoil.bg/"},"wikidata":"Q329347","coordinates":[42.6851859,23.4000573]},"atp":{"id":"SV3jnZzOfYZYGUDG4XImBoAvulw=","tags":{"ref":"4846","payment:cards":"yes","car_wash":"yes","internet_access":"wlan","fuel:lpg":"yes","fuel:diesel":"yes","fuel:octane_98":"yes","fuel:octane_95":"yes","amenity":"fuel","addr:full":"Летище Терминал 1, София","addr:street":"Летище Терминал 1","addr:city":"София","addr:state":"Sofia-Capital","addr:country":"BG","name":"Б 001","phone":"+359 2 978 3969","email":"b001@benz.lukoil.bg","opening_hours":"24/7","image":"https://lukoil.ru/FileSystem/0/1000018.jpeg","brand":"Лукойл","brand:wikidata":"Q329347"},"coordinates":[42.68558,23.39985]},"dist":46.984,"tags_mismatch":true},{"osm":{"type":"node","id":254476732,"tags":{"amenity":"fuel","brand":"Лукойл","brand:wikidata":"Q329347","fuel:adblue":"yes","fuel:diesel":"yes","fuel:octane_100":"yes","fuel:octane_95":"yes","int_name":"Lukoil","website":"https://www.lukoil.bg/","wikidata":"Q12285111","wikimedia_commons":"Category:Lukoil Bulgaria","wikipedia":"bg:Лукойл-България"},"wikidata":"Q329347","coordinates":[42.7459561,23.2293205]},"atp":{"id":"uNwUfr7m88y3Yx9-qzJYhGCEhxg=","tags":{"ref":"4994","payment:cards":"yes","payment:dkv":"yes","payment:aris":"yes","payment:lukoil":"yes","internet_access":"wlan","fuel:lpg":"yes","fuel:diesel":"yes","fuel:octane_98":"yes","fuel:octane_95":"yes","amenity":"fuel","addr:full":"жк. Република, бул. Европа\", София","addr:street":"жк. Република, бул. Европа\"","addr:city":"София","addr:state":"Sofiya","addr:country":"BG","name":"Б 013","phone":"+359 2 925 1377","email":"b013@benz.lukoil.bg","opening_hours":"24/7","image":"https://lukoil.ru/FileSystem/0/1000166.jpeg","brand":"Лукойл","brand:wikidata":"Q329347"},"coordinates":[42.74578,23.22944]},"dist":21.878,"tags_mismatch":true},{"osm":{"type":"node","id":254476859,"tags":{"amenity":"fuel","brand":"Лукойл","brand:wikidata":"Q329347","int_name":"Lukoil","website":"https://www.lukoil.bg/"},"wikidata":"Q329347","coordinates":[42.650871,23.217766]},"atp":{"id":"oAlMV839bZMlkyGseGB7yfwo7ww=","tags":{"ref":"4926","payment:cards":"yes","payment:dkv":"yes","payment:lukoil":"yes","internet_access":"wlan","fuel:lpg":"yes","fuel:diesel":"yes","fuel:octane_98":"yes","fuel:octane_95":"yes","amenity":"fuel","addr:full":"кв. Княжево, София","addr:street":"кв. Княжево","addr:city":"София","addr:state":"Sofiya","addr:country":"BG","name":"Б 135","phone":"+359 2 857 7164","email":"b135@benz.lukoil.bg","opening_hours":"24/7","image":"https://lukoil.ru/FileSystem/0/1000098.jpeg","brand":"Лукойл","brand:wikidata":"Q329347"},"coordinates":[42.65144,23.21776]},"dist":63.272,"tags_mismatch":true},{"osm":{"type":"node","id":254476866,"tags":{"amenity":"fuel","brand":"Лукойл","brand:wikidata":"Q329347","compressed_air":"yes","int_name":"Lukoil","opening_hours":"24/7","website":"https://www.lukoil.bg/"},"wikidata":"Q329347","coordinates":[42.6578113,23.3392465]},"atp":{"id":"T0SnI2W5AnHiEBgIE3LgNeFYxS8=","tags":{"ref":"4812","payment:cards":"yes","atm":"yes","internet_access":"wlan","fuel:lpg":"yes","fuel:diesel":"yes","fuel:octane_98":"yes","fuel:octane_95":"yes","amenity":"fuel","addr:full":"ж.к. Изгрев до Зоопарка, София","addr:street":"ж.к. Изгрев до Зоопарка","addr:city":"София","addr:state":"Sofia-Capital","addr:country":"BG","name":"Б 134","phone":"+359 2 962 5132","email":"b134@benz.lukoil.bg","opening_hours":"24/7","brand":"Лукойл","brand:wikidata":"Q329347"},"coordinates":[42.65772,23.33886]},"dist":33.196,"tags_mismatch":true},{"osm":{"type":"node","id":262418116,"tags":{"amenity":"fuel","brand":"Лукойл","brand:wikidata":"Q329347","fuel:lpg":"yes"},"wikidata":"Q329347","coordinates":[43.058351,24.2393814]},"atp":[{"id":"IAeWx5DMA8qVYpfffufg9OPUueI=","tags":{"ref":"4934","payment:cards":"yes","internet_access":"wlan","fuel:lpg":"yes","fuel:diesel":"yes","fuel:octane_98":"yes","fuel:octane_95":"yes","amenity":"fuel","@source_uri":"https://lukoil.bg/api/cartography/GetObjects?ids=gasStation4934","@spider":"lukoil","brand:bg":"Лукойл","brand:en":"Lukoil","name:bg":"Лукойл","name:en":"Lukoil","addr:full":"Местност Боаза, гл. път Варна- София, Бресница, местност Боаза","addr:street":"Местност Боаза, гл. път Варна- София","addr:state":"Lovech","addr:country":"BG","name":"Б 139","phone":"+359 69 032 230","email":"b139@benz.lukoil.bg","opening_hours":"24/7","image":"https://lukoil.ru/FileSystem/0/1000106.jpeg","brand":"Лукойл","brand:wikidata":"Q329347","nsi_id":"lukoil-b450da"},"coordinates":[43.06487,24.24511]}],"tags_mismatch":true},{"osm":{"type":"node","id":279997978,"tags":{"amenity":"fuel","brand":"Лукойл","brand:wikidata":"Q329347","compressed_air":"yes"},"wikidata":"Q329347","coordinates":[43.2337225,27.8597785]},"atp":{"id":"8eO2-fyP0d1-2SCM3Rw7rQKr1Kg=","tags":{"ref":"4980","payment:cards":"yes","atm":"yes","internet_access":"wlan","fuel:lpg":"yes","fuel:diesel":"yes","fuel:octane_98":"yes","fuel:octane_95":"yes","amenity":"fuel","addr:full":"Ялови ниви, кв. Вл. Варненчик, Варна","addr:street":"Ялови ниви, кв. Вл. Варненчик","addr:city":"Варна","addr:state":"Varna","addr:country":"BG","name":"Б 012","phone":"+359 52 501 252","email":"b012@benz.lukoil.bg","opening_hours":"24/7","image":"https://lukoil.ru/FileSystem/0/1000152.jpeg","brand":"Лукойл","brand:wikidata":"Q329347"},"coordinates":[43.23394,27.85984]},"dist":24.693,"tags_mismatch":true},{"osm":{"type":"node","id":279999103,"tags":{"amenity":"fuel","brand":"Лукойл","brand:wikidata":"Q329347","compressed_air":"yes","fuel:diesel":"yes","fuel:octane_95":"yes","fuel:octane_98":"yes","ref":"Б096"},"wikidata":"Q329347","coordinates":[43.2342255,27.8769893]},"atp":{"id":"HiGulYCPRjCnye2vk1zCselyfQY=","tags":{"ref":"4876","payment:cards":"yes","atm":"yes","internet_access":"wlan","fuel:lpg":"yes","fuel:diesel":"yes","fuel:octane_98":"yes","fuel:octane_95":"yes","amenity":"fuel","addr:full":"бул. Цар Освободител, 109, Варна","addr:street":"бул. Цар Освободител","addr:city":"Варна","addr:state":"Varna","addr:country":"BG","name":"Б 096","phone":"+359 52 755 155","email":"b096@benz.lukoil.bg","opening_hours":"24/7","image":"https://lukoil.ru/FileSystem/0/1000048.jpeg","brand":"Лукойл","brand:wikidata":"Q329347"},"coordinates":[43.23422,27.87727]},"dist":22.748,"tags_mismatch":true},{"osm":{"type":"node","id":280315065,"tags":{"amenity":"fuel","brand":"Лукойл","brand:wikidata":"Q329347","fuel:octane_95":"yes","fuel:octane_98":"yes","shop":"kiosk"},"wikidata":"Q329347","coordinates":[43.2256037,26.5547473]},"atp":{"id":"1AMUfO4ZdXDpqZ-VnH7k9iXDcjI=","tags":{"ref":"4953","payment:cards":"yes","payment:dkv":"yes","payment:lukoil":"yes","internet_access":"wlan","fuel:lpg":"yes","fuel:diesel":"yes","fuel:octane_98":"yes","fuel:octane_95":"yes","amenity":"fuel","addr:full":"до КАТ, изх. София, Търговище","addr:street":"до КАТ, изх. София","addr:city":"Търговище","addr:state":"Turgovishte","addr:country":"BG","name":"Б 136","phone":"+359 60 163 034","email":"b136@benz.lukoil.bg","opening_hours":"24/7","image":"https://lukoil.ru/FileSystem/0/1000125.jpeg","brand":"Лукойл","brand:wikidata":"Q329347"},"coordinates":[43.2254,26.55485]},"dist":24.131,"tags_mismatch":true},{"osm":{"type":"node","id":280728673,"tags":{"amenity":"fuel","brand":"Лукойл","brand:wikidata":"Q329347"},"wikidata":"Q329347","coordinates":[41.8234355,23.5570971]},"atp":{"id":"TBkk7rNEkni7TxaF7puk15pcb_k=","tags":{"ref":"4805","payment:cards":"yes","internet_access":"wlan","fuel:lpg":"yes","fuel:diesel":"yes","fuel:octane_95":"yes","fuel:octane_98":"yes","amenity":"fuel","addr:full":"гл. път за Гоце Делчев, Добринище","addr:street":"гл. път за Гоце Делчев","addr:city":"Добринище","addr:state":"Blagoevgrad","addr:country":"BG","name":"Б 100","phone":"+359 74 472 190","email":"b100@benz.lukoil.bg","opening_hours":"24/7","brand":"Лукойл","brand:wikidata":"Q329347"},"coordinates":[41.82351,23.55667]},"dist":36.347,"tags_mismatch":true},{"osm":{"type":"node","id":281909574,"tags":{"amenity":"fuel","brand":"Лукойл","brand:wikidata":"Q329347"},"wikidata":"Q329347","coordinates":[41.575196,23.7467543]},"atp":{"id":"KjbB88NQaFjdTYFHcjtILxUacRE=","tags":{"ref":"5012618","payment:cards":"yes","internet_access":"wlan","amenity":"fuel","addr:full":"ул. Гоце Делчев, 98, Гоце Делчев","addr:street":"ул. Гоце Делчев","addr:city":"Гоце Делчев","addr:state":"Blagoevgrad","addr:country":"BG","name":"Ф 521","phone":"0751;61270","email":"f521@benz.lukoil.bg","opening_hours":"24/7","brand":"Лукойл","brand:wikidata":"Q329347"},"coordinates":[41.57593,23.7471]},"dist":86.535,"tags_mismatch":true},{"osm":{"type":"node","id":286131962,"tags":{"amenity":"fuel","brand":"Лукойл","brand:wikidata":"Q329347"},"wikidata":"Q329347","coordinates":[42.9102186,23.8950711]},"atp":{"id":"4_KpXYiOOAPYSzCDlymy5o9QONY=","tags":{"ref":"4969","payment:cards":"yes","atm":"yes","internet_access":"wlan","fuel:lpg":"yes","fuel:diesel":"yes","fuel:octane_95":"yes","fuel:octane_98":"yes","amenity":"fuel","addr:full":"Правец, Правец","addr:street":"Правец","addr:city":"Правец","addr:state":"Sofiya","addr:country":"BG","name":"Б 023","phone":"+359 71 332 452","email":"b023@benz.lukoil.bg","opening_hours":"24/7","image":"https://lukoil.ru/FileSystem/0/1000141.jpeg","brand":"Лукойл","brand:wikidata":"Q329347"},"coordinates":[42.91012,23.89486]},"dist":20.391,"tags_mismatch":true},{"osm":{"type":"node","id":286578633,"tags":{"amenity":"fuel","brand":"Лукойл","brand:wikidata":"Q329347"},"wikidata":"Q329347","coordinates":[42.5218283,27.3045828]},"atp":{"id":"CwCnhikQURZeUCiEKLzUNNPsXc8=","tags":{"ref":"4818","payment:cards":"yes","internet_access":"wlan","fuel:diesel":"yes","fuel:octane_95":"yes","amenity":"fuel","addr:full":"Братово, Братово","addr:street":"Братово","addr:state":"Burgas","addr:country":"BG","name":"Б 007","phone":"+359 56 898 300","email":"b007@benz.lukoil.bg","opening_hours":"24/7","brand":"Лукойл","brand:wikidata":"Q329347"},"coordinates":[42.52198,27.30465]},"dist":17.745,"tags_mismatch":true},{"osm":{"type":"node","id":287624960,"tags":{"amenity":"fuel","brand":"Лукойл","brand:wikidata":"Q329347","fuel:diesel":"yes","fuel:lpg":"yes","fuel:octane_95":"yes","fuel:octane_98":"yes","wheelchair":"limited"},"wikidata":"Q329347","coordinates":[42.1865985,24.3576707]},"atp":{"id":"W6-YBeycBl140A4GiUSUgkOJpco=","tags":{"ref":"4860","payment:cards":"yes","internet_access":"wlan","fuel:lpg":"yes","fuel:diesel":"yes","fuel:octane_95":"yes","amenity":"fuel","addr:full":"Пловдивско шосе, Пазарджик","addr:street":"Пловдивско шосе","addr:city":"Пазарджик","addr:state":"Pazardzhik","addr:country":"BG","name":"Б 081","phone":"+359 34 445 980","email":"b081@benz.lukoil.bg","opening_hours":"24/7","image":"https://lukoil.ru/FileSystem/0/1000032.jpeg","brand":"Лукойл","brand:wikidata":"Q329347"},"coordinates":[42.18717,24.35766]},"dist":63.554,"tags_mismatch":true},{"osm":{"type":"node","id":289835335,"tags":{"amenity":"fuel","brand":"Лукойл","brand:wikidata":"Q329347"},"wikidata":"Q329347","coordinates":[42.2683119,27.7423162]},"atp":{"id":"gjufFEuK6p7ck6G92auFvLJak0U=","tags":{"ref":"4856","payment:cards":"yes","internet_access":"wlan","fuel:lpg":"yes","fuel:diesel":"yes","fuel:octane_95":"yes","fuel:octane_98":"yes","amenity":"fuel","addr:full":"посока за Царево, Приморско","addr:street":"посока за Царево","addr:city":"Приморско","addr:state":"Burgas","addr:country":"BG","name":"Б 087","phone":"+359 55 032 391","email":"b087@benz.lukoil.bg","opening_hours":"24/7","image":"https://lukoil.ru/FileSystem/0/1000028.jpeg","brand":"Лукойл","brand:wikidata":"Q329347"},"coordinates":[42.26828,27.74214]},"dist":14.926,"tags_mismatch":true},{"osm":{"type":"node","id":293324815,"tags":{"amenity":"fuel","brand":"Лукойл","brand:wikidata":"Q329347","fuel:diesel":"yes","fuel:lpg":"yes","fuel:octane_100":"yes","fuel:octane_95":"yes","opening_hours":"24/7","shop":"convenience","wheelchair":"yes"},"wikidata":"Q329347","coordinates":[42.3373584,23.5524755]},"atp":{"id":"fOqXP9rWdDVfEpH0Uo39lm4Jy7E=","tags":{"ref":"4962","payment:cards":"yes","atm":"yes","internet_access":"wlan","fuel:lpg":"yes","fuel:diesel":"yes","fuel:octane_98":"yes","fuel:octane_95":"yes","amenity":"fuel","addr:full":"бул. Софиско шосе, 1, Самоков","addr:street":"бул. Софиско шосе","addr:city":"Самоков","addr:state":"Sofiya","addr:country":"BG","name":"Б 121","phone":"+359 72 266 960","email":"b121@benz.lukoil.bg","opening_hours":"24/7","image":"https://lukoil.ru/FileSystem/0/1000134.jpeg","brand":"Лукойл","brand:wikidata":"Q329347"},"coordinates":[42.33796,23.55242]},"dist":67.05,"tags_mismatch":true},{"osm":{"type":"node","id":295389733,"tags":{"amenity":"fuel","brand":"Лукойл","brand:wikidata":"Q329347","name:ro":"Lukoil"},"wikidata":"Q329347","coordinates":[43.9929379,22.8654733]},"atp":{"id":"FKRaNlny8EVvJu_1BWSU5jKSPxU=","tags":{"ref":"4988","payment:cards":"yes","internet_access":"wlan","fuel:lpg":"yes","fuel:diesel":"yes","fuel:octane_98":"yes","fuel:octane_95":"yes","amenity":"fuel","addr:full":"ул. Панония, 23, Видин","addr:street":"ул. Панония","addr:city":"Видин","addr:state":"Vidin","addr:country":"BG","name":"Б 028","phone":"+359 94 600 124","email":"b028@benz.lukoil.bg","opening_hours":"24/7","image":"https://lukoil.ru/FileSystem/0/1000160.jpeg","brand":"Лукойл","brand:wikidata":"Q329347"},"coordinates":[43.99329,22.86651]},"dist":91.709,"tags_mismatch":true},{"osm":{"type":"node","id":297338885,"tags":{"amenity":"fuel","brand":"Лукойл","brand:wikidata":"Q329347","name:ro":"Lukoil"},"wikidata":"Q329347","coordinates":[44.007695,22.8849675]},"atp":{"id":"V0IvB6XGTAI39Mowlh_7h5SghMo=","tags":{"ref":"4848","payment:cards":"yes","fuel:lpg":"yes","fuel:diesel":"yes","fuel:octane_95":"yes","amenity":"fuel","addr:full":"бул. Панония, Видин","addr:street":"бул. Панония","addr:city":"Видин","addr:state":"Vidin","addr:country":"BG","name":"Б 186","phone":"+359 94 602 016","email":"O757@benz.lukoil.bg","opening_hours":"24/7","image":"https://lukoil.ru/FileSystem/0/1000020.jpeg","brand":"Лукойл","brand:wikidata":"Q329347"},"coordinates":[44.00793,22.88509]},"dist":27.907,"tags_mismatch":true},{"osm":{"type":"node","id":300798487,"tags":{"amenity":"fuel","brand":"Лукойл","brand:wikidata":"Q329347","fuel:lpg":"yes"},"wikidata":"Q329347","coordinates":[42.5533295,22.9651408]},"atp":{"id":"ARt3ugu13P3dKJuVXGEXvO9U3FE=","tags":{"ref":"4912","payment:cards":"yes","internet_access":"wlan","fuel:lpg":"yes","fuel:diesel":"yes","fuel:octane_98":"yes","fuel:octane_95":"yes","amenity":"fuel","addr:full":"ул. Райко Даскалов, Радомир","addr:street":"ул. Райко Даскалов","addr:city":"Радомир","addr:state":"Pernik","addr:country":"BG","name":"Б 123","phone":"+359 77 782 110","email":"b123@benz.lukoil.bg","opening_hours":"24/7","image":"https://lukoil.ru/FileSystem/0/1000084.jpeg","brand":"Лукойл","brand:wikidata":"Q329347"},"coordinates":[42.55342,22.96529]},"dist":15.831,"tags_mismatch":true},{"osm":{"type":"node","id":331042231,"tags":{"amenity":"fuel","brand":"Лукойл","brand:wikidata":"Q329347","compressed_air":"yes"},"wikidata":"Q329347","coordinates":[42.1656281,24.7437514]},"atp":{"id":"sYqTJ-1RkdGbbzsmfwGDhmkGUyY=","tags":{"ref":"4841","payment:cards":"yes","car_wash":"yes","atm":"yes","internet_access":"wlan","fuel:lpg":"yes","fuel:diesel":"yes","fuel:octane_98":"yes","fuel:octane_95":"yes","amenity":"fuel","addr:full":"Карловско шосе, Пловдив","addr:street":"Карловско шосе","addr:city":"Пловдив","addr:state":"Plovdiv","addr:country":"BG","name":"Б 018","phone":"+359 32 967 351","email":"b018@benz.lukoil.bg","opening_hours":"24/7","image":"https://lukoil.ru/FileSystem/0/1000013.jpeg","brand":"Лукойл","brand:wikidata":"Q329347"},"coordinates":[42.16559,24.7434]},"dist":29.27,"tags_mismatch":true},{"osm":{"type":"node","id":344486072,"tags":{"amenity":"fuel","brand":"Лукойл","brand:wikidata":"Q329347","name:pl":"Lukoil"},"wikidata":"Q329347","coordinates":[42.6451956,27.6454554]},"atp":{"id":"ndvp39kW_akgj74l6Km0giCo-K0=","tags":{"ref":"4878","payment:cards":"yes","atm":"yes","internet_access":"wlan","fuel:lpg":"yes","fuel:diesel":"yes","fuel:octane_98":"yes","fuel:octane_95":"yes","amenity":"fuel","addr:full":"посока Бургас- Несебър, Ахелой","addr:street":"посока Бургас- Несебър","addr:city":"Ахелой","addr:state":"Burgas","addr:country":"BG","name":"Б 080","phone":"+359 59 685 152","email":"b080@benz.lukoil.bg","opening_hours":"24/7","image":"https://lukoil.ru/FileSystem/0/1000050.jpeg","brand":"Лукойл","brand:wikidata":"Q329347"},"coordinates":[42.64554,27.6455]},"dist":38.469,"tags_mismatch":true},{"osm":{"type":"node","id":346547909,"tags":{"amenity":"fuel","brand":"Лукойл","brand:wikidata":"Q329347"},"wikidata":"Q329347","coordinates":[43.2096769,23.5523092]},"atp":{"id":"XyZiYFr8e8hcRWQi7Q8OmgFa9tA=","tags":{"ref":"4978","payment:cards":"yes","payment:dkv":"yes","payment:lukoil":"yes","atm":"yes","internet_access":"wlan","fuel:lpg":"yes","fuel:diesel":"yes","fuel:octane_98":"yes","fuel:octane_95":"yes","amenity":"fuel","addr:full":"на кръговото към Видин, Враца","addr:street":"на кръговото към Видин","addr:city":"Враца","addr:state":"Vratsa","addr:country":"BG","name":"Б 022","phone":"+359 92 663 339","email":"b022@benz.lukoil.bg","opening_hours":"24/7","image":"https://lukoil.ru/FileSystem/0/1000150.jpeg","brand":"Лукойл","brand:wikidata":"Q329347"},"coordinates":[43.20944,23.55261]},"dist":35.892,"tags_mismatch":true},{"osm":{"type":"node","id":355041169,"tags":{"amenity":"fuel","brand":"Лукойл","brand:wikidata":"Q329347","fuel:HGV_diesel":"yes","fuel:diesel":"yes","fuel:lpg":"yes","fuel:octane_92":"no","fuel:octane_95":"yes","fuel:octane_98":"yes","int_name":"Lukoil","website":"https://www.lukoil.bg/"},"wikidata":"Q329347","coordinates":[42.6304463,23.4648784]},"atp":{"id":"CaCjZ8BZp8hkh4JjAUcR3zvTGb8=","tags":{"ref":"4883","payment:cards":"yes","payment:dkv":"yes","payment:lukoil":"yes","atm":"yes","internet_access":"wlan","fuel:lpg":"yes","fuel:diesel":"yes","fuel:octane_98":"yes","fuel:octane_95":"yes","amenity":"fuel","addr:full":"АМ Тракия 1км, София","addr:street":"АМ Тракия 1км","addr:city":"София","addr:state":"Sofiya","addr:country":"BG","name":"Б 016","phone":"+359 2 973 7588","email":"b016@benz.lukoil.bg","opening_hours":"24/7","image":"https://lukoil.ru/FileSystem/0/1000055.jpeg","brand":"Лукойл","brand:wikidata":"Q329347"},"coordinates":[42.63012,23.46547]},"dist":60.489,"tags_mismatch":true},{"osm":{"type":"node","id":368217831,"tags":{"amenity":"fuel","brand":"Лукойл","brand:wikidata":"Q329347","ref":"Б 63"},"wikidata":"Q329347","coordinates":[42.8791127,23.8031063]},"atp":{"id":"sf9c8i0eUn94DZOUP7Bd00DVyqY=","tags":{"ref":"4831","payment:cards":"yes","internet_access":"wlan","fuel:lpg":"yes","fuel:diesel":"yes","fuel:octane_98":"yes","fuel:octane_95":"yes","amenity":"fuel","addr:full":"АМ Хемус 37км, Ботевград-Зелин, Ботевград","addr:street":"АМ Хемус 37км, Ботевград-Зелин","addr:city":"Ботевград","addr:state":"Sofiya","addr:country":"BG","name":"Ф 513","phone":"+359 88 413 5308","email":"f513@benz.lukoil.bg","opening_hours":"24/7","brand":"Лукойл","brand:wikidata":"Q329347"},"coordinates":[42.87935,23.80287]},"dist":32.665,"tags_mismatch":true},{"osm":{"type":"node","id":414641025,"tags":{"addr:city":"Ямбол","addr:postcode":"8600","addr:street":"Обходен път Юг","amenity":"fuel","brand":"Лукойл","brand:wikidata":"Q329347","opening_hours":"24/7"},"wikidata":"Q329347","coordinates":[42.4711006,26.4966251]},"atp":{"id":"yc7eA_ugaAHPb1-lM8LpNo3sOUw=","tags":{"ref":"4873","payment:cards":"yes","internet_access":"wlan","fuel:lpg":"yes","fuel:diesel":"yes","fuel:octane_95":"yes","fuel:octane_98":"yes","amenity":"fuel","addr:full":"ул. Клокотница, 102, Ямбол","addr:street":"ул. Клокотница","addr:city":"Ямбол","addr:state":"Yambol","addr:country":"BG","name":"Б 104","phone":"+359 46 664 814","email":"b104@benz.lukoil.bg","opening_hours":"24/7","image":"https://lukoil.ru/FileSystem/0/1000045.jpeg","brand":"Лукойл","brand:wikidata":"Q329347"},"coordinates":[42.4712,26.49687]},"dist":22.927,"tags_mismatch":true},{"osm":{"type":"node","id":450250581,"tags":{"amenity":"fuel","brand":"Лукойл","brand:wikidata":"Q329347","fuel:diesel":"yes","fuel:lpg":"yes","fuel:octane_95":"yes","fuel:octane_98":"yes"},"wikidata":"Q329347","coordinates":[42.8119457,27.8768719]},"atp":[{"id":"1OJdoFyX6pPXiDyh6039SzeUDvo=","tags":{"ref":"8643","payment:cards":"yes","atm":"yes","internet_access":"wlan","fuel:lpg":"yes","fuel:diesel":"yes","fuel:octane_95":"yes","fuel:octane_98":"yes","amenity":"fuel","@source_uri":"https://lukoil.bg/api/cartography/GetObjects?ids=gasStation8643","@spider":"lukoil","brand:bg":"Лукойл","brand:en":"Lukoil","name:bg":"Лукойл","name:en":"Lukoil","addr:full":"ул. Славянска, главен път Бургас - Варна, Обзор","addr:street":"ул. Славянска, главен път Бургас - Варна","addr:city":"Обзор","addr:state":"Burgas","addr:country":"BG","name":"Б 114","phone":"+359 55 632 725","email":"b114@benz.lukoil.bg","opening_hours":"24/7","image":"https://lukoil.ru/FileSystem/0/1000179.jpeg","brand":"Лукойл","brand:wikidata":"Q329347","nsi_id":"lukoil-b450da"},"coordinates":[42.81248,27.87]}],"tags_mismatch":true},{"osm":{"type":"node","id":458443509,"tags":{"amenity":"fuel","brand":"Лукойл","brand:wikidata":"Q329347"},"wikidata":"Q329347","coordinates":[41.3961069,23.1895924]},"atp":{"id":"KZM9pFNrMhfGqWogH3oDY7vh6aA=","tags":{"ref":"4924","payment:cards":"yes","internet_access":"wlan","fuel:lpg":"yes","fuel:diesel":"yes","fuel:octane_98":"yes","fuel:octane_95":"yes","amenity":"fuel","addr:full":"ул. Рокфелер, Петрич","addr:street":"ул. Рокфелер","addr:city":"Петрич","addr:state":"Blagoevgrad","addr:country":"BG","name":"Б 167","phone":"+359 74 560 552","email":"b167@benz.lukoil.bg","opening_hours":"24/7","image":"https://lukoil.ru/FileSystem/0/1000096.jpeg","brand":"Лукойл","brand:wikidata":"Q329347"},"coordinates":[41.39715,23.18852]},"dist":146.474,"tags_mismatch":true},{"osm":{"type":"node","id":544627231,"tags":{"amenity":"fuel","brand":"Лукойл","brand:wikidata":"Q329347"},"wikidata":"Q329347","coordinates":[42.8475627,25.3369753]},"atp":{"id":"_kd7p8Z3Cn7Hdg1PUGv_2rpWlsE=","tags":{"ref":"4948","payment:cards":"yes","internet_access":"wlan","fuel:lpg":"yes","fuel:diesel":"yes","fuel:octane_98":"yes","fuel:octane_95":"yes","amenity":"fuel","addr:full":"бул. Хемус, Габрово","addr:street":"бул. Хемус","addr:city":"Габрово","addr:state":"Gabrovo","addr:country":"BG","name":"Б 157","phone":"+359 66 800 150","email":"b157@benz.lukoil.bg","opening_hours":"24/7","image":"https://lukoil.ru/FileSystem/0/1000120.jpeg","brand":"Лукойл","brand:wikidata":"Q329347"},"coordinates":[42.84904,25.33631]},"dist":172.991,"tags_mismatch":true},{"osm":{"type":"node","id":577529175,"tags":{"amenity":"fuel","brand":"Лукойл","brand:wikidata":"Q329347"},"wikidata":"Q329347","coordinates":[42.4980438,25.9930425]},"atp":{"id":"FP3RlKHnXmu0PVZxrVOnBs86WsQ=","tags":{"ref":"4814","payment:cards":"yes","payment:dkv":"yes","payment:lukoil":"yes","internet_access":"wlan","fuel:lpg":"yes","fuel:diesel":"yes","fuel:octane_95":"yes","fuel:octane_98":"yes","amenity":"fuel","addr:full":"на път Русе-Елхово/София-Бургас, Нова Загора","addr:street":"на път Русе-Елхово/София-Бургас","addr:city":"Нова Загора","addr:state":"Sliven","addr:country":"BG","name":"Б 145","phone":"+359 45 762 066","email":"b145@benz.lukoil.bg","opening_hours":"24/7","brand":"Лукойл","brand:wikidata":"Q329347"},"coordinates":[42.49838,25.99331]},"dist":43.342,"tags_mismatch":true},{"osm":{"type":"node","id":577539479,"tags":{"amenity":"fuel","brand":"Лукойл","brand:wikidata":"Q329347"},"wikidata":"Q329347","coordinates":[42.432924,23.8511627]},"atp":{"id":"9bbKus6kGdUa80AEP40HU4Bx4kw=","tags":{"ref":"4951","payment:cards":"yes","atm":"yes","internet_access":"wlan","fuel:lpg":"yes","fuel:diesel":"yes","fuel:octane_98":"yes","fuel:octane_95":"yes","amenity":"fuel","addr:full":"АМ Тракия 38км - юг, мотел Ихтиман, Ихтиман","addr:street":"АМ Тракия 38км - юг, мотел Ихтиман","addr:city":"Ихтиман","addr:state":"Sofiya","addr:country":"BG","name":"Б 152","phone":"0724;80 001","email":"b152@benz.lukoil.bg","opening_hours":"24/7","image":"https://lukoil.ru/FileSystem/0/1000123.jpeg","brand":"Лукойл","brand:wikidata":"Q329347"},"coordinates":[42.43358,23.85093]},"dist":75.402,"tags_mismatch":true},{"osm":{"type":"node","id":578045195,"tags":{"amenity":"fuel","brand":"Лукойл","brand:wikidata":"Q329347"},"wikidata":"Q329347","coordinates":[42.1451754,24.8815036]},"atp":{"id":"Uoc_4moYkFOZC_QQfNNc_BxajFc=","tags":{"ref":"4863","payment:cards":"yes","internet_access":"wlan","fuel:lpg":"yes","fuel:diesel":"yes","fuel:octane_95":"yes","fuel:octane_98":"yes","amenity":"fuel","addr:full":"посока Пловдив- Свиленград, Пловдив","addr:street":"посока Пловдив- Свиленград","addr:city":"Пловдив","addr:state":"Plovdiv","addr:country":"BG","name":"Б 055","phone":"+359 31 182 640","email":"b055@benz.lukoil.bg","opening_hours":"24/7","image":"https://lukoil.ru/FileSystem/0/1000035.jpeg","brand":"Лукойл","brand:wikidata":"Q329347"},"coordinates":[42.14511,24.88093]},"dist":47.846,"tags_mismatch":true},{"osm":{"type":"node","id":578045206,"tags":{"amenity":"fuel","brand":"Лукойл","brand:wikidata":"Q329347"},"wikidata":"Q329347","coordinates":[42.1371425,24.9453913]},"atp":{"id":"RVR1NneuQ7L8wGv4yob5mmnQ2q4=","tags":{"ref":"4864","payment:cards":"yes","internet_access":"wlan","fuel:lpg":"yes","fuel:diesel":"yes","fuel:octane_95":"yes","fuel:octane_98":"yes","amenity":"fuel","addr:full":"посока Свиленград- Пловдив, Садово","addr:street":"посока Свиленград- Пловдив","addr:city":"Садово","addr:state":"Plovdiv","addr:country":"BG","name":"Б 049","phone":"+359 31 182 010","email":"b049@benz.lukoil.bg","opening_hours":"24/7","image":"https://lukoil.ru/FileSystem/0/1000036.jpeg","brand":"Лукойл","brand:wikidata":"Q329347"},"coordinates":[42.13821,24.94563]},"dist":120.321,"tags_mismatch":true},{"osm":{"type":"node","id":831191242,"tags":{"amenity":"fuel","brand":"Лукойл","brand:wikidata":"Q329347","fuel:diesel":"yes","fuel:lpg":"yes","fuel:octane_95":"yes","fuel:octane_98":"yes","ref":"Б199"},"wikidata":"Q329347","coordinates":[43.2864946,27.9502627]},"atp":{"id":"TgfcdAjp3QhGXE3jU70ljPXo4mg=","tags":{"ref":"8275","payment:cards":"yes","internet_access":"wlan","fuel:lpg":"yes","fuel:diesel":"yes","fuel:octane_95":"yes","fuel:octane_98":"yes","amenity":"fuel","addr:full":"Кичево, Кичево","addr:street":"Кичево","addr:state":"Varna","addr:country":"BG","name":"Б 199","phone":"+359 52 673 212","email":"b199@benz.lukoil.bg","opening_hours":"24/7","image":"https://lukoil.ru/FileSystem/0/1000176.jpeg","brand":"Лукойл","brand:wikidata":"Q329347"},"coordinates":[43.28689029,27.95113563]},"dist":83.236,"tags_mismatch":true},{"osm":{"type":"node","id":844857335,"tags":{"amenity":"fuel","brand":"Лукойл","brand:wikidata":"Q329347","fuel:diesel":"yes","fuel:octane_95":"yes"},"wikidata":"Q329347","coordinates":[43.2247883,27.5740052]},"atp":[{"id":"hiVE3va1e-sjOnUpXdKBXt1PVSs=","tags":{"ref":"4936","payment:cards":"yes","internet_access":"wlan","fuel:lpg":"yes","fuel:diesel":"yes","fuel:octane_98":"yes","fuel:octane_95":"yes","amenity":"fuel","@source_uri":"https://lukoil.bg/api/cartography/GetObjects?ids=gasStation4936","@spider":"lukoil","brand:bg":"Лукойл","brand:en":"Lukoil","name:bg":"Лукойл","name:en":"Lukoil","addr:full":"кв. Девня 2, бул.Съединение, 97A, Девня","addr:street":"кв. Девня 2, бул.Съединение","addr:city":"Девня","addr:state":"Varna","addr:country":"BG","name":"Б 131","phone":"+359 51 992 102","email":"b131@benz.lukoil.bg","opening_hours":"24/7","image":"https://lukoil.ru/FileSystem/0/1000108.jpeg","brand":"Лукойл","brand:wikidata":"Q329347","nsi_id":"lukoil-b450da"},"coordinates":[43.22846,27.57439]}],"tags_mismatch":true},{"osm":{"type":"node","id":848060486,"tags":{"amenity":"fuel","brand":"Лукойл","brand:wikidata":"Q329347","fuel:lpg":"yes","ref":"034"},"wikidata":"Q329347","coordinates":[43.0331375,25.0086872]},"atp":[{"id":"_jkWN4RTgyK2pp337hMoewD60ck=","tags":{"ref":"4998","payment:cards":"yes","payment:dkv":"yes","payment:lukoil":"yes","internet_access":"wlan","fuel:lpg":"yes","fuel:diesel":"yes","fuel:octane_98":"yes","fuel:octane_95":"yes","amenity":"fuel","@source_uri":"https://lukoil.bg/api/cartography/GetObjects?ids=gasStation4998","@spider":"lukoil","brand:bg":"Лукойл","brand:en":"Lukoil","name:bg":"Лукойл","name:en":"Lukoil","addr:full":"АМ Хемус, преди разклона за Севлиево, Севлиево","addr:street":"АМ Хемус, преди разклона за Севлиево","addr:city":"Севлиево","addr:state":"Gabrovo","addr:country":"BG","name":"Б 034","phone":"+359 67 532 552","email":"b034@benz.lukoil.bg","opening_hours":"24/7","image":"https://lukoil.ru/FileSystem/0/1000170.jpeg","brand":"Лукойл","brand:wikidata":"Q329347","nsi_id":"lukoil-b450da"},"coordinates":[43.04326,25.01858]}],"tags_mismatch":true},{"osm":{"type":"node","id":848068621,"tags":{"amenity":"fuel","brand":"Лукойл","brand:wikidata":"Q329347","fuel:lpg":"yes"},"wikidata":"Q329347","coordinates":[43.0707902,25.6631938]},"atp":{"id":"Gs_A0_sddhoKxfmtwfoywGrOcJc=","tags":{"ref":"4935","payment:cards":"yes","internet_access":"wlan","fuel:lpg":"yes","fuel:diesel":"yes","fuel:octane_98":"yes","fuel:octane_95":"yes","amenity":"fuel","addr:full":"изход за Варна, Велико Търново","addr:street":"изход за Варна","addr:city":"Велико Търново","addr:state":"Veliko Turnovo","addr:country":"BG","name":"Б 150","phone":"+359 62 650 361","email":"b150@benz.lukoil.bg","opening_hours":"24/7","image":"https://lukoil.ru/FileSystem/0/1000107.jpeg","brand":"Лукойл","brand:wikidata":"Q329347"},"coordinates":[43.07069,25.66301]},"dist":18.629,"tags_mismatch":true},{"osm":{"type":"node","id":1079366902,"tags":{"amenity":"fuel","brand":"Лукойл","brand:wikidata":"Q329347","fuel:diesel":"yes","fuel:octane_95":"yes","fuel:octane_98":"yes"},"wikidata":"Q329347","coordinates":[42.7037985,24.1656556]},"atp":[{"id":"GWSFdTl2KgozyATI0D1skt06kx4=","tags":{"ref":"4942","payment:cards":"yes","internet_access":"wlan","fuel:lpg":"yes","fuel:diesel":"yes","fuel:octane_98":"yes","fuel:octane_95":"yes","amenity":"fuel","@source_uri":"https://lukoil.bg/api/cartography/GetObjects?ids=gasStation4942","@spider":"lukoil","brand:bg":"Лукойл","brand:en":"Lukoil","name:bg":"Лукойл","name:en":"Lukoil","addr:full":"Пирдоп, Пирдоп","addr:street":"Пирдоп","addr:city":"Пирдоп","addr:state":"Sofiya","addr:country":"BG","name":"Б 168","phone":"+359 71 817 378","email":"b168@benz.lukoil.bg","opening_hours":"24/7","image":"https://lukoil.ru/FileSystem/0/1000114.jpeg","brand":"Лукойл","brand:wikidata":"Q329347","nsi_id":"lukoil-b450da"},"coordinates":[42.70404,24.17365]}],"tags_mismatch":true},{"osm":{"type":"node","id":1082758306,"tags":{"amenity":"fuel","brand":"Лукойл","brand:wikidata":"Q329347"},"wikidata":"Q329347","coordinates":[42.9218734,23.8062499]},"atp":{"id":"s6OMzVy0HZ7Uwb7c1K7jYO4o1rs=","tags":{"ref":"8641","payment:cards":"yes","internet_access":"wlan","fuel:lpg":"yes","fuel:diesel":"yes","fuel:octane_95":"yes","fuel:octane_98":"yes","amenity":"fuel","addr:full":"Ботевград, Ботевград","addr:street":"Ботевград","addr:city":"Ботевград","addr:state":"Sofiya","addr:country":"BG","name":"Б 197","phone":"+359 71 352 080","email":"b197@benz.lukoil.bg","opening_hours":"24/7","image":"https://lukoil.ru/FileSystem/0/1000177.jpeg","brand":"Лукойл","brand:wikidata":"Q329347"},"coordinates":[42.92221,23.80594]},"dist":45.14,"tags_mismatch":true},{"osm":{"type":"node","id":1082758321,"tags":{"amenity":"fuel","brand":"Лукойл","brand:wikidata":"Q329347","int_name":"Lukoil","website":"https://www.lukoil.bg/"},"wikidata":"Q329347","coordinates":[42.7057264,23.5157448]},"atp":{"id":"f8oTABfiCJbKvNbz3bnB0lkxM4k=","tags":{"ref":"4905","payment:cards":"yes","payment:dkv":"yes","payment:lukoil":"yes","internet_access":"wlan","fuel:lpg":"yes","fuel:diesel":"yes","fuel:octane_98":"yes","fuel:octane_95":"yes","amenity":"fuel","addr:full":"Горни Богров, Горни Богров","addr:street":"Горни Богров","addr:state":"Sofia-Capital","addr:country":"BG","name":"Б 056","phone":"+359 2 994 6434","email":"b056@benz.lukoil.bg","opening_hours":"24/7","image":"https://lukoil.ru/FileSystem/0/1000077.jpeg","brand":"Лукойл","brand:wikidata":"Q329347"},"coordinates":[42.7057,23.51521]},"dist":43.798,"tags_mismatch":true},{"osm":{"type":"node","id":1089175517,"tags":{"amenity":"fuel","brand":"Лукойл","brand:wikidata":"Q329347","opening_hours":"24/7"},"wikidata":"Q329347","coordinates":[42.6139346,25.435109]},"atp":{"id":"PaxnTK9UjTW8cc1MgS_qeKN9FiM=","tags":{"ref":"4866","payment:cards":"yes","payment:dkv":"yes","payment:lukoil":"yes","internet_access":"wlan","fuel:lpg":"yes","fuel:diesel":"yes","fuel:octane_95":"yes","fuel:octane_98":"yes","amenity":"fuel","addr:full":"бул. Ал. Батенберг, изх.Бургас, Казанлък","addr:street":"бул. Ал. Батенберг, изх.Бургас","addr:city":"Казанлък","addr:state":"Stara Zagora","addr:country":"BG","name":"Б 052","phone":"0431;62604","email":"b052@benz.lukoil.bg","opening_hours":"24/7","image":"https://lukoil.ru/FileSystem/0/1000038.jpeg","brand":"Лукойл","brand:wikidata":"Q329347"},"coordinates":[42.61362,25.43327]},"dist":154.502,"tags_mismatch":true},{"osm":{"type":"node","id":1090522050,"tags":{"amenity":"fuel","brand":"Лукойл","brand:wikidata":"Q329347","fuel:diesel":"yes","fuel:octane_95":"yes","ref":"Б132"},"wikidata":"Q329347","coordinates":[43.2124205,27.8799257]},"atp":{"id":"Jk1PaiYGcL0XeR09y5rb8blHqyA=","tags":{"ref":"4956","payment:cards":"yes","internet_access":"wlan","fuel:lpg":"yes","fuel:diesel":"yes","fuel:octane_98":"yes","fuel:octane_95":"yes","amenity":"fuel","addr:full":"зап. промишлена зона, Варна","addr:street":"зап. промишлена зона","addr:city":"Варна","addr:state":"Varna","addr:country":"BG","name":"Б 132","phone":"+359 52 727 005","email":"b132@benz.lukoil.bg","opening_hours":"24/7","image":"https://lukoil.ru/FileSystem/0/1000128.jpeg","brand":"Лукойл","brand:wikidata":"Q329347"},"coordinates":[43.21221,27.87991]},"dist":23.441,"tags_mismatch":true},{"osm":{"type":"node","id":1126194220,"tags":{"amenity":"fuel","brand":"Лукойл","brand:wikidata":"Q329347","fuel:diesel":"yes","fuel:octane_95":"yes","fuel:octane_98":"yes"},"wikidata":"Q329347","coordinates":[43.2605164,26.9455648]},"atp":{"id":"h8pIDKmkDgr62dHkDQHMgpZ28y0=","tags":{"ref":"7327","payment:cards":"yes","fuel:lpg":"yes","fuel:diesel":"yes","fuel:octane_98":"yes","fuel:octane_95":"yes","amenity":"fuel","addr:full":"бул. Рижки проход, 28, Шумен","addr:street":"бул. Рижки проход","addr:city":"Шумен","addr:state":"Shumen","addr:country":"BG","name":"Б 205","phone":"+359 54 830 490","email":"O762@benz.lukoil.bg","opening_hours":"24/7","image":"https://lukoil.ru/FileSystem/0/1000174.jpeg","brand":"Лукойл","brand:wikidata":"Q329347"},"coordinates":[43.26214,26.94495]},"dist":187.274,"tags_mismatch":true},{"osm":{"type":"node","id":1348214989,"tags":{"amenity":"fuel","brand":"Лукойл","brand:wikidata":"Q329347"},"wikidata":"Q329347","coordinates":[41.9848664,23.0878409]},"atp":{"id":"T5ImwmxsgTKiBN7tTN-ubjgb8Mg=","tags":{"ref":"5013009","payment:cards":"yes","payment:lukoil":"yes","internet_access":"wlan","amenity":"fuel","addr:full":"ул. \"Солунските атентатори\", 3, Благоевград","addr:street":"ул. \"Солунските атентатори\"","addr:city":"Благоевград","addr:state":"Blagoevgrad","addr:country":"BG","name":"Ф 549","phone":"+359 88 581 8502","email":"f549@benz.lukoil.bg","opening_hours":"24/7","image":"https://lukoil.ru/FileSystem/0/1005205.jpeg","brand":"Лукойл","brand:wikidata":"Q329347"},"coordinates":[41.98488747,23.08713913]},"dist":58.051,"tags_mismatch":true},{"osm":{"type":"node","id":1348214992,"tags":{"amenity":"fuel","brand":"Лукойл","brand:wikidata":"Q329347","int_name":"Lukoil","website":"https://www.lukoil.bg/"},"wikidata":"Q329347","coordinates":[42.5703462,23.1160912]},"atp":{"id":"E1800Wac3gnMwI0NWx4an8LB2gE=","tags":{"ref":"4862","payment:cards":"yes","atm":"yes","internet_access":"wlan","fuel:lpg":"yes","fuel:diesel":"yes","fuel:octane_98":"yes","fuel:octane_95":"yes","amenity":"fuel","addr:full":"Студена, Студена","addr:street":"Студена","addr:state":"Pernik","addr:country":"BG","name":"Б 051","phone":"+359 76 699 080","email":"b051@benz.lukoil.bg","opening_hours":"24/7","image":"https://lukoil.ru/FileSystem/0/1000034.jpeg","brand":"Лукойл","brand:wikidata":"Q329347"},"coordinates":[42.5707,23.11572]},"dist":49.716,"tags_mismatch":true},{"osm":{"type":"node","id":1348214995,"tags":{"amenity":"fuel","brand":"Лукойл","brand:wikidata":"Q329347"},"wikidata":"Q329347","coordinates":[42.0152965,23.0735033]},"atp":{"id":"SsM3CIqaoMeBeN2Ya4xUNh0rb7M=","tags":{"ref":"5012608","payment:cards":"yes","internet_access":"wlan","amenity":"fuel","addr:full":"Благоевград, Благоевград","addr:street":"Благоевград","addr:city":"Благоевград","addr:state":"Blagoevgrad","addr:country":"BG","name":"Ф 533","phone":"+359 73 833 144","email":"f533@benz.lukoil.bg","opening_hours":"24/7","image":"https://lukoil.ru/FileSystem/0/1005406.jpeg","brand":"Лукойл","brand:wikidata":"Q329347"},"coordinates":[42.0156,23.0734]},"dist":34.81,"tags_mismatch":true},{"osm":{"type":"node","id":1348214998,"tags":{"amenity":"fuel","brand":"Лукойл","brand:wikidata":"Q329347"},"wikidata":"Q329347","coordinates":[42.0437276,23.0497536]},"atp":{"id":"vPnECBUEEEheWrUqCk3AGFj03LU=","tags":{"ref":"4987","payment:cards":"yes","payment:dkv":"yes","payment:lukoil":"yes","atm":"yes","internet_access":"wlan","fuel:lpg":"yes","fuel:diesel":"yes","fuel:octane_98":"yes","fuel:octane_95":"yes","amenity":"fuel","addr:full":"І-1, км.352-300, София-Кулата, Благоевград","addr:street":"І-1, км.352-300, София-Кулата","addr:city":"Благоевград","addr:state":"Kyustendil","addr:country":"BG","name":"Б 002","phone":"+359 73 886 022","email":"b002@benz.lukoil.bg","opening_hours":"24/7","image":"https://lukoil.ru/FileSystem/0/1000159.jpeg","brand":"Лукойл","brand:wikidata":"Q329347"},"coordinates":[42.04337,23.0496]},"dist":41.737,"tags_mismatch":true},{"osm":{"type":"node","id":1404557069,"tags":{"amenity":"fuel","brand":"Лукойл","brand:wikidata":"Q329347","fuel:diesel":"yes","fuel:lpg":"yes","fuel:octane_95":"yes","fuel:octane_98":"yes","opening_hours":"24/7","toilets:wheelchair":"yes","wheelchair":"yes"},"wikidata":"Q329347","coordinates":[41.7307604,24.6838874]},"atp":[{"id":"Exzt7nK03s0W9gUfnYcOR9NApjc=","tags":{"ref":"4964","payment:cards":"yes","internet_access":"wlan","fuel:lpg":"yes","fuel:diesel":"yes","fuel:octane_95":"yes","fuel:octane_98":"yes","amenity":"fuel","@source_uri":"https://lukoil.bg/api/cartography/GetObjects?ids=gasStation4964","@spider":"lukoil","brand:bg":"Лукойл","brand:en":"Lukoil","name:bg":"Лукойл","name:en":"Lukoil","addr:full":"ул. Беломорска, Чепеларе","addr:street":"ул. Беломорска","addr:city":"Чепеларе","addr:state":"Smolyan","addr:country":"BG","name":"Б 192","phone":"+359 30 513 007","email":"O761@benz.lukoil.bg","opening_hours":"24/7","image":"https://lukoil.ru/FileSystem/0/1000136.jpeg","brand":"Лукойл","brand:wikidata":"Q329347","nsi_id":"lukoil-b450da"},"coordinates":[41.74073,24.67808]}],"tags_mismatch":true},{"osm":{"type":"node","id":1425864120,"tags":{"amenity":"fuel","brand":"Лукойл","brand:wikidata":"Q329347"},"wikidata":"Q329347","coordinates":[42.2810512,23.1410045]},"atp":{"id":"IwHFdlzlNjXPmBdsNoLKyjP0VOY=","tags":{"ref":"4947","payment:cards":"yes","internet_access":"wlan","fuel:lpg":"yes","fuel:diesel":"yes","fuel:octane_98":"yes","fuel:octane_95":"yes","amenity":"fuel","addr:full":"ул. Самоковско шосе, 32, Дупница","addr:street":"ул. Самоковско шосе","addr:city":"Дупница","addr:state":"Kyustendil","addr:country":"BG","name":"Б 126","phone":"+359 701 417 77","email":"b126@benz.lukoil.bg","opening_hours":"24/7","image":"https://lukoil.ru/FileSystem/0/1000119.jpeg","brand":"Лукойл","brand:wikidata":"Q329347"},"coordinates":[42.28208,23.14033]},"dist":127.145,"tags_mismatch":true},{"osm":{"type":"node","id":1609968561,"tags":{"amenity":"fuel","brand":"Лукойл","brand:wikidata":"Q329347","int_name":"Lukoil","website":"https://www.lukoil.bg/","wheelchair":"yes"},"wikidata":"Q329347","coordinates":[42.8053373,23.2204665]},"atp":{"id":"UgN69YqYf3IRdjhIjQZFGadDdbY=","tags":{"ref":"4895","payment:cards":"yes","internet_access":"wlan","fuel:lpg":"yes","fuel:diesel":"yes","fuel:octane_95":"yes","amenity":"fuel","addr:full":"бул. Ломско шосе - изход София, Костинброд","addr:street":"бул. Ломско шосе - изход София","addr:city":"Костинброд","addr:state":"Sofiya","addr:country":"BG","name":"Б 063","phone":"+359 72 160 424","email":"b063@benz.lukoil.bg","opening_hours":"24/7","image":"https://lukoil.ru/FileSystem/0/1000067.jpeg","brand":"Лукойл","brand:wikidata":"Q329347"},"coordinates":[42.80557,23.22098]},"dist":49.238,"tags_mismatch":true},{"osm":{"type":"node","id":1645865936,"tags":{"amenity":"fuel","brand":"Лукойл","brand:wikidata":"Q329347","fuel:biogas":"yes","fuel:diesel":"yes","fuel:octane_95":"yes"},"wikidata":"Q329347","coordinates":[43.5291732,26.5114831]},"atp":{"id":"yZJjD_BscVd1G8NXIU2XE1cGU9A=","tags":{"ref":"4850","payment:cards":"yes","fuel:lpg":"yes","fuel:diesel":"yes","fuel:octane_98":"yes","fuel:octane_95":"yes","amenity":"fuel","addr:full":"ул. Априлско въстание, Разград","addr:street":"ул. Априлско въстание","addr:city":"Разград","addr:state":"Razgrad","addr:country":"BG","name":"Б 184","phone":"+359 84 660 119","email":"O755@benz.lukoil.bg","opening_hours":"24/7","image":"https://lukoil.ru/FileSystem/0/1000022.jpeg","brand":"Лукойл","brand:wikidata":"Q329347"},"coordinates":[43.53074,26.51103]},"dist":178.008,"tags_mismatch":true},{"osm":{"type":"node","id":1700083395,"tags":{"addr:city":"София","addr:housenumber":"76","addr:postcode":"1618","addr:street":"бул. Братя Бъкстон","amenity":"fuel","brand":"Лукойл","brand:wikidata":"Q329347","int_name":"Lukoil","website":"https://www.lukoil.bg/"},"wikidata":"Q329347","coordinates":[42.6606787,23.272918]},"atp":{"id":"INl16NkdzxoTRoAQAhCV3UTs60Y=","tags":{"ref":"4810","payment:cards":"yes","atm":"yes","internet_access":"wlan","fuel:diesel":"yes","fuel:octane_98":"yes","fuel:octane_95":"yes","amenity":"fuel","addr:full":"бул. Бъкстон, София","addr:street":"бул. Бъкстон","addr:city":"София","addr:state":"Sofia-Capital","addr:country":"BG","name":"Б 146","phone":"+359 2 855 5104","email":"b146@benz.lukoil.bg","opening_hours":"24/7","brand":"Лукойл","brand:wikidata":"Q329347"},"coordinates":[42.66136,23.27278]},"dist":76.593,"tags_mismatch":true},{"osm":{"type":"node","id":1837792014,"tags":{"amenity":"fuel","brand":"Лукойл","brand:wikidata":"Q329347","compressed_air":"yes"},"wikidata":"Q329347","coordinates":[43.4357269,24.5996618]},"atp":{"id":"J3fImfl6Kt_EP4bkw7zzsQT1Vws=","tags":{"ref":"4922","payment:cards":"yes","internet_access":"wlan","fuel:lpg":"yes","fuel:diesel":"yes","fuel:octane_98":"yes","fuel:octane_95":"yes","amenity":"fuel","addr:full":"изход Русе, Плевен","addr:street":"изход Русе","addr:city":"Плевен","addr:state":"Pleven","addr:country":"BG","name":"Б 128","phone":"+359 64 804 373","email":"b128@benz.lukoil.bg","opening_hours":"24/7","image":"https://lukoil.ru/FileSystem/0/1000094.jpeg","brand":"Лукойл","brand:wikidata":"Q329347"},"coordinates":[43.43572,24.59977]},"dist":8.77,"tags_mismatch":true},{"osm":{"type":"node","id":1976326280,"tags":{"amenity":"fuel","brand":"Лукойл","brand:wikidata":"Q329347","shop":"convenience"},"wikidata":"Q329347","coordinates":[42.983242,25.4802755]},"atp":{"id":"-yzVsPSpzKkaKO3GZ-hzuhoQC3c=","tags":{"ref":"8642","payment:cards":"yes","internet_access":"wlan","fuel:lpg":"yes","fuel:diesel":"yes","fuel:octane_95":"yes","fuel:octane_98":"yes","amenity":"fuel","addr:full":"изход В.Търново, Дряново","addr:street":"изход В.Търново","addr:city":"Дряново","addr:state":"Gabrovo","addr:country":"BG","name":"Б 196","phone":"+359 67 671 116","email":"b196@benz.lukoil.bg","opening_hours":"24/7","image":"https://lukoil.ru/FileSystem/0/1000178.jpeg","brand":"Лукойл","brand:wikidata":"Q329347"},"coordinates":[42.98287,25.48031]},"dist":41.46,"tags_mismatch":true},{"osm":{"type":"node","id":2004313634,"tags":{"amenity":"fuel","brand":"Лукойл","brand:wikidata":"Q329347","fuel:diesel":"yes","fuel:lpg":"yes","fuel:octane_95":"yes","fuel:octane_98":"yes"},"wikidata":"Q329347","coordinates":[43.8430469,25.9488837]},"atp":{"id":"RZIzvylliGrKZQlhLNcCAraasvQ=","tags":{"ref":"4808","payment:cards":"yes","internet_access":"wlan","fuel:diesel":"yes","fuel:octane_98":"yes","fuel:octane_95":"yes","amenity":"fuel","addr:full":"ул. Рила, 3, Русе","addr:street":"ул. Рила","addr:city":"Русе","addr:state":"Ruse","addr:country":"BG","name":"Б 158","phone":"+359 82 823 145","email":"b158@benz.lukoil.bg","opening_hours":"24/7","brand":"Лукойл","brand:wikidata":"Q329347"},"coordinates":[43.84327,25.94887]},"dist":24.832,"tags_mismatch":true},{"osm":{"type":"node","id":2303675206,"tags":{"amenity":"fuel","brand":"Лукойл","brand:wikidata":"Q329347","fuel:diesel":"yes","fuel:lpg":"yes","fuel:octane_95":"yes","fuel:octane_98":"yes","wheelchair":"yes"},"wikidata":"Q329347","coordinates":[42.4559731,27.4407785]},"atp":{"id":"dYEyedbxSAsJ6GeXdzKbm8iccg4=","tags":{"ref":"4972","payment:cards":"yes","payment:lukoil":"yes","internet_access":"wlan","fuel:lpg":"yes","fuel:diesel":"yes","fuel:octane_98":"yes","fuel:octane_95":"yes","amenity":"fuel","addr:full":"Бургас - изход Созопол, Бургас","addr:street":"Бургас - изход Созопол","addr:city":"Бургас","addr:state":"Burgas","addr:country":"BG","name":"Б 020","phone":"+359 56 854 787","email":"b020@benz.lukoil.bg","opening_hours":"24/7","image":"https://lukoil.ru/FileSystem/0/1000144.jpeg","brand":"Лукойл","brand:wikidata":"Q329347"},"coordinates":[42.45621,27.44032]},"dist":45.922,"tags_mismatch":true},{"osm":{"type":"node","id":2342218270,"tags":{"amenity":"fuel","brand":"Лукойл","brand:wikidata":"Q329347"},"wikidata":"Q329347","coordinates":[42.681662,26.3011503]},"atp":{"id":"WAM-XdoKzJAyN8OV0zPOQopbWsE=","tags":{"ref":"4871","payment:cards":"yes","internet_access":"wlan","fuel:lpg":"yes","fuel:diesel":"yes","fuel:octane_95":"yes","fuel:octane_98":"yes","amenity":"fuel","addr:full":"кв. Клуцохор, изход за гр. Елена, Сливен","addr:street":"кв. Клуцохор, изход за гр. Елена","addr:city":"Сливен","addr:state":"Sliven","addr:country":"BG","name":"Б 085","phone":"+359 44 622 292","email":"b085@benz.lukoil.bg","opening_hours":"24/7","image":"https://lukoil.ru/FileSystem/0/1000043.jpeg","brand":"Лукойл","brand:wikidata":"Q329347"},"coordinates":[42.68211,26.30062]},"dist":66.035,"tags_mismatch":true},{"osm":{"type":"node","id":2365595849,"tags":{"amenity":"fuel","brand":"Лукойл","brand:wikidata":"Q329347","fuel:diesel":"yes","fuel:lpg":"yes","fuel:octane_92":"yes","fuel:octane_95":"yes"},"wikidata":"Q329347","coordinates":[42.3142763,23.8572154]},"atp":{"id":"vP7qDaG_fma7bqJffWHr2d6YJLQ=","tags":{"ref":"4957","payment:cards":"yes","internet_access":"wlan","fuel:lpg":"yes","fuel:diesel":"yes","fuel:octane_98":"yes","fuel:octane_95":"yes","amenity":"fuel","addr:full":"Костенец, Костенец","addr:street":"Костенец","addr:city":"Костенец","addr:state":"Sofiya","addr:country":"BG","name":"Б 140","phone":"07142;23 73","email":"b140@benz.lukoil.bg","opening_hours":"24/7","image":"https://lukoil.ru/FileSystem/0/1000129.jpeg","brand":"Лукойл","brand:wikidata":"Q329347"},"coordinates":[42.31447,23.85699]},"dist":28.415,"tags_mismatch":true},{"osm":{"type":"node","id":2378002904,"tags":{"amenity":"fuel","brand":"Лукойл","brand:wikidata":"Q329347"},"wikidata":"Q329347","coordinates":[43.2502497,23.5731241]},"atp":{"id":"3KwwxWH2_Xc2xZuR7mktxNlU5h0=","tags":{"ref":"4937","payment:cards":"yes","internet_access":"wlan","fuel:lpg":"yes","fuel:diesel":"yes","fuel:octane_98":"yes","fuel:octane_95":"yes","amenity":"fuel","addr:full":"местност Дъбника, Враца","addr:street":"местност Дъбника","addr:city":"Враца","addr:state":"Vratsa","addr:country":"BG","name":"Б 127","phone":"092;64 02 79","email":"b127@benz.lukoil.bg","opening_hours":"24/7","image":"https://lukoil.ru/FileSystem/0/1000109.jpeg","brand":"Лукойл","brand:wikidata":"Q329347"},"coordinates":[43.25046,23.57272]},"dist":40.224,"tags_mismatch":true},{"osm":{"type":"node","id":2384047125,"tags":{"addr:city":"Елин Пелин","amenity":"fuel","brand":"Лукойл","brand:wikidata":"Q329347","int_name":"Lukoil","website":"https://www.lukoil.bg/"},"wikidata":"Q329347","coordinates":[42.6750733,23.5893535]},"atp":{"id":"rhA7PcetnE2o0e9oWBJtQQBjBP4=","tags":{"ref":"4944","payment:cards":"yes","internet_access":"wlan","fuel:lpg":"yes","fuel:diesel":"yes","fuel:octane_98":"yes","fuel:octane_95":"yes","amenity":"fuel","addr:full":"Софийско шосе, Елин Пелин","addr:street":"Софийско шосе","addr:city":"Елин Пелин","addr:state":"Sofiya","addr:country":"BG","name":"Б 144","phone":"0725;66869","email":"b144@benz.lukoil.bg","opening_hours":"24/7","image":"https://lukoil.ru/FileSystem/0/1000116.jpeg","brand":"Лукойл","brand:wikidata":"Q329347"},"coordinates":[42.67511,23.58955]},"dist":16.574,"tags_mismatch":true},{"osm":{"type":"node","id":2395084387,"tags":{"amenity":"fuel","brand":"Лукойл","brand:wikidata":"Q329347","fuel:diesel":"yes","fuel:lpg":"yes","fuel:octane_95":"yes","fuel:octane_98":"yes"},"wikidata":"Q329347","coordinates":[43.4021111,23.2375647]},"atp":{"id":"tRlcI6lY8yKqwoaoCCW6oSmHAaI=","tags":{"ref":"4960","payment:cards":"yes","payment:dkv":"yes","payment:lukoil":"yes","atm":"yes","internet_access":"wlan","fuel:lpg":"yes","fuel:diesel":"yes","fuel:octane_98":"yes","fuel:octane_95":"yes","amenity":"fuel","addr:full":"ул. Ал.Стамболийски, Монтана","addr:street":"ул. Ал.Стамболийски","addr:city":"Монтана","addr:state":"Montana","addr:country":"BG","name":"Б 122","phone":"+359 96 301 852","email":"b122@benz.lukoil.bg","opening_hours":"24/7","image":"https://lukoil.ru/FileSystem/0/1000132.jpeg","brand":"Лукойл","brand:wikidata":"Q329347"},"coordinates":[43.40234,23.23783]},"dist":33.275,"tags_mismatch":true},{"osm":{"type":"node","id":2397311598,"tags":{"amenity":"fuel","brand":"Лукойл","brand:wikidata":"Q329347","fuel:lpg":"yes"},"wikidata":"Q329347","coordinates":[43.5222775,26.5346361]},"atp":{"id":"QKNwOS7uYWjo_YnSbO_jquHGOKc=","tags":{"ref":"4879","payment:cards":"yes","internet_access":"wlan","fuel:lpg":"yes","fuel:diesel":"yes","fuel:octane_95":"yes","fuel:octane_98":"yes","amenity":"fuel","addr:full":"ул. Априлско възстание, Разград","addr:street":"ул. Априлско възстание","addr:city":"Разград","addr:state":"Razgrad","addr:country":"BG","name":"Б 073","phone":"084;660 864","email":"b073@benz.lukoil.bg","opening_hours":"24/7","image":"https://lukoil.ru/FileSystem/0/1000051.jpeg","brand":"Лукойл","brand:wikidata":"Q329347"},"coordinates":[43.52232,26.53481]},"dist":14.796,"tags_mismatch":true},{"osm":{"type":"node","id":2397495665,"tags":{"amenity":"fuel","brand":"Лукойл","brand:wikidata":"Q329347","fuel:diesel":"yes","fuel:octane_95":"yes","fuel:octane_98":"yes"},"wikidata":"Q329347","coordinates":[42.6515312,26.9837423]},"atp":{"id":"dF1ZV2bYNQgFlvMTcTnu7wc6TEA=","tags":{"ref":"4967","payment:cards":"yes","internet_access":"wlan","fuel:lpg":"yes","fuel:diesel":"yes","fuel:octane_98":"yes","fuel:octane_95":"yes","amenity":"fuel","addr:full":"ул. Московска, Карнобат","addr:street":"ул. Московска","addr:city":"Карнобат","addr:state":"Burgas","addr:country":"BG","name":"Б 009","phone":"+359 55 926 110","email":"b009@benz.lukoil.bg","opening_hours":"24/7","image":"https://lukoil.ru/FileSystem/0/1000139.jpeg","brand":"Лукойл","brand:wikidata":"Q329347"},"coordinates":[42.65126,26.98276]},"dist":85.809,"tags_mismatch":true},{"osm":{"type":"node","id":2780879736,"tags":{"addr:city":"Воденичане","addr:housenumber":"299 км","addr:postcode":"8693","addr:street":"Автомагистрала Тракия","amenity":"fuel","brand":"Лукойл","brand:wikidata":"Q329347","fuel:diesel":"yes","fuel:octane_95":"yes","fuel:octane_98":"yes","ref":"Б198"},"wikidata":"Q329347","coordinates":[42.5562968,26.6854176]},"atp":{"id":"ZX4s58mIkwUtGcBfqgyg8_qIUyM=","tags":{"ref":"46802","payment:cards":"yes","payment:dkv":"yes","payment:lukoil":"yes","internet_access":"wlan","fuel:lpg":"yes","fuel:diesel":"yes","fuel:octane_95":"yes","fuel:octane_98":"yes","amenity":"fuel","addr:full":"АМ Тракия 288 км юг, Воденичане","addr:street":"АМ Тракия 288 км юг","addr:state":"Yambol","addr:country":"BG","name":"Б 198","phone":"+359 47 622 270","email":"b198@benz.lukoil.bg","opening_hours":"24/7","image":"https://lukoil.ru/FileSystem/0/1000195.jpeg","brand":"Лукойл","brand:wikidata":"Q329347"},"coordinates":[42.55671947,26.68553066]},"dist":47.902,"tags_mismatch":true},{"osm":{"type":"node","id":2839639582,"tags":{"amenity":"fuel","brand":"Лукойл","brand:wikidata":"Q329347","compressed_air":"yes"},"wikidata":"Q329347","coordinates":[43.1286695,25.6905975]},"atp":{"id":"654sK8YxZBgVBOncj2RAhXNHH1k=","tags":{"ref":"4950","payment:cards":"yes","atm":"yes","internet_access":"wlan","fuel:lpg":"yes","fuel:diesel":"yes","fuel:octane_98":"yes","fuel:octane_95":"yes","amenity":"fuel","addr:full":"ул. Цар Освободител, Горна Оряховица","addr:street":"ул. Цар Освободител","addr:city":"Горна Оряховица","addr:state":"Veliko Turnovo","addr:country":"BG","name":"Б 166","phone":"+359 61 822 050","email":"b166@benz.lukoil.bg","opening_hours":"24/7","image":"https://lukoil.ru/FileSystem/0/1000122.jpeg","brand":"Лукойл","brand:wikidata":"Q329347"},"coordinates":[43.12859,25.69031]},"dist":24.95,"tags_mismatch":true},{"osm":{"type":"node","id":2994295461,"tags":{"amenity":"fuel","brand":"Лукойл","brand:wikidata":"Q329347","fuel:diesel":"yes","fuel:lpg":"yes","fuel:octane_95":"yes","fuel:octane_98":"yes","opening_hours":"24/7"},"wikidata":"Q329347","coordinates":[41.6147888,23.9918037]},"atp":[{"id":"1tQfxfpAxVg6nu6n4dUCjEl02AY=","tags":{"ref":"4966","payment:cards":"yes","internet_access":"wlan","fuel:lpg":"yes","fuel:diesel":"yes","fuel:octane_95":"yes","fuel:octane_98":"yes","amenity":"fuel","@source_uri":"https://lukoil.bg/api/cartography/GetObjects?ids=gasStation4966","@spider":"lukoil","brand:bg":"Лукойл","brand:en":"Lukoil","name:bg":"Лукойл","name:en":"Lukoil","addr:full":"Сатовча, Сатовча","addr:street":"Сатовча","addr:state":"Blagoevgrad","addr:country":"BG","name":"Б 101","phone":"+359 75 412 176","email":"b101@benz.lukoil.bg","opening_hours":"24/7","image":"https://lukoil.ru/FileSystem/0/1000138.jpeg","brand":"Лукойл","brand:wikidata":"Q329347","nsi_id":"lukoil-b450da"},"coordinates":[41.62344,23.99709]}],"tags_mismatch":true},{"osm":{"type":"node","id":3068270253,"tags":{"amenity":"fuel","brand":"Лукойл","brand:wikidata":"Q329347","compressed_air":"yes"},"wikidata":"Q329347","coordinates":[42.0896748,24.7952662]},"atp":{"id":"kHBzGgCEVG9g1mCKaUNTMfALdQk=","tags":{"ref":"4904","payment:cards":"yes","internet_access":"wlan","fuel:lpg":"yes","fuel:diesel":"yes","fuel:octane_95":"yes","fuel:octane_98":"yes","amenity":"fuel","addr:full":"Aсеновградско шосе, вход Пловдив, Асеновград","addr:street":"Aсеновградско шосе, вход Пловдив","addr:city":"Асеновград","addr:state":"Plovdiv","addr:country":"BG","name":"Б 082","phone":"+359 32 622 819","email":"b082@benz.lukoil.bg","opening_hours":"24/7","image":"https://lukoil.ru/FileSystem/0/1000076.jpeg","brand":"Лукойл","brand:wikidata":"Q329347"},"coordinates":[42.08932,24.79544]},"dist":41.978,"tags_mismatch":true},{"osm":{"type":"node","id":3325309856,"tags":{"amenity":"fuel","brand":"Лукойл","brand:wikidata":"Q329347"},"wikidata":"Q329347","coordinates":[41.4829708,23.2573502]},"atp":{"id":"L7ShB45LSfVrcMTOoVkfwV-1b24=","tags":{"ref":"4971","payment:cards":"yes","internet_access":"wlan","fuel:lpg":"yes","fuel:diesel":"yes","fuel:octane_95":"yes","fuel:octane_98":"yes","amenity":"fuel","addr:full":"Рибник, Рибник","addr:street":"Рибник","addr:state":"Blagoevgrad","addr:country":"BG","name":"Б 003","phone":"+359 74 560 364","email":"b003@benz.lukoil.bg","opening_hours":"24/7","image":"https://lukoil.ru/FileSystem/0/1000143.jpeg","brand":"Лукойл","brand:wikidata":"Q329347"},"coordinates":[41.48316,23.25706]},"dist":32.047,"tags_mismatch":true},{"osm":{"type":"node","id":3472722940,"tags":{"amenity":"fuel","brand":"Лукойл","brand:wikidata":"Q329347"},"wikidata":"Q329347","coordinates":[43.4262437,24.5890984]},"atp":{"id":"hTkoq4Ofq7HAiX0QwaWTbB_yyWc=","tags":{"ref":"4893","payment:cards":"yes","internet_access":"wlan","fuel:lpg":"yes","fuel:diesel":"yes","fuel:octane_95":"yes","amenity":"fuel","addr:full":"кв. Сторгозия, Плевен","addr:street":"кв. Сторгозия","addr:city":"Плевен","addr:state":"Pleven","addr:country":"BG","name":"Б 060","phone":"+359 64 681 172","email":"b060@benz.lukoil.bg","opening_hours":"24/7","image":"https://lukoil.ru/FileSystem/0/1000065.jpeg","brand":"Лукойл","brand:wikidata":"Q329347"},"coordinates":[43.42652,24.58863]},"dist":48.731,"tags_mismatch":true},{"osm":{"type":"node","id":3934703050,"tags":{"amenity":"fuel","brand":"Лукойл","brand:wikidata":"Q329347","check_date":"2023-03-11","int_name":"Lukoil","opening_hours":"24/7","source":"Bing","website":"https://www.lukoil.bg/"},"wikidata":"Q329347","coordinates":[42.6047267,23.114976]},"atp":{"id":"UNl4-Aqs7FQ8AFSA1VRs-IhBn1k=","tags":{"ref":"4902","payment:cards":"yes","atm":"yes","internet_access":"wlan","fuel:lpg":"yes","fuel:diesel":"yes","fuel:octane_95":"yes","fuel:octane_98":"yes","amenity":"fuel","addr:full":"кв. Ладовица, Перник","addr:street":"кв. Ладовица","addr:city":"Перник","addr:state":"Pernik","addr:country":"BG","name":"Б 068","phone":"076;671 371","email":"b068@benz.lukoil.bg","opening_hours":"24/7","image":"https://lukoil.ru/FileSystem/0/1000074.jpeg","brand":"Лукойл","brand:wikidata":"Q329347"},"coordinates":[42.60517,23.11463]},"dist":56.848,"tags_mismatch":true},{"osm":{"type":"node","id":3951232581,"tags":{"addr:city":"Каблешково","addr:postcode":"8210","amenity":"fuel","brand":"Лукойл","brand:wikidata":"Q329347","fuel:diesel":"yes","fuel:lpg":"yes","fuel:octane_95":"yes","opening_hours":"24/7"},"wikidata":"Q329347","coordinates":[42.6543085,27.5633397]},"atp":[{"id":"Vy8tkuvoQs3ZW0SJvemJPf9TUY8=","tags":{"ref":"4882","payment:cards":"yes","internet_access":"wlan","fuel:lpg":"yes","fuel:diesel":"yes","fuel:octane_95":"yes","amenity":"fuel","@source_uri":"https://lukoil.bg/api/cartography/GetObjects?ids=gasStation4882","@spider":"lukoil","brand:bg":"Лукойл","brand:en":"Lukoil","name:bg":"Лукойл","name:en":"Lukoil","addr:full":"Каблешково, Каблешково","addr:street":"Каблешково","addr:city":"Каблешково","addr:state":"Burgas","addr:country":"BG","name":"Б 086","phone":"+359 59 682 461","email":"b086@benz.lukoil.bg","opening_hours":"24/7","image":"https://lukoil.ru/FileSystem/0/1000054.jpeg","brand":"Лукойл","brand:wikidata":"Q329347","nsi_id":"lukoil-b450da"},"coordinates":[42.65744,27.56178]}],"tags_mismatch":true},{"osm":{"type":"node","id":4004702604,"tags":{"amenity":"fuel","brand":"Лукойл","brand:wikidata":"Q329347","fuel:diesel":"yes","fuel:octane_95":"yes"},"wikidata":"Q329347","coordinates":[42.0239574,24.9004758]},"atp":[{"id":"ix8cWAaG8FCtIbSfJS9NL_IgVc8=","tags":{"ref":"5012617","payment:cards":"yes","internet_access":"wlan","amenity":"fuel","@source_uri":"https://lukoil.bg/api/cartography/GetObjects?ids=gasStation5012617","@spider":"lukoil","brand:bg":"Лукойл","brand:en":"Lukoil","name:bg":"Лукойл","name:en":"Lukoil","addr:full":"ул. „Цар Иван Асен ІІ”, 125, Асеновград","addr:street":"ул. „Цар Иван Асен ІІ”","addr:city":"Асеновград","addr:state":"Plovdiv","addr:country":"BG","name":"Ф 554","phone":"0331;65310","email":"f554@benz.lukoil.bg","opening_hours":"24/7","image":"https://lukoil.ru/FileSystem/0/1005413.jpeg","brand":"Лукойл","brand:wikidata":"Q329347","nsi_id":"lukoil-b450da"},"coordinates":[42.01614169,24.8876667]}],"tags_mismatch":true},{"osm":{"type":"node","id":4307731891,"tags":{"amenity":"fuel","brand":"Лукойл","brand:wikidata":"Q329347","description":"km 288, север","ref":"Б017"},"wikidata":"Q329347","coordinates":[42.557235,26.6853585]},"atp":{"id":"sgwXoPH6MuG95dj8_jdnMiw6uxM=","tags":{"ref":"71401","payment:cards":"yes","internet_access":"wlan","fuel:lpg":"yes","fuel:diesel":"yes","fuel:octane_95":"yes","fuel:octane_98":"yes","amenity":"fuel","addr:full":"АМ Тракия 288 км север, Воденичане","addr:street":"АМ Тракия 288 км север","addr:state":"Yambol","addr:country":"BG","name":"Б 202","phone":"+359 47 622 270","email":"b202@benz.lukoil.bg","opening_hours":"24/7","image":"https://lukoil.ru/FileSystem/0/1000194.jpeg","brand":"Лукойл","brand:wikidata":"Q329347"},"coordinates":[42.5569,26.6855]},"dist":39.012,"tags_mismatch":true},{"osm":{"type":"node","id":4343354606,"tags":{"amenity":"fuel","brand":"Лукойл","brand:wikidata":"Q329347"},"wikidata":"Q329347","coordinates":[42.2710233,24.2945368]},"atp":{"id":"ATw2Vl8O53eRJeLMACT5p7ZYF9c=","tags":{"ref":"5012411","payment:cards":"yes","payment:lukoil":"yes","internet_access":"wlan","amenity":"fuel","addr:full":"АМ \"Тракия\" - 88 км. север, Гелеменово","addr:street":"АМ \"Тракия\" - 88 км. север","addr:state":"Pazardzhik","addr:country":"BG","name":"Ф 562","phone":"0895;562 815","email":"f562@benz.lukoil.bg","opening_hours":"24/7","image":"https://lukoil.ru/FileSystem/0/1005603.jpeg","brand":"Лукойл","brand:wikidata":"Q329347"},"coordinates":[42.2709,24.2949]},"dist":32.879,"tags_mismatch":true},{"osm":{"type":"node","id":4361620394,"tags":{"amenity":"fuel","brand":"Лукойл","brand:wikidata":"Q329347","fuel:diesel":"yes","fuel:octane_95":"yes","fuel:octane_98":"yes"},"wikidata":"Q329347","coordinates":[42.4777359,23.7979602]},"atp":[{"id":"GTX3b-rgzMp4ELM49J29mwlHRbU=","tags":{"ref":"8767","payment:cards":"yes","internet_access":"wlan","fuel:lpg":"yes","fuel:diesel":"yes","fuel:octane_95":"yes","fuel:octane_98":"yes","amenity":"fuel","@source_uri":"https://lukoil.bg/api/cartography/GetObjects?ids=gasStation8767","@spider":"lukoil","brand:bg":"Лукойл","brand:en":"Lukoil","name:bg":"Лукойл","name:en":"Lukoil","addr:full":"АМ Тракия 36 км., Север, Ихтиман","addr:street":"АМ Тракия 36 км., Север","addr:city":"Ихтиман","addr:state":"Sofiya","addr:country":"BG","name":"Б 117","phone":"+359 72 482 028","email":"b117@benz.lukoil.bg","opening_hours":"24/7","image":"https://lukoil.ru/FileSystem/0/1000183.jpeg","brand":"Лукойл","brand:wikidata":"Q329347","nsi_id":"lukoil-b450da"},"coordinates":[42.5335,23.7347]}],"tags_mismatch":true},{"osm":{"type":"node","id":4650952589,"tags":{"amenity":"fuel","brand":"Лукойл","brand:wikidata":"Q329347","opening_hours":"24/7","wheelchair":"yes"},"wikidata":"Q329347","coordinates":[42.4938509,26.0004456]},"atp":{"id":"n_lO1ghdp9Tjw-JCMYLSz7lR-5w=","tags":{"ref":"4859","payment:cards":"yes","payment:dkv":"yes","payment:lukoil":"yes","internet_access":"wlan","fuel:lpg":"yes","fuel:diesel":"yes","fuel:octane_95":"yes","fuel:octane_98":"yes","amenity":"fuel","addr:full":"пътя за Свиленград, Нова Загора","addr:street":"пътя за Свиленград","addr:city":"Нова Загора","addr:state":"Sliven","addr:country":"BG","name":"Б 072","phone":"+359 45 763 074","email":"b072@benz.lukoil.bg","opening_hours":"24/7","image":"https://lukoil.ru/FileSystem/0/1000031.jpeg","brand":"Лукойл","brand:wikidata":"Q329347"},"coordinates":[42.49441,26.00047]},"dist":62.201,"tags_mismatch":true},{"osm":{"type":"node","id":4677878408,"tags":{"amenity":"fuel","brand":"Лукойл","brand:wikidata":"Q329347","int_name":"Lukoil","website":"https://www.lukoil.bg/"},"wikidata":"Q329347","coordinates":[42.8217084,23.2114827]},"atp":{"id":"ERTBA3k5EjHJrWHzYOSIur7UGh0=","tags":{"ref":"4925","payment:cards":"yes","internet_access":"wlan","fuel:lpg":"yes","fuel:diesel":"yes","fuel:octane_98":"yes","fuel:octane_95":"yes","amenity":"fuel","addr:full":"бул. Ломско шосе, Костинброд","addr:street":"бул. Ломско шосе","addr:city":"Костинброд","addr:state":"Sofiya","addr:country":"BG","name":"Б 162","phone":"+359 72 166 270","email":"b162@benz.lukoil.bg","opening_hours":"24/7","image":"https://lukoil.ru/FileSystem/0/1000097.jpeg","brand":"Лукойл","brand:wikidata":"Q329347"},"coordinates":[42.82224,23.21092]},"dist":74.835,"tags_mismatch":true},{"osm":{"type":"node","id":5016057135,"tags":{"amenity":"fuel","brand":"Лукойл","brand:wikidata":"Q329347","fuel:HGV_diesel":"no","fuel:diesel":"yes","fuel:octane_95":"yes","fuel:octane_98":"yes","opening_hours":"Mo-Su 07:00-19:00","payment:coins":"yes","payment:mastercard":"yes","payment:notes":"yes","payment:visa":"yes","ref":"Б172","shop":"convenience","wheelchair":"yes"},"wikidata":"Q329347","coordinates":[42.6496414,26.9690497]},"atp":{"id":"u-C2tTC7UrXB1THoCUjaM2ZGnBU=","tags":{"ref":"4817","payment:cards":"yes","internet_access":"wlan","fuel:diesel":"yes","fuel:octane_95":"yes","fuel:octane_98":"yes","amenity":"fuel","addr:full":"гл. път София-Бургас, Карнобат","addr:street":"гл. път София-Бургас","addr:city":"Карнобат","addr:state":"Burgas","addr:country":"BG","name":"Б 172","phone":"+359 55 922 079","email":"b172@benz.lukoil.bg","opening_hours":"Mo-Su 07:00-19:00","brand":"Лукойл","brand:wikidata":"Q329347"},"coordinates":[42.64983,26.9689]},"dist":24.284,"tags_mismatch":true},{"osm":{"type":"node","id":5194578249,"tags":{"addr:housenumber":"1","addr:postcode":"1280","addr:street":"Искърско дефиле","amenity":"fuel","brand":"Лукойл","brand:wikidata":"Q329347","int_name":"Lukoil - Novi Iskar","opening_hours":"24/7","phone":"02 938 4819","website":"https://www.lukoil.bg/"},"wikidata":"Q329347","coordinates":[42.7888951,23.3274668]},"atp":{"id":"cUAv2-7COEafXy3y-jwPbrBZDiA=","tags":{"ref":"4896","payment:cards":"yes","internet_access":"wlan","fuel:lpg":"yes","fuel:diesel":"yes","fuel:octane_98":"yes","fuel:octane_95":"yes","amenity":"fuel","addr:full":"ул. Искърско дефиле, 1, Нови Искър","addr:street":"ул. Искърско дефиле","addr:city":"Нови Искър","addr:state":"Sofia-Capital","addr:country":"BG","name":"Б 054","phone":"+359 2 938 4819","email":"b054@benz.lukoil.bg","opening_hours":"24/7","image":"https://lukoil.ru/FileSystem/0/1000068.jpeg","brand":"Лукойл","brand:wikidata":"Q329347"},"coordinates":[42.78884,23.3276]},"dist":12.477,"tags_mismatch":true},{"osm":{"type":"node","id":5777563174,"tags":{"amenity":"fuel","brand":"Лукойл","brand:wikidata":"Q329347"},"wikidata":"Q329347","coordinates":[43.1477887,23.7198687]},"atp":{"id":"X8POfG75PB7qBSZ0MkicnsLGKNg=","tags":{"ref":"4992","payment:cards":"yes","internet_access":"wlan","fuel:lpg":"yes","fuel:diesel":"yes","fuel:octane_95":"yes","amenity":"fuel","addr:full":"ул. Ал. Стамболийски, 24, Мездра","addr:street":"ул. Ал. Стамболийски","addr:city":"Мездра","addr:state":"Vratsa","addr:country":"BG","name":"Б 045","phone":"+359 91 092 454","email":"b045@benz.lukoil.bg","opening_hours":"24/7","image":"https://lukoil.ru/FileSystem/0/1000164.jpeg","brand":"Лукойл","brand:wikidata":"Q329347"},"coordinates":[43.14822,23.71995]},"dist":48.41,"tags_mismatch":true},{"osm":{"type":"node","id":5781588546,"tags":{"amenity":"fuel","brand":"Лукойл","brand:wikidata":"Q329347"},"wikidata":"Q329347","coordinates":[43.8027216,23.2363123]},"atp":{"id":"pz2Xr-yeISnER_iOAsMJF-kzmZo=","tags":{"ref":"4931","payment:cards":"yes","internet_access":"wlan","fuel:lpg":"yes","fuel:diesel":"yes","fuel:octane_95":"yes","amenity":"fuel","addr:full":"Белоградчишко шосе, Лом","addr:street":"Белоградчишко шосе","addr:city":"Лом","addr:state":"Montana","addr:country":"BG","name":"Б 165","phone":"+359 97 161 133","email":"b165@benz.lukoil.bg","opening_hours":"24/7","image":"https://lukoil.ru/FileSystem/0/1000103.jpeg","brand":"Лукойл","brand:wikidata":"Q329347"},"coordinates":[43.80284,23.23599]},"dist":29.023,"tags_mismatch":true},{"osm":{"type":"node","id":5909623077,"tags":{"amenity":"fuel","brand":"Лукойл","brand:wikidata":"Q329347","int_name":"Lukoil","website":"https://www.lukoil.bg/"},"wikidata":"Q329347","coordinates":[42.7235858,23.3285584]},"atp":{"id":"xJSqcfediMeIeh5UIdNEU4tI3I4=","tags":{"ref":"4917","payment:cards":"yes","internet_access":"wlan","fuel:lpg":"yes","fuel:diesel":"yes","fuel:octane_98":"yes","fuel:octane_95":"yes","amenity":"fuel","addr:full":"кв. Орландовци, София","addr:street":"кв. Орландовци","addr:city":"София","addr:state":"Sofia-Capital","addr:country":"BG","name":"Б 130","phone":"+359 2 936 7516","email":"b130@benz.lukoil.bg","opening_hours":"24/7","image":"https://lukoil.ru/FileSystem/0/1000089.jpeg","brand":"Лукойл","brand:wikidata":"Q329347"},"coordinates":[42.72354,23.32843]},"dist":11.66,"tags_mismatch":true},{"osm":{"type":"node","id":6432667098,"tags":{"amenity":"fuel","branch":"Б095","brand":"Лукойл","brand:wikidata":"Q329347","check_date":"2023-12-09","contact:phone":"+359 800 20 220","fuel:HGV_diesel":"yes","fuel:diesel":"yes","fuel:lpg":"yes","fuel:octane_100":"yes","fuel:octane_95":"yes","internet_access":"wlan","internet_access:fee":"customers","opening_hours":"24/7","payment:cash":"yes","payment:mastercard":"yes","payment:visa":"yes","wheelchair":"yes"},"wikidata":"Q329347","coordinates":[43.424918,23.2285006]},"atp":{"id":"fL0VDWv3sY3CBvxF9ON_hCm-LDI=","tags":{"ref":"4852","payment:cards":"yes","atm":"yes","internet_access":"wlan","fuel:lpg":"yes","fuel:diesel":"yes","fuel:octane_95":"yes","fuel:octane_98":"yes","amenity":"fuel","addr:full":"бул. Трети март, 145, Монтана","addr:street":"бул. Трети март","addr:city":"Монтана","addr:state":"Montana","addr:country":"BG","name":"Б 095","phone":"+359 96 306 207","email":"b095@benz.lukoil.bg","opening_hours":"24/7","image":"https://lukoil.ru/FileSystem/0/1000024.jpeg","brand":"Лукойл","brand:wikidata":"Q329347"},"coordinates":[43.42583,23.22913]},"dist":113.435,"tags_mismatch":true},{"osm":{"type":"node","id":6723546892,"tags":{"amenity":"fuel","brand":"Лукойл","brand:wikidata":"Q329347"},"wikidata":"Q329347","coordinates":[41.3978584,23.3537927]},"atp":{"id":"VR17tST6U6j01VtuALx74Qdslgc=","tags":{"ref":"5001413","payment:contactless":"yes","fuel:lpg":"yes","fuel:diesel":"yes","fuel:octane_95":"yes","fuel:octane_98":"yes","amenity":"fuel","addr:full":"Кулата, АМ Струма167 км.","addr:street":"АМ Струма 167 км","addr:state":"Blagoevgrad","addr:country":"BG","name":"Кулата 2","opening_hours":"24/7","brand":"Лукойл","brand:wikidata":"Q329347"},"coordinates":[41.398627,23.353443]},"dist":90.305,"tags_mismatch":true},{"osm":{"type":"node","id":6790129384,"tags":{"amenity":"fuel","brand":"Лукойл","brand:wikidata":"Q329347","fuel:diesel":"yes","fuel:octane_95":"yes","fuel:octane_98":"yes","int_name":"Lukoil","payment:debit_cards":"yes","self_service":"no","website":"https://www.lukoil.bg/"},"wikidata":"Q329347","coordinates":[42.7031505,23.2088867]},"atp":[{"id":"cOw5P6qSO3kjmLhKsW2D4jcSz04=","tags":{"ref":"4927","payment:cards":"yes","internet_access":"wlan","fuel:lpg":"yes","fuel:diesel":"yes","fuel:octane_98":"yes","fuel:octane_95":"yes","amenity":"fuel","@source_uri":"https://lukoil.bg/api/cartography/GetObjects?ids=gasStation4927","@spider":"lukoil","brand:bg":"Лукойл","brand:en":"Lukoil","name:bg":"Лукойл","name:en":"Lukoil","addr:full":"бул. Дунав, 1, Своге","addr:street":"бул. Дунав","addr:city":"Своге","addr:state":"Sofiya","addr:country":"BG","name":"Б 171","phone":"+359 72 625 387","email":"b171@benz.lukoil.bg","opening_hours":"24/7","image":"https://lukoil.ru/FileSystem/0/1000099.jpeg","brand":"Лукойл","brand:wikidata":"Q329347","nsi_id":"lukoil-b450da"},"coordinates":[42.96301,23.35814]}],"tags_mismatch":true},{"osm":{"type":"node","id":6943077685,"tags":{"amenity":"fuel","brand":"Лукойл","brand:wikidata":"Q329347"},"wikidata":"Q329347","coordinates":[42.6523668,26.3221378]},"atp":{"id":"XrVGGeXDLjW3q4jjOepphFQTYMM=","tags":{"ref":"4930","payment:cards":"yes","internet_access":"wlan","fuel:lpg":"yes","fuel:diesel":"yes","fuel:octane_98":"yes","fuel:octane_95":"yes","amenity":"fuel","addr:full":"ул. Старозагорско шосе, Сливен","addr:street":"ул. Старозагорско шосе","addr:city":"Сливен","addr:state":"Sliven","addr:country":"BG","name":"Б 177","phone":"+359 44 632 082","email":"b177@benz.lukoil.bg","opening_hours":"24/7","image":"https://lukoil.ru/FileSystem/0/1000102.jpeg","brand":"Лукойл","brand:wikidata":"Q329347"},"coordinates":[42.65274,26.32159]},"dist":61.066,"tags_mismatch":true},{"osm":{"type":"node","id":6949330080,"tags":{"amenity":"fuel","brand":"Лукойл","brand:wikidata":"Q329347","fuel:diesel":"yes","fuel:octane_95":"yes","fuel:octane_98":"yes"},"wikidata":"Q329347","coordinates":[42.2243981,24.7251874]},"atp":{"id":"VOYgyrtj4yAsrYmSVFHQx71WeUk=","tags":{"ref":"4874","payment:cards":"yes","atm":"yes","internet_access":"wlan","fuel:lpg":"yes","fuel:diesel":"yes","fuel:octane_95":"yes","fuel:octane_98":"yes","amenity":"fuel","addr:full":"Карловско шосе, Пловдив","addr:street":"Карловско шосе","addr:city":"Пловдив","addr:state":"Plovdiv","addr:country":"BG","name":"Б 091","phone":"+359 32 620 512","email":"b091@benz.lukoil.bg","opening_hours":"24/7","image":"https://lukoil.ru/FileSystem/0/1000046.jpeg","brand":"Лукойл","brand:wikidata":"Q329347"},"coordinates":[42.2249,24.72521]},"dist":55.84,"tags_mismatch":true},{"osm":{"type":"node","id":9127790692,"tags":{"amenity":"fuel","brand":"Лукойл","brand:wikidata":"Q329347","opening_hours":"24/7"},"wikidata":"Q329347","coordinates":[42.6767737,26.317108]},"atp":{"id":"weRQIi4xS4NRSuUCJP4jY4vJZK0=","tags":{"ref":"4816","payment:cards":"yes","atm":"yes","internet_access":"wlan","fuel:diesel":"yes","fuel:octane_98":"yes","fuel:octane_95":"yes","amenity":"fuel","addr:full":"ул. Симеон, 7, Сливен","addr:street":"ул. Симеон","addr:city":"Сливен","addr:state":"Sliven","addr:country":"BG","name":"Б 160","phone":"+359 44 632 027","email":"b160@benz.lukoil.bg","opening_hours":"24/7","brand":"Лукойл","brand:wikidata":"Q329347"},"coordinates":[42.67754,26.31634]},"dist":105.841,"tags_mismatch":true},{"osm":{"type":"node","id":9128562967,"tags":{"amenity":"fuel","brand":"Лукойл","brand:wikidata":"Q329347","fuel:HGV_diesel":"yes","fuel:ecto_diesel":"yes","fuel:lpg":"yes","fuel:octane_100":"yes","fuel:octane_95":"yes","opening_hours":"24/7","phone":"+359 800 20 220","ref":"82","website":"https://lukoil.bg"},"wikidata":"Q329347","coordinates":[42.1022597,24.7856197]},"atp":{"id":"SbuPz_YPOl4RvodwzaA7oCNs7Ek=","tags":{"ref":"4897","payment:cards":"yes","internet_access":"wlan","fuel:lpg":"yes","fuel:diesel":"yes","fuel:octane_98":"yes","fuel:octane_95":"yes","amenity":"fuel","addr:full":"ул. Асеновградско шосе, Пловдив","addr:street":"ул. Асеновградско шосе","addr:city":"Пловдив","addr:state":"Plovdiv","addr:country":"BG","name":"Б 083","phone":"+359 32 620 161","email":"b083@benz.lukoil.bg","opening_hours":"24/7","image":"https://lukoil.ru/FileSystem/0/1000069.jpeg","brand":"Лукойл","brand:wikidata":"Q329347"},"coordinates":[42.10248,24.78567]},"dist":24.845,"tags_mismatch":true},{"osm":{"type":"node","id":9166882071,"tags":{"amenity":"fuel","brand":"Лукойл","brand:wikidata":"Q329347","fuel:diesel":"yes","fuel:octane_95":"yes","fuel:octane_98":"yes","int_name":"Lukoil","opening_hours":"24/7","shop":"convenience"},"wikidata":"Q329347","coordinates":[42.2154892,25.0604828]},"atp":{"id":"SZ9e4kC_7GBhIOwqTn7EDosnRAo=","tags":{"ref":"4991","payment:cards":"yes","payment:dkv":"yes","payment:lukoil":"yes","atm":"yes","internet_access":"wlan","fuel:lpg":"yes","fuel:diesel":"yes","fuel:octane_95":"yes","fuel:octane_98":"yes","amenity":"fuel","addr:full":"АМ Тракия 154 км, Пловдив","addr:street":"АМ Тракия 154 км","addr:city":"Пловдив","addr:state":"Plovdiv","addr:country":"BG","name":"Б 017","phone":"+359 32 630 951","email":"b017@benz.lukoil.bg","opening_hours":"24/7","image":"https://lukoil.ru/FileSystem/0/1000163.jpeg","brand":"Лукойл","brand:wikidata":"Q329347"},"coordinates":[42.21557,25.05999]},"dist":41.566,"tags_mismatch":true},{"osm":{"type":"node","id":9377160184,"tags":{"amenity":"fuel","brand":"Лукойл","brand:wikidata":"Q329347"},"wikidata":"Q329347","coordinates":[42.4818916,27.4407153]},"atp":{"id":"v99_rPY9DpEbsOLxIPb9PaKnl5s=","tags":{"ref":"9446","payment:cards":"yes","internet_access":"wlan","fuel:lpg":"yes","fuel:diesel":"yes","fuel:octane_95":"yes","fuel:octane_98":"yes","amenity":"fuel","addr:full":"ул. Чаталджа, 2, Бургас","addr:street":"ул. Чаталджа","addr:city":"Бургас","addr:state":"Burgas","addr:country":"BG","name":"Ф 557","phone":"+359 56 994 683","email":"f557@benz.lukoil.bg","opening_hours":"24/7","image":"https://lukoil.ru/FileSystem/0/1000191.jpeg","brand":"Лукойл","brand:wikidata":"Q329347"},"coordinates":[42.482,27.4413]},"dist":49.44,"tags_mismatch":true},{"osm":{"type":"node","id":9566856127,"tags":{"addr:city":"София","addr:country":"BG","addr:housenumber":"481","addr:postcode":"1588","addr:street":"Околовръстен път","amenity":"fuel","brand":"Лукойл","brand:wikidata":"Q329347","check_date":"2024-09-12","fuel:HGV_diesel":"yes","fuel:adblue":"yes","fuel:diesel":"yes","fuel:lpg":"yes","fuel:octane_100":"yes","fuel:octane_95":"yes","internet_access":"wlan","internet_access:fee":"customers","opening_hours":"24/7","payment:cash":"yes","payment:credit_cards":"yes","payment:debit_cards":"yes","phone":"+359 2 99 63 036","website":"https://www.lukoil.bg/","wheelchair":"yes"},"wikidata":"Q329347","coordinates":[42.7017773,23.4498905]},"atp":[{"id":"KwYJzIh-WQVhBSGEub9_RCZBwoo=","tags":{"ref":"4861","payment:cards":"yes","internet_access":"wlan","fuel:lpg":"yes","fuel:diesel":"yes","fuel:octane_95":"yes","fuel:octane_98":"yes","amenity":"fuel","@source_uri":"https://lukoil.bg/api/cartography/GetObjects?ids=gasStation4861","@spider":"lukoil","brand:bg":"Лукойл","brand:en":"Lukoil","name:bg":"Лукойл","name:en":"Lukoil","addr:full":"вход от Дупница, Самоков","addr:street":"вход от Дупница","addr:city":"Самоков","addr:state":"Sofiya","addr:country":"BG","name":"Б 089","phone":"+359 72 260 376","email":"b089@benz.lukoil.bg","opening_hours":"24/7","image":"https://lukoil.ru/FileSystem/0/1000033.jpeg","brand":"Лукойл","brand:wikidata":"Q329347","nsi_id":"lukoil-b450da"},"coordinates":[42.38888,23.53035]}],"tags_mismatch":true},{"osm":{"type":"node","id":9583016765,"tags":{"amenity":"fuel","brand":"Лукойл","brand:wikidata":"Q329347"},"wikidata":"Q329347","coordinates":[42.2950724,25.9430958]},"atp":{"id":"W0hkHzYNnXrpbSofXY9UTWMZdPg=","tags":{"ref":"4976","payment:cards":"yes","internet_access":"wlan","fuel:lpg":"yes","fuel:diesel":"yes","fuel:octane_95":"yes","fuel:octane_98":"yes","amenity":"fuel","addr:full":"гл.път ІІ-57, кв. 96, Раднево","addr:street":"гл.път ІІ-57, кв. 96","addr:city":"Раднево","addr:state":"Stara Zagora","addr:country":"BG","name":"Б 035","phone":"+359 41 783 495","email":"b035@benz.lukoil.bg","opening_hours":"24/7","image":"https://lukoil.ru/FileSystem/0/1000148.jpeg","brand":"Лукойл","brand:wikidata":"Q329347"},"coordinates":[42.29522,25.94265]},"dist":40.172,"tags_mismatch":true},{"osm":{"type":"node","id":9593497052,"tags":{"amenity":"fuel","brand":"Лукойл","brand:wikidata":"Q329347"},"wikidata":"Q329347","coordinates":[42.0283562,24.2941028]},"atp":{"id":"4KDRac8PnkV6XyUO4hQeMxkZ4og=","tags":{"ref":"4918","payment:cards":"yes","internet_access":"wlan","fuel:lpg":"yes","fuel:diesel":"yes","fuel:octane_98":"yes","fuel:octane_95":"yes","amenity":"fuel","addr:full":"ул. Михаил Такев, 9, Пещера","addr:street":"ул. Михаил Такев","addr:city":"Пещера","addr:state":"Pazardzhik","addr:country":"BG","name":"Б 159","phone":"+359 35 062 388","email":"b159@benz.lukoil.bg","opening_hours":"24/7","image":"https://lukoil.ru/FileSystem/0/1000090.jpeg","brand":"Лукойл","brand:wikidata":"Q329347"},"coordinates":[42.03017,24.29504]},"dist":216.03,"tags_mismatch":true},{"osm":{"type":"node","id":9644758744,"tags":{"amenity":"fuel","brand":"Лукойл","brand:wikidata":"Q329347","fuel:diesel":"yes","fuel:octane_95":"yes","fuel:octane_98":"yes","ref":"Б029"},"wikidata":"Q329347","coordinates":[43.2040062,27.900846]},"atp":{"id":"DCvfA6GQbMPaXNZZ7jKIuIqtcF8=","tags":{"ref":"4824","payment:cards":"yes","internet_access":"wlan","fuel:diesel":"yes","fuel:octane_98":"yes","fuel:octane_95":"yes","amenity":"fuel","addr:full":"бул. Христо Ботев, преди Аспарухов мост, Варна","addr:street":"бул. Христо Ботев, преди Аспарухов мост","addr:city":"Варна","addr:state":"Varna","addr:country":"BG","name":"Б 029","phone":"+359 52 630 478","email":"b029@benz.lukoil.bg","opening_hours":"24/7","brand":"Лукойл","brand:wikidata":"Q329347"},"coordinates":[43.20408,27.90084]},"dist":8.221,"tags_mismatch":true},{"osm":{"type":"node","id":9695236186,"tags":{"addr:street":"Самара","amenity":"fuel","brand":"Лукойл","brand:wikidata":"Q329347","int_name":"Lukoil","website":"https://www.lukoil.bg/"},"wikidata":"Q329347","coordinates":[42.6302588,23.3742836]},"atp":{"id":"RW9T-F7YLlDhXvT5IpswaSWSdM0=","tags":{"ref":"5012609","payment:cards":"yes","internet_access":"wlan","amenity":"fuel","addr:full":"ул. „Самара”, 2, София","addr:street":"ул. „Самара”","addr:city":"София","addr:state":"Sofia-Capital","addr:country":"BG","name":"Ф 526","phone":"+359 97 561 77","email":"f526@benz.lukoil.bg","opening_hours":"24/7","image":"https://lukoil.ru/FileSystem/0/1005407.jpeg","brand":"Лукойл","brand:wikidata":"Q329347"},"coordinates":[42.63022,23.3746]},"dist":26.242,"tags_mismatch":true},{"osm":{"type":"node","id":9725393780,"tags":{"amenity":"fuel","brand":"Лукойл","brand:wikidata":"Q329347"},"wikidata":"Q329347","coordinates":[42.4577455,27.4173295]},"atp":{"id":"tO0RNDxkPF30kOjPktcIjuapjLM=","tags":{"ref":"4892","payment:cards":"yes","atm":"yes","internet_access":"wlan","fuel:lpg":"yes","fuel:diesel":"yes","fuel:octane_95":"yes","amenity":"fuel","addr:full":"кв. Меден рудник, Бургас","addr:street":"кв. Меден рудник","addr:city":"Бургас","addr:state":"Burgas","addr:country":"BG","name":"Б 079","phone":"056;500 131","email":"b079@benz.lukoil.bg","opening_hours":"24/7","image":"https://lukoil.ru/FileSystem/0/1000064.jpeg","brand":"Лукойл","brand:wikidata":"Q329347"},"coordinates":[42.45797,27.41757]},"dist":31.819,"tags_mismatch":true},{"osm":{"type":"node","id":9759084483,"tags":{"addr:city":"Кърджали","addr:country":"BG","addr:housenumber":"48","addr:postcode":"6600","addr:street":"8-ми март","amenity":"fuel","brand":"Лукойл","brand:wikidata":"Q329347","building:levels":"1","source":"bgtopomaps"},"wikidata":"Q329347","coordinates":[41.6254322,25.3705933]},"atp":{"id":"grtAGHaOpJpWQLWUCkTQ-3FyDbU=","tags":{"ref":"4880","payment:cards":"yes","internet_access":"wlan","fuel:lpg":"yes","fuel:diesel":"yes","fuel:octane_98":"yes","fuel:octane_95":"yes","amenity":"fuel","addr:full":"ул. Осми март, 48, Кърджали","addr:street":"ул. Осми март","addr:city":"Кърджали","addr:state":"Kurdzhali","addr:country":"BG","name":"Б 099","phone":"+359 36 162 018","email":"b099@benz.lukoil.bg","opening_hours":"24/7","image":"https://lukoil.ru/FileSystem/0/1000052.jpeg","brand":"Лукойл","brand:wikidata":"Q329347"},"coordinates":[41.62588,25.370494]},"dist":50.473,"tags_mismatch":true},{"osm":{"type":"node","id":9846946659,"tags":{"addr:city":"София","addr:street":"Поп Груйо","amenity":"fuel","brand":"Лукойл","brand:wikidata":"Q329347","fuel:lpg":"yes"},"wikidata":"Q329347","coordinates":[42.7092788,23.3805749]},"atp":[{"id":"SyXwKhM1VKkgWMOMMmpjtol7YOE=","tags":{"ref":"4875","payment:cards":"yes","car_wash":"yes","internet_access":"wlan","fuel:lpg":"yes","fuel:diesel":"yes","fuel:octane_98":"yes","fuel:octane_95":"yes","amenity":"fuel","@source_uri":"https://lukoil.bg/api/cartography/GetObjects?ids=gasStation4875","@spider":"lukoil","brand:bg":"Лукойл","brand:en":"Lukoil","name:bg":"Лукойл","name:en":"Lukoil","addr:full":"вход от Оборище, Панагюрище","addr:street":"вход от Оборище","addr:city":"Панагюрище","addr:state":"Pazardzhik","addr:country":"BG","name":"Б 098","phone":"+359 35 766 655","email":"b098@benz.lukoil.bg","opening_hours":"24/7","image":"https://lukoil.ru/FileSystem/0/1000047.jpeg","brand":"Лукойл","brand:wikidata":"Q329347","nsi_id":"lukoil-b450da"},"coordinates":[42.50928,24.16524]}],"tags_mismatch":true},{"osm":{"type":"node","id":9859930250,"tags":{"addr:street":"бул. Никола Петков","amenity":"fuel","brand":"Лукойл","brand:wikidata":"Q329347","int_name":"Lukoil","website":"https://www.lukoil.bg/"},"wikidata":"Q329347","coordinates":[42.6723631,23.2433627]},"atp":{"id":"80g6nhex7Xu7TBLt_n2O6F0XG68=","tags":{"ref":"4949","payment:cards":"yes","internet_access":"wlan","fuel:lpg":"yes","fuel:diesel":"yes","fuel:octane_98":"yes","fuel:octane_95":"yes","amenity":"fuel","addr:full":"кв. Горна Баня, София","addr:street":"кв. Горна Баня","addr:city":"София","addr:state":"Sofia-Capital","addr:country":"BG","name":"Б 133","phone":"+359 2 957 8708","email":"b133@benz.lukoil.bg","opening_hours":"24/7","image":"https://lukoil.ru/FileSystem/0/1000121.jpeg","brand":"Лукойл","brand:wikidata":"Q329347"},"coordinates":[42.67284,23.24432]},"dist":94.537,"tags_mismatch":true},{"osm":{"type":"node","id":9891681036,"tags":{"addr:city":"Габрово","addr:housenumber":"70","addr:postcode":"5306","addr:street":"Брянска","addr:street:en":"Bryanska","addr:suburb":"Център","addr:suburb:en":"Centre","amenity":"fuel","brand":"Лукойл","brand:wikidata":"Q329347","note:cadastre:building_use":"Сграда за тьрговия","shop":"convenience"},"wikidata":"Q329347","coordinates":[42.8805591,25.3178436]},"atp":{"id":"YhbdrbqPA8qucur9xQ77djbsxh0=","tags":{"ref":"4985","payment:cards":"yes","internet_access":"wlan","fuel:lpg":"yes","fuel:diesel":"yes","fuel:octane_98":"yes","fuel:octane_95":"yes","amenity":"fuel","addr:full":"ул. Брянска, 70, Габрово","addr:street":"ул. Брянска","addr:city":"Габрово","addr:state":"Gabrovo","addr:country":"BG","name":"Б 030","phone":"+359 66 800 754","email":"b030@benz.lukoil.bg","opening_hours":"24/7","image":"https://lukoil.ru/FileSystem/0/1000157.jpeg","brand":"Лукойл","brand:wikidata":"Q329347"},"coordinates":[42.88129,25.31808]},"dist":83.524,"tags_mismatch":true},{"osm":{"type":"node","id":9955056640,"tags":{"amenity":"fuel","brand":"Лукойл","brand:wikidata":"Q329347","fuel:diesel":"yes","fuel:lpg":"yes","fuel:octane_95":"yes","fuel:octane_98":"yes","opening_hours":"24/7"},"wikidata":"Q329347","coordinates":[42.1525884,24.6927004]},"atp":[{"id":"E9Y5FJkZqvX7xwyNS_CN_4BJZ9E=","tags":{"ref":"8644","payment:cards":"yes","internet_access":"wlan","fuel:lpg":"yes","fuel:diesel":"yes","fuel:octane_95":"yes","fuel:octane_98":"yes","amenity":"fuel","@source_uri":"https://lukoil.bg/api/cartography/GetObjects?ids=gasStation8644","@spider":"lukoil","brand:bg":"Лукойл","brand:en":"Lukoil","name:bg":"Лукойл","name:en":"Lukoil","addr:full":"бул. Пазарджишко шосе, изх.Пазарджик, Пловдив","addr:street":"бул. Пазарджишко шосе, изх.Пазарджик","addr:city":"Пловдив","addr:state":"Plovdiv","addr:country":"BG","name":"Б 194","phone":"+359 88 522 8850","email":"b194@benz.lukoil.bg","opening_hours":"24/7","image":"https://lukoil.ru/FileSystem/0/1000180.jpeg","brand":"Лукойл","brand:wikidata":"Q329347","nsi_id":"lukoil-b450da"},"coordinates":[42.15243,24.69716]}],"tags_mismatch":true},{"osm":{"type":"node","id":9964275500,"tags":{"amenity":"fuel","brand":"Лукойл","brand:wikidata":"Q329347"},"wikidata":"Q329347","coordinates":[42.6731799,26.3620251]},"atp":{"id":"Fb4a3dynSIxm7xDiEIvYyJMH02s=","tags":{"ref":"4881","payment:cards":"yes","internet_access":"wlan","fuel:lpg":"yes","fuel:diesel":"yes","fuel:octane_95":"yes","fuel:octane_98":"yes","amenity":"fuel","addr:full":"Бургаско шосе, Сливен","addr:street":"Бургаско шосе","addr:city":"Сливен","addr:state":"Sliven","addr:country":"BG","name":"Б 084","phone":"+359 44 667 430","email":"b084@benz.lukoil.bg","opening_hours":"24/7","image":"https://lukoil.ru/FileSystem/0/1000053.jpeg","brand":"Лукойл","brand:wikidata":"Q329347"},"coordinates":[42.67393,26.36123]},"dist":105.745,"tags_mismatch":true},{"osm":{"type":"node","id":9994621562,"tags":{"amenity":"fuel","brand":"Лукойл","brand:wikidata":"Q329347","fuel:diesel":"yes","fuel:lpg":"yes","fuel:octane_95":"yes","fuel:octane_98":"yes","opening_hours":"24/7","payment:cash":"yes","payment:mastercard":"yes","payment:visa":"yes","toilets":"yes"},"wikidata":"Q329347","coordinates":[42.6566868,25.8930101]},"atp":[{"id":"TQqiqiy21MRUvXQYPN-gJpHfhis=","tags":{"ref":"4908","payment:cards":"yes","internet_access":"wlan","fuel:lpg":"yes","fuel:diesel":"yes","fuel:octane_95":"yes","amenity":"fuel","@source_uri":"https://lukoil.bg/api/cartography/GetObjects?ids=gasStation4908","@spider":"lukoil","brand:bg":"Лукойл","brand:en":"Lukoil","name:bg":"Лукойл","name:en":"Lukoil","addr:full":"ул. 29-ти Януари, 7, Търговище","addr:street":"ул. 29-ти Януари","addr:city":"Търговище","addr:state":"Turgovishte","addr:country":"BG","name":"Б 112","phone":"+359 60 161 765","email":"b112@benz.lukoil.bg","opening_hours":"24/7","image":"https://lukoil.ru/FileSystem/0/1000080.jpeg","brand":"Лукойл","brand:wikidata":"Q329347","nsi_id":"lukoil-b450da"},"coordinates":[43.25547,26.57522]}],"tags_mismatch":true},{"osm":{"type":"node","id":9994649141,"tags":{"amenity":"fuel","brand":"Лукойл","brand:wikidata":"Q329347"},"wikidata":"Q329347","coordinates":[43.5683115,27.8448053]},"atp":{"id":"-_3_j7TOLlHEzp9ZkbTAnphU8Es=","tags":{"ref":"4815","payment:cards":"yes","internet_access":"wlan","fuel:diesel":"yes","fuel:octane_98":"yes","fuel:octane_95":"yes","amenity":"fuel","addr:full":"бул. Добруджа, изх. Балчик, 1, Добрич","addr:street":"бул. Добруджа, изх. Балчик","addr:city":"Добрич","addr:state":"Dobrich","addr:country":"BG","name":"Б 176","phone":"+359 58 660 034","email":"b176@benz.lukoil.bg","opening_hours":"24/7","brand":"Лукойл","brand:wikidata":"Q329347"},"coordinates":[43.56869,27.84444]},"dist":51.357,"tags_mismatch":true},{"osm":{"type":"node","id":9994649142,"tags":{"amenity":"fuel","brand":"Лукойл","brand:wikidata":"Q329347","int_name":"Lukoil"},"wikidata":"Q329347","coordinates":[43.5423401,27.8208798]},"atp":{"id":"F2MhJpEgyrR6B3WQ-PsIRGQ8xmo=","tags":{"ref":"4890","payment:cards":"yes","internet_access":"wlan","fuel:lpg":"yes","fuel:diesel":"yes","fuel:octane_98":"yes","fuel:octane_95":"yes","amenity":"fuel","addr:full":"околовръстен път - изход Варна, Добрич","addr:street":"околовръстен път - изход Варна","addr:city":"Добрич","addr:state":"Dobrich","addr:country":"BG","name":"Б 061","phone":"+359 58 620 434","email":"b061@benz.lukoil.bg","opening_hours":"24/7","image":"https://lukoil.ru/FileSystem/0/1000062.jpeg","brand":"Лукойл","brand:wikidata":"Q329347"},"coordinates":[43.5427,27.82087]},"dist":40.027,"tags_mismatch":true},{"osm":{"type":"node","id":9994713423,"tags":{"amenity":"fuel","brand":"Лукойл","brand:wikidata":"Q329347","fuel:GTL_diesel":"yes","fuel:diesel":"yes","fuel:lpg":"yes","fuel:octane_95":"yes","fuel:octane_98":"yes"},"wikidata":"Q329347","coordinates":[43.8342624,25.9684038]},"atp":{"id":"5JFe53CwWEARdcyGFVeGsaZLf5c=","tags":{"ref":"4822","payment:cards":"yes","atm":"yes","internet_access":"wlan","fuel:diesel":"yes","fuel:octane_98":"yes","fuel:octane_95":"yes","amenity":"fuel","addr:full":"бул. Христо Ботев, 1, Русе","addr:street":"бул. Христо Ботев","addr:city":"Русе","addr:state":"Ruse","addr:country":"BG","name":"Б 010","phone":"+359 82 860 920","email":"b010@benz.lukoil.bg","opening_hours":"24/7","brand":"Лукойл","brand:wikidata":"Q329347"},"coordinates":[43.8343,25.96807]},"dist":27.099,"tags_mismatch":true},{"osm":{"type":"node","id":9995394393,"tags":{"addr:street":"Околовръстен път","amenity":"fuel","brand":"Лукойл","brand:wikidata":"Q329347","fuel:diesel":"yes","fuel:lpg":"yes","fuel:octane_100":"yes","fuel:octane_95":"yes","int_name":"Lukoil","website":"https://www.lukoil.bg/"},"wikidata":"Q329347","coordinates":[42.6909939,23.2298025]},"atp":{"id":"kysfV3JRNUe6hH1xvCfRWviXmjk=","tags":{"ref":"4914","payment:cards":"yes","payment:dkv":"yes","payment:lukoil":"yes","atm":"yes","internet_access":"wlan","fuel:lpg":"yes","fuel:diesel":"yes","fuel:octane_95":"yes","fuel:octane_98":"yes","amenity":"fuel","addr:full":"кв. Суходол - околовръстен път, София","addr:street":"кв. Суходол - околовръстен път","addr:city":"София","addr:state":"Sofiya","addr:country":"BG","name":"Б 077","phone":"+359 2 829 7959","email":"b077@benz.lukoil.bg","opening_hours":"24/7","image":"https://lukoil.ru/FileSystem/0/1000086.jpeg","brand":"Лукойл","brand:wikidata":"Q329347"},"coordinates":[42.69109,23.22962]},"dist":18.349,"tags_mismatch":true},{"osm":{"type":"node","id":10016853693,"tags":{"addr:city":"Кърджали","addr:postcode":"6600","amenity":"fuel","brand":"Лукойл","brand:wikidata":"Q329347"},"wikidata":"Q329347","coordinates":[41.6282343,25.377643]},"atp":{"id":"UbO9NvPYtFx7MprhwuFDPTSkwHQ=","tags":{"ref":"4898","payment:cards":"yes","internet_access":"wlan","fuel:lpg":"yes","fuel:diesel":"yes","fuel:octane_95":"yes","amenity":"fuel","addr:full":"бул. Беломорски, Кърджали","addr:street":"бул. Беломорски","addr:city":"Кърджали","addr:state":"Kurdzhali","addr:country":"BG","name":"Б 191","phone":"+359 36 162 106","email":"O760@benz.lukoil.bg","opening_hours":"24/7","image":"https://lukoil.ru/FileSystem/0/1000070.jpeg","brand":"Лукойл","brand:wikidata":"Q329347"},"coordinates":[41.62904,25.3776]},"dist":89.661,"tags_mismatch":true},{"osm":{"type":"node","id":10017708863,"tags":{"amenity":"fuel","brand":"Лукойл","brand:wikidata":"Q329347","fuel:diesel":"yes","fuel:octane_95":"yes","fuel:octane_98":"yes","int_name":"Lukoil","opening_hours":"24/7","shop":"convenience"},"wikidata":"Q329347","coordinates":[42.2161966,25.0623964]},"atp":{"id":"RZFSi4CftOxm3d0GLDQVUvXhl5o=","tags":{"ref":"4869","payment:cards":"yes","payment:dkv":"yes","payment:lukoil":"yes","atm":"yes","internet_access":"wlan","fuel:lpg":"yes","fuel:diesel":"yes","fuel:octane_98":"yes","fuel:octane_95":"yes","amenity":"fuel","addr:full":"АМ Тракия 154км - Север, Пловдив","addr:street":"АМ Тракия 154км - Север","addr:city":"Пловдив","addr:state":"Plovdiv","addr:country":"BG","name":"Б 044","phone":"+359 32 621 370","email":"b044@benz.lukoil.bg","opening_hours":"24/7","image":"https://lukoil.ru/FileSystem/0/1000041.jpeg","brand":"Лукойл","brand:wikidata":"Q329347"},"coordinates":[42.21627,25.0629]},"dist":42.268,"tags_mismatch":true},{"osm":{"type":"node","id":10017713049,"tags":{"amenity":"fuel","brand":"Лукойл","brand:wikidata":"Q329347","ref":"Б 507"},"wikidata":"Q329347","coordinates":[42.9082214,23.7844368]},"atp":{"id":"dqHz4eYQrAZaMZ7gJvRR-N9Vl24=","tags":{"ref":"4828","payment:cards":"yes","internet_access":"wlan","fuel:lpg":"yes","fuel:diesel":"yes","fuel:octane_98":"yes","fuel:octane_95":"yes","amenity":"fuel","addr:full":"Ботевград до автогарата, Ботевград","addr:street":"Ботевград до автогарата","addr:city":"Ботевград","addr:state":"Sofiya","addr:country":"BG","name":"Ф 507","phone":"+359 88 413 3178","email":"f507@benz.lukoil.bg","opening_hours":"24/7","brand":"Лукойл","brand:wikidata":"Q329347"},"coordinates":[42.90723,23.78543]},"dist":136.733,"tags_mismatch":true},{"osm":{"type":"node","id":10017725008,"tags":{"amenity":"fuel","brand":"Лукойл","brand:wikidata":"Q329347","fuel:diesel":"yes","fuel:lpg":"yes","fuel:octane_100":"yes","fuel:octane_95":"yes","opening_hours":"24/7","source":"knowledge, aerial photography"},"wikidata":"Q329347","coordinates":[42.6496433,24.7667776]},"atp":{"id":"H0HB96233lotb1E-DEhT7URfQiM=","tags":{"ref":"4979","payment:cards":"yes","internet_access":"wlan","fuel:lpg":"yes","fuel:diesel":"yes","fuel:octane_98":"yes","fuel:octane_95":"yes","amenity":"fuel","addr:full":"ул. Иван Вазов, 1- A, Сопот","addr:street":"ул. Иван Вазов","addr:city":"Сопот","addr:state":"Plovdiv","addr:country":"BG","name":"Б 038","phone":"+359 31 346 741","email":"b038@benz.lukoil.bg","opening_hours":"24/7","image":"https://lukoil.ru/FileSystem/0/1000151.jpeg","brand":"Лукойл","brand:wikidata":"Q329347"},"coordinates":[42.65001,24.76724]},"dist":55.613,"tags_mismatch":true},{"osm":{"type":"node","id":10134730400,"tags":{"amenity":"fuel","brand":"Лукойл","brand:wikidata":"Q329347","fuel:diesel":"yes","fuel:lpg":"yes","fuel:octane_95":"yes","fuel:octane_98":"yes","opening_hours":"24/7"},"wikidata":"Q329347","coordinates":[44.1129823,27.1824729]},"atp":[{"id":"Ea7HimKGazQ9x0B11_3XRb5wu90=","tags":{"ref":"4853","payment:cards":"yes","internet_access":"wlan","fuel:lpg":"yes","fuel:diesel":"yes","fuel:octane_95":"yes","fuel:octane_98":"yes","amenity":"fuel","@source_uri":"https://lukoil.bg/api/cartography/GetObjects?ids=gasStation4853","@spider":"lukoil","brand:bg":"Лукойл","brand:en":"Lukoil","name:bg":"Лукойл","name:en":"Lukoil","addr:full":"ГКПП Силистра, Силистра","addr:street":"ГКПП Силистра","addr:city":"Силистра","addr:state":"Silistra","addr:country":"BG","name":"Б 074","phone":"+359 86 833 340","email":"b074@benz.lukoil.bg","opening_hours":"24/7","image":"https://lukoil.ru/FileSystem/0/1000025.jpeg","brand":"Лукойл","brand:wikidata":"Q329347","nsi_id":"lukoil-b450da"},"coordinates":[44.11739,27.19186]}],"tags_mismatch":true},{"osm":{"type":"node","id":10871518858,"tags":{"amenity":"fuel","brand":"Лукойл","brand:wikidata":"Q329347","building":"roof","int_name":"Lukoil","website":"https://www.lukoil.bg/"},"wikidata":"Q329347","coordinates":[42.617823,23.1775314]},"atp":{"id":"heFjsnz2Tc9OTk5vxEQvEPeqXSE=","tags":{"ref":"4995","payment:cards":"yes","payment:dkv":"yes","payment:lukoil":"yes","internet_access":"wlan","fuel:lpg":"yes","fuel:diesel":"yes","fuel:octane_98":"yes","fuel:octane_95":"yes","amenity":"fuel","addr:full":"Владая, Владая","addr:street":"Владая","addr:state":"Sofiya","addr:country":"BG","name":"Б 036","phone":"+359 2 957 1775","email":"b036@benz.lukoil.bg","opening_hours":"24/7","image":"https://lukoil.ru/FileSystem/0/1000167.jpeg","brand":"Лукойл","brand:wikidata":"Q329347"},"coordinates":[42.61838,23.17683]},"dist":84.439,"tags_mismatch":true},{"osm":{"type":"node","id":11250416695,"tags":{"amenity":"fuel","brand":"Лукойл","brand:wikidata":"Q329347","fuel:diesel":"yes","fuel:lpg":"yes","fuel:octane_95":"yes","fuel:octane_98":"yes","opening_hours":"24/7"},"wikidata":"Q329347","coordinates":[43.7062226,26.8195633]},"atp":[{"id":"t_swffyiMVGkyTvSB7R4UZWi2No=","tags":{"ref":"4941","payment:cards":"yes","internet_access":"wlan","fuel:lpg":"yes","fuel:diesel":"yes","fuel:octane_98":"yes","fuel:octane_95":"yes","amenity":"fuel","@source_uri":"https://lukoil.bg/api/cartography/GetObjects?ids=gasStation4941","@spider":"lukoil","brand:bg":"Лукойл","brand:en":"Lukoil","name:bg":"Лукойл","name:en":"Lukoil","addr:full":"ул. Васил Левски, вход от Разград, 2, Исперих","addr:street":"ул. Васил Левски, вход от Разград","addr:city":"Исперих","addr:state":"Razgrad","addr:country":"BG","name":"Б 161","phone":"08431;28 75","email":"b161@benz.lukoil.bg","opening_hours":"24/7","image":"https://lukoil.ru/FileSystem/0/1000113.jpeg","brand":"Лукойл","brand:wikidata":"Q329347","nsi_id":"lukoil-b450da"},"coordinates":[43.71922,26.81353]}],"tags_mismatch":true},{"osm":{"type":"node","id":11250501177,"tags":{"amenity":"fuel","brand":"Лукойл","brand:wikidata":"Q329347","check_date":"2024-09-22","fuel:HGV_diesel":"yes","fuel:diesel":"yes","fuel:lpg":"yes","fuel:octane_95":"yes","fuel:octane_98":"yes","opening_hours":"24/7","payment:coins":"yes","payment:mastercard":"yes","payment:notes":"yes","payment:visa":"yes","shop":"convenience","wheelchair":"limited"},"wikidata":"Q329347","coordinates":[41.844736,23.4843329]},"atp":{"id":"_k_-twqWUUm4HMgDyzkyzedoks0=","tags":{"ref":"4990","payment:cards":"yes","internet_access":"wlan","fuel:lpg":"yes","fuel:diesel":"yes","fuel:octane_98":"yes","fuel:octane_95":"yes","amenity":"fuel","addr:full":"ул. Патриарх Евтимий, Банско","addr:street":"ул. Патриарх Евтимий","addr:city":"Банско","addr:state":"Blagoevgrad","addr:country":"BG","name":"Б 008","phone":"+359 74 988 251","email":"b008@benz.lukoil.bg","opening_hours":"24/7","image":"https://lukoil.ru/FileSystem/0/1000162.jpeg","brand":"Лукойл","brand:wikidata":"Q329347"},"coordinates":[41.84467,23.48435]},"dist":7.474,"tags_mismatch":true},{"osm":{"type":"node","id":11483420279,"tags":{"amenity":"fuel","brand":"Лукойл","brand:wikidata":"Q329347","mapillary":"2566335913675560","survey:date":"2019-09-15","wheelchair":"yes"},"wikidata":"Q329347","coordinates":[42.531015,27.449626]},"atp":{"id":"F_bpNgvJmYhETpVSw5rB02_zI18=","tags":{"ref":"4837","payment:cards":"yes","payment:lukoil":"yes","internet_access":"wlan","fuel:lpg":"yes","fuel:diesel":"yes","fuel:octane_95":"yes","fuel:octane_98":"yes","amenity":"fuel","addr:full":"изхода София, Бургас","addr:street":"изхода София","addr:city":"Бургас","addr:state":"Burgas","addr:country":"BG","name":"Ф 504","phone":"+359 56 880 504","email":"f504@benz.lukoil.bg","opening_hours":"24/7","image":"https://lukoil.ru/FileSystem/0/1000010.jpeg","brand":"Лукойл","brand:wikidata":"Q329347"},"coordinates":[42.53068,27.44996]},"dist":46.223,"tags_mismatch":true},{"osm":{"type":"node","id":11518834381,"tags":{"addr:city":"Своге","addr:housenumber":"1","addr:postcode":"2269","addr:street":"Дунав","amenity":"fuel","brand":"Лукойл","brand:wikidata":"Q329347","compressed_air":"yes","fuel:HGV_diesel":"yes","fuel:diesel":"yes","fuel:lpg":"yes","fuel:octane_100":"yes","fuel:octane_95":"yes","gender_segregated":"yes","opening_hours":"24/7","payment:cards":"yes","payment:cash":"yes","ref":"171","toilets":"yes"},"wikidata":"Q329347","coordinates":[42.9572861,23.3563429]},"atp":[{"id":"GrnRASsQaPpEwQAN0g49YTFNxhY=","tags":{"ref":"8645","payment:cards":"yes","internet_access":"wlan","fuel:lpg":"yes","fuel:diesel":"yes","fuel:octane_95":"yes","amenity":"fuel","@source_uri":"https://lukoil.bg/api/cartography/GetObjects?ids=gasStation8645","@spider":"lukoil","brand:bg":"Лукойл","brand:en":"Lukoil","name:bg":"Лукойл","name:en":"Lukoil","addr:full":"бул. Софийско шосе, вх. София, Кюстендил","addr:street":"бул. Софийско шосе, вх. София","addr:city":"Кюстендил","addr:state":"Kyustendil","addr:country":"BG","name":"Б 195","phone":"+359 78 551 922","email":"b195@benz.lukoil.bg","opening_hours":"24/7","image":"https://lukoil.ru/FileSystem/0/1000181.jpeg","brand":"Лукойл","brand:wikidata":"Q329347","nsi_id":"lukoil-b450da"},"coordinates":[42.29908,22.72376]}],"tags_mismatch":true},{"osm":{"type":"way","id":23647742,"tags":{"addr:street":"Плиска","amenity":"fuel","brand":"Лукойл","brand:wikidata":"Q329347","building":"yes","building:levels":"1","layer":"1","roof:colour":"maroon","roof:height":"3","roof:material":"roof_tiles","roof:shape":"hipped","wheelchair":"yes"},"wikidata":"Q329347","coordinates":[43.8538245,25.9639009]},"atp":{"id":"1pTskzNF9ZCUJP1sSp4n6opQw38=","tags":{"ref":"4801","payment:cards":"yes","internet_access":"wlan","fuel:diesel":"yes","fuel:octane_95":"yes","fuel:octane_98":"yes","amenity":"fuel","addr:full":"ул. Наум, Русе","addr:street":"ул. Наум","addr:city":"Русе","addr:state":"Ruse","addr:country":"BG","name":"Б 179","phone":"+359 82 845 529","email":"b179@benz.lukoil.bg","opening_hours":"24/7","brand":"Лукойл","brand:wikidata":"Q329347"},"coordinates":[43.85368,25.96396]},"dist":16.752,"tags_mismatch":true},{"osm":{"type":"way","id":83631210,"tags":{"amenity":"fuel","brand":"Лукойл","brand:wikidata":"Q329347"},"wikidata":"Q329347","coordinates":[42.4281438,25.6596286]},"atp":{"id":"z8CEhif8YlfnSnAvdi9KNI__4XM=","tags":{"ref":"4986","payment:cards":"yes","atm":"yes","internet_access":"wlan","fuel:lpg":"yes","fuel:diesel":"yes","fuel:octane_98":"yes","fuel:octane_95":"yes","amenity":"fuel","addr:full":"бул. Никола Петков, до СБА, Стара Загора","addr:street":"бул. Никола Петков, до СБА","addr:city":"Стара Загора","addr:state":"Stara Zagora","addr:country":"BG","name":"Б 021","phone":"+359 42 601 595","email":"b021@benz.lukoil.bg","opening_hours":"24/7","image":"https://lukoil.ru/FileSystem/0/1000158.jpeg","brand":"Лукойл","brand:wikidata":"Q329347"},"coordinates":[42.42802,25.65933]},"dist":28.109,"tags_mismatch":true},{"osm":{"type":"way","id":88525232,"tags":{"amenity":"fuel","brand":"Лукойл","brand:wikidata":"Q329347","fuel:cng":"no","fuel:diesel":"yes","fuel:lpg":"yes","fuel:octane_95":"yes","fuel:octane_98":"yes","int_name":"Lukoil","website":"https://www.lukoil.bg/","wheelchair":"yes"},"wikidata":"Q329347","coordinates":[42.7202574,23.2559373]},"atp":{"id":"AS7DON1Zf0wMiuJ965vYO5HChuo=","tags":{"ref":"4845","payment:cards":"yes","car_wash":"yes","internet_access":"wlan","fuel:lpg":"yes","fuel:diesel":"yes","fuel:octane_98":"yes","fuel:octane_95":"yes","amenity":"fuel","addr:full":"кв. Люлин, бул. П. Владигеров, София","addr:street":"кв. Люлин, бул. П. Владигеров","addr:city":"София","addr:state":"Sofiya","addr:country":"BG","name":"Б 040","phone":"+359 2 927 7303","email":"b040@benz.lukoil.bg","opening_hours":"24/7","image":"https://lukoil.ru/FileSystem/0/1000017.jpeg","brand":"Лукойл","brand:wikidata":"Q329347"},"coordinates":[42.7204,23.25579]},"dist":19.905,"tags_mismatch":true},{"osm":{"type":"way","id":91293400,"tags":{"addr:city":"Варна","addr:street":"бул. Владислав Варненчик","amenity":"fuel","brand":"Лукойл","brand:wikidata":"Q329347","building":"yes","fuel:diesel":"yes","fuel:lpg":"yes","fuel:octane_95":"yes","fuel:octane_98":"yes","layer":"1","phone":"+359 52 505 991","ref":"Б024"},"wikidata":"Q329347","coordinates":[43.2273688,27.8624284]},"atp":{"id":"9QUP2ydRuKM3IRzAyei9ZgwJHec=","tags":{"ref":"4996","payment:cards":"yes","payment:dkv":"yes","payment:lukoil":"yes","atm":"yes","internet_access":"wlan","fuel:lpg":"yes","fuel:diesel":"yes","fuel:octane_98":"yes","fuel:octane_95":"yes","amenity":"fuel","addr:full":"Варна -изход София, Варна","addr:street":"Варна -изход София","addr:city":"Варна","addr:state":"Varna","addr:country":"BG","name":"Б 024","phone":"+359 52 505 991","email":"b024@benz.lukoil.bg","opening_hours":"24/7","image":"https://lukoil.ru/FileSystem/0/1000168.jpeg","brand":"Лукойл","brand:wikidata":"Q329347"},"coordinates":[43.22737,27.86282]},"dist":31.728,"tags_mismatch":true},{"osm":{"type":"way","id":94401860,"tags":{"amenity":"fuel","brand":"Лукойл","brand:wikidata":"Q329347","fuel:diesel":"yes","fuel:lpg":"yes","fuel:octane_100":"yes","fuel:octane_95":"yes","opening_hours":"24/7"},"wikidata":"Q329347","coordinates":[42.1483609,24.7818891]},"atp":{"id":"6rXaj_-ZCf62cMpUTIaCSFUuWF8=","tags":{"ref":"4943","payment:cards":"yes","atm":"yes","internet_access":"wlan","fuel:lpg":"yes","fuel:diesel":"yes","fuel:octane_95":"yes","fuel:octane_98":"yes","amenity":"fuel","addr:full":"бул Цариградско шосе, Пловдив","addr:street":"бул Цариградско шосе","addr:city":"Пловдив","addr:state":"Plovdiv","addr:country":"BG","name":"Б 125","phone":"+359 32 621 815","email":"b125@benz.lukoil.bg","opening_hours":"24/7","image":"https://lukoil.ru/FileSystem/0/1000115.jpeg","brand":"Лукойл","brand:wikidata":"Q329347"},"coordinates":[42.14832,24.78181]},"dist":7.95,"tags_mismatch":true},{"osm":{"type":"way","id":94401865,"tags":{"amenity":"fuel","brand":"Лукойл","brand:wikidata":"Q329347"},"wikidata":"Q329347","coordinates":[42.1525877,24.7693839]},"atp":{"id":"INih0j8CySHRVeuB9Rc-q7QlS-E=","tags":{"ref":"4887","payment:cards":"yes","atm":"yes","internet_access":"wlan","fuel:lpg":"yes","fuel:diesel":"yes","fuel:octane_95":"yes","fuel:octane_98":"yes","amenity":"fuel","addr:full":"бул. 6-ти септември, Пловдив","addr:street":"бул. 6-ти септември","addr:city":"Пловдив","addr:state":"Plovdiv","addr:country":"BG","name":"Б 070","phone":"+359 32 620 057","email":"b070@benz.lukoil.bg","opening_hours":"24/7","image":"https://lukoil.ru/FileSystem/0/1000059.jpeg","brand":"Лукойл","brand:wikidata":"Q329347"},"coordinates":[42.15246,24.76935]},"dist":14.472,"tags_mismatch":true},{"osm":{"type":"way","id":94401871,"tags":{"amenity":"fuel","brand":"Лукойл","brand:wikidata":"Q329347"},"wikidata":"Q329347","coordinates":[42.1454128,24.7847478]},"atp":{"id":"ZwgX0iRRnz3JIuchixeq_2VYyQM=","tags":{"ref":"4891","payment:cards":"yes","car_wash":"yes","internet_access":"wlan","fuel:lpg":"yes","fuel:diesel":"yes","fuel:octane_98":"yes","fuel:octane_95":"yes","amenity":"fuel","addr:full":"бул. Освобождение, 3, Пловдив","addr:street":"бул. Освобождение","addr:city":"Пловдив","addr:state":"Plovdiv","addr:country":"BG","name":"Б 059","phone":"032;993 083","email":"b059@benz.lukoil.bg","opening_hours":"24/7","image":"https://lukoil.ru/FileSystem/0/1000063.jpeg","brand":"Лукойл","brand:wikidata":"Q329347"},"coordinates":[42.14547,24.78494]},"dist":17.075,"tags_mismatch":true},{"osm":{"type":"way","id":96063147,"tags":{"addr:street":"бул. Шипченски проход","amenity":"fuel","brand":"Лукойл","brand:wikidata":"Q329347","compressed_air":"yes","int_name":"Lukoil","opening_hours":"24/7","website":"https://www.lukoil.bg/"},"wikidata":"Q329347","coordinates":[42.674964,23.3745635]},"atp":{"id":"zX7IuDpAry29BiBZXX1AcJdJzjI=","tags":{"ref":"4989","payment:cards":"yes","car_wash":"yes","internet_access":"wlan","fuel:lpg":"yes","fuel:diesel":"yes","fuel:octane_98":"yes","fuel:octane_95":"yes","amenity":"fuel","addr:full":"бул. Шипченски проход, София","addr:street":"бул. Шипченски проход","addr:city":"София","addr:state":"Sofia-Capital","addr:country":"BG","name":"Б 026","phone":"+359 2 971 0309","email":"b026@benz.lukoil.bg","opening_hours":"24/7","image":"https://lukoil.ru/FileSystem/0/1000161.jpeg","brand":"Лукойл","brand:wikidata":"Q329347"},"coordinates":[42.6747,23.37453]},"dist":29.483,"tags_mismatch":true},{"osm":{"type":"way","id":96945660,"tags":{"amenity":"fuel","brand":"Лукойл","brand:wikidata":"Q329347","fuel:cng":"yes","fuel:diesel":"yes","fuel:lpg":"yes","fuel:octane_100":"yes","fuel:octane_95":"yes","fuel:octane_98":"yes","int_name":"Lukoil","website":"https://www.lukoil.bg/"},"wikidata":"Q329347","coordinates":[42.6946795,23.2942805]},"atp":{"id":"rEjxsUJtXjfx-dvX55VHLlLWemE=","tags":{"ref":"4849","payment:cards":"yes","atm":"yes","internet_access":"wlan","fuel:lpg":"yes","fuel:diesel":"yes","fuel:octane_98":"yes","fuel:octane_95":"yes","amenity":"fuel","addr:full":"бул. Д. Несторов, София","addr:street":"бул. Д. Несторов","addr:city":"София","addr:state":"Sofia-Capital","addr:country":"BG","name":"Б 032","phone":"+359 2 920 2097","email":"b032@benz.lukoil.bg","opening_hours":"24/7","image":"https://lukoil.ru/FileSystem/0/1000021.jpeg","brand":"Лукойл","brand:wikidata":"Q329347"},"coordinates":[42.69475,23.2946]},"dist":27.263,"tags_mismatch":true},{"osm":{"type":"way","id":125193442,"tags":{"amenity":"fuel","brand":"Лукойл","brand:wikidata":"Q329347"},"wikidata":"Q329347","coordinates":[42.1573066,24.7230604]},"atp":{"id":"FpiK3wg8RMFvSzFDnYIhU48Ck-w=","tags":{"ref":"4844","payment:cards":"yes","atm":"yes","fuel:lpg":"yes","fuel:diesel":"yes","fuel:octane_98":"yes","fuel:octane_95":"yes","amenity":"fuel","addr:full":"бул. България, Захарна фабрика, Пловдив","addr:street":"бул. България, Захарна фабрика","addr:city":"Пловдив","addr:state":"Plovdiv","addr:country":"BG","name":"Б 025","phone":"+359 32 967 314","email":"b025@benz.lukoil.bg","opening_hours":"24/7","image":"https://lukoil.ru/FileSystem/0/1000016.jpeg","brand":"Лукойл","brand:wikidata":"Q329347"},"coordinates":[42.15765,24.72335]},"dist":45.032,"tags_mismatch":true},{"osm":{"type":"way","id":132453869,"tags":{"amenity":"fuel","brand":"Лукойл","brand:wikidata":"Q329347"},"wikidata":"Q329347","coordinates":[42.1323687,24.7042703]},"atp":{"id":"6JtlaP0eQJ6qt78UH_R0oXwfigI=","tags":{"ref":"4958","payment:cards":"yes","atm":"yes","internet_access":"wlan","fuel:lpg":"yes","fuel:diesel":"yes","fuel:octane_98":"yes","fuel:octane_95":"yes","amenity":"fuel","addr:full":"бул. Пещерско шосе, 138, Пловдив","addr:street":"бул. Пещерско шосе","addr:city":"Пловдив","addr:state":"Plovdiv","addr:country":"BG","name":"Б 138","phone":"+359 32 642 225","email":"b138@benz.lukoil.bg","opening_hours":"24/7","image":"https://lukoil.ru/FileSystem/0/1000130.jpeg","brand":"Лукойл","brand:wikidata":"Q329347"},"coordinates":[42.13232,24.70394]},"dist":27.77,"tags_mismatch":true},{"osm":{"type":"way","id":158901463,"tags":{"amenity":"fuel","brand":"Лукойл","brand:wikidata":"Q329347","building":"yes","fuel:diesel":"yes","fuel:lpg":"yes","fuel:octane_95":"yes","fuel:octane_98":"yes","shop":"convenience"},"wikidata":"Q329347","coordinates":[43.5709801,27.8203158]},"atp":{"id":"kRGRjwDUOTbXT8E3XSd_lDwVHiM=","tags":{"ref":"4973","payment:cards":"yes","atm":"yes","internet_access":"wlan","fuel:lpg":"yes","fuel:diesel":"yes","fuel:octane_95":"yes","amenity":"fuel","addr:full":"бул. Добруджа, Добрич","addr:street":"бул. Добруджа","addr:city":"Добрич","addr:state":"Dobrich","addr:country":"BG","name":"Б 042","phone":"+359 58 603 334","email":"b042@benz.lukoil.bg","opening_hours":"24/7","image":"https://lukoil.ru/FileSystem/0/1000145.jpeg","brand":"Лукойл","brand:wikidata":"Q329347"},"coordinates":[43.57113,27.82003]},"dist":28.425,"tags_mismatch":true},{"osm":{"type":"way","id":163366309,"tags":{"amenity":"fuel","brand":"Лукойл","brand:wikidata":"Q329347","name:int":"Lukoil","ref":"B 118","wheelchair":"limited"},"wikidata":"Q329347","coordinates":[42.1836292,24.3192565]},"atp":{"id":"waMTRnhi3JKe2BmIIkn-EcXBu5w=","tags":{"ref":"4961","payment:cards":"yes","internet_access":"wlan","fuel:lpg":"yes","fuel:diesel":"yes","fuel:octane_98":"yes","fuel:octane_95":"yes","amenity":"fuel","addr:full":"ул. Христо Касап Велев, 2, Пазарджик","addr:street":"ул. Христо Касап Велев","addr:city":"Пазарджик","addr:state":"Pazardzhik","addr:country":"BG","name":"Б 118","phone":"+359 34 440 413","email":"b118@benz.lukoil.bg","opening_hours":"24/7","image":"https://lukoil.ru/FileSystem/0/1000133.jpeg","brand":"Лукойл","brand:wikidata":"Q329347"},"coordinates":[42.18377,24.31959]},"dist":31.626,"tags_mismatch":true},{"osm":{"type":"way","id":205339665,"tags":{"amenity":"fuel","brand":"Лукойл","brand:wikidata":"Q329347","building":"yes","wheelchair":"yes"},"wikidata":"Q329347","coordinates":[42.6431412,24.8005439]},"atp":{"id":"2LAuJKcBEseREud20cwjXVUuUx8=","tags":{"ref":"4938","payment:cards":"yes","atm":"yes","internet_access":"wlan","fuel:lpg":"yes","fuel:diesel":"yes","fuel:octane_98":"yes","fuel:octane_95":"yes","amenity":"fuel","addr:full":"ул. Генерал Карцов, 44, Карлово","addr:street":"ул. Генерал Карцов","addr:city":"Карлово","addr:state":"Plovdiv","addr:country":"BG","name":"Б 141","phone":"+359 33 599 089","email":"b141@benz.lukoil.bg","opening_hours":"24/7","image":"https://lukoil.ru/FileSystem/0/1000110.jpeg","brand":"Лукойл","brand:wikidata":"Q329347"},"coordinates":[42.64363,24.80094]},"dist":63.276,"tags_mismatch":true},{"osm":{"type":"way","id":232265151,"tags":{"amenity":"fuel","brand":"Лукойл","brand:wikidata":"Q329347","building":"commercial","fuel:diesel":"yes","fuel:lpg":"yes","fuel:octane_95":"yes","payment:coins":"yes","payment:maestro":"yes","payment:mastercard":"yes","payment:notes":"yes","payment:visa":"yes","payment:visa_electron":"yes","ref":"Б181","shop":"kiosk"},"wikidata":"Q329347","coordinates":[43.2269397,27.9221045]},"atp":{"id":"fdw8WDZVgXD7K0sJ_2GgSgRkfhw=","tags":{"ref":"4843","payment:cards":"yes","fuel:lpg":"yes","fuel:diesel":"yes","fuel:octane_95":"yes","fuel:octane_98":"yes","amenity":"fuel","addr:full":"ул. Евлоги Георгиев, Варна","addr:street":"ул. Евлоги Георгиев","addr:city":"Варна","addr:state":"Varna","addr:country":"BG","name":"Б 181","phone":"+359 52 301 332","email":"O752@benz.lukoil.bg","opening_hours":"24/7","image":"https://lukoil.ru/FileSystem/0/1000015.jpeg","brand":"Лукойл","brand:wikidata":"Q329347"},"coordinates":[43.22698,27.92234]},"dist":19.6,"tags_mismatch":true},{"osm":{"type":"way","id":249595582,"tags":{"amenity":"fuel","brand":"Лукойл","brand:wikidata":"Q329347","building":"yes","opening_hours":"24/7"},"wikidata":"Q329347","coordinates":[41.5679659,24.7362298]},"atp":{"id":"xct6Pd-FpfoPb1A5KbP465lyfBE=","tags":{"ref":"4840","payment:cards":"yes","internet_access":"wlan","fuel:lpg":"yes","fuel:diesel":"yes","fuel:octane_98":"yes","fuel:octane_95":"yes","amenity":"fuel","addr:full":"кв. Райково, до Стадиона, Смолян","addr:street":"кв. Райково, до Стадиона","addr:city":"Смолян","addr:state":"Smolyan","addr:country":"BG","name":"Б 047","phone":"+359 30 181 010","email":"b047@benz.lukoil.bg","opening_hours":"24/7","image":"https://lukoil.ru/FileSystem/0/1000012.jpeg","brand":"Лукойл","brand:wikidata":"Q329347"},"coordinates":[41.56873,24.735]},"dist":132.989,"tags_mismatch":true},{"osm":{"type":"way","id":291392697,"tags":{"addr:street":"бул. Съединение","amenity":"fuel","brand":"Лукойл","brand:wikidata":"Q329347","building":"yes","note:cadastre:id":"732.123.1"},"wikidata":"Q329347","coordinates":[41.9308832,25.6002481]},"atp":{"id":"5mfvhXT80GYoLpwyUf-m2WLMhxU=","tags":{"ref":"4899","payment:cards":"yes","payment:dkv":"yes","payment:lukoil":"yes","car_wash":"yes","internet_access":"wlan","fuel:lpg":"yes","fuel:diesel":"yes","fuel:octane_95":"yes","fuel:octane_98":"yes","amenity":"fuel","addr:full":"бул.Съединение, изход Харманли, Хасково","addr:street":"бул.Съединение, изход Харманли","addr:city":"Хасково","addr:state":"Khaskovo","addr:country":"BG","name":"Б 057","phone":"038;622 412","email":"b057@benz.lukoil.bg","opening_hours":"24/7","image":"https://lukoil.ru/FileSystem/0/1000071.jpeg","brand":"Лукойл","brand:wikidata":"Q329347"},"coordinates":[41.93126,25.59979]},"dist":56.494,"tags_mismatch":true},{"osm":{"type":"way","id":293989500,"tags":{"amenity":"fuel","brand":"Лукойл","brand:wikidata":"Q329347","building":"retail","building:levels":"1","fuel:diesel":"yes","fuel:octane_100":"yes","fuel:octane_95":"yes","fuel:octane_98":"yes","roof:levels":"0","roof:shape":"flat"},"wikidata":"Q329347","coordinates":[42.438648,27.6365149]},"atp":{"id":"TdsjYoIoc337-Vzcdl7V06vDylU=","tags":{"ref":"4884","payment:cards":"yes","internet_access":"wlan","fuel:lpg":"yes","fuel:diesel":"yes","fuel:octane_98":"yes","fuel:octane_95":"yes","amenity":"fuel","addr:full":"Черноморец, Черноморец","addr:street":"Черноморец","addr:city":"Черноморец","addr:state":"Burgas","addr:country":"BG","name":"Б 078","phone":"+359 55 043 124","email":"b078@benz.lukoil.bg","opening_hours":"24/7","image":"https://lukoil.ru/FileSystem/0/1000056.jpeg","brand":"Лукойл","brand:wikidata":"Q329347"},"coordinates":[42.43873,27.63658]},"dist":10.568,"tags_mismatch":true},{"osm":{"type":"way","id":309032617,"tags":{"amenity":"fuel","brand":"Лукойл","brand:wikidata":"Q329347","building":"yes"},"wikidata":"Q329347","coordinates":[42.1196434,24.755419]},"atp":{"id":"P23pRc8AsezqA1tqwOjvdMU-_WA=","tags":{"ref":"4804","payment:cards":"yes","internet_access":"wlan","fuel:lpg":"yes","fuel:diesel":"yes","fuel:octane_95":"yes","fuel:octane_98":"yes","amenity":"fuel","addr:full":"бул.Цар Борис 3 Обединител, 4, Пловдив","addr:street":"бул.Цар Борис 3 Обединител","addr:city":"Пловдив","addr:state":"Plovdiv","addr:country":"BG","name":"Б 178","phone":"+359 32 671 115","email":"O750@benz.lukoil.bg","opening_hours":"24/7","brand":"Лукойл","brand:wikidata":"Q329347"},"coordinates":[42.12016,24.75654]},"dist":108.849,"tags_mismatch":true},{"osm":{"type":"way","id":361088875,"tags":{"amenity":"fuel","brand":"Лукойл","brand:wikidata":"Q329347","building":"yes","fuel:lpg":"yes"},"wikidata":"Q329347","coordinates":[43.1071211,25.7938125]},"atp":{"id":"MOpNermlwqP00VzYvT4A4U6HRuo=","tags":{"ref":"8766","payment:cards":"yes","internet_access":"wlan","fuel:lpg":"yes","fuel:diesel":"yes","fuel:octane_95":"yes","fuel:octane_98":"yes","amenity":"fuel","addr:full":"Добри дял, главен път Варна - София, Добри дял","addr:street":"Добри дял, главен път Варна - София","addr:state":"Veliko Turnovo","addr:country":"BG","name":"Б 111","phone":"+359 61 932 345","email":"b111@benz.lukoil.bg","opening_hours":"24/7","image":"https://lukoil.ru/FileSystem/0/1000182.jpeg","brand":"Лукойл","brand:wikidata":"Q329347"},"coordinates":[43.1075628,25.79386711]},"dist":49.314,"tags_mismatch":true},{"osm":{"type":"way","id":361092683,"tags":{"addr:street":"бул. Ботевградско шосе","amenity":"fuel","brand":"Лукойл","brand:wikidata":"Q329347","building":"roof","compressed_air":"yes","int_name":"Lukoil","website":"https://www.lukoil.bg/"},"wikidata":"Q329347","coordinates":[42.7022807,23.3834479]},"atp":{"id":"N8qQNej5cfdLhQjMWSatxItruNk=","tags":{"ref":"4821","payment:cards":"yes","payment:dkv":"yes","payment:lukoil":"yes","atm":"yes","internet_access":"wlan","fuel:diesel":"yes","fuel:octane_98":"yes","fuel:octane_95":"yes","amenity":"fuel","addr:full":"Ботевградско шосе, София","addr:street":"Ботевградско шосе","addr:city":"София","addr:state":"Sofia-Capital","addr:country":"BG","name":"Б 014","phone":"+359 2 945 5363","email":"b014@benz.lukoil.bg","opening_hours":"24/7","brand":"Лукойл","brand:wikidata":"Q329347"},"coordinates":[42.7022,23.3829]},"dist":45.662,"tags_mismatch":true},{"osm":{"type":"way","id":371533743,"tags":{"addr:city":"Момин сбор","addr:street":"13 км","amenity":"fuel","brand":"Лукойл","brand:wikidata":"Q329347","building":"yes","fuel:diesel":"yes","fuel:lpg":"yes","fuel:octane_95":"yes","fuel:octane_98":"yes"},"wikidata":"Q329347","coordinates":[43.0897138,25.4830084]},"atp":{"id":"W4-zu_anb29LU5WQuOBSDUY67ZM=","tags":{"ref":"4977","payment:cards":"yes","payment:dkv":"yes","payment:lukoil":"yes","internet_access":"wlan","fuel:lpg":"yes","fuel:diesel":"yes","fuel:octane_98":"yes","fuel:octane_95":"yes","amenity":"fuel","addr:full":"Момин сбор, 13-ти км.на Е-722, Велико Търново","addr:street":"Момин сбор, 13-ти км.на Е-722","addr:city":"Велико Търново","addr:state":"Gabrovo","addr:country":"BG","name":"Б 011","phone":"+359 62 601 121","email":"b011@benz.lukoil.bg","opening_hours":"24/7","image":"https://lukoil.ru/FileSystem/0/1000149.jpeg","brand":"Лукойл","brand:wikidata":"Q329347"},"coordinates":[43.09033,25.48338]},"dist":74.869,"tags_mismatch":true},{"osm":{"type":"way","id":383122091,"tags":{"amenity":"fuel","brand":"Лукойл","brand:wikidata":"Q329347"},"wikidata":"Q329347","coordinates":[43.2778897,26.9097174]},"atp":{"id":"X-lTmS8D3WZI4KUNOC_YriKbOzs=","tags":{"ref":"4968","payment:cards":"yes","internet_access":"wlan","fuel:lpg":"yes","fuel:diesel":"yes","fuel:octane_98":"yes","fuel:octane_95":"yes","amenity":"fuel","addr:full":"кв. Боян Балгаран, Шумен","addr:street":"кв. Боян Балгаран","addr:city":"Шумен","addr:state":"Shumen","addr:country":"BG","name":"Б 039","phone":"+359 54 800 232","email":"b039@benz.lukoil.bg","opening_hours":"24/7","image":"https://lukoil.ru/FileSystem/0/1000140.jpeg","brand":"Лукойл","brand:wikidata":"Q329347"},"coordinates":[43.27782,26.90944]},"dist":23.756,"tags_mismatch":true},{"osm":{"type":"way","id":456123203,"tags":{"addr:city":"Русе","amenity":"fuel","brand":"Лукойл","brand:wikidata":"Q329347","building":"retail","fuel:diesel":"yes","fuel:octane_95":"yes","fuel:octane_98":"yes"},"wikidata":"Q329347","coordinates":[43.8412361,25.9763988]},"atp":{"id":"yvvQpW-YF-hX1BzosyZlTDc6CGY=","tags":{"ref":"4915","payment:cards":"yes","payment:dkv":"yes","payment:lukoil":"yes","internet_access":"wlan","fuel:lpg":"yes","fuel:diesel":"yes","fuel:octane_95":"yes","fuel:octane_98":"yes","amenity":"fuel","addr:full":"бул. България, Дунав мост, Русе","addr:street":"бул. България, Дунав мост","addr:city":"Русе","addr:state":"Ruse","addr:country":"BG","name":"Б 094","phone":"+359 82 240 102","email":"b094@benz.lukoil.bg","opening_hours":"24/7","image":"https://lukoil.ru/FileSystem/0/1000087.jpeg","brand":"Лукойл","brand:wikidata":"Q329347"},"coordinates":[43.84082,25.97632]},"dist":46.698,"tags_mismatch":true},{"osm":{"type":"way","id":463690639,"tags":{"amenity":"fuel","brand":"Лукойл","brand:wikidata":"Q329347","int_name":"Lukoil","website":"https://www.lukoil.bg/"},"wikidata":"Q329347","coordinates":[42.6726516,23.3905987]},"atp":{"id":"Uph56AXVovHkuJ4UGlzexBpwh8E=","tags":{"ref":"4888","payment:cards":"yes","atm":"yes","internet_access":"wlan","fuel:lpg":"yes","fuel:diesel":"yes","fuel:octane_95":"yes","fuel:octane_98":"yes","amenity":"fuel","addr:full":"ул. Асен Йорданов, София","addr:street":"ул. Асен Йорданов","addr:city":"София","addr:state":"Sofia-Capital","addr:country":"BG","name":"Б 064","phone":"+359 2 979 0053","email":"b064@benz.lukoil.bg","opening_hours":"24/7","image":"https://lukoil.ru/FileSystem/0/1000060.jpeg","brand":"Лукойл","brand:wikidata":"Q329347"},"coordinates":[42.67262,23.39076]},"dist":13.647,"tags_mismatch":true},{"osm":{"type":"way","id":468559623,"tags":{"addr:street":"Илия Бешков","amenity":"fuel","brand":"Лукойл","brand:wikidata":"Q329347","building":"roof","int_name":"Lukoil","website":"https://www.lukoil.bg/"},"wikidata":"Q329347","coordinates":[42.6588598,23.402903]},"atp":{"id":"9BdlmlvPS1L7LxpAk5VJUqeNRFg=","tags":{"ref":"4913","payment:cards":"yes","internet_access":"wlan","fuel:lpg":"yes","fuel:diesel":"yes","fuel:octane_95":"yes","fuel:octane_98":"yes","amenity":"fuel","addr:full":"ул. Илия Бешков, 6, София","addr:street":"ул. Илия Бешков","addr:city":"София","addr:state":"Sofia-Capital","addr:country":"BG","name":"Б 090","phone":"+359 2 979 0919","email":"b090@benz.lukoil.bg","opening_hours":"24/7","image":"https://lukoil.ru/FileSystem/0/1000085.jpeg","brand":"Лукойл","brand:wikidata":"Q329347"},"coordinates":[42.65891,23.40306]},"dist":13.999,"tags_mismatch":true},{"osm":{"type":"way","id":473956994,"tags":{"amenity":"fuel","brand":"Лукойл","brand:wikidata":"Q329347","fuel:diesel":"yes","fuel:lpg":"yes","fuel:octane_95":"yes","fuel:octane_98":"yes","mapillary":"293279972439822","opening_hours":"24/7","survey:date":"2020-02-03"},"wikidata":"Q329347","coordinates":[43.635719,25.1208762]},"atp":false,"tags_mismatch":false},{"osm":{"type":"way","id":573053787,"tags":{"amenity":"fuel","brand":"Лукойл","brand:wikidata":"Q329347","building":"yes"},"wikidata":"Q329347","coordinates":[41.9184782,25.5617151]},"atp":{"id":"axAUoY3wabCkK6qBj_SPF8_A9Rk=","tags":{"ref":"4803","payment:cards":"yes","internet_access":"wlan","fuel:diesel":"yes","fuel:octane_98":"yes","fuel:octane_95":"yes","amenity":"fuel","addr:full":"бул. Освобождение, Хасково","addr:street":"бул. Освобождение","addr:city":"Хасково","addr:state":"Khaskovo","addr:country":"BG","name":"Б 185","phone":"+359 38 657 000","email":"O756@benz.lukoil.bg","opening_hours":"24/7","brand":"Лукойл","brand:wikidata":"Q329347"},"coordinates":[41.91879,25.56159]},"dist":36.183,"tags_mismatch":true},{"osm":{"type":"way","id":597791853,"tags":{"amenity":"fuel","brand":"Лукойл","brand:wikidata":"Q329347","building":"yes","building:levels":"1"},"wikidata":"Q329347","coordinates":[42.6977006,27.702474]},"atp":false,"tags_mismatch":false},{"osm":{"type":"way","id":618512912,"tags":{"amenity":"fuel","brand":"Лукойл","brand:wikidata":"Q329347","fuel:HGV_diesel":"yes","fuel:biodiesel":"yes","fuel:diesel":"yes","fuel:lpg":"yes","fuel:octane_95":"yes","fuel:octane_98":"yes","opening_hours":"24/7","shop":"convenience"},"wikidata":"Q329347","coordinates":[43.4731162,23.947797]},"atp":false,"tags_mismatch":false},{"osm":{"type":"way","id":660003923,"tags":{"amenity":"fuel","brand":"Лукойл","brand:wikidata":"Q329347","compressed_air":"yes","int_name":"Lukoil","website":"https://www.lukoil.bg/","wheelchair":"yes"},"wikidata":"Q329347","coordinates":[42.7023927,23.2974432]},"atp":{"id":"DlD8Fre3g5XIbmUKeZrCkjQu-m0=","tags":{"ref":"4885","payment:cards":"yes","atm":"yes","internet_access":"wlan","fuel:lpg":"yes","fuel:diesel":"yes","fuel:octane_95":"yes","fuel:octane_98":"yes","amenity":"fuel","addr:full":"бул. Т. Александров, София","addr:street":"бул. Т. Александров","addr:city":"София","addr:state":"Sofia-Capital","addr:country":"BG","name":"Б 043","phone":"+359 2 920 1379","email":"b043@benz.lukoil.bg","opening_hours":"24/7","image":"https://lukoil.ru/FileSystem/0/1000057.jpeg","brand":"Лукойл","brand:wikidata":"Q329347"},"coordinates":[42.70243,23.29761]},"dist":14.247,"tags_mismatch":true},{"osm":{"type":"way","id":669590448,"tags":{"addr:city":"София","addr:street":"бул. Царица Йоанна","amenity":"fuel","brand":"Лукойл","brand:wikidata":"Q329347","fuel:diesel":"yes","fuel:ecto_diesel":"yes","fuel:lpg":"yes","fuel:octane_100":"yes","fuel:octane_95":"yes","int_name":"Lukoil","opening_hours":"24/7","website":"https://www.lukoil.bg/"},"wikidata":"Q329347","coordinates":[42.7117427,23.2687677]},"atp":{"id":"weRkR4f8Ro94Qy2pWJuEQG8Nfg8=","tags":{"ref":"4854","payment:cards":"yes","internet_access":"wlan","fuel:lpg":"yes","fuel:diesel":"yes","fuel:octane_95":"yes","amenity":"fuel","addr:full":"бул. Царица Йоана - след тунела, София","addr:street":"бул. Царица Йоана - след тунела","addr:city":"София","addr:state":"Sofia-Capital","addr:country":"BG","name":"Б 041","phone":"+359 2 925 0402","email":"b041@benz.lukoil.bg","opening_hours":"24/7","image":"https://lukoil.ru/FileSystem/0/1000026.jpeg","brand":"Лукойл","brand:wikidata":"Q329347"},"coordinates":[42.71201,23.26847]},"dist":38.406,"tags_mismatch":true},{"osm":{"type":"way","id":696076922,"tags":{"addr:city":"София","addr:housenumber":"216","addr:postcode":"1202","addr:street":"бул. Сливница","amenity":"fuel","brand":"Лукойл","brand:wikidata":"Q329347","compressed_air":"yes","int_name":"Lukoil","opening_hours":"24/7","website":"https://www.lukoil.bg/"},"wikidata":"Q329347","coordinates":[42.70435,23.331299]},"atp":{"id":"TMtHfR-rcBAA_HxTOm1mmVwpLTU=","tags":{"ref":"4806","payment:cards":"yes","internet_access":"wlan","fuel:diesel":"yes","fuel:octane_98":"yes","fuel:octane_95":"yes","amenity":"fuel","addr:full":"Сточна гара, София","addr:street":"Сточна гара","addr:city":"София","addr:state":"Sofia-Capital","addr:country":"BG","name":"Б 143","phone":"+359 2 983 1894","email":"b143@benz.lukoil.bg","opening_hours":"24/7","brand":"Лукойл","brand:wikidata":"Q329347"},"coordinates":[42.70477,23.33125]},"dist":46.873,"tags_mismatch":true},{"osm":{"type":"way","id":745128893,"tags":{"addr:city":"София","addr:street":"бул. Сливница","amenity":"fuel","brand":"Лукойл","brand:wikidata":"Q329347","compressed_air":"yes","fuel:diesel":"yes","fuel:lpg":"yes","fuel:octane_95":"yes","int_name":"Lukoil","opening_hours":"24/7","website":"https://www.lukoil.bg/"},"wikidata":"Q329347","coordinates":[42.7161794,23.280882]},"atp":{"id":"BGp-tmN1DY4ys5-cm6LUpNWAI-s=","tags":{"ref":"4981","payment:cards":"yes","car_wash":"yes","atm":"yes","internet_access":"wlan","fuel:lpg":"yes","fuel:diesel":"yes","fuel:octane_98":"yes","fuel:octane_95":"yes","amenity":"fuel","addr:full":"Западен парк, бул. Европа- Орион, София","addr:street":"Западен парк, бул. Европа- Орион","addr:city":"София","addr:state":"Sofia-Capital","addr:country":"BG","name":"Б 015","phone":"+359 2 925 1367","email":"b015@benz.lukoil.bg","opening_hours":"24/7","image":"https://lukoil.ru/FileSystem/0/1000153.jpeg","brand":"Лукойл","brand:wikidata":"Q329347"},"coordinates":[42.7163,23.28072]},"dist":18.841,"tags_mismatch":true},{"osm":{"type":"way","id":891283861,"tags":{"amenity":"fuel","brand":"Лукойл","brand:wikidata":"Q329347"},"wikidata":"Q329347","coordinates":[42.3948601,25.6458526]},"atp":{"id":"nhWFUZmfElsBjR_Il84OQ6xE-6M=","tags":{"ref":"4809","payment:cards":"yes","internet_access":"wlan","fuel:diesel":"yes","fuel:octane_98":"yes","fuel:octane_95":"yes","amenity":"fuel","addr:full":"кв.\"Кольо Ганчев\" изход за Димитровград, Стара Загора","addr:street":"кв.\"Кольо Ганчев\" изход за Димитровград","addr:city":"Стара Загора","addr:state":"Stara Zagora","addr:country":"BG","name":"Б 142","phone":"+359 42 606 150","email":"b142@benz.lukoil.bg","opening_hours":"24/7","brand":"Лукойл","brand:wikidata":"Q329347"},"coordinates":[42.39509,25.64592]},"dist":26.156,"tags_mismatch":true},{"osm":{"type":"way","id":1046578703,"tags":{"amenity":"fuel","brand":"Лукойл","brand:wikidata":"Q329347"},"wikidata":"Q329347","coordinates":[41.5484481,23.2683123]},"atp":{"id":"JR6ZscQM_fqOGQXiHke1zG4VSck=","tags":{"ref":"4813","payment:cards":"yes","internet_access":"wlan","fuel:diesel":"yes","fuel:octane_95":"yes","amenity":"fuel","addr:full":"Промишлена зона, Сандански","addr:street":"Промишлена зона","addr:city":"Сандански","addr:state":"Blagoevgrad","addr:country":"BG","name":"Б 155","phone":"+359 74 621 005","email":"b155@benz.lukoil.bg","opening_hours":"24/7","brand":"Лукойл","brand:wikidata":"Q329347"},"coordinates":[41.54887,23.26821]},"dist":47.679,"tags_mismatch":true},{"osm":{"type":"way","id":1076503296,"tags":{"amenity":"fuel","brand":"Лукойл","brand:wikidata":"Q329347","name:pl":"Lukoil","wheelchair":"yes"},"wikidata":"Q329347","coordinates":[42.5318242,27.4698136]},"atp":{"id":"4FRI8ZbqGemhOviD4rsF-BRmwyA=","tags":{"ref":"4984","payment:cards":"yes","payment:dkv":"yes","payment:lukoil":"yes","internet_access":"wlan","fuel:lpg":"yes","fuel:diesel":"yes","fuel:octane_95":"yes","fuel:octane_98":"yes","amenity":"fuel","addr:full":"Бургас - изход Слънчев бряг, Бургас","addr:street":"Бургас - изход Слънчев бряг","addr:city":"Бургас","addr:state":"Burgas","addr:country":"BG","name":"Б 019","phone":"+359 56 860 191","email":"b019@benz.lukoil.bg","opening_hours":"24/7","image":"https://lukoil.ru/FileSystem/0/1000156.jpeg","brand":"Лукойл","brand:wikidata":"Q329347"},"coordinates":[42.53159,27.46924]},"dist":53.733,"tags_mismatch":true},{"osm":{"type":"way","id":1212457878,"tags":{"amenity":"fuel","brand":"Лукойл","brand:wikidata":"Q329347","building":"yes"},"wikidata":"Q329347","coordinates":[43.1535735,24.7153304]},"atp":false,"tags_mismatch":false}]}