{"metadata":{"type":"brand","wikidata":"Q7234083","name":"Пощенска банка","compare_keys":["cash_in","authentication:contactless"]},"data":[{"osm":{"type":"node","id":9454973689,"tags":{"amenity":"atm","brand":"Пощенска банка","brand:wikidata":"Q7234083","cash_in":"yes","check_date":"2023-09-24","indoor":"no","operator:wikidata":"Q7234083"},"wikidata":"Q7234083","coordinates":[42.6714795,23.2953152]},"atp":{"id":"v6Tih1bSfCSL6c75w7NnFZwKPnc=","tags":{"amenity":"atm","deposit":"yes","addr:full":"Бул. Гоце Делчев №103","addr:country":"BG","name":"София Гоце Делчев","opening_hours":"Mo-Su 00:00-24:00","brand":"Postbank","brand:wikidata":"Q7234083","operator:wikidata":"Q7234083"},"coordinates":[42.6716261,23.2951818]},"dist":19.613,"tags_mismatch":true},{"osm":{"type":"node","id":10119205132,"tags":{"amenity":"atm","brand":"Пощенска банка","brand:wikidata":"Q7234083","cash_in":"no","check_date":"2023-12-11","currency:BGN":"yes","drive_through":"no","indoor":"no","manufacturer":"NCR","opening_hours":"24/7","operator:wikidata":"Q7234083","wheelchair":"designated"},"wikidata":"Q7234083","coordinates":[42.6523626,23.3467705]},"atp":{"id":"1BSVUOhMEDgUKgFtHEf0O9iwmY0=","tags":{"amenity":"atm","addr:full":"Ул. Акад. Стефан Младенов №8","addr:country":"BG","name":"ДКЦ V, Студентска поликлиника","opening_hours":"Mo-Su 00:00-24:00","brand":"Postbank","brand:wikidata":"Q7234083","operator:wikidata":"Q7234083"},"coordinates":[42.65245,23.346783]},"dist":9.772,"tags_mismatch":true},{"osm":{"type":"node","id":10157404262,"tags":{"amenity":"atm","brand":"Пощенска банка","brand:wikidata":"Q7234083","cash_in":"yes","int_name":"Postbank","operator:wikidata":"Q7234083"},"wikidata":"Q7234083","coordinates":[42.6717969,23.3630472]},"atp":{"id":"LYwbZ5hXR9xzQ0a3C9l8QTVrNOI=","tags":{"amenity":"atm","addr:full":"Бул. Симеоновско шосе №130","addr:country":"BG","name":"Адифарм","opening_hours":"Mo-Su 00:00-24:00","brand":"Postbank","brand:wikidata":"Q7234083","operator:wikidata":"Q7234083"},"coordinates":[42.6351636046462,23.333522382736767]},"tags_mismatch":true},{"osm":{"type":"node","id":10226955690,"tags":{"amenity":"atm","brand":"Пощенска банка","brand:wikidata":"Q7234083","cash_in":"yes","check_date":"2023-12-16","indoor":"no","operator:wikidata":"Q7234083"},"wikidata":"Q7234083","coordinates":[42.6890947,23.3142334]},"atp":{"id":"08G77TurWcwSn6fEdVN-BPGdIF0=","tags":{"amenity":"atm","deposit":"yes","addr:full":"ул. Генерал Скобелев №65","addr:country":"BG","name":"София Скобелев","opening_hours":"Mo-Su 00:00-24:00","brand":"Postbank","brand:wikidata":"Q7234083","operator:wikidata":"Q7234083"},"coordinates":[42.69093012895773,23.31175696776361]},"dist":287.437,"tags_mismatch":true},{"osm":{"type":"node","id":10287948987,"tags":{"amenity":"atm","brand":"Пощенска банка","brand:wikidata":"Q7234083","cash_in":"no","check_date":"2022-12-26","covered":"yes","currency:BGN":"yes","indoor":"no","lit":"yes","manufacturer":"NCR","operator:wikidata":"Q7234083","source":"survey","wheelchair":"yes"},"wikidata":"Q7234083","coordinates":[43.3970907,24.6213454]},"atp":{"id":"exllIu3tl4_2ivfn7NlPCVAYVTY=","tags":{"amenity":"atm","addr:full":"бул. Христо Ботев","addr:country":"BG","name":"ЕКО Плевен","opening_hours":"Mo-Su 00:00-24:00","brand":"Postbank","brand:wikidata":"Q7234083","operator:wikidata":"Q7234083"},"coordinates":[43.396874,24.62064]},"dist":61.878,"tags_mismatch":true},{"osm":{"type":"node","id":11121657763,"tags":{"addr:housenumber":"бл.416","addr:place":"ж.к. Младост 4","amenity":"atm","brand":"Пощенска банка","brand:wikidata":"Q7234083","cash_in":"no","check_date":"2023-08-17","currency:BGN":"yes","level":"0","operator:wikidata":"Q7234083"},"wikidata":"Q7234083","coordinates":[42.6350653,23.3757267]},"atp":{"id":"Kr8Jn_uu5FhEXDAu0AKJhqnO8uc=","tags":{"amenity":"atm","addr:full":"Бул. Христо Ботев №120","addr:country":"BG","name":"Втора МБАЛ София","opening_hours":"Mo-Su 00:00-24:00","brand":"Postbank","brand:wikidata":"Q7234083","operator:wikidata":"Q7234083"},"coordinates":[42.706227,23.318259]},"tags_mismatch":true},{"osm":false,"atp":{"id":"1MYlYzgrjlsQbxGpoPyY1YJPjUg=","tags":{"amenity":"atm","addr:full":"Дружба 2, ул. Димитър Пешев","addr:country":"BG","name":"ЕКО Дружба","opening_hours":"Mo-Su 00:00-24:00","brand":"Postbank","brand:wikidata":"Q7234083","operator:wikidata":"Q7234083"},"coordinates":[42.645806,23.412477]},"tags_mismatch":false,"dist":0},{"osm":false,"atp":{"id":"Ffo2yR-rWQkB3q92297Fm-qOD6Y=","tags":{"amenity":"atm","addr:full":"Ул. Околовръстен път, Южна дъга, с/у магазин ИКЕА","addr:country":"BG","name":"ЕКО Малинова долина","opening_hours":"Mo-Su 00:00-24:00","brand":"Postbank","brand:wikidata":"Q7234083","operator:wikidata":"Q7234083"},"coordinates":[42.62906871831214,23.34618329937462]},"tags_mismatch":false,"dist":0},{"osm":false,"atp":{"id":"IXmRQMNVbmdJ-edAnopi3bTSH78=","tags":{"amenity":"atm","addr:full":"бул. Никола Й. Вапцаров 5","addr:country":"BG","name":"ЕКО Никола Й. Вапцаров","opening_hours":"Mo-Su 00:00-24:00","brand":"Postbank","brand:wikidata":"Q7234083","operator:wikidata":"Q7234083"},"coordinates":[42.66721054,23.32535873]},"tags_mismatch":false,"dist":0},{"osm":false,"atp":{"id":"wDtqcWNWBQ7k230eVthq5hGHQn0=","tags":{"amenity":"atm","addr:full":"ул. Резбарска","addr:country":"BG","name":"ЕКО Резбарска","opening_hours":"Mo-Su 00:00-24:00","brand":"Postbank","brand:wikidata":"Q7234083","operator:wikidata":"Q7234083"},"coordinates":[42.71066033,23.34937758]},"tags_mismatch":false,"dist":0},{"osm":false,"atp":{"id":"0N0t_0RnIWCSRrDLJYB83-YZkVk=","tags":{"amenity":"atm","addr:full":"бул. Сливница №8А","addr:country":"BG","name":"ЕКО Сливница","opening_hours":"Mo-Su 00:00-24:00","brand":"Postbank","brand:wikidata":"Q7234083","operator:wikidata":"Q7234083"},"coordinates":[42.720152,23.274305]},"tags_mismatch":false,"dist":0},{"osm":false,"atp":{"id":"2y3DFs2gDR-DNQlBGgkyDIsgNUI=","tags":{"amenity":"atm","addr:full":"ул. Околовръстен път – Царско село","addr:country":"BG","name":"ЕКО Царско село","opening_hours":"Mo-Su 00:00-24:00","brand":"Postbank","brand:wikidata":"Q7234083","operator:wikidata":"Q7234083"},"coordinates":[42.63867627868147,23.31927476941173]},"tags_mismatch":false,"dist":0},{"osm":false,"atp":{"id":"vzypmxT31Cifu2xgg2WfCT1Y-F4=","tags":{"amenity":"atm","addr:full":"кв. Лозенец, бул. Черни връх преди Околовръстен път","addr:country":"BG","name":"ЕКО Черни връх","opening_hours":"Mo-Su 00:00-24:00","brand":"Postbank","brand:wikidata":"Q7234083","operator:wikidata":"Q7234083"},"coordinates":[42.650809,23.315982]},"tags_mismatch":false,"dist":0},{"osm":false,"atp":{"id":"z8GaqbDcJBSO1dqnR_05CyvIUNw=","tags":{"amenity":"atm","addr:full":"Ул. Рачо Петков Казанджията №6","addr:country":"BG","name":"ЕОС Матрикс","brand":"Postbank","brand:wikidata":"Q7234083","operator:wikidata":"Q7234083"},"coordinates":[42.622058,23.369549]},"tags_mismatch":false,"dist":0},{"osm":false,"atp":{"id":"Nhpd-pPR1LWMO0dl6n7Zkft6mvY=","tags":{"amenity":"atm","addr:full":"Ул. Илиянци №119А","addr:country":"BG","name":"ЕТЕМ","opening_hours":"Mo-Su 00:00-24:00","brand":"Postbank","brand:wikidata":"Q7234083","operator:wikidata":"Q7234083"},"coordinates":[42.737136,23.325645]},"tags_mismatch":false,"dist":0},{"osm":false,"atp":{"id":"8tkFKdN0Jg8q-GUcQAQc7_zVBrM=","tags":{"amenity":"atm","addr:full":"Ул. Лунна папрат №3","addr:country":"BG","name":"Евросервиз Тандер","opening_hours":"Mo-Su 00:00-24:00","brand":"Postbank","brand:wikidata":"Q7234083","operator:wikidata":"Q7234083"},"coordinates":[42.6600828,23.260135]},"tags_mismatch":false,"dist":0},{"osm":false,"atp":{"id":"2CrN8xyb0Vc9bx46DEFA8WyYfbc=","tags":{"amenity":"atm","addr:full":"Бул. Околовръстен път №216","addr:country":"BG","name":"ИКЕА","opening_hours":"Mo-Sa 10:00-21:00; Su 10:00-20:00","brand":"Postbank","brand:wikidata":"Q7234083","operator:wikidata":"Q7234083"},"coordinates":[42.623723,23.355219]},"tags_mismatch":false,"dist":0},{"osm":false,"atp":{"id":"7_MBbQtooEGx43DksLYDutklwFA=","tags":{"amenity":"atm","addr:full":"Ул. Атанас Дуков №32","addr:country":"BG","name":"ИНТКО","opening_hours":"Mo-Su 00:00-24:00","brand":"Postbank","brand:wikidata":"Q7234083","operator:wikidata":"Q7234083"},"coordinates":[42.665768,23.326225]},"tags_mismatch":false,"dist":0},{"osm":false,"atp":{"id":"wdxh0z9sPc-48XRsUweHu_isUO0=","tags":{"amenity":"atm","deposit":"yes","addr:full":"ул. ‘‘Aсен Йорданов‘‘ 7","addr:country":"BG","name":"Кауфланд Слатина","opening_hours":"Mo-Su 07:00-22:00","brand":"Postbank","brand:wikidata":"Q7234083","operator:wikidata":"Q7234083"},"coordinates":[42.6742855,23.38280297]},"tags_mismatch":false,"dist":0},{"osm":false,"atp":{"id":"gAM_N_vOAvAdVv3e2xcdCMtZiow=","tags":{"amenity":"atm","addr:full":"Бул. Ломско шосе №207","addr:country":"BG","name":"Комплекс Кристал","opening_hours":"Mo-Su 00:00-24:00","brand":"Postbank","brand:wikidata":"Q7234083","operator:wikidata":"Q7234083"},"coordinates":[42.743535,23.283052]},"tags_mismatch":false,"dist":0},{"osm":false,"atp":{"id":"2uSDnaazUrUDJzkpncc3_U0T2PQ=","tags":{"amenity":"atm","addr:full":"Бул. Христофор Колумб №1, Терминал 2","addr:country":"BG","name":"Летище София - Терминал 2","opening_hours":"Mo-Su 00:00-24:00","brand":"Postbank","brand:wikidata":"Q7234083","operator:wikidata":"Q7234083"},"coordinates":[42.68238286353034,23.402468467763008]},"tags_mismatch":false,"dist":0},{"osm":false,"atp":{"id":"6CbPgcwonmChKip2Y8VcWPY3Npk=","tags":{"amenity":"atm","addr:full":"Бул. Христофор Колумб №1, Терминал 1","addr:country":"BG","name":"Летище София Терминал 1 – пристигащи","opening_hours":"Mo-Su 00:00-24:00","brand":"Postbank","brand:wikidata":"Q7234083","operator:wikidata":"Q7234083"},"coordinates":[42.682430214436614,23.402457741959036]},"tags_mismatch":false,"dist":0},{"osm":false,"atp":{"id":"oCwoBlnOYpwoFpZ7Aj1AuIIyEwc=","tags":{"amenity":"atm","addr:full":"Ул. Д-Р Петър Дертлиев №81","addr:country":"BG","name":"МБАЛ Люлин","opening_hours":"Mo-Su 00:00-24:00","brand":"Postbank","brand:wikidata":"Q7234083","operator:wikidata":"Q7234083"},"coordinates":[42.708423,23.249351]},"tags_mismatch":false,"dist":0},{"osm":false,"atp":{"id":"oyalaYbsng5hQcZkLeN0vDQqKV4=","tags":{"amenity":"atm","addr:full":"жк. Света Троица, ул. Цар Симеон до бл.310","addr:country":"BG","name":"Магазин 345 - Света Троица","opening_hours":"Mo-Su 00:00-24:00","brand":"Postbank","brand:wikidata":"Q7234083","operator:wikidata":"Q7234083"},"coordinates":[42.70917403559914,23.28954329808788]},"tags_mismatch":false,"dist":0},{"osm":false,"atp":{"id":"CLofBqnix-mxXvhUMinmwohw7w0=","tags":{"amenity":"atm","addr:full":"Ж.к. Люлин, бул. Захари Стоянов №31","addr:country":"BG","name":"Магазин Виера","opening_hours":"Mo-Su 00:00-24:00","brand":"Postbank","brand:wikidata":"Q7234083","operator:wikidata":"Q7234083"},"coordinates":[42.7181729,23.2470465]},"tags_mismatch":false,"dist":0},{"osm":false,"atp":{"id":"SQucQEFbp0vap3GwQmlKlzBRQ2w=","tags":{"amenity":"atm","addr:full":"Бул. Цар Борис III 280","addr:country":"BG","name":"Магазин Княжево","opening_hours":"Mo-Su 00:00-24:00","brand":"Postbank","brand:wikidata":"Q7234083","operator:wikidata":"Q7234083"},"coordinates":[42.65938096800974,23.241795454049946]},"tags_mismatch":false,"dist":0},{"osm":false,"atp":{"id":"0DLJvjJmFE9etvgf-LKmXFaax0Y=","tags":{"amenity":"atm","addr:full":"Ж.к. Люлин, бул. Ген. Асен Николов, до м-н Европа","addr:country":"BG","name":"Малкият принц","opening_hours":"Mo-Su 00:00-24:00","brand":"Postbank","brand:wikidata":"Q7234083","operator:wikidata":"Q7234083"},"coordinates":[42.720334,23.26397]},"tags_mismatch":false,"dist":0},{"osm":false,"atp":{"id":"f338TOSjSF4sk-IFk0wKGfkMngE=","tags":{"amenity":"atm","deposit":"yes","addr:full":"бул. Царица Йоанна № 15; Ниво 0","addr:country":"BG","name":"Мега Мол София","opening_hours":"Mo-Su 09:00-21:00","brand":"Postbank","brand:wikidata":"Q7234083","operator:wikidata":"Q7234083"},"coordinates":[42.7107482085765,23.271274763887]},"tags_mismatch":false,"dist":0},{"osm":false,"atp":{"id":"6VO9FhlanbSCc4CCxe4SzTLBFPY=","tags":{"amenity":"atm","addr:full":"Бул. Цариградско шосе №115Г","addr:country":"BG","name":"Мегапарк","opening_hours":"Mo-Su 00:00-24:00","brand":"Postbank","brand:wikidata":"Q7234083","operator:wikidata":"Q7234083"},"coordinates":[42.69649,23.32601]},"tags_mismatch":false,"dist":0},{"osm":false,"atp":{"id":"6kDCDryxe4v2d5FmGpW5wbRosUs=","tags":{"amenity":"atm","addr:full":"Ж.к. Овча Купел 2, Ул. Фридрих Грюнангер №2","addr:country":"BG","name":"Медицински център Доверие","opening_hours":"Mo-Su 00:00-24:00","brand":"Postbank","brand:wikidata":"Q7234083","operator:wikidata":"Q7234083"},"coordinates":[42.684771,23.246255]},"tags_mismatch":false,"dist":0},{"osm":false,"atp":{"id":"7LM2BKvX-zvWvhmhI1vesbI64O4=","tags":{"amenity":"atm","deposit":"yes","addr:full":"кв. Хладилника, бул. Черни връх 100","addr:country":"BG","name":"Мол Парадайз вход- Сребърна","opening_hours":"Mo-Su 08:00-22:00","brand":"Postbank","brand:wikidata":"Q7234083","operator:wikidata":"Q7234083"},"coordinates":[42.657674139779175,23.314995582596385]},"tags_mismatch":false,"dist":0},{"osm":false,"atp":{"id":"Vilr_8Mo-VL9ZXnDVA0yrRR3gDM=","tags":{"amenity":"atm","deposit":"yes","addr:full":"Ул. Алабин №1","addr:country":"BG","name":"Моменто Telus Tower 2","opening_hours":"Sa 10:00-14:00","brand":"Postbank","brand:wikidata":"Q7234083","operator:wikidata":"Q7234083"},"coordinates":[42.694789,23.315608]},"tags_mismatch":false,"dist":0},{"osm":false,"atp":{"id":"tFI0zWrbHYrPPd6qgXU8p1pWjjo=","tags":{"amenity":"atm","deposit":"yes","addr:full":"Бул. Ал. Стамболийски №101","addr:country":"BG","name":"Моменто Мол София","opening_hours":"Mo-Su 10:00-19:00","brand":"Postbank","brand:wikidata":"Q7234083","operator:wikidata":"Q7234083"},"coordinates":[42.698459925862785,23.309022201864195]},"tags_mismatch":false,"dist":0},{"osm":false,"atp":{"id":"JCAGAojryR6ZvQCQkgk4njviBKY=","tags":{"amenity":"atm","deposit":"yes","addr:full":"бул. Цар Освободител №33","addr:country":"BG","name":"Моменто Орлов мост","opening_hours":"Mo-Su 00:00-24:00","brand":"Postbank","brand:wikidata":"Q7234083","operator:wikidata":"Q7234083"},"coordinates":[42.691038,23.337478]},"tags_mismatch":false,"dist":0},{"osm":false,"atp":{"id":"9WFC2FtLYMvW3hQmiUOet4tuSxw=","tags":{"amenity":"atm","deposit":"yes","addr:full":"бул. Цар Освободител №33","addr:country":"BG","name":"Моменто Орлов мост 2","opening_hours":"Sa 10:00-14:00","brand":"Postbank","brand:wikidata":"Q7234083","operator:wikidata":"Q7234083"},"coordinates":[42.691038,23.337478]},"tags_mismatch":false,"dist":0},{"osm":false,"atp":{"id":"uip1TjLwYF5b3BTcNLG9OLA-L_c=","tags":{"amenity":"atm","deposit":"yes","addr:full":"Ул. Г.С.Раковски № 82","addr:country":"BG","name":"Моменто Раковски 2","opening_hours":"Sa 10:00-14:00","brand":"Postbank","brand:wikidata":"Q7234083","operator:wikidata":"Q7234083"},"coordinates":[42.69856,23.32972]},"tags_mismatch":false,"dist":0},{"osm":false,"atp":{"id":"MnAMRRk_41DAFcl3fKFCpsdbIFs=","tags":{"amenity":"atm","deposit":"yes","addr:full":"Пл. Петко Р. Славейков №1","addr:country":"BG","name":"Моменто Славейков 2","opening_hours":"Sa 10:00-14:00","brand":"Postbank","brand:wikidata":"Q7234083","operator:wikidata":"Q7234083"},"coordinates":[42.692602,23.323906]},"tags_mismatch":false,"dist":0},{"osm":false,"atp":{"id":"6fwhS8NndW3pPalPqYUzq6pszcM=","tags":{"amenity":"atm","addr:full":"Ж.к. Овча Купел, бул. Монтевидео №21","addr:country":"BG","name":"НБУ","opening_hours":"Mo-Fr 08:00-21:00; Sa-Su 09:00-17:30","brand":"Postbank","brand:wikidata":"Q7234083","operator:wikidata":"Q7234083"},"coordinates":[42.6783219,23.2510075]},"tags_mismatch":false,"dist":0},{"osm":false,"atp":{"id":"YDW3_vZRAOFmA4z2vo5Kb1jxbnQ=","tags":{"amenity":"atm","addr:full":"ул.“Челопешко шосе“ №24","addr:country":"BG","name":"Орбико България","brand":"Postbank","brand:wikidata":"Q7234083","operator:wikidata":"Q7234083"},"coordinates":[42.71476619369477,23.436130710842022]},"tags_mismatch":false,"dist":0},{"osm":false,"atp":{"id":"H_pcll3VUJZGoIOX_qlezo0g0Eo=","tags":{"amenity":"atm","deposit":"yes","addr:full":"ул. \"Тинтява\" 13Б, вх. А","addr:country":"BG","name":"ПОК Доверие","opening_hours":"Mo-Fr 08:00-22:00","brand":"Postbank","brand:wikidata":"Q7234083","operator:wikidata":"Q7234083"},"coordinates":[42.66729081917973,23.35347245576103]},"tags_mismatch":false,"dist":0},{"osm":false,"atp":{"id":"_Pi_nLQFUfA88pJ2EjSOrwWZNz8=","tags":{"amenity":"atm","addr:full":"бул. „Арсеналски“ 2, ниво 0","addr:country":"BG","name":"Парк Център Мол, ниво 0","opening_hours":"Mo-Su 08:00-22:00","brand":"Postbank","brand:wikidata":"Q7234083","operator:wikidata":"Q7234083"},"coordinates":[42.67818381691868,23.319624169104625]},"tags_mismatch":false,"dist":0},{"osm":false,"atp":{"id":"XXWmLO-KvtPqcTdU9kVB2-gQAn4=","tags":{"amenity":"atm","deposit":"yes","addr:full":"Бул. Околовръстен път №260, сграда Б","addr:country":"BG","name":"Пощенска банка Офис парк - Б","opening_hours":"Mo-Fr 08:30-18:00","brand":"Postbank","brand:wikidata":"Q7234083","operator:wikidata":"Q7234083"},"coordinates":[42.622455,23.380158]},"tags_mismatch":false,"dist":0},{"osm":false,"atp":{"id":"7PrA1v1ewCWum6PgqanZIg_eeUc=","tags":{"amenity":"atm","addr:full":"ул. Здраве 2","addr:country":"BG","name":"САГБАЛ Майчин дом","opening_hours":"Mo-Su 00:00-24:00","brand":"Postbank","brand:wikidata":"Q7234083","operator:wikidata":"Q7234083"},"coordinates":[42.68380442125118,23.313166826776495]},"tags_mismatch":false,"dist":0},{"osm":false,"atp":{"id":"XtqWTd-8gtE0VhGsS2vD5kJhBOo=","tags":{"amenity":"atm","addr:full":"Ул. 5004 №2","addr:country":"BG","name":"СОТ","opening_hours":"Mo-Fr 00:00-24:00","brand":"Postbank","brand:wikidata":"Q7234083","operator:wikidata":"Q7234083"},"coordinates":[42.661276,23.4179435]},"tags_mismatch":false,"dist":0},{"osm":false,"atp":{"id":"yxJ6Gm771GDdz4RuS9LEb_A2OjY=","tags":{"amenity":"atm","addr:full":"ул. „Кукуш“ 2, София","addr:country":"BG","name":"Сименс ","opening_hours":"Mo-Fr 09:00-17:00","brand":"Postbank","brand:wikidata":"Q7234083","operator:wikidata":"Q7234083"},"coordinates":[42.715926679167616,23.28572222708489]},"tags_mismatch":false,"dist":0},{"osm":false,"atp":{"id":"VHKoCvqA1MrC1us9oM_8YOLFcSc=","tags":{"amenity":"atm","deposit":"yes","addr:full":"ул. Коста Лулчев 52","addr:country":"BG","name":"Скай Сити Мол","opening_hours":"Mo-Su 10:00-22:00","brand":"Postbank","brand:wikidata":"Q7234083","operator:wikidata":"Q7234083"},"coordinates":[42.67986220077809,23.36717548898071]},"tags_mismatch":false,"dist":0},{"osm":false,"atp":{"id":"Jk52TxT1ObOj07BLkP3Yi7lWj7s=","tags":{"amenity":"atm","deposit":"yes","addr:full":"Бул. Ал. Стамболийски №55А","addr:country":"BG","name":"София - Стамболийски","opening_hours":"Mo-Su 00:00-24:00","brand":"Postbank","brand:wikidata":"Q7234083","operator:wikidata":"Q7234083"},"coordinates":[42.697461,23.315442]},"tags_mismatch":false,"dist":0},{"osm":false,"atp":{"id":"udJ3tC85jVD6G6Fby_b_pJFo8NY=","tags":{"amenity":"atm","deposit":"yes","addr:full":"Ж.к. Младост 4, Бизнес парк София, сграда 10","addr:country":"BG","name":"София Бизнес парк","opening_hours":"Mo-Su 00:00-24:00","brand":"Postbank","brand:wikidata":"Q7234083","operator:wikidata":"Q7234083"},"coordinates":[42.62602731876352,23.376854695337865]},"tags_mismatch":false,"dist":0},{"osm":false,"atp":{"id":"RbbQS4nKBHYKNXlQ9b6UNeQUnlw=","tags":{"amenity":"atm","deposit":"yes","addr:full":"Ж.к. Младост 4, Бизнес парк София, сграда 10","addr:country":"BG","name":"София Бизнес парк 2","opening_hours":"Mo-Fr 08:30-17:00","brand":"Postbank","brand:wikidata":"Q7234083","operator:wikidata":"Q7234083"},"coordinates":[42.62602731876352,23.376854695337865]},"tags_mismatch":false,"dist":0},{"osm":false,"atp":{"id":"b_qk-EDp55U0cOFCc2CVZ_bg-UA=","tags":{"amenity":"atm","deposit":"yes","addr:full":"Ул. Николай Коперник № 21","addr:country":"BG","name":"София Гео Милев","opening_hours":"Mo-Su 00:00-24:00","brand":"Postbank","brand:wikidata":"Q7234083","operator:wikidata":"Q7234083"},"coordinates":[42.6798159,23.361026]},"tags_mismatch":false,"dist":0},{"osm":false,"atp":{"id":"mTY2ZHVtR3qdSuAaNdX0wk8Wn_U=","tags":{"amenity":"atm","addr:full":"Ул. Раковски №137","addr:country":"BG","name":"София Гурко","opening_hours":"Mo-Su 00:00-24:00","brand":"Postbank","brand:wikidata":"Q7234083","operator:wikidata":"Q7234083"},"coordinates":[42.693631882061474,23.326291728104223]},"tags_mismatch":false,"dist":0},{"osm":false,"atp":{"id":"iNNlz6l-RHGrhKe7ownBtKmXMbw=","tags":{"amenity":"atm","deposit":"yes","addr:full":"Ул. Раковски №137","addr:country":"BG","name":"София Гурко II","opening_hours":"Mo-Su 00:00-24:00","brand":"Postbank","brand:wikidata":"Q7234083","operator:wikidata":"Q7234083"},"coordinates":[42.694136557558444,23.325948405362816]},"tags_mismatch":false,"dist":0},{"osm":false,"atp":{"id":"CZBqfhhRE041MeQ7NkQzJ4CuZxU=","tags":{"amenity":"atm","deposit":"yes","addr:full":"Бул. Дондуков №4-6","addr:country":"BG","name":"София Дондуков","opening_hours":"Mo-Su 00:00-24:00","brand":"Postbank","brand:wikidata":"Q7234083","operator:wikidata":"Q7234083"},"coordinates":[42.6976718,23.3264022]},"tags_mismatch":false,"dist":0},{"osm":false,"atp":{"id":"QK7yORcT1jxQxONPnT4FwXmzWHA=","tags":{"amenity":"atm","deposit":"yes","addr:full":"Бул. Христофор Колумб №43","addr:country":"BG","name":"София Евроинс","opening_hours":"Mo-Su 00:00-24:00","brand":"Postbank","brand:wikidata":"Q7234083","operator:wikidata":"Q7234083"},"coordinates":[42.6806292,23.3996635]},"tags_mismatch":false,"dist":0},{"osm":false,"atp":{"id":"hfne1hQlMrCdz_cL-gP_cjeq9vY=","tags":{"amenity":"atm","deposit":"yes","addr:full":"бул. Цариградско шосе №96","addr:country":"BG","name":"София Елипс Център","opening_hours":"Mo-Fr 08:30-17:00","brand":"Postbank","brand:wikidata":"Q7234083","operator:wikidata":"Q7234083"},"coordinates":[42.64594137056758,23.39712665591895]},"tags_mismatch":false,"dist":0},{"osm":false,"atp":{"id":"EJAat43cqdVE4n3qSn0R7ZqQJag=","tags":{"amenity":"atm","deposit":"yes","addr:full":"Бул. Цариградско шосе, блок 22","addr:country":"BG","name":"София Изток","opening_hours":"Mo-Su 00:00-24:00","brand":"Postbank","brand:wikidata":"Q7234083","operator:wikidata":"Q7234083"},"coordinates":[42.6885494,23.3406613]},"tags_mismatch":false,"dist":0},{"osm":false,"atp":{"id":"3hgAShiYUiDKJqstWakp--w8mew=","tags":{"amenity":"atm","addr:full":"Бул. Константин Величков №61","addr:country":"BG","name":"София Константин Величков","opening_hours":"Mo-Su 00:00-24:00","brand":"Postbank","brand:wikidata":"Q7234083","operator:wikidata":"Q7234083"},"coordinates":[42.702504,23.297989]},"tags_mismatch":false,"dist":0},{"osm":false,"atp":{"id":"j5uEU_Me_7c-UGvUd68itfW7aHI=","tags":{"amenity":"atm","deposit":"yes","addr:full":"Бул. Никола Мушанов, бл.31","addr:country":"BG","name":"София Красна Поляна","opening_hours":"Mo-Su 00:00-24:00","brand":"Postbank","brand:wikidata":"Q7234083","operator:wikidata":"Q7234083"},"coordinates":[42.6910058,23.2785609]},"tags_mismatch":false,"dist":0},{"osm":false,"atp":{"id":"s4Iwu7rwMI-_6hJt1NECUIsw43M=","tags":{"amenity":"atm","deposit":"yes","addr:full":"Ул. Луи Пастьор №30","addr:country":"BG","name":"София Люлин Луи Пастьор","opening_hours":"Mo-Su 00:00-24:00","brand":"Postbank","brand:wikidata":"Q7234083","operator:wikidata":"Q7234083"},"coordinates":[42.7136401,23.2652657]},"tags_mismatch":false,"dist":0},{"osm":false,"atp":{"id":"eaJww7xx9NMfkOyNk6wmIM48pyE=","tags":{"amenity":"atm","deposit":"yes","addr:full":"Ул. Луи Пастьор №30","addr:country":"BG","name":"София Люлин Луи Пастьор II","opening_hours":"Mo-Fr 08:30-17:00","brand":"Postbank","brand:wikidata":"Q7234083","operator:wikidata":"Q7234083"},"coordinates":[42.71376312678783,23.265477995690393]},"tags_mismatch":false,"dist":0},{"osm":false,"atp":{"id":"ydygVzfYFhHheDFDgIxP0mV7tpA=","tags":{"amenity":"atm","addr:full":"Ул. Здраве №2","addr:country":"BG","name":"София Медицинска Академия","opening_hours":"Mo-Su 00:00-24:00","brand":"Postbank","brand:wikidata":"Q7234083","operator:wikidata":"Q7234083"},"coordinates":[42.6834424,23.3116593]},"tags_mismatch":false,"dist":0},{"osm":false,"atp":{"id":"5CSiK85DqHDA2aM2C9SBGf3ybeY=","tags":{"amenity":"atm","deposit":"yes","addr:full":"ул. Андрей Сахаров 16","addr:country":"BG","name":"София Младост Сахаров","opening_hours":"Mo-Su 00:00-24:00","brand":"Postbank","brand:wikidata":"Q7234083","operator:wikidata":"Q7234083"},"coordinates":[42.6536868,23.3730849]},"tags_mismatch":false,"dist":0},{"osm":false,"atp":{"id":"zSMiAHR29HwwC6ZsfxoE99k5Lk4=","tags":{"amenity":"atm","deposit":"yes","addr:full":"Бул. Цариградско шосе 115","addr:country":"BG","name":"София Мол Цариградско шосе","opening_hours":"Mo-Su 10:00-22:00","brand":"Postbank","brand:wikidata":"Q7234083","operator:wikidata":"Q7234083"},"coordinates":[42.660518,23.382169]},"tags_mismatch":false,"dist":0},{"osm":false,"atp":{"id":"pcANdNSItdu4Cq7P8ztiDESx-R4=","tags":{"amenity":"atm","addr:full":"Пл. България №1","addr:country":"BG","name":"София НДК","opening_hours":"Mo-Su 00:00-24:00","brand":"Postbank","brand:wikidata":"Q7234083","operator:wikidata":"Q7234083"},"coordinates":[42.683565,23.315713]},"tags_mismatch":false,"dist":0},{"osm":false,"atp":{"id":"1g4iCJB-SzuM7t6Cd9ZcQ3jlYNw=","tags":{"amenity":"atm","deposit":"yes","addr:full":"Бул. Ломско шосе, бл. 171","addr:country":"BG","name":"София Надежда II","opening_hours":"Mo-Fr 08:30-17:00","brand":"Postbank","brand:wikidata":"Q7234083","operator:wikidata":"Q7234083"},"coordinates":[42.725936,23.302235]},"tags_mismatch":false,"dist":0},{"osm":false,"atp":{"id":"s_U8oHczudFDcpAW8dal17OQjIk=","tags":{"amenity":"atm","deposit":"yes","addr:full":"Бул. Монтевидео №51","addr:country":"BG","name":"София Овча купел","opening_hours":"Mo-Su 00:00-24:00","brand":"Postbank","brand:wikidata":"Q7234083","operator:wikidata":"Q7234083"},"coordinates":[42.687299,23.2549932]},"tags_mismatch":false,"dist":0},{"osm":false,"atp":{"id":"oGuWEGwCCnMHXrJJJCrBcL_ry10=","tags":{"amenity":"atm","deposit":"yes","addr:full":"Ул. Опълченска №117, бл. 41","addr:country":"BG","name":"София Опълченска","opening_hours":"Mo-Su 00:00-24:00","brand":"Postbank","brand:wikidata":"Q7234083","operator:wikidata":"Q7234083"},"coordinates":[42.709356,23.31366]},"tags_mismatch":false,"dist":0},{"osm":false,"atp":{"id":"H6RiWjvTR0oJc51jlzq7EcjvICU=","tags":{"amenity":"atm","deposit":"yes","addr:full":"Бул. Черни връх №100","addr:country":"BG","name":"София Парадайс","opening_hours":"Mo-Su 10:00-22:00","brand":"Postbank","brand:wikidata":"Q7234083","operator:wikidata":"Q7234083"},"coordinates":[42.657666,23.315049]},"tags_mismatch":false,"dist":0},{"osm":false,"atp":{"id":"9K6rwU0F_bntABCXnh4SDRTWgXM=","tags":{"amenity":"atm","deposit":"yes","addr:full":"Бул. Околовръстен път №260, сграда A","addr:country":"BG","name":"София Пощенска банка ЦУ","opening_hours":"Mo-Su 00:00-24:00","brand":"Postbank","brand:wikidata":"Q7234083","operator:wikidata":"Q7234083"},"coordinates":[42.622392,23.380937]},"tags_mismatch":false,"dist":0},{"osm":false,"atp":{"id":"HA7IM-XzWmFdiLrwOEDzEwa3Ti0=","tags":{"amenity":"atm","deposit":"yes","addr:full":"ул. Околовръстен път 214","addr:country":"BG","name":"София Ринг Мол","opening_hours":"Mo-Su 10:00-22:00","brand":"Postbank","brand:wikidata":"Q7234083","operator:wikidata":"Q7234083"},"coordinates":[42.62486852785199,23.352566217542165]},"tags_mismatch":false,"dist":0},{"osm":false,"atp":{"id":"GIaumLJZiBVTCTuBpH8odE8KsEU=","tags":{"amenity":"atm","deposit":"yes","addr:full":"бул. „Ситняково“ 48","addr:country":"BG","name":"София Сердика Център","opening_hours":"Mo-Su 10:00-22:00","brand":"Postbank","brand:wikidata":"Q7234083","operator:wikidata":"Q7234083"},"coordinates":[42.69199348039295,23.353552555920004]},"tags_mismatch":false,"dist":0},{"osm":false,"atp":{"id":"8-otrAIl8YeYD3zI5NhC8wjpYCM=","tags":{"amenity":"atm","deposit":"yes","addr:full":"Ул. Гео Милев №128","addr:country":"BG","name":"София Слатина","opening_hours":"Mo-Su 00:00-24:00","brand":"Postbank","brand:wikidata":"Q7234083","operator:wikidata":"Q7234083"},"coordinates":[42.680163820202715,23.37242223245293]},"tags_mismatch":false,"dist":0},{"osm":false,"atp":{"id":"0TRBYMA1WHuZkBt0DfK7tKAURxs=","tags":{"amenity":"atm","deposit":"yes","addr:full":"Бул. Сливница №127, Търговски Комплекс Западен Парк","addr:country":"BG","name":"София Сливница","brand":"Postbank","brand:wikidata":"Q7234083","operator:wikidata":"Q7234083"},"coordinates":[42.709513,23.293827]},"tags_mismatch":false,"dist":0},{"osm":false,"atp":{"id":"TB4z9H9-dU0pUf1gcIxmXkdpxXg=","tags":{"amenity":"atm","deposit":"yes","addr:full":"бул. Академик Стефанов №20","addr:country":"BG","name":"София Студентски град","brand":"Postbank","brand:wikidata":"Q7234083","operator:wikidata":"Q7234083"},"coordinates":[42.64833738392263,23.341544282004737]},"tags_mismatch":false,"dist":0},{"osm":false,"atp":{"id":"7-3_07KSZ8et5Hh8XRfBK7AE8-Q=","tags":{"amenity":"atm","deposit":"yes","addr:full":"Ул. Ал. Екзарх, №34 бл. 224, вх. А","addr:country":"BG","name":"София Суха река","opening_hours":"Mo-Su 00:00-24:00","brand":"Postbank","brand:wikidata":"Q7234083","operator:wikidata":"Q7234083"},"coordinates":[42.700116,23.359916]},"tags_mismatch":false,"dist":0},{"osm":false,"atp":{"id":"UcjL290A50ZfCxUPrlND_oBFnZI=","tags":{"amenity":"atm","deposit":"yes","addr:full":"Ул. Ал. Екзарх 34, бл. 224, вх. А","addr:country":"BG","name":"София Суха река II","opening_hours":"Mo-Fr 00:00-17:00","brand":"Postbank","brand:wikidata":"Q7234083","operator:wikidata":"Q7234083"},"coordinates":[42.700116,23.359916]},"tags_mismatch":false,"dist":0},{"osm":false,"atp":{"id":"paacB6h7T1m-G0jb8bCJguibXKc=","tags":{"amenity":"atm","addr:full":"Бул. Витоша №3","addr:country":"BG","name":"София Съдебна палата II","opening_hours":"Mo-Su 00:00-24:00","brand":"Postbank","brand:wikidata":"Q7234083","operator:wikidata":"Q7234083"},"coordinates":[42.695301935297024,23.321302069412944]},"tags_mismatch":false,"dist":0},{"osm":false,"atp":{"id":"9WEBxHeaFbPxDs9rlTNv2flsD3A=","tags":{"amenity":"atm","deposit":"yes","addr:full":"Хиподрума, блок 24","addr:country":"BG","name":"София Хиподрума","opening_hours":"Mo-Su 00:00-24:00","brand":"Postbank","brand:wikidata":"Q7234083","operator:wikidata":"Q7234083"},"coordinates":[42.6846387,23.2968368]},"tags_mismatch":false,"dist":0},{"osm":false,"atp":{"id":"M3U32yIRoXvkHYefjG1p5s78_Cw=","tags":{"amenity":"atm","addr:full":"Бул. Черни връх №43","addr:country":"BG","name":"София Черни връх","opening_hours":"Mo-Su 00:00-24:00","brand":"Postbank","brand:wikidata":"Q7234083","operator:wikidata":"Q7234083"},"coordinates":[42.66597663982624,23.31827943462983]},"tags_mismatch":false,"dist":0},{"osm":false,"atp":{"id":"ud0ccozNnv_5HtBZclAK9poXNyI=","tags":{"amenity":"atm","addr:full":"Ул. Шишман №30","addr:country":"BG","name":"София Шишман II","opening_hours":"Mo-Su 00:00-24:00","brand":"Postbank","brand:wikidata":"Q7234083","operator:wikidata":"Q7234083"},"coordinates":[42.6901218,23.3283892]},"tags_mismatch":false,"dist":0},{"osm":false,"atp":{"id":"6J9N0Wf5Ci-4M3qxZpdhkKtW57c=","tags":{"amenity":"atm","addr:full":"Бул. Цариградско шосе №86","addr:country":"BG","name":"Спейс Тауър София","opening_hours":"Mo-Su 00:00-24:00","brand":"Postbank","brand:wikidata":"Q7234083","operator:wikidata":"Q7234083"},"coordinates":[42.657549253268044,23.38649532708356]},"tags_mismatch":false,"dist":0},{"osm":false,"atp":{"id":"QpbFHn1GvQ2rSfrnMqpQy7wnP3Y=","tags":{"amenity":"atm","addr:full":"ул. Миле Попйорданов №51","addr:country":"BG","name":"Супермаркет Карпузица","opening_hours":"Mo-Su 00:00-24:00","brand":"Postbank","brand:wikidata":"Q7234083","operator:wikidata":"Q7234083"},"coordinates":[42.669143,23.245338]},"tags_mismatch":false,"dist":0},{"osm":false,"atp":{"id":"0v_1d1BgOOwNbITBGCdp9RzJvUI=","tags":{"amenity":"atm","addr:full":"Ж.к. Горна Баня, ул. Планиница №17","addr:country":"BG","name":"Супермаркет Оги ","opening_hours":"Mo-Su 00:00-24:00","brand":"Postbank","brand:wikidata":"Q7234083","operator:wikidata":"Q7234083"},"coordinates":[42.6779212,23.2392156]},"tags_mismatch":false,"dist":0},{"osm":false,"atp":{"id":"wdwGMZgRgoFhBh1dFnXaU4LMDj0=","tags":{"amenity":"atm","addr:full":"Ул. Аксаков №21","addr:country":"BG","name":"ТДД София","opening_hours":"Mo-Su 00:00-24:00","brand":"Postbank","brand:wikidata":"Q7234083","operator:wikidata":"Q7234083"},"coordinates":[42.6928428,23.3329734]},"tags_mismatch":false,"dist":0},{"osm":false,"atp":{"id":"XegFBtfMl1JACJN91ppPCxafsUg=","tags":{"amenity":"atm","addr:full":"Ул.202 №6 ТЕЦ София","addr:country":"BG","name":"ТЕЦ София","opening_hours":"Mo-Su 00:00-24:00","brand":"Postbank","brand:wikidata":"Q7234083","operator:wikidata":"Q7234083"},"coordinates":[42.718066,23.321311]},"tags_mismatch":false,"dist":0},{"osm":false,"atp":{"id":"v_s2E25ZyTWul8cT8mHomrYxGHc=","tags":{"amenity":"atm","addr:full":"Ул. „Йордан Йосифов“ №7, магазин 3","addr:country":"BG","name":"Торос Трейд ","opening_hours":"Mo-Su 00:00-24:00","brand":"Postbank","brand:wikidata":"Q7234083","operator:wikidata":"Q7234083"},"coordinates":[42.653489,23.3451]},"tags_mismatch":false,"dist":0},{"osm":false,"atp":{"id":"6FcK6K4U7cU55kdtE4auGmFW7uM=","tags":{"amenity":"atm","addr:full":"Бул. Пенчо Славейков №52А","addr:country":"BG","name":"УМБАЛ Света Екатерина","opening_hours":"Mo-Su 00:00-24:00","brand":"Postbank","brand:wikidata":"Q7234083","operator:wikidata":"Q7234083"},"coordinates":[42.684983,23.312464]},"tags_mismatch":false,"dist":0},{"osm":false,"atp":{"id":"1lw4qkA73CZ6ipp-M9mquCkHw3w=","tags":{"amenity":"atm","addr:full":"Бул. Георги Софийски №1","addr:country":"BG","name":"Факултет по Дентална медицина","opening_hours":"Mo-Su 00:00-24:00","brand":"Postbank","brand:wikidata":"Q7234083","operator:wikidata":"Q7234083"},"coordinates":[42.6853054,23.3081521]},"tags_mismatch":false,"dist":0},{"osm":false,"atp":{"id":"ZEB6YEwIZPc93hZoY2dpct4i24g=","tags":{"amenity":"atm","addr:full":"Ул. Дунав №2","addr:country":"BG","name":"Фармацевтичен факултет","opening_hours":"Mo-Su 00:00-24:00","brand":"Postbank","brand:wikidata":"Q7234083","operator:wikidata":"Q7234083"},"coordinates":[42.6979807,23.333452]},"tags_mismatch":false,"dist":0},{"osm":false,"atp":{"id":"OVJOt4gGDA1l16Mwb_Owi1Jdtqo=","tags":{"amenity":"atm","addr:full":"Ул. Солунска №22","addr:country":"BG","name":"Финансов Супермаркет","opening_hours":"Mo-Su 00:00-24:00","brand":"Postbank","brand:wikidata":"Q7234083","operator:wikidata":"Q7234083"},"coordinates":[42.69649,23.32601]},"tags_mismatch":false,"dist":0},{"osm":false,"atp":{"id":"uZ8CiQIUXrgcs9OwL-T_sHxWElo=","tags":{"amenity":"atm","addr:full":"Пл. Света Неделя №5","addr:country":"BG","name":"Хотел Балкан ","opening_hours":"Mo-Su 00:00-24:00","brand":"Postbank","brand:wikidata":"Q7234083","operator:wikidata":"Q7234083"},"coordinates":[42.697016,23.322244]},"tags_mismatch":false,"dist":0},{"osm":false,"atp":{"id":"u1aSotY-9ym0CuUeoN60pl8--pM=","tags":{"amenity":"atm","addr:full":"Бул. Мария Луиза №20","addr:country":"BG","name":"Хотел Глория Палас","opening_hours":"Mo-Su 00:00-24:00","brand":"Postbank","brand:wikidata":"Q7234083","operator:wikidata":"Q7234083"},"coordinates":[42.700776,23.3228]},"tags_mismatch":false,"dist":0},{"osm":false,"atp":{"id":"W0yao9x6fYtNn9PCoKeDzURMK10=","tags":{"amenity":"atm","addr:full":"Бул. България №1","addr:country":"BG","name":"Хотел Хилтън София","opening_hours":"Mo-Su 00:00-24:00","brand":"Postbank","brand:wikidata":"Q7234083","operator:wikidata":"Q7234083"},"coordinates":[42.681453,23.319732]},"tags_mismatch":false,"dist":0},{"osm":false,"atp":{"id":"d_cNWEQpAQR6J38tS7CsO38V9x0=","tags":{"amenity":"atm","addr:full":"Бул. Мария Луиза №100","addr:country":"BG","name":"Централна Автогара София 3","opening_hours":"Mo-Su 00:00-24:00","brand":"Postbank","brand:wikidata":"Q7234083","operator:wikidata":"Q7234083"},"coordinates":[42.710183,23.323228]},"tags_mismatch":false,"dist":0},{"osm":false,"atp":{"id":"ZwCpKG2ohpXgaEeZk6Bi0NiYBqM=","tags":{"amenity":"atm","addr:full":"Бул. Мария Луиза №100","addr:country":"BG","name":"Централна автогара София 2","opening_hours":"Mo-Su 00:00-24:00","brand":"Postbank","brand:wikidata":"Q7234083","operator:wikidata":"Q7234083"},"coordinates":[42.710033,23.3232452]},"tags_mismatch":false,"dist":0},{"osm":false,"atp":{"id":"4fmVcPLGBhNhTT6Tp12SqlxXssc=","tags":{"amenity":"atm","addr:full":"Бул. Черни връх №43","addr:country":"BG","name":"Черни връх","opening_hours":"Mo-Su 00:00-24:00","brand":"Postbank","brand:wikidata":"Q7234083","operator:wikidata":"Q7234083"},"coordinates":[42.665986,23.318237]},"tags_mismatch":false,"dist":0},{"osm":false,"atp":{"id":"PyWAC3xSo3fATwKK0nkkG-d1WXg=","tags":{"amenity":"atm","addr:full":"Бул. Черни връх №47","addr:country":"BG","name":"магазин ЛИДЛ","opening_hours":"Mo-Sa 07:00-22:00; Su 08:00-21:00","brand":"Postbank","brand:wikidata":"Q7234083","operator:wikidata":"Q7234083"},"coordinates":[42.662616,23.317784]},"tags_mismatch":false,"dist":0},{"osm":false,"atp":{"id":"n4qSyiRpDzx3szLAj9hjmR51Imo=","tags":{"amenity":"atm","addr:full":"36 Knyaz Aleksandar I Str","addr:country":"BG","name":"Grand Perfumery ","opening_hours":"Mo-Su 00:00-24:00","brand":"Postbank","brand:wikidata":"Q7234083","operator:wikidata":"Q7234083"},"coordinates":[42.145279682613634,24.749064769087443]},"tags_mismatch":false,"dist":0},{"osm":false,"atp":{"id":"vCvLnYVQaEp_tvB-uQKVJR8FVrk=","tags":{"amenity":"atm","deposit":"yes","addr:full":"ул. „Перущица“ 8","addr:country":"BG","name":"Moменнто Мол Пловдив","opening_hours":"Mo-Su 10:00-21:00","brand":"Postbank","brand:wikidata":"Q7234083","operator:wikidata":"Q7234083"},"coordinates":[42.1418566426397,24.71923679823663]},"tags_mismatch":false,"dist":0},{"osm":false,"atp":{"id":"iONp4ux37c0MonRea79c5FT_5f8=","tags":{"amenity":"atm","addr:full":"ул. Васил Априлов 86","addr:country":"BG","name":"Non Stop Васил Априлов","opening_hours":"Mo-Su 00:00-24:00","brand":"Postbank","brand:wikidata":"Q7234083","operator:wikidata":"Q7234083"},"coordinates":[42.14586988180095,24.731442840565265]},"tags_mismatch":false,"dist":0},{"osm":false,"atp":{"id":"FoEvF-HbFtEdpQCZ_3EExZp8vqE=","tags":{"amenity":"atm","addr:full":"ул. “Димитър Талев“ 64","addr:country":"BG","name":"АРТ ФАРМА 1 ","opening_hours":"Mo-Su 00:00-24:00","brand":"Postbank","brand:wikidata":"Q7234083","operator:wikidata":"Q7234083"},"coordinates":[42.12444923886875,24.73857528260314]},"tags_mismatch":false,"dist":0},{"osm":false,"atp":{"id":"bw0BrJ80JcERubv-BGAaTWdRHwA=","tags":{"amenity":"atm","addr:full":"Бул. Шести септември №110","addr:country":"BG","name":"ДКЦ 2 Пловдив","opening_hours":"Mo-Su 00:00-24:00","brand":"Postbank","brand:wikidata":"Q7234083","operator:wikidata":"Q7234083"},"coordinates":[42.1476,24.732719]},"tags_mismatch":false,"dist":0},{"osm":false,"atp":{"id":"8cpetjITNg_PhonyLFKfSFgwuGQ=","tags":{"amenity":"atm","addr:full":"Околовръстно шосе, срещу Метро 2","addr:country":"BG","name":"Джъмбо Пловдив","opening_hours":"Mo-Sa 10:00-21:00; Su 10:00-20:00","brand":"Postbank","brand:wikidata":"Q7234083","operator:wikidata":"Q7234083"},"coordinates":[42.744932,23.229907]},"tags_mismatch":false,"dist":0},{"osm":false,"atp":{"id":"IL-EKMkKIebrQy3vqC9eoi2YJnU=","tags":{"amenity":"atm","addr:full":"бул. Сергей Румянцев №8","addr:country":"BG","name":"ЕКО Пловдив","opening_hours":"Mo-Su 00:00-24:00","brand":"Postbank","brand:wikidata":"Q7234083","operator:wikidata":"Q7234083"},"coordinates":[42.132848,24.731796]},"tags_mismatch":false,"dist":0},{"osm":false,"atp":{"id":"rJFP8KumiKDwPbok4XG5ftgAcc8=","tags":{"amenity":"atm","addr:full":"Бул. Кукленско шосе (посока Пловдив-Куклен)","addr:country":"BG","name":"ЕКО Пловдив Кукленско шосе ","opening_hours":"Mo-Su 00:00-24:00","brand":"Postbank","brand:wikidata":"Q7234083","operator:wikidata":"Q7234083"},"coordinates":[42.112385,24.759356]},"tags_mismatch":false,"dist":0},{"osm":false,"atp":{"id":"UgrH2eMP8pnVgEBtRoEGKrUeuXk=","tags":{"amenity":"atm","addr:full":"бул. Пещерско шосе 156","addr:country":"BG","name":"ЕКО Пловдив Пещерско шосе","opening_hours":"Mo-Su 00:00-24:00","brand":"Postbank","brand:wikidata":"Q7234083","operator:wikidata":"Q7234083"},"coordinates":[42.13175678,24.69605093]},"tags_mismatch":false,"dist":0},{"osm":false,"atp":{"id":"fvptoYALQYpWR_o8gFnrDQFRU14=","tags":{"amenity":"atm","addr:full":"Бул. Ал. Стамболийски и ул. Д. Талев","addr:country":"BG","name":"ЕКО Пловдив Стамболийски","opening_hours":"Mo-Su 00:00-24:00","brand":"Postbank","brand:wikidata":"Q7234083","operator:wikidata":"Q7234083"},"coordinates":[42.119454,24.735785]},"tags_mismatch":false,"dist":0},{"osm":false,"atp":{"id":"YX-ABxU4HnHUp7TeUAORMEoV78o=","tags":{"amenity":"atm","addr:full":"Кръстовището на бул. Мария Луиза и бул. Източен","addr:country":"BG","name":"ИнсаОйл Арена","opening_hours":"Mo-Su 00:00-24:00","brand":"Postbank","brand:wikidata":"Q7234083","operator:wikidata":"Q7234083"},"coordinates":[42.146864,24.763174]},"tags_mismatch":false,"dist":0},{"osm":false,"atp":{"id":"1rW0C8j9XD8hCrLyS3tAmP_KQ_4=","tags":{"amenity":"atm","addr:full":"Бул. Освобождение №63","addr:country":"BG","name":"Кметство Тракия","opening_hours":"Mo-Su 00:00-24:00","brand":"Postbank","brand:wikidata":"Q7234083","operator:wikidata":"Q7234083"},"coordinates":[42.1442831,24.7852024]},"tags_mismatch":false,"dist":0},{"osm":false,"atp":{"id":"0Udi6Sh7BTDSok2EigvxfUdBg6w=","tags":{"amenity":"atm","addr:full":"Ул. Никола Мушанов №1","addr:country":"BG","name":"Областна управа Пловдив","opening_hours":"Mo-Su 00:00-24:00","brand":"Postbank","brand:wikidata":"Q7234083","operator:wikidata":"Q7234083"},"coordinates":[42.14808,24.72953]},"tags_mismatch":false,"dist":0},{"osm":false,"atp":{"id":"2aqin2Aqtw6rQV1MlaT2yqa0aig=","tags":{"amenity":"atm","deposit":"yes","addr:full":"Ул. Антим I №2B","addr:country":"BG","name":"Пловдив II","brand":"Postbank","brand:wikidata":"Q7234083","operator:wikidata":"Q7234083"},"coordinates":[42.147863,24.7460942]},"tags_mismatch":false,"dist":0},{"osm":false,"atp":{"id":"3VpYCZe2oMDyvhws8D1xLEtXgo4=","tags":{"amenity":"atm","deposit":"yes","addr:full":"ул. Д-р Георги Странски №3, Пловдив Плаза МОЛ, партер","addr:country":"BG","name":"Пловдив Plaza Mall","opening_hours":"Mo-Su 10:00-21:00","brand":"Postbank","brand:wikidata":"Q7234083","operator:wikidata":"Q7234083"},"coordinates":[42.14474159,24.78201724]},"tags_mismatch":false,"dist":0},{"osm":false,"atp":{"id":"s10NHEPBzMd495JggsMkfS5AzkI=","tags":{"amenity":"atm","deposit":"yes","addr:full":"Ул. Бетовен №9","addr:country":"BG","name":"Пловдив Бетовен","opening_hours":"Mo-Su 00:00-24:00","brand":"Postbank","brand:wikidata":"Q7234083","operator:wikidata":"Q7234083"},"coordinates":[42.1492866,24.7441298]},"tags_mismatch":false,"dist":0},{"osm":false,"atp":{"id":"wmjZGVbAPUVh74iSQEdflF1h8W8=","tags":{"amenity":"atm","addr:full":"Ул. Кукленско шосе №13","addr:country":"BG","name":"Пловдив Колеж по икономика и администрация","opening_hours":"Mo-Su 00:00-24:00","brand":"Postbank","brand:wikidata":"Q7234083","operator:wikidata":"Q7234083"},"coordinates":[42.1215254253726,24.75899999821624]},"tags_mismatch":false,"dist":0},{"osm":false,"atp":{"id":"zvX5WF2hy-qkNkOGZufUGPvdFCM=","tags":{"amenity":"atm","addr:full":"Ул. Брезовска №1","addr:country":"BG","name":"Пловдив Марица II","opening_hours":"Mo-Su 00:00-24:00","brand":"Postbank","brand:wikidata":"Q7234083","operator:wikidata":"Q7234083"},"coordinates":[42.1564422,24.7443643]},"tags_mismatch":false,"dist":0},{"osm":false,"atp":{"id":"jbCr7X9rAEIOiSahssXH00qJdO8=","tags":{"amenity":"atm","deposit":"yes","addr:full":"Бул. Цар Борис III №20А","addr:country":"BG","name":"Пловдив Межд. панаир","opening_hours":"Mo-Su 00:00-24:00","brand":"Postbank","brand:wikidata":"Q7234083","operator:wikidata":"Q7234083"},"coordinates":[42.160437,24.747981]},"tags_mismatch":false,"dist":0},{"osm":false,"atp":{"id":"GegenyMJxNUKWJ99jx_MJYyRam8=","tags":{"amenity":"atm","deposit":"yes","addr:full":"92 Hristo Botev Str.","addr:country":"BG","name":"Пловдив Рилон Център","opening_hours":"Mo-Su 00:00-24:00","brand":"Postbank","brand:wikidata":"Q7234083","operator:wikidata":"Q7234083"},"coordinates":[42.13606911,24.75424924]},"tags_mismatch":false,"dist":0},{"osm":false,"atp":{"id":"XzpgX4zuw6jVLb2KPEZwuzkyCBI=","tags":{"amenity":"atm","addr:full":"Ул. Свобода №7","addr:country":"BG","name":"Пловдив Свобода","opening_hours":"Mo-Su 00:00-24:00","brand":"Postbank","brand:wikidata":"Q7234083","operator:wikidata":"Q7234083"},"coordinates":[42.143086,24.731073]},"tags_mismatch":false,"dist":0},{"osm":false,"atp":{"id":"pUcgEQP6_gZ-l1Z3DyaOVWkj8f0=","tags":{"amenity":"atm","deposit":"yes","addr:full":"Тракия, Комплекс Фрапе, до блок 100","addr:country":"BG","name":"Пловдив Тракия","opening_hours":"Mo-Su 00:00-24:00","brand":"Postbank","brand:wikidata":"Q7234083","operator:wikidata":"Q7234083"},"coordinates":[42.131840032379266,24.794579139697]},"tags_mismatch":false,"dist":0},{"osm":false,"atp":{"id":"ngPeVhAstYXBFASQsenvWGZX1uY=","tags":{"amenity":"atm","deposit":"yes","addr:full":"Бул. Александър Стамболийски №33","addr:country":"BG","name":"Пловдив Христо Ботев","opening_hours":"Mo-Su 00:00-24:00","brand":"Postbank","brand:wikidata":"Q7234083","operator:wikidata":"Q7234083"},"coordinates":[42.120025,24.732781]},"tags_mismatch":false,"dist":0},{"osm":false,"atp":{"id":"IMq_6S8LL1dmPz58-EpTGfQXYJ4=","tags":{"amenity":"atm","addr:full":"Ул. Христо Г. Данов №4","addr:country":"BG","name":"Пловдив Център","opening_hours":"Mo-Su 00:00-24:00","brand":"Postbank","brand:wikidata":"Q7234083","operator:wikidata":"Q7234083"},"coordinates":[42.1480968,24.7475007]},"tags_mismatch":false,"dist":0},{"osm":false,"atp":{"id":"PPHUcb5r0Ee0LP5aCyGUDZJZ6Uw=","tags":{"amenity":"atm","addr:full":"Бул. Освобождение №36","addr:country":"BG","name":"Текрида","opening_hours":"Mo-Su 00:00-24:00","brand":"Postbank","brand:wikidata":"Q7234083","operator:wikidata":"Q7234083"},"coordinates":[42.13688,24.791178]},"tags_mismatch":false,"dist":0},{"osm":false,"atp":{"id":"nYVNT-jC6Pe-Z1BKgB3CAKiSpl0=","tags":{"amenity":"atm","deposit":"yes","addr:full":"бул. „Сливница“ 185","addr:country":"BG","name":" Делта Планет Мол Варна","opening_hours":"Mo-Su 10:00-21:00","brand":"Postbank","brand:wikidata":"Q7234083","operator:wikidata":"Q7234083"},"coordinates":[43.2269910368983,27.875800027096265]},"tags_mismatch":false,"dist":0},{"osm":false,"atp":{"id":"IMM0ojQdzi_3_JJmEoAa-aUlY90=","tags":{"amenity":"atm","addr:full":"Кв. Виница, ул. Цар Борис III №1А","addr:country":"BG","name":"My Market Виница","opening_hours":"Mo-Su 00:00-24:00","brand":"Postbank","brand:wikidata":"Q7234083","operator:wikidata":"Q7234083"},"coordinates":[43.2407159,27.9757549]},"tags_mismatch":false,"dist":0},{"osm":false,"atp":{"id":"-JwF8uMfL4pgwyFc3Kw3YDkWxjw=","tags":{"amenity":"atm","deposit":"yes","addr:full":"Ул. Осми Приморски Полк 100","addr:country":"BG","name":"Варна - Чаталджа II","opening_hours":"Mo-Su 00:00-24:00","brand":"Postbank","brand:wikidata":"Q7234083","operator:wikidata":"Q7234083"},"coordinates":[43.211727,27.9231378]},"tags_mismatch":false,"dist":0},{"osm":false,"atp":{"id":"IeFNrfrVsHBQfyycat2XFkXdc3c=","tags":{"amenity":"atm","deposit":"yes","addr:full":"Бул. Цар Освободител №162","addr:country":"BG","name":"Варна Възраждане ","opening_hours":"Mo-Su 00:00-24:00","brand":"Postbank","brand:wikidata":"Q7234083","operator:wikidata":"Q7234083"},"coordinates":[43.23443952730556,27.873247184748035]},"tags_mismatch":false,"dist":0},{"osm":false,"atp":{"id":"yfG27xm1PnC5EuriefE3OTSDacI=","tags":{"amenity":"atm","deposit":"yes","addr:full":"Ул. Пирин №41","addr:country":"BG","name":"Варна Пирин","opening_hours":"Mo-Su 00:00-24:00","brand":"Postbank","brand:wikidata":"Q7234083","operator:wikidata":"Q7234083"},"coordinates":[43.21234,27.912379]},"tags_mismatch":false,"dist":0},{"osm":false,"atp":{"id":"fPhu9QNaJ6wSL1kcKYZbKHMnG_A=","tags":{"amenity":"atm","deposit":"yes","addr:full":"Бул. Владислав Варненчик №20-22","addr:country":"BG","name":"Варна Рощок","opening_hours":"Mo-Su 00:00-24:00","brand":"Postbank","brand:wikidata":"Q7234083","operator:wikidata":"Q7234083"},"coordinates":[43.2073143,27.9103462]},"tags_mismatch":false,"dist":0},{"osm":false,"atp":{"id":"j0OPmu3BQ23dfiKcrBSe3q-Ijuc=","tags":{"amenity":"atm","addr:full":"ул. „КНЯЗ БОРИС I“ №53","addr:country":"BG","name":"Варна Черно море ","opening_hours":"Mo-Su 00:00-24:00","brand":"Postbank","brand:wikidata":"Q7234083","operator:wikidata":"Q7234083"},"coordinates":[43.2096151371911,27.929237140588768]},"tags_mismatch":false,"dist":0},{"osm":false,"atp":{"id":"QFBxQYfZy9YiylZ9UpP7lY3gaqw=","tags":{"amenity":"atm","deposit":"yes","addr:full":"ул. „КНЯЗ БОРИС I“ №53","addr:country":"BG","name":"Варна Черно море II","opening_hours":"Mo-Su 00:00-24:00","brand":"Postbank","brand:wikidata":"Q7234083","operator:wikidata":"Q7234083"},"coordinates":[43.20967769517606,27.929269327095774]},"tags_mismatch":false,"dist":0},{"osm":false,"atp":{"id":"xJGTW19CmygLtsIKYfER_D7V4_0=","tags":{"amenity":"atm","deposit":"yes","addr:full":"Ул. „Андрей Сахаров” №2","addr:country":"BG","name":"Гранд Мол","opening_hours":"Mo-Su 10:00-22:00","brand":"Postbank","brand:wikidata":"Q7234083","operator:wikidata":"Q7234083"},"coordinates":[43.21730431178798,27.897025140569287]},"tags_mismatch":false,"dist":0},{"osm":false,"atp":{"id":"EGMTphCrvbmYCxNGbAbRgYpRd9Q=","tags":{"amenity":"atm","addr:full":"Ж.к. Владислав Варненчик, бул. Константин и Фружин №18","addr:country":"BG","name":"Джъмбо Варна ","opening_hours":"Mo-Sa 10:00-21:00; Su 10:00-20:00","brand":"Postbank","brand:wikidata":"Q7234083","operator:wikidata":"Q7234083"},"coordinates":[43.245518,27.848278]},"tags_mismatch":false,"dist":0},{"osm":false,"atp":{"id":"nU3z8GGWobQuD_0XCUEQOXzcBf4=","tags":{"amenity":"atm","addr:full":"бул. Вл. Варненчик 310","addr:country":"BG","name":"ЕКО Варна Варненчик ","opening_hours":"Mo-Su 00:00-24:00","brand":"Postbank","brand:wikidata":"Q7234083","operator:wikidata":"Q7234083"},"coordinates":[43.21413537,27.89808694]},"tags_mismatch":false,"dist":0},{"osm":false,"atp":{"id":"WfUYYYGWuiLGIzdcgBKY8vBM4x0=","tags":{"amenity":"atm","addr:full":"бул. Сливница 189","addr:country":"BG","name":"ЕКО Варна Сливница","opening_hours":"Mo-Su 00:00-24:00","brand":"Postbank","brand:wikidata":"Q7234083","operator:wikidata":"Q7234083"},"coordinates":[43.22086361,27.89746996]},"tags_mismatch":false,"dist":0},{"osm":false,"atp":{"id":"bEyMMTFkoXzwDiqKMWHFqccOZZw=","tags":{"amenity":"atm","addr:full":"ул. „Първа“ 87","addr:country":"BG","name":"ЕКО Евксиноград","opening_hours":"Mo-Su 00:00-24:00","brand":"Postbank","brand:wikidata":"Q7234083","operator:wikidata":"Q7234083"},"coordinates":[43.2245303888966,27.994000797519213]},"tags_mismatch":false,"dist":0},{"osm":false,"atp":{"id":"ko5a1TDh7xZkXi9iSxBDKxfokRI=","tags":{"amenity":"atm","addr:full":"Бул. Владислав Варненчик №275","addr:country":"BG","name":"Елдоминвест","opening_hours":"Mo-Su 00:00-24:00","brand":"Postbank","brand:wikidata":"Q7234083","operator:wikidata":"Q7234083"},"coordinates":[43.221999,27.876067]},"tags_mismatch":false,"dist":0},{"osm":false,"atp":{"id":"qwWU3KZvCdN-YeOCxHiB7o7rnVI=","tags":{"amenity":"atm","addr:full":"Ул. Девня №2","addr:country":"BG","name":"Енерго Про Варна","opening_hours":"Mo-Su 00:00-24:00","brand":"Postbank","brand:wikidata":"Q7234083","operator:wikidata":"Q7234083"},"coordinates":[43.201264560409555,27.903876623416433]},"tags_mismatch":false,"dist":0},{"osm":false,"atp":{"id":"E6hoZEPxjzTzrW3XtYP5PlSbY8s=","tags":{"amenity":"atm","addr:full":"бул. Владислав Варненчик №258","addr:country":"BG","name":"Енерго про Тауърс","opening_hours":"Mo-Su 00:00-24:00","brand":"Postbank","brand:wikidata":"Q7234083","operator:wikidata":"Q7234083"},"coordinates":[43.222150660403365,27.875913542418978]},"tags_mismatch":false,"dist":0},{"osm":false,"atp":{"id":"vzyfLudEAtwUeDVfTj5GLXsZsJs=","tags":{"amenity":"atm","addr:full":"Бул. Сливница №33","addr:country":"BG","name":"Казино Ларис Вега","opening_hours":"Mo-Su 00:00-24:00","brand":"Postbank","brand:wikidata":"Q7234083","operator:wikidata":"Q7234083"},"coordinates":[43.21665,27.91181]},"tags_mismatch":false,"dist":0},{"osm":false,"atp":{"id":"7R2yZZKZKGwXfI_KiQ_RUzkkjd8=","tags":{"amenity":"atm","addr:full":"Бул. Цар Освободител №150","addr:country":"BG","name":"СБАГАЛ Проф. Димитър Стаматов","opening_hours":"Mo-Su 00:00-24:00","brand":"Postbank","brand:wikidata":"Q7234083","operator:wikidata":"Q7234083"},"coordinates":[42.796528,27.253118]},"tags_mismatch":false,"dist":0},{"osm":false,"atp":{"id":"ACgWYEIOqfUNnxJ7rFob8dhKVuI=","tags":{"amenity":"atm","addr:full":"Ул. Дубровник, бл.18","addr:country":"BG","name":"Студентско общежитие ТУ","opening_hours":"Mo-Su 00:00-24:00","brand":"Postbank","brand:wikidata":"Q7234083","operator:wikidata":"Q7234083"},"coordinates":[43.2247444,27.9245086]},"tags_mismatch":false,"dist":0},{"osm":false,"atp":{"id":"LNBwJfb696qZ03GVzaHVIJFL9fo=","tags":{"amenity":"atm","addr:full":"бул. Княз Борис I 111","addr:country":"BG","name":"Суйс- Белхотел Варна","brand":"Postbank","brand:wikidata":"Q7234083","operator:wikidata":"Q7234083"},"coordinates":[43.209908,27.9287]},"tags_mismatch":false,"dist":0},{"osm":false,"atp":{"id":"_TXY3njTkCcoYfvFKKimHppbKxw=","tags":{"amenity":"atm","addr:full":"Ж.к. Владислав Варненчик","addr:country":"BG","name":"Супермаркет Бурлекс","opening_hours":"Mo-Su 00:00-24:00","brand":"Postbank","brand:wikidata":"Q7234083","operator:wikidata":"Q7234083"},"coordinates":[43.21665,27.91181]},"tags_mismatch":false,"dist":0},{"osm":false,"atp":{"id":"JTj2tqnNLcfhfQTST2yJ6nfYo2U=","tags":{"amenity":"atm","addr:full":"кв. Мина Черно море, ул. Дунав 41","addr:country":"BG","name":"Бензиностанция Мина Черно Море","opening_hours":"Mo-Su 00:00-24:00","brand":"Postbank","brand:wikidata":"Q7234083","operator:wikidata":"Q7234083"},"coordinates":[42.612098904802565,27.493019846355313]},"tags_mismatch":false,"dist":0},{"osm":false,"atp":{"id":"uGnzHbS7vXqBVTu0_4qkTfIX4Nw=","tags":{"amenity":"atm","deposit":"yes","addr:full":"Бул. Демокрация №104","addr:country":"BG","name":"Бургас Демокрация","opening_hours":"Mo-Su 00:00-24:00","brand":"Postbank","brand:wikidata":"Q7234083","operator:wikidata":"Q7234083"},"coordinates":[42.5029446,27.4750002]},"tags_mismatch":false,"dist":0},{"osm":false,"atp":{"id":"bAlNtriCZ81yZA-ZAUtuCw2Kb94=","tags":{"amenity":"atm","addr:full":"Комплекс Изгрев, блок 53, Вход 12","addr:country":"BG","name":"Бургас Изгрев","opening_hours":"Mo-Su 00:00-24:00","brand":"Postbank","brand:wikidata":"Q7234083","operator:wikidata":"Q7234083"},"coordinates":[42.5187124,27.4610266]},"tags_mismatch":false,"dist":0},{"osm":false,"atp":{"id":"tRzmsggisHz7sc7Icq_wKMijK_w=","tags":{"amenity":"atm","deposit":"yes","addr:full":"Ж.к. Меден Рудник, бл.452","addr:country":"BG","name":"Бургас Меден Рудник","opening_hours":"Mo-Su 00:00-24:00","brand":"Postbank","brand:wikidata":"Q7234083","operator:wikidata":"Q7234083"},"coordinates":[42.455434,27.418731]},"tags_mismatch":false,"dist":0},{"osm":false,"atp":{"id":"BXYkDZpYqesFqrviESoCgDFav6Q=","tags":{"amenity":"atm","deposit":"yes","addr:full":"Ул. Транспортна №9","addr:country":"BG","name":"Бургас Плаза","opening_hours":"Mo-Su 09:00-20:00","brand":"Postbank","brand:wikidata":"Q7234083","operator:wikidata":"Q7234083"},"coordinates":[42.530677,27.458011]},"tags_mismatch":false,"dist":0},{"osm":false,"atp":{"id":"iGlIxzudsjKya2TYqUriH56VpYM=","tags":{"amenity":"atm","deposit":"yes","addr:full":"Ул. Александровска №135","addr:country":"BG","name":"Бургас – Александровска","opening_hours":"Mo-Su 00:00-24:00","brand":"Postbank","brand:wikidata":"Q7234083","operator:wikidata":"Q7234083"},"coordinates":[42.5012319,27.469463]},"tags_mismatch":false,"dist":0},{"osm":false,"atp":{"id":"sETwva0_EgZOlpxdQHiu_Rzi2Ys=","tags":{"amenity":"atm","addr:full":"Пристанищен комплекс гр. Бургас","addr:country":"BG","name":"ДАС Марина","opening_hours":"Mo-Su 00:00-24:00","brand":"Postbank","brand:wikidata":"Q7234083","operator:wikidata":"Q7234083"},"coordinates":[42.489149,27.479569]},"tags_mismatch":false,"dist":0},{"osm":false,"atp":{"id":"SPvNvUyZVsgX1W-MQ6kl2JmbdIM=","tags":{"amenity":"atm","addr:full":"Пътен възел Нефтохим Бургас","addr:country":"BG","name":"Джъмбо Бургас ","opening_hours":"Mo-Sa 10:00-21:00; Su 10:00-20:00","brand":"Postbank","brand:wikidata":"Q7234083","operator:wikidata":"Q7234083"},"coordinates":[42.572341,27.41014]},"tags_mismatch":false,"dist":0},{"osm":false,"atp":{"id":"YeFUUHkbxJSMMrfg2sCgM2hOO6Q=","tags":{"amenity":"atm","addr:full":"Ж.к. Долно езерово, ул. Захари Зограф №80 А","addr:country":"BG","name":"Долно Езерово","opening_hours":"Mo-Su 00:00-24:00","brand":"Postbank","brand:wikidata":"Q7234083","operator:wikidata":"Q7234083"},"coordinates":[42.5175661,27.3739409]},"tags_mismatch":false,"dist":0},{"osm":false,"atp":{"id":"Hf4OTY3B-d0DsTmKNGbHTLoURRU=","tags":{"amenity":"atm","addr:full":"Ж.к. Крайморие, ул. Христо Арнаудов №21","addr:country":"BG","name":"Колеж по Туризъм","opening_hours":"Mo-Su 00:00-24:00","brand":"Postbank","brand:wikidata":"Q7234083","operator:wikidata":"Q7234083"},"coordinates":[42.4459026,27.4885544]},"tags_mismatch":false,"dist":0},{"osm":false,"atp":{"id":"pA9KUL7lrDYSj5hepnrn4E2TU5A=","tags":{"amenity":"atm","addr:full":"кв. Лазур, ул. Велико Търново № 11","addr:country":"BG","name":"Магазин Флора Болеро","opening_hours":"Mo-Su 00:00-24:00","brand":"Postbank","brand:wikidata":"Q7234083","operator:wikidata":"Q7234083"},"coordinates":[42.50348167510013,27.480382772272034]},"tags_mismatch":false,"dist":0},{"osm":false,"atp":{"id":"vh7LMeusTvx5F-El1LcyXGpjrqk=","tags":{"amenity":"atm","deposit":"yes","addr:full":"ул. „Янко Комитов” № 6","addr:country":"BG","name":"Мол Бургас Галерия ","opening_hours":"Mo-Su 09:00-21:00","brand":"Postbank","brand:wikidata":"Q7234083","operator:wikidata":"Q7234083"},"coordinates":[42.51284323717053,27.45520844954904]},"tags_mismatch":false,"dist":0},{"osm":false,"atp":{"id":"Z9IsU1G7f5pyITdbMUDHkRa0U14=","tags":{"amenity":"atm","addr:full":"бул. „Захари Стоянов“ 1","addr:country":"BG","name":"Мосю Бриколаж Бургас","opening_hours":"Mo-Su 00:00-24:00","brand":"Postbank","brand:wikidata":"Q7234083","operator:wikidata":"Q7234083"},"coordinates":[42.47192404908599,27.43203582632442]},"tags_mismatch":false,"dist":0},{"osm":false,"atp":{"id":"GTVEX42Lqvog5s7kmiSwkRi1hn8=","tags":{"amenity":"atm","addr:full":"ул Николаевска 50","addr:country":"BG","name":" Магазин Левент","opening_hours":"Mo-Su 00:00-24:00","brand":"Postbank","brand:wikidata":"Q7234083","operator:wikidata":"Q7234083"},"coordinates":[43.838526993792065,25.94998199666096]},"tags_mismatch":false,"dist":0},{"osm":false,"atp":{"id":"k_wnWwmApGgaivIzw8m_oVgu574=","tags":{"amenity":"atm","addr:full":"39 Kniyazhevska Str.","addr:country":"BG","name":"Ruse Baba Tonka","opening_hours":"Mo-Su 00:00-24:00","brand":"Postbank","brand:wikidata":"Q7234083","operator:wikidata":"Q7234083"},"coordinates":[43.84931670265024,25.952384898274595]},"tags_mismatch":false,"dist":0},{"osm":false,"atp":{"id":"8hAJoZ7L9173CH00dAQsSVeN2Yw=","tags":{"amenity":"atm","addr:full":"Местност Караач","addr:country":"BG","name":"Джъмбо Русе","opening_hours":"Mo-Sa 10:00-21:00; Su 10:00-20:00","brand":"Postbank","brand:wikidata":"Q7234083","operator:wikidata":"Q7234083"},"coordinates":[43.77946,25.998951]},"tags_mismatch":false,"dist":0},{"osm":false,"atp":{"id":"VrdRpXbyJLbnYeoAwKw94s-W074=","tags":{"amenity":"atm","addr:full":"бул. Трети март №46","addr:country":"BG","name":"Приста Ойл","brand":"Postbank","brand:wikidata":"Q7234083","operator:wikidata":"Q7234083"},"coordinates":[43.8266241,25.9337695]},"tags_mismatch":false,"dist":0},{"osm":false,"atp":{"id":"ZR9j7BYqinw9hIQ6q6weuO9rE4k=","tags":{"amenity":"atm","deposit":"yes","addr:full":"Ул. Александровска №1-3","addr:country":"BG","name":"Русе II","opening_hours":"Mo-Su 00:00-24:00","brand":"Postbank","brand:wikidata":"Q7234083","operator:wikidata":"Q7234083"},"coordinates":[43.845064,25.948737]},"tags_mismatch":false,"dist":0},{"osm":false,"atp":{"id":"eQLE5geEfTcqAz5i19uvDuy7nYc=","tags":{"amenity":"atm","deposit":"yes","addr:full":"Ул. Александровска №86","addr:country":"BG","name":"Русе Александровска","opening_hours":"Mo-Su 00:00-24:00","brand":"Postbank","brand:wikidata":"Q7234083","operator:wikidata":"Q7234083"},"coordinates":[43.8525953,25.9580374]},"tags_mismatch":false,"dist":0},{"osm":false,"atp":{"id":"aXEUvdCKcuXHUa2Gx77MIbgP56M=","tags":{"amenity":"atm","deposit":"yes","addr:full":"Ул. Плиска №5","addr:country":"BG","name":"Русе Възраждане","opening_hours":"Mo-Su 00:00-24:00","brand":"Postbank","brand:wikidata":"Q7234083","operator:wikidata":"Q7234083"},"coordinates":[43.855097,25.965942]},"tags_mismatch":false,"dist":0},{"osm":false,"atp":{"id":"rl_pT8YKpt3pE7mdOEaBEmOz84U=","tags":{"amenity":"atm","deposit":"yes","addr:full":"Ул. Николаевска №52","addr:country":"BG","name":"Русе Николаевска","opening_hours":"Mo-Su 00:00-24:00","brand":"Postbank","brand:wikidata":"Q7234083","operator:wikidata":"Q7234083"},"coordinates":[43.8391889,25.9495271]},"tags_mismatch":false,"dist":0},{"osm":false,"atp":{"id":"7yhgUbc6DBs3yOQM5JRy6AJXIrw=","tags":{"amenity":"atm","addr:full":"Ул. Симеон Велики №2","addr:country":"BG","name":"Сладкарница Неделя ","opening_hours":"Mo-Su 00:00-24:00","brand":"Postbank","brand:wikidata":"Q7234083","operator:wikidata":"Q7234083"},"coordinates":[43.847039,25.954059]},"tags_mismatch":false,"dist":0},{"osm":false,"atp":{"id":"Ura0gCml2W-piD6wMiBLjF6mIHM=","tags":{"amenity":"atm","addr:full":"ул. Плиска №94","addr:country":"BG","name":"Тото Русе Плиска","brand":"Postbank","brand:wikidata":"Q7234083","operator:wikidata":"Q7234083"},"coordinates":[43.858267,25.973843]},"tags_mismatch":false,"dist":0},{"osm":false,"atp":{"id":"oV9kr2Ot2boULEXNaG5STAD2YxI=","tags":{"amenity":"atm","addr:full":"Ул. Гео Милев №1","addr:country":"BG","name":"Училище","opening_hours":"Mo-Fr 08:00-16:00","brand":"Postbank","brand:wikidata":"Q7234083","operator:wikidata":"Q7234083"},"coordinates":[43.8310363,25.9669119]},"tags_mismatch":false,"dist":0},{"osm":false,"atp":{"id":"b7Czk8yafXxyAwv7_NSDAZ-ZQEw=","tags":{"amenity":"atm","deposit":"yes","addr:full":"ул. Ал. Стамболийски №2","addr:country":"BG","name":"Айтос","opening_hours":"Mo-Su 00:00-24:00","brand":"Postbank","brand:wikidata":"Q7234083","operator:wikidata":"Q7234083"},"coordinates":[42.70336009908854,27.25559296866158]},"tags_mismatch":false,"dist":0},{"osm":false,"atp":{"id":"P-nEz9_k8PAaI_AHeogwCJohWck=","tags":{"amenity":"atm","addr:full":"М. Могилата, УПИ I-22, Масив 177","addr:country":"BG","name":"ВМ Петролиум","opening_hours":"Mo-Su 00:00-24:00","brand":"Postbank","brand:wikidata":"Q7234083","operator:wikidata":"Q7234083"},"coordinates":[42.71094,27.255383]},"tags_mismatch":false,"dist":0},{"osm":false,"atp":{"id":"eOjchDQx77k1eLVLiK2-bFCAKVs=","tags":{"amenity":"atm","deposit":"yes","addr:full":"Ул. Републиканска №3","addr:country":"BG","name":"Ардино","opening_hours":"Mo-Su 00:00-24:00","brand":"Postbank","brand:wikidata":"Q7234083","operator:wikidata":"Q7234083"},"coordinates":[41.583389,25.1336814]},"tags_mismatch":false,"dist":0},{"osm":false,"atp":{"id":"iG68X9w1u5Md7sNkj4QwXJ8uoR4=","tags":{"amenity":"atm","deposit":"yes","addr:full":"ул. Иларион Макариополски 10","addr:country":"BG","name":"Асеновград","opening_hours":"Mo-Su 00:00-24:00","brand":"Postbank","brand:wikidata":"Q7234083","operator:wikidata":"Q7234083"},"coordinates":[42.00910763455067,24.876296383978154]},"tags_mismatch":false,"dist":0},{"osm":false,"atp":{"id":"N4w792Mh7TD0s7xqk1JmSs2WoT8=","tags":{"amenity":"atm","addr:full":"Балчик Палас","addr:country":"BG","name":"Балчик Палас","opening_hours":"Mo-Su 00:00-24:00","brand":"Postbank","brand:wikidata":"Q7234083","operator:wikidata":"Q7234083"},"coordinates":[43.403168,28.145758]},"tags_mismatch":false,"dist":0},{"osm":false,"atp":{"id":"lMOPyFemobzCXIEVgdk78mwA_RY=","tags":{"amenity":"atm","addr:full":"5 км след Балчик по път Е87","addr:country":"BG","name":"Лайтхаус Голф & Спа Ризорт","opening_hours":"Mo-Su 00:00-24:00","brand":"Postbank","brand:wikidata":"Q7234083","operator:wikidata":"Q7234083"},"coordinates":[43.410353,28.204635]},"tags_mismatch":false,"dist":0},{"osm":false,"atp":{"id":"FKsE6eCNfEjfi1VoLZwrR3plylY=","tags":{"amenity":"atm","addr:full":"Курортен комплекс Карвуна; Апартхотел Роял Бей","addr:country":"BG","name":"Роял Бей Каварна","brand":"Postbank","brand:wikidata":"Q7234083","operator:wikidata":"Q7234083"},"coordinates":[43.403796,28.244702]},"tags_mismatch":false,"dist":0},{"osm":false,"atp":{"id":"lBZDDUwhqB4guTty8db8zlI-FeY=","tags":{"amenity":"atm","addr:full":"ул. Никола Голев 3-7","addr:country":"BG","name":"EKO Банско","opening_hours":"Mo-Su 00:00-24:00","brand":"Postbank","brand:wikidata":"Q7234083","operator:wikidata":"Q7234083"},"coordinates":[41.84430127124549,23.48559069664066]},"tags_mismatch":false,"dist":0},{"osm":false,"atp":{"id":"-gNL6AvvHHORhu5J1Vv6zkSsbW8=","tags":{"amenity":"atm","addr:full":"Ул. Георги Настев №2","addr:country":"BG","name":"Хотел Перун Платинум казино","opening_hours":"Mo-Su 00:00-24:00","brand":"Postbank","brand:wikidata":"Q7234083","operator:wikidata":"Q7234083"},"coordinates":[41.825959,23.482763]},"tags_mismatch":false,"dist":0},{"osm":false,"atp":{"id":"SsPLcdsfdQ7PjQiDyurQA2tnpt0=","tags":{"amenity":"atm","addr:full":"Ул. Караманица №11","addr:country":"BG","name":"Хотел Премиер","opening_hours":"Mo-Su 00:00-24:00","brand":"Postbank","brand:wikidata":"Q7234083","operator:wikidata":"Q7234083"},"coordinates":[41.83802,23.48903]},"tags_mismatch":false,"dist":0},{"osm":false,"atp":{"id":"lnrB4zb4aJssKPoj6Tcysajr1oY=","tags":{"amenity":"atm","addr:full":"Бул. Освобождение №45","addr:country":"BG","name":"Магазин Пейчеви ООД","opening_hours":"Mo-Su 00:00-24:00","brand":"Postbank","brand:wikidata":"Q7234083","operator:wikidata":"Q7234083"},"coordinates":[42.21402,24.01737]},"tags_mismatch":false,"dist":0},{"osm":false,"atp":{"id":"iqRufJLD3WB6yakd6IY4iyT8IGE=","tags":{"amenity":"atm","deposit":"yes","addr:full":"ул. Мрамор 2 бл. Бор","addr:country":"BG","name":"Берковица SSZ","opening_hours":"Mo-Su 00:00-24:00","brand":"Postbank","brand:wikidata":"Q7234083","operator:wikidata":"Q7234083"},"coordinates":[43.2385724235288,23.12458339826089]},"tags_mismatch":false,"dist":0},{"osm":false,"atp":{"id":"6q1Vc88BVQNXBBvUMeCVuk1G8y4=","tags":{"amenity":"atm","addr:full":"Ул. Никола Крушкин - Чолака №48","addr:country":"BG","name":"Казино","opening_hours":"Mo-Su 00:00-24:00","brand":"Postbank","brand:wikidata":"Q7234083","operator:wikidata":"Q7234083"},"coordinates":[42.5834669,23.3591716]},"tags_mismatch":false,"dist":0},{"osm":false,"atp":{"id":"BH3u8xSbI0cXuLMpu7fU3e_Z-Nk=","tags":{"amenity":"atm","addr:full":"Ул. Славянска №79","addr:country":"BG","name":"БГ Маркет Славянска","opening_hours":"Mo-Su 00:00-24:00","brand":"Postbank","brand:wikidata":"Q7234083","operator:wikidata":"Q7234083"},"coordinates":[42.021518,23.085483]},"tags_mismatch":false,"dist":0},{"osm":false,"atp":{"id":"HXVRPVrbn_TeSC0UKmbUBaFBU7c=","tags":{"amenity":"atm","deposit":"yes","addr:full":"Ул. Свети Иван Рилски №17","addr:country":"BG","name":"Благоевград - Св.Иван Рилски","opening_hours":"Mo-Su 00:00-24:00","brand":"Postbank","brand:wikidata":"Q7234083","operator:wikidata":"Q7234083"},"coordinates":[42.024528471545295,23.10196038915373]},"tags_mismatch":false,"dist":0},{"osm":false,"atp":{"id":"BM2dK_nMy2B59Cm8zVY1ztMEoc0=","tags":{"amenity":"atm","deposit":"yes","addr:full":"Бул. Св. Св. Кирил и Методий №4","addr:country":"BG","name":"Благоевград Кирил и Методий","opening_hours":"Mo-Su 00:00-24:00","brand":"Postbank","brand:wikidata":"Q7234083","operator:wikidata":"Q7234083"},"coordinates":[42.019855,23.093153]},"tags_mismatch":false,"dist":0},{"osm":false,"atp":{"id":"rMyuSlPjmqjybR7o_SDi0DUWq2A=","tags":{"amenity":"atm","addr:full":"Бул. Св. Св. Кирил и Методий №27","addr:country":"BG","name":"Корпоративен център Благоевград","opening_hours":"Mo-Su 00:00-24:00","brand":"Postbank","brand:wikidata":"Q7234083","operator:wikidata":"Q7234083"},"coordinates":[42.01473834080134,23.085904018389808]},"tags_mismatch":false,"dist":0},{"osm":false,"atp":{"id":"4llNAWiAuXlZFKKCMr6rzFAJTpo=","tags":{"amenity":"atm","addr:full":"Ул. Иван Гарванов №26","addr:country":"BG","name":"М и К Геймс","opening_hours":"Mo-Su 00:00-24:00","brand":"Postbank","brand:wikidata":"Q7234083","operator:wikidata":"Q7234083"},"coordinates":[42.014674,23.07871]},"tags_mismatch":false,"dist":0},{"osm":false,"atp":{"id":"56wOzpoJL-76FgrYMNT103_cfj8=","tags":{"amenity":"atm","addr:full":"Ж.к. Струмско, ул. Огражден №8","addr:country":"BG","name":"Офис - магазин","opening_hours":"Mo-Su 00:00-24:00","brand":"Postbank","brand:wikidata":"Q7234083","operator:wikidata":"Q7234083"},"coordinates":[41.9933448,23.0876661]},"tags_mismatch":false,"dist":0},{"osm":false,"atp":{"id":"_XakDDmHbQ3WmowVFaz0yiBTYJc=","tags":{"amenity":"atm","addr:full":"Ул. Скаптопара №54","addr:country":"BG","name":"Студентски център Скаптопара","opening_hours":"Mo-Su 00:00-24:00","brand":"Postbank","brand:wikidata":"Q7234083","operator:wikidata":"Q7234083"},"coordinates":[42.0171646,23.0869601]},"tags_mismatch":false,"dist":0},{"osm":false,"atp":{"id":"5OFBP7uO5kvtstDZwAuLlvqPgxo=","tags":{"amenity":"atm","addr:full":"ул. Яне Сандански №1","addr:country":"BG","name":"Супермаркет Стоми","opening_hours":"Mo-Su 00:00-24:00","brand":"Postbank","brand:wikidata":"Q7234083","operator:wikidata":"Q7234083"},"coordinates":[41.996645,23.090003]},"tags_mismatch":false,"dist":0},{"osm":false,"atp":{"id":"zXNI4Io6JHon3K-eu0JoNxb5tgU=","tags":{"amenity":"atm","addr:full":"Ж.к. Еленово, ул. Пейо Яворов №35","addr:country":"BG","name":"Супермаркет Чавикс","opening_hours":"Mo-Su 00:00-24:00","brand":"Postbank","brand:wikidata":"Q7234083","operator:wikidata":"Q7234083"},"coordinates":[41.9981975,23.0994109]},"tags_mismatch":false,"dist":0},{"osm":false,"atp":{"id":"R2CQFn0ia2Tw14L03NV9Lrqmnz0=","tags":{"amenity":"atm","addr:full":"Ул. 27-ми Октомври №2","addr:country":"BG","name":"Бобов дол","opening_hours":"Mo-Su 00:00-24:00","brand":"Postbank","brand:wikidata":"Q7234083","operator:wikidata":"Q7234083"},"coordinates":[42.3663864,23.0051872]},"tags_mismatch":false,"dist":0},{"osm":false,"atp":{"id":"WVIjDLHTYqCnn3h5LN5V0Yo-veQ=","tags":{"amenity":"atm","deposit":"yes","addr:full":"Бул. България №6","addr:country":"BG","name":"Ботевград","opening_hours":"Mo-Su 00:00-24:00","brand":"Postbank","brand:wikidata":"Q7234083","operator:wikidata":"Q7234083"},"coordinates":[42.909576668559495,23.789284497506266]},"tags_mismatch":false,"dist":0},{"osm":false,"atp":{"id":"lFy8_dqx5lMwm9wbmMcVGOmfuBw=","tags":{"amenity":"atm","addr:full":"Ул. Арда №4","addr:country":"BG","name":"Мини маркет","brand":"Postbank","brand:wikidata":"Q7234083","operator:wikidata":"Q7234083"},"coordinates":[42.0845262,24.758245]},"tags_mismatch":false,"dist":0},{"osm":false,"atp":{"id":"EaTwQwzhnfI9dwzCetQZPUA05nk=","tags":{"amenity":"atm","deposit":"yes","addr:full":"Ул. Васил Левски №14","addr:country":"BG","name":"Велико Търново Левски","opening_hours":"Mo-Su 00:00-24:00","brand":"Postbank","brand:wikidata":"Q7234083","operator:wikidata":"Q7234083"},"coordinates":[43.079515,25.628704]},"tags_mismatch":false,"dist":0},{"osm":false,"atp":{"id":"iYHzez2mcUG9Oegx7-k_unoGF5M=","tags":{"amenity":"atm","addr:full":"ул. Магистрала, път I-4","addr:country":"BG","name":"ЕКО В. Търново","opening_hours":"Mo-Su 00:00-24:00","brand":"Postbank","brand:wikidata":"Q7234083","operator:wikidata":"Q7234083"},"coordinates":[43.072202,25.624006]},"tags_mismatch":false,"dist":0},{"osm":false,"atp":{"id":"2w4M515BT3PS-FFBXuY4Qs40id4=","tags":{"amenity":"atm","addr:full":"ул. Никола Габровски 2","addr:country":"BG","name":"На чисто ","opening_hours":"Mo-Su 00:00-24:00","brand":"Postbank","brand:wikidata":"Q7234083","operator:wikidata":"Q7234083"},"coordinates":[43.07771638322105,25.625644986464227]},"tags_mismatch":false,"dist":0},{"osm":false,"atp":{"id":"Uy9OuV9_PzTEXiuH9j3N8zUWLps=","tags":{"amenity":"atm","deposit":"yes","addr:full":"Бул. Съединение №218","addr:country":"BG","name":"Велинград","opening_hours":"Mo-Su 00:00-24:00","brand":"Postbank","brand:wikidata":"Q7234083","operator:wikidata":"Q7234083"},"coordinates":[42.0420853,23.9877273]},"tags_mismatch":false,"dist":0},{"osm":false,"atp":{"id":"eYhSbzHvNiSBL_QOQOMHIun1tHE=","tags":{"amenity":"atm","addr:full":"ул. Надежда 1","addr:country":"BG","name":"Фреш маркет ","opening_hours":"Mo-Su 00:00-24:00","brand":"Postbank","brand:wikidata":"Q7234083","operator:wikidata":"Q7234083"},"coordinates":[42.01368516381699,23.986201018778424]},"tags_mismatch":false,"dist":0},{"osm":false,"atp":{"id":"URw6_0tP48ak5Dbw4C-2QRSfZ7Q=","tags":{"amenity":"atm","deposit":"yes","addr:full":"Ул. Цар Александър II, №19-21","addr:country":"BG","name":"Видин","opening_hours":"Mo-Su 00:00-24:00","brand":"Postbank","brand:wikidata":"Q7234083","operator:wikidata":"Q7234083"},"coordinates":[43.9833073,22.8763757]},"tags_mismatch":false,"dist":0},{"osm":false,"atp":{"id":"Jd5jBgcd6MNFL1fnuxFq6euw9sI=","tags":{"amenity":"atm","addr:full":"Ул. Железничарска №2","addr:country":"BG","name":"УАНДА","opening_hours":"Mo-Su 00:00-24:00","brand":"Postbank","brand:wikidata":"Q7234083","operator:wikidata":"Q7234083"},"coordinates":[43.98526,22.875675]},"tags_mismatch":false,"dist":0},{"osm":false,"atp":{"id":"A2eJIfvxXvORpyBkWRU-5KKXeUU=","tags":{"amenity":"atm","addr:full":"Пл. Червен площад","addr:country":"BG","name":"Аптека Червен площад","opening_hours":"Mo-Su 00:00-24:00","brand":"Postbank","brand:wikidata":"Q7234083","operator:wikidata":"Q7234083"},"coordinates":[43.2048225,23.5643113]},"tags_mismatch":false,"dist":0},{"osm":false,"atp":{"id":"Nnz1sWXELdzcIVMyGBCy0Sh32NU=","tags":{"amenity":"atm","addr:full":"Бул. Васил Кънчов №86","addr:country":"BG","name":"Васил Кънчов","opening_hours":"Mo-Su 00:00-24:00","brand":"Postbank","brand:wikidata":"Q7234083","operator:wikidata":"Q7234083"},"coordinates":[43.2067359,23.5617752]},"tags_mismatch":false,"dist":0},{"osm":false,"atp":{"id":"8e5NlciqtmGSBHZ9-UUSmF0QQfU=","tags":{"amenity":"atm","deposit":"yes","addr:full":"Ул. Лукашов №1","addr:country":"BG","name":"Враца","opening_hours":"Mo-Su 00:00-24:00","brand":"Postbank","brand:wikidata":"Q7234083","operator:wikidata":"Q7234083"},"coordinates":[43.2036906,23.5490725]},"tags_mismatch":false,"dist":0},{"osm":false,"atp":{"id":"IR86sUS_Go2cnQQAx3crN3J-38E=","tags":{"amenity":"atm","deposit":"yes","addr:full":"Ул. Лукашов №1","addr:country":"BG","name":"Враца II","opening_hours":"Mo-Su 00:00-24:00","brand":"Postbank","brand:wikidata":"Q7234083","operator:wikidata":"Q7234083"},"coordinates":[43.2036906,23.5490725]},"tags_mismatch":false,"dist":0},{"osm":false,"atp":{"id":"QAq7-JFJlYlPIJCkuXaEZdXyfc4=","tags":{"amenity":"atm","addr:full":"Ж.к. Дъбника, срещу бл.10 пазара","addr:country":"BG","name":"Търговски център Мистър Блек","opening_hours":"Mo-Su 00:00-24:00","brand":"Postbank","brand:wikidata":"Q7234083","operator:wikidata":"Q7234083"},"coordinates":[43.2225232,23.5469922]},"tags_mismatch":false,"dist":0},{"osm":false,"atp":{"id":"p0eIlOGIKeScRKni5kzBba_qVAY=","tags":{"amenity":"atm","addr:full":"ул. Свищовска 91","addr:country":"BG","name":"Булсатком Габрово","opening_hours":"Mo-Su 00:00-24:00","brand":"Postbank","brand:wikidata":"Q7234083","operator:wikidata":"Q7234083"},"coordinates":[42.8959839499354,25.309058081267526]},"tags_mismatch":false,"dist":0},{"osm":false,"atp":{"id":"yJ-ZT28p6VfiMxGGptzMfd3jY_Y=","tags":{"amenity":"atm","addr:full":"Бул. Трети Март №6","addr:country":"BG","name":"ВИК Габрово ООД","opening_hours":"Mo-Su 00:00-24:00","brand":"Postbank","brand:wikidata":"Q7234083","operator:wikidata":"Q7234083"},"coordinates":[42.858348,25.321529]},"tags_mismatch":false,"dist":0},{"osm":false,"atp":{"id":"qox1K3kwr1fjzz32vA234yYF2RU=","tags":{"amenity":"atm","addr:full":"ул. „Патриарх Герман“ 69","addr:country":"BG","name":"ИзиПей Герман","opening_hours":"Mo-Su 00:00-24:00","brand":"Postbank","brand:wikidata":"Q7234083","operator:wikidata":"Q7234083"},"coordinates":[42.61410283599435,23.41483019824693]},"tags_mismatch":false,"dist":0},{"osm":false,"atp":{"id":"YIR1JNzZgF0D_SpexAseTSlSfa0=","tags":{"amenity":"atm","deposit":"yes","addr:full":"ул. Иван Вазов 2","addr:country":"BG","name":"Горна Оряховица","opening_hours":"Mo-Su 00:00-24:00","brand":"Postbank","brand:wikidata":"Q7234083","operator:wikidata":"Q7234083"},"coordinates":[43.122825889423886,25.69051051173166]},"tags_mismatch":false,"dist":0},{"osm":false,"atp":{"id":"J9Q1k8qyssNS6XRwP7W5gdb81X0=","tags":{"amenity":"atm","addr:full":"Ул. Свети Княз Борис I № 29","addr:country":"BG","name":"Захарни заводи","opening_hours":"Mo-Su 00:00-24:00","brand":"Postbank","brand:wikidata":"Q7234083","operator:wikidata":"Q7234083"},"coordinates":[43.137863,25.713239]},"tags_mismatch":false,"dist":0},{"osm":false,"atp":{"id":"AmnZCLyJg7N8SO5YjtkA1YXY5yo=","tags":{"amenity":"atm","deposit":"yes","addr:full":"ул. Сестри Дукови №2","addr:country":"BG","name":"Гоце Делчев","opening_hours":"Mo-Su 00:00-24:00","brand":"Postbank","brand:wikidata":"Q7234083","operator:wikidata":"Q7234083"},"coordinates":[41.57259763493609,23.726533506159043]},"tags_mismatch":false,"dist":0},{"osm":false,"atp":{"id":"-lnUc-fe5VNep7lUC__B8qTyDuQ=","tags":{"amenity":"atm","deposit":"yes","addr:full":"ул. Сестри Дукови №2","addr:country":"BG","name":"Гоце Делчев II","opening_hours":"Mo-Fr 08:30-17:00","brand":"Postbank","brand:wikidata":"Q7234083","operator:wikidata":"Q7234083"},"coordinates":[41.57258960852682,23.726512048487198]},"tags_mismatch":false,"dist":0},{"osm":false,"atp":{"id":"PF4aRNJV4kvLyJoztdmncvRjVYc=","tags":{"amenity":"atm","addr:full":"Гоце Делчев","addr:country":"BG","name":"ЕКО гр. Гоце Делчев","opening_hours":"Mo-Su 00:00-24:00","brand":"Postbank","brand:wikidata":"Q7234083","operator:wikidata":"Q7234083"},"coordinates":[41.57365088437016,23.74761106938863]},"tags_mismatch":false,"dist":0},{"osm":false,"atp":{"id":"pPM17Q5MzGPybmEUfawhTYAMLuU=","tags":{"amenity":"atm","addr:full":"Ул.Тодор Александров №38","addr:country":"BG","name":"МОЛ-А Гоце Делчев","opening_hours":"Mo-Su 00:00-24:00","brand":"Postbank","brand:wikidata":"Q7234083","operator:wikidata":"Q7234083"},"coordinates":[41.5689875,23.7281039]},"tags_mismatch":false,"dist":0},{"osm":false,"atp":{"id":"nhGTORIOnWlbaxEtij9Zc8Ta_4A=","tags":{"amenity":"atm","addr:full":"Ул. Дунав №26","addr:country":"BG","name":"Новатерм ДП ООД","opening_hours":"Mo-Su 00:00-24:00","brand":"Postbank","brand:wikidata":"Q7234083","operator:wikidata":"Q7234083"},"coordinates":[41.57081,23.72281]},"tags_mismatch":false,"dist":0},{"osm":false,"atp":{"id":"oC_oTZpWkwPRpE8jPzaNnYliW1U=","tags":{"amenity":"atm","addr:full":"Ул. Дунав №10","addr:country":"BG","name":"ТПК Атанас Тешов","opening_hours":"Mo-Su 00:00-24:00","brand":"Postbank","brand:wikidata":"Q7234083","operator:wikidata":"Q7234083"},"coordinates":[41.5717703,23.7404579]},"tags_mismatch":false,"dist":0},{"osm":false,"atp":{"id":"XSJ5z75L8dqlGOblw3oABRPB5Iw=","tags":{"amenity":"atm","addr:full":"ул. Христо Ботев 80","addr:country":"BG","name":"Магазин Градина","opening_hours":"Mo-Su 00:00-24:00","brand":"Postbank","brand:wikidata":"Q7234083","operator:wikidata":"Q7234083"},"coordinates":[42.151161877398124,25.207357746532818]},"tags_mismatch":false,"dist":0},{"osm":false,"atp":{"id":"84ZAsCPz0BW95ZqeeOCqNslGmow=","tags":{"amenity":"atm","deposit":"yes","addr:full":"Бул. Република №1","addr:country":"BG","name":"Гълъбово","opening_hours":"Mo-Su 00:00-24:00","brand":"Postbank","brand:wikidata":"Q7234083","operator:wikidata":"Q7234083"},"coordinates":[42.1374511,25.863621]},"tags_mismatch":false,"dist":0},{"osm":false,"atp":{"id":"pXVeMVXQvU_sGd58c8E1BN7Qftk=","tags":{"amenity":"atm","addr:full":"Ул. Освобождение 23","addr:country":"BG","name":"Девин","opening_hours":"Mo-Su 00:00-24:00","brand":"Postbank","brand:wikidata":"Q7234083","operator:wikidata":"Q7234083"},"coordinates":[41.7429109,24.3915387]},"tags_mismatch":false,"dist":0},{"osm":false,"atp":{"id":"UCnrpkX8HUD1xGa1iNFHRDmtk7Y=","tags":{"amenity":"atm","deposit":"yes","addr:full":"Бул. Съединение №78","addr:country":"BG","name":"Девня","opening_hours":"Mo-Su 00:00-24:00","brand":"Postbank","brand:wikidata":"Q7234083","operator:wikidata":"Q7234083"},"coordinates":[43.226285,27.586576]},"tags_mismatch":false,"dist":0},{"osm":false,"atp":{"id":"Fb28IwmdCo3ZFlkSq_7sJbw2ybM=","tags":{"amenity":"atm","addr:full":"Бул. България №10","addr:country":"BG","name":"България","opening_hours":"Mo-Su 00:00-24:00","brand":"Postbank","brand:wikidata":"Q7234083","operator:wikidata":"Q7234083"},"coordinates":[42.0592821,25.5914629]},"tags_mismatch":false,"dist":0},{"osm":false,"atp":{"id":"tFMWVfX_gvVC2C3LlowooCB-Y7s=","tags":{"amenity":"atm","deposit":"yes","addr:full":"Бул. България №1","addr:country":"BG","name":"Димитровград","opening_hours":"Mo-Su 00:00-24:00","brand":"Postbank","brand:wikidata":"Q7234083","operator:wikidata":"Q7234083"},"coordinates":[42.0569617,25.5915179]},"tags_mismatch":false,"dist":0},{"osm":false,"atp":{"id":"06THDUyjp4duR25w_EifCBuEmbA=","tags":{"amenity":"atm","deposit":"yes","addr:full":"ул Цар Освободител 2","addr:country":"BG","name":"МикроКредит Свищов","opening_hours":"Mo-Su 00:00-24:00","brand":"Postbank","brand:wikidata":"Q7234083","operator:wikidata":"Q7234083"},"coordinates":[43.61742934569813,25.346562267813248]},"tags_mismatch":false,"dist":0},{"osm":false,"atp":{"id":"9igstQnTeiABTJ7b_moY7R9-zVU=","tags":{"amenity":"atm","addr:full":"Бул. 25-ти Септември №25","addr:country":"BG","name":"Добрич Добруджа","opening_hours":"Mo-Su 00:00-24:00","brand":"Postbank","brand:wikidata":"Q7234083","operator:wikidata":"Q7234083"},"coordinates":[43.5721915,27.8271608]},"tags_mismatch":false,"dist":0},{"osm":false,"atp":{"id":"CDInRIBL1LIX2ZEyM0ko9TZhXsI=","tags":{"amenity":"atm","deposit":"yes","addr:full":"Бул. 25-ти Септември 42","addr:country":"BG","name":"Добрич Йордан Йовков II","opening_hours":"Mo-Fr 08:30-17:00","brand":"Postbank","brand:wikidata":"Q7234083","operator:wikidata":"Q7234083"},"coordinates":[43.5678398,27.8307426]},"tags_mismatch":false,"dist":0},{"osm":false,"atp":{"id":"SFy5mVpnlEWcUHFpM90HNmNG7_0=","tags":{"amenity":"atm","deposit":"yes","addr:full":"Пл. Свобода №1","addr:country":"BG","name":"Добрич Свобода","opening_hours":"Mo-Su 00:00-24:00","brand":"Postbank","brand:wikidata":"Q7234083","operator:wikidata":"Q7234083"},"coordinates":[43.5692668,27.8303672]},"tags_mismatch":false,"dist":0},{"osm":false,"atp":{"id":"pxD62gp4D4Im2lyK7BfwNiWdLlA=","tags":{"amenity":"atm","deposit":"yes","addr:full":"Пл. Свобода №1","addr:country":"BG","name":"Добрич Свобода 2","opening_hours":"Mo-Su 00:00-24:00","brand":"Postbank","brand:wikidata":"Q7234083","operator:wikidata":"Q7234083"},"coordinates":[43.569275,27.830374]},"tags_mismatch":false,"dist":0},{"osm":false,"atp":{"id":"7rcW6Kixm2SfLgKTb9MFZVhLN-Q=","tags":{"amenity":"atm","addr:full":"бул. „25-ти Септември“ 70","addr:country":"BG","name":"Добрич – Изи Пей","opening_hours":"Mo-Su 00:00-24:00","brand":"Postbank","brand:wikidata":"Q7234083","operator:wikidata":"Q7234083"},"coordinates":[43.57803647368867,27.829991538975477]},"tags_mismatch":false,"dist":0},{"osm":false,"atp":{"id":"rhdAjnW4eeVNwgPnvyrZlJ988KM=","tags":{"amenity":"atm","deposit":"yes","addr:full":"Ул. Христо Ботев №17","addr:country":"BG","name":"Дупница","opening_hours":"Mo-Su 00:00-24:00","brand":"Postbank","brand:wikidata":"Q7234083","operator:wikidata":"Q7234083"},"coordinates":[42.2611226,23.1215062]},"tags_mismatch":false,"dist":0},{"osm":false,"atp":{"id":"w5ZJ5TonwIlge1FE-8R_PJaNVyU=","tags":{"amenity":"atm","addr:full":"Ул. Никола Малашевски №20","addr:country":"BG","name":"Ресторант, промишлена зона","opening_hours":"Mo-Su 00:00-24:00","brand":"Postbank","brand:wikidata":"Q7234083","operator:wikidata":"Q7234083"},"coordinates":[42.2613275,23.1124424]},"tags_mismatch":false,"dist":0},{"osm":false,"atp":{"id":"W1HcTWYxT5lh-o0qIUNpiZHne24=","tags":{"amenity":"atm","deposit":"yes","addr:full":"бул. „Руски“ № 92","addr:country":"BG","name":"хотел Етрополия","opening_hours":"Mo-Su 00:00-24:00","brand":"Postbank","brand:wikidata":"Q7234083","operator:wikidata":"Q7234083"},"coordinates":[42.833468388382926,23.99546683893549]},"tags_mismatch":false,"dist":0},{"osm":false,"atp":{"id":"ixPkNF7ZeOuPSKOPKciAHTEvp8Q=","tags":{"amenity":"atm","addr:full":"Ул. Шипка №2 - Циментов Завод","addr:country":"BG","name":"Златна Панега","opening_hours":"Mo-Sa 08:30-17:00","brand":"Postbank","brand:wikidata":"Q7234083","operator:wikidata":"Q7234083"},"coordinates":[43.0856386,24.1813915]},"tags_mismatch":false,"dist":0},{"osm":false,"atp":{"id":"Ip1KfaK1QknZu-Mev63WXJRJv0g=","tags":{"amenity":"atm","deposit":"yes","addr:full":"Бул. България №122, блок 194","addr:country":"BG","name":"Златоград","opening_hours":"Mo-Su 00:00-24:00","brand":"Postbank","brand:wikidata":"Q7234083","operator:wikidata":"Q7234083"},"coordinates":[41.3798446,25.096521]},"tags_mismatch":false,"dist":0},{"osm":false,"atp":{"id":"5qcjz3_0-9_k3v2UzApBpQtTKFw=","tags":{"amenity":"atm","addr:full":"Ул. Лудогорие №28","addr:country":"BG","name":"Исперих","opening_hours":"Mo-Su 00:00-24:00","brand":"Postbank","brand:wikidata":"Q7234083","operator:wikidata":"Q7234083"},"coordinates":[43.7162095,26.8307163]},"tags_mismatch":false,"dist":0},{"osm":false,"atp":{"id":"vIYG7SpgfFWK6DiKPNrUtKwmvSw=","tags":{"amenity":"atm","deposit":"yes","addr:full":"ул. „Цар Калоян“ №3","addr:country":"BG","name":"Каварна","opening_hours":"Mo-Su 00:00-24:00","brand":"Postbank","brand:wikidata":"Q7234083","operator:wikidata":"Q7234083"},"coordinates":[43.43304377872901,28.337673725455495]},"tags_mismatch":false,"dist":0},{"osm":false,"atp":{"id":"wGFTouChhXjAwdu0E6Vjc4AbKmw=","tags":{"amenity":"atm","addr:full":"Курортен комплекс Карвуна; Апартхотел Роял Бей","addr:country":"BG","name":"Роял Бей Каварна","opening_hours":"Mo-Su 00:00-24:00","brand":"Postbank","brand:wikidata":"Q7234083","operator:wikidata":"Q7234083"},"coordinates":[43.40393233989977,28.244565096637384]},"tags_mismatch":false,"dist":0},{"osm":false,"atp":{"id":"iBS11E2ox6IlTkFSN4W2EvedjHw=","tags":{"amenity":"atm","addr:full":"Ул. Бачо Киро, до Била","addr:country":"BG","name":"ЕКО Казанлък","opening_hours":"Mo-Su 00:00-24:00","brand":"Postbank","brand:wikidata":"Q7234083","operator:wikidata":"Q7234083"},"coordinates":[42.6155758,25.3902328]},"tags_mismatch":false,"dist":0},{"osm":false,"atp":{"id":"7TdSsz6-flTawXBm_djUMXr0RKE=","tags":{"amenity":"atm","deposit":"yes","addr:full":"Пл. Севтополис №15А","addr:country":"BG","name":"Казанлък","opening_hours":"Mo-Su 00:00-24:00","brand":"Postbank","brand:wikidata":"Q7234083","operator:wikidata":"Q7234083"},"coordinates":[42.618545,25.391667]},"tags_mismatch":false,"dist":0},{"osm":false,"atp":{"id":"T-0ya90ZGIf3W_H0nJ5jBoaE8Fc=","tags":{"amenity":"atm","deposit":"yes","addr:full":"Ул. Освобождение №84","addr:country":"BG","name":"Камено","opening_hours":"Mo-Su 00:00-24:00","brand":"Postbank","brand:wikidata":"Q7234083","operator:wikidata":"Q7234083"},"coordinates":[43.5204613,26.526353]},"tags_mismatch":false,"dist":0},{"osm":false,"atp":{"id":"9tPFEMXQTLL8XQB_njbANSzr1xY=","tags":{"amenity":"atm","deposit":"yes","addr:full":"Ул. Петко Събев №2","addr:country":"BG","name":"Карлово","opening_hours":"Mo-Su 00:00-24:00","brand":"Postbank","brand:wikidata":"Q7234083","operator:wikidata":"Q7234083"},"coordinates":[42.64350837461568,24.804979797495413]},"tags_mismatch":false,"dist":0},{"osm":false,"atp":{"id":"4Wt6j7gZgeRPG-Z8nziT3-GmaxQ=","tags":{"amenity":"atm","addr:full":"Бул. България №5","addr:country":"BG","name":"Карнобат","opening_hours":"Mo-Su 00:00-24:00","brand":"Postbank","brand:wikidata":"Q7234083","operator:wikidata":"Q7234083"},"coordinates":[42.647213,26.984719]},"tags_mismatch":false,"dist":0},{"osm":false,"atp":{"id":"iPq_d2BbOFfI8YO64ecX9eJWx_o=","tags":{"amenity":"atm","addr:full":"Ул. Хан Аспарух №5","addr:country":"BG","name":"Хотел Карнобат","opening_hours":"Mo-Su 00:00-24:00","brand":"Postbank","brand:wikidata":"Q7234083","operator:wikidata":"Q7234083"},"coordinates":[42.65055,26.985664]},"tags_mismatch":false,"dist":0},{"osm":false,"atp":{"id":"KB_ehZ_Lq1VHJMMnyiVHmhyrhvg=","tags":{"amenity":"atm","addr:full":"Ул. Христо Ботев, блок Витоша","addr:country":"BG","name":"Кнежа","opening_hours":"Mo-Su 00:00-24:00","brand":"Postbank","brand:wikidata":"Q7234083","operator:wikidata":"Q7234083"},"coordinates":[43.4927972,24.0807647]},"tags_mismatch":false,"dist":0},{"osm":false,"atp":{"id":"THFk9Gy4CEQsoIF48PWQhITI5Ik=","tags":{"amenity":"atm","deposit":"yes","addr:full":"ул Васил Коларов 1","addr:country":"BG","name":"Козлодуй","opening_hours":"Mo-Su 00:00-24:00","brand":"Postbank","brand:wikidata":"Q7234083","operator:wikidata":"Q7234083"},"coordinates":[43.77752397797957,23.72837249665762]},"tags_mismatch":false,"dist":0},{"osm":false,"atp":{"id":"ltB6bUvVfXd8Ilnwa51xh7trLwk=","tags":{"amenity":"atm","addr:full":"Ул. Асен Златаров №1","addr:country":"BG","name":"Коларово","opening_hours":"Mo-Su 00:00-24:00","brand":"Postbank","brand:wikidata":"Q7234083","operator:wikidata":"Q7234083"},"coordinates":[41.3632611,23.1085501]},"tags_mismatch":false,"dist":0},{"osm":false,"atp":{"id":"uwvtQUMlOTVL-Num2Xe0qn-50_g=","tags":{"amenity":"atm","addr:full":"ул. '' Черноморска'' 45","addr:country":"BG","name":"Кранево Алгара","opening_hours":"Mo-Su 00:00-24:00","brand":"Postbank","brand:wikidata":"Q7234083","operator:wikidata":"Q7234083"},"coordinates":[42.822218502681125,27.8831707693961]},"tags_mismatch":false,"dist":0},{"osm":false,"atp":{"id":"V3LUaZpAnhLEQn2zp7IbD_gyPOQ=","tags":{"amenity":"atm","deposit":"yes","addr:full":"Ул. Македония №96","addr:country":"BG","name":"Кресна","opening_hours":"Mo-Su 00:00-24:00","brand":"Postbank","brand:wikidata":"Q7234083","operator:wikidata":"Q7234083"},"coordinates":[41.7204847,23.1664374]},"tags_mismatch":false,"dist":0},{"osm":false,"atp":{"id":"HSrRXMnpgjGwtDodJK70FQppSeI=","tags":{"amenity":"atm","addr:full":"Ул. Княз Бориз I №3","addr:country":"BG","name":"Кубрат","opening_hours":"Mo-Su 00:00-24:00","brand":"Postbank","brand:wikidata":"Q7234083","operator:wikidata":"Q7234083"},"coordinates":[43.7961375,26.5005343]},"tags_mismatch":false,"dist":0},{"osm":false,"atp":{"id":"evfguyoLPl-omqSa5r2BmZQJBwM=","tags":{"amenity":"atm","addr:full":"Ул.Тракия №19","addr:country":"BG","name":"ДКЦ 1","opening_hours":"Mo-Su 00:00-24:00","brand":"Postbank","brand:wikidata":"Q7234083","operator:wikidata":"Q7234083"},"coordinates":[41.6454751,25.3719369]},"tags_mismatch":false,"dist":0},{"osm":false,"atp":{"id":"4hE4KUHV444SFQKPx_0OMAz8zs8=","tags":{"amenity":"atm","deposit":"yes","addr:full":"Бул. България №33A","addr:country":"BG","name":"Кърджали","opening_hours":"Mo-Su 00:00-24:00","brand":"Postbank","brand:wikidata":"Q7234083","operator:wikidata":"Q7234083"},"coordinates":[41.64318766737858,25.368973027061475]},"tags_mismatch":false,"dist":0},{"osm":false,"atp":{"id":"wyCRIGDVJDFeXRlTysXiyIC4cKM=","tags":{"amenity":"atm","addr:full":"Ж.к. Възрожденци, бул. Христо Ботев","addr:country":"BG","name":"Ресторант Меаца","opening_hours":"Mo-Su 00:00-24:00","brand":"Postbank","brand:wikidata":"Q7234083","operator:wikidata":"Q7234083"},"coordinates":[41.6345358,25.3560493]},"tags_mismatch":false,"dist":0},{"osm":false,"atp":{"id":"frH-s25lzDoQblDiRVlMpsYqSuQ=","tags":{"amenity":"atm","deposit":"yes","addr:full":"Ул. Любен Каравелов №10","addr:country":"BG","name":"Кюстендил","opening_hours":"Mo-Su 00:00-24:00","brand":"Postbank","brand:wikidata":"Q7234083","operator:wikidata":"Q7234083"},"coordinates":[42.2801206,22.6915137]},"tags_mismatch":false,"dist":0},{"osm":false,"atp":{"id":"017yYmL3brzH3XGK8CHuqt-KmAs=","tags":{"amenity":"atm","addr:full":"Ул. Васил Априлов №2","addr:country":"BG","name":"Левски","opening_hours":"Mo-Su 00:00-24:00","brand":"Postbank","brand:wikidata":"Q7234083","operator:wikidata":"Q7234083"},"coordinates":[43.359004,25.141751]},"tags_mismatch":false,"dist":0},{"osm":false,"atp":{"id":"FmdbMA_l20q68hBUe23palF6rX0=","tags":{"amenity":"atm","addr:full":"Ул. Бяло море №12","addr:country":"BG","name":"Бони Ловеч","opening_hours":"Mo-Su 00:00-24:00","brand":"Postbank","brand:wikidata":"Q7234083","operator:wikidata":"Q7234083"},"coordinates":[43.147896,24.717241]},"tags_mismatch":false,"dist":0},{"osm":false,"atp":{"id":"8SbZTZ7s1I5GMEMwnkNTVMc8h2c=","tags":{"amenity":"atm","deposit":"yes","addr:full":"Ул. Търговска 38","addr:country":"BG","name":"Ловеч","opening_hours":"Mo-Su 00:00-24:00","brand":"Postbank","brand:wikidata":"Q7234083","operator:wikidata":"Q7234083"},"coordinates":[43.1375279,24.7178352]},"tags_mismatch":false,"dist":0},{"osm":false,"atp":{"id":"z8ecqooTc-yrUtwIuxUx_vkISaU=","tags":{"amenity":"atm","addr:full":"Ул.Търговска №183","addr:country":"BG","name":"Ловеч Запад","opening_hours":"Mo-Su 00:00-24:00","brand":"Postbank","brand:wikidata":"Q7234083","operator:wikidata":"Q7234083"},"coordinates":[43.1472094,24.7159604]},"tags_mismatch":false,"dist":0},{"osm":false,"atp":{"id":"CtIU01A_vQbUSIfTDpUykauaKHk=","tags":{"amenity":"atm","deposit":"yes","addr:full":"ул. „Търговска“ № 29","addr:country":"BG","name":"Нотариална кантора ","opening_hours":"Mo-Su 00:00-24:00","brand":"Postbank","brand:wikidata":"Q7234083","operator:wikidata":"Q7234083"},"coordinates":[43.13378963246125,24.716057849042574]},"tags_mismatch":false,"dist":0},{"osm":false,"atp":{"id":"iYmXaO54PuVYOqf7uJ_YzH9Mh0c=","tags":{"amenity":"atm","addr:full":"Кв. Здравец, ТК Славимес","addr:country":"BG","name":"Славимекс Ловеч","opening_hours":"Mo-Su 00:00-24:00","brand":"Postbank","brand:wikidata":"Q7234083","operator:wikidata":"Q7234083"},"coordinates":[43.157719,24.716418]},"tags_mismatch":false,"dist":0},{"osm":false,"atp":{"id":"YNU-7IbfyVj6IqK0x6fQITj3UbQ=","tags":{"amenity":"atm","addr:full":"Ул. Хан Крум №41","addr:country":"BG","name":"Факира Ловеч","opening_hours":"Mo-Su 00:00-24:00","brand":"Postbank","brand:wikidata":"Q7234083","operator:wikidata":"Q7234083"},"coordinates":[43.137022,24.709819]},"tags_mismatch":false,"dist":0},{"osm":false,"atp":{"id":"pv8ttUqOGknZmmk5ZvkYc_wKqXY=","tags":{"amenity":"atm","deposit":"yes","addr:full":"Ул. Дунавска №18","addr:country":"BG","name":"Лом","opening_hours":"Mo-Su 00:00-24:00","brand":"Postbank","brand:wikidata":"Q7234083","operator:wikidata":"Q7234083"},"coordinates":[43.8317632,23.2333397]},"tags_mismatch":false,"dist":0},{"osm":false,"atp":{"id":"iavmxW39cMLMypBWO3tyMn5Ofd0=","tags":{"amenity":"atm","addr:full":"С. Марикостиново, Път Е79","addr:country":"BG","name":"Бензиностанция Круиз","opening_hours":"Mo-Su 00:00-24:00","brand":"Postbank","brand:wikidata":"Q7234083","operator:wikidata":"Q7234083"},"coordinates":[41.435151,23.334114]},"tags_mismatch":false,"dist":0},{"osm":false,"atp":{"id":"kHq0icucBKT_jGFISJHv9H0cGYc=","tags":{"amenity":"atm","addr:full":"ул.България №65","addr:country":"BG","name":"ЕТ ОКСА","opening_hours":"Mo-Su 00:00-24:00","brand":"Postbank","brand:wikidata":"Q7234083","operator:wikidata":"Q7234083"},"coordinates":[43.84958,25.95523]},"tags_mismatch":false,"dist":0},{"osm":false,"atp":{"id":"zmY6V721Fw1QDMVlz_SD9z2yb4c=","tags":{"amenity":"atm","deposit":"yes","addr:full":"Ул. Христо Ботев №27А","addr:country":"BG","name":"Мездра","opening_hours":"Mo-Su 00:00-24:00","brand":"Postbank","brand:wikidata":"Q7234083","operator:wikidata":"Q7234083"},"coordinates":[43.1591605,23.6945058]},"tags_mismatch":false,"dist":0},{"osm":false,"atp":{"id":"1LOTfp8nr1IUaE0KbItiDmXOSxo=","tags":{"amenity":"atm","addr:full":"Ул. Индустриална №6","addr:country":"BG","name":"МАЙ 04 Холдинг","opening_hours":"Mo-Su 00:00-24:00","brand":"Postbank","brand:wikidata":"Q7234083","operator:wikidata":"Q7234083"},"coordinates":[43.407222,23.231437]},"tags_mismatch":false,"dist":0},{"osm":false,"atp":{"id":"89MqDM7lzlWOm3xjXk9423YTWx0=","tags":{"amenity":"atm","deposit":"yes","addr:full":"Бул. Трети Март №63","addr:country":"BG","name":"Монтана","opening_hours":"Mo-Su 00:00-24:00","brand":"Postbank","brand:wikidata":"Q7234083","operator:wikidata":"Q7234083"},"coordinates":[43.410184,23.225731]},"tags_mismatch":false,"dist":0},{"osm":false,"atp":{"id":"NOxi7_qXTn7WKcHUGyjNL5Mw1u0=","tags":{"amenity":"atm","addr:full":"Бул. Трети март №98","addr:country":"BG","name":"Монтана II","opening_hours":"Mo-Su 00:00-24:00","brand":"Postbank","brand:wikidata":"Q7234083","operator:wikidata":"Q7234083"},"coordinates":[43.412530720650594,23.226361354309105]},"tags_mismatch":false,"dist":0},{"osm":false,"atp":{"id":"GD2uo8hWd1qx-yJIwkDpM0jP28Q=","tags":{"amenity":"atm","deposit":"yes","addr:full":"бул. Трети март №98","addr:country":"BG","name":"Монтана нов","opening_hours":"Mo-Su 00:00-24:00","brand":"Postbank","brand:wikidata":"Q7234083","operator:wikidata":"Q7234083"},"coordinates":[43.41255410171006,23.22633989663782]},"tags_mismatch":false,"dist":0},{"osm":false,"atp":{"id":"JGsTDvv4UK1ats3I_LBnMR2A_RA=","tags":{"amenity":"atm","deposit":"yes","addr:full":"Ул. Хан Крум № 11","addr:country":"BG","name":"Несебър","opening_hours":"Mo-Su 00:00-24:00","brand":"Postbank","brand:wikidata":"Q7234083","operator:wikidata":"Q7234083"},"coordinates":[42.66150934823682,27.722288318919166]},"tags_mismatch":false,"dist":0},{"osm":false,"atp":{"id":"3Wb93g80kuJC9NmziU4FOPcV4-s=","tags":{"amenity":"atm","addr:full":"ул. Месамбрия 16","addr:country":"BG","name":"Старата котва","opening_hours":"Mo-Su 00:00-24:00","brand":"Postbank","brand:wikidata":"Q7234083","operator:wikidata":"Q7234083"},"coordinates":[42.65833798180619,27.73443455426865]},"tags_mismatch":false,"dist":0},{"osm":false,"atp":{"id":"rSMeYwzb8i5Q_lNb5kO0oEwJ_qs=","tags":{"amenity":"atm","addr:full":"Кв. Черно море, ул. Несебър №8","addr:country":"BG","name":"Супермаркет Кабана","opening_hours":"Mo-Su 00:00-24:00","brand":"Postbank","brand:wikidata":"Q7234083","operator:wikidata":"Q7234083"},"coordinates":[42.653089,27.705394]},"tags_mismatch":false,"dist":0},{"osm":false,"atp":{"id":"cdaPxGRmef96l0Emk5h3ZXS95yQ=","tags":{"amenity":"atm","deposit":"yes","addr:full":"Ул. Васил Левски №1","addr:country":"BG","name":"Никопол","opening_hours":"Mo-Su 00:00-24:00","brand":"Postbank","brand:wikidata":"Q7234083","operator:wikidata":"Q7234083"},"coordinates":[43.70522,24.895449]},"tags_mismatch":false,"dist":0},{"osm":false,"atp":{"id":"OFeRv2IqnpC09WmmHu304ae5V8M=","tags":{"amenity":"atm","deposit":"yes","addr:full":"ул Ал. Стамболийски 12","addr:country":"BG","name":"МикроКредит Нова Загора","opening_hours":"Mo-Su 00:00-24:00","brand":"Postbank","brand:wikidata":"Q7234083","operator:wikidata":"Q7234083"},"coordinates":[42.49227976004583,26.00990399658861]},"tags_mismatch":false,"dist":0},{"osm":false,"atp":{"id":"zKhVJc5holKPiL8a2gZXxxT0VHA=","tags":{"amenity":"atm","deposit":"yes","addr:full":"ул. \"Св.Св. Кирил и Методий\" 40","addr:country":"BG","name":"Нова Загора","opening_hours":"Mo-Su 00:00-24:00","brand":"Postbank","brand:wikidata":"Q7234083","operator:wikidata":"Q7234083"},"coordinates":[42.494578941492875,26.012046940572933]},"tags_mismatch":false,"dist":0},{"osm":false,"atp":{"id":"ivR2ceVcdZ8FRQEuSt7OrcPxYWQ=","tags":{"amenity":"atm","deposit":"yes","addr:full":"Пл. Раковски №2","addr:country":"BG","name":"Нови Пазар","opening_hours":"Mo-Su 00:00-24:00","brand":"Postbank","brand:wikidata":"Q7234083","operator:wikidata":"Q7234083"},"coordinates":[43.34448717,27.1921301]},"tags_mismatch":false,"dist":0},{"osm":false,"atp":{"id":"vT9SSG4E7sILfG3wewIkIBZKaPc=","tags":{"amenity":"atm","addr:full":"Ул. Цар Освободител №36","addr:country":"BG","name":"Фабрика Ново Стъкло","opening_hours":"Mo-Su 00:00-24:00","brand":"Postbank","brand:wikidata":"Q7234083","operator:wikidata":"Q7234083"},"coordinates":[43.3448719,27.192713]},"tags_mismatch":false,"dist":0},{"osm":false,"atp":{"id":"hrmz7OgHgKJCczDbNF8ZQieXVUU=","tags":{"amenity":"atm","addr:full":"ул. Стара Планина №138","addr:country":"BG","name":"Магазин Слънце","opening_hours":"Mo-Su 00:00-24:00","brand":"Postbank","brand:wikidata":"Q7234083","operator:wikidata":"Q7234083"},"coordinates":[43.30152,27.91349]},"tags_mismatch":false,"dist":0},{"osm":false,"atp":{"id":"v2ML9HQw_GCqXbtH5Tp1TJt3HtA=","tags":{"amenity":"atm","addr:full":"Бул. Ал. Стамболийски №53","addr:country":"BG","name":"WU Пазарджик","opening_hours":"Mo-Su 00:00-24:00","brand":"Postbank","brand:wikidata":"Q7234083","operator:wikidata":"Q7234083"},"coordinates":[42.195,24.328954]},"tags_mismatch":false,"dist":0},{"osm":false,"atp":{"id":"sDrGEYeOPVMKlGAWISXXmpn1eKE=","tags":{"amenity":"atm","addr:full":"Ул. Константин Величков №37","addr:country":"BG","name":"Магазин","opening_hours":"Mo-Su 00:00-24:00","brand":"Postbank","brand:wikidata":"Q7234083","operator:wikidata":"Q7234083"},"coordinates":[42.19098,24.328531]},"tags_mismatch":false,"dist":0},{"osm":false,"atp":{"id":"1PmRXZIWYfZ_yD5RHMmElfSq3pA=","tags":{"amenity":"atm","deposit":"yes","addr:full":"Бул. България №5","addr:country":"BG","name":"Пазарджик","opening_hours":"Mo-Su 00:00-24:00","brand":"Postbank","brand:wikidata":"Q7234083","operator:wikidata":"Q7234083"},"coordinates":[42.187832849994685,24.329996626622712]},"tags_mismatch":false,"dist":0},{"osm":false,"atp":{"id":"veelaliN-NrSPMgg9LPosVmLaFI=","tags":{"amenity":"atm","deposit":"yes","addr:full":"Ул. Пловдивска №20","addr:country":"BG","name":"Пазарджик Пловдивска","opening_hours":"Mo-Fr 08:30-17:00","brand":"Postbank","brand:wikidata":"Q7234083","operator:wikidata":"Q7234083"},"coordinates":[42.1888023,24.3401154]},"tags_mismatch":false,"dist":0},{"osm":false,"atp":{"id":"sembI8XbpLOgDPVwhWo5FVNTvSM=","tags":{"amenity":"atm","addr:full":"ул. Христо Касабвелев","addr:country":"BG","name":"хипермаркет КРЕЗ","opening_hours":"Mo-Sa 08:00-20:00; Su 00:00-20:00","brand":"Postbank","brand:wikidata":"Q7234083","operator:wikidata":"Q7234083"},"coordinates":[42.18296282954726,24.31626254056611]},"tags_mismatch":false,"dist":0},{"osm":false,"atp":{"id":"IqO3iY8_NkMWb4CPxD4Y8_Hf4vQ=","tags":{"amenity":"atm","deposit":"yes","addr:full":"Ул. Търговска №15","addr:country":"BG","name":"Перник","opening_hours":"Mo-Su 00:00-24:00","brand":"Postbank","brand:wikidata":"Q7234083","operator:wikidata":"Q7234083"},"coordinates":[42.6040611,23.0303297]},"tags_mismatch":false,"dist":0},{"osm":false,"atp":{"id":"ngeUD9Y5vJuIedrUOTF1vsFylx0=","tags":{"amenity":"atm","addr:full":"Ул. Търговска №15","addr:country":"BG","name":"Перник II","opening_hours":"Mo-Su 00:00-24:00","brand":"Postbank","brand:wikidata":"Q7234083","operator:wikidata":"Q7234083"},"coordinates":[42.6040611,23.0303297]},"tags_mismatch":false,"dist":0},{"osm":false,"atp":{"id":"GX_8Ce0IUpnzRFthzwOQUwxPLMc=","tags":{"amenity":"atm","addr:full":"Ул. Минск №15","addr:country":"BG","name":"Перник Изток","opening_hours":"Mo-Su 00:00-24:00","brand":"Postbank","brand:wikidata":"Q7234083","operator:wikidata":"Q7234083"},"coordinates":[42.6083472,23.0990667]},"tags_mismatch":false,"dist":0},{"osm":false,"atp":{"id":"IEIdmfXQLmEVNtpTwKmM4JD2cEg=","tags":{"amenity":"atm","deposit":"yes","addr:full":"Ул. Минск №15","addr:country":"BG","name":"Перник Изток II","opening_hours":"Mo-Su 00:00-24:00","brand":"Postbank","brand:wikidata":"Q7234083","operator:wikidata":"Q7234083"},"coordinates":[42.6083472,23.0990667]},"tags_mismatch":false,"dist":0},{"osm":false,"atp":{"id":"tVTvlstaga7ohje4xx8absX400E=","tags":{"amenity":"atm","addr:full":"Ул. Кракра №30","addr:country":"BG","name":"Перник Кракра","opening_hours":"Mo-Su 00:00-24:00","brand":"Postbank","brand:wikidata":"Q7234083","operator:wikidata":"Q7234083"},"coordinates":[42.6032793,23.0278928]},"tags_mismatch":false,"dist":0},{"osm":false,"atp":{"id":"aqF9JKXPTVIOgVz4oaWYa7z6BmQ=","tags":{"amenity":"atm","addr:full":"Ул. Димитър Благоев № 35","addr:country":"BG","name":"Супермаркет Гризли","opening_hours":"Mo-Su 00:00-24:00","brand":"Postbank","brand:wikidata":"Q7234083","operator:wikidata":"Q7234083"},"coordinates":[42.5924541,23.1125815]},"tags_mismatch":false,"dist":0},{"osm":false,"atp":{"id":"FSXZ6pwE0D25iUvEiqWYx8uDx4k=","tags":{"amenity":"atm","addr:full":"ул. Никола Парапанов №2","addr:country":"BG","name":"КООП Петрич","opening_hours":"Mo-Su 00:00-24:00","brand":"Postbank","brand:wikidata":"Q7234083","operator:wikidata":"Q7234083"},"coordinates":[41.39843,23.206452]},"tags_mismatch":false,"dist":0},{"osm":false,"atp":{"id":"LXfQAO4_PyL5Ft7rB6IMXoZ7Y1Y=","tags":{"amenity":"atm","addr:full":"Кулата, Автомагистрала Струма","addr:country":"BG","name":"Казино Феликс","opening_hours":"Mo-Su 00:00-24:00","brand":"Postbank","brand:wikidata":"Q7234083","operator:wikidata":"Q7234083"},"coordinates":[41.382637,23.362083]},"tags_mismatch":false,"dist":0},{"osm":false,"atp":{"id":"s0LRTb9p9kItOkbpH56q7JuCZzE=","tags":{"amenity":"atm","deposit":"yes","addr:full":"ул. Гоце Делчев 12","addr:country":"BG","name":"Петрич","opening_hours":"Mo-Su 00:00-24:00","brand":"Postbank","brand:wikidata":"Q7234083","operator:wikidata":"Q7234083"},"coordinates":[41.39292430959158,23.207633968608846]},"tags_mismatch":false,"dist":0},{"osm":false,"atp":{"id":"2scSWoJ33F9ahc6MqbuV0LafeQU=","tags":{"amenity":"atm","deposit":"yes","addr:full":"Ул. Дойранска епопея №19А","addr:country":"BG","name":"Пещера","opening_hours":"Mo-Su 00:00-24:00","brand":"Postbank","brand:wikidata":"Q7234083","operator:wikidata":"Q7234083"},"coordinates":[42.0298857,24.2987265]},"tags_mismatch":false,"dist":0},{"osm":false,"atp":{"id":"Km32g62Y6rR45I5oMmpkTq3gIGQ=","tags":{"amenity":"atm","deposit":"yes","addr:full":"ул. Васил Левски 139","addr:country":"BG","name":"МикроКредит Плевен","opening_hours":"Mo-Su 00:00-24:00","brand":"Postbank","brand:wikidata":"Q7234083","operator:wikidata":"Q7234083"},"coordinates":[43.413470919682624,24.614383596637843]},"tags_mismatch":false,"dist":0},{"osm":false,"atp":{"id":"b2usY5c6OFkJXq85MYG0oY6fHuM=","tags":{"amenity":"atm","deposit":"yes","addr:full":"Бул. Данаил Попов №18","addr:country":"BG","name":"Плевен","opening_hours":"Mo-Su 00:00-24:00","brand":"Postbank","brand:wikidata":"Q7234083","operator:wikidata":"Q7234083"},"coordinates":[43.4142466,24.6165006]},"tags_mismatch":false,"dist":0},{"osm":false,"atp":{"id":"Hrm416K-3NxccF6I9ApqHwLmZrs=","tags":{"amenity":"atm","addr:full":"Бул. Данаил Попов №18","addr:country":"BG","name":"Плевен II","opening_hours":"Mo-Su 00:00-24:00","brand":"Postbank","brand:wikidata":"Q7234083","operator:wikidata":"Q7234083"},"coordinates":[43.4142466,24.6165006]},"tags_mismatch":false,"dist":0},{"osm":false,"atp":{"id":"jWMDpx8QasbMxyxW2EvfAio0br0=","tags":{"amenity":"atm","addr:full":"Ул. Асен Халачев №11","addr:country":"BG","name":"Плевен Асен Халачев","opening_hours":"Mo-Su 00:00-24:00","brand":"Postbank","brand:wikidata":"Q7234083","operator:wikidata":"Q7234083"},"coordinates":[43.418211,24.613938]},"tags_mismatch":false,"dist":0},{"osm":false,"atp":{"id":"srqGFV3ThHFjHY6Yx8oEsfd3ZeU=","tags":{"amenity":"atm","deposit":"yes","addr:full":"Ул. Дойран 136","addr:country":"BG","name":"Плевен Освобожение","opening_hours":"Mo-Fr 08:30-19:00; Sa-Su 00:00-24:00","brand":"Postbank","brand:wikidata":"Q7234083","operator:wikidata":"Q7234083"},"coordinates":[43.40913910654438,24.616412753345937]},"tags_mismatch":false,"dist":0},{"osm":false,"atp":{"id":"jpnMJF7wB8N47D1-wCq58vDBECw=","tags":{"amenity":"atm","deposit":"yes","addr:full":"Ул. Св. Св. Кирил и Методий № 11","addr:country":"BG","name":"Плевен Център","opening_hours":"Mo-Su 00:00-24:00","brand":"Postbank","brand:wikidata":"Q7234083","operator:wikidata":"Q7234083"},"coordinates":[43.4094152,24.6245901]},"tags_mismatch":false,"dist":0},{"osm":false,"atp":{"id":"ye2VF0dicT2LXTpzW2_A7XyBviQ=","tags":{"amenity":"atm","deposit":"yes","addr:full":"Ул. Св. Св. Кирил и Методий №11","addr:country":"BG","name":"Плевен Център II","brand":"Postbank","brand:wikidata":"Q7234083","operator:wikidata":"Q7234083"},"coordinates":[43.4094152,24.6245901]},"tags_mismatch":false,"dist":0},{"osm":false,"atp":{"id":"z_tLx-BAizuasRZVmFyIV9WqmXg=","tags":{"amenity":"atm","addr:full":"Ул. Княз Борис I №189","addr:country":"BG","name":"Заложна къща Поморие","opening_hours":"Mo-Su 00:00-24:00","brand":"Postbank","brand:wikidata":"Q7234083","operator:wikidata":"Q7234083"},"coordinates":[42.5548176,27.6455124]},"tags_mismatch":false,"dist":0},{"osm":false,"atp":{"id":"rp13SViWy2KoMj7bGmXmmAt5vaY=","tags":{"amenity":"atm","addr:full":"ул. Сливница № 6","addr:country":"BG","name":"Поморие","phone":"42.561044392820186, 27.637978068655798","opening_hours":"Mo-Su 00:00-24:00","brand":"Postbank","brand:wikidata":"Q7234083","operator:wikidata":"Q7234083"},"coordinates":[42.560989,27.63847]},"tags_mismatch":false,"dist":0},{"osm":false,"atp":{"id":"G-5xf1dJ_H5tIkQC6pSSkm3plPo=","tags":{"amenity":"atm","addr:full":"Бул. България №78","addr:country":"BG","name":"Попово","opening_hours":"Mo-Su 00:00-24:00","brand":"Postbank","brand:wikidata":"Q7234083","operator:wikidata":"Q7234083"},"coordinates":[43.348667,26.221577]},"tags_mismatch":false,"dist":0},{"osm":false,"atp":{"id":"gG093Cw4FkPuPmHznLXDWm4M0Uw=","tags":{"amenity":"atm","addr:full":"Ул. Иглика №38","addr:country":"BG","name":"Приморско дел Сол","opening_hours":"Mo-Su 00:00-24:00","brand":"Postbank","brand:wikidata":"Q7234083","operator:wikidata":"Q7234083"},"coordinates":[42.272466,27.751191]},"tags_mismatch":false,"dist":0},{"osm":false,"atp":{"id":"KSkwXQE7dLvet5I39IkJ4uhtBlE=","tags":{"amenity":"atm","addr:full":"Хипермаркет Мастерхаус","addr:country":"BG","name":"Хипермаркет Мастерхаус","opening_hours":"Mo-Sa 08:30-19:45; Su 09:00-19:00","brand":"Postbank","brand:wikidata":"Q7234083","operator:wikidata":"Q7234083"},"coordinates":[42.2683746,27.753286]},"tags_mismatch":false,"dist":0},{"osm":false,"atp":{"id":"rGC37lvyJ1mqoAe4JLPXf_pG5JA=","tags":{"amenity":"atm","deposit":"yes","addr:full":"Ул. Орфей №14","addr:country":"BG","name":"Първомай","opening_hours":"Mo-Su 00:00-24:00","brand":"Postbank","brand:wikidata":"Q7234083","operator:wikidata":"Q7234083"},"coordinates":[42.0969057,25.2204628]},"tags_mismatch":false,"dist":0},{"osm":false,"atp":{"id":"XkAIAckQZTxBFsFW8TuNKsZjkwI=","tags":{"amenity":"atm","addr:full":"Бул. Георги Димитров №5","addr:country":"BG","name":"Раднево","opening_hours":"Mo-Su 00:00-24:00","brand":"Postbank","brand:wikidata":"Q7234083","operator:wikidata":"Q7234083"},"coordinates":[42.2924467,25.9410602]},"tags_mismatch":false,"dist":0},{"osm":false,"atp":{"id":"in17nrfzBMhgk1tT2bfMuzckigw=","tags":{"amenity":"atm","addr:full":"Ул. Дупнишка №18","addr:country":"BG","name":"Строителен хипермаркет","opening_hours":"Mo-Su 00:00-24:00","brand":"Postbank","brand:wikidata":"Q7234083","operator:wikidata":"Q7234083"},"coordinates":[42.5442629,22.9615802]},"tags_mismatch":false,"dist":0},{"osm":false,"atp":{"id":"wwBLKF3lHsPnxPOeVjbEg1LmfBU=","tags":{"amenity":"atm","deposit":"yes","addr:full":"Бул. България №34","addr:country":"BG","name":"Разград","opening_hours":"Mo-Su 00:00-24:00","brand":"Postbank","brand:wikidata":"Q7234083","operator:wikidata":"Q7234083"},"coordinates":[43.5252417,26.5263861]},"tags_mismatch":false,"dist":0},{"osm":false,"atp":{"id":"iNPSaU6tktS7jDtM8m71AXeyax8=","tags":{"amenity":"atm","addr:full":"Кв. Освобождение, блок 67","addr:country":"BG","name":"Разград Север","opening_hours":"Mo-Su 00:00-24:00","brand":"Postbank","brand:wikidata":"Q7234083","operator:wikidata":"Q7234083"},"coordinates":[43.5302792,26.5203593]},"tags_mismatch":false,"dist":0},{"osm":false,"atp":{"id":"AlIfBku_biOUNdqQXA7BtElg9h8=","tags":{"amenity":"atm","addr:country":"BG","name":"Тера Маркет","opening_hours":"Mo-Su 00:00-24:00","brand":"Postbank","brand:wikidata":"Q7234083","operator:wikidata":"Q7234083"},"coordinates":[43.431631,26.525581]},"tags_mismatch":false,"dist":0},{"osm":false,"atp":{"id":"Ihx76Tmx6OIlhgexQHV5odhzWkU=","tags":{"amenity":"atm","addr:full":"Църнако 19, Бетоловото","addr:country":"BG","name":"Terra Complex","opening_hours":"Mo-Su 00:00-24:00","brand":"Postbank","brand:wikidata":"Q7234083","operator:wikidata":"Q7234083"},"coordinates":[41.857,23.414]},"tags_mismatch":false,"dist":0},{"osm":false,"atp":{"id":"hei5QfjtKaeDFR4A9VIbmjvdDhw=","tags":{"amenity":"atm","deposit":"yes","addr:full":"Пл. Преображение №1","addr:country":"BG","name":"Разлог","opening_hours":"Mo-Su 00:00-24:00","brand":"Postbank","brand:wikidata":"Q7234083","operator:wikidata":"Q7234083"},"coordinates":[41.88575,23.466174]},"tags_mismatch":false,"dist":0},{"osm":false,"atp":{"id":"xDuyo5LRe3DaupZgmqVbrAs8ojg=","tags":{"amenity":"atm","addr:full":"Ул. Македония №49","addr:country":"BG","name":"МБАЛ Самоков","opening_hours":"Mo-Su 00:00-24:00","brand":"Postbank","brand:wikidata":"Q7234083","operator:wikidata":"Q7234083"},"coordinates":[42.337124,23.555915]},"tags_mismatch":false,"dist":0},{"osm":false,"atp":{"id":"QbtY5GJdZFB1II5nKfltedYv9FA=","tags":{"amenity":"atm","deposit":"yes","addr:full":"ул. Търговска №35","addr:country":"BG","name":"Самоков","opening_hours":"Mo-Su 00:00-24:00","brand":"Postbank","brand:wikidata":"Q7234083","operator:wikidata":"Q7234083"},"coordinates":[42.33766453027357,23.55743875786778]},"tags_mismatch":false,"dist":0},{"osm":false,"atp":{"id":"EDoSABDhG1G40jQypSf1fqlwM7k=","tags":{"amenity":"atm","addr:full":"Ж.к. Самоково, до бл.30","addr:country":"BG","name":"Супермаркет CBA ","opening_hours":"Mo-Su 00:00-24:00","brand":"Postbank","brand:wikidata":"Q7234083","operator:wikidata":"Q7234083"},"coordinates":[42.332627,23.552793]},"tags_mismatch":false,"dist":0},{"osm":false,"atp":{"id":"BYCwmI5edJJNP1PT3NgY1cavKIU=","tags":{"amenity":"atm","deposit":"yes","addr:full":"Пл. България №2","addr:country":"BG","name":"Сандански","opening_hours":"Mo-Su 00:00-24:00","brand":"Postbank","brand:wikidata":"Q7234083","operator:wikidata":"Q7234083"},"coordinates":[41.56193,23.277293]},"tags_mismatch":false,"dist":0},{"osm":false,"atp":{"id":"OjlOUzwR_U66eeNEDgyXPcXtNUE=","tags":{"amenity":"atm","addr:full":"Ул. Ясен №48","addr:country":"BG","name":"Свети Влас Лазур 2","opening_hours":"Mo-Su 00:00-24:00","brand":"Postbank","brand:wikidata":"Q7234083","operator:wikidata":"Q7234083"},"coordinates":[42.7103776,27.7605643]},"tags_mismatch":false,"dist":0},{"osm":false,"atp":{"id":"RGHdCxBrOnpFjXeUppav__0LeYo=","tags":{"amenity":"atm","addr:full":"Яхтено пристанище Марина Диневи","addr:country":"BG","name":"Хотел Палас","opening_hours":"Mo-Su 00:00-24:00","brand":"Postbank","brand:wikidata":"Q7234083","operator:wikidata":"Q7234083"},"coordinates":[42.7134032,27.7587542]},"tags_mismatch":false,"dist":0},{"osm":false,"atp":{"id":"kaczLOh8uh73U33yuE4BkBoXQEU=","tags":{"amenity":"atm","deposit":"yes","addr:full":"Бул. България №58","addr:country":"BG","name":"Свиленград","opening_hours":"Mo-Su 00:00-24:00","brand":"Postbank","brand:wikidata":"Q7234083","operator:wikidata":"Q7234083"},"coordinates":[41.7693242,26.1892844]},"tags_mismatch":false,"dist":0},{"osm":false,"atp":{"id":"3ABVWqx1b9bEnbynMp8dCWHe1H0=","tags":{"amenity":"atm","addr:full":"Ул.Патриарх Евтимий №103а","addr:country":"BG","name":"БМБ ООД","opening_hours":"Mo-Su 00:00-24:00","brand":"Postbank","brand:wikidata":"Q7234083","operator:wikidata":"Q7234083"},"coordinates":[43.62012,25.34604]},"tags_mismatch":false,"dist":0},{"osm":false,"atp":{"id":"meZyDf_aleB3uZtkW573SRuiAfA=","tags":{"amenity":"atm","deposit":"yes","addr:full":"Ул. Хаджи Димитър №1","addr:country":"BG","name":"Свищов","opening_hours":"Mo-Su 00:00-24:00","brand":"Postbank","brand:wikidata":"Q7234083","operator:wikidata":"Q7234083"},"coordinates":[43.616759681196456,25.34840602680708]},"tags_mismatch":false,"dist":0},{"osm":false,"atp":{"id":"BOdVjpI_iLKKzPtRp5jacb-zOxw=","tags":{"amenity":"atm","addr:full":"Бул. Искър №6Б","addr:country":"BG","name":"ЕКО Своге ","opening_hours":"Mo-Su 00:00-24:00","brand":"Postbank","brand:wikidata":"Q7234083","operator:wikidata":"Q7234083"},"coordinates":[42.961587,23.34718]},"tags_mismatch":false,"dist":0},{"osm":false,"atp":{"id":"KkjFWOpcuFTVm9B-yzvZBL_6WjE=","tags":{"amenity":"atm","deposit":"yes","addr:full":"Пл. Свобода, бл. 22","addr:country":"BG","name":"Севлиево","opening_hours":"Mo-Su 00:00-24:00","brand":"Postbank","brand:wikidata":"Q7234083","operator:wikidata":"Q7234083"},"coordinates":[43.02697831619182,25.103612796617146]},"tags_mismatch":false,"dist":0},{"osm":false,"atp":{"id":"F-jaXYpeysip4yM_yiVAhwUuse4=","tags":{"amenity":"atm","addr:full":"Ул. Любен Каравелов №2В","addr:country":"BG","name":"Коловаг","opening_hours":"Mo-Su 00:00-24:00","brand":"Postbank","brand:wikidata":"Q7234083","operator:wikidata":"Q7234083"},"coordinates":[42.20686,24.13291]},"tags_mismatch":false,"dist":0},{"osm":false,"atp":{"id":"Sn2nW4lZKdHBlN6Zv46n1FZV-2Y=","tags":{"amenity":"atm","addr:full":"Ул. Княз Борис I №11","addr:country":"BG","name":"Супермаркет","opening_hours":"Mo-Su 00:00-24:00","brand":"Postbank","brand:wikidata":"Q7234083","operator:wikidata":"Q7234083"},"coordinates":[42.209675,24.128523]},"tags_mismatch":false,"dist":0},{"osm":false,"atp":{"id":"93fPFMqFay49HNWwZkcQH4fvrm0=","tags":{"amenity":"atm","addr:full":"Бул. България №67","addr:country":"BG","name":"Супермаркет Септември","opening_hours":"Mo-Su 00:00-24:00","brand":"Postbank","brand:wikidata":"Q7234083","operator:wikidata":"Q7234083"},"coordinates":[42.216408,24.125278]},"tags_mismatch":false,"dist":0},{"osm":false,"atp":{"id":"GmKhOn7s3i_f0fLM_wCcb5VGVws=","tags":{"amenity":"atm","addr:full":"бул Велико Търново 56","addr:country":"BG","name":"Енерго - Про Силистра","opening_hours":"Mo-Su 00:00-24:00","brand":"Postbank","brand:wikidata":"Q7234083","operator:wikidata":"Q7234083"},"coordinates":[44.10838468624335,27.25184681148004]},"tags_mismatch":false,"dist":0},{"osm":false,"atp":{"id":"FyVTpj-gWASY_wImf5sbVMYFtVQ=","tags":{"amenity":"atm","deposit":"yes","addr:full":"Ул. Симеон Велики №24","addr:country":"BG","name":"Силистра","opening_hours":"Mo-Su 00:00-24:00","brand":"Postbank","brand:wikidata":"Q7234083","operator:wikidata":"Q7234083"},"coordinates":[44.116832,27.260293]},"tags_mismatch":false,"dist":0},{"osm":false,"atp":{"id":"BYSzlIX75QZ1qzEvJkcVhE8NzH8=","tags":{"amenity":"atm","deposit":"yes","addr:full":"УЛ.\"КОНСТАНТИН СТОИЛОВ\" 30","addr:country":"BG","name":"Сливен Пазара","opening_hours":"Mo-Su 00:00-24:00","brand":"Postbank","brand:wikidata":"Q7234083","operator:wikidata":"Q7234083"},"coordinates":[42.67894540389502,26.322000584755447]},"tags_mismatch":false,"dist":0},{"osm":false,"atp":{"id":"i4OBX5NVFXuvmP9g-dT8sHOEmoU=","tags":{"amenity":"atm","addr:full":"Бул. Панайот Хитов №18","addr:country":"BG","name":"Супермаркет Сливен","opening_hours":"Mo-Su 00:00-24:00","brand":"Postbank","brand:wikidata":"Q7234083","operator:wikidata":"Q7234083"},"coordinates":[42.6872342,26.331513]},"tags_mismatch":false,"dist":0},{"osm":false,"atp":{"id":"59iyWPd0NXT9fmzA-8BVrdSDFe4=","tags":{"amenity":"atm","addr:full":"Автогара","addr:country":"BG","name":"Автогара","opening_hours":"Mo-Su 00:00-24:00","brand":"Postbank","brand:wikidata":"Q7234083","operator:wikidata":"Q7234083"},"coordinates":[42.6951525,27.7104213]},"tags_mismatch":false,"dist":0},{"osm":false,"atp":{"id":"ODlim-0JYkGcL882CTR66a39Yxc=","tags":{"amenity":"atm","addr:full":"Слънчев Бряг, х-л Гранд Виктория","addr:country":"BG","name":"Гранд Виктория","opening_hours":"Mo-Su 00:00-24:00","brand":"Postbank","brand:wikidata":"Q7234083","operator:wikidata":"Q7234083"},"coordinates":[42.69988805743347,27.717544997965984]},"tags_mismatch":false,"dist":0},{"osm":false,"atp":{"id":"KjrytyrIUroGpf3Zj5KOyATZWrk=","tags":{"amenity":"atm","addr:full":"КК Слънчев бряг, хотел „Авеню“","addr:country":"BG","name":"Изипей Слънчев бряг","opening_hours":"Mo-Su 00:00-24:00","brand":"Postbank","brand:wikidata":"Q7234083","operator:wikidata":"Q7234083"},"coordinates":[42.69717621972322,27.71160449824876]},"tags_mismatch":false,"dist":0},{"osm":false,"atp":{"id":"iFDQ6xlRWNCMy4sfL4k5LAAYHaA=","tags":{"amenity":"atm","addr:full":"kk Слънчев бряг - Platinum Casino & Hotel до хотел Еврика пешеходна алея","addr:country":"BG","name":"Платинум Казино и Хотел","brand":"Postbank","brand:wikidata":"Q7234083","operator:wikidata":"Q7234083"},"coordinates":[42.703893,27.721105]},"tags_mismatch":false,"dist":0},{"osm":false,"atp":{"id":"3HIy68fF-UPq6hj-LP8YnFtfycc=","tags":{"amenity":"atm","addr:full":"kk Слънчев бряг - Platinum Casino & Hotel до хотел Еврика пешеходна алея","addr:country":"BG","name":"Платинум Казино и хотел 2","opening_hours":"Mo-Su 00:00-24:00","brand":"Postbank","brand:wikidata":"Q7234083","operator:wikidata":"Q7234083"},"coordinates":[42.704672,27.721979]},"tags_mismatch":false,"dist":0},{"osm":false,"atp":{"id":"ct893BNSE3SwBOLKMyXguCSfS98=","tags":{"amenity":"atm","addr:full":"Слънчев Бряг, 8240 Несебър","addr:country":"BG","name":"Хотел Tia Maria","opening_hours":"Mo-Su 00:00-24:00","brand":"Postbank","brand:wikidata":"Q7234083","operator:wikidata":"Q7234083"},"coordinates":[42.6868371815537,27.705203929223753]},"tags_mismatch":false,"dist":0},{"osm":false,"atp":{"id":"Rl0l7KX3Bj64cUIsawE8_3Im_-A=","tags":{"amenity":"atm","addr:full":"Базар Лотус, ул. Осма","addr:country":"BG","name":"хотел Лотос ","opening_hours":"Mo-Su 00:00-24:00","brand":"Postbank","brand:wikidata":"Q7234083","operator:wikidata":"Q7234083"},"coordinates":[42.68469360478451,27.70910439659885]},"tags_mismatch":false,"dist":0},{"osm":false,"atp":{"id":"NWLDTh0Bch5f7ZlNc2x60Zd3HXY=","tags":{"amenity":"atm","addr:full":"кв. Устово, ул. „Ат. Шпарданов“21","addr:country":"BG","name":"Магазин за цветя ","opening_hours":"Mo-Su 00:00-24:00","brand":"Postbank","brand:wikidata":"Q7234083","operator:wikidata":"Q7234083"},"coordinates":[41.57259757538985,24.78331541142141]},"tags_mismatch":false,"dist":0},{"osm":false,"atp":{"id":"Is0OfDKZbScpxiuvknXtoO3BUnQ=","tags":{"amenity":"atm","deposit":"yes","addr:full":"Бул. България № 42","addr:country":"BG","name":"Смолян","opening_hours":"Mo-Su 00:00-24:00","brand":"Postbank","brand:wikidata":"Q7234083","operator:wikidata":"Q7234083"},"coordinates":[41.5773692,24.6992441]},"tags_mismatch":false,"dist":0},{"osm":false,"atp":{"id":"Opf36bgVPupHanaxWfVS5167MHc=","tags":{"amenity":"atm","addr:full":"Грийн лайф Созопол","addr:country":"BG","name":"Грийн лайф Созопол","opening_hours":"Mo-Su 00:00-24:00","brand":"Postbank","brand:wikidata":"Q7234083","operator:wikidata":"Q7234083"},"coordinates":[42.41737,27.69636]},"tags_mismatch":false,"dist":0},{"osm":false,"atp":{"id":"DrXbD8rM0XoTFLkcXGasILQtpqE=","tags":{"amenity":"atm","deposit":"yes","addr:full":"ул. „Черно море“ 2","addr:country":"BG","name":"Созопол","opening_hours":"Mo-Su 00:00-24:00","brand":"Postbank","brand:wikidata":"Q7234083","operator:wikidata":"Q7234083"},"coordinates":[42.41925404893389,27.6943498397153]},"tags_mismatch":false,"dist":0},{"osm":false,"atp":{"id":"yLLQxjrb7DL93X4s6A_GqhCr5Ws=","tags":{"amenity":"atm","addr:full":"бул. „Иван Вазов“ 53","addr:country":"BG","name":"Народно читалище","opening_hours":"Mo-Su 00:00-24:00","brand":"Postbank","brand:wikidata":"Q7234083","operator:wikidata":"Q7234083"},"coordinates":[42.654310792320715,24.7572675947477]},"tags_mismatch":false,"dist":0},{"osm":false,"atp":{"id":"d42mZXc9SZjRYEpmN2dcW8MQVzM=","tags":{"amenity":"atm","addr:full":"Ул. Васил Коларов №73","addr:country":"BG","name":"Заложна къща Средец","opening_hours":"Mo-Su 00:00-24:00","brand":"Postbank","brand:wikidata":"Q7234083","operator:wikidata":"Q7234083"},"coordinates":[42.344856,27.18162]},"tags_mismatch":false,"dist":0},{"osm":false,"atp":{"id":"rwejg4kAUfo4y_MDRpQoj7N2GUo=","tags":{"amenity":"atm","deposit":"yes","addr:full":"Пл. България № 5","addr:country":"BG","name":"Средец","opening_hours":"Mo-Su 00:00-24:00","brand":"Postbank","brand:wikidata":"Q7234083","operator:wikidata":"Q7234083"},"coordinates":[42.34695928373138,27.181544083991778]},"tags_mismatch":false,"dist":0},{"osm":false,"atp":{"id":"9YTSbSdDrJo4gXg4BraRILrSyiw=","tags":{"amenity":"atm","addr:full":"бул. Руски 75","addr:country":"BG","name":"Easy Pay Стара Загора","opening_hours":"Mo-Su 00:00-24:00","brand":"Postbank","brand:wikidata":"Q7234083","operator:wikidata":"Q7234083"},"coordinates":[42.43170144166294,25.62574262707873]},"tags_mismatch":false,"dist":0},{"osm":false,"atp":{"id":"AJOMHbswn_DxzHkzIacPigd-MKo=","tags":{"amenity":"atm","deposit":"yes","addr:full":"Бул. Цар Симеон Велики №107А","addr:country":"BG","name":"Стара Загора Верея ","opening_hours":"Mo-Su 00:00-24:00","brand":"Postbank","brand:wikidata":"Q7234083","operator:wikidata":"Q7234083"},"coordinates":[42.42432339918611,25.62532642890832]},"tags_mismatch":false,"dist":0},{"osm":false,"atp":{"id":"ULzXhOmMuBf5Ta8etuomufXAAxQ=","tags":{"amenity":"atm","deposit":"yes","addr:full":"Бул. Цар Симеон Велики №107А","addr:country":"BG","name":"Стара Загора Верея II","opening_hours":"Mo-Fr 08:30-17:00","brand":"Postbank","brand:wikidata":"Q7234083","operator:wikidata":"Q7234083"},"coordinates":[42.42431547949139,25.625347886580403]},"tags_mismatch":false,"dist":0},{"osm":false,"atp":{"id":"If1lvrjSIn9237SdqbQH2X7QbbY=","tags":{"amenity":"atm","deposit":"yes","addr:full":"бул. Св. Патриарх Евтимий №130","addr:country":"BG","name":"Стара Загора Север","opening_hours":"Mo-Su 00:00-24:00","brand":"Postbank","brand:wikidata":"Q7234083","operator:wikidata":"Q7234083"},"coordinates":[42.428347582242274,25.63392448304908]},"tags_mismatch":false,"dist":0},{"osm":false,"atp":{"id":"4zOmjzP4SxeepFLn8BuS4zhr9pE=","tags":{"amenity":"atm","deposit":"yes","addr:full":"Ул. Любен Каравелов №65","addr:country":"BG","name":"Стара Загора Цар Симеон","opening_hours":"Mo-Su 00:00-24:00","brand":"Postbank","brand:wikidata":"Q7234083","operator:wikidata":"Q7234083"},"coordinates":[42.426015,25.63773]},"tags_mismatch":false,"dist":0},{"osm":false,"atp":{"id":"H7SDGDaoddY5dv374H4cVbmai3A=","tags":{"amenity":"atm","addr:full":"с. Стряма, местност Преселник, бензиностанция ИнсаОйл","addr:country":"BG","name":"ИнсаОйл Стряма","opening_hours":"Mo-Su 00:00-24:00","brand":"Postbank","brand:wikidata":"Q7234083","operator:wikidata":"Q7234083"},"coordinates":[42.26634770001907,24.892009933392366]},"tags_mismatch":false,"dist":0},{"osm":false,"atp":{"id":"z4DaRFWXlAs_R_6oMvOlKIhykCI=","tags":{"amenity":"atm","addr:full":"Ул. Шипка №8","addr:country":"BG","name":"Супермаркет ЕТ Шени","opening_hours":"Mo-Su 00:00-24:00","brand":"Postbank","brand:wikidata":"Q7234083","operator:wikidata":"Q7234083"},"coordinates":[43.328889,27.589448]},"tags_mismatch":false,"dist":0},{"osm":false,"atp":{"id":"EVh5a6bMMmtpDXnVXVKaaY_KyBM=","tags":{"amenity":"atm","deposit":"yes","addr:full":"бул. „6-ти Септември“ 13","addr:country":"BG","name":"Община Съединение","opening_hours":"Mo-Su 00:00-24:00","brand":"Postbank","brand:wikidata":"Q7234083","operator:wikidata":"Q7234083"},"coordinates":[42.27470758266782,24.543383298151557]},"tags_mismatch":false,"dist":0},{"osm":false,"atp":{"id":"y67m-R-oofe_ucwbnnJ5dvqSh7w=","tags":{"amenity":"atm","addr:full":"Ул. Цар Калоян №1","addr:country":"BG","name":"Тервел","opening_hours":"Mo-Su 00:00-24:00","brand":"Postbank","brand:wikidata":"Q7234083","operator:wikidata":"Q7234083"},"coordinates":[43.748799,27.4073506]},"tags_mismatch":false,"dist":0},{"osm":false,"atp":{"id":"IMupPPM3lcp6q3VMF2v4Dtdq9TQ=","tags":{"amenity":"atm","addr:full":"Ул. Цар Калоян №1","addr:country":"BG","name":"Тервел","opening_hours":"Mo-Su 00:00-24:00","brand":"Postbank","brand:wikidata":"Q7234083","operator:wikidata":"Q7234083"},"coordinates":[43.74905777,27.40705681]},"tags_mismatch":false,"dist":0},{"osm":false,"atp":{"id":"bn_dneQuRhC09bTxYfVEBbJZj_Q=","tags":{"amenity":"atm","deposit":"yes","addr:full":"Ул. Иван Вазов №39","addr:country":"BG","name":"NEW Тетевен","opening_hours":"Mo-Su 00:00-24:00","brand":"Postbank","brand:wikidata":"Q7234083","operator:wikidata":"Q7234083"},"coordinates":[42.9180056,24.266375]},"tags_mismatch":false,"dist":0},{"osm":false,"atp":{"id":"bYMf1vAjbh9Cr6CIG57R0YYZrtk=","tags":{"amenity":"atm","deposit":"yes","addr:full":"ул. Васил Левски 76","addr:country":"BG","name":"Троян","opening_hours":"Mo-Su 00:00-24:00","brand":"Postbank","brand:wikidata":"Q7234083","operator:wikidata":"Q7234083"},"coordinates":[42.8905487,24.715165]},"tags_mismatch":false,"dist":0},{"osm":false,"atp":{"id":"sbRs7oMp62LBLpjwgaI_-j025Dg=","tags":{"amenity":"atm","addr:full":"Рудник Трояново","addr:country":"BG","name":"Рудник Трояново","opening_hours":"Mo-Su 00:00-24:00","brand":"Postbank","brand:wikidata":"Q7234083","operator:wikidata":"Q7234083"},"coordinates":[42.195842,25.957947]},"tags_mismatch":false,"dist":0},{"osm":false,"atp":{"id":"Wc5SmLx-lWNaxuE2KPospOiCtx4=","tags":{"amenity":"atm","addr:full":"гр. Трявна; ул. Ангел Кънчев 22","addr:country":"BG","name":"Български пощи Трявна ","opening_hours":"Mo-Su 00:00-24:00","brand":"Postbank","brand:wikidata":"Q7234083","operator:wikidata":"Q7234083"},"coordinates":[42.86622,25.49051]},"tags_mismatch":false,"dist":0},{"osm":false,"atp":{"id":"BLr6_5Otz2a4oW7c72gKwovLMAc=","tags":{"amenity":"atm","addr:full":"кв. Въбел, ул. Ал. Стамболийски","addr:country":"BG","name":"Shell Търговище","opening_hours":"Mo-Su 00:00-24:00","brand":"Postbank","brand:wikidata":"Q7234083","operator:wikidata":"Q7234083"},"coordinates":[43.25718,26.531627]},"tags_mismatch":false,"dist":0},{"osm":false,"atp":{"id":"-YZ7jxAqDHNusKtAjz2KqIpp5Gg=","tags":{"amenity":"atm","addr:full":"Бул. Сюрен 1","addr:country":"BG","name":"Аптека Панацея","brand":"Postbank","brand:wikidata":"Q7234083","operator:wikidata":"Q7234083"},"coordinates":[43.243088,26.56247]},"tags_mismatch":false,"dist":0},{"osm":false,"atp":{"id":"53bcQWokoGreyJOOVFCRYla10Ws=","tags":{"amenity":"atm","deposit":"yes","addr:full":"ул. Цар Иван Асен №1","addr:country":"BG","name":"Търговище","opening_hours":"Mo-Su 00:00-24:00","brand":"Postbank","brand:wikidata":"Q7234083","operator:wikidata":"Q7234083"},"coordinates":[43.24953782214386,26.57222396911503]},"tags_mismatch":false,"dist":0},{"osm":false,"atp":{"id":"g_Vqi9bxuYPCi-gkyte6iBjPIig=","tags":{"amenity":"atm","addr:full":"Пл. Независимост №1","addr:country":"BG","name":"Търговище II","opening_hours":"Mo-Su 00:00-24:00","brand":"Postbank","brand:wikidata":"Q7234083","operator:wikidata":"Q7234083"},"coordinates":[43.2493556,26.5727357]},"tags_mismatch":false,"dist":0},{"osm":false,"atp":{"id":"0iLnQxB554NcLxOyOh0w9AuskKs=","tags":{"amenity":"atm","deposit":"yes","addr:full":"Ул. Ханска №2","addr:country":"BG","name":"Харманли","opening_hours":"Mo-Su 00:00-24:00","brand":"Postbank","brand:wikidata":"Q7234083","operator:wikidata":"Q7234083"},"coordinates":[41.930404089217284,25.902484696559046]},"tags_mismatch":false,"dist":0},{"osm":false,"atp":{"id":"Ttvhqbni_HbDOAFeQNkKzxDE8T4=","tags":{"amenity":"atm","addr:full":"бул. Съединение 22А","addr:country":"BG","name":"Братя Дочеви ООД","opening_hours":"Mo-Su 00:00-24:00","brand":"Postbank","brand:wikidata":"Q7234083","operator:wikidata":"Q7234083"},"coordinates":[41.93128,25.55721]},"tags_mismatch":false,"dist":0},{"osm":false,"atp":{"id":"MxyWY1A22090ZyAo6YCd5k-Ao6g=","tags":{"amenity":"atm","addr:full":"Ул. Сакар №2","addr:country":"BG","name":"ВИК","opening_hours":"Mo-Su 00:00-24:00","brand":"Postbank","brand:wikidata":"Q7234083","operator:wikidata":"Q7234083"},"coordinates":[41.93128,25.55721]},"tags_mismatch":false,"dist":0},{"osm":false,"atp":{"id":"_nE7JAf_u-6HaR-g4yFYFml6pLM=","tags":{"amenity":"atm","addr:full":"Ул. Омуртаг №2","addr:country":"BG","name":"РУМИС АБАГАР ЕООД","opening_hours":"Mo-Su 00:00-24:00","brand":"Postbank","brand:wikidata":"Q7234083","operator:wikidata":"Q7234083"},"coordinates":[41.93128,25.55721]},"tags_mismatch":false,"dist":0},{"osm":false,"atp":{"id":"o4cyQsIG5j51jAplfRlbPb772jw=","tags":{"amenity":"atm","deposit":"yes","addr:full":"пл. Свобода 7","addr:country":"BG","name":"Хасково Свобода","opening_hours":"Mo-Su 00:00-24:00","brand":"Postbank","brand:wikidata":"Q7234083","operator:wikidata":"Q7234083"},"coordinates":[41.933455153448776,25.557666686885124]},"tags_mismatch":false,"dist":0},{"osm":false,"atp":{"id":"ZJ4EzcsPeimHG8RuavknwFhQ1oE=","tags":{"amenity":"atm","addr:full":"пл. „Градска Болница“ 1","addr:country":"BG","name":"площад Градска болница","opening_hours":"Mo-Su 00:00-24:00","brand":"Postbank","brand:wikidata":"Q7234083","operator:wikidata":"Q7234083"},"coordinates":[41.93041939828889,25.556615667816594]},"tags_mismatch":false,"dist":0},{"osm":false,"atp":{"id":"r9DyJoQs_Su2u0SyT16_L0gcPPw=","tags":{"amenity":"atm","addr:full":"Ул. Генерал Гурко №25","addr:country":"BG","name":"Хисаря","opening_hours":"Mo-Su 00:00-24:00","brand":"Postbank","brand:wikidata":"Q7234083","operator:wikidata":"Q7234083"},"coordinates":[42.505975,24.708278]},"tags_mismatch":false,"dist":0},{"osm":false,"atp":{"id":"x7sptcNAze6rVK7USOw_UP0nlUM=","tags":{"amenity":"atm","deposit":"yes","addr:full":"Ул. Търговска №12А","addr:country":"BG","name":"Червен бряг","opening_hours":"Mo-Su 00:00-24:00","brand":"Postbank","brand:wikidata":"Q7234083","operator:wikidata":"Q7234083"},"coordinates":[43.1327945,24.7161057]},"tags_mismatch":false,"dist":0},{"osm":false,"atp":{"id":"c9Al2VdU-5wlI_JnX-GWKgGZAG0=","tags":{"amenity":"atm","addr:full":"М. Капсиди №22, землище на с.Чучулигово, Автомагистрала Струма (Гърция - София)","addr:country":"BG","name":"Казино FBET","opening_hours":"Mo-Su 00:00-24:00","brand":"Postbank","brand:wikidata":"Q7234083","operator:wikidata":"Q7234083"},"coordinates":[41.3932538,23.3588494]},"tags_mismatch":false,"dist":0},{"osm":false,"atp":{"id":"W1fb_8qKgwzxKZ-YyA8lWwl9if4=","tags":{"amenity":"atm","addr:full":"бул. Плиска 1","addr:country":"BG","name":"Енерго-про Шумен","opening_hours":"Mo-Su 00:24-00:24","brand":"Postbank","brand:wikidata":"Q7234083","operator:wikidata":"Q7234083"},"coordinates":[43.272296254922956,26.93904639736631]},"tags_mismatch":false,"dist":0},{"osm":false,"atp":{"id":"FRqSBZR-GZCmDuFvSEjPL8WtgZ8=","tags":{"amenity":"atm","addr:full":"Бул. Мадара №31","addr:country":"BG","name":"Магазин РИНО","opening_hours":"Mo-Su 00:00-24:00","brand":"Postbank","brand:wikidata":"Q7234083","operator:wikidata":"Q7234083"},"coordinates":[43.2696814,26.9425307]},"tags_mismatch":false,"dist":0},{"osm":false,"atp":{"id":"EitBY-usBnx2sxVJClG5AF73FBc=","tags":{"amenity":"atm","addr:full":"Бул. Симеон Велики №41","addr:country":"BG","name":"Супермаркет Ешрефоглу","opening_hours":"Mo-Sa 07:30-21:00; Su 08:30-21:00","brand":"Postbank","brand:wikidata":"Q7234083","operator:wikidata":"Q7234083"},"coordinates":[43.276667,26.950712]},"tags_mismatch":false,"dist":0},{"osm":false,"atp":{"id":"NEJrFXhvt0w-0aqwk6mp-Ucrb0E=","tags":{"amenity":"atm","addr:full":"Кв. Боян Българанов, ул. Ген. Драгомиров","addr:country":"BG","name":"Супермаркет Юнион 2","opening_hours":"Mo-Su 00:00-24:00","brand":"Postbank","brand:wikidata":"Q7234083","operator:wikidata":"Q7234083"},"coordinates":[43.2712398,26.9361286]},"tags_mismatch":false,"dist":0},{"osm":false,"atp":{"id":"jRehnL-ldpGnRiOiDY91gd1l1uM=","tags":{"amenity":"atm","addr:full":"бул. „Славянски“ 88","addr:country":"BG","name":"Хранителни добавки","opening_hours":"Mo-Su 00:00-24:00","brand":"Postbank","brand:wikidata":"Q7234083","operator:wikidata":"Q7234083"},"coordinates":[43.27101928866693,26.924223257651455]},"tags_mismatch":false,"dist":0},{"osm":false,"atp":{"id":"Ici7Wxed42TrNYl4Yj1D87s0n1o=","tags":{"amenity":"atm","deposit":"yes","addr:full":"Пл. България №1","addr:country":"BG","name":"Шумен България","opening_hours":"Mo-Su 00:00-24:00","brand":"Postbank","brand:wikidata":"Q7234083","operator:wikidata":"Q7234083"},"coordinates":[43.2719086,26.935131]},"tags_mismatch":false,"dist":0},{"osm":false,"atp":{"id":"6PEXIEvLex9lpJtvjG30IG12pMQ=","tags":{"amenity":"atm","deposit":"yes","addr:full":"ул. Цар Освободител №103","addr:country":"BG","name":"Шумен Цар Освободител","opening_hours":"Mo-Su 00:00-24:00","brand":"Postbank","brand:wikidata":"Q7234083","operator:wikidata":"Q7234083"},"coordinates":[43.27240178445954,26.92644496942581]},"tags_mismatch":false,"dist":0},{"osm":false,"atp":{"id":"12JJPQyVEv5jW2Q2uDftv9_PCZs=","tags":{"amenity":"atm","addr:full":"Ул. Преслав №82","addr:country":"BG","name":" Бърз Кредит ЕООД","opening_hours":"Mo-Su 00:00-24:00","brand":"Postbank","brand:wikidata":"Q7234083","operator:wikidata":"Q7234083"},"coordinates":[42.48377,26.51077]},"tags_mismatch":false,"dist":0},{"osm":false,"atp":{"id":"hAxBfcYUbJa5mvs4ujQsA5I4lHA=","tags":{"amenity":"atm","addr:full":"ТЦ Ямбол парк","addr:country":"BG","name":"Диана кабел ","opening_hours":"Mo-Su 00:00-24:00","brand":"Postbank","brand:wikidata":"Q7234083","operator:wikidata":"Q7234083"},"coordinates":[42.4786694528685,26.518249259241237]},"tags_mismatch":false,"dist":0},{"osm":false,"atp":{"id":"QECeQclsYVbZQNQ5NAU-YTPMy8g=","tags":{"amenity":"atm","deposit":"yes","addr:full":"Ул. Георги Дражев №5","addr:country":"BG","name":"Ямбол Георги Дражев","opening_hours":"Mo-Su 00:00-24:00","brand":"Postbank","brand:wikidata":"Q7234083","operator:wikidata":"Q7234083"},"coordinates":[42.4840948,26.5041614]},"tags_mismatch":false,"dist":0},{"osm":false,"atp":{"id":"qIX1E4i_5xQxaQJaTi9H4JEGjb4=","tags":{"amenity":"atm","addr:full":"Ул. Георги Димитров №17","addr:country":"BG","name":"Супермаркет Джими","opening_hours":"Mo-Su 00:00-24:00","brand":"Postbank","brand:wikidata":"Q7234083","operator:wikidata":"Q7234083"},"coordinates":[43.429407,24.522653]},"tags_mismatch":false,"dist":0},{"osm":false,"atp":{"id":"iEh3uLTJpg4ohaBVLrV3FOfRQqs=","tags":{"amenity":"atm","addr:full":"Ул. Георги Димитров №2","addr:country":"BG","name":"Супермаркет Десиан","opening_hours":"Mo-Su 00:00-24:00","brand":"Postbank","brand:wikidata":"Q7234083","operator:wikidata":"Q7234083"},"coordinates":[41.461755,23.221999]},"tags_mismatch":false,"dist":0},{"osm":false,"atp":{"id":"dH8G97aY2PiHi9PkwVaMc2_bgZc=","tags":{"amenity":"atm","addr:full":"Ул. Мануш Войвода №2","addr:country":"BG","name":"Оки Консулт","opening_hours":"Mo-Su 00:00-24:00","brand":"Postbank","brand:wikidata":"Q7234083","operator:wikidata":"Q7234083"},"coordinates":[41.401244,23.13821]},"tags_mismatch":false,"dist":0}]}