{"metadata":{"type":"brand","wikidata":"Q24315","name":"Петрол","compare_keys":["phone","opening_hours"]},"data":[{"osm":{"type":"node","id":30361106,"tags":{"amenity":"fuel","brand":"Петрол","brand:wikidata":"Q24315"},"wikidata":"Q24315","coordinates":[42.8227811,22.6316904]},"atp":{"id":"PnBsE6YN3yeQPvhlbJKG_Tf8ONk=","tags":{"ref":"7308","amenity":"fuel","addr:street_address":"ул. Денчо Знеполски №94</br>изход за ГКПП","addr:city":"Трън","addr:country":"BG","name":"Трън","phone":"+359 88 522 0468","opening_hours":"Mo-Su 07:30-18:30","brand":"Petrol","brand:wikidata":"Q24315"},"coordinates":[42.82285,22.63177]},"dist":10.042,"tags_mismatch":true},{"osm":{"type":"node","id":254476717,"tags":{"addr:city":"София","amenity":"fuel","brand":"Петрол","brand:wikidata":"Q24315","fuel:diesel":"yes","fuel:lpg":"yes","fuel:octane_95":"yes"},"wikidata":"Q24315","coordinates":[42.735831,23.2464853]},"atp":{"id":"6S_ljeq1jiYMShhcxFTlHExIvs8=","tags":{"ref":"7125","amenity":"fuel","addr:street_address":"бул. Сливница №512</br>Милево ханче","addr:city":"София","addr:country":"BG","name":"София: Сливница","phone":"+359 88 522 0418","opening_hours":"Mo-Su 00:00-24:00","brand":"Petrol","brand:wikidata":"Q24315"},"coordinates":[42.73585,23.24652]},"dist":3.535,"tags_mismatch":true},{"osm":{"type":"node","id":254476797,"tags":{"addr:street":"бул. Драган Цанков","amenity":"fuel","brand":"Петрол","brand:wikidata":"Q24315","compressed_air":"yes","opening_hours":"24/7"},"wikidata":"Q24315","coordinates":[42.6656436,23.3540695]},"atp":{"id":"TD229FkGqyQEeXCJBSRU-Ap76B0=","tags":{"ref":"7129","amenity":"fuel","addr:street_address":"бул. Драган Цанков</br>срещу КАТ","addr:city":"София","addr:country":"BG","name":"София: КАТ","phone":"+359 88 522 0422","opening_hours":"Mo-Su 00:00-24:00","brand":"Petrol","brand:wikidata":"Q24315"},"coordinates":[42.66557,23.35416]},"dist":11.033,"tags_mismatch":true},{"osm":{"type":"node","id":254476873,"tags":{"amenity":"fuel","brand":"Петрол","brand:wikidata":"Q24315"},"wikidata":"Q24315","coordinates":[42.718649,23.2356834]},"atp":{"id":"avUtaxEDVmW84v1hcCoCaFWHXbs=","tags":{"ref":"0102","amenity":"fuel","addr:street_address":"бул. Св. Димитър Солунски<br/> изход за София","addr:city":"Благоевград","addr:country":"BG","name":"Благоевград","phone":"+359 88 530 3965","opening_hours":"Mo-Su 00:00-24:00","brand":"Petrol","brand:wikidata":"Q24315"},"coordinates":[42.0174,23.07977]},"tags_mismatch":true},{"osm":{"type":"node","id":254476888,"tags":{"amenity":"fuel","brand":"Петрол","brand:wikidata":"Q24315","self_service":"yes"},"wikidata":"Q24315","coordinates":[42.696517,23.2812236]},"atp":{"id":"x9_PMQWGwnvw93zjVgANeE4rf0s=","tags":{"ref":"0103","amenity":"fuel","addr:street_address":"ул. Г. Димитров №1</br>изход Благоевград","addr:city":"Симитли","addr:country":"BG","name":"Симитли","phone":"+359 88 530 3966","opening_hours":"Mo-Su 00:00-24:00","brand":"Petrol","brand:wikidata":"Q24315"},"coordinates":[41.8976,23.11577]},"tags_mismatch":true},{"osm":{"type":"node","id":254476907,"tags":{"addr:city":"София","addr:street":"бул. Проф. Цветан Лазаров","amenity":"fuel","brand":"Петрол","brand:wikidata":"Q24315"},"wikidata":"Q24315","coordinates":[42.675907,23.3799568]},"atp":{"id":"tCjKct3zjpAW0N9xF1aT3roy1Ak=","tags":{"ref":"7121","amenity":"fuel","addr:street_address":"кв. Слатина","addr:city":"София","addr:country":"BG","name":"София: Слатина","phone":"+359 88 522 0415","opening_hours":"Mo-Su 00:00-24:00","brand":"Petrol","brand:wikidata":"Q24315"},"coordinates":[42.67588,23.37985]},"dist":9.233,"tags_mismatch":true},{"osm":{"type":"node","id":254476908,"tags":{"amenity":"fuel","brand":"Петрол","brand:wikidata":"Q24315","opening_hours":"24/7","website":"https://www.petrol.bg/"},"wikidata":"Q24315","coordinates":[42.7031259,23.2975007]},"atp":{"id":"EkYiq893ln2D71wYRYSwLzWekZA=","tags":{"ref":"0104","amenity":"fuel","addr:street_address":"гл. път Е79</br>изход Кула","addr:city":"Кресна","addr:country":"BG","name":"Кресна","phone":"+359 88 530 3967","opening_hours":"Mo-Su 00:00-24:00","brand":"Petrol","brand:wikidata":"Q24315"},"coordinates":[41.71294,23.17127]},"tags_mismatch":true},{"osm":{"type":"node","id":276350264,"tags":{"amenity":"fuel","brand":"Петрол","brand:wikidata":"Q24315","opening_hours":"PH,Mo-Su 00:00-24:00"},"wikidata":"Q24315","coordinates":[42.6009622,23.1305167]},"atp":{"id":"ydXoByFl40KGGKx2awciVj_zl0A=","tags":{"ref":"7311","amenity":"fuel","addr:street_address":"гл. път Е79</br>Перник – София","addr:city":"Драгичево","addr:country":"BG","name":"Драгичево","phone":"+359 88 522 0471","opening_hours":"Mo-Su 00:00-24:00","brand":"Petrol","brand:wikidata":"Q24315"},"coordinates":[42.60095,23.1306]},"dist":6.952,"tags_mismatch":true},{"osm":{"type":"node","id":276707217,"tags":{"amenity":"fuel","brand":"Петрол","brand:wikidata":"Q24315"},"wikidata":"Q24315","coordinates":[43.524253,26.5573221]},"atp":{"id":"SQ6i6eJJWjjEcflHBa8XiqLIsl8=","tags":{"ref":"6202","amenity":"fuel","addr:street_address":"гл. път Е70</br>Русе – Варна","addr:city":"Разград","addr:country":"BG","name":"Разград","phone":"+359 88 530 3624","opening_hours":"Mo-Su 00:00-24:00","brand":"Petrol","brand:wikidata":"Q24315"},"coordinates":[43.52417,26.55728]},"dist":9.834,"tags_mismatch":true},{"osm":{"type":"node","id":278616386,"tags":{"amenity":"fuel","brand":"Петрол","brand:wikidata":"Q24315","opening_hours":"24/7","phone":"+359 88 530 3974","wheelchair":"limited"},"wikidata":"Q24315","coordinates":[41.8444431,23.4835987]},"atp":{"id":"HcsNq_-d3OhSGQv16yBgurDAPus=","tags":{"ref":"0113","amenity":"fuel","addr:street_address":"ул. Патриарх Евтимий</br>вход Благоевград","addr:city":"Банско","addr:country":"BG","name":"Банско","phone":"+359 88 530 3974","opening_hours":"Mo-Su 00:00-24:00","brand":"Petrol","brand:wikidata":"Q24315"},"coordinates":[41.8444226,23.4836754]},"dist":6.75,"tags_mismatch":true},{"osm":{"type":"node","id":287294262,"tags":{"amenity":"fuel","brand":"Петрол","brand:wikidata":"Q24315"},"wikidata":"Q24315","coordinates":[41.9408494,24.190123]},"atp":{"id":"tVfBZXKJbSmH-0_XetefpjXc3Ps=","tags":{"ref":"5210","amenity":"fuel","addr:street_address":"местност Превала","addr:city":"Батак","addr:country":"BG","name":"Батак","phone":"+359 88 530 3275","opening_hours":"Mo-Su 07:00-19:00","brand":"Petrol","brand:wikidata":"Q24315"},"coordinates":[41.9408,24.19036]},"dist":20.358,"tags_mismatch":true},{"osm":{"type":"node","id":295523975,"tags":{"amenity":"fuel","brand":"Петрол","brand:wikidata":"Q24315","compressed_air":"yes","ele":"32.3"},"wikidata":"Q24315","coordinates":[43.2831203,28.0369496]},"atp":{"id":"1zMTyPgYQFnWYUxyPvsPrbVet8I=","tags":{"ref":"2108","amenity":"fuel","addr:street_address":"Златни Пясъци","addr:city":"Зл. Пясъци","addr:country":"BG","name":"Зл. Пясъци","phone":"+359 88 530 3671","opening_hours":"Mo-Su 00:00-24:00","brand":"Petrol","brand:wikidata":"Q24315"},"coordinates":[43.28308,28.03692]},"dist":5.082,"tags_mismatch":true},{"osm":{"type":"node","id":298501273,"tags":{"addr:city":"Севлиево","addr:postcode":"5400","amenity":"fuel","brand":"Петрол","brand:wikidata":"Q24315"},"wikidata":"Q24315","coordinates":[43.0218065,25.0967502]},"atp":{"id":"E5RJt-ToJQRWkgo1tSCiC4VDHn8=","tags":{"ref":"0106","amenity":"fuel","addr:street_address":"изход за София</br>до гарата","addr:city":"Петрич","addr:country":"BG","name":"Петрич","phone":"+359 88 530 3969","opening_hours":"Mo-Su 06:00-22:00","brand":"Petrol","brand:wikidata":"Q24315"},"coordinates":[41.41016,23.21012]},"tags_mismatch":true},{"osm":{"type":"node","id":345550931,"tags":{"amenity":"fuel","brand":"Петрол","brand:wikidata":"Q24315","opening_hours":"24/7","phone":"+359 88 530 3748"},"wikidata":"Q24315","coordinates":[42.6532095,27.7061351]},"atp":{"id":"6isMSC2qBNlRxuyUZ_vo_kIB5S4=","tags":{"ref":"1120","amenity":"fuel","addr:street_address":"път Несебър – Равда</br>ж.к. Черно море","addr:city":"Несебър","addr:country":"BG","name":"Несебър: Черно Море","phone":"+359 88 530 3748","opening_hours":"Mo-Su 00:00-24:00","brand":"Petrol","brand:wikidata":"Q24315"},"coordinates":[42.65323,27.70605]},"dist":7.323,"tags_mismatch":true},{"osm":{"type":"node","id":368014887,"tags":{"amenity":"fuel","brand":"Петрол","brand:wikidata":"Q24315"},"wikidata":"Q24315","coordinates":[42.5783403,27.6054674]},"atp":{"id":"hKHk-Uin1xV7m6KVv33nWSr7UeI=","tags":{"ref":"1116","amenity":"fuel","addr:street_address":"гл. път Варна–Бургас","addr:city":"Поморие","addr:country":"BG","name":"Поморие","phone":"+359 88 530 3744","opening_hours":"Mo-Su 00:00-24:00","brand":"Petrol","brand:wikidata":"Q24315"},"coordinates":[42.57835,27.60554]},"dist":6.041,"tags_mismatch":true},{"osm":{"type":"node","id":410458691,"tags":{"amenity":"fuel","brand":"Петрол","brand:wikidata":"Q24315"},"wikidata":"Q24315","coordinates":[43.2401524,27.8782998]},"atp":{"id":"LO5GOEbPiCO7gX_H7xxSzovCgDY=","tags":{"ref":"0107","amenity":"fuel","addr:street_address":"гл. път Е79</br>преди ГКПП","addr:city":"Кулата","addr:country":"BG","name":"Кулата","phone":"+359 88 530 3970","opening_hours":"Mo-Su 00:00-24:00","brand":"Petrol","brand:wikidata":"Q24315"},"coordinates":[41.38417,23.36167]},"tags_mismatch":true},{"osm":{"type":"node","id":410865137,"tags":{"amenity":"fuel","brand":"Петрол","brand:wikidata":"Q24315"},"wikidata":"Q24315","coordinates":[42.4763143,26.4821534]},"atp":{"id":"aIsfD_Hhy6tYrHDkAss26Zk6i1M=","tags":{"ref":"0112","amenity":"fuel","addr:street_address":"ул. Дунав</br>до плажа","addr:city":"Гоце Делчев","addr:country":"BG","name":"Гоце Делчев","phone":"+359 88 530 3973","opening_hours":"Mo-Su 00:00-24:00","brand":"Petrol","brand:wikidata":"Q24315"},"coordinates":[41.5701,23.73539]},"tags_mismatch":true},{"osm":{"type":"node","id":414640988,"tags":{"amenity":"fuel","brand":"Петрол","brand:wikidata":"Q24315"},"wikidata":"Q24315","coordinates":[42.4971307,26.4807919]},"atp":{"id":"6I9dA-M7ZJLOIcMcxDsAlQ9lkpc=","tags":{"ref":"1302","amenity":"fuel","addr:street_address":"бул. Европа №32</br>Западна промишлена зона","addr:city":"Ямбол","addr:country":"BG","name":"Ямбол: Западна промишлена зона","phone":"+359 88 530 3769","opening_hours":"Mo-Su 00:00-24:00","brand":"Petrol","brand:wikidata":"Q24315"},"coordinates":[42.4971,26.48078]},"dist":3.55,"tags_mismatch":true},{"osm":{"type":"node","id":414640990,"tags":{"amenity":"fuel","brand":"Петрол","brand:wikidata":"Q24315","opening_hours":"24/7","phone":"+359 88 530 3771"},"wikidata":"Q24315","coordinates":[42.4995737,26.5254789]},"atp":{"id":"zdo08eSkUXVJWg6QSphOVTBphAo=","tags":{"ref":"1304","amenity":"fuel","addr:street_address":"ул. Преслав, ж.к. Георги Бенковски</br>изход Петолъчката","addr:city":"Ямбол","addr:country":"BG","name":"Ямбол: Георги Бенковски","phone":"+359 88 530 3771","opening_hours":"Mo-Su 00:00-24:00","brand":"Petrol","brand:wikidata":"Q24315"},"coordinates":[42.49955,26.52541]},"dist":6.233,"tags_mismatch":true},{"osm":{"type":"node","id":414641029,"tags":{"amenity":"fuel","brand":"Петрол","brand:wikidata":"Q24315"},"wikidata":"Q24315","coordinates":[42.4799967,26.529821]},"atp":{"id":"pm2oeREa4T0fKNZraKLVtUyiDSc=","tags":{"ref":"0124","amenity":"fuel","addr:street_address":"ул.Капитан Телемах Илиев 33","addr:city":"Разлог","addr:country":"BG","name":"Разлог","phone":"+359 87 959 8678","opening_hours":"Mo-Su 00:00-24:00","brand":"Petrol","brand:wikidata":"Q24315"},"coordinates":[41.88157247417951,23.47204024276911]},"tags_mismatch":true},{"osm":{"type":"node","id":414641031,"tags":{"amenity":"fuel","brand":"Петрол","brand:wikidata":"Q24315","opening_hours":"24/7"},"wikidata":"Q24315","coordinates":[42.4558803,26.5291399]},"atp":{"id":"28X-nXOvm4iOXkgSWewvFzDcz6w=","tags":{"ref":"0126","amenity":"fuel","addr:street_address":"с.Дъбница, общ.Гърмен, главен път Гоце Делчев- Доспат","addr:city":"Дъбница","addr:country":"BG","name":"Дъбница","phone":"+359 89 995 4065","opening_hours":"Mo-Su 00:00-24:00","brand":"Petrol","brand:wikidata":"Q24315"},"coordinates":[41.564880824165854,23.828128324501833]},"tags_mismatch":true},{"osm":{"type":"node","id":458443510,"tags":{"amenity":"fuel","brand":"Петрол","brand:wikidata":"Q24315","opening_hours":"24/7","phone":"+359 88 522 0463"},"wikidata":"Q24315","coordinates":[41.3965417,23.1899196]},"atp":{"id":"5ahXYOJud5MR2u-RCvyISan_dEQ=","tags":{"ref":"0132","amenity":"fuel","addr:street_address":"АМ Струма посока Кулата, 6 км преди Сандански","addr:city":"Плоски","addr:country":"BG","name":"Плоски","phone":"+359 88 824 4366","opening_hours":"Mo-Su 00:00-24:00","brand":"Petrol","brand:wikidata":"Q24315"},"coordinates":[41.598110210038755,23.22565233701629]},"tags_mismatch":true},{"osm":{"type":"node","id":506886720,"tags":{"amenity":"fuel","brand":"Петрол","brand:wikidata":"Q24315","compressed_air":"yes","old_name":"2106","opening_hours":"24/7"},"wikidata":"Q24315","coordinates":[43.2236184,27.9412061]},"atp":{"id":"owNCRUDkoBUaiBYyC5YMu0bGiAY=","tags":{"ref":"2106","amenity":"fuel","addr:street_address":"ж.к. Бриз","addr:city":"Варна","addr:country":"BG","name":"Варна: Бриз","phone":"+359 88 530 3669","opening_hours":"Mo-Su 00:00-24:00","brand":"Petrol","brand:wikidata":"Q24315"},"coordinates":[43.22356,27.94104]},"dist":14.943,"tags_mismatch":true},{"osm":{"type":"node","id":577529107,"tags":{"amenity":"fuel","brand":"Петрол","brand:wikidata":"Q24315"},"wikidata":"Q24315","coordinates":[42.6999486,27.2097247]},"atp":{"id":"2eGqL13_1B7_18uwYFzAD56H8Ls=","tags":{"ref":"1134","amenity":"fuel","addr:street_address":"изхода за Карнобат","addr:city":"Айтос","addr:country":"BG","name":"Айтос","phone":"+359 88 509 1151","opening_hours":"Mo-Su 00:00-24:00","brand":"Petrol","brand:wikidata":"Q24315"},"coordinates":[42.70002,27.20972]},"dist":7.949,"tags_mismatch":true},{"osm":{"type":"node","id":577529108,"tags":{"amenity":"fuel","brand":"Петрол","brand:wikidata":"Q24315","fuel:diesel":"yes","fuel:octane_95":"yes","fuel:octane_98":"yes","note":"No discounts"},"wikidata":"Q24315","coordinates":[42.6527411,27.0064769]},"atp":{"id":"YETuD73tNPovxZUS4J9817UXIjI=","tags":{"ref":"1133","amenity":"fuel","addr:street_address":"изход София - Бургас</br>разклон за Шумен","addr:city":"Карнобат","addr:country":"BG","name":"Карнобат","phone":"+359 88 530 3668","opening_hours":"Mo-Su 00:00-24:00","brand":"Petrol","brand:wikidata":"Q24315"},"coordinates":[42.65301,27.00627]},"dist":34.356,"tags_mismatch":true},{"osm":{"type":"node","id":577529113,"tags":{"amenity":"fuel","brand":"Петрол","brand:wikidata":"Q24315","opening_hours":"Mo-Su 07:00-19:00","phone":"+359 88 530 3727"},"wikidata":"Q24315","coordinates":[42.6405184,26.7180247]},"atp":{"id":"lZtWtFtaRGSDo7U1oB3GQ-s4214=","tags":{"ref":"0201","amenity":"fuel","addr:street_address":"бул. Софийско шосе</br>изход за София","addr:city":"Кюстендил","addr:country":"BG","name":"Кюстендил: Изход София","phone":"+359 88 530 3980","opening_hours":"Mo-Su 00:00-24:00","brand":"Petrol","brand:wikidata":"Q24315"},"coordinates":[42.28792,22.708]},"tags_mismatch":true},{"osm":{"type":"node","id":577529120,"tags":{"amenity":"fuel","brand":"Петрол","brand:wikidata":"Q24315","opening_hours":"24/7","wheelchair":"yes"},"wikidata":"Q24315","coordinates":[42.504218,26.026225]},"atp":{"id":"2XTuYPaUrK6YyszsIemzLAYLkWo=","tags":{"ref":"0202","amenity":"fuel","addr:street_address":"ул. Гюешевско шосе</br>изход за Гюешев","addr:city":"Кюстендил","addr:country":"BG","name":"Кюстендил: Изход Гюешев","phone":"+359 88 530 3981","opening_hours":"Mo-Su 06:00-22:00","brand":"Petrol","brand:wikidata":"Q24315"},"coordinates":[42.27508,22.66861]},"tags_mismatch":true},{"osm":{"type":"node","id":577529121,"tags":{"amenity":"fuel","brand":"Петрол","brand:wikidata":"Q24315"},"wikidata":"Q24315","coordinates":[42.5028576,26.0212898]},"atp":{"id":"N1APRZ_3mGWS_8a_ZE7oHLK8wz4=","tags":{"ref":"0204","amenity":"fuel","addr:street_address":"ул. Св. Иван Рилски №317</br>изход за Благоевград","addr:city":"Дупница","addr:country":"BG","name":"Дупница: Христо Ботев","phone":"+359 88 530 3982","opening_hours":"Mo-Su 06:00-22:00","brand":"Petrol","brand:wikidata":"Q24315"},"coordinates":[42.24509,23.09411]},"tags_mismatch":true},{"osm":{"type":"node","id":577539477,"tags":{"amenity":"fuel","brand":"Петрол","brand:wikidata":"Q24315"},"wikidata":"Q24315","coordinates":[42.6324432,23.4587851]},"atp":{"id":"uvwqdy3Q5u3LcBS8-j1ivbEI-4A=","tags":{"ref":"7116","amenity":"fuel","addr:street_address":"а-м Тракия, м-ст Мацаница</br>мотел Изток","addr:city":"София","addr:country":"BG","name":"София: А-м Тракия","phone":"+359 88 522 0411","opening_hours":"Mo-Su 00:00-24:00","brand":"Petrol","brand:wikidata":"Q24315"},"coordinates":[42.63239,23.45879]},"dist":5.929,"tags_mismatch":true},{"osm":{"type":"node","id":577539480,"tags":{"addr:street":"Ам Тракия 73 Км. Дясно","amenity":"fuel","brand":"Петрол","brand:wikidata":"Q24315","internet_access":"wlan","payment:dkv":"yes","payment:uta":"yes"},"wikidata":"Q24315","coordinates":[42.3363602,24.0797938]},"atp":{"id":"8j0AGzQ_Did26cRgSdlL9A-1TVs=","tags":{"ref":"5216","amenity":"fuel","addr:street_address":"а-м Тракия","addr:city":"Церово","addr:country":"BG","name":"Церово","phone":"+359 88 530 3279","opening_hours":"Mo-Su 00:00-24:00","brand":"Petrol","brand:wikidata":"Q24315"},"coordinates":[42.3364,24.08014]},"dist":28.798,"tags_mismatch":true},{"osm":{"type":"node","id":577539485,"tags":{"amenity":"fuel","brand":"Петрол","brand:wikidata":"Q24315"},"wikidata":"Q24315","coordinates":[42.164936,24.7254777]},"atp":{"id":"08IP-BRavAxaR5oAn8Kdnk1w8MQ=","tags":{"ref":"0205","amenity":"fuel","addr:street_address":"изход за Дупница","addr:city":"Бобов дол","addr:country":"BG","name":"Бобов дол","phone":"+359 88 530 3983","opening_hours":"Mo-Su 00:00-24:00","brand":"Petrol","brand:wikidata":"Q24315"},"coordinates":[42.3506,23.01339]},"tags_mismatch":true},{"osm":{"type":"node","id":578045277,"tags":{"amenity":"fuel","brand":"Петрол","brand:wikidata":"Q24315"},"wikidata":"Q24315","coordinates":[42.0166155,25.4238462]},"atp":{"id":"97HNoQgu__VrxlQ7YyXdX60dNFY=","tags":{"ref":"0207","amenity":"fuel","addr:street_address":"гр. Кочериново, гл.път Е79","addr:city":"Кочериново","addr:country":"BG","name":"Кочериновo","phone":"+359 88 530 3984","opening_hours":"Mo-Su 07:00-19:00","brand":"Petrol","brand:wikidata":"Q24315"},"coordinates":[42.07898,23.03953]},"tags_mismatch":true},{"osm":{"type":"node","id":651512511,"tags":{"amenity":"fuel","brand":"Петрол","brand:wikidata":"Q24315","opening_hours":"24/7","phone":"+359 88 530 3648"},"wikidata":"Q24315","coordinates":[43.350465,26.2461013]},"atp":{"id":"HvTHUYJpMtfEZf_YtvqoQeLRwsw=","tags":{"ref":"6409","amenity":"fuel","addr:street_address":"изход за Разград","addr:city":"Попово","addr:country":"BG","name":"Попово: Изход Разград","phone":"+359 88 530 3648","opening_hours":"Mo-Su 00:00-24:00","brand":"Petrol","brand:wikidata":"Q24315"},"coordinates":[43.35053,26.2461]},"dist":7.228,"tags_mismatch":true},{"osm":{"type":"node","id":676819080,"tags":{"amenity":"fuel","brand":"Петрол","brand:wikidata":"Q24315","opening_hours":"Mo-We 06:00-21:00; Th 06:00-22:00; Fr-Su 06:00-21:00","phone":"+359 88 530 3921"},"wikidata":"Q24315","coordinates":[43.6915723,23.8206109]},"atp":{"id":"kOGGt9lq0Mzpzz8Gdao0thooor4=","tags":{"ref":"3112","amenity":"fuel","addr:street_address":"изход за Мизия","addr:city":"Гложене","addr:country":"BG","name":"Гложене","phone":"+359 88 530 3921","opening_hours":"Mo-Su 07:00-21:00","brand":"Petrol","brand:wikidata":"Q24315"},"coordinates":[43.69159,23.82058]},"dist":3.17,"tags_mismatch":true},{"osm":{"type":"node","id":840619824,"tags":{"amenity":"fuel","brand":"Петрол","brand:wikidata":"Q24315"},"wikidata":"Q24315","coordinates":[43.389052,28.0530749]},"atp":{"id":"dgKLRmUWs5FzxbMwbMT3etXbweA=","tags":{"ref":"2229","amenity":"fuel","addr:street_address":"с. Оброчище, Община Балчик, Гл. Път Е 87, на изхода на селото в посока КК Албена","addr:city":"Оброчище","addr:country":"BG","name":"Оброчище","phone":"+359 89 504 4604","opening_hours":"Mo-Su 00:00-24:00","brand":"Petrol","brand:wikidata":"Q24315"},"coordinates":[43.3890503,28.0531148]},"dist":3.23,"tags_mismatch":true},{"osm":{"type":"node","id":843115915,"tags":{"amenity":"fuel","brand":"Петрол","brand:wikidata":"Q24315"},"wikidata":"Q24315","coordinates":[42.1729552,27.8444814]},"atp":{"id":"32EJ6jJIdheAxZuW7t0s0o2ElTY=","tags":{"ref":"1110","amenity":"fuel","addr:street_address":"ул. Преображенска №38","addr:city":"Царево","addr:country":"BG","name":"Царево","phone":"+359 88 530 3740","opening_hours":"Mo-Su 06:00-22:00","brand":"Petrol","brand:wikidata":"Q24315"},"coordinates":[42.17291,27.84451]},"dist":5.551,"tags_mismatch":true},{"osm":{"type":"node","id":848059568,"tags":{"amenity":"fuel","brand":"Петрол","brand:wikidata":"Q24315"},"wikidata":"Q24315","coordinates":[43.0474183,24.8878204]},"atp":{"id":"ubJ2D4bfJaItK1jsRQkXxyM96NU=","tags":{"ref":"4418","amenity":"fuel","addr:street_address":"м–ст Юртлука</br>път София–Варна","addr:city":"Малиново","addr:country":"BG","name":"Малиново","phone":"+359 88 530 3462","opening_hours":"Mo-Su 00:00-24:00","brand":"Petrol","brand:wikidata":"Q24315"},"coordinates":[43.04707,24.88732]},"dist":56.155,"tags_mismatch":true},{"osm":{"type":"node","id":957215856,"tags":{"amenity":"fuel","brand":"Петрол","brand:wikidata":"Q24315","compressed_air":"no","opening_hours":"Mo-Su 06:00-22:00","phone":"+359 88 530 3823"},"wikidata":"Q24315","coordinates":[42.4287392,25.6368546]},"atp":{"id":"UuNA4WtyTSva97rP9IC3fLZR_Jc=","tags":{"ref":"0208","amenity":"fuel","addr:street_address":"гр. Рила, ул. Спортела 146","addr:city":"Рила","addr:country":"BG","name":"Рила","phone":"+359 89 914 7432","opening_hours":"Mo-Su 00:00-24:00","brand":"Petrol","brand:wikidata":"Q24315"},"coordinates":[42.119259477393754,23.11943211799975]},"tags_mismatch":true},{"osm":{"type":"node","id":1078729741,"tags":{"amenity":"fuel","brand":"Петрол","brand:wikidata":"Q24315","fuel:octane_95":"yes"},"wikidata":"Q24315","coordinates":[43.2302757,27.8543034]},"atp":{"id":"doTTzI-t81sJGsWLpXJOWt0aCPo=","tags":{"ref":"2131","amenity":"fuel","addr:street_address":"а-м Хемус, вход на Варна</br>местност Голям Пясък, кв. Вл. Варненчик","addr:city":"Варна","addr:country":"BG","name":"Варна: Голям Пясък","phone":"+359 88 530 3858","opening_hours":"Mo-Su 00:00-24:00","brand":"Petrol","brand:wikidata":"Q24315"},"coordinates":[43.23038,27.8544]},"dist":13.991,"tags_mismatch":true},{"osm":{"type":"node","id":1082758309,"tags":{"amenity":"fuel","brand":"Петрол","brand:wikidata":"Q24315"},"wikidata":"Q24315","coordinates":[43.1331244,23.7101684]},"atp":{"id":"LOFt1hEebGIBZDpFfFSW7xtTEVY=","tags":{"ref":"0216","amenity":"fuel","addr:street_address":"гр. Дупница, Изход към Кюстендил (преди АМ Струма)","addr:city":"Дупница","addr:country":"BG","name":"Дупница","phone":"+359 89 914 7432","opening_hours":"Mo-Su 00:00-24:00","brand":"Petrol","brand:wikidata":"Q24315"},"coordinates":[42.26176786395018,23.07802865407665]},"tags_mismatch":true},{"osm":{"type":"node","id":1083101290,"tags":{"amenity":"fuel","brand":"Петрол","brand:wikidata":"Q24315"},"wikidata":"Q24315","coordinates":[42.1956654,25.3117051]},"atp":{"id":"29D3osDRycT3y40hd-1xK3t4Xkw=","tags":{"ref":"8126","amenity":"fuel","addr:street_address":"околовръстно</br>вход от Пловдив","addr:city":"Чирпан","addr:country":"BG","name":"Чирпан","phone":"+359 88 530 3680","opening_hours":"Mo-Su 00:00-24:00","brand":"Petrol","brand:wikidata":"Q24315"},"coordinates":[42.19556,25.31177]},"dist":12.882,"tags_mismatch":true},{"osm":{"type":"node","id":1089176439,"tags":{"amenity":"fuel","brand":"Петрол","brand:wikidata":"Q24315","opening_hours":"24/7"},"wikidata":"Q24315","coordinates":[42.6151969,25.426538]},"atp":{"id":"fgOkUhmTEg6GO_gF1v-EY2xJuzI=","tags":{"ref":"8109","amenity":"fuel","addr:street_address":"изход за Бургас","addr:city":"Казанлък","addr:country":"BG","name":"Казанлък: Изход Бургас","phone":"+359 88 530 3814","opening_hours":"Mo-Su 00:00-24:00","brand":"Petrol","brand:wikidata":"Q24315"},"coordinates":[42.61524,25.42654]},"dist":4.795,"tags_mismatch":true},{"osm":{"type":"node","id":1089187224,"tags":{"amenity":"fuel","brand":"Петрол","brand:wikidata":"Q24315","fuel:diesel":"yes","fuel:octane_95":"yes","opening_hours":"Mo-Su 07:00-19:00"},"wikidata":"Q24315","coordinates":[42.617231,25.3624157]},"atp":{"id":"-NKVM7gwbnCc4MzcQf3iJqfTdW8=","tags":{"ref":"8110","amenity":"fuel","addr:street_address":"изход за София","addr:city":"Казанлък","addr:country":"BG","name":"Казанлък: Изход София","phone":"+359 88 530 3815","opening_hours":"Mo-Su 07:30-18:30","brand":"Petrol","brand:wikidata":"Q24315"},"coordinates":[42.61734,25.36246]},"dist":12.651,"tags_mismatch":true},{"osm":{"type":"node","id":1167765427,"tags":{"amenity":"fuel","brand":"Петрол","brand:wikidata":"Q24315"},"wikidata":"Q24315","coordinates":[42.2823566,25.9317007]},"atp":{"id":"9g-CIH9KY_PPfdjrsIFSK24jWV8=","tags":{"ref":"8106","amenity":"fuel","addr:street_address":"ул. Митьо Станев №22","addr:city":"Раднево","addr:country":"BG","name":"Раднево","phone":"+359 88 530 3812","opening_hours":"Mo-Su 07:00-19:00","brand":"Petrol","brand:wikidata":"Q24315"},"coordinates":[42.28237,25.93173]},"dist":2.834,"tags_mismatch":true},{"osm":{"type":"node","id":1229001315,"tags":{"amenity":"fuel","brand":"Петрол","brand:wikidata":"Q24315","check_date":"2023-04-17","fuel:diesel":"yes","fuel:octane_95":"yes","opening_hours":"24/7","payment:mastercard":"yes","payment:visa":"yes","wheelchair":"yes"},"wikidata":"Q24315","coordinates":[43.1083142,26.2647644]},"atp":{"id":"vqeG6N5SrXBgYJqZR9AWqI3ba_A=","tags":{"ref":"1102","amenity":"fuel","addr:street_address":"кс. Славейков</br>до блок №32","addr:city":"Бургас","addr:country":"BG","name":"Бургас: Славейков 2","phone":"+359 88 530 3733","opening_hours":"Mo-Su 06:00-22:00","brand":"Petrol","brand:wikidata":"Q24315"},"coordinates":[42.52067,27.44117]},"tags_mismatch":true},{"osm":{"type":"node","id":1255221538,"tags":{"amenity":"fuel","brand":"Петрол","brand:wikidata":"Q24315"},"wikidata":"Q24315","coordinates":[42.6488263,25.8053693]},"atp":{"id":"WkjYiQ-Gcz_M7eHoSpGZMKgN0tY=","tags":{"ref":"8116","amenity":"fuel","addr:street_address":"гл. път 55</br>а-м София-Бургас","addr:city":"Гурково","addr:country":"BG","name":"Гурково","phone":"+359 88 530 3820","opening_hours":"Mo-Su 00:00-24:00","brand":"Petrol","brand:wikidata":"Q24315"},"coordinates":[42.64884,25.80547]},"dist":8.376,"tags_mismatch":true},{"osm":{"type":"node","id":1256677587,"tags":{"amenity":"fuel","brand":"Петрол","brand:wikidata":"Q24315","ref":"2208"},"wikidata":"Q24315","coordinates":[43.6952108,28.5332528]},"atp":{"id":"baozxRZLIZEbKzznGXKnEGdogbk=","tags":{"ref":"1103","amenity":"fuel","addr:street_address":"бул. Стефан Стамболов</br>кс. Славейков","addr:city":"Бургас","addr:country":"BG","name":"Бургас: Славейков 1","phone":"+359 88 530 3734","opening_hours":"Mo-Su 06:00-22:00","brand":"Petrol","brand:wikidata":"Q24315"},"coordinates":[42.52041,27.45738]},"tags_mismatch":true},{"osm":{"type":"node","id":1260525472,"tags":{"amenity":"fuel","brand":"Петрол","brand:wikidata":"Q24315"},"wikidata":"Q24315","coordinates":[43.4357569,28.323528]},"atp":{"id":"Qgm9wiruT4PziJqS-efqWxGFWq0=","tags":{"ref":"2206","amenity":"fuel","addr:street_address":"ул. България №1","addr:city":"Каварна","addr:country":"BG","name":"Каварна","phone":"+359 88 530 3697","opening_hours":"Mo-Su 00:00-24:00","brand":"Petrol","brand:wikidata":"Q24315"},"coordinates":[43.43568,28.32359]},"dist":9.909,"tags_mismatch":true},{"osm":{"type":"node","id":1263440011,"tags":{"amenity":"fuel","brand":"Петрол","brand:wikidata":"Q24315"},"wikidata":"Q24315","coordinates":[42.6731479,26.3761615]},"atp":{"id":"WVrZRf_aDnO7IHk_C2dyLD0_vzs=","tags":{"ref":"1210","amenity":"fuel","addr:street_address":"бул. Бургаско шосе</br>м. Раманиша","addr:city":"Сливен","addr:country":"BG","name":"Сливен: Раманиша","phone":"+359 88 530 3767","opening_hours":"Mo-Sa 07:00-19:00; Su 07:00-13:00","brand":"Petrol","brand:wikidata":"Q24315"},"coordinates":[42.67312,26.37612]},"dist":4.597,"tags_mismatch":true},{"osm":{"type":"node","id":1270802991,"tags":{"amenity":"fuel","brand":"Петрол","brand:wikidata":"Q24315","fuel:lpg":"yes"},"wikidata":"Q24315","coordinates":[43.2323495,27.8909703]},"atp":{"id":"0C33TkqM4JOKw0hkwPnzR5898_I=","tags":{"ref":"1105","amenity":"fuel","addr:street_address":"ул. Иван Богоров","addr:city":"Бургас","addr:country":"BG","name":"Бургас: Център","phone":"+359 88 530 3736","opening_hours":"Mo-Su 00:00-24:00","brand":"Petrol","brand:wikidata":"Q24315"},"coordinates":[42.50086,27.474]},"tags_mismatch":true},{"osm":{"type":"node","id":1339823984,"tags":{"amenity":"fuel","brand":"Петрол","brand:wikidata":"Q24315"},"wikidata":"Q24315","coordinates":[42.7394461,23.2507985]},"atp":{"id":"Yokk4rFTlPTzytRHtzQ8GY8pTYM=","tags":{"ref":"1108","amenity":"fuel","addr:street_address":"ул. Беласица №8","addr:city":"Приморско","addr:country":"BG","name":"Приморско","phone":"+359 88 530 3738","opening_hours":"Mo-Su 06:00-22:00","brand":"Petrol","brand:wikidata":"Q24315"},"coordinates":[42.26513,27.74471]},"tags_mismatch":true},{"osm":{"type":"node","id":1348214985,"tags":{"amenity":"fuel","brand":"Петрол","brand:wikidata":"Q24315","fuel:diesel":"yes","fuel:lpg":"yes","fuel:octane_95":"yes"},"wikidata":"Q24315","coordinates":[42.0788947,23.0394737]},"atp":{"id":"aP02mWOuOlXpIEPuSNx6IT1ORIM=","tags":{"ref":"1109","amenity":"fuel","addr:street_address":"местност Златна Рибка","addr:city":"Созопол","addr:country":"BG","name":"Созопол","phone":"+359 88 530 3739","opening_hours":"Mo-Su 00:00-24:00","brand":"Petrol","brand:wikidata":"Q24315"},"coordinates":[42.40536,27.67024]},"tags_mismatch":true},{"osm":{"type":"node","id":1348214993,"tags":{"amenity":"fuel","brand":"Петрол","brand:wikidata":"Q24315"},"wikidata":"Q24315","coordinates":[42.4494873,23.1186582]},"atp":{"id":"1li0Vt1lSvoXrGIIZkmVF0PrzRY=","tags":{"ref":"1112","amenity":"fuel","addr:street_address":"ул. България №50","addr:city":"М. Търново","addr:country":"BG","name":"М. Търново","phone":"+359 88 530 3741","opening_hours":"Mo-Su 06:00-22:00","brand":"Petrol","brand:wikidata":"Q24315"},"coordinates":[41.98526,27.52171]},"tags_mismatch":true},{"osm":{"type":"node","id":1404550124,"tags":{"amenity":"fuel","brand":"Петрол","brand:wikidata":"Q24315","opening_hours":"24/7"},"wikidata":"Q24315","coordinates":[42.0949304,24.7905338]},"atp":{"id":"fwsLi5G6wEqjNJE8wak6qNWQelU=","tags":{"ref":"5122","amenity":"fuel","addr:street_address":"бул. Асеновградско шосе</br>м-ст Горна Каба","addr:city":"Пловдив","addr:country":"BG","name":"Пловдив: Горна Каба","opening_hours":"Mo-Su 00:00-24:00","brand":"Petrol","brand:wikidata":"Q24315"},"coordinates":[42.09501,24.79047]},"dist":10.298,"tags_mismatch":true},{"osm":{"type":"node","id":1425467065,"tags":{"amenity":"fuel","brand":"Петрол","brand:wikidata":"Q24315"},"wikidata":"Q24315","coordinates":[41.3916656,25.0814357]},"atp":{"id":"CrM8D4-xdvH_S0UthfJqNydSD1s=","tags":{"ref":"5309","amenity":"fuel","addr:street_address":"ул. България №31","addr:city":"Златоград","addr:country":"BG","name":"Златоград","phone":"+359 88 530 3286","opening_hours":"Mo-Su 00:00-24:00","brand":"Petrol","brand:wikidata":"Q24315"},"coordinates":[41.39169,25.08147]},"dist":3.943,"tags_mismatch":true},{"osm":{"type":"node","id":1425864121,"tags":{"amenity":"fuel","brand":"Петрол","brand:wikidata":"Q24315"},"wikidata":"Q24315","coordinates":[42.3118568,24.1673075]},"atp":{"id":"0delGXXt525wajfdcwh6XJjqVQ8=","tags":{"ref":"5215","amenity":"fuel","addr:street_address":"а-м Тракия, 79 км.</br>посока Бургас","addr:city":"Калугерово","addr:country":"BG","name":"Калугерово","phone":"+359 88 530 3278","opening_hours":"Mo-Sa 07:00-19:00; Su 07:00-13:00","brand":"Petrol","brand:wikidata":"Q24315"},"coordinates":[42.31197,24.16713]},"dist":19.273,"tags_mismatch":true},{"osm":{"type":"node","id":1446414686,"tags":{"amenity":"fuel","brand":"Петрол","brand:wikidata":"Q24315","fuel:diesel":"yes","fuel:octane_95":"yes","fuel:octane_98":"yes"},"wikidata":"Q24315","coordinates":[43.0712509,25.6632439]},"atp":{"id":"Rl_rUDipz3tqmUY16NDkzeYdp7U=","tags":{"ref":"4225","amenity":"fuel","addr:street_address":"гл. път Варна – София</br>вход от Варна","addr:city":"В. Търново","addr:country":"BG","name":"В. Търново: Републикански Път","phone":"+359 88 530 3438","opening_hours":"Mo-Su 00:00-24:00","brand":"Petrol","brand:wikidata":"Q24315"},"coordinates":[43.07119,25.66327]},"dist":7.096,"tags_mismatch":true},{"osm":{"type":"node","id":1497297553,"tags":{"amenity":"fuel","brand":"Петрол","brand:wikidata":"Q24315","fuel:adblue":"yes","fuel:diesel":"yes","fuel:octane_95":"yes","opening_hours":"Mo-Su 07:00-19:00","phone":"+359885303435"},"wikidata":"Q24315","coordinates":[43.357957,25.6341832]},"atp":{"id":"3znoDAHY4_WG5nD_1M70OJH7a90=","tags":{"ref":"4216","amenity":"fuel","addr:street_address":"ул. Александър Стамболийски №1</br>изход за В. Търново","addr:city":"Полски Тръмбеш","addr:country":"BG","name":"Полски Тръмбеш","phone":"+359 88 530 3435","opening_hours":"Mo-Su 07:30-18:30","brand":"Petrol","brand:wikidata":"Q24315"},"coordinates":[43.35794,25.63414]},"dist":3.971,"tags_mismatch":true},{"osm":{"type":"node","id":1503743986,"tags":{"amenity":"fuel","brand":"Петрол","brand:wikidata":"Q24315"},"wikidata":"Q24315","coordinates":[42.9287639,25.899173]},"atp":{"id":"TgYRuwacBAcI7T1zfcI9qq2eaYw=","tags":{"ref":"4204","amenity":"fuel","addr:street_address":"гл. път 53","addr:city":"Елена","addr:country":"BG","name":"Елена","phone":"+359 88 530 3427","opening_hours":"Mo-Su 06:00-22:00","brand":"Petrol","brand:wikidata":"Q24315"},"coordinates":[42.92884,25.89908]},"dist":11.355,"tags_mismatch":true},{"osm":{"type":"node","id":1555153084,"tags":{"amenity":"fuel","brand":"Петрол","brand:wikidata":"Q24315"},"wikidata":"Q24315","coordinates":[43.2399274,27.8498977]},"atp":{"id":"l4uGkcXX9loWrszc5DbSQPxktSE=","tags":{"ref":"1119","amenity":"fuel","addr:street_address":"комплекс Слънчев Бряг</br>до автогарата","addr:city":"Сл. Бряг","addr:country":"BG","name":"Сл. Бряг","phone":"+359 88 530 3747","opening_hours":"Mo-Su 00:00-24:00","brand":"Petrol","brand:wikidata":"Q24315"},"coordinates":[42.69113,27.70761]},"tags_mismatch":true},{"osm":{"type":"node","id":1593449408,"tags":{"amenity":"fuel","brand":"Петрол","brand:wikidata":"Q24315"},"wikidata":"Q24315","coordinates":[41.9854995,27.5217686]},"atp":{"id":"ZBQNkY_RAuqUBjIaBbXnRapJQ30=","tags":{"ref":"1125","amenity":"fuel","addr:street_address":"ул. Тракия №33","addr:city":"Ахтопол","addr:country":"BG","name":"Ахтопол","phone":"+359 88 530 3753","opening_hours":"Mo-Su 07:00-19:00","brand":"Petrol","brand:wikidata":"Q24315"},"coordinates":[42.09897,27.93746]},"tags_mismatch":true},{"osm":{"type":"node","id":1695276243,"tags":{"amenity":"fuel","brand":"Петрол","brand:wikidata":"Q24315","fuel:diesel":"yes","fuel:lpg":"yes","fuel:octane_95":"yes","opening_hours":"24/7"},"wikidata":"Q24315","coordinates":[42.6963561,24.6376438]},"atp":{"id":"y7ad562NCHqlTqfVG4QFmyIegSU=","tags":{"ref":"1137","amenity":"fuel","addr:street_address":"гр. Китен, вход на града","addr:city":"Китен","addr:country":"BG","name":"Китен","phone":"+359 88 989 9001","opening_hours":"Mo-Su 00:00-24:00","brand":"Petrol","brand:wikidata":"Q24315"},"coordinates":[42.21367659259248,27.773539924316847]},"tags_mismatch":true},{"osm":{"type":"node","id":1699287020,"tags":{"amenity":"fuel","brand":"Петрол","brand:wikidata":"Q24315"},"wikidata":"Q24315","coordinates":[42.5277576,27.4644606]},"atp":{"id":"HtSZrrscxwHK8rmdiMcvRn4u1tw=","tags":{"ref":"1201","amenity":"fuel","addr:street_address":"ул. Димитър Пехливанов-Добрович №13","addr:city":"Сливен","addr:country":"BG","name":"Сливен: Комлука","phone":"+359 88 530 3759","opening_hours":"Mo-Su 06:00-22:00","brand":"Petrol","brand:wikidata":"Q24315"},"coordinates":[42.68128,26.31008]},"tags_mismatch":true},{"osm":{"type":"node","id":1699374692,"tags":{"amenity":"fuel","brand":"Петрол","brand:wikidata":"Q24315"},"wikidata":"Q24315","coordinates":[42.0287786,23.9972447]},"atp":{"id":"5v1uttYcUqbRPI9P-A98dCGGkPc=","tags":{"ref":"5211","amenity":"fuel","addr:street_address":"ул. Хр. Ботев №41","addr:city":"Велинград","addr:country":"BG","name":"Велинград","phone":"+359 88 530 3276","opening_hours":"Mo-Su 06:00-22:00","brand":"Petrol","brand:wikidata":"Q24315"},"coordinates":[42.0288,23.9971]},"dist":12.186,"tags_mismatch":true},{"osm":{"type":"node","id":1700083427,"tags":{"amenity":"fuel","brand":"Петрол","brand:wikidata":"Q24315","fuel:diesel":"yes","fuel:octane_95":"yes","wheelchair":"no"},"wikidata":"Q24315","coordinates":[42.6674393,23.2643933]},"atp":{"id":"pA5QnEYjTFqeW4LSIsF7GCPNL2U=","tags":{"ref":"7119","amenity":"fuel","addr:street_address":"бул. Цар Борис III, локално</br> ж.к. Бъкстон","addr:city":"София","addr:country":"BG","name":"София: Бъкстон","phone":"+359 88 522 0413","opening_hours":"Mo-Su 07:00-19:00","brand":"Petrol","brand:wikidata":"Q24315"},"coordinates":[42.66754,23.26448]},"dist":13.253,"tags_mismatch":true},{"osm":{"type":"node","id":1737098643,"tags":{"amenity":"fuel","brand":"Петрол","brand:wikidata":"Q24315"},"wikidata":"Q24315","coordinates":[43.0568241,27.0397008]},"atp":{"id":"80OtRvlpWj4jkHxbo-yR-s8YJvc=","tags":{"ref":"2308","amenity":"fuel","addr:street_address":"местност Студен Кладенец","addr:city":"Смядово","addr:country":"BG","name":"Смядово","phone":"+359 88 530 3714","opening_hours":"Mo-Su 00:00-24:00","brand":"Petrol","brand:wikidata":"Q24315"},"coordinates":[43.05684,27.03982]},"dist":9.845,"tags_mismatch":true},{"osm":{"type":"node","id":1837792019,"tags":{"amenity":"fuel","brand":"Петрол","brand:wikidata":"Q24315"},"wikidata":"Q24315","coordinates":[42.7342817,23.610629]},"atp":{"id":"Gjq5wIRvr-Ld1qdJZX81-nioJXE=","tags":{"ref":"7231","amenity":"fuel","addr:street_address":"а-м Хемус</br>км. 5+540, дясно","addr:city":"Гара Яна","addr:country":"BG","name":"Гара Яна","phone":"+359 88 530 3609","opening_hours":"Mo-Su 00:00-24:00","brand":"Petrol","brand:wikidata":"Q24315"},"coordinates":[42.73435,23.61069]},"dist":9.083,"tags_mismatch":true},{"osm":{"type":"node","id":1837792021,"tags":{"amenity":"fuel","brand":"Петрол","brand:wikidata":"Q24315"},"wikidata":"Q24315","coordinates":[43.1934198,24.1579312]},"atp":{"id":"1iXKZfYmHqIfc6c_gn2VeNNWZOA=","tags":{"ref":"4409","amenity":"fuel","addr:street_address":"ул. Момчилец</br>входа от София","addr:city":"Луковит","addr:country":"BG","name":"Луковит","phone":"+359 88 530 3456","opening_hours":"Mo-Su 00:00-24:00","brand":"Petrol","brand:wikidata":"Q24315"},"coordinates":[43.19348,24.15795]},"dist":6.865,"tags_mismatch":true},{"osm":{"type":"node","id":1837853232,"tags":{"amenity":"fuel","brand":"Петрол","brand:wikidata":"Q24315","mapillary":"6431218966903842","survey:date":"2021-07-09"},"wikidata":"Q24315","coordinates":[41.7129525,23.1714281]},"atp":{"id":"GnKL0TjAHD2E1Bcot6dlI1eaFjw=","tags":{"ref":"1207","amenity":"fuel","addr:street_address":"ул. Княз Борис I","addr:city":"Твърдица","addr:country":"BG","name":"Твърдица","phone":"+359 88 530 3764","opening_hours":"Mo-Su 07:30-18:30","brand":"Petrol","brand:wikidata":"Q24315"},"coordinates":[42.69527,25.90891]},"tags_mismatch":true},{"osm":{"type":"node","id":1890541394,"tags":{"amenity":"fuel","brand":"Петрол","brand:wikidata":"Q24315","wheelchair":"yes"},"wikidata":"Q24315","coordinates":[42.5322165,27.4692595]},"atp":{"id":"0RALIgQ2gi6PwcKfSESoSSQUZyk=","tags":{"ref":"1208","amenity":"fuel","addr:street_address":"изход за Раднево","addr:city":"Нова Загора","addr:country":"BG","name":"Нова Загора: Юг","phone":"+359 88 530 3765","opening_hours":"Mo-Su 00:00-24:00","brand":"Petrol","brand:wikidata":"Q24315"},"coordinates":[42.47681,26.01374]},"tags_mismatch":true},{"osm":{"type":"node","id":1925180023,"tags":{"amenity":"fuel","brand":"Петрол","brand:wikidata":"Q24315","wheelchair":"yes"},"wikidata":"Q24315","coordinates":[43.1280544,25.7019268]},"atp":{"id":"j7q2tCxno1CxpZhgfaGpt4s077g=","tags":{"ref":"4206","amenity":"fuel","addr:street_address":"ул. Св. Княз Борис I</br>Източна промишлена зона","addr:city":"Г. Оряховица","addr:country":"BG","name":"Г. Оряховица","phone":"+359 88 530 3429","opening_hours":"Mo-Su 00:00-24:00","brand":"Petrol","brand:wikidata":"Q24315"},"coordinates":[43.12798,25.70202]},"dist":11.209,"tags_mismatch":true},{"osm":{"type":"node","id":1936367882,"tags":{"amenity":"fuel","brand":"Петрол","brand:wikidata":"Q24315"},"wikidata":"Q24315","coordinates":[42.1263886,24.7667645]},"atp":{"id":"htJ_vFRse0vgxCSKW2qkgmx57H8=","tags":{"ref":"5104","amenity":"fuel","addr:street_address":"ул. Найчо Цанов","addr:city":"Пловдив","addr:country":"BG","name":"Пловдив: Академик","phone":"+359 88 530 3231","opening_hours":"Mo-Su 07:00-19:00","brand":"Petrol","brand:wikidata":"Q24315"},"coordinates":[42.12631,24.76671]},"dist":9.828,"tags_mismatch":true},{"osm":{"type":"node","id":1941560037,"tags":{"amenity":"fuel","brand":"Петрол","brand:wikidata":"Q24315"},"wikidata":"Q24315","coordinates":[43.3678098,28.0671865]},"atp":{"id":"qcRlkXyUO0Umei56MlHh7-oeIKI=","tags":{"ref":"2210","amenity":"fuel","addr:street_address":"комплекс Албена","addr:city":"Албена","addr:country":"BG","name":"Албена","phone":"+359 88 530 3700","opening_hours":"Mo-Su 06:00-22:00","brand":"Petrol","brand:wikidata":"Q24315"},"coordinates":[43.36783,28.0671]},"dist":7.344,"tags_mismatch":true},{"osm":{"type":"node","id":2258068421,"tags":{"addr:city":"Борован","addr:street":"Ангел Йошков","amenity":"fuel","branch":"Бензиностанция 3110","brand":"Петрол","brand:wikidata":"Q24315","check_date":"2022-12-27","fuel:diesel":"yes","fuel:lpg":"yes","fuel:octane_95":"yes","internet_access":"no","opening_hours":"24/7","payment:mastercard":"yes","payment:visa":"yes","self_service":"yes"},"wikidata":"Q24315","coordinates":[43.4287723,23.7619621]},"atp":{"id":"qCddKXtmtHdX7pHxK9w3pTt9-5s=","tags":{"ref":"3110","amenity":"fuel","addr:street_address":"изход за Оряхово","addr:city":"Борован","addr:country":"BG","name":"Борован","phone":"+359 88 530 3919","opening_hours":"Mo-Su 00:00-24:00","brand":"Petrol","brand:wikidata":"Q24315"},"coordinates":[43.42873,23.76189]},"dist":7.485,"tags_mismatch":true},{"osm":{"type":"node","id":2288106425,"tags":{"amenity":"fuel","brand":"Петрол","brand:wikidata":"Q24315"},"wikidata":"Q24315","coordinates":[42.8857724,27.8805758]},"atp":{"id":"lSQ5_UlEoi8Br5gYljzZRRwG-mA=","tags":{"ref":"2117","amenity":"fuel","addr:street_address":"ул. Трифон Милушев","addr:city":"Бяла","addr:country":"BG","name":"Бяла","phone":"+359 88 530 3679","opening_hours":"Mo-Su 00:00-24:00","brand":"Petrol","brand:wikidata":"Q24315"},"coordinates":[42.88568,27.88057]},"dist":10.285,"tags_mismatch":true},{"osm":{"type":"node","id":2321973564,"tags":{"amenity":"fuel","brand":"Петрол","brand:wikidata":"Q24315","fuel:diesel":"yes","fuel:octane_95":"yes"},"wikidata":"Q24315","coordinates":[42.0989671,27.9375766]},"atp":{"id":"O_ADrTFmoHWKOiko1Pvt9fEfp_8=","tags":{"ref":"1209","amenity":"fuel","addr:street_address":"местност Дебелия рът</br>вход от Петолъчката","addr:city":"Котел","addr:country":"BG","name":"Котел","phone":"+359 88 530 3766","opening_hours":"Mo-Su 07:30-18:30","brand":"Petrol","brand:wikidata":"Q24315"},"coordinates":[42.87532,26.45809]},"tags_mismatch":true},{"osm":{"type":"node","id":2342218267,"tags":{"amenity":"fuel","brand":"Петрол","brand:wikidata":"Q24315"},"wikidata":"Q24315","coordinates":[42.6812251,26.3100714]},"atp":{"id":"mYeu4eyWwjPWPmKQNAQk2Y4J4S4=","tags":{"ref":"1308","amenity":"fuel","addr:street_address":"ул. Ал. Стамболийски</br>изход за Ямбол","addr:city":"Елхово","addr:country":"BG","name":"Елхово","phone":"+359 88 530 3775","opening_hours":"Mo-Su 06:00-22:00","brand":"Petrol","brand:wikidata":"Q24315"},"coordinates":[42.18337,26.57525]},"tags_mismatch":true},{"osm":{"type":"node","id":2406792837,"tags":{"amenity":"fuel","brand":"Петрол","brand:wikidata":"Q24315","fuel:diesel":"yes","fuel:octane_95":"yes"},"wikidata":"Q24315","coordinates":[43.697018,24.8522791]},"atp":{"id":"izZXxCLLXEvFSG_ySExvwV0e_RA=","tags":{"ref":"4115","amenity":"fuel","addr:street_address":"изход за Плевен","addr:city":"Никопол","addr:country":"BG","name":"Никопол","phone":"+359 88 530 3418","opening_hours":"Mo-Su 07:00-19:00","brand":"Petrol","brand:wikidata":"Q24315"},"coordinates":[43.69665,24.85214]},"dist":42.42,"tags_mismatch":true},{"osm":{"type":"node","id":2441241173,"tags":{"amenity":"fuel","brand":"Петрол","brand:wikidata":"Q24315","fuel:diesel":"yes","fuel:octane_95":"yes","opening_hours":"Mo-Su 07:00-19:00","phone":"+359 88 530 3950"},"wikidata":"Q24315","coordinates":[43.4073386,23.0578445]},"atp":{"id":"vodnZD1RNhZaC5fyVAkpY2Qu7zA=","tags":{"ref":"3310","amenity":"fuel","addr:street_address":"гл. път София – Белоградчик","addr:city":"Г. Геново","addr:country":"BG","name":"Г. Геново","phone":"+359 88 530 3950","opening_hours":"Mo-Su 07:30-18:30","brand":"Petrol","brand:wikidata":"Q24315"},"coordinates":[43.40741,23.05775]},"dist":11.014,"tags_mismatch":true},{"osm":{"type":"node","id":2471018291,"tags":{"amenity":"fuel","brand":"Петрол","brand:wikidata":"Q24315","opening_hours":"24/7","phone":"+359 89 504 4604"},"wikidata":"Q24315","coordinates":[43.409729,28.1434385]},"atp":{"id":"-h_T8J4MIOv8NNtzE1BWklTLSw8=","tags":{"ref":"2231","amenity":"fuel","addr:street_address":"гр. Балчик, Гл. Път Е 87, на изхода на селото в посока КК Албена","addr:city":"Балчик","addr:country":"BG","name":"Балчик: Сборно Място","phone":"+359 89 504 4604","opening_hours":"Mo-Su 00:00-24:00","brand":"Petrol","brand:wikidata":"Q24315"},"coordinates":[43.4098125,28.1434375]},"dist":9.285,"tags_mismatch":true},{"osm":{"type":"node","id":2551472621,"tags":{"amenity":"fuel","brand":"Петрол","brand:wikidata":"Q24315"},"wikidata":"Q24315","coordinates":[42.4406073,25.8560065]},"atp":{"id":"2ywW3zPhrXGelZ6PgYZVApcO0AU=","tags":{"ref":"2113","amenity":"fuel","addr:street_address":"ул. Камчия</br>Южна индустриална зона","addr:city":"Провадия","addr:country":"BG","name":"Провадия","phone":"+359 88 530 3675","opening_hours":"Mo-Su 00:00-24:00","brand":"Petrol","brand:wikidata":"Q24315"},"coordinates":[43.1598,27.44464]},"tags_mismatch":true},{"osm":{"type":"node","id":2616313329,"tags":{"amenity":"fuel","brand":"Петрол","brand:wikidata":"Q24315","fuel:diesel":"yes","fuel:octane_95":"yes","fuel:octane_98":"yes"},"wikidata":"Q24315","coordinates":[43.3299979,27.1785294]},"atp":{"id":"K4KHdTUOlBFM8GALTTkq-DwXMh4=","tags":{"ref":"2311","amenity":"fuel","addr:street_address":"гл. път Варна-София","addr:city":"Нови Пазар","addr:country":"BG","name":"Нови Пазар: Юг","phone":"+359 88 530 3716","opening_hours":"Mo-Su 00:00-24:00","brand":"Petrol","brand:wikidata":"Q24315"},"coordinates":[43.3301,27.17854]},"dist":11.385,"tags_mismatch":true},{"osm":{"type":"node","id":2619153001,"tags":{"amenity":"fuel","brand":"Петрол","brand:wikidata":"Q24315","fuel:diesel":"yes","fuel:octane_95":"yes","fuel:octane_98":"yes"},"wikidata":"Q24315","coordinates":[43.4168135,25.3512529]},"atp":{"id":"kjdTQG9G9kLMw7RrylfEAuXfFOU=","tags":{"ref":"2114","amenity":"fuel","addr:street_address":"вход от Девня","addr:city":"Синдел","addr:country":"BG","name":"Синдел","phone":"+359 88 530 3676","opening_hours":"Mo-Su 06:00-22:00","brand":"Petrol","brand:wikidata":"Q24315"},"coordinates":[43.11925,27.59578]},"tags_mismatch":true},{"osm":{"type":"node","id":2842603675,"tags":{"amenity":"fuel","brand":"Петрол","brand:wikidata":"Q24315"},"wikidata":"Q24315","coordinates":[42.4417525,27.4736081]},"atp":{"id":"2KXLQ_EzGYDjzZzMwd4vWPv7b7E=","tags":{"ref":"2115","amenity":"fuel","addr:street_address":"ул. Г.Димитров №53</br>изход за Брестак/Добрич","addr:city":"Вълчи дол","addr:country":"BG","name":"Вълчи дол","phone":"+359 88 530 3677","opening_hours":"Mo-Su 07:00-19:00","brand":"Petrol","brand:wikidata":"Q24315"},"coordinates":[43.41345,27.55733]},"tags_mismatch":true},{"osm":{"type":"node","id":2858905965,"tags":{"amenity":"fuel","brand":"Петрол","brand:wikidata":"Q24315","check_date":"2023-06-25","fuel:diesel":"yes","fuel:lpg":"yes","fuel:octane_95":"yes","internet_access":"no","opening_hours":"24/7","payment:mastercard":"yes","payment:visa":"yes","self_service":"no","wheelchair":"yes"},"wikidata":"Q24315","coordinates":[42.0033251,24.8897809]},"atp":{"id":"muVC01QjyUguGPp5GwMCaxXUuPk=","tags":{"ref":"2121","amenity":"fuel","addr:street_address":"ж.к. Победа","addr:city":"Варна","addr:country":"BG","name":"Варна: Победа","phone":"+359 88 530 3691","opening_hours":"Mo-Su 00:00-24:00","brand":"Petrol","brand:wikidata":"Q24315"},"coordinates":[43.22621,27.90172]},"tags_mismatch":true},{"osm":{"type":"node","id":2897999006,"tags":{"amenity":"fuel","brand":"Петрол","brand:wikidata":"Q24315"},"wikidata":"Q24315","coordinates":[43.1386152,23.9304799]},"atp":{"id":"oRCoTtNCciLQj3fQyyhPaFcJS18=","tags":{"ref":"3106","amenity":"fuel","addr:street_address":"изход за Златна Панега","addr:city":"Роман","addr:country":"BG","name":"Роман","phone":"+359 88 530 3915","opening_hours":"Mo-Su 07:30-18:30","brand":"Petrol","brand:wikidata":"Q24315"},"coordinates":[43.13868,23.93046]},"dist":7.384,"tags_mismatch":true},{"osm":{"type":"node","id":3073576616,"tags":{"amenity":"fuel","brand":"Петрол","brand:wikidata":"Q24315"},"wikidata":"Q24315","coordinates":[43.8537394,26.0012418]},"atp":{"id":"rW4npyDTvhERAg2fAaGbS4pEZ84=","tags":{"ref":"6104","amenity":"fuel","addr:street_address":"бул. Липник №128</br>до КАТ","addr:city":"Русе","addr:country":"BG","name":"Русе: КАТ","phone":"+359 88 530 3610","opening_hours":"Mo-Su 00:00-24:00","brand":"Petrol","brand:wikidata":"Q24315"},"coordinates":[43.85371,26.00135]},"dist":9.271,"tags_mismatch":true},{"osm":{"type":"node","id":3233183262,"tags":{"amenity":"fuel","brand":"Петрол","brand:wikidata":"Q24315","opening_hours":"24/7"},"wikidata":"Q24315","coordinates":[43.619447,22.8182891]},"atp":{"id":"Dbx0UjX0LkuAWh2bzs2kbtbcmSE=","tags":{"ref":"3210","amenity":"fuel","addr:street_address":"гл. път Е79</br>изход Монтана","addr:city":"Ружинци","addr:country":"BG","name":"Ружинци","phone":"+359 88 530 3940","opening_hours":"Mo-Su 07:00-19:00","brand":"Petrol","brand:wikidata":"Q24315"},"coordinates":[43.61947,22.81831]},"dist":3.061,"tags_mismatch":true},{"osm":{"type":"node","id":3252036182,"tags":{"amenity":"fuel","brand":"Петрол","brand:wikidata":"Q24315","fuel:diesel":"yes","fuel:octane_95":"yes","opening_hours":"Mo-Su 07:00-19:00"},"wikidata":"Q24315","coordinates":[42.7393184,23.3173984]},"atp":{"id":"u61yVoxzLOGBjC3JwCNOqVyiRNc=","tags":{"ref":"2125","amenity":"fuel","addr:street_address":"Белослав","addr:city":"Белослав","addr:country":"BG","name":"Белослав","phone":"+359 88 530 3686","opening_hours":"Mo-Su 07:30-18:30","brand":"Petrol","brand:wikidata":"Q24315"},"coordinates":[43.19162,27.71952]},"tags_mismatch":true},{"osm":{"type":"node","id":3315137561,"tags":{"amenity":"fuel","brand":"Петрол","brand:wikidata":"Q24315","fuel:diesel":"yes","fuel:lpg":"yes","fuel:octane_95":"yes","ref":"8309"},"wikidata":"Q24315","coordinates":[41.7699605,25.3533879]},"atp":{"id":"kvLd-0JJQEttqXnkJ2-utjVf_mE=","tags":{"ref":"8309","amenity":"fuel","addr:street_address":"местност Юсуф Дуду","addr:city":"Черноочене","addr:country":"BG","name":"Черноочене","phone":"+359 88 530 3853","opening_hours":"Mo-Su 00:00-24:00","brand":"Petrol","brand:wikidata":"Q24315"},"coordinates":[41.76992,25.35335]},"dist":5.492,"tags_mismatch":true},{"osm":{"type":"node","id":3325311268,"tags":{"amenity":"fuel","brand":"Петрол","brand:wikidata":"Q24315"},"wikidata":"Q24315","coordinates":[41.4101389,23.2100367]},"atp":{"id":"BhEDWxU-VJ2UztMrS2oODknUcJQ=","tags":{"ref":"2127","amenity":"fuel","addr:street_address":"гр. Провадия, вход от магистралата","addr:city":"Провадия","addr:country":"BG","name":"Провадия","phone":"+359 88 866 9210","opening_hours":"Mo-Su 00:00-24:00","brand":"Petrol","brand:wikidata":"Q24315"},"coordinates":[43.20611236576697,27.449194645132504]},"tags_mismatch":true},{"osm":{"type":"node","id":3413120416,"tags":{"amenity":"fuel","brand":"Петрол","brand:wikidata":"Q24315"},"wikidata":"Q24315","coordinates":[42.4754506,27.4386356]},"atp":{"id":"inlG-nrMXo1GGO1Lsz1l_WhVRME=","tags":{"ref":"2128","amenity":"fuel","addr:street_address":"ул. Здравко Бомбов","addr:city":"Суворово","addr:country":"BG","name":"Суворово","phone":"+359 88 530 3688","opening_hours":"Mo-Su 07:00-19:00","brand":"Petrol","brand:wikidata":"Q24315"},"coordinates":[43.3263,27.58681]},"tags_mismatch":true},{"osm":{"type":"node","id":3529159773,"tags":{"amenity":"fuel","brand":"Петрол","brand:wikidata":"Q24315"},"wikidata":"Q24315","coordinates":[42.5979799,24.9990615]},"atp":{"id":"t5SJHYBCqPn8MzxLrVlreuf98wg=","tags":{"ref":"2130","amenity":"fuel","addr:street_address":"бул. Владислав Варненчик №256","addr:city":"Варна","addr:country":"BG","name":"Варна: Вл. Варненчик","phone":"+359 88 530 3690","opening_hours":"Mo-Su 00:00-24:00","brand":"Petrol","brand:wikidata":"Q24315"},"coordinates":[43.22206,27.87545]},"tags_mismatch":true},{"osm":{"type":"node","id":3695710572,"tags":{"amenity":"fuel","brand":"Петрол","brand:wikidata":"Q24315","shop":"convenience"},"wikidata":"Q24315","coordinates":[43.4692014,25.7173284]},"atp":{"id":"tZ9-un1H5DnmoQ8z_DDUhr4nHf8=","tags":{"ref":"6110","amenity":"fuel","addr:street_address":"бул. Кольо Фичето №17</br>на гл. път Русе – София","addr:city":"Бяла","addr:country":"BG","name":"Бяла","phone":"+359 88 530 3616","opening_hours":"Mo-Su 00:00-24:00","brand":"Petrol","brand:wikidata":"Q24315"},"coordinates":[43.46897,25.71681]},"dist":49.114,"tags_mismatch":true},{"osm":{"type":"node","id":3720562583,"tags":{"amenity":"fuel","brand":"Петрол","brand:wikidata":"Q24315"},"wikidata":"Q24315","coordinates":[43.7996303,26.1965798]},"atp":{"id":"-xz6Ml-LAWp-3eV75QXtczRa3hk=","tags":{"ref":"2136","amenity":"fuel","addr:street_address":"м. Харамията</br>на 5 км посока Бургас","addr:city":"Варна","addr:country":"BG","name":"Варна: Харамията","phone":"+359 88 530 3691","opening_hours":"Mo-Su 00:00-24:00","brand":"Petrol","brand:wikidata":"Q24315"},"coordinates":[43.12937,27.81316]},"tags_mismatch":true},{"osm":{"type":"node","id":3812759704,"tags":{"amenity":"fuel","brand":"Петрол","brand:wikidata":"Q24315"},"wikidata":"Q24315","coordinates":[42.1831391,24.7379235]},"atp":{"id":"wdc0IzXHcT--aBcvx4c9QJvSVm8=","tags":{"ref":"2202","amenity":"fuel","addr:street_address":"ул. Калиакра","addr:city":"Добрич","addr:country":"BG","name":"Добрич: Север 3","phone":"+359 88 530 3693","opening_hours":"Mo-Su 00:00-24:00","brand":"Petrol","brand:wikidata":"Q24315"},"coordinates":[43.57873,27.81621]},"tags_mismatch":true},{"osm":{"type":"node","id":3837622807,"tags":{"amenity":"fuel","brand":"Петрол","brand:wikidata":"Q24315","opening_hours":"24/7"},"wikidata":"Q24315","coordinates":[42.5008705,27.4739573]},"atp":{"id":"xgLWp87U1JuAJaD04b9xm0Sfw9I=","tags":{"ref":"2203","amenity":"fuel","addr:street_address":"ул. 25–ти Септември №2, Южна промишлена зона</br>изход за Варна","addr:city":"Добрич","addr:country":"BG","name":"Добрич: Южна промишлена зона","phone":"+359 88 530 3694","opening_hours":"Mo-Su 00:00-24:00","brand":"Petrol","brand:wikidata":"Q24315"},"coordinates":[43.547,27.82309]},"tags_mismatch":true},{"osm":{"type":"node","id":4040925890,"tags":{"amenity":"fuel","brand":"Петрол","brand:wikidata":"Q24315"},"wikidata":"Q24315","coordinates":[42.8752907,26.4580962]},"atp":{"id":"w7bhvKtve4FTDrPsZy_uFjm3iWY=","tags":{"ref":"2205","amenity":"fuel","addr:street_address":"ул. Хан Аспарух №99</br>кв. Изгрев","addr:city":"Тервел","addr:country":"BG","name":"Тервел","phone":"+359 88 530 3696","opening_hours":"Mo-Su 00:00-24:00","brand":"Petrol","brand:wikidata":"Q24315"},"coordinates":[43.73687,27.42162]},"tags_mismatch":true},{"osm":{"type":"node","id":4194593824,"tags":{"addr:city":"Рила","amenity":"fuel","brand":"Петрол","brand:wikidata":"Q24315","fuel:diesel":"yes","fuel:octane_95":"yes","opening_hours":"24/7","phone":"+359 89 914 7432"},"wikidata":"Q24315","coordinates":[42.1178589,23.1209542]},"atp":{"id":"lOXINl4kn9BqqQQuIN-HCwEFfqo=","tags":{"ref":"2209","amenity":"fuel","addr:street_address":"ул. Дунав","addr:city":"Балчик","addr:country":"BG","name":"Балчик: Васил Левски","phone":"+359 88 530 3699","opening_hours":"Mo-Su 00:00-24:00","brand":"Petrol","brand:wikidata":"Q24315"},"coordinates":[43.42696,28.16047]},"tags_mismatch":true},{"osm":{"type":"node","id":4227222215,"tags":{"addr:city":"Кърджали","addr:postcode":"6600","amenity":"fuel","brand":"Петрол","brand:wikidata":"Q24315"},"wikidata":"Q24315","coordinates":[41.6289538,25.358665]},"atp":{"id":"7jcmWBZuVVgNGikoYDb32sJQYSM=","tags":{"ref":"8311","amenity":"fuel","addr:street_address":"кв. Възрожденци","addr:city":"Кърджали","addr:country":"BG","name":"Кърджали: Възрожденци","phone":"+359 88 530 3855","opening_hours":"Mo-Su 00:00-24:00","brand":"Petrol","brand:wikidata":"Q24315"},"coordinates":[41.62893,25.35877]},"dist":9.119,"tags_mismatch":true},{"osm":{"type":"node","id":4260774822,"tags":{"amenity":"fuel","brand":"Петрол","brand:wikidata":"Q24315"},"wikidata":"Q24315","coordinates":[43.8051143,25.9209562]},"atp":{"id":"epvP5Jrp9W5DzgiFrdSRFktivhE=","tags":{"ref":"6102","amenity":"fuel","addr:street_address":"гл. път Е85</br>Индустриална зона запад","addr:city":"Русе","addr:country":"BG","name":"Русе: Индустриална зона запад","phone":"+359 88 530 3608","opening_hours":"Mo-Su 00:00-24:00","brand":"Petrol","brand:wikidata":"Q24315"},"coordinates":[43.80524,25.92101]},"dist":14.629,"tags_mismatch":true},{"osm":{"type":"node","id":4272684690,"tags":{"amenity":"fuel","brand":"Петрол","brand:wikidata":"Q24315","wheelchair":"yes"},"wikidata":"Q24315","coordinates":[43.094152,24.151382]},"atp":{"id":"M6BVMOqzMLuLccilYz5FULSoGR8=","tags":{"ref":"4411","amenity":"fuel","addr:street_address":"ул. Опълченска №55","addr:city":"Златна Панега","addr:country":"BG","name":"Златна Панега","phone":"+359 88 530 3458","opening_hours":"Mo-Su 00:00-24:00","brand":"Petrol","brand:wikidata":"Q24315"},"coordinates":[43.09412,24.15144]},"dist":5.903,"tags_mismatch":true},{"osm":{"type":"node","id":4286425515,"tags":{"amenity":"fuel","brand":"Петрол","brand:wikidata":"Q24315","opening_hours":"24/7","phone":"+359 88 530 3633"},"wikidata":"Q24315","coordinates":[44.0969708,27.2770154]},"atp":{"id":"TqBsMEd2QnekSeY3UChDX13GY3M=","tags":{"ref":"6302","amenity":"fuel","addr:street_address":"изход за Добрич","addr:city":"Силистра","addr:country":"BG","name":"Силистра: Индустриална Зона","phone":"+359 88 530 3633","opening_hours":"Mo-Su 00:00-24:00","brand":"Petrol","brand:wikidata":"Q24315"},"coordinates":[44.09694,27.27706]},"dist":4.941,"tags_mismatch":true},{"osm":{"type":"node","id":4286427716,"tags":{"amenity":"fuel","brand":"Петрол","brand:wikidata":"Q24315"},"wikidata":"Q24315","coordinates":[44.1174706,27.2731548]},"atp":{"id":"kzM5YAqEZ_-87JNd03rhpcYZ_OA=","tags":{"ref":"6310","amenity":"fuel","addr:street_address":"ул. Дръстър</br>ГКПП Силистра","addr:city":"Силистра","addr:country":"BG","name":"Силистра: ГКПП","phone":"+359 88 530 3639","opening_hours":"Mo-Su 07:00-22:00","brand":"Petrol","brand:wikidata":"Q24315"},"coordinates":[44.11749,27.27318]},"dist":2.95,"tags_mismatch":true},{"osm":{"type":"node","id":4308077310,"tags":{"amenity":"fuel","brand":"Петрол","brand:wikidata":"Q24315","self_service":"yes"},"wikidata":"Q24315","coordinates":[42.6435688,23.3737334]},"atp":{"id":"Ff3MoP0-mHviKq9z8TxSGnBEJFs=","tags":{"ref":"7130","amenity":"fuel","addr:street_address":"бул. Александър Малинов №63</br>ж.к. Младост 2","addr:city":"София","addr:country":"BG","name":"София: Младост 2","phone":"+359 88 522 0412","opening_hours":"Mo-Su 00:00-24:00","brand":"Petrol","brand:wikidata":"Q24315"},"coordinates":[42.64356,23.37377]},"dist":3.149,"tags_mismatch":true},{"osm":{"type":"node","id":4388671317,"tags":{"amenity":"fuel","brand":"Петрол","brand:wikidata":"Q24315","opening_hours":"24/7","phone":"+359 88 530 3287"},"wikidata":"Q24315","coordinates":[41.4941888,24.8503549]},"atp":{"id":"ZwLdfgB_3udodBx9AOZQQZBWxTE=","tags":{"ref":"5311","amenity":"fuel","addr:street_address":"ул. Хан Аспарух №1","addr:city":"Рудозем","addr:country":"BG","name":"Рудозем","phone":"+359 88 530 3287","opening_hours":"Mo-Su 00:00-24:00","brand":"Petrol","brand:wikidata":"Q24315"},"coordinates":[41.49418,24.85034]},"dist":1.58,"tags_mismatch":true},{"osm":{"type":"node","id":4535762474,"tags":{"amenity":"fuel","brand":"Петрол","brand:wikidata":"Q24315"},"wikidata":"Q24315","coordinates":[42.7089813,24.1309794]},"atp":{"id":"MtoAfuXgcUXSlrp_XO6g1C2RgDY=","tags":{"ref":"7233","amenity":"fuel","addr:street_address":"Златица на гл. път 6","addr:city":"Златица","addr:country":"BG","name":"Златица","phone":"+359 88 469 4949","opening_hours":"Mo-Su 00:00-24:00","brand":"Petrol","brand:wikidata":"Q24315"},"coordinates":[42.70903065468443,24.130850354292463]},"dist":11.887,"tags_mismatch":true},{"osm":{"type":"node","id":4705204220,"tags":{"amenity":"fuel","brand":"Петрол","brand:wikidata":"Q24315"},"wikidata":"Q24315","coordinates":[43.2706978,24.0743975]},"atp":{"id":"fsqn_qTUrOQV8ksKRoWA0bkvC_U=","tags":{"ref":"4109","amenity":"fuel","addr:street_address":"до Петролна База","addr:city":"Червен бряг","addr:country":"BG","name":"Червен бряг: Петролна База","phone":"+359 88 530 3412","opening_hours":"Mo-Su 06:00-22:00","brand":"Petrol","brand:wikidata":"Q24315"},"coordinates":[43.27065,24.07436]},"dist":6.121,"tags_mismatch":true},{"osm":{"type":"node","id":4723683617,"tags":{"amenity":"fuel","brand":"Петрол","brand:wikidata":"Q24315","compressed_air":"yes"},"wikidata":"Q24315","coordinates":[42.3521165,23.5496372]},"atp":{"id":"ppYcPk1s_GImjwsMemLxkO2UDfU=","tags":{"ref":"7210","amenity":"fuel","addr:street_address":"бул. Софийско шосе №42</br>изход за София","addr:city":"Самоков","addr:country":"BG","name":"Самоков","phone":"+359 88 522 0450","opening_hours":"Mo-Su 00:00-24:00","brand":"Petrol","brand:wikidata":"Q24315"},"coordinates":[42.35204,23.54964]},"dist":8.51,"tags_mismatch":true},{"osm":{"type":"node","id":4800484841,"tags":{"addr:street":"Княз Имеритински","amenity":"fuel","branch":"4407","brand":"Петрол","brand:wikidata":"Q24315","payment:cash":"yes","payment:mastercard":"yes"},"wikidata":"Q24315","coordinates":[43.1497878,24.7143572]},"atp":{"id":"9f03oGOF94AMnDDLaH7HaVkghfY=","tags":{"ref":"4407","amenity":"fuel","addr:street_address":"ул. Княз Имеритински</br>Северна промишлена зона","addr:city":"Ловеч","addr:country":"BG","name":"Ловеч: Северна промишлена зона","phone":"+359 88 766 9206","opening_hours":"Mo-Su 00:00-24:00","brand":"Petrol","brand:wikidata":"Q24315"},"coordinates":[43.14973,24.71447]},"dist":11.182,"tags_mismatch":true},{"osm":{"type":"node","id":4800783864,"tags":{"addr:city":"Ловеч","addr:housenumber":"29","addr:postcode":"5500","addr:street":"ул. Д-р Съйко Съев","amenity":"fuel","brand":"Петрол","brand:wikidata":"Q24315"},"wikidata":"Q24315","coordinates":[43.1320713,24.7038827]},"atp":{"id":"b5oA2e8Mqov-h_L_nt5wJkoGC-o=","tags":{"ref":"4401","amenity":"fuel","addr:street_address":"ул. Доктор Съйко Съев №176</br>изход за София","addr:city":"Ловеч","addr:country":"BG","name":"Ловеч: Младост","phone":"+359 88 530 3450","opening_hours":"Mo-Su 00:00-24:00","brand":"Petrol","brand:wikidata":"Q24315"},"coordinates":[43.13205,24.70386]},"dist":3,"tags_mismatch":true},{"osm":{"type":"node","id":4829395302,"tags":{"amenity":"fuel","brand":"Петрол","brand:wikidata":"Q24315","opening_hours":"Mo-Su 07:00-19:00","phone":"+359 88 530 3285"},"wikidata":"Q24315","coordinates":[41.5322548,24.9172894]},"atp":{"id":"tnwl3TE017l1dH2Y17bzkgopb8w=","tags":{"ref":"5308","amenity":"fuel","addr:street_address":"ул. Здравец №18","addr:city":"Средногорци","addr:country":"BG","name":"Средногорци","phone":"+359 88 530 3285","opening_hours":"Mo-Su 07:30-18:30","brand":"Petrol","brand:wikidata":"Q24315"},"coordinates":[41.53227,24.91729]},"dist":1.691,"tags_mismatch":true},{"osm":{"type":"node","id":4876651060,"tags":{"amenity":"fuel","brand":"Петрол","brand:wikidata":"Q24315","fuel:diesel":"yes","fuel:lpg":"yes","fuel:octane_95":"yes"},"wikidata":"Q24315","coordinates":[42.8492131,23.027026]},"atp":{"id":"Exx2MSea-X7xN_GI4g-giLz_5VA=","tags":{"ref":"2226","amenity":"fuel","addr:street_address":"гр. Генерал Тошево, ул. Димитър Благоев, Промишлена зона №77","addr:city":"Генерал Тошево","addr:country":"BG","name":"Генерал Тошево","phone":"+359 88 522 0410","opening_hours":"Mo-Su 00:00-24:00","brand":"Petrol","brand:wikidata":"Q24315"},"coordinates":[43.72317552666915,28.044331575355777]},"tags_mismatch":true},{"osm":{"type":"node","id":4879101259,"tags":{"amenity":"fuel","brand":"Петрол","brand:wikidata":"Q24315"},"wikidata":"Q24315","coordinates":[43.2025413,23.2930756]},"atp":{"id":"aBIma76kIHEq_zd_T1UeHYMUZZg=","tags":{"ref":"3305","amenity":"fuel","addr:street_address":"ул. Република</br> гл. път Враца – Вършец","addr:city":"Вършец","addr:country":"BG","name":"Вършец","phone":"+359 88 530 3945","opening_hours":"Mo-Su 06:00-22:00","brand":"Petrol","brand:wikidata":"Q24315"},"coordinates":[43.20251,23.29316]},"dist":7.675,"tags_mismatch":true},{"osm":{"type":"node","id":4920647059,"tags":{"amenity":"fuel","brand":"Петрол","brand:wikidata":"Q24315","opening_hours":"Mo-Sa 07:00-19:00; Su 06:00-19:00","phone":"+359 88 530 3464"},"wikidata":"Q24315","coordinates":[43.0406344,24.531308]},"atp":{"id":"YwBbF3r2D9rMqaNf8cTDwlOOZJw=","tags":{"ref":"4420","amenity":"fuel","addr:street_address":"реп. път E772 I-4, посока София–Варна</br>м–ст Дончовското","addr:city":"Микре","addr:country":"BG","name":"Микре","phone":"+359 88 530 3464","opening_hours":"Mo-Su 07:30-18:30","brand":"Petrol","brand:wikidata":"Q24315"},"coordinates":[43.04064,24.53129]},"dist":1.59,"tags_mismatch":true},{"osm":{"type":"node","id":4931893520,"tags":{"amenity":"fuel","brand":"Петрол","brand:wikidata":"Q24315"},"wikidata":"Q24315","coordinates":[42.2651609,27.7446496]},"atp":{"id":"jWWgsLr1wrlIrPT7h2MRnjQT6G0=","tags":{"ref":"2302","amenity":"fuel","addr:street_address":"бул. Симеон Велики №82</br>изход за Варна","addr:city":"Шумен","addr:country":"BG","name":"Шумен: Изход Варна","phone":"+359 88 530 3709","opening_hours":"Mo-Sa 07:00-19:00; Su 07:00-13:00","brand":"Petrol","brand:wikidata":"Q24315"},"coordinates":[43.28059,26.97332]},"tags_mismatch":true},{"osm":{"type":"node","id":4952173686,"tags":{"amenity":"fuel","brand":"Петрол","brand:wikidata":"Q24315","fuel:diesel":"yes","fuel:lpg":"yes","fuel:octane_100":"yes","fuel:octane_95":"yes"},"wikidata":"Q24315","coordinates":[42.9220196,22.9374763]},"atp":{"id":"XfNepf-4XLVqRuFQcVPIW9sd6xs=","tags":{"ref":"7203","amenity":"fuel","addr:street_address":"международен път Е80</br>София–Калотина","addr:city":"Драгоман","addr:country":"BG","name":"Драгоман","phone":"+359 88 522 0443","opening_hours":"Mo-Su 00:00-24:00","brand":"Petrol","brand:wikidata":"Q24315"},"coordinates":[42.92199,22.93734]},"dist":11.576,"tags_mismatch":true},{"osm":{"type":"node","id":4956211559,"tags":{"amenity":"fuel","brand":"Петрол","brand:wikidata":"Q24315"},"wikidata":"Q24315","coordinates":[42.8598647,23.0290261]},"atp":{"id":"BrvTeL3Wcn2lXHZEyNOV0Phdacc=","tags":{"ref":"2304","amenity":"fuel","addr:street_address":"5-ти километър</br>местност Мералък","addr:city":"Шумен","addr:country":"BG","name":"Шумен: 5-ти Километър","phone":"+359 88 530 3711","opening_hours":"Mo-Su 00:00-24:00","brand":"Petrol","brand:wikidata":"Q24315"},"coordinates":[43.30636,26.93602]},"tags_mismatch":true},{"osm":{"type":"node","id":4997869482,"tags":{"amenity":"fuel","brand":"Петрол","brand:wikidata":"Q24315"},"wikidata":"Q24315","coordinates":[42.0907117,26.3422573]},"atp":{"id":"HR0TxEGrNqTbnEehAzfFGgFvPCI=","tags":{"ref":"8108","amenity":"fuel","addr:street_address":"ул. Искър №14","addr:city":"Тополовград","addr:country":"BG","name":"Тополовград","phone":"+359 88 530 3813","opening_hours":"Mo-Su 06:00-22:00","brand":"Petrol","brand:wikidata":"Q24315"},"coordinates":[42.09072,26.34232]},"dist":5.255,"tags_mismatch":true},{"osm":{"type":"node","id":5072814624,"tags":{"amenity":"fuel","brand":"Петрол","brand:wikidata":"Q24315","internet_access":"wlan"},"wikidata":"Q24315","coordinates":[42.2751578,22.6685036]},"atp":{"id":"NzR3XXtOkJ2KbJAj9hkbBBkf9kM=","tags":{"ref":"2305","amenity":"fuel","addr:street_address":"ул. Ген. Скобелев</br>кв. Гривица","addr:city":"Шумен","addr:country":"BG","name":"Шумен: Гривица","phone":"+359 88 530 3712","opening_hours":"Mo-Su 00:00-24:00","brand":"Petrol","brand:wikidata":"Q24315"},"coordinates":[43.27669,26.9132]},"tags_mismatch":true},{"osm":{"type":"node","id":5284043002,"tags":{"amenity":"fuel","brand":"Петрол","brand:wikidata":"Q24315","fuel:diesel":"yes","fuel:octane_95":"yes","fuel:octane_98":"yes","payment:credit_cards":"yes","payment:debit_cards":"yes"},"wikidata":"Q24315","coordinates":[43.3917257,24.6206736]},"atp":{"id":"aNvr6XBCEd43Q-ITDLe-i2E-lpk=","tags":{"ref":"2307","amenity":"fuel","addr:street_address":"ул. Борис Спиров №47","addr:city":"В. Преслав","addr:country":"BG","name":"В. Преслав","phone":"+359 88 530 3713","opening_hours":"Mo-Su 00:00-24:00","brand":"Petrol","brand:wikidata":"Q24315"},"coordinates":[43.16154,26.82146]},"tags_mismatch":true},{"osm":{"type":"node","id":5347644839,"tags":{"amenity":"fuel","brand":"Петрол","brand:wikidata":"Q24315"},"wikidata":"Q24315","coordinates":[42.1833133,26.575345]},"atp":{"id":"OA433UqCOMliEUcfubrGJZATp1M=","tags":{"ref":"2310","amenity":"fuel","addr:street_address":"ул.Еделвайс №38","addr:city":"Хитрино","addr:country":"BG","name":"Хитрино","phone":"+359 88 530 3715","opening_hours":"Mo-Su 07:30-18:30","brand":"Petrol","brand:wikidata":"Q24315"},"coordinates":[43.42181,26.9154]},"tags_mismatch":true},{"osm":{"type":"node","id":5520077221,"tags":{"amenity":"fuel","brand":"Петрол","brand:wikidata":"Q24315"},"wikidata":"Q24315","coordinates":[42.3505867,23.0132686]},"atp":{"id":"Z6BN19YYlcvCxW6K5IuvfOKGGiw=","tags":{"ref":"2312","amenity":"fuel","addr:street_address":"изход Силистра","addr:city":"Нови Пазар","addr:country":"BG","name":"Нови Пазар: Север","phone":"+359 88 530 3717","opening_hours":"Mo-Su 07:30-18:30","brand":"Petrol","brand:wikidata":"Q24315"},"coordinates":[43.35854,27.19017]},"tags_mismatch":true},{"osm":{"type":"node","id":5637831865,"tags":{"amenity":"fuel","brand":"Петрол","brand:wikidata":"Q24315"},"wikidata":"Q24315","coordinates":[43.1583814,24.7056225]},"atp":{"id":"BqqSYfPhFE4L0r3GfdIMO1J0oA4=","tags":{"ref":"2315","amenity":"fuel","addr:street_address":"ул. Индустриална №9","addr:city":"Шумен","addr:country":"BG","name":"Шумен: Промишлена зона","phone":"+359 88 530 3649","opening_hours":"Mo-Su 06:00-22:00","brand":"Petrol","brand:wikidata":"Q24315"},"coordinates":[43.27252,26.94343]},"tags_mismatch":true},{"osm":{"type":"node","id":5730420854,"tags":{"amenity":"fuel","brand":"Петрол","brand:wikidata":"Q24315","opening_hours":"Mo-Su 07:00-19:00","phone":"+359 88 530 3926"},"wikidata":"Q24315","coordinates":[43.2272408,23.5230229]},"atp":{"id":"b2xsU0nPspcyY40UlICI1tMrbqs=","tags":{"ref":"3103","amenity":"fuel","addr:street_address":"ул. Илинден №2, главен път София – Видин</br>ж.к. Хранително–вкусова зона","addr:city":"Враца","addr:country":"BG","name":"Враца: Хранително–вкусова зона 2","phone":"+359 88 530 3912","opening_hours":"Mo-Su 00:00-24:00","brand":"Petrol","brand:wikidata":"Q24315"},"coordinates":[43.2222,23.53]},"tags_mismatch":true},{"osm":{"type":"node","id":5730721107,"tags":{"amenity":"fuel","brand":"Петрол","brand:wikidata":"Q24315"},"wikidata":"Q24315","coordinates":[43.8202773,23.1957878]},"atp":{"id":"ij4NWeP2EwTj0_pd18YsHZKp7LQ=","tags":{"ref":"3313","amenity":"fuel","addr:street_address":"ул. Ал. Стамболийски</br>м–ст Бахчите","addr:city":"Лом","addr:country":"BG","name":"Лом","phone":"+359 88 530 3952","opening_hours":"Mo-Su 06:00-22:00","brand":"Petrol","brand:wikidata":"Q24315"},"coordinates":[43.8202,23.19586]},"dist":10.365,"tags_mismatch":true},{"osm":{"type":"node","id":5749734306,"tags":{"amenity":"fuel","brand":"Петрол","brand:wikidata":"Q24315"},"wikidata":"Q24315","coordinates":[43.2246299,27.5726142]},"atp":{"id":"89hB5L5b8NzZemNoYI92a73BetU=","tags":{"ref":"3105","amenity":"fuel","addr:street_address":"ул. 9–ти септември</br>център","addr:city":"Мездра","addr:country":"BG","name":"Мездра: Кременска Рампа","phone":"+359 88 530 3914","opening_hours":"Mo-Fr 06:00-20:00; Sa-Su 08:00-20:00","brand":"Petrol","brand:wikidata":"Q24315"},"coordinates":[43.14704,23.72076]},"tags_mismatch":true},{"osm":{"type":"node","id":5805458320,"tags":{"amenity":"fuel","brand":"Петрол","brand:wikidata":"Q24315"},"wikidata":"Q24315","coordinates":[43.7264693,23.9491373]},"atp":{"id":"q-OVy6a6MB_d0fgFNLxS32F8J7A=","tags":{"ref":"3109","amenity":"fuel","addr:street_address":"ул. Димитър Бутански №2","addr:city":"Кнежа","addr:country":"BG","name":"Кнежа","phone":"+359 88 530 3918","opening_hours":"Mo-Su 00:00-24:00","brand":"Petrol","brand:wikidata":"Q24315"},"coordinates":[43.49101,24.0861]},"tags_mismatch":true},{"osm":{"type":"node","id":5808717770,"tags":{"amenity":"fuel","brand":"Петрол","brand:wikidata":"Q24315","internet_access":"wlan","opening_hours":"24/7"},"wikidata":"Q24315","coordinates":[41.5153408,23.8010365]},"atp":{"id":"hx-AWH6nYuglb2ZA8napmPcEX6E=","tags":{"ref":"3117","amenity":"fuel","addr:street_address":"вход от Враца","addr:city":"Бутан","addr:country":"BG","name":"Бутан","phone":"+359 88 530 3925","opening_hours":"Mo-Su 07:00-21:00","brand":"Petrol","brand:wikidata":"Q24315"},"coordinates":[43.6513,23.76142]},"tags_mismatch":true},{"osm":{"type":"node","id":5894784863,"tags":{"amenity":"fuel","brand":"Петрол","brand:wikidata":"Q24315"},"wikidata":"Q24315","coordinates":[41.6592881,24.7130609]},"atp":{"id":"l3r8HG91x2ImAE48QDD-ZuXRrFg=","tags":{"ref":"5307","amenity":"fuel","addr:street_address":"к.к. Пампорово","addr:city":"Пампорово","addr:country":"BG","name":"Пампорово","phone":"+359 88 530 3284","opening_hours":"Mo-Su 06:00-22:00","brand":"Petrol","brand:wikidata":"Q24315"},"coordinates":[41.65928,24.71301]},"dist":4.323,"tags_mismatch":true},{"osm":{"type":"node","id":5923512672,"tags":{"amenity":"fuel","brand":"Петрол","brand:wikidata":"Q24315","opening_hours":"24/7","phone":"+359 88 530 3912"},"wikidata":"Q24315","coordinates":[43.2221943,23.5299544]},"atp":{"id":"TJUDp8_5tZm_L8Th2jeDgQUlLMA=","tags":{"ref":"3133","amenity":"fuel","addr:street_address":"ул. Цар Борис Първи №2","addr:city":"Враца","addr:country":"BG","name":"Враца: Река Лева","phone":"+359 88 530 3930","opening_hours":"Mo-Su 00:00-24:00","brand":"Petrol","brand:wikidata":"Q24315"},"coordinates":[43.20874,23.54656]},"tags_mismatch":true},{"osm":{"type":"node","id":5923674271,"tags":{"amenity":"fuel","brand":"Петрол","brand:wikidata":"Q24315","opening_hours":"24/7","phone":"+359 88 530 3637"},"wikidata":"Q24315","coordinates":[43.9358149,27.2900325]},"atp":{"id":"5UrP5keNCLiKChYDgJhaEJYVwzM=","tags":{"ref":"6308","amenity":"fuel","addr:street_address":"ул. Олшанка","addr:city":"Алфатар","addr:country":"BG","name":"Алфатар","phone":"+359 88 530 3637","opening_hours":"Mo-Su 06:00-22:00","brand":"Petrol","brand:wikidata":"Q24315"},"coordinates":[43.93585,27.29005]},"dist":4.147,"tags_mismatch":true},{"osm":{"type":"node","id":6041472700,"tags":{"amenity":"fuel","brand":"Петрол","brand:wikidata":"Q24315","fuel:diesel":"yes","fuel:octane_95":"yes","opening_hours":"Mo-Su 07:00-19:00","phone":"+359 88 530 3411"},"wikidata":"Q24315","coordinates":[41.5762106,25.1299672]},"atp":{"id":"dQRYcC3yTPJ7ixjXSDo2EdkeOJE=","tags":{"ref":"8304","amenity":"fuel","addr:street_address":"пътя за Смолян</br>м–ст Любовна чешма","addr:city":"Ардино","addr:country":"BG","name":"Ардино","phone":"+359 88 530 3411","opening_hours":"Mo-Sa 07:00-19:00; Su 07:00-13:00","brand":"Petrol","brand:wikidata":"Q24315"},"coordinates":[41.57621,25.12997]},"dist":0.242,"tags_mismatch":true},{"osm":{"type":"node","id":6054240885,"tags":{"amenity":"fuel","brand":"Петрол","brand:wikidata":"Q24315"},"wikidata":"Q24315","coordinates":[43.2531157,24.1860682]},"atp":{"id":"evwrh4mRXMz_zOfHK23kyswuacc=","tags":{"ref":"4111","amenity":"fuel","addr:street_address":"ул. Васил Левски №1А","addr:city":"Радомирци","addr:country":"BG","name":"Радомирци","phone":"+359 88 530 3414","opening_hours":"Mo-Su 00:00-24:00","brand":"Petrol","brand:wikidata":"Q24315"},"coordinates":[43.25309,24.18614]},"dist":6.479,"tags_mismatch":true},{"osm":{"type":"node","id":6147135312,"tags":{"amenity":"fuel","brand":"Петрол","brand:wikidata":"Q24315"},"wikidata":"Q24315","coordinates":[41.3944211,25.3985117]},"atp":{"id":"OeHZXn6uRZYUdALKkujl0qnCjP4=","tags":{"ref":"8308","amenity":"fuel","addr:street_address":"Джебелска река","addr:city":"Подкова","addr:country":"BG","name":"Подкова","phone":"+359 88 530 3852","opening_hours":"Mo-Su 07:30-18:30","brand":"Petrol","brand:wikidata":"Q24315"},"coordinates":[41.39449,25.39844]},"dist":9.719,"tags_mismatch":true},{"osm":{"type":"node","id":6181345272,"tags":{"amenity":"fuel","brand":"Петрол","brand:wikidata":"Q24315"},"wikidata":"Q24315","coordinates":[42.2040765,24.6739739]},"atp":{"id":"I2ZDYZQYWj5oCaX_G_cx3RIoQgQ=","tags":{"ref":"3201","amenity":"fuel","addr:street_address":"ул. Митрополит Кирил №1","addr:city":"Видин","addr:country":"BG","name":"Видин: Център","phone":"+359 88 530 3931","opening_hours":"Mo-Su 06:00-22:00","brand":"Petrol","brand:wikidata":"Q24315"},"coordinates":[43.98562,22.87339]},"tags_mismatch":true},{"osm":{"type":"node","id":6433115207,"tags":{"amenity":"fuel","brand":"Петрол","brand:wikidata":"Q24315"},"wikidata":"Q24315","coordinates":[43.4141045,23.2057247]},"atp":{"id":"gSm1oHWnRqaWMjocXdDKrE18qcw=","tags":{"ref":"3303","amenity":"fuel","addr:street_address":"гл. път Е79</br>София – Видин","addr:city":"Монтана","addr:country":"BG","name":"Монтана: Парта","phone":"+359 88 530 3944","opening_hours":"Mo-Su 00:00-24:00","brand":"Petrol","brand:wikidata":"Q24315"},"coordinates":[43.41415,23.20572]},"dist":5.074,"tags_mismatch":true},{"osm":{"type":"node","id":6468219697,"tags":{"amenity":"fuel","brand":"Петрол","brand:wikidata":"Q24315","compressed_air":"yes"},"wikidata":"Q24315","coordinates":[43.4140973,23.2304541]},"atp":{"id":"dLffKnToY_vhlCO1q61MmGmePpw=","tags":{"ref":"3204","amenity":"fuel","addr:street_address":"ул. Опълченска №55","addr:city":"Кула","addr:country":"BG","name":"Кула","phone":"+359 88 530 3934","opening_hours":"Mo-Su 00:00-24:00","brand":"Petrol","brand:wikidata":"Q24315"},"coordinates":[43.89793,22.52904]},"tags_mismatch":true},{"osm":{"type":"node","id":7678327397,"tags":{"amenity":"fuel","brand":"Петрол","brand:wikidata":"Q24315"},"wikidata":"Q24315","coordinates":[42.2812422,24.732857]},"atp":{"id":"MzCu9-J_UMFKT7vpL00ZeXIS34M=","tags":{"ref":"3207","amenity":"fuel","addr:street_address":"вход от Видин","addr:city":"Белоградчик","addr:country":"BG","name":"Белоградчик","phone":"+359 88 530 3937","opening_hours":"Mo-Su 00:00-24:00","brand":"Petrol","brand:wikidata":"Q24315"},"coordinates":[43.62884,22.68437]},"tags_mismatch":true},{"osm":{"type":"node","id":7816765808,"tags":{"amenity":"fuel","brand":"Петрол","brand:wikidata":"Q24315"},"wikidata":"Q24315","coordinates":[43.1552735,26.1725262]},"atp":{"id":"pCS5IyO6iy7ejS4f0cX9rOzQ1D8=","tags":{"ref":"6404","amenity":"fuel","addr:street_address":"гл. път София – Варна","addr:city":"Антоново","addr:country":"BG","name":"Антоново","phone":"+359 88 530 3644","opening_hours":"Mo-Su 00:00-24:00","brand":"Petrol","brand:wikidata":"Q24315"},"coordinates":[43.15526,26.17246]},"dist":5.576,"tags_mismatch":true},{"osm":{"type":"node","id":7857148638,"tags":{"amenity":"fuel","brand":"Петрол","brand:wikidata":"Q24315"},"wikidata":"Q24315","coordinates":[43.1915952,27.7195544]},"atp":{"id":"Ek0gJ09BgpYQdBF5IE5poMwij6c=","tags":{"ref":"3212","amenity":"fuel","addr:street_address":"Южна Промишлена Зона","addr:city":"Видин","addr:country":"BG","name":"Видин: Южна Промишлена Зона","phone":"+359 88 530 3942","opening_hours":"Mo-Su 00:00-24:00","brand":"Petrol","brand:wikidata":"Q24315"},"coordinates":[43.94952,22.84656]},"tags_mismatch":true},{"osm":{"type":"node","id":8700166249,"tags":{"amenity":"fuel","brand":"Петрол","brand:wikidata":"Q24315"},"wikidata":"Q24315","coordinates":[42.2717425,24.911332]},"atp":{"id":"iaE4JWFfVgWzHt7Ddl55KZvc7ko=","tags":{"ref":"5121","amenity":"fuel","addr:street_address":"ул. Христо Смирненски №21В","addr:city":"Раковски","addr:country":"BG","name":"Раковски","phone":"+359 88 530 3248","opening_hours":"Mo-Su 06:00-22:00","brand":"Petrol","brand:wikidata":"Q24315"},"coordinates":[42.27178,24.91135]},"dist":4.425,"tags_mismatch":true},{"osm":{"type":"node","id":8733384874,"tags":{"amenity":"fuel","brand":"Петрол","brand:wikidata":"Q24315","fixme":"add roads and buidings"},"wikidata":"Q24315","coordinates":[42.1938105,25.1562893]},"atp":{"id":"NHn3669Z0_m7ka7sqKBxVnX9h6U=","tags":{"ref":"8143","amenity":"fuel","addr:street_address":"АМ Тракия - 162 км</br>посока Бургас","addr:city":"Оризово","addr:country":"BG","name":"Оризово - АМ Тракия","phone":"+359 88 530 3650","opening_hours":"Mo-Su 00:00-24:00","brand":"Petrol","brand:wikidata":"Q24315"},"coordinates":[42.19355,25.156968]},"dist":62.97,"tags_mismatch":true},{"osm":{"type":"node","id":8775271774,"tags":{"amenity":"fuel","brand":"Петрол","brand:wikidata":"Q24315"},"wikidata":"Q24315","coordinates":[42.0593018,25.5986147]},"atp":{"id":"-lm9tqXrsBUMMLh9I0W7z4VWj7M=","tags":{"ref":"8210","amenity":"fuel","addr:street_address":"бул. Георги С. Раковски","addr:city":"Димитровград","addr:country":"BG","name":"Димитровград","phone":"+359 88 530 3836","opening_hours":"Mo-Sa 07:00-19:00; Su 07:00-13:00","brand":"Petrol","brand:wikidata":"Q24315"},"coordinates":[42.05931,25.59827]},"dist":28.472,"tags_mismatch":true},{"osm":{"type":"node","id":9041550187,"tags":{"amenity":"fuel","brand":"Петрол","brand:wikidata":"Q24315"},"wikidata":"Q24315","coordinates":[43.1149861,26.4196881]},"atp":{"id":"JL8jF2kN6RZ6cAXMAa2wJMcUbyQ=","tags":{"ref":"6403","amenity":"fuel","addr:street_address":"ул. Цар Освободител №37</br>изход за Търговище","addr:city":"Омуртаг","addr:country":"BG","name":"Омуртаг","phone":"+359 88 530 3643","opening_hours":"Mo-Su 06:00-22:00","brand":"Petrol","brand:wikidata":"Q24315"},"coordinates":[43.1149,26.4198]},"dist":13.197,"tags_mismatch":true},{"osm":{"type":"node","id":9045129435,"tags":{"amenity":"fuel","brand":"Петрол","brand:wikidata":"Q24315"},"wikidata":"Q24315","coordinates":[42.2959393,23.2669579]},"atp":{"id":"1APg_ZPIkyiRi2sQGxfU1sq49N0=","tags":{"ref":"7227","amenity":"fuel","addr:street_address":"гр. Сапарева баня, ул. Александър Стамболийски 25","addr:city":"Сапарева баня","addr:country":"BG","name":"Сапарева баня","phone":"+359 87 900 8804","opening_hours":"Mo-Su 06:00-23:00","brand":"Petrol","brand:wikidata":"Q24315"},"coordinates":[42.294879217557316,23.266518311959143]},"dist":123.296,"tags_mismatch":true},{"osm":{"type":"node","id":9127807947,"tags":{"amenity":"fuel","brand":"Петрол","brand:wikidata":"Q24315"},"wikidata":"Q24315","coordinates":[41.7444779,24.0134049]},"atp":{"id":"a0D1tasU9gXWH0t-eDpeKhGgQes=","tags":{"ref":"3223","amenity":"fuel","addr:street_address":"Дунав Мост","addr:city":"Видин","addr:country":"BG","name":"Видин: Дунав Мост","phone":"+359 88 530 3763","opening_hours":"Mo-Su 00:00-24:00","brand":"Petrol","brand:wikidata":"Q24315"},"coordinates":[44.02095,22.93814]},"tags_mismatch":true},{"osm":{"type":"node","id":9144212694,"tags":{"amenity":"fuel","brand":"Петрол","brand:wikidata":"Q24315"},"wikidata":"Q24315","coordinates":[41.4781438,25.6480674]},"atp":{"id":"ambJoYbZQ76PwadNQ1AVhq2Nmig=","tags":{"ref":"3309","amenity":"fuel","addr:street_address":"ул. Първа №34</br>път Монтана – Лом","addr:city":"Мърчево","addr:country":"BG","name":"Мърчево","phone":"+359 88 530 3949","opening_hours":"Mo-Su 07:30-18:30","brand":"Petrol","brand:wikidata":"Q24315"},"coordinates":[43.51391,23.35883]},"tags_mismatch":true},{"osm":{"type":"node","id":9161950028,"tags":{"amenity":"fuel","brand":"Петрол","brand:wikidata":"Q24315"},"wikidata":"Q24315","coordinates":[41.764343,26.2071197]},"atp":{"id":"aFzsowkbGAVdZ4BxjOaDOCjVZ8U=","tags":{"ref":"8216","amenity":"fuel","addr:street_address":"бул. България, Димитър Дулев</br>изход за Кап. Андреево","addr:city":"Свиленград","addr:country":"BG","name":"Свиленград","phone":"+359 88 530 3841","opening_hours":"Mo-Su 06:00-22:00","brand":"Petrol","brand:wikidata":"Q24315"},"coordinates":[41.76437,26.20716]},"dist":4.493,"tags_mismatch":true},{"osm":{"type":"node","id":9230435856,"tags":{"addr:street":"бул. Ломско шосе","amenity":"fuel","brand":"Петрол","brand:wikidata":"Q24315"},"wikidata":"Q24315","coordinates":[42.743775,23.2842684]},"atp":{"id":"xs44QjUqk3fJIKXPBjO09fWl0M4=","tags":{"ref":"7101","amenity":"fuel","addr:street_address":"бул. Ломско шосе</br>изход от София","addr:city":"София","addr:country":"BG","name":"София: Ломско шосе","phone":"+359 88 522 0401","opening_hours":"Mo-Su 07:00-19:00","brand":"Petrol","brand:wikidata":"Q24315"},"coordinates":[42.7436,23.28442]},"dist":23.063,"tags_mismatch":true},{"osm":{"type":"node","id":9308042260,"tags":{"amenity":"fuel","brand":"Петрол","brand:wikidata":"Q24315"},"wikidata":"Q24315","coordinates":[42.6390331,23.381154]},"atp":{"id":"caCnj0RKCVyNZ5wrUdHn8wxZedo=","tags":{"ref":"7118","amenity":"fuel","addr:street_address":"бул. Йордан Милев</br>ж.к. Младост 3","addr:city":"София","addr:country":"BG","name":"София: Младост 3","phone":"+359 88 522 0412","opening_hours":"Mo-Su 00:00-24:00","brand":"Petrol","brand:wikidata":"Q24315"},"coordinates":[42.63917,23.38115]},"dist":15.226,"tags_mismatch":true},{"osm":{"type":"node","id":9330098166,"tags":{"amenity":"fuel","brand":"Петрол","brand:wikidata":"Q24315"},"wikidata":"Q24315","coordinates":[41.5701562,24.7625195]},"atp":{"id":"NQsd3Xkgc4kXgjg7Gg6gZMcUh18=","tags":{"ref":"5301","amenity":"fuel","addr:street_address":"ул. Тракия</br>Промишлена зона Трандевица","addr:city":"Смолян","addr:country":"BG","name":"Смолян","phone":"+359 88 530 3280","opening_hours":"Mo-Su 06:00-22:00","brand":"Petrol","brand:wikidata":"Q24315"},"coordinates":[41.57013,24.76256]},"dist":4.454,"tags_mismatch":true},{"osm":{"type":"node","id":9349879271,"tags":{"amenity":"fuel","brand":"Петрол","brand:wikidata":"Q24315","self_service":"yes"},"wikidata":"Q24315","coordinates":[43.2261961,27.9018673]},"atp":{"id":"7iqtcI5PWp_4OEql2mt8oNnCHzQ=","tags":{"ref":"3319","amenity":"fuel","addr:street_address":"бул. Хр. Ботев №66","addr:city":"Монтана","addr:country":"BG","name":"Монтана: Център","phone":"+359 88 522 0475","opening_hours":"Mo-Su 06:00-22:00","brand":"Petrol","brand:wikidata":"Q24315"},"coordinates":[43.41176,23.2302]},"tags_mismatch":true},{"osm":{"type":"node","id":9381589707,"tags":{"amenity":"fuel","brand":"Петрол","brand:wikidata":"Q24315","opening_hours":"24/7","phone":"+359 88 530 3980"},"wikidata":"Q24315","coordinates":[42.2878153,22.7081146]},"atp":{"id":"dKT-tt5qfdJtHA9zuShOeBqUUbU=","tags":{"ref":"4102","amenity":"fuel","addr:street_address":"ул. Гривишко шосе</br>пътя за Гривица","addr:city":"Плевен","addr:country":"BG","name":"Плевен: Северна промишлена зона","phone":"+359 88 530 3406","opening_hours":"Mo-Su 00:00-24:00","brand":"Petrol","brand:wikidata":"Q24315"},"coordinates":[43.41374,24.65308]},"tags_mismatch":true},{"osm":{"type":"node","id":9532734708,"tags":{"amenity":"fuel","brand":"Петрол","brand:wikidata":"Q24315"},"wikidata":"Q24315","coordinates":[42.4053349,27.6701697]},"atp":{"id":"XkIQT1AcbpcPaWl4tTVkaiPxtGQ=","tags":{"ref":"4110","amenity":"fuel","addr:street_address":"до Ж.П. Гара","addr:city":"Червен бряг","addr:country":"BG","name":"Червен бряг: Ж.П. Гара","phone":"+359 88 530 3413","opening_hours":"Mo-Sa 07:00-19:00; Su 07:00-13:00","brand":"Petrol","brand:wikidata":"Q24315"},"coordinates":[43.27925,24.07661]},"tags_mismatch":true},{"osm":{"type":"node","id":9569074129,"tags":{"amenity":"fuel","brand":"Петрол","brand:wikidata":"Q24315","shop":"convenience","toilets":"yes"},"wikidata":"Q24315","coordinates":[43.0997171,25.6245836]},"atp":{"id":"siN-2R0AMZsg7haZi_VOcwoz5BY=","tags":{"ref":"4113","amenity":"fuel","addr:street_address":"на пътя за Русе","addr:city":"Българене","addr:country":"BG","name":"Българене","phone":"+359 88 530 3416","opening_hours":"Mo-Su 00:00-24:00","brand":"Petrol","brand:wikidata":"Q24315"},"coordinates":[43.44203,25.06362]},"tags_mismatch":true},{"osm":{"type":"node","id":9631321861,"tags":{"amenity":"fuel","brand":"Петрол","brand:wikidata":"Q24315","opening_hours":"24/7","wheelchair":"yes"},"wikidata":"Q24315","coordinates":[42.4767728,26.0136624]},"atp":{"id":"EXh034kU63p5qN5BJnwhO8E_Whs=","tags":{"ref":"4114","amenity":"fuel","addr:street_address":"изход за Никопол, Плевен","addr:city":"Гулянци","addr:country":"BG","name":"Гулянци","phone":"+359 88 530 3417","opening_hours":"Mo-Su 07:00-19:00","brand":"Petrol","brand:wikidata":"Q24315"},"coordinates":[43.6284,24.71001]},"tags_mismatch":true},{"osm":{"type":"node","id":9633313673,"tags":{"amenity":"fuel","brand":"Петрол","brand:wikidata":"Q24315","opening_hours":"Mo-Su 06:00-22:00","phone":"+359 88 530 3733"},"wikidata":"Q24315","coordinates":[42.5206628,27.4412731]},"atp":{"id":"QGoVJ8suOaEGgSudPumP31JKDHI=","tags":{"ref":"4123","amenity":"fuel","addr:street_address":"ул. България</br>изхода за Плевен","addr:city":"Белене","addr:country":"BG","name":"Белене","phone":"+359 88 530 3423","opening_hours":"Mo-Su 06:00-22:00","brand":"Petrol","brand:wikidata":"Q24315"},"coordinates":[43.63458,25.12111]},"tags_mismatch":true},{"osm":{"type":"node","id":9633829716,"tags":{"amenity":"fuel","brand":"Петрол","brand:wikidata":"Q24315","fuel:diesel":"yes","fuel:octane_95":"yes","fuel:octane_98":"yes"},"wikidata":"Q24315","coordinates":[42.1909834,24.1344269]},"atp":{"id":"QrGOM8o77EL1b9gP3ZKcqDMijCI=","tags":{"ref":"5205","amenity":"fuel","addr:street_address":"ул. Велинградско шосе","addr:city":"Септември","addr:country":"BG","name":"Септември","phone":"+359 88 530 3270","opening_hours":"Mo-Su 00:00-24:00","brand":"Petrol","brand:wikidata":"Q24315"},"coordinates":[42.19113,24.13406]},"dist":34.343,"tags_mismatch":true},{"osm":{"type":"node","id":9643804076,"tags":{"addr:city":"София","addr:street":"Хан Кубрат","amenity":"fuel","brand":"Петрол","brand:wikidata":"Q24315"},"wikidata":"Q24315","coordinates":[42.7279165,23.2881698]},"atp":{"id":"PfOhFbnCZz5J6VVkEX0wrjtfwV8=","tags":{"ref":"7144","amenity":"fuel","addr:street_address":"ул. хан Кубрат</br>ж.к. Надежда 3","addr:city":"София","addr:country":"BG","name":"София: Надежда 3","phone":"+359 88 522 0432","opening_hours":"Mo-Su 00:00-24:00","brand":"Petrol","brand:wikidata":"Q24315"},"coordinates":[42.72792,23.28824]},"dist":5.747,"tags_mismatch":true},{"osm":{"type":"node","id":9680285150,"tags":{"amenity":"fuel","brand":"Петрол","brand:wikidata":"Q24315","fuel:octane_95":"yes","opening_hours":"24/7","website":"https://www.petrol.bg/"},"wikidata":"Q24315","coordinates":[42.6564734,23.4016999]},"atp":{"id":"8BeH7aOgqO2rVossOlIUlumakpk=","tags":{"ref":"7150","amenity":"fuel","addr:street_address":"кв. Дружба 1</br>до базар Панда","addr:city":"София","addr:country":"BG","name":"София: Дружба 1","phone":"+359 88 522 0437","opening_hours":"Mo-Su 00:00-24:00","brand":"Petrol","brand:wikidata":"Q24315"},"coordinates":[42.65648,23.40173]},"dist":2.569,"tags_mismatch":true},{"osm":{"type":"node","id":9690685886,"tags":{"amenity":"fuel","brand":"Петрол","brand:wikidata":"Q24315"},"wikidata":"Q24315","coordinates":[42.4421788,22.890532]},"atp":{"id":"YUBGGFgiYaIyw60zHQYlfUjPZx8=","tags":{"ref":"7305","amenity":"fuel","addr:street_address":"гл. път София – Кюстендил","addr:city":"Извор","addr:country":"BG","name":"Извор","phone":"+359 88 522 0465","opening_hours":"Mo-Su 07:00-19:00","brand":"Petrol","brand:wikidata":"Q24315"},"coordinates":[42.44193,22.89028]},"dist":34.539,"tags_mismatch":true},{"osm":{"type":"node","id":9690699542,"tags":{"amenity":"fuel","brand":"Петрол","brand:wikidata":"Q24315"},"wikidata":"Q24315","coordinates":[42.6030166,23.0862619]},"atp":{"id":"fIXJOEg9XlkAEmHpaNHL0HwO61k=","tags":{"ref":"7314","amenity":"fuel","addr:street_address":"околовръстен път посока София, преди отбивката за завод \"Стомана\"","addr:city":"Перник","addr:country":"BG","name":"Перник","phone":"+359 89 399 4877","opening_hours":"Mo-Su 00:00-24:00","brand":"Petrol","brand:wikidata":"Q24315"},"coordinates":[42.6030809,23.0863815]},"dist":12.122,"tags_mismatch":true},{"osm":{"type":"node","id":9709303284,"tags":{"addr:housenumber":"717.81.1","addr:street":"Банска","amenity":"fuel","brand":"Петрол","brand:wikidata":"Q24315","fuel:diesel":"yes","fuel:lpg":"yes","fuel:octane_95":"yes","fuel:octane_98":"yes","ref":"8226"},"wikidata":"Q24315","coordinates":[41.93665,25.5337332]},"atp":{"id":"bxvaZjyAaqGiqG7-T425wKM7HNc=","tags":{"ref":"4127","amenity":"fuel","addr:street_address":"ул.Цар Иван Асен II</br>изход за Плевен","addr:city":"Левски","addr:country":"BG","name":"Левски","phone":"+359 88 530 3687","opening_hours":"Mo-Su 00:00-24:00","brand":"Petrol","brand:wikidata":"Q24315"},"coordinates":[43.36728,25.13956]},"tags_mismatch":true},{"osm":{"type":"node","id":9718406063,"tags":{"amenity":"fuel","brand":"Петрол","brand:wikidata":"Q24315","opening_hours":"24/7"},"wikidata":"Q24315","coordinates":[43.8215133,27.138163]},"atp":{"id":"45TvkE7C8OaF-VXQASF_Qnnf6tw=","tags":{"ref":"4209","amenity":"fuel","addr:street_address":"ул. 33–ти Свищовски Полк. № 83</br>Център","addr:city":"Свищов","addr:country":"BG","name":"Свищов","phone":"+359 88 530 3431","opening_hours":"Mo-Su 00:00-24:00","brand":"Petrol","brand:wikidata":"Q24315"},"coordinates":[43.61604,25.35966]},"tags_mismatch":true},{"osm":{"type":"node","id":9718421834,"tags":{"amenity":"fuel","brand":"Петрол","brand:wikidata":"Q24315","fuel:diesel":"yes","fuel:lpg":"yes","fuel:octane_100":"yes","fuel:octane_95":"yes","opening_hours":"24/7","phone":"+359 88 530 3265","source":"knowledge, aerial photography"},"wikidata":"Q24315","coordinates":[42.6325696,24.823914]},"atp":{"id":"VLEfXQTiR2BNqnElXygkAfccSBY=","tags":{"ref":"5138","amenity":"fuel","addr:street_address":"ул. Теофан Райнов","addr:city":"Карлово","addr:country":"BG","name":"Карлово","phone":"+359 88 530 3265","opening_hours":"Mo-Su 00:00-24:00","brand":"Petrol","brand:wikidata":"Q24315"},"coordinates":[42.63264,24.82406]},"dist":14.281,"tags_mismatch":true},{"osm":{"type":"node","id":9718430547,"tags":{"addr:city":"Кърджали","addr:postcode":"6600","amenity":"fuel","brand":"Петрол","brand:wikidata":"Q24315","opening_hours":"24/7","phone":"+359 88 530 3845","ref":"8301"},"wikidata":"Q24315","coordinates":[41.6334472,25.3786139]},"atp":{"id":"IgE1b9eWBJfefWqpKOSSQY2_02I=","tags":{"ref":"8301","amenity":"fuel","addr:street_address":"бул. Беломорски</br>автогара","addr:city":"Кърджали","addr:country":"BG","name":"Кърджали: Автогара","phone":"+359 88 530 3845","opening_hours":"Mo-Su 00:00-24:00","brand":"Petrol","brand:wikidata":"Q24315"},"coordinates":[41.63346,25.37851]},"dist":8.751,"tags_mismatch":true},{"osm":{"type":"node","id":9724654093,"tags":{"amenity":"fuel","brand":"Петрол","brand:wikidata":"Q24315"},"wikidata":"Q24315","coordinates":[43.1906648,27.4446698]},"atp":{"id":"7JaogtQQ5Eyx-1oSmhc-avSGYgY=","tags":{"ref":"4217","amenity":"fuel","addr:street_address":"гл. път Плевен–Русе, 16 км.","addr:city":"Масларево","addr:country":"BG","name":"Масларево","phone":"+359 88 530 3436","opening_hours":"Mo-Su 07:30-18:30","brand":"Petrol","brand:wikidata":"Q24315"},"coordinates":[43.42122,25.4685]},"tags_mismatch":true},{"osm":{"type":"node","id":9730915938,"tags":{"amenity":"fuel","brand":"Петрол","brand:wikidata":"Q24315","opening_hours":"24/7","phone":"+359 88 530 3973"},"wikidata":"Q24315","coordinates":[41.5699758,23.7354389]},"atp":{"id":"iNSjTxrnVJbOsj4Dk3qbLrNbNbo=","tags":{"ref":"4223","amenity":"fuel","addr:street_address":"ул. Димитър Благоев</br>изход за В. Търново","addr:city":"Ресен","addr:country":"BG","name":"Ресен","phone":"+359 88 530 3437","opening_hours":"Mo-Su 07:30-18:30","brand":"Petrol","brand:wikidata":"Q24315"},"coordinates":[43.1969,25.55773]},"tags_mismatch":true},{"osm":{"type":"node","id":9773182536,"tags":{"amenity":"fuel","brand":"Петрол","brand:wikidata":"Q24315"},"wikidata":"Q24315","coordinates":[42.9713637,25.4570298]},"atp":{"id":"SNujn4SrPylMuSA-eRCTlUCm6LM=","tags":{"ref":"4314","amenity":"fuel","addr:street_address":"гр.Дряново, ул.Магистрална 1","addr:city":"Дряново","addr:country":"BG","name":"Дряново","phone":"+359 88 724 7467","opening_hours":"Mo-Su 00:00-24:00","brand":"Petrol","brand:wikidata":"Q24315"},"coordinates":[42.9716378,25.4572105]},"dist":33.839,"tags_mismatch":true},{"osm":{"type":"node","id":9891554154,"tags":{"amenity":"fuel","brand":"Петрол","brand:wikidata":"Q24315","opening_hours":"24/7","phone":"+359 89 995 4065"},"wikidata":"Q24315","coordinates":[41.5673746,23.8287421]},"atp":{"id":"Kj1tcgzwKg-oVZ-pNtCSP6V_z7g=","tags":{"ref":"4228","amenity":"fuel","addr:street_address":"бул. България </br>ж.к. Акация","addr:city":"В. Търново","addr:country":"BG","name":"В. Търново: Акация","phone":"+359 88 530 3440","opening_hours":"Mo-Su 00:00-24:00","brand":"Petrol","brand:wikidata":"Q24315"},"coordinates":[43.08129,25.61049]},"tags_mismatch":true},{"osm":{"type":"node","id":9891723066,"tags":{"amenity":"fuel","brand":"Петрол","brand:wikidata":"Q24315"},"wikidata":"Q24315","coordinates":[43.0312008,25.0833149]},"atp":{"id":"gOMJs3ppyjgdSev94hbS2xOdeUQ=","tags":{"ref":"4307","amenity":"fuel","addr:street_address":"вход от Плевен","addr:city":"Севлиево","addr:country":"BG","name":"Севлиево","phone":"+359 88 530 3447","opening_hours":"Mo-Su 06:00-22:00","brand":"Petrol","brand:wikidata":"Q24315"},"coordinates":[43.03125,25.0833]},"dist":5.603,"tags_mismatch":true},{"osm":{"type":"node","id":9909405577,"tags":{"amenity":"fuel","brand":"Петрол","brand:wikidata":"Q24315","check_date":"2024-04-05","internet_access":"no","opening_hours":"24/7","payment:cash":"yes","payment:credit_cards":"yes","payment:debit_cards":"yes","wheelchair":"yes"},"wikidata":"Q24315","coordinates":[41.5981214,23.2250911]},"atp":{"id":"Rs3vV3UKUe-X5HKJHxq5L7YOIBw=","tags":{"ref":"4301","amenity":"fuel","addr:street_address":"бул. Стефан Караджа №4","addr:city":"Габрово","addr:country":"BG","name":"Габрово: Петър Падалски","phone":"+359 88 530 3442","opening_hours":"Mo-Su 06:00-22:00","brand":"Petrol","brand:wikidata":"Q24315"},"coordinates":[42.88215,25.30885]},"tags_mismatch":true},{"osm":{"type":"node","id":9975270589,"tags":{"amenity":"fuel","brand":"Петрол","brand:wikidata":"Q24315","fuel:diesel":"yes","fuel:octane_95":"yes","ref":"8310"},"wikidata":"Q24315","coordinates":[41.4975845,25.3050326]},"atp":{"id":"vfX5z6Ry-qZv2Cx_Mu_9LFRuavY=","tags":{"ref":"8310","amenity":"fuel","addr:street_address":"ул. Илдъръм №23","addr:city":"Джебел","addr:country":"BG","name":"Джебел","phone":"+359 88 530 3854","opening_hours":"Mo-Su 06:00-22:00","brand":"Petrol","brand:wikidata":"Q24315"},"coordinates":[41.4976,25.305]},"dist":3.216,"tags_mismatch":true},{"osm":{"type":"node","id":10050436319,"tags":{"amenity":"fuel","brand":"Петрол","brand:wikidata":"Q24315","fuel:diesel":"yes","fuel:octane_95":"yes","fuel:octane_98":"yes"},"wikidata":"Q24315","coordinates":[43.222087,27.8753273]},"atp":{"id":"kwsP86t50nVDt3QuJ8Ngp7wXUAs=","tags":{"ref":"4302","amenity":"fuel","addr:street_address":"бул. Бойката","addr:city":"Габрово","addr:country":"BG","name":"Габрово: Бойката","phone":"+359 88 530 3443","opening_hours":"Mo-Su 00:00-23:00","brand":"Petrol","brand:wikidata":"Q24315"},"coordinates":[42.90016,25.32894]},"tags_mismatch":true},{"osm":{"type":"node","id":10215307116,"tags":{"amenity":"fuel","brand":"Петрол","brand:wikidata":"Q24315"},"wikidata":"Q24315","coordinates":[43.4912966,24.0856497]},"atp":{"id":"3mrBT3_fHUChO8CZ0lHkYIb74W0=","tags":{"ref":"4303","amenity":"fuel","addr:street_address":"изход за Габрово","addr:city":"Трявна","addr:country":"BG","name":"Трявна","phone":"+359 88 530 3444","opening_hours":"Mo-Su 00:00-24:00","brand":"Petrol","brand:wikidata":"Q24315"},"coordinates":[42.87604,25.49866]},"tags_mismatch":true},{"osm":{"type":"node","id":10312074249,"tags":{"amenity":"fuel","brand":"Петрол","brand:wikidata":"Q24315"},"wikidata":"Q24315","coordinates":[43.4316011,24.5827177]},"atp":{"id":"jLtze_j02gT_XMnPkh9Ext2O4bQ=","tags":{"ref":"4405","amenity":"fuel","addr:street_address":"ТРОЯН изход за, Беклемето","addr:city":"Троян","addr:country":"BG","name":"Троян","phone":"+359 88 530 3454","opening_hours":"Mo-Su 06:00-22:00","brand":"Petrol","brand:wikidata":"Q24315"},"coordinates":[42.86749,24.70983]},"tags_mismatch":true},{"osm":{"type":"node","id":11118479339,"tags":{"amenity":"fuel","brand":"Петрол","brand:wikidata":"Q24315","opening_hours":"24/7","phone":"+359 88 876 6991","wheelchair":"yes"},"wikidata":"Q24315","coordinates":[43.0401741,24.5296359]},"atp":{"id":"M94MyNLNR-ajnT1c5DrdUKnjQ9c=","tags":{"ref":"4416","amenity":"fuel","addr:street_address":"път 4, 35 км дясно","addr:city":"Микре","addr:country":"BG","name":"Микре","phone":"+359 88 876 6991","opening_hours":"Mo-Su 00:00-24:00","brand":"Petrol","brand:wikidata":"Q24315"},"coordinates":[43.0401,24.5296]},"dist":8.741,"tags_mismatch":true},{"osm":{"type":"node","id":11171713635,"tags":{"amenity":"fuel","brand":"Петрол","brand:wikidata":"Q24315","opening_hours":"24/7","phone":"+359 88 530 3675"},"wikidata":"Q24315","coordinates":[43.1598226,27.4445512]},"atp":{"id":"kWiKO2FHbUfhQ7Co0ld0-9vMICY=","tags":{"ref":"4413","amenity":"fuel","addr:street_address":"ул.","addr:city":"Тетевен","addr:postcode":"5700","addr:country":"BG","name":"Тетевен","phone":"+359 88 530 3834","website":"https://www.petrol.bg/","opening_hours":"Mo-Su 06:00-22:00","brand":"Petrol","brand:wikidata":"Q24315"},"coordinates":[42.9281411,24.2395322]},"tags_mismatch":true},{"osm":{"type":"node","id":11171722040,"tags":{"amenity":"fuel","brand":"Петрол","brand:wikidata":"Q24315"},"wikidata":"Q24315","coordinates":[41.8975626,23.1159598]},"atp":{"id":"V6yHXngAB4BrURggqg96gPxtosY=","tags":{"ref":"4421","amenity":"fuel","addr:street_address":"а-м Хемус, 69 км.</br>Варна–София","addr:city":"Ябланица","addr:country":"BG","name":"Ябланица","phone":"+359 88 530 3465","opening_hours":"Mo-Su 00:00-24:00","brand":"Petrol","brand:wikidata":"Q24315"},"coordinates":[43.0238,24.10938]},"tags_mismatch":true},{"osm":{"type":"node","id":11171722605,"tags":{"amenity":"fuel","brand":"Петрол","brand:wikidata":"Q24315"},"wikidata":"Q24315","coordinates":[43.326354,27.5868066]},"atp":{"id":"gwmsp9GB0qs_D6dd0hpfGDEEMcA=","tags":{"ref":"4422","amenity":"fuel","addr:street_address":"с. Старо сео, общ. Троян, обл. Ловеч, ул.","addr:city":"Старо село","addr:country":"BG","name":"Старо село","phone":"+359 89 355 7785","opening_hours":"Mo-Su 06:00-22:00","brand":"Petrol","brand:wikidata":"Q24315"},"coordinates":[42.996557709756345,24.522002268851352]},"tags_mismatch":true},{"osm":{"type":"node","id":11171730658,"tags":{"amenity":"fuel","brand":"Петрол","brand:wikidata":"Q24315"},"wikidata":"Q24315","coordinates":[43.1192695,27.595679]},"atp":{"id":"HWFMG5txVOs5QYX9dag1g6M-FAY=","tags":{"ref":"5106","amenity":"fuel","addr:street_address":"бул. Васил Априлов №76","addr:city":"Пловдив","addr:country":"BG","name":"Пловдив: Център","phone":"+359 88 530 3233","opening_hours":"Mo-Su 00:00-24:00","brand":"Petrol","brand:wikidata":"Q24315"},"coordinates":[42.14427,24.73232]},"tags_mismatch":true},{"osm":{"type":"node","id":11171742439,"tags":{"amenity":"fuel","brand":"Петрол","brand:wikidata":"Q24315"},"wikidata":"Q24315","coordinates":[43.4135003,27.5573515]},"atp":{"id":"Xw2DWBOgft3mRqMRmgTdFObTK1M=","tags":{"ref":"5110","amenity":"fuel","addr:street_address":"бул. България </br>стадион Марица","addr:city":"Пловдив","addr:country":"BG","name":"Пловдив: Стадион Марица","phone":"+359 88 530 3237","opening_hours":"Mo-Su 07:00-19:00","brand":"Petrol","brand:wikidata":"Q24315"},"coordinates":[42.15709,24.72042]},"tags_mismatch":true},{"osm":{"type":"node","id":11171743755,"tags":{"amenity":"fuel","brand":"Петрол","brand:wikidata":"Q24315"},"wikidata":"Q24315","coordinates":[42.0367858,25.8442234]},"atp":{"id":"OBdDofZGbCx7hw-zc84ncnFzEtk=","tags":{"ref":"8214","amenity":"fuel","addr:street_address":"изход за Гълъбово","addr:city":"Симеоновград","addr:country":"BG","name":"Симеоновград","phone":"+359 88 530 3839","opening_hours":"Mo-Su 00:00-24:00","brand":"Petrol","brand:wikidata":"Q24315"},"coordinates":[42.03683,25.8441]},"dist":11.314,"tags_mismatch":true},{"osm":{"type":"node","id":11212909717,"tags":{"amenity":"fuel","brand":"Петрол","brand:wikidata":"Q24315","opening_hours":"24/7","phone":"+359 89 914 7432"},"wikidata":"Q24315","coordinates":[42.261159,23.0752083]},"atp":{"id":"5ZhtqTTobC-Fu6DGH31smzmrvxY=","tags":{"ref":"5115","amenity":"fuel","addr:street_address":"ул. Родопи","addr:city":"Пловдив","addr:country":"BG","name":"Пловдив: Каменица 1","phone":"+359 88 530 3242","opening_hours":"Mo-Su 00:00-24:00","brand":"Petrol","brand:wikidata":"Q24315"},"coordinates":[42.13766,24.75967]},"tags_mismatch":true},{"osm":{"type":"node","id":11215923005,"tags":{"amenity":"fuel","brand":"Петрол","brand:wikidata":"Q24315","fuel:diesel":"yes","fuel:lpg":"yes","fuel:octane_95":"yes","fuel:octane_98":"yes","source":"knowledge, aerial photography"},"wikidata":"Q24315","coordinates":[42.6331655,25.1913896]},"atp":{"id":"ibLtJ0OceN-IMZR68wIfMQZIVY4=","tags":{"ref":"8111","amenity":"fuel","addr:street_address":"гл. път Е871</br>София - Бургас","addr:city":"Павел баня","addr:country":"BG","name":"Павел баня","phone":"+359 88 530 3816","opening_hours":"Mo-Su 00:00-24:00","brand":"Petrol","brand:wikidata":"Q24315"},"coordinates":[42.63314,25.19138]},"dist":2.942,"tags_mismatch":true},{"osm":{"type":"node","id":11250409492,"tags":{"amenity":"fuel","brand":"Петрол","brand:wikidata":"Q24315","fuel:diesel":"yes","fuel:octane_95":"yes","opening_hours":"24/7","phone":"+359 88 530 3849"},"wikidata":"Q24315","coordinates":[41.5247731,26.1237074]},"atp":{"id":"PGZJkPNQjQ6FAvyShYQ6VHVw7ck=","tags":{"ref":"8305","amenity":"fuel","addr:street_address":"вход на града","addr:city":"Ивайловград","addr:country":"BG","name":"Ивайловград","phone":"+359 88 530 3849","opening_hours":"Mo-Su 00:00-24:00","brand":"Petrol","brand:wikidata":"Q24315"},"coordinates":[41.52477,26.12369]},"dist":1.489,"tags_mismatch":true},{"osm":{"type":"node","id":11250452607,"tags":{"addr:street":"Хан Аспарух","amenity":"fuel","brand":"Петрол","brand:wikidata":"Q24315","opening_hours":"24/7","phone":"+359 88 530 3696","website":"https://petrol.bg/"},"wikidata":"Q24315","coordinates":[43.7368969,27.4216117]},"atp":{"id":"o3hSycVM94rEEd7fdH_DSeKVk-A=","tags":{"ref":"5117","amenity":"fuel","addr:street_address":"бул. Тракия №22","addr:city":"Кричим","addr:country":"BG","name":"Кричим","phone":"+359 88 530 3244","opening_hours":"Mo-Su 00:00-24:00","brand":"Petrol","brand:wikidata":"Q24315"},"coordinates":[42.04666,24.46949]},"tags_mismatch":true},{"osm":{"type":"node","id":11254776935,"tags":{"amenity":"fuel","brand":"Петрол","brand:wikidata":"Q24315","opening_hours":"24/7","phone":"+359 88 530 3288"},"wikidata":"Q24315","coordinates":[41.446167,25.0931741]},"atp":{"id":"CWKIinChUszcaoYHNeJkIoIgyhA=","tags":{"ref":"5313","amenity":"fuel","addr:street_address":"Юг","addr:city":"Неделино","addr:country":"BG","name":"Неделино","phone":"+359 88 530 3288","opening_hours":"Mo-Su 00:00-24:00","brand":"Petrol","brand:wikidata":"Q24315"},"coordinates":[41.44625,25.09327]},"dist":12.209,"tags_mismatch":true},{"osm":{"type":"node","id":11254808633,"tags":{"amenity":"fuel","brand":"Петрол","brand:wikidata":"Q24315","opening_hours":"24/7","phone":"+359 88 530 3636"},"wikidata":"Q24315","coordinates":[43.9988472,26.8394829]},"atp":{"id":"cntI3m-v9E-JhzO3rsN4676DVBc=","tags":{"ref":"6307","amenity":"fuel","addr:street_address":"път Русе – Силистра","addr:city":"Зафирово","addr:country":"BG","name":"Зафирово","phone":"+359 88 530 3636","opening_hours":"Mo-Su 00:00-24:00","brand":"Petrol","brand:wikidata":"Q24315"},"coordinates":[43.99881,26.83962]},"dist":11.721,"tags_mismatch":true},{"osm":{"type":"node","id":11254822416,"tags":{"amenity":"fuel","brand":"Петрол","brand:wikidata":"Q24315","opening_hours":"24/7","phone":"+359 88 530 3628"},"wikidata":"Q24315","coordinates":[43.8042456,26.486193]},"atp":{"id":"FfewP4_ynikFvYxEaT6u0U6Zf-E=","tags":{"ref":"6206","amenity":"fuel","addr:street_address":"на път Русе – Кубрат","addr:city":"Кубрат","addr:country":"BG","name":"Кубрат","phone":"+359 88 530 3628","opening_hours":"Mo-Su 00:00-24:00","brand":"Petrol","brand:wikidata":"Q24315"},"coordinates":[43.80426,26.48628]},"dist":7.163,"tags_mismatch":true},{"osm":{"type":"node","id":11254832158,"tags":{"amenity":"fuel","brand":"Петрол","brand:wikidata":"Q24315","opening_hours":"24/7","phone":"+359 88 955 0515"},"wikidata":"Q24315","coordinates":[42.2016422,24.3163498]},"atp":{"id":"nfyxAXswr7It57EF5i1TKXkCbo0=","tags":{"ref":"5224","amenity":"fuel","addr:street_address":"ул. Стоян Ангелов №125","addr:city":"Пазарджик","addr:country":"BG","name":"Пазарджик","phone":"+359 88 955 0515","opening_hours":"Mo-Su 00:00-24:00","brand":"Petrol","brand:wikidata":"Q24315"},"coordinates":[42.201666,24.316307]},"dist":4.408,"tags_mismatch":true},{"osm":{"type":"node","id":11254860183,"tags":{"amenity":"fuel","brand":"Петрол","brand:wikidata":"Q24315","opening_hours":"24/7","phone":"+359 88 530 3711"},"wikidata":"Q24315","coordinates":[43.3062142,26.9360319]},"atp":{"id":"uyEDKUQ3amODgaBJqLBeES7glsk=","tags":{"ref":"5119","amenity":"fuel","addr:street_address":"местност Орта хан","addr:city":"Орта Хан","addr:country":"BG","name":"Орта Хан","phone":"+359 88 530 3246","opening_hours":"Mo-Su 00:00-24:00","brand":"Petrol","brand:wikidata":"Q24315"},"coordinates":[42.1588,24.55096]},"tags_mismatch":true},{"osm":{"type":"node","id":11254861120,"tags":{"amenity":"fuel","brand":"Петрол","brand:wikidata":"Q24315","opening_hours":"Mo-Su 07:00-19:00","phone":"+359 88 530 3417"},"wikidata":"Q24315","coordinates":[43.6284672,24.7100529]},"atp":{"id":"iY7r10RG8Og3bb3oYoRtcnU48NA=","tags":{"ref":"5120","amenity":"fuel","addr:street_address":"бул. Пловдив","addr:city":"Съединение","addr:country":"BG","name":"Съединение","phone":"+359 88 530 3247","opening_hours":"Mo-Su 00:00-24:00","brand":"Petrol","brand:wikidata":"Q24315"},"coordinates":[42.27169,24.54684]},"tags_mismatch":true},{"osm":{"type":"node","id":11254874585,"tags":{"amenity":"fuel","brand":"Петрол","brand:wikidata":"Q24315","opening_hours":"Mo-Su 07:00-19:00","phone":"+359 88 530 3715"},"wikidata":"Q24315","coordinates":[43.421801,26.9152904]},"atp":{"id":"G05Ahh-I4pKC76DcSFfN4_ZWSJM=","tags":{"ref":"5123","amenity":"fuel","addr:street_address":"ул. Бачковско Шосе","addr:city":"Асеновград","addr:country":"BG","name":"Асеновград: Юг","phone":"+359 88 530 3250","opening_hours":"Mo-Su 00:00-24:00","brand":"Petrol","brand:wikidata":"Q24315"},"coordinates":[41.99457,24.87269]},"tags_mismatch":true},{"osm":{"type":"node","id":11254882254,"tags":{"amenity":"fuel","brand":"Петрол","brand:wikidata":"Q24315","opening_hours":"24/7","phone":"+359 88 530 3431"},"wikidata":"Q24315","coordinates":[43.616134,25.3595762]},"atp":{"id":"OBq4q0hkqMh57NKCKVUNQcqvoeY=","tags":{"ref":"5124","amenity":"fuel","addr:street_address":"ул. Цар Иван Асен II","addr:city":"Асеновград","addr:country":"BG","name":"Асеновград: Св. Георги","phone":"+359 88 530 3251","opening_hours":"Mo-Su 07:00-18:00","brand":"Petrol","brand:wikidata":"Q24315"},"coordinates":[42.00392,24.87444]},"tags_mismatch":true},{"osm":{"type":"node","id":11254889351,"tags":{"amenity":"fuel","brand":"Петрол","brand:wikidata":"Q24315","opening_hours":"Mo-Su 07:00-19:00","phone":"+359 88 530 3949"},"wikidata":"Q24315","coordinates":[43.5138604,23.3589035]},"atp":{"id":"HZyMEQWdco8PreX9BN-qTP68e-c=","tags":{"ref":"5131","amenity":"fuel","addr:street_address":"бул. Хр. Ботев №3А","addr:city":"Хисаря","addr:country":"BG","name":"Хисаря","phone":"+359 88 530 3258","opening_hours":"Mo-Su 00:00-24:00","brand":"Petrol","brand:wikidata":"Q24315"},"coordinates":[42.50389,24.70079]},"tags_mismatch":true},{"osm":{"type":"node","id":11254902152,"tags":{"amenity":"fuel","brand":"Петрол","brand:wikidata":"Q24315","opening_hours":"24/7","phone":"+359 88 530 3712"},"wikidata":"Q24315","coordinates":[43.2766149,26.9132587]},"atp":{"id":"HJMN7iYAu80MQLGVo7yKRS1Mbqw=","tags":{"ref":"5139","amenity":"fuel","addr:street_address":"ул. Цар Симеон</br>ж.к. Тракия","addr:city":"Пловдив","addr:country":"BG","name":"Пловдив: Тракия","phone":"+359 88 530 3266","opening_hours":"Mo-Su 00:00-24:00","brand":"Petrol","brand:wikidata":"Q24315"},"coordinates":[42.13096,24.79903]},"tags_mismatch":true},{"osm":{"type":"node","id":11267169620,"tags":{"amenity":"fuel","brand":"Петрол","brand:wikidata":"Q24315","opening_hours":"Mo-Su 06:00-21:00","phone":"+359 88 530 3925"},"wikidata":"Q24315","coordinates":[43.6512279,23.7615097]},"atp":{"id":"BuuwFkqdIXf0QpOodJGixCg6N0o=","tags":{"ref":"5144","amenity":"fuel","addr:street_address":"изхода на Асеновград за Кърджали","addr:city":"Асеновград","addr:country":"BG","name":"Асеновград","phone":"+359 88 870 7714","opening_hours":"Mo-Su 00:00-24:00","brand":"Petrol","brand:wikidata":"Q24315"},"coordinates":[42.00552,24.88331]},"tags_mismatch":true},{"osm":{"type":"node","id":11267171544,"tags":{"amenity":"fuel","brand":"Петрол","brand:wikidata":"Q24315","opening_hours":"Mo-Su 06:00-22:00","phone":"+359 88 530 3931"},"wikidata":"Q24315","coordinates":[43.2086997,23.5466108]},"atp":{"id":"6rIlMtAj4dW8n7dh5PT_kO0HbOY=","tags":{"ref":"5145","amenity":"fuel","addr:street_address":"гр. Първомай, ул. Княз Борис 80 В","addr:city":"Първомай","addr:country":"BG","name":"Първомай","phone":"+359 88 866 9001","opening_hours":"Mo-Su 00:00-24:00","brand":"Petrol","brand:wikidata":"Q24315"},"coordinates":[42.10775586341762,25.194778813812896]},"tags_mismatch":true},{"osm":{"type":"node","id":11267195484,"tags":{"amenity":"fuel","brand":"Петрол","brand:wikidata":"Q24315","opening_hours":"Mo-Su 07:00-19:00","phone":"+359 88 530 3914"},"wikidata":"Q24315","coordinates":[43.1471098,23.7209326]},"atp":{"id":"aZ-xAdP5kO9l81itfiVFDiUTXsk=","tags":{"ref":"5157","amenity":"fuel","addr:street_address":"Метро 1, ул. Санкт Петербург 135","addr:city":"Пловдив","addr:country":"BG","name":"Пловдив","phone":"+359 88 951 7361","opening_hours":"Mo-Su 00:00-24:00","brand":"Petrol","brand:wikidata":"Q24315"},"coordinates":[42.1442464,24.7833691]},"tags_mismatch":true},{"osm":{"type":"node","id":11733915482,"tags":{"addr:city":"Благоевград","addr:housenumber":"18","addr:postcode":"2700","addr:street":"бул. Свети Димитър Солунски","amenity":"fuel","brand":"Петрол","brand:wikidata":"Q24315","compressed_air":"yes","layer":"1","opening_hours":"24/7","phone":"+359 88 530 3965"},"wikidata":"Q24315","coordinates":[42.0174627,23.0796195]},"atp":{"id":"X81OAy-VPCAj_YQIgoES0dSo3rY=","tags":{"ref":"5202","amenity":"fuel","addr:street_address":"бул. Цар Освободител №43","addr:city":"Пазарджик","addr:country":"BG","name":"Пазарджик: Център","phone":"+359 88 530 3269","opening_hours":"Mo-Su 06:00-22:00","brand":"Petrol","brand:wikidata":"Q24315"},"coordinates":[42.19085,24.32462]},"tags_mismatch":true},{"osm":{"type":"node","id":11757809999,"tags":{"amenity":"fuel","brand":"Петрол","brand:wikidata":"Q24315"},"wikidata":"Q24315","coordinates":[42.6099273,23.106312]},"atp":{"id":"9gr04N8Kjl0VkgBgY4rViQ2i8Mw=","tags":{"ref":"7316","amenity":"fuel","addr:city":"Перник","addr:country":"BG","name":"Перник","phone":"+359 88 530 3683","opening_hours":"Mo-Su 06:00-22:00","brand":"Petrol","brand:wikidata":"Q24315"},"coordinates":[42.6099114,23.1063808]},"dist":5.901,"tags_mismatch":true},{"osm":{"type":"node","id":12073964996,"tags":{"amenity":"fuel","brand":"Петрол","brand:wikidata":"Q24315"},"wikidata":"Q24315","coordinates":[42.9000746,25.3290124]},"atp":{"id":"LINVLg-LVum91UhpAK7W9oCDyjM=","tags":{"ref":"5208","amenity":"fuel","addr:street_address":"ул. Г. Бенковски №57","addr:city":"Панагюрище","addr:country":"BG","name":"Панагюрище","phone":"+359 88 530 3273","opening_hours":"Mo-Su 06:00-22:00","brand":"Petrol","brand:wikidata":"Q24315"},"coordinates":[42.49604,24.1874]},"tags_mismatch":true},{"osm":{"type":"node","id":12076855038,"tags":{"amenity":"fuel","brand":"Петрол","brand:wikidata":"Q24315"},"wikidata":"Q24315","coordinates":[43.6921778,28.0236447]},"atp":{"id":"zHFg0zEWjKIHuuB54LMsmfLnuiE=","tags":{"ref":"5306","amenity":"fuel","addr:street_address":"ул. Освобождение","addr:city":"Девин","addr:country":"BG","name":"Девин","phone":"+359 88 530 3283","opening_hours":"Mo-Su 00:00-24:00","brand":"Petrol","brand:wikidata":"Q24315"},"coordinates":[41.73674,24.41156]},"tags_mismatch":true},{"osm":{"type":"way","id":40635902,"tags":{"amenity":"fuel","brand":"Петрол","brand:wikidata":"Q24315","building":"yes","layer":"1"},"wikidata":"Q24315","coordinates":[42.5203955,27.4572998]},"atp":{"id":"z4AbIF0f-I5uLuEkKxGH2Dxc-fo=","tags":{"ref":"6106","amenity":"fuel","addr:street_address":"бул. Христо Ботев</br>път Русе – Варна","addr:city":"Русе","addr:country":"BG","name":"Русе: в.з. Русофили","phone":"+359 88 530 3612","opening_hours":"Mo-Su 00:00-24:00","brand":"Petrol","brand:wikidata":"Q24315"},"coordinates":[43.81189,25.981902]},"tags_mismatch":true},{"osm":{"type":"way","id":68339983,"tags":{"addr:city":"Стара Загора","addr:postcode":"6000","addr:street":"Хан Аспарух","amenity":"fuel","brand":"Петрол","brand:wikidata":"Q24315","building":"yes","fuel:GTL_diesel":"yes","fuel:diesel":"yes","fuel:lpg":"yes","fuel:octane_95":"yes","fuel:octane_98":"yes","opening_hours":"24/7"},"wikidata":"Q24315","coordinates":[42.4520908,25.630363]},"atp":{"id":"zfopNwFXdSJICmBbVyKEPbZN7Qg=","tags":{"ref":"8102","amenity":"fuel","addr:street_address":"ул. Хан Аспарух</br>Селския Дол","addr:city":"Ст. Загора","addr:country":"BG","name":"Ст. Загора: Селския Дол","phone":"+359 88 530 3809","opening_hours":"Mo-Su 00:00-24:00","brand":"Petrol","brand:wikidata":"Q24315"},"coordinates":[42.45214,25.63042]},"dist":7.197,"tags_mismatch":true},{"osm":{"type":"way","id":105083135,"tags":{"addr:city":"Хасково","addr:postcode":"6300","addr:street":"Цар Освободител","amenity":"fuel","brand":"Петрол","brand:wikidata":"Q24315","building":"yes","fuel:diesel":"yes","fuel:octane_100":"yes","fuel:octane_95":"yes","opening_hours":"24/7","payment:cash":"no","payment:credit_cards":"yes","payment:debit_cards":"yes","self_service":"yes"},"wikidata":"Q24315","coordinates":[41.933869,25.547829]},"atp":{"id":"fs490406OKwNa5e6vUSRxDRL7GA=","tags":{"ref":"6115","amenity":"fuel","addr:street_address":"ул. Околчица 19","addr:city":"Русе","addr:country":"BG","name":"Русе","phone":"+359 88 530 3610","opening_hours":"Mo-Su 00:00-24:00","brand":"Petrol","brand:wikidata":"Q24315"},"coordinates":[43.84736240990508,25.977651007531517]},"tags_mismatch":true},{"osm":{"type":"way","id":106132194,"tags":{"amenity":"fuel","brand":"Петрол","brand:wikidata":"Q24315","fuel:diesel":"yes","fuel:lpg":"yes","fuel:octane_95":"yes","fuel:octane_98":"yes","opening_hours":"24/7"},"wikidata":"Q24315","coordinates":[42.0466579,24.4693872]},"atp":{"id":"8124cdDarAOsVTw_u3tMWdRVqQI=","tags":{"ref":"6210","amenity":"fuel","addr:street_address":"до МОК Каолиново","addr:city":"Сеново","addr:country":"BG","name":"Сеново","phone":"+359 88 530 3631","opening_hours":"Mo-Su 07:30-18:30","brand":"Petrol","brand:wikidata":"Q24315"},"coordinates":[43.66076,26.38352]},"tags_mismatch":true},{"osm":{"type":"way","id":106580751,"tags":{"amenity":"fuel","brand":"Петрол","brand:wikidata":"Q24315","fuel:diesel":"yes","fuel:octane_95":"yes","fuel:octane_98":"yes","opening_hours":"Mo-Fr 08:30-20:00","shop":"no"},"wikidata":"Q24315","coordinates":[42.1378107,24.7597565]},"atp":{"id":"s1i8WD3zrk3T5MZ0n-8M0t_lMGE=","tags":{"ref":"6305","amenity":"fuel","addr:street_address":"път Силистра – Шумен","addr:city":"Дулово","addr:country":"BG","name":"Дулово: Ж.П Гара","phone":"+359 88 530 3635","opening_hours":"Mo-Su 06:00-22:00","brand":"Petrol","brand:wikidata":"Q24315"},"coordinates":[43.80181,27.15098]},"tags_mismatch":true},{"osm":{"type":"way","id":125193441,"tags":{"amenity":"fuel","brand":"Петрол","brand:wikidata":"Q24315"},"wikidata":"Q24315","coordinates":[42.1571192,24.7203988]},"atp":{"id":"qUaJsRcW0nXQwH8kZ1NS2XJR3fU=","tags":{"ref":"6309","amenity":"fuel","addr:street_address":"път Русе – Силистра","addr:city":"Тутракан","addr:country":"BG","name":"Тутракан","phone":"+359 88 530 3638","opening_hours":"Mo-Su 06:00-22:00","brand":"Petrol","brand:wikidata":"Q24315"},"coordinates":[44.03671,26.64472]},"tags_mismatch":true},{"osm":{"type":"way","id":141796309,"tags":{"amenity":"fuel","brand":"Петрол","brand:wikidata":"Q24315","fuel:diesel":"yes","fuel:octane_95":"yes","fuel:octane_98":"yes"},"wikidata":"Q24315","coordinates":[42.4238066,25.6169594]},"atp":{"id":"LHiHTRljd3OzCflb1SAyH8qyAeY=","tags":{"ref":"8119","amenity":"fuel","addr:street_address":"ул. Свети Княз Борис</br>до Парк Тракия","addr:city":"Ст. Загора","addr:country":"BG","name":"Ст. Загора: Парк Тракия","phone":"+359 88 530 3818","opening_hours":"Mo-Su 00:00-24:00","brand":"Petrol","brand:wikidata":"Q24315"},"coordinates":[42.42379,25.61696]},"dist":1.846,"tags_mismatch":true},{"osm":{"type":"way","id":162442153,"tags":{"amenity":"fuel","brand":"Петрол","brand:wikidata":"Q24315","building":"yes"},"wikidata":"Q24315","coordinates":[42.1825386,24.3355451]},"atp":{"id":"FdFHJeUvbwzULMuIt-vWmJ9S36w=","tags":{"ref":"6705","amenity":"fuel","addr:street_address":"РУСЕ - района на Дунав мост","addr:city":"Русе","addr:country":"BG","name":"Русе","phone":"+359 88 530 3611","opening_hours":"Mo-Su 00:00-24:00","brand":"Petrol","brand:wikidata":"Q24315"},"coordinates":[43.87477,26.01547]},"tags_mismatch":true},{"osm":{"type":"way","id":183544132,"tags":{"amenity":"fuel","brand":"Петрол","brand:wikidata":"Q24315","building":"yes","opening_hours":"24/7","phone":"+359 88 530 3465"},"wikidata":"Q24315","coordinates":[43.0237925,24.1093839]},"atp":{"id":"LJpHm1HYJmL1jRyqr5voAyL4FS0=","tags":{"ref":"7102","amenity":"fuel","addr:street_address":"бул. Пенчо Славейков</br>срещу Пирогов","addr:city":"София","addr:country":"BG","name":"София: Пирогов","phone":"+359 88 522 0402","opening_hours":"Mo-Su 00:00-24:00","brand":"Petrol","brand:wikidata":"Q24315"},"coordinates":[42.68984,23.30666]},"tags_mismatch":true},{"osm":{"type":"way","id":194524330,"tags":{"amenity":"fuel","brand":"Петрол","brand:wikidata":"Q24315","contact:phone":"+359 454 42 141","int_name":"Petrol"},"wikidata":"Q24315","coordinates":[42.6951943,25.9087211]},"atp":{"id":"49fK1Y12GBmI8Af_DEjeGhvlHc4=","tags":{"ref":"7103","amenity":"fuel","addr:street_address":"ул. Стефан Стамболов","addr:city":"Банкя","addr:country":"BG","name":"Банкя","phone":"+359 88 522 0403","opening_hours":"Mo-Su 06:00-22:00","brand":"Petrol","brand:wikidata":"Q24315"},"coordinates":[42.71406,23.16409]},"tags_mismatch":true},{"osm":{"type":"way","id":203928129,"tags":{"amenity":"fuel","brand":"Петрол","brand:wikidata":"Q24315","building":"yes","int_name":"Petrol","layer":"1"},"wikidata":"Q24315","coordinates":[41.3840788,23.3617194]},"atp":{"id":"EM75s25QBVrRh89VtJ2l1djabP4=","tags":{"ref":"7106","amenity":"fuel","addr:street_address":"бул. Д-р Петър Дертлиев №539</br>ж.к. Люлин","addr:city":"София","addr:country":"BG","name":"София: Люлин","phone":"+359 88 522 0406","opening_hours":"Mo-Su 00:00-24:00","brand":"Petrol","brand:wikidata":"Q24315"},"coordinates":[42.71157,23.24093]},"tags_mismatch":true},{"osm":{"type":"way","id":205507605,"tags":{"amenity":"fuel","brand":"Петрол","brand:wikidata":"Q24315","fuel:diesel":"yes","fuel:octane_95":"yes","fuel:octane_98":"yes","opening_hours":"Mo-Su 06:00-22:00","phone":"+359 88 530 3638"},"wikidata":"Q24315","coordinates":[44.0367312,26.6447327]},"atp":{"id":"ZA1piA692ok83tZYPrMiAJvane4=","tags":{"ref":"7133","amenity":"fuel","addr:street_address":"бул. Александър Стамболийски</br>рест. Вагона, зад Рамстор","addr:city":"София","addr:country":"BG","name":"София: Стамболийски","phone":"+359 88 522 0425","opening_hours":"Mo-Su 00:00-24:00","brand":"Petrol","brand:wikidata":"Q24315"},"coordinates":[42.70268,23.28372]},"tags_mismatch":true},{"osm":{"type":"way","id":207859776,"tags":{"amenity":"fuel","brand":"Петрол","brand:wikidata":"Q24315","building":"roof","layer":"1"},"wikidata":"Q24315","coordinates":[43.4269066,28.1604674]},"atp":{"id":"JqmSZd6nK-iz-j2rmM_eC_JukEU=","tags":{"ref":"7146","amenity":"fuel","addr:street_address":"ул. Тодор Каблешков</br>последна спирка 74, 76","addr:city":"София","addr:country":"BG","name":"София: Тодор Каблешков","phone":"+359 88 522 0434","opening_hours":"Mo-Su 00:00-24:00","brand":"Petrol","brand:wikidata":"Q24315"},"coordinates":[42.65948,23.29869]},"tags_mismatch":true},{"osm":{"type":"way","id":208530162,"tags":{"addr:street":"2","amenity":"fuel","brand":"Петрол","brand:wikidata":"Q24315","building":"roof","fuel:diesel":"yes","fuel:lpg":"yes","fuel:octane_95":"yes","fuel:octane_98":"yes","opening_hours":"24/7","website":"https://www.petrol.bg/"},"wikidata":"Q24315","coordinates":[42.7426679,23.2666825]},"atp":{"id":"dCzvs1rdN_kAMLk2maJy1DwpYrA=","tags":{"ref":"7151","amenity":"fuel","addr:street_address":"бул. Симеоновско шосе</br>срещу х–л Амбасадор","addr:city":"София","addr:country":"BG","name":"София: Симеоновско шосе","phone":"+359 88 522 0438","opening_hours":"Mo-Su 00:00-24:00","brand":"Petrol","brand:wikidata":"Q24315"},"coordinates":[42.63675,23.33449]},"tags_mismatch":true},{"osm":{"type":"way","id":210669206,"tags":{"amenity":"fuel","brand":"Петрол","brand:wikidata":"Q24315","building":"retail"},"wikidata":"Q24315","coordinates":[42.6911605,27.7076298]},"atp":{"id":"bYeQsg0Ipk6Q9vqkvnYSACasDu0=","tags":{"ref":"7154","amenity":"fuel","addr:street_address":"ул. Сребърна №21","addr:city":"София","addr:country":"BG","name":"София: Хладилника","phone":"+359 88 517 4649","opening_hours":"Mo-Su 00:00-24:00","brand":"Petrol","brand:wikidata":"Q24315"},"coordinates":[42.6597769,23.3226795]},"tags_mismatch":true},{"osm":{"type":"way","id":222982544,"tags":{"amenity":"fuel","brand":"Петрол","brand:wikidata":"Q24315","building":"yes","source":"knowledge, aerial photography"},"wikidata":"Q24315","coordinates":[41.9945291,24.8727344]},"atp":{"id":"X0LUUSwkXO_tUOOsQbGVpPvIy6c=","tags":{"ref":"7204","amenity":"fuel","addr:street_address":"международен път Е80 посока Калотина-София","addr:city":"Драгоман","addr:country":"BG","name":"Драгоман","phone":"+359 88 530 3916","opening_hours":"Mo-Su 08:00-20:00","brand":"Petrol","brand:wikidata":"Q24315"},"coordinates":[42.921929,22.93691]},"tags_mismatch":true},{"osm":{"type":"way","id":223806370,"tags":{"amenity":"fuel","brand":"Петрол","brand:wikidata":"Q24315"},"wikidata":"Q24315","coordinates":[43.0813621,25.6104297]},"atp":{"id":"oddvlR43X7rUOFsLKFvcLa85klE=","tags":{"ref":"7207","amenity":"fuel","addr:street_address":"ул. Цар Освободител","addr:city":"Ихтиман","addr:country":"BG","name":"Ихтиман: Север","phone":"+359 88 522 0447","opening_hours":"Mo-Su 00:00-24:00","brand":"Petrol","brand:wikidata":"Q24315"},"coordinates":[42.45205,23.81017]},"tags_mismatch":true},{"osm":{"type":"way","id":245796875,"tags":{"amenity":"fuel","brand":"Петрол","brand:wikidata":"Q24315","building":"yes"},"wikidata":"Q24315","coordinates":[42.5961889,25.5507681]},"atp":{"id":"NfbU_C1zPAGpH6HiG2bsOpI0vI8=","tags":{"ref":"7212","amenity":"fuel","addr:street_address":"гл. път Е871</br>изход за София","addr:city":"Мирково","addr:country":"BG","name":"Мирково","phone":"+359 88 522 0452","opening_hours":"Mo-Sa 07:00-19:00; Su 07:00-13:00","brand":"Petrol","brand:wikidata":"Q24315"},"coordinates":[42.67143,23.99504]},"tags_mismatch":true},{"osm":{"type":"way","id":257631628,"tags":{"amenity":"fuel","brand":"Петрол","brand:wikidata":"Q24315","building":"commercial","fuel:diesel":"yes","fuel:octane_95":"yes","fuel:octane_98":"yes"},"wikidata":"Q24315","coordinates":[43.8471826,25.9776213]},"atp":{"id":"wXujq2MFddWBJFuMKpkScVrU1I4=","tags":{"ref":"7214","amenity":"fuel","addr:street_address":"ул. Любен Каравелов №80","addr:city":"Копривщица","addr:country":"BG","name":"Копривщица","phone":"+359 88 522 0454","opening_hours":"Mo-Su 07:00-19:00","brand":"Petrol","brand:wikidata":"Q24315"},"coordinates":[42.63022,24.36198]},"tags_mismatch":true},{"osm":{"type":"way","id":272738893,"tags":{"addr:street":"бул. Пенчо Славейков","amenity":"fuel","brand":"Петрол","brand:wikidata":"Q24315","building":"yes","compressed_air":"yes","fuel:diesel":"yes","fuel:octane_95":"yes","opening_hours":"24/7"},"wikidata":"Q24315","coordinates":[42.6898651,23.30654]},"atp":{"id":"AXaJv1tbu_iRIso5Jh1cloqKP4I=","tags":{"ref":"7220","amenity":"fuel","addr:street_address":"бул. Руски №188</br>вход Златица","addr:city":"Етрополе","addr:country":"BG","name":"Етрополе","phone":"+359 88 522 0457","opening_hours":"Mo-Su 00:00-24:00","brand":"Petrol","brand:wikidata":"Q24315"},"coordinates":[42.8205,23.98989]},"tags_mismatch":true},{"osm":{"type":"way","id":273328489,"tags":{"addr:city":"Саранци","amenity":"fuel","brand":"Петрол","brand:wikidata":"Q24315","source":"knowledge, aerial photography"},"wikidata":"Q24315","coordinates":[42.7223807,23.7703081]},"atp":{"id":"2kzpA7CnxXLNWJVVZ3Y9b_F9GkE=","tags":{"ref":"7228","amenity":"fuel","addr:street_address":"с. Равно поле, общ. Елин Пелин","addr:city":"Равно поле","addr:country":"BG","name":"Равно поле","phone":"+359 88 463 0662","opening_hours":"Mo 06:00-24:00; Tu 06:00-22:59; We-Su 06:00-24:00","brand":"Petrol","brand:wikidata":"Q24315"},"coordinates":[42.65941,23.52684]},"tags_mismatch":true},{"osm":{"type":"way","id":275123281,"tags":{"amenity":"fuel","brand":"Петрол","brand:wikidata":"Q24315","fuel:diesel":"yes","fuel:octane_92":"yes","fuel:octane_95":"yes","fuel:octane_98":"yes"},"wikidata":"Q24315","coordinates":[42.4960353,24.1874693]},"atp":{"id":"-VVLAX4ao6k6IFF5Xhg9xVkWTaA=","tags":{"ref":"7309","amenity":"fuel","addr:street_address":"ул. Пещерско шосе №10","addr:city":"Земен","addr:country":"BG","name":"Земен","phone":"+359 88 522 0469","opening_hours":"Mo-Sa 07:00-19:00","brand":"Petrol","brand:wikidata":"Q24315"},"coordinates":[42.48695,22.75021]},"tags_mismatch":true},{"osm":{"type":"way","id":277401069,"tags":{"amenity":"fuel","brand":"Петрол","brand:wikidata":"Q24315"},"wikidata":"Q24315","coordinates":[41.8818101,23.4719972]},"atp":{"id":"73MDXX1lj1ddBYpbIU__NK8qBkA=","tags":{"ref":"7315","amenity":"fuel","addr:street_address":"гр. Перник, кв. Църква, АМ Струма км 20+710 дясно","addr:city":"Перник","addr:country":"BG","name":"АМ Струма","phone":"+359 88 530 3670","opening_hours":"Mo-Su 00:00-24:00","brand":"Petrol","brand:wikidata":"Q24315"},"coordinates":[42.5844625,23.1205971]},"tags_mismatch":true},{"osm":{"type":"way","id":285139111,"tags":{"amenity":"fuel","brand":"Петрол","brand:wikidata":"Q24315"},"wikidata":"Q24315","coordinates":[42.6713521,23.9950862]},"atp":{"id":"2N9wX_00h2-XAVKfs7M_lGhCG9c=","tags":{"ref":"8121","amenity":"fuel","addr:street_address":"изход за Бургас","addr:city":"Ст. Загора","addr:country":"BG","name":"Ст. Загора: Южна промишлена зона","phone":"+359 88 530 3824","opening_hours":"Mo-Su 07:30-18:30","brand":"Petrol","brand:wikidata":"Q24315"},"coordinates":[42.42934,25.66791]},"tags_mismatch":true},{"osm":{"type":"way","id":295122214,"tags":{"amenity":"fuel","brand":"Петрол","brand:wikidata":"Q24315","building":"yes","fuel:diesel":"yes","fuel:octane_95":"yes","opening_hours":"06:00-22:00"},"wikidata":"Q24315","coordinates":[43.5493573,28.5319844]},"atp":{"id":"LeimSFLRdABvVzSHcPuMsBZHjb0=","tags":{"ref":"8122","amenity":"fuel","addr:street_address":"ул. Стамо Пулев</br>кв. Казански","addr:city":"Ст. Загора","addr:country":"BG","name":"Ст. Загора: Казански","phone":"+359 88 530 3825","opening_hours":"Mo-Su 00:00-24:00","brand":"Petrol","brand:wikidata":"Q24315"},"coordinates":[42.41571,25.61688]},"tags_mismatch":true},{"osm":{"type":"way","id":304386912,"tags":{"amenity":"fuel","brand":"Петрол","brand:wikidata":"Q24315","building":"yes"},"wikidata":"Q24315","coordinates":[42.1396424,24.7952338]},"atp":{"id":"TgZhnmFevqUz4uYBqaJdS4dzfrE=","tags":{"ref":"8201","amenity":"fuel","addr:street_address":"бул. Съединение №47</br>до болницата","addr:city":"Хасково","addr:country":"BG","name":"Хасково: Център","phone":"+359 88 530 3828","opening_hours":"Mo-Su 06:00-22:00","brand":"Petrol","brand:wikidata":"Q24315"},"coordinates":[41.93288,25.56818]},"tags_mismatch":true},{"osm":{"type":"way","id":304401753,"tags":{"amenity":"fuel","brand":"Петрол","brand:wikidata":"Q24315"},"wikidata":"Q24315","coordinates":[42.1589155,24.5509252]},"atp":{"id":"tqG5pTerYYKJRLF12IKRw7DBqs0=","tags":{"ref":"8220","amenity":"fuel","addr:street_address":"гл. път Е80</br>изход за Хасково","addr:city":"Харманли","addr:country":"BG","name":"Харманли","phone":"+359 88 530 3843","opening_hours":"Mo-Su 00:00-24:00","brand":"Petrol","brand:wikidata":"Q24315"},"coordinates":[41.93145,25.90845]},"tags_mismatch":true},{"osm":{"type":"way","id":311763163,"tags":{"addr:city":"Русе","addr:street":"бул. Христо Ботев","amenity":"fuel","brand":"Петрол","brand:wikidata":"Q24315","building":"yes","fuel:diesel":"yes","fuel:octane_95":"yes","fuel:octane_98":"yes","ref":"6106","shop":"convenience"},"wikidata":"Q24315","coordinates":[43.811758,25.9817507]},"atp":{"id":"iVuCG4ezPyI0C3ipTviqp7ot6Co=","tags":{"ref":"8223","amenity":"fuel","addr:street_address":"ул. Дунав 19","addr:city":"Хасково","addr:country":"BG","name":"Хасково","phone":"+359 88 530 0164","opening_hours":"Mo-Su 00:00-24:00","brand":"Petrol","brand:wikidata":"Q24315"},"coordinates":[41.940138540282064,25.56307472839404]},"tags_mismatch":true},{"osm":{"type":"way","id":330615720,"tags":{"amenity":"fuel","brand":"Петрол","brand:wikidata":"Q24315","fuel:e10":"no"},"wikidata":"Q24315","coordinates":[42.8900618,24.758579]},"atp":{"id":"W0k5IyBKBVWILJF6FNTLdQ6md5k=","tags":{"ref":"8225","amenity":"fuel","addr:street_address":"ул. Панорамен път 3","addr:city":"Димитровград","addr:country":"BG","name":"Димитровград","phone":"+359 88 857 8737","opening_hours":"Mo-Su 00:00-24:00","brand":"Petrol","brand:wikidata":"Q24315"},"coordinates":[42.048879370610344,25.623466022704132]},"tags_mismatch":true},{"osm":{"type":"way","id":331338519,"tags":{"addr:city":"Хасково","addr:housenumber":"47","addr:postcode":"6300","addr:street":"Съединение","amenity":"fuel","brand":"Петрол","brand:wikidata":"Q24315","building":"yes","building:levels":"1","fuel:diesel":"yes","fuel:octane_95":"yes","note":"725.8.1"},"wikidata":"Q24315","coordinates":[41.932924,25.5682263]},"atp":{"id":"nMvYm4eVxgAM2BbNRXnqMFBwQbU=","tags":{"ref":"8226","amenity":"fuel","addr:street_address":"ул. Банска 98","addr:city":"Хасково","addr:country":"BG","name":"Хасково","phone":"+359 87 942 1125","opening_hours":"Mo-Su 00:00-24:00","brand":"Petrol","brand:wikidata":"Q24315"},"coordinates":[41.94349129810606,25.52952021773824]},"tags_mismatch":true},{"osm":{"type":"way","id":334755447,"tags":{"amenity":"fuel","brand":"Петрол","brand:wikidata":"Q24315","building":"yes"},"wikidata":"Q24315","coordinates":[41.7365515,24.4120538]},"atp":{"id":"qrZEdM6FssYFOAtd57B2yKC5M7I=","tags":{"ref":"8306","amenity":"fuel","addr:street_address":"ул. Гюмюрджинса №5</br>изход за Кърждали","addr:city":"Момчиловград","addr:country":"BG","name":"Момчиловград","phone":"+359 88 530 3850","opening_hours":"Mo-Su 00:00-24:00","brand":"Petrol","brand:wikidata":"Q24315"},"coordinates":[41.53265,25.40321]},"tags_mismatch":true},{"osm":{"type":"way","id":361371536,"tags":{"amenity":"fuel","brand":"Петрол","brand:wikidata":"Q24315"},"wikidata":"Q24315","coordinates":[43.3672013,25.1398275]},"atp":{"id":"3YOsDyYE4InjNWhkI4D4FQIjp8c=","tags":{"ref":"8307","amenity":"fuel","addr:street_address":"гл. път 59</br>за Ивайловград","addr:city":"Крумовград","addr:country":"BG","name":"Крумовград","phone":"+359 88 530 3851","opening_hours":"Mo-Su 00:00-24:00","brand":"Petrol","brand:wikidata":"Q24315"},"coordinates":[41.46792,25.65787]},"tags_mismatch":true},{"osm":{"type":"way","id":368617746,"tags":{"amenity":"fuel","brand":"Петрол","brand:wikidata":"Q24315","building":"yes","building:levels":"1","fuel:diesel":"yes","fuel:lpg":"yes","fuel:octane_95":"yes","opening_hours":"24/7","payment:coins":"yes","payment:jcb":"yes","payment:maestro":"yes","payment:mastercard":"yes","payment:notes":"yes","payment:visa":"yes","payment:visa_debit":"yes","payment:visa_electron":"yes"},"wikidata":"Q24315","coordinates":[43.5787511,27.8161428]},"atp":{"id":"H978P2uNgniqkB-h_y72dWBz16s=","tags":{"ref":"8315","amenity":"fuel","addr:street_address":"с. Кирково","addr:city":"Кирково","addr:country":"BG","name":"Кирково","phone":"+359 88 791 0553","opening_hours":"Mo-Su 00:00-24:00","brand":"Petrol","brand:wikidata":"Q24315"},"coordinates":[41.34084734260069,25.36515022528672]},"tags_mismatch":true},{"osm":{"type":"way","id":390770953,"tags":{"amenity":"fuel","brand":"Петрол","brand:wikidata":"Q24315","building":"roof","layer":"1","opening_hours":"24/7","phone":"+359 88 530 3266"},"wikidata":"Q24315","coordinates":[42.1309607,24.7991286]},"atp":false,"tags_mismatch":false},{"osm":{"type":"way","id":390778100,"tags":{"amenity":"fuel","brand":"Петрол","brand:wikidata":"Q24315"},"wikidata":"Q24315","coordinates":[42.1297644,24.7418042]},"atp":false,"tags_mismatch":false},{"osm":{"type":"way","id":397541578,"tags":{"amenity":"fuel","brand":"Петрол","brand:wikidata":"Q24315","fuel:cng":"yes","fuel:diesel":"yes","fuel:octane_95":"yes","opening_hours":"24/7"},"wikidata":"Q24315","coordinates":[42.0037833,24.8743744]},"atp":false,"tags_mismatch":false},{"osm":{"type":"way","id":437849183,"tags":{"amenity":"fuel","brand":"Петрол","brand:wikidata":"Q24315","internet_access":"wlan","wheelchair":"limited"},"wikidata":"Q24315","coordinates":[43.8978941,22.5289233]},"atp":false,"tags_mismatch":false},{"osm":{"type":"way","id":463690641,"tags":{"addr:street":"бул. Асен Йорданов","amenity":"fuel","brand":"Петрол","brand:wikidata":"Q24315","opening_hours":"24/7","phone":"+359 88 522 0430","website":"https://www.petrol.bg/"},"wikidata":"Q24315","coordinates":[42.6725251,23.3917365]},"atp":false,"tags_mismatch":false},{"osm":{"type":"way","id":469478976,"tags":{"amenity":"fuel","brand":"Петрол","brand:wikidata":"Q24315","building:levels":"1","check_date":"2009-07-19","note:cadastre:building_use":"Сграда за тьрговия","note:cadastre:id":"14218.501.1020.1","source:geometry":"http://gis.gabrovo.bg:6080/arcgis/rest/services/BaseMap/MapServer/7","source:geometry:date":"2017-01-12","source:geometry:ref":"389142"},"wikidata":"Q24315","coordinates":[42.8821813,25.3090453]},"atp":false,"tags_mismatch":false},{"osm":{"type":"way","id":473956995,"tags":{"amenity":"fuel","brand":"Петрол","brand:wikidata":"Q24315","fuel:diesel":"yes","fuel:lpg":"yes","fuel:octane_95":"yes","fuel:octane_98":"yes","opening_hours":"24/7"},"wikidata":"Q24315","coordinates":[43.634384,25.1212078]},"atp":false,"tags_mismatch":false},{"osm":{"type":"way","id":501192253,"tags":{"amenity":"fuel","brand":"Петрол","brand:wikidata":"Q24315","building":"yes"},"wikidata":"Q24315","coordinates":[43.0406376,24.531308]},"atp":false,"tags_mismatch":false},{"osm":{"type":"way","id":530060037,"tags":{"amenity":"fuel","brand":"Петрол","brand:wikidata":"Q24315","building":"yes"},"wikidata":"Q24315","coordinates":[42.0555862,25.6166031]},"atp":false,"tags_mismatch":false},{"osm":{"type":"way","id":536605202,"tags":{"addr:city":"Кирково","amenity":"fuel","brand":"Петрол","brand:wikidata":"Q24315","fuel:diesel":"yes","fuel:octane_95":"yes"},"wikidata":"Q24315","coordinates":[41.3397036,25.3584246]},"atp":false,"tags_mismatch":false},{"osm":{"type":"way","id":547650022,"tags":{"addr:city":"София","addr:housenumber":"200","addr:postcode":"1331","addr:street":"бул. Сливница","amenity":"fuel","brand:wikidata":"Q24315","fuel:diesel":"yes","fuel:lpg":"yes","fuel:octane_95":"yes","opening_hours":"24/7"},"wikidata":"Q24315","coordinates":[42.7474466,23.226977]},"atp":false,"tags_mismatch":false},{"osm":{"type":"way","id":566737150,"tags":{"amenity":"fuel","brand":"Петрол","brand:wikidata":"Q24315","building":"yes"},"wikidata":"Q24315","coordinates":[43.4137687,24.6530057]},"atp":false,"tags_mismatch":false},{"osm":{"type":"way","id":590493655,"tags":{"amenity":"fuel","brand":"Петрол","brand:wikidata":"Q24315","building":"yes"},"wikidata":"Q24315","coordinates":[43.1497949,24.7143307]},"atp":false,"tags_mismatch":false},{"osm":{"type":"way","id":608552545,"tags":{"addr:city":"Момчилград","amenity":"fuel","brand":"Петрол","brand:wikidata":"Q24315","fuel:diesel":"yes","fuel:octane_95":"yes","opening_hours":"24/7","payment:cash":"yes","payment:credit_cards":"yes","payment:mastercard":"yes","website":"https://www.petrol.bg/"},"wikidata":"Q24315","coordinates":[41.5327598,25.4031635]},"atp":false,"tags_mismatch":false},{"osm":{"type":"way","id":630578495,"tags":{"amenity":"fuel","brand":"Петрол","brand:wikidata":"Q24315","compressed_air":"no","opening_hours":"24/7"},"wikidata":"Q24315","coordinates":[42.6597512,23.3227086]},"atp":false,"tags_mismatch":false},{"osm":{"type":"way","id":683474693,"tags":{"amenity":"fuel","brand":"Петрол","brand:wikidata":"Q24315","building":"yes","building:levels":"1","fuel:diesel":"yes","fuel:lpg":"yes","fuel:octane_98":"yes"},"wikidata":"Q24315","coordinates":[41.9392669,25.559321]},"atp":false,"tags_mismatch":false},{"osm":{"type":"way","id":724961024,"tags":{"amenity":"fuel","brand":"Петрол","brand:wikidata":"Q24315","building":"yes","fuel:diesel":"yes","fuel:octane_95":"yes"},"wikidata":"Q24315","coordinates":[43.5546256,27.7864867]},"atp":false,"tags_mismatch":false},{"osm":{"type":"way","id":725025772,"tags":{"amenity":"fuel","brand":"Петрол","brand:wikidata":"Q24315"},"wikidata":"Q24315","coordinates":[43.5952421,27.818401]},"atp":false,"tags_mismatch":false},{"osm":{"type":"way","id":753659338,"tags":{"amenity":"fuel","brand":"Петрол","brand:wikidata":"Q24315","compressed_air":"yes","opening_hours":"24/7"},"wikidata":"Q24315","coordinates":[42.6368466,23.3344896]},"atp":false,"tags_mismatch":false},{"osm":{"type":"way","id":767899011,"tags":{"addr:street":"Булина ливада","amenity":"fuel","brand":"Петрол","brand:wikidata":"Q24315","opening_hours":"24/7","phone":"+359 88 522 0425"},"wikidata":"Q24315","coordinates":[42.7026752,23.2837114]},"atp":false,"tags_mismatch":false},{"osm":{"type":"way","id":789047942,"tags":{"addr:street":"бул. Д-р Петър Дертлиев","amenity":"fuel","brand":"Петрол","brand:wikidata":"Q24315","fuel:diesel":"yes","fuel:lpg":"yes","fuel:octane_95":"yes","fuel:octane_98":"yes"},"wikidata":"Q24315","coordinates":[42.7115591,23.2411795]},"atp":false,"tags_mismatch":false},{"osm":{"type":"way","id":863394317,"tags":{"amenity":"fuel","brand":"Петрол","brand:wikidata":"Q24315","check_date":"2024-01-18","compressed_air":"yes","fuel:diesel":"yes","fuel:octane_100":"yes","fuel:octane_95":"yes","internet_access":"wlan","internet_access:fee":"customers","layer":"1","opening_hours":"24/7","payment:cash":"yes","payment:credit_cards":"yes","payment:debit_cards":"yes","phone":"+359 88 522 0434","website":"https://www.petrol.bg/","wheelchair":"yes"},"wikidata":"Q24315","coordinates":[42.6595124,23.298608]},"atp":false,"tags_mismatch":false},{"osm":{"type":"way","id":909754564,"tags":{"amenity":"fuel","brand":"Петрол","brand:wikidata":"Q24315","opening_hours":"Mo-Su 07:30-18:30","phone":"+359 88 530 3631"},"wikidata":"Q24315","coordinates":[43.6607586,26.3835194]},"atp":false,"tags_mismatch":false},{"osm":{"type":"way","id":1026513636,"tags":{"amenity":"fuel","brand":"Петрол","brand:wikidata":"Q24315","building":"yes"},"wikidata":"Q24315","coordinates":[43.8746435,26.0154678]},"atp":false,"tags_mismatch":false},{"osm":{"type":"way","id":1052127227,"tags":{"amenity":"fuel","brand":"Петрол","brand:wikidata":"Q24315"},"wikidata":"Q24315","coordinates":[42.9732372,25.464913]},"atp":false,"tags_mismatch":false},{"osm":{"type":"way","id":1146831981,"tags":{"addr:city":"Дупница","addr:housenumber":"317","addr:street":"Св. Иван Рилски","amenity":"fuel","brand":"Петрол","brand:wikidata":"Q24315","source":"microsoft/BuildingFootprints"},"wikidata":"Q24315","coordinates":[42.2450539,23.0940357]},"atp":false,"tags_mismatch":false},{"osm":{"type":"way","id":1214764350,"tags":{"amenity":"fuel","brand":"Петрол","brand:wikidata":"Q24315","building":"roof"},"wikidata":"Q24315","coordinates":[43.7573565,26.6528701]},"atp":false,"tags_mismatch":false}]}