{"metadata":{"type":"brand","wikidata":"Q120314195","name":"Мусала Инс","compare_keys":["ref","phone"]},"data":[{"osm":{"type":"node","id":11638816669,"tags":{"brand":"Мусала","brand:wikidata":"Q120314195","office":"insurance","opening_hours":"Mo-Fr 08:30-17:30"},"wikidata":"Q120314195","coordinates":[42.6694688,23.2909271]},"atp":{"id":"sEYfXILa6GafWqej510wbo_Um5M=","tags":{"ref":"1538","office":"insurance","addr:street_address":"бул.България № 58, блок В, етаж 1-2","addr:city":"София","addr:country":"BG","name":"Мусала","phone":"+359 88 580 0242","email":"sofia@musslains.com","brand":"Мусала","brand:wikidata":"Q120314195"},"coordinates":[42.669401,23.291352]},"dist":35.548,"tags_mismatch":true},{"osm":{"type":"node","id":12031763791,"tags":{"brand":"Мусала","brand:wikidata":"Q120314195","office":"insurance"},"wikidata":"Q120314195","coordinates":[42.147489,24.7782167]},"atp":false,"tags_mismatch":false},{"osm":false,"atp":{"id":"qDggiib95qseYvyGh7PSHiK19Ms=","tags":{"ref":"1640","office":"insurance","addr:street_address":"бул. Владислав Варненчик №55 ет.6","addr:city":"Варна","addr:country":"BG","name":"Мусала","phone":"+359 52 610 854","email":"office@mussalains.com","brand":"Мусала","brand:wikidata":"Q120314195"},"coordinates":[43.21078,27.90774]},"tags_mismatch":false,"dist":0},{"osm":false,"atp":{"id":"lcTQdBQtka06KRVNADHMfjuiIlI=","tags":{"ref":"1638","office":"insurance","addr:street_address":"бул. Съборни 28, ет.1","addr:city":"Варна","addr:country":"BG","name":"Мусала","phone":"+359 88 481 0850","email":"i.viktorov@mussalains.com","brand":"Мусала","brand:wikidata":"Q120314195"},"coordinates":[43.20727,27.91187]},"tags_mismatch":false,"dist":0},{"osm":false,"atp":{"id":"7NMyZFlgjg8hAd3EAzE2kmLCmXc=","tags":{"ref":"2275","office":"insurance","addr:street_address":"ул. Роза 30","addr:city":"Варна","addr:country":"BG","name":"Мусала","phone":"+359 89 420 0313","email":"ts.grozdev@mussalains.com","brand":"Мусала","brand:wikidata":"Q120314195"},"coordinates":[43.22338,27.91444]},"tags_mismatch":false,"dist":0},{"osm":false,"atp":{"id":"DiipBE8DVX6EiV3zdkhwZAEQIXo=","tags":{"ref":"1652","office":"insurance","addr:street_address":"ул. Топола 3","addr:city":"Варна","addr:country":"BG","name":"Мусала","phone":"+359 88 556 0313","email":"m.stoyanova@mussalains.com","brand":"Мусала","brand:wikidata":"Q120314195"},"coordinates":[43.218997,27.902715]},"tags_mismatch":false,"dist":0},{"osm":false,"atp":{"id":"fuoBEhKMmJxVmtrrKBHvxbFayOw=","tags":{"ref":"1650","office":"insurance","addr:street_address":"пл. Екзарх Йосиф I, ет. 2 (Шишкова градина)","addr:city":"Варна","addr:country":"BG","name":"Мусала","phone":"+359 88 654 6191","email":"s.kostadinova@mussalains.com","brand":"Мусала","brand:wikidata":"Q120314195"},"coordinates":[43.203703,27.919123]},"tags_mismatch":false,"dist":0},{"osm":false,"atp":{"id":"weNvGE2TivIJ1pKE0i56yCoa3vM=","tags":{"ref":"1634","office":"insurance","addr:street_address":"бул.Христо Ботев 18 (Fullmax center)","addr:city":"Варна","addr:country":"BG","name":"Мусала","phone":"+359 89 877 0707","email":"v.meranzov@mussalains.com","brand":"Мусала","brand:wikidata":"Q120314195"},"coordinates":[43.20419,27.90263]},"tags_mismatch":false,"dist":0},{"osm":false,"atp":{"id":"TuXYvn-aMG2RFbI3D6NKHKZdUuw=","tags":{"ref":"1628","office":"insurance","addr:street_address":"ул.Девня 12А (до хотел Аква)","addr:city":"Варна","addr:country":"BG","name":"Мусала","phone":"+359 89 556 6337","email":"b.stoimenova@mussalains.com","brand":"Мусала","brand:wikidata":"Q120314195"},"coordinates":[43.19929,27.90983]},"tags_mismatch":false,"dist":0},{"osm":false,"atp":{"id":"k58L9gbWo-sFSm2pzC60Jp-ZU8M=","tags":{"ref":"2475","office":"insurance","addr:street_address":"ул. Дружба 20","addr:city":"Варна","addr:country":"BG","name":"Мусала","phone":"+359 88 916 0052","email":"zh.borisova@mussalains.com","brand":"Мусала","brand:wikidata":"Q120314195"},"coordinates":[43.21944,27.93436]},"tags_mismatch":false,"dist":0},{"osm":false,"atp":{"id":"uCHpbCul_aZ4am2UvabUXZaSACw=","tags":{"ref":"2578","office":"insurance","addr:street_address":"кв.Чайка бл.182","addr:city":"Варна","addr:country":"BG","name":"Мусала","phone":"+359 98 837 1811","email":"k.georgieva@mussalains.com","brand":"Мусала","brand:wikidata":"Q120314195"},"coordinates":[43.21503,27.94072]},"tags_mismatch":false,"dist":0},{"osm":false,"atp":{"id":"gep0NMR5Z_RDFXkb_PfA_EkjceY=","tags":{"ref":"1639","office":"insurance","addr:street_address":"ул. Вярност 26","addr:city":"Варна","addr:country":"BG","name":"Мусала","phone":"+359 88 784 6614","email":"v.kunov@mussalains.com","brand":"Мусала","brand:wikidata":"Q120314195"},"coordinates":[43.22625,27.8888]},"tags_mismatch":false,"dist":0},{"osm":false,"atp":{"id":"ApXgixwBmpEDeJYh9wz9KgWzct4=","tags":{"ref":"2478","office":"insurance","addr:street_address":"ул. Тролейна 48","addr:city":"Варна","addr:country":"BG","name":"Мусала","phone":"+359 89 449 6262","email":"s.darganova@mussalains.com","brand":"Мусала","brand:wikidata":"Q120314195"},"coordinates":[43.229586,27.890716]},"tags_mismatch":false,"dist":0},{"osm":false,"atp":{"id":"pEQdJOW-VrWpv-iBVSd86_edSXg=","tags":{"ref":"1637","office":"insurance","addr:street_address":"ул. Кирил и Методий 3","addr:city":"Варна","addr:country":"BG","name":"Мусала","phone":"+359 88 566 8570","email":"l.lazarov@mussalains.com","brand":"Мусала","brand:wikidata":"Q120314195"},"coordinates":[43.18303,27.90011]},"tags_mismatch":false,"dist":0},{"osm":false,"atp":{"id":"JRUMtfhWRFl4iraAiUIevwwNXC4=","tags":{"ref":"1629","office":"insurance","addr:street_address":"бул. Цар Освободител 204 В (изход КАТ - регистрации)","addr:city":"Варна","addr:country":"BG","name":"Мусала","phone":"+359 88 819 7739","email":"a.ivanova@mussalains.com","brand":"Мусала","brand:wikidata":"Q120314195"},"coordinates":[43.236048,27.870401]},"tags_mismatch":false,"dist":0},{"osm":false,"atp":{"id":"MpAimsYMPYmdI3noZPkQUlS7Shc=","tags":{"ref":"1636","office":"insurance","addr:street_address":"ул. Димитър Солунски 2","addr:city":"Варна","addr:country":"BG","name":"Мусала","phone":"+359 88 430 6697","email":"r.georgieva@mussalains.com","brand":"Мусала","brand:wikidata":"Q120314195"},"coordinates":[43.24516,27.9804]},"tags_mismatch":false,"dist":0},{"osm":false,"atp":{"id":"y6Cun2FELaDzEnTLrPNEY-Q1o6I=","tags":{"ref":"1633","office":"insurance","addr:street_address":"кв. Владиславово, Пазара (зад параклиса)","addr:city":"Варна","addr:country":"BG","name":"Мусала","phone":"+359 88 693 4209","email":"d.chernev@mussalains.com","brand":"Мусала","brand:wikidata":"Q120314195"},"coordinates":[43.24611,27.84787]},"tags_mismatch":false,"dist":0},{"osm":false,"atp":{"id":"u1m3RIpqYQbFjVQLFFDlLvMEVTw=","tags":{"ref":"1604","office":"insurance","addr:street_address":"обл. Варна, ул. Д-р Атанас Липов 20","addr:city":"Тополи","addr:country":"BG","name":"Мусала","phone":"+359 89 915 5613","email":"I.kumanova@mussalains.com","brand":"Мусала","brand:wikidata":"Q120314195"},"coordinates":[43.216061,27.820162]},"tags_mismatch":false,"dist":0},{"osm":false,"atp":{"id":"lQxADfBh_I88UySs-SmQqlz3IY0=","tags":{"ref":"1635","office":"insurance","addr:street_address":"ул.Капитан Петко Войвода 2В (под общината)","addr:city":"Аксаково","addr:country":"BG","name":"Мусала","phone":"+359 88 907 0733","email":"s.velikova@mussalains.com","brand":"Мусала","brand:wikidata":"Q120314195"},"coordinates":[43.25862,27.81727]},"tags_mismatch":false,"dist":0},{"osm":false,"atp":{"id":"mVD3gRDnRz-UqRKW8a8x5UnSztg=","tags":{"ref":"1626","office":"insurance","addr:street_address":"ул. Гебедже 1 (до гимназията)","addr:city":"Белослав","addr:country":"BG","name":"Мусала","phone":"+359 88 297 9775","email":"j.petrova@mussalains.com","brand":"Мусала","brand:wikidata":"Q120314195"},"coordinates":[43.18711,27.70417]},"tags_mismatch":false,"dist":0},{"osm":false,"atp":{"id":"CEmNF_zLxsTO_KNsA5l8RG6RbBg=","tags":{"ref":"1653","office":"insurance","addr:street_address":"ул. 2-ра 3","addr:city":"Балчик","addr:country":"BG","name":"Мусала","phone":"+359 88 740 0240","email":"d.kuzmanova@mussalains.com","brand":"Мусала","brand:wikidata":"Q120314195"},"coordinates":[43.411771,28.142957]},"tags_mismatch":false,"dist":0},{"osm":false,"atp":{"id":"6P0Y_8vbMrYDgUkHq8qNl1cCnFs=","tags":{"ref":"1565","office":"insurance","addr:street_address":"ул. Генерал Владимир Заимов 2","addr:city":"Балчик","addr:country":"BG","name":"Мусала","phone":"+359 89 780 9008","email":"s.tashkova@mussalains.com","brand":"Мусала","brand:wikidata":"Q120314195"},"coordinates":[43.406211,28.167565]},"tags_mismatch":false,"dist":0},{"osm":false,"atp":{"id":"FLUWc9OxdtmoiN413TEirxQiJYw=","tags":{"ref":"1619","office":"insurance","addr:street_address":"бул. 25-ти Септември 62А","addr:city":"Добрич","addr:country":"BG","name":"Мусала","phone":"+359 88 297 9774","email":"d.gichev@mussalains.com","brand":"Мусала","brand:wikidata":"Q120314195"},"coordinates":[43.5722,27.82786]},"tags_mismatch":false,"dist":0},{"osm":false,"atp":{"id":"Hzke94LQZiU64iyhfU6HHkOxnd4=","tags":{"ref":"1618","office":"insurance","addr:street_address":"Общински пазар, павилион 3","addr:city":"Каварна","addr:country":"BG","name":"Мусала","phone":"+359 88 680 7949","email":"s.ivanova@mussalains.com","brand":"Мусала","brand:wikidata":"Q120314195"},"coordinates":[43.435745,28.338279]},"tags_mismatch":false,"dist":0},{"osm":false,"atp":{"id":"WOgEcLdcKsl_L3tgO-eDC8ZFLUE=","tags":{"ref":"1586","office":"insurance","addr:street_address":"ул. Добротица 21","addr:city":"Каварна","addr:country":"BG","name":"Мусала","phone":"+359 88 723 5129","email":"g.kraleva@mussalains.com","brand":"Мусала","brand:wikidata":"Q120314195"},"coordinates":[43.434101,28.340057]},"tags_mismatch":false,"dist":0},{"osm":false,"atp":{"id":"6d3eDXJ0BzkEWp8tpMnzyw9oXWc=","tags":{"ref":"1646","office":"insurance","addr:street_address":"обл. Варна, ул. Христо Трендафилов 48","addr:city":"Цонево","addr:country":"BG","name":"Мусала","phone":"+359 89 917 5097","email":"y.gachev@mussalains.com","brand":"Мусала","brand:wikidata":"Q120314195"},"coordinates":[43.029087,27.438902]},"tags_mismatch":false,"dist":0},{"osm":false,"atp":{"id":"TSzte0v1AjcB35itmYLdxXRKFec=","tags":{"ref":"1649","office":"insurance","addr:street_address":"ул. Ген. Гурко 2","addr:city":"Дългопол","addr:country":"BG","name":"Мусала","phone":"+359 88 654 6191","email":"g.veleva@mussalains.com","brand":"Мусала","brand:wikidata":"Q120314195"},"coordinates":[43.04965,27.346326]},"tags_mismatch":false,"dist":0},{"osm":false,"atp":{"id":"0Vbq4RCiuC0qoPrNsTKMvNB_2E0=","tags":{"ref":"1671","office":"insurance","addr:street_address":"ул. Стефан Караджа 36","addr:city":"Нови Пазар","addr:country":"BG","name":"Мусала","phone":"+359 89 516 7113","email":"na.ivanova@mussalains.com","brand":"Мусала","brand:wikidata":"Q120314195"},"coordinates":[43.34008,27.200076]},"tags_mismatch":false,"dist":0},{"osm":false,"atp":{"id":"2xU9Xb278TKHqJKD9lNYjJImExI=","tags":{"ref":"2468","office":"insurance","addr:street_address":"ул. Първа, до Пощата","addr:city":"Слънчев бряг","addr:country":"BG","name":"Мусала","phone":"+359 88 787 3834","email":"ts.yacheva@mussalains.com","brand":"Мусала","brand:wikidata":"Q120314195"},"coordinates":[42.6943,27.70956]},"tags_mismatch":false,"dist":0},{"osm":false,"atp":{"id":"LwqVGGnBgJX81khgxjC9WOGwd0g=","tags":{"ref":"1672","office":"insurance","addr:street_address":"пл. Оборище 5","addr:city":"Нови Пазар","addr:country":"BG","name":"Мусала","phone":"+359 89 472 2683","email":"v.pavlov@mussalains.com","brand":"Мусала","brand:wikidata":"Q120314195"},"coordinates":[43.345188,27.192815]},"tags_mismatch":false,"dist":0},{"osm":false,"atp":{"id":"LeGZmrv1wnCIUpj8knsyuUw4U2s=","tags":{"ref":"1608","office":"insurance","addr:street_address":"ул. Хан Крум 39 А","addr:city":"Несебър","addr:country":"BG","name":"Мусала","phone":"+359 89 834 9910","email":"k.kosev@mussalains.com","brand":"Мусала","brand:wikidata":"Q120314195"},"coordinates":[42.665229,27.714896]},"tags_mismatch":false,"dist":0},{"osm":false,"atp":{"id":"bRAv98GXzWb1qiFUgWpJgEwIE2s=","tags":{"ref":"2196","office":"insurance","addr:street_address":"ул.Кирил и Методий 14, партер","addr:city":"Равда","addr:country":"BG","name":"Мусала","phone":"+359 89 922 2818","email":"m.tasheva@mussalains.com","brand":"Мусала","brand:wikidata":"Q120314195"},"coordinates":[42.645225,27.676849]},"tags_mismatch":false,"dist":0},{"osm":false,"atp":{"id":"aJl5g7km3I7GCbIcvCRMCsvKgw4=","tags":{"ref":"1561","office":"insurance","addr:street_address":"ул. Искър 5","addr:city":"Ахелой","addr:country":"BG","name":"Мусала","phone":"+359 89 945 0746","email":"i.dimitrov@mussalains.com","brand":"Мусала","brand:wikidata":"Q120314195"},"coordinates":[42.645966,27.649876]},"tags_mismatch":false,"dist":0},{"osm":false,"atp":{"id":"jXI5w8i2Gfl-7zOiGYZ9mDKaPY8=","tags":{"ref":"1606","office":"insurance","addr:street_address":"ул. Екзарх Йосиф 16","addr:city":"Поморие","addr:country":"BG","name":"Мусала","phone":"+359 88 494 1700","email":"j.kostadinov@mussalains.com","brand":"Мусала","brand:wikidata":"Q120314195"},"coordinates":[42.55829,27.63987]},"tags_mismatch":false,"dist":0},{"osm":false,"atp":{"id":"bRgda23in0WkQ1a3w5Sqe9O3EcI=","tags":{"ref":"2538","office":"insurance","addr:street_address":"ул. Васил Левски 2","addr:city":"Айтос","addr:country":"BG","name":"Мусала","phone":"+359 88 787 3355","email":"p.drumeva@mussalains.com","brand":"Мусала","brand:wikidata":"Q120314195"},"coordinates":[42.702206,27.25641]},"tags_mismatch":false,"dist":0},{"osm":false,"atp":{"id":"wc9xA8N0U7zf2FqwFlgrmlqwTk8=","tags":{"ref":"1632","office":"insurance","addr:street_address":"бул. Велики Преслав 56","addr:city":"Шумен","addr:country":"BG","name":"Мусала","phone":"+359 89 447 8734","email":"m.asenov@mussalains.com","brand":"Мусала","brand:wikidata":"Q120314195"},"coordinates":[43.264927,26.935725]},"tags_mismatch":false,"dist":0},{"osm":false,"atp":{"id":"LaQKlIiQrxZkKvWQlPoCZmiREos=","tags":{"ref":"1676","office":"insurance","addr:street_address":"ул. Университетска 13","addr:city":"Шумен","addr:country":"BG","name":"Мусала","phone":"+359 89 871 7719","email":"m.ruseva@mussalains.com","brand":"Мусала","brand:wikidata":"Q120314195"},"coordinates":[43.276481,26.93591]},"tags_mismatch":false,"dist":0},{"osm":false,"atp":{"id":"npWLp9BVYm3E_XkPua25BPvFoxk=","tags":{"ref":"1988","office":"insurance","addr:street_address":"к-с Славейков бл.170","addr:city":"Бургас","addr:country":"BG","name":"Мусала","phone":"+359 87 840 0806","email":"p.ivanov@mussalains.com","brand":"Мусала","brand:wikidata":"Q120314195"},"coordinates":[42.52035,27.451714]},"tags_mismatch":false,"dist":0},{"osm":false,"atp":{"id":"our-Szb0U7u_C1ict6BgZCTxHRo=","tags":{"ref":"1596","office":"insurance","addr:street_address":"ул. Копривщица 100 (в бензиностанция DEGA)","addr:city":"Бургас","addr:country":"BG","name":"Мусала","phone":"+359 89 871 9181","email":"a.yankova@mussalains.com","brand":"Мусала","brand:wikidata":"Q120314195"},"coordinates":[42.509935,27.476874]},"tags_mismatch":false,"dist":0},{"osm":false,"atp":{"id":"-11AV9J6ilD1GldbxIGi2Uvt1-k=","tags":{"ref":"1612","office":"insurance","addr:street_address":"к-с Славейков бл.107 партер (до паркинга на Билла)","addr:city":"Бургас","addr:country":"BG","name":"Мусала","phone":"+359 88 419 1900","email":"burgas@mussalains.com","brand":"Мусала","brand:wikidata":"Q120314195"},"coordinates":[42.518047,27.452876]},"tags_mismatch":false,"dist":0},{"osm":false,"atp":{"id":"TAuYyipVAcGuZBOzRl6PbxxOUuE=","tags":{"ref":"1555","office":"insurance","addr:street_address":"ул. Захари Зограф 80А","addr:city":"Бургас","addr:country":"BG","name":"Мусала","phone":"+359 89 914 3018","email":"a.yankova@mussalains.com","brand":"Мусала","brand:wikidata":"Q120314195"},"coordinates":[42.517621,27.373941]},"tags_mismatch":false,"dist":0},{"osm":false,"atp":{"id":"6B7mJSwXhE6LSNOtlHL9zE-R4wM=","tags":{"ref":"1675","office":"insurance","addr:street_address":"ул. Борис Спиров 14","addr:city":"Велики Преслав","addr:country":"BG","name":"Мусала","phone":"+359 89 544 1929","email":"r.yordanov@mussalains.com","brand":"Мусала","brand:wikidata":"Q120314195"},"coordinates":[43.162663,26.807818]},"tags_mismatch":false,"dist":0},{"osm":false,"atp":{"id":"s4J88vTy33-Gluk4vgIZ9HexJY4=","tags":{"ref":"1607","office":"insurance","addr:street_address":"ул. Одеса бл.6, вх.В","addr:city":"Созопол","addr:country":"BG","name":"Мусала","phone":"+359 88 212 1205","email":"s.nedelchev@mussalains.com","brand":"Мусала","brand:wikidata":"Q120314195"},"coordinates":[42.41819,27.69531]},"tags_mismatch":false,"dist":0},{"osm":false,"atp":{"id":"sElYRCzIuRMZT_uJtAB-nKVMDoE=","tags":{"ref":"1546","office":"insurance","addr:street_address":"ул. Васил Левски 53","addr:city":"Дулово","addr:country":"BG","name":"Мусала","phone":"+359 89 965 5240","email":"e.osman@mussalains.com","brand":"Мусала","brand:wikidata":"Q120314195"},"coordinates":[43.817807,27.142713]},"tags_mismatch":false,"dist":0},{"osm":false,"atp":{"id":"2-s4IMpt3vMLKZlO3laBY3SwuHI=","tags":{"ref":"1572","office":"insurance","addr:street_address":"ул. Шуменско шосе 41","addr:city":"Дулово","addr:country":"BG","name":"Мусала","phone":"+359 89 677 7540","email":"sh.riza@mussalains.com","brand":"Мусала","brand:wikidata":"Q120314195"},"coordinates":[43.822762,27.139617]},"tags_mismatch":false,"dist":0},{"osm":false,"atp":{"id":"ewUr6NHMCsB_cLqqKKVze4RvZv0=","tags":{"ref":"1610","office":"insurance","addr:street_address":"ул.Въстаническа 54А","addr:city":"Бургас","addr:country":"BG","name":"Мусала","phone":"+359 88 933 7634","email":"s.dimitrova@mussalains.com","brand":"Мусала","brand:wikidata":"Q120314195"},"coordinates":[42.45479,27.41171]},"tags_mismatch":false,"dist":0},{"osm":false,"atp":{"id":"9Mx1si1hRXEoV5FRLxEOb5XY5dI=","tags":{"ref":"1544","office":"insurance","addr:street_address":"обл. Силистра, пл. Младост, Тотопункт","addr:city":"Паисиево","addr:country":"BG","name":"Мусала","phone":"+359 88 700 5607","email":"n.muhsin@mussalains.com","brand":"Мусала","brand:wikidata":"Q120314195"},"coordinates":[43.786889,26.950203]},"tags_mismatch":false,"dist":0},{"osm":false,"atp":{"id":"_aaSFkUZGLBKT91gsbkogCV0T_4=","tags":{"ref":"1543","office":"insurance","addr:street_address":"обл. Силистра, ул. Първа 77","addr:city":"Яребица","addr:country":"BG","name":"Мусала","phone":"+359 88 654 8474","email":"y.cherkez@mussalains.com","brand":"Мусала","brand:wikidata":"Q120314195"},"coordinates":[43.84295,27.008327]},"tags_mismatch":false,"dist":0},{"osm":false,"atp":{"id":"wk4eAJn1sUh4tT2j9BstDqyte9c=","tags":{"ref":"1590","office":"insurance","addr:street_address":"ул. Септемврийско въстание 53","addr:city":"Върбица","addr:country":"BG","name":"Мусала","phone":"+359 89 638 3663","email":"s.mersinkova@mussalains.com","brand":"Мусала","brand:wikidata":"Q120314195"},"coordinates":[42.99402,26.671981]},"tags_mismatch":false,"dist":0},{"osm":false,"atp":{"id":"AEloYwP1TAZKKA2Ge1dg3g2GnKU=","tags":{"ref":"1542","office":"insurance","addr:street_address":"обл. Силистра, ул. Централна 26","addr:city":"Правда","addr:country":"BG","name":"Мусала","phone":"+359 89 576 0192","email":"n.dail@mussalains.com","brand":"Мусала","brand:wikidata":"Q120314195"},"coordinates":[43.874499,26.997343]},"tags_mismatch":false,"dist":0},{"osm":false,"atp":{"id":"iZ__5OUoxIvk91S2dl3mr2R2iMk=","tags":{"ref":"1617","office":"insurance","addr:street_address":"ул. Паисий 18","addr:city":"Търговище","addr:country":"BG","name":"Мусала","phone":"+359 87 863 5780","email":"s.stoyanova@mussalains.com","brand":"Мусала","brand:wikidata":"Q120314195"},"coordinates":[43.24248,26.577343]},"tags_mismatch":false,"dist":0},{"osm":false,"atp":{"id":"EXx5RBiFt2GuWeCB9Ar_TTe1ROk=","tags":{"ref":"1616","office":"insurance","addr:street_address":"ул.Гладстон 6","addr:city":"Търговище","addr:country":"BG","name":"Мусала","phone":"+359 89 548 1441","email":"b.bonev@mussalains.com","brand":"Мусала","brand:wikidata":"Q120314195"},"coordinates":[43.25184,26.57169]},"tags_mismatch":false,"dist":0},{"osm":false,"atp":{"id":"aTG31fpIvlbYUyNX4ufGOWLlccw=","tags":{"ref":"1549","office":"insurance","addr:street_address":"ул. Одеса 14","addr:city":"Силистра","addr:country":"BG","name":"Мусала","phone":"+359 89 785 0268","email":"r.manolov@mussala.com","brand":"Мусала","brand:wikidata":"Q120314195"},"coordinates":[44.110428,27.281171]},"tags_mismatch":false,"dist":0},{"osm":false,"atp":{"id":"z1BgMIcDUA0XtUEfdLFgpWYkmY4=","tags":{"ref":"1576","office":"insurance","addr:street_address":"ул. 7-ми Септември 33","addr:city":"Силистра","addr:country":"BG","name":"Мусала","phone":"+359 88 800 8779","email":"s.mustanova@mussalains.com","brand":"Мусала","brand:wikidata":"Q120314195"},"coordinates":[44.112896,27.272488]},"tags_mismatch":false,"dist":0},{"osm":false,"atp":{"id":"mwkpKp7v_UG08yIdjQxgqr3iZ90=","tags":{"ref":"1602","office":"insurance","addr:street_address":"ул.Александър Стамболийски 32","addr:city":"Средец","addr:country":"BG","name":"Мусала","phone":"+359 88 957 3760","email":"s.palova@mussalains.com","brand":"Мусала","brand:wikidata":"Q120314195"},"coordinates":[42.342931,27.188496]},"tags_mismatch":false,"dist":0},{"osm":false,"atp":{"id":"aOuQZh5yvbxPfuYkaCCmQL4ntYU=","tags":{"ref":"1673","office":"insurance","addr:street_address":"обл. Сливен, ул. Разбойна 2А","addr:city":"Ябланово","addr:country":"BG","name":"Мусала","phone":"+359 89 985 5402","email":"e.dimova@mussalains.com","brand":"Мусала","brand:wikidata":"Q120314195"},"coordinates":[42.985473,26.548926]},"tags_mismatch":false,"dist":0},{"osm":false,"atp":{"id":"1kQO3kXt64zQbwbr87oNWrIXCKI=","tags":{"ref":"2594","office":"insurance","addr:street_address":"ул. Михаил Герджиков 24","addr:city":"Царево","addr:country":"BG","name":"Мусала","phone":"+359 88 297 9773","email":"m.petkova@mussalains.com","brand":"Мусала","brand:wikidata":"Q120314195"},"coordinates":[42.16846,27.84962]},"tags_mismatch":false,"dist":0},{"osm":false,"atp":{"id":"iJF_nrvT-sBaZzBLIURVEftltsI=","tags":{"ref":"1577","office":"insurance","addr:street_address":"ул. Михаил Герджиков 24","addr:city":"Царево","addr:country":"BG","name":"Мусала","phone":"+359 88 766 7451","email":"em.petkova@mussalains.com","brand":"Мусала","brand:wikidata":"Q120314195"},"coordinates":[42.168269,27.849694]},"tags_mismatch":false,"dist":0},{"osm":false,"atp":{"id":"fusrIq5KTL9hhq4b5_tjWb3zAJw=","tags":{"ref":"1562","office":"insurance","addr:street_address":"ул. Раковски 2 В","addr:city":"Главиница","addr:country":"BG","name":"Мусала","phone":"+359 89 996 4938","email":"g.riza@mussalains.com","brand":"Мусала","brand:wikidata":"Q120314195"},"coordinates":[43.914933,26.840232]},"tags_mismatch":false,"dist":0},{"osm":false,"atp":{"id":"CuwXe8xsH3ROEhdqf7NMlF_8S7g=","tags":{"ref":"1585","office":"insurance","addr:street_address":"ул. Осъм 10А, офис 3","addr:city":"Разград","addr:country":"BG","name":"Мусала","phone":"+359 88 486 7285","email":"g.cankova@mussalains.com","brand":"Мусала","brand:wikidata":"Q120314195"},"coordinates":[43.524477,26.536307]},"tags_mismatch":false,"dist":0},{"osm":false,"atp":{"id":"nhdBoFyHqpFiH3aSakcN3OqSkuk=","tags":{"ref":"1954","office":"insurance","addr:street_address":"бул. Априлско въстание 27 (площад Ларго)","addr:city":"Разград","addr:country":"BG","name":"Мусала","phone":"+359 89 550 3422","email":"m.naneva@mussalains.com","brand":"Мусала","brand:wikidata":"Q120314195"},"coordinates":[43.523708,26.52349]},"tags_mismatch":false,"dist":0},{"osm":false,"atp":{"id":"vy977pREC2W_vrenwoq-_RGl4dA=","tags":{"ref":"1630","office":"insurance","addr:street_address":"ул. Изворска 14","addr:city":"Котел","addr:country":"BG","name":"Мусала","phone":"+359 88 666 9667","email":"d.chaushev@mussalains.com","brand":"Мусала","brand:wikidata":"Q120314195"},"coordinates":[42.88936,26.44503]},"tags_mismatch":false,"dist":0},{"osm":false,"atp":{"id":"miCpvD4LA0nAOcKl1kZ_2tYUsXQ=","tags":{"ref":"2167","office":"insurance","addr:street_address":"ж.к Георги Бенковски 57А","addr:city":"Ямбол","addr:country":"BG","name":"Мусала","phone":"+359 87 840 0443","email":"t.ivanov@mussalains.com","brand":"Мусала","brand:wikidata":"Q120314195"},"coordinates":[42.4994,26.529823]},"tags_mismatch":false,"dist":0},{"osm":false,"atp":{"id":"guP3mNEI3QtViD7-ANU6JjQ8Cf0=","tags":{"ref":"1545","office":"insurance","addr:street_address":"ул. Трансмариска 10","addr:city":"Тутракан","addr:country":"BG","name":"Мусала","phone":"+359 88 805 8731","email":"z.rashidova@mussalains.com","brand":"Мусала","brand:wikidata":"Q120314195"},"coordinates":[44.049282,26.606587]},"tags_mismatch":false,"dist":0},{"osm":false,"atp":{"id":"ESuymW5P_yZIlHSuGv_BRiIKtik=","tags":{"ref":"2170","office":"insurance","addr:street_address":"ул.Индже Войвода 34","addr:city":"Ямбол","addr:country":"BG","name":"Мусала","phone":"+359 89 916 4147","email":"m.barzakova@mussalains.com","brand":"Мусала","brand:wikidata":"Q120314195"},"coordinates":[42.476799,26.503531]},"tags_mismatch":false,"dist":0},{"osm":false,"atp":{"id":"PbW6yWwlGVu6eSnvdh4NI9oL9pU=","tags":{"ref":"1557","office":"insurance","addr:street_address":"ул. „Захари Величков“ 2 (до м-н Вилтон)","addr:city":"Ямбол","addr:country":"BG","name":"Мусала","phone":"+359 89 436 9986","email":"r.valchanova@mussalains.com","brand":"Мусала","brand:wikidata":"Q120314195"},"coordinates":[42.476225,26.499583]},"tags_mismatch":false,"dist":0},{"osm":false,"atp":{"id":"JOY9gbQhiWQMhnW_pSpxIm81zJY=","tags":{"ref":"2161","office":"insurance","addr:street_address":"ул.Г.С.Раковски 47","addr:city":"Кукорево","addr:country":"BG","name":"Мусала","phone":"+359 89 844 6486","email":"l.demirev@mussalains.com","brand":"Мусала","brand:wikidata":"Q120314195"},"coordinates":[42.442306,26.533151]},"tags_mismatch":false,"dist":0},{"osm":false,"atp":{"id":"WkPktKK7aQq7P3lf2sQ0korsfwU=","tags":{"ref":"1648","office":"insurance","addr:street_address":"ул. Драгоман 2","addr:city":"Сливен","addr:country":"BG","name":"Мусала","phone":"+359 89 983 2365","email":"d.blagoev@mussalains.com","brand":"Мусала","brand:wikidata":"Q120314195"},"coordinates":[42.682667,26.321092]},"tags_mismatch":false,"dist":0},{"osm":false,"atp":{"id":"_mQX4i4eY-TWbxC7Gce0YgdjWV8=","tags":{"ref":"1674","office":"insurance","addr:street_address":"ул. Тузлушки герой 40","addr:city":"Антоново","addr:country":"BG","name":"Мусала","phone":"+359 89 556 6032","email":"yu.yusufov@mussalains.com","brand":"Мусала","brand:wikidata":"Q120314195"},"coordinates":[43.150365,26.157809]},"tags_mismatch":false,"dist":0},{"osm":false,"atp":{"id":"qDv6GhxPiM-7ByiZ1QrPwBI17k0=","tags":{"ref":"2165","office":"insurance","addr:street_address":"ул.Пейо Яворов 2","addr:city":"Болярово","addr:country":"BG","name":"Мусала","phone":"+359 89 687 6096","email":"t.angelova@mussalains.com","brand":"Мусала","brand:wikidata":"Q120314195"},"coordinates":[42.148159,26.810019]},"tags_mismatch":false,"dist":0},{"osm":false,"atp":{"id":"7O2NfG401jmtJ17YdLLIcUuLXFQ=","tags":{"ref":"1603","office":"insurance","addr:street_address":"ул. Михаил Друмев 6","addr:city":"Стражица","addr:country":"BG","name":"Мусала","phone":"+359 88 993 0349","email":"a.stancheva@mussalains.com","brand":"Мусала","brand:wikidata":"Q120314195"},"coordinates":[43.23058,25.96701]},"tags_mismatch":false,"dist":0},{"osm":false,"atp":{"id":"hnyAQJ6_xnxRy5zfWRia4EntvGg=","tags":{"ref":"2159","office":"insurance","addr:street_address":"ул.Ал.Стамболийски №29","addr:city":"Елхово","addr:country":"BG","name":"Мусала","phone":"+359 89 478 8650","email":"s.georgieva@mussalains.com","brand":"Мусала","brand:wikidata":"Q120314195"},"coordinates":[42.16817,26.567493]},"tags_mismatch":false,"dist":0},{"osm":false,"atp":{"id":"GbusyaVCjXzmXos6nX3EEJM9hzs=","tags":{"ref":"1624","office":"insurance","addr:street_address":"ул.Иларион Макариополски 32 (хотел Перун)","addr:city":"Елена","addr:country":"BG","name":"Мусала","phone":"+359 88 984 8481","email":"m.yanakieva@mussalains.com","brand":"Мусала","brand:wikidata":"Q120314195"},"coordinates":[42.92966,25.87037]},"tags_mismatch":false,"dist":0},{"osm":false,"atp":{"id":"RLQUhwZHVgakgzfUbjBDuQXxqXQ=","tags":{"ref":"1651","office":"insurance","addr:street_address":"бул. Липник 123","addr:city":"Русе","addr:country":"BG","name":"Мусала","phone":"+359 89 880 2229","email":"n.devedzhieva@mussalains.com","brand":"Мусала","brand:wikidata":"Q120314195"},"coordinates":[43.853368,25.991613]},"tags_mismatch":false,"dist":0},{"osm":false,"atp":{"id":"-JSU1r2sLZZyo4NostHVV8fu6JU=","tags":{"ref":"1622","office":"insurance","addr:street_address":"ул.Трети Март 7 (комплекс Банята)","addr:city":"Лясковец","addr:country":"BG","name":"Мусала","phone":"+359 88 885 5002","email":"ts.dimova@mussalains.com","brand":"Мусала","brand:wikidata":"Q120314195"},"coordinates":[43.10997,25.7112]},"tags_mismatch":false,"dist":0},{"osm":false,"atp":{"id":"yp2zij14fugAWlrH_222_RBu8M0=","tags":{"ref":"1601","office":"insurance","addr:street_address":"ул.Г.Бенковски 5","addr:city":"Николаево","addr:country":"BG","name":"Мусала","phone":"+359 88 839 4662","email":"p.staneva@mussalains.com","brand":"Мусала","brand:wikidata":"Q120314195"},"coordinates":[42.6334,25.78592]},"tags_mismatch":false,"dist":0},{"osm":false,"atp":{"id":"sI2-4j38o2RfGQ13PQSexUfDRYs=","tags":{"ref":"1625","office":"insurance","addr:street_address":"ул. Бачо Киро 9 (до полицията)","addr:city":"Велико Търново","addr:country":"BG","name":"Мусала","phone":"+359 88 203 3322","email":"v.tarnovo@mussalains.com","brand":"Мусала","brand:wikidata":"Q120314195"},"coordinates":[43.07806,25.62963]},"tags_mismatch":false,"dist":0},{"osm":false,"atp":{"id":"dyYJDVEQyw-PZPs8_6b-4C47xqM=","tags":{"ref":"1621","office":"insurance","addr:street_address":"ул. Вихрен 1","addr:city":"Велико Търново","addr:country":"BG","name":"Мусала","phone":"+359 88 868 1519","email":"m.borisov@mussalains.com","brand":"Мусала","brand:wikidata":"Q120314195"},"coordinates":[43.08329,25.62169]},"tags_mismatch":false,"dist":0},{"osm":false,"atp":{"id":"V_ae4fQa2PDV6aH2goyzCQSTJ88=","tags":{"ref":"1566","office":"insurance","addr:street_address":"ул. Вела Благоева 15В (до Стадиона)","addr:city":"Велико Търново","addr:country":"BG","name":"Мусала","phone":"+359 87 674 5363","email":"a.simov@mussalains.com","brand":"Мусала","brand:wikidata":"Q120314195"},"coordinates":[43.07682,25.622377]},"tags_mismatch":false,"dist":0},{"osm":false,"atp":{"id":"swcn0eajUcxjwEr5hQgfvAbW33Q=","tags":{"ref":"1623","office":"insurance","addr:street_address":"ул. Патриарх Евтимий Търновски 59","addr:city":"Дебелец","addr:country":"BG","name":"Мусала","phone":"+359 88 588 6995","email":"m.nedyalkov@mussalains.com","brand":"Мусала","brand:wikidata":"Q120314195"},"coordinates":[43.04335,25.62043]},"tags_mismatch":false,"dist":0},{"osm":false,"atp":{"id":"AV5dOuYx-r-542DY7TUEjQczslM=","tags":{"ref":"1594","office":"insurance","addr:street_address":"ул.Слънце 2","addr:city":"Велико Търново","addr:country":"BG","name":"Мусала","phone":"+359 88 923 8780","email":"i.ivanov@mussalains.com","brand":"Мусала","brand:wikidata":"Q120314195"},"coordinates":[43.082617,25.610381]},"tags_mismatch":false,"dist":0},{"osm":false,"atp":{"id":"i675xVaQgdcxwRS0kKhYc-Ff5yA=","tags":{"ref":"1540","office":"insurance","addr:street_address":"ул. 3-ти март 10","addr:city":"Мъглиж","addr:country":"BG","name":"Мусала","phone":"+359 87 928 9389","email":"d.cherechev@mussalains.com","brand":"Мусала","brand:wikidata":"Q120314195"},"coordinates":[42.608441,25.545916]},"tags_mismatch":false,"dist":0},{"osm":false,"atp":{"id":"7hi2fmZN_i1tF89qou6k0Wliwjo=","tags":{"ref":"1613","office":"insurance","addr:street_address":"ул. Хан Тервел 48А","addr:city":"Стара Загора","addr:country":"BG","name":"Мусала","phone":"+359 89 612 1012","email":"m.ivanova@mussalains.com","brand":"Мусала","brand:wikidata":"Q120314195"},"coordinates":[42.43021,25.64617]},"tags_mismatch":false,"dist":0},{"osm":false,"atp":{"id":"lAATHi5tXLVCgGhCvlcXGjXcHic=","tags":{"ref":"1539","office":"insurance","addr:street_address":"обл. Стара Загора, Автогара","addr:city":"Ягода","addr:country":"BG","name":"Мусала","phone":"+359 89 744 7710","email":"m.madjarova@mussalains.com","brand":"Мусала","brand:wikidata":"Q120314195"},"coordinates":[42.542504,25.574445]},"tags_mismatch":false,"dist":0},{"osm":false,"atp":{"id":"1FfGMWz5zIJ9ndE7BXCSO0CwftU=","tags":{"ref":"1541","office":"insurance","addr:street_address":"ул. Хан Аспарух 8А, партер","addr:city":"Стара Загора","addr:country":"BG","name":"Мусала","phone":"+359 87 855 5012","email":"d.markova@mussalains.com","brand":"Мусала","brand:wikidata":"Q120314195"},"coordinates":[42.435573,25.63014]},"tags_mismatch":false,"dist":0},{"osm":false,"atp":{"id":"6CZfyvuP-i0vuc5zjcdjfRAOEbE=","tags":{"ref":"1597","office":"insurance","addr:street_address":"ул. Хр.Ботев 121","addr:city":"Стара Загора","addr:country":"BG","name":"Мусала","phone":"+359 88 635 4102","email":"k.rashkova@mussalains.com","brand":"Мусала","brand:wikidata":"Q120314195"},"coordinates":[42.42242,25.63004]},"tags_mismatch":false,"dist":0},{"osm":false,"atp":{"id":"_DJFowS_VnzTeFPTOOF9QR2w_XE=","tags":{"ref":"2384","office":"insurance","addr:street_address":"ул. Александър Стамболийски 9","addr:city":"Свищов","addr:country":"BG","name":"Мусала","phone":"+359 88 897 5354","email":"t.ismailov@mussalains.com","brand":"Мусала","brand:wikidata":"Q120314195"},"coordinates":[43.61711,25.348854]},"tags_mismatch":false,"dist":0},{"osm":false,"atp":{"id":"AnvlvCGkXngMjA0Gj8kwleWJgd4=","tags":{"ref":"1569","office":"insurance","addr:street_address":"ул. Димитър Благоев 48","addr:city":"Свиленград","addr:country":"BG","name":"Мусала","phone":"+359 89 408 3839","email":"d.georgiev@mussalains.com","brand":"Мусала","brand:wikidata":"Q120314195"},"coordinates":[41.767535,26.202413]},"tags_mismatch":false,"dist":0},{"osm":false,"atp":{"id":"yoblhVRixxkGZf0tszvM8Bd0a30=","tags":{"ref":"1997","office":"insurance","addr:street_address":"ул. Отец Паисий 33, етаж 1, офис 11","addr:city":"Казанлък","addr:country":"BG","name":"Мусала","phone":"+359 89 915 8289","email":"n.georgieva@mussalains.com","brand":"Мусала","brand:wikidata":"Q120314195"},"coordinates":[42.621016,25.397426]},"tags_mismatch":false,"dist":0},{"osm":false,"atp":{"id":"QvwC5FU9ikm4HoKWzXUpDUZwVEo=","tags":{"ref":"1589","office":"insurance","addr:street_address":"ул. Ханска 10","addr:city":"Харманли","addr:country":"BG","name":"Мусала","phone":"+359 98 894 5544","email":"s.dimov@mussalains.com","brand":"Мусала","brand:wikidata":"Q120314195"},"coordinates":[41.931445,25.902683]},"tags_mismatch":false,"dist":0},{"osm":false,"atp":{"id":"xlqHmR7iCSiYxNFpImHRQusa5h0=","tags":{"ref":"2511","office":"insurance","addr:street_address":"ул. Първа 9","addr:city":"с.Черногорово","addr:country":"BG","name":"Мусала","phone":"+359 88 874 9320","email":"iv.petrova@mussalains.com","brand":"Мусала","brand:wikidata":"Q120314195"},"coordinates":[42.026068,25.655226]},"tags_mismatch":false,"dist":0},{"osm":false,"atp":{"id":"q-TiJc_2EaAsuAEdgiDfzf3Jv1Y=","tags":{"ref":"2234","office":"insurance","addr:street_address":"ул. Димитър Благоев 17","addr:city":"Димитровград","addr:country":"BG","name":"Мусала","phone":"+359 89 677 8556","email":"m.manolova@mussalains.com","brand":"Мусала","brand:wikidata":"Q120314195"},"coordinates":[42.055198,25.59533]},"tags_mismatch":false,"dist":0},{"osm":false,"atp":{"id":"KvqC1CwvJukGtFRomNeDuYGBgI0=","tags":{"ref":"1645","office":"insurance","addr:street_address":"ул. България 37","addr:city":"Белене","addr:country":"BG","name":"Мусала","phone":"+359 88 820 8395","email":"y.minchev@mussalains.com","brand":"Мусала","brand:wikidata":"Q120314195"},"coordinates":[43.645364,25.125743]},"tags_mismatch":false,"dist":0},{"osm":false,"atp":{"id":"UE-EXR-8SbKd6rLZTKggEveZyEk=","tags":{"ref":"2149","office":"insurance","addr:street_address":"бул.Съединение 69 (срещу КАТ-Хасково)","addr:city":"Хасково","addr:country":"BG","name":"Мусала","phone":"+359 87 670 0766","email":"d.kovacheva@mussalains.com","brand":"Мусала","brand:wikidata":"Q120314195"},"coordinates":[41.931495,25.595162]},"tags_mismatch":false,"dist":0},{"osm":false,"atp":{"id":"ddEzqYEb3zpbWwTRIFRxyydBVRw=","tags":{"ref":"1591","office":"insurance","addr:street_address":"бул. Георги Димитров 20","addr:city":"Чирпан","addr:country":"BG","name":"Мусала","phone":"+359 88 561 5555","email":"d.proykova@mussalains.com","brand":"Мусала","brand:wikidata":"Q120314195"},"coordinates":[42.198413,25.329146]},"tags_mismatch":false,"dist":0},{"osm":false,"atp":{"id":"UGSkvkLUeBqPR0amH7flICMGjLs=","tags":{"ref":"1614","office":"insurance","addr:street_address":"ул. Георги Димитров 59","addr:city":"Чирпан","addr:country":"BG","name":"Мусала","phone":"+359 88 880 4199","email":"k.atanasova@mussalains.com","brand":"Мусала","brand:wikidata":"Q120314195"},"coordinates":[42.20207,25.32485]},"tags_mismatch":false,"dist":0},{"osm":false,"atp":{"id":"Wi0TXUeg5g8--qDx0eT-Ov0u294=","tags":{"ref":"2147","office":"insurance","addr:street_address":"бул.Георги С. Раковски 6 (вътрешен двор)","addr:city":"Хасково","addr:country":"BG","name":"Мусала","phone":"+359 88 457 8668","email":"i.krumov@mussalains.com","brand":"Мусала","brand:wikidata":"Q120314195"},"coordinates":[41.933733,25.555767]},"tags_mismatch":false,"dist":0},{"osm":false,"atp":{"id":"tTkuPstDIdW2Ii1m6OEHwTDI3cg=","tags":{"ref":"1615","office":"insurance","addr:street_address":"ул. Васил Левски 6","addr:city":"Карлово","addr:country":"BG","name":"Мусала","phone":"+359 89 868 1633","email":"a.staikova@mussalains.com","brand":"Мусала","brand:wikidata":"Q120314195"},"coordinates":[42.63728,24.8058]},"tags_mismatch":false,"dist":0},{"osm":false,"atp":{"id":"aRz2SE7gXvLFsSZt-s8OuZv4b_w=","tags":{"ref":"2144","office":"insurance","addr:street_address":"ул.Димитър Константинов 37","addr:city":"Плевен","addr:country":"BG","name":"Мусала","phone":"+359 87 878 2014","email":"n.kandeva@mussalains.com","brand":"Мусала","brand:wikidata":"Q120314195"},"coordinates":[43.406225,24.621315]},"tags_mismatch":false,"dist":0},{"osm":false,"atp":{"id":"G62LblwnrlhS4T_WgmTNAoC9yNw=","tags":{"ref":"1588","office":"insurance","addr:street_address":"ул. Г.Бенковски 5, бл.Саба","addr:city":"Кърджали","addr:country":"BG","name":"Мусала","phone":"+359 88 559 8460","email":"m.angelov@mussalains.com","brand":"Мусала","brand:wikidata":"Q120314195"},"coordinates":[41.642684,25.370076]},"tags_mismatch":false,"dist":0},{"osm":false,"atp":{"id":"CJISlOH7UnNQIk996KQ6UVSJ4E4=","tags":{"ref":"1547","office":"insurance","addr:street_address":"ул. Републиканска 50","addr:city":"Кърджали","addr:country":"BG","name":"Мусала","phone":"+359 89 989 1488","email":"m.halil@mussalains.com","brand":"Мусала","brand:wikidata":"Q120314195"},"coordinates":[41.64276,25.368796]},"tags_mismatch":false,"dist":0},{"osm":false,"atp":{"id":"JCAjfEQHyQ4eNaLZ37mGJYwqbeE=","tags":{"ref":"1582","office":"insurance","addr:street_address":"бул.Христо Ботев 68","addr:city":"Кърджали","addr:country":"BG","name":"Мусала","phone":"+359 89 914 9726","email":"a.rashid@mussalains.com","brand":"Мусала","brand:wikidata":"Q120314195"},"coordinates":[41.637276,25.354297]},"tags_mismatch":false,"dist":0},{"osm":false,"atp":{"id":"bGWAS9YGdrtSz0WemAPnRmb0aDI=","tags":{"ref":"1667","office":"insurance","addr:street_address":"обл. Пловдив, ул.Господин Николов 15 (Фемили маркет)","addr:city":"Катуница","addr:country":"BG","name":"Мусала","phone":"+359 87 690 0134","email":"n.karagyozov@mussalains.com","brand":"Мусала","brand:wikidata":"Q120314195"},"coordinates":[42.100008,24.870185]},"tags_mismatch":false,"dist":0},{"osm":false,"atp":{"id":"Elizzeqm8CC0847BrMcm10a1b58=","tags":{"ref":"1578","office":"insurance","addr:street_address":"ул. Момчил Войвода 1А","addr:city":"Момчилград","addr:country":"BG","name":"Мусала","phone":"+359 88 335 1246","email":"s.gelimachev@mussalains.com","brand":"Мусала","brand:wikidata":"Q120314195"},"coordinates":[41.528915,25.411325]},"tags_mismatch":false,"dist":0},{"osm":false,"atp":{"id":"sQJpDmoZRhrXthK2weXNs3zibJ8=","tags":{"ref":"1560","office":"insurance","addr:street_address":"ул. Гюмюрджинска 52 ет.2 офис 2В","addr:city":"Момчилград","addr:country":"BG","name":"Мусала","phone":"+359 88 603 0100","email":"a.halil@mussalains.com","brand":"Мусала","brand:wikidata":"Q120314195"},"coordinates":[41.528609,25.407306]},"tags_mismatch":false,"dist":0},{"osm":false,"atp":{"id":"6q2IT_c6Z6OiNR8zmvNdLlQpIf8=","tags":{"ref":"1661","office":"insurance","addr:street_address":"ул. Катунско шосе 85","addr:city":"Асеновград","addr:country":"BG","name":"Мусала","phone":"+359 88 753 3426","email":"i.dechev@mussalains.com","brand":"Мусала","brand:wikidata":"Q120314195"},"coordinates":[42.032856,24.874831]},"tags_mismatch":false,"dist":0},{"osm":false,"atp":{"id":"co4-EuuYUc3kXesCCKqdXnGuaw8=","tags":{"ref":"1660","office":"insurance","addr:street_address":"ул. Княз Борис I 8","addr:city":"Асеновград","addr:country":"BG","name":"Мусала","phone":"+359 89 545 4283","email":"a.aydan@mussalains.com","brand":"Мусала","brand:wikidata":"Q120314195"},"coordinates":[42.017098,24.883516]},"tags_mismatch":false,"dist":0},{"osm":false,"atp":{"id":"JAwBzEmrC1KRiF1cQvzFvgATvTM=","tags":{"ref":"1666","office":"insurance","addr:street_address":"ж.к. Тракия бл.173, вх.В - партер","addr:city":"Пловдив","addr:country":"BG","name":"Мусала","phone":"+359 88 652 3124","email":"a.koleva@mussalains.com","brand":"Мусала","brand:wikidata":"Q120314195"},"coordinates":[42.130979,24.783967]},"tags_mismatch":false,"dist":0},{"osm":false,"atp":{"id":"tY1YsjXuyH-TgBMGj30897Q7mj8=","tags":{"ref":"1662","office":"insurance","addr:street_address":"ул. 6-ти септември 6","addr:city":"Асеновград","addr:country":"BG","name":"Мусала","phone":"+359 89 934 3090","email":"m.ahmed@mussalains.com","brand":"Мусала","brand:wikidata":"Q120314195"},"coordinates":[42.022828,24.844603]},"tags_mismatch":false,"dist":0},{"osm":false,"atp":{"id":"EzdQbe4L0S6u6TtmxcySbiBOLAA=","tags":{"ref":"1574","office":"insurance","addr:street_address":"ул. Никола Козлев 2","addr:city":"Пловдив","addr:country":"BG","name":"Мусала","phone":"+359 89 552 4910","email":"d.semerdzhieva@mussalains.com","brand":"Мусала","brand:wikidata":"Q120314195"},"coordinates":[42.143584,24.743417]},"tags_mismatch":false,"dist":0},{"osm":false,"atp":{"id":"VCzB_4d5z8BqxU7bLRImr3sQeUU=","tags":{"ref":"1669","office":"insurance","addr:street_address":"ул. Мизия 8","addr:city":"Пловдив","addr:country":"BG","name":"Мусала","phone":"+359 89 526 1060","email":"i.yarami@mussalains.com","brand":"Мусала","brand:wikidata":"Q120314195"},"coordinates":[42.159137,24.733065]},"tags_mismatch":false,"dist":0},{"osm":false,"atp":{"id":"ZdblWhpjnRVwZSk-Z7hYAP_KuNk=","tags":{"ref":"1580","office":"insurance","addr:street_address":"пл. Кочо Честименски 10","addr:city":"Пловдив","addr:country":"BG","name":"Мусала","phone":"+359 87 785 0716","email":"v.roglekova@mussalains.com","brand":"Мусала","brand:wikidata":"Q120314195"},"coordinates":[42.148926,24.736582]},"tags_mismatch":false,"dist":0},{"osm":false,"atp":{"id":"LflER7sZ3jHVlOdCobZPC5sWc4I=","tags":{"ref":"1563","office":"insurance","addr:street_address":"ул. Братя Бъкстон 144","addr:city":"Пловдив","addr:country":"BG","name":"Мусала","phone":"+359 89 989 4546","email":"v.kramyan@mussalains.com","brand":"Мусала","brand:wikidata":"Q120314195"},"coordinates":[42.116202,24.749794]},"tags_mismatch":false,"dist":0},{"osm":false,"atp":{"id":"vA4kfrsisqzFTLjX5C8nhpo9obA=","tags":{"ref":"1663","office":"insurance","addr:street_address":"ул. Славянка 3","addr:city":"Куклен","addr:country":"BG","name":"Мусала","phone":"+359 89 955 8947","email":"v.apostolova@mussalains.com","brand":"Мусала","brand:wikidata":"Q120314195"},"coordinates":[42.034877,24.784642]},"tags_mismatch":false,"dist":0},{"osm":false,"atp":{"id":"IrxMhXQwADXU_DxAWIoJ_B0ZmRM=","tags":{"ref":"1665","office":"insurance","addr:street_address":"ул. Ела 3","addr:city":"Пловдив","addr:country":"BG","name":"Мусала","phone":"+359 88 730 6876","email":"r.karamanova@mussalains.com","brand":"Мусала","brand:wikidata":"Q120314195"},"coordinates":[42.100121,24.702986]},"tags_mismatch":false,"dist":0},{"osm":false,"atp":{"id":"BVBvGAz437-WwDmSh7j-Ik2Ny9I=","tags":{"ref":"1587","office":"insurance","addr:street_address":"обл. Кърджали, ул. Митко Палаузов 27","addr:city":"Тихомир","addr:country":"BG","name":"Мусала","phone":"+359 88 861 4036","email":"v.uzunov@mussalains.com","brand":"Мусала","brand:wikidata":"Q120314195"},"coordinates":[41.31075,25.497319]},"tags_mismatch":false,"dist":0},{"osm":false,"atp":{"id":"q3jEKqoix5amhoHcu3tlZWqYVl8=","tags":{"ref":"2502","office":"insurance","addr:street_address":"ул. Двадесет и трета 1","addr:city":"Говедаре","addr:country":"BG","name":"Мусала","phone":"+359 87 881 8254","email":"i.spasova@mussalains.com","brand":"Мусала","brand:wikidata":"Q120314195"},"coordinates":[42.151919,24.495864]},"tags_mismatch":false,"dist":0},{"osm":false,"atp":{"id":"3q81RFv829Hh5zIWeTPukKGWMFA=","tags":{"ref":"2509","office":"insurance","addr:street_address":"бул. България 95","addr:city":"Стрелча","addr:country":"BG","name":"Мусала","phone":"+359 88 643 0544","email":"k.stoyanov@mussalains.com","brand":"Мусала","brand:wikidata":"Q120314195"},"coordinates":[42.498807,24.319339]},"tags_mismatch":false,"dist":0},{"osm":false,"atp":{"id":"3cpC_mITVGVmf4zVCN3iCWlgVj4=","tags":{"ref":"2515","office":"insurance","addr:street_address":"ул. Седма 77","addr:city":"с.Мало Конаре","addr:country":"BG","name":"Мусала","phone":"+359 87 882 8036","email":"d.butrakova@mussalains.com","brand":"Мусала","brand:wikidata":"Q120314195"},"coordinates":[42.19847,24.429677]},"tags_mismatch":false,"dist":0},{"osm":false,"atp":{"id":"xiivF0aLD09cTGkoV07Z-wljy-4=","tags":{"ref":"1664","office":"insurance","addr:street_address":"обл. Пловдив, ул. Никола Петков 35Б","addr:city":"Устина","addr:country":"BG","name":"Мусала","phone":"+359 89 672 7285","email":"f.chaushev@mussalains.com","brand":"Мусала","brand:wikidata":"Q120314195"},"coordinates":[42.041266,24.521493]},"tags_mismatch":false,"dist":0},{"osm":false,"atp":{"id":"jEqerUSPlvFPDiDUKVyaxz1bAfk=","tags":{"ref":"1605","office":"insurance","addr:street_address":"ул.Шипка 5","addr:city":"Червен бряг","addr:country":"BG","name":"Мусала","phone":"+359 89 553 8628","email":"g.georgiev@mussalains.com","brand":"Мусала","brand:wikidata":"Q120314195"},"coordinates":[43.280846,24.079479]},"tags_mismatch":false,"dist":0},{"osm":false,"atp":{"id":"5GkzlbF4R2ahedZ7KY0F-XcXkFA=","tags":{"ref":"1980","office":"insurance","addr:street_address":"ул. Марин Боев 62","addr:city":"Кнежа","addr:country":"BG","name":"Мусала","phone":"+359 87 712 1260","brand":"Мусала","brand:wikidata":"Q120314195"},"coordinates":[43.495077,24.079864]},"tags_mismatch":false,"dist":0},{"osm":false,"atp":{"id":"jIqyDIsdBV4XdIPU0755iJUgfMA=","tags":{"ref":"2241","office":"insurance","addr:street_address":"ул. Пловдивска 84","addr:city":"Пазарджик","addr:country":"BG","name":"Мусала","phone":"+359 89 677 7701","email":"p.tsvetkova@mussalains.com","brand":"Мусала","brand:wikidata":"Q120314195"},"coordinates":[42.18636,24.35112]},"tags_mismatch":false,"dist":0},{"osm":false,"atp":{"id":"hso3Y6MR45rcvOPTCXUWr86JqYw=","tags":{"ref":"2528","office":"insurance","addr:street_address":"ул. Пловдивска 16","addr:city":"Пазарджик","addr:country":"BG","name":"Мусала","phone":"+359 89 677 7701","email":"p.tsvetkova@mussalains.com","brand":"Мусала","brand:wikidata":"Q120314195"},"coordinates":[42.189304,24.339046]},"tags_mismatch":false,"dist":0},{"osm":false,"atp":{"id":"s9WDBWMjwb20DNTAaX6SRmQ5HiI=","tags":{"ref":"2507","office":"insurance","addr:street_address":"ул. Незабравка 22","addr:city":"Панагюрище","addr:country":"BG","name":"Мусала","phone":"+359 89 335 1991","email":"n.gevechanova@mussalains.com","brand":"Мусала","brand:wikidata":"Q120314195"},"coordinates":[42.49663,24.193054]},"tags_mismatch":false,"dist":0},{"osm":false,"atp":{"id":"8vS8P-WbXdgUZSZces8zHPqHV0Y=","tags":{"ref":"2517","office":"insurance","addr:street_address":"ул. Панагюрско шосе 31","addr:city":"Пазарджик","addr:country":"BG","name":"Мусала","phone":"+359 88 270 6056","email":"p.gatev@mussalains.com","brand":"Мусала","brand:wikidata":"Q120314195"},"coordinates":[42.19269,24.33403]},"tags_mismatch":false,"dist":0},{"osm":false,"atp":{"id":"ixFWAIz1UwJJ2q2psvy2vOZ-rh4=","tags":{"ref":"2494","office":"insurance","addr:street_address":"ул. Константин величков 33 А","addr:city":"Пазарджик","addr:country":"BG","name":"Мусала","phone":"+359 88 849 4603","email":"vl.petrova@mussalains.com","brand":"Мусала","brand:wikidata":"Q120314195"},"coordinates":[42.19103,24.329294]},"tags_mismatch":false,"dist":0},{"osm":false,"atp":{"id":"EfPofBEkC8soRRUV_wji-PkvCTA=","tags":{"ref":"2505","office":"insurance","addr:street_address":"ул. Втора 5","addr:city":"Звъничево","addr:country":"BG","name":"Мусала","phone":"+359 89 931 5237","email":"i.velkova@mussalains.com","brand":"Мусала","brand:wikidata":"Q120314195"},"coordinates":[42.192269,24.250347]},"tags_mismatch":false,"dist":0},{"osm":false,"atp":{"id":"iHg08Ix-2QRY8BK4m5DVuozCab0=","tags":{"ref":"1670","office":"insurance","addr:street_address":"ул. Христо Смирненски 2","addr:city":"Смолян","addr:country":"BG","name":"Мусала","phone":"+359 87 711 9799","email":"m.kelevska@mussalains.com","brand":"Мусала","brand:wikidata":"Q120314195"},"coordinates":[41.58024,24.692479]},"tags_mismatch":false,"dist":0},{"osm":false,"atp":{"id":"C1Br6IKbbOxzfsMMy-mLKSQDhrc=","tags":{"ref":"1910","office":"insurance","addr:street_address":"бул.Руски N88","addr:city":"Етрополе","addr:country":"BG","name":"Мусала","email":"m.tsvetkova@mussalains.com","brand":"Мусала","brand:wikidata":"Q120314195"},"coordinates":[42.833872,23.997431]},"tags_mismatch":false,"dist":0},{"osm":false,"atp":{"id":"vOJZchXlbucqQ7L0JbuqYBo7-iA=","tags":{"ref":"2498","office":"insurance","addr:street_address":"бул. България 177","addr:city":"Септември","addr:country":"BG","name":"Мусала","phone":"+359 89 672 0451","email":"l.vokudinova@mussalains.com","brand":"Мусала","brand:wikidata":"Q120314195"},"coordinates":[42.22085,24.11922]},"tags_mismatch":false,"dist":0},{"osm":false,"atp":{"id":"enWGjHGGUyfEfcIKNm7TKSqsgsc=","tags":{"ref":"2513","office":"insurance","addr:street_address":"ул. Девета 9А","addr:city":"с.Семчиново","addr:country":"BG","name":"Мусала","phone":"+359 87 628 5895","email":"h.pashova@mussalains.com","brand":"Мусала","brand:wikidata":"Q120314195"},"coordinates":[42.177806,24.096757]},"tags_mismatch":false,"dist":0},{"osm":false,"atp":{"id":"7SvvKCBHxQVW_0aPUVauRsvv8J8=","tags":{"ref":"2526","office":"insurance","addr:street_address":"ул. Орхание 5","addr:city":"Ботевград","addr:country":"BG","name":"Мусала","phone":"+359 88 949 4038","email":"ka.todorov@mussalains.com","brand":"Мусала","brand:wikidata":"Q120314195"},"coordinates":[42.899779,23.796984]},"tags_mismatch":false,"dist":0},{"osm":false,"atp":{"id":"2BK4jzhruhhmyfIYdwQ558w3QRM=","tags":{"ref":"2500","office":"insurance","addr:street_address":"ул. Георги Христов 80Б","addr:city":"Велинград","addr:country":"BG","name":"Мусала","phone":"+359 89 978 8006","email":"sv.georgieva@mussalains.com","brand":"Мусала","brand:wikidata":"Q120314195"},"coordinates":[42.025706,23.992354]},"tags_mismatch":false,"dist":0},{"osm":false,"atp":{"id":"94Uk-6GOhZTnYwHciAT0S0XZJ5k=","tags":{"ref":"2137","office":"insurance","addr:street_address":"ж.к Младост ул.Георги Апостолов между бл.1 и бл.2","addr:city":"Враца","addr:country":"BG","name":"Мусала","phone":"+359 88 506 6234","email":"h.antonova@mussalains.com","brand":"Мусала","brand:wikidata":"Q120314195"},"coordinates":[43.196548,23.569547]},"tags_mismatch":false,"dist":0},{"osm":false,"atp":{"id":"n5HDwwRS9uFPyTjrkk9ZK0P0oto=","tags":{"ref":"2129","office":"insurance","addr:street_address":"ул.Мито Орозов 34","addr:city":"Враца","addr:country":"BG","name":"Мусала","phone":"+359 88 867 3535","email":"v.petrov@mussalains.com","brand":"Мусала","brand:wikidata":"Q120314195"},"coordinates":[43.221134,23.558853]},"tags_mismatch":false,"dist":0},{"osm":false,"atp":{"id":"M0TxhQZ2ojgEmvGmmt53DlnR6ls=","tags":{"ref":"2139","office":"insurance","addr:street_address":"ул.Складова 4","addr:city":"Враца","addr:country":"BG","name":"Мусала","phone":"+359 88 997 4402","email":"v.angelova@mussalains.com","brand":"Мусала","brand:wikidata":"Q120314195"},"coordinates":[43.220271,23.555337]},"tags_mismatch":false,"dist":0},{"osm":false,"atp":{"id":"fMhDpeyFwgDiV8R7eEcObPwjSzw=","tags":{"ref":"2531","office":"insurance","addr:street_address":"ул. Търговска 192","addr:city":"Долна баня","addr:country":"BG","name":"Мусала","phone":"+359 89 981 9914","email":"m.surudzhiyska@mussalains.com","brand":"Мусала","brand:wikidata":"Q120314195"},"coordinates":[42.311427,23.759726]},"tags_mismatch":false,"dist":0},{"osm":false,"atp":{"id":"3xuRxVnl9H9wwiKlWEkttniu5xs=","tags":{"ref":"2127","office":"insurance","addr:street_address":"ул. Петропавловска 44","addr:city":"Враца","addr:country":"BG","name":"Мусала","phone":"+359 89 872 7311","email":"n.hristov@mussalains.com","brand":"Мусала","brand:wikidata":"Q120314195"},"coordinates":[43.204974,23.546781]},"tags_mismatch":false,"dist":0},{"osm":false,"atp":{"id":"K0bQ7nOiDQuAIjShFdHb18PPX8c=","tags":{"ref":"1575","office":"insurance","addr:street_address":"ул. България 2","addr:city":"Вълчедръм","addr:country":"BG","name":"Мусала","phone":"+359 88 902 2976","email":"d.fidosiev@mussalains.com","brand":"Мусала","brand:wikidata":"Q120314195"},"coordinates":[43.695029,23.442547]},"tags_mismatch":false,"dist":0},{"osm":false,"atp":{"id":"PZQTzW9-ERlXKJKc8szjCam8rX4=","tags":{"ref":"2248","office":"insurance","addr:street_address":"ул. Търговска 20 (партер)","addr:city":"Самоков","addr:country":"BG","name":"Мусала","phone":"+359 89 863 5615","email":"e.nenkova@mussalains.com","brand":"Мусала","brand:wikidata":"Q120314195"},"coordinates":[42.33893,23.55907]},"tags_mismatch":false,"dist":0},{"osm":false,"atp":{"id":"qzAZKBJO9XEYPQr9Ry46PAcw-5A=","tags":{"ref":"1593","office":"insurance","addr:street_address":"ул.Житна Чаршия 29","addr:city":"Самоков","addr:country":"BG","name":"Мусала","phone":"+359 89 936 0069","email":"s.spasova@mussalains.com","brand":"Мусала","brand:wikidata":"Q120314195"},"coordinates":[42.33957,23.555795]},"tags_mismatch":false,"dist":0},{"osm":false,"atp":{"id":"Ay2RoHCgba4IkDxlLPGkRzomAEk=","tags":{"ref":"1567","office":"insurance","addr:street_address":"обл. Монтана, ул. Осма № 94","addr:city":"Ковачица","addr:country":"BG","name":"Мусала","phone":"+359 87 886 9598","email":"ni.nikolov@mussalains.com","brand":"Мусала","brand:wikidata":"Q120314195"},"coordinates":[43.80395,23.369796]},"tags_mismatch":false,"dist":0},{"osm":false,"atp":{"id":"-fSsyPk9oK7Akp7czE1xpRBcZ58=","tags":{"ref":"1659","office":"insurance","addr:street_address":"ул. Христо Ботев 62 - 64","addr:city":"Монтана","addr:country":"BG","name":"Мусала","phone":"+359 87 667 6266","email":"t.budyonov@mussalains.com","brand":"Мусала","brand:wikidata":"Q120314195"},"coordinates":[43.41048,23.229867]},"tags_mismatch":false,"dist":0},{"osm":false,"atp":{"id":"YKyAv0MEXWCAF0wB_MWy5agafcU=","tags":{"ref":"2471","office":"insurance","addr:street_address":"ул. Св. Климент Охридски 15","addr:city":"Монтана","addr:country":"BG","name":"Мусала","phone":"+359 98 880 5484","email":"v.velkova@mussalains.com","brand":"Мусала","brand:wikidata":"Q120314195"},"coordinates":[43.410601,23.224463]},"tags_mismatch":false,"dist":0},{"osm":false,"atp":{"id":"0Llu7-YDA1CD8w8E9OQd_sKX23A=","tags":{"ref":"2187","office":"insurance","addr:street_address":"ул. 4-та N1","addr:city":"село Дебрен","addr:country":"BG","name":"Мусала","phone":"+358 898 619 024","email":"t.chavdarov@mussalains.com","brand":"Мусала","brand:wikidata":"Q120314195"},"coordinates":[41.58281,23.822166]},"tags_mismatch":false,"dist":0},{"osm":false,"atp":{"id":"4XqM6F9_GQiUx0tbSOW-utLj3lQ=","tags":{"ref":"1658","office":"insurance","addr:street_address":"ул. Хан Аспарух 12А","addr:city":"Лом","addr:country":"BG","name":"Мусала","phone":"+359 87 799 9813","email":"d.georgieva@mussalains.com","brand":"Мусала","brand:wikidata":"Q120314195"},"coordinates":[43.821038,23.239415]},"tags_mismatch":false,"dist":0},{"osm":false,"atp":{"id":"Z2rL-624FM1pzJa1tfumey3bvMw=","tags":{"ref":"1641","office":"insurance","addr:street_address":"ул. Пристанищна 13, офис 3","addr:city":"Лом","addr:country":"BG","name":"Мусала","phone":"+359 87 722 2213","email":"d.georgieva@mussalains.com","brand":"Мусала","brand:wikidata":"Q120314195"},"coordinates":[43.831442,23.235828]},"tags_mismatch":false,"dist":0},{"osm":false,"atp":{"id":"LOkEqiqoLB539-gg0U8UyWj5EuY=","tags":{"ref":"2522","office":"insurance","addr:street_address":"ул. Трети март № 4, автокъща DNG Суходол","addr:city":"София","addr:country":"BG","name":"Мусала","phone":"+359 87 660 0038","email":"r.ivanova@mussalains.com","brand":"Мусала","brand:wikidata":"Q120314195"},"coordinates":[42.69533,23.22966]},"tags_mismatch":false,"dist":0}]}