{"metadata":{"type":"brand","wikidata":"Q7692633","name":"Техномаркет","compare_keys":["opening_hours","website"]},"data":[{"osm":{"type":"node","id":470821071,"tags":{"brand":"Техномаркет","brand:wikidata":"Q7692633","name:ro":"Technomarket","opening_hours":"Mo-Sa 10:00-19:00; Su 10:00-18:00","shop":"electronics","website":"https://www.technomarket.bg/magazini/sevlievo/tehnomarket-sevlievo"},"wikidata":"Q7692633","coordinates":[43.0296833,25.0924747]},"atp":{"id":"212RcFW_xc_p81GIuMJsyNjlRcc=","tags":{"ref":"0000003","shop":"electronics","addr:street_address":"Търговски център Надежда, жк. Надежда, бул. Ломско шосе 2 А","addr:country":"BG","name":"ТЕХНОМАРКЕТ СОФИЯ НАДЕЖДА","phone":"+359 2 907 8870","website":"https://www.technomarket.bg/magazini/sofiq/tehnomarket-sofiq-nadezhda","email":"tmnadezhda@technomarket.bg","opening_hours":"Mo-Sa 10:00-20:00; Su 10:00-19:00","brand":"Техномаркет","brand:wikidata":"Q7692633"},"coordinates":[42.7239023,23.3055143]},"tags_mismatch":true},{"osm":{"type":"node","id":2916075350,"tags":{"addr:city":"София","addr:housenumber":"92","addr:street":"бул. Цариградско шосе","brand":"Техномаркет","brand:wikidata":"Q7692633","email":"tmsofia3@technomarket.bg","opening_hours":"Mo-Su 09:30-20:30","phone":"+359 2 970 4888","shop":"electronics","website":"https://www.technomarket.bg/magazini/sofiq/tehnomarket-sofiq-carigradsko-shose"},"wikidata":"Q7692633","coordinates":[42.645002,23.3942843]},"atp":{"id":"gVDrtXYKSFXHhkyYu1MKEo_6ouA=","tags":{"ref":"0000004","shop":"electronics","addr:street_address":"Бул.Европа 171 Комплекс Мосю Бриколаж Люлин","addr:country":"BG","name":"ТЕХНОМАРКЕТ СОФИЯ ЛЮЛИН","phone":"+359 2 925 0556","website":"https://www.technomarket.bg/magazini/sofiq/tehnomarket-sofiq-lyulin","email":"tmlyulin@technomarket.bg","opening_hours":"Mo-Sa 10:00-20:00; Su 10:00-19:00","brand":"Техномаркет","brand:wikidata":"Q7692633"},"coordinates":[42.7336185,23.2481717]},"tags_mismatch":true},{"osm":{"type":"node","id":3412751251,"tags":{"branch":"3","brand":"Техномаркет","brand:wikidata":"Q7692633","opening_hours":"Mo-Sa 10:00-20:00; Su 10:00-18:00","shop":"electronics","website":"https://www.technomarket.bg/magazini/burgas/tehnomarket-burgas-3"},"wikidata":"Q7692633","coordinates":[42.4721087,27.4325014]},"atp":{"id":"i8UyHyQNcj7C8wTcaPyIFllcSos=","tags":{"ref":"0000010","shop":"electronics","addr:street_address":"ул.Христо Касабвелев №8","addr:country":"BG","name":"ТЕХНОМАРКЕТ ПАЗАРДЖИК","phone":"+359 34 405 840","website":"https://www.technomarket.bg/magazini/pazardzhik/tehnomarket-pazardzhik","email":"tmpazardjik@technomarket.bg","opening_hours":"Mo-Sa 09:30-19:30; Su 10:00-19:00","brand":"Техномаркет","brand:wikidata":"Q7692633"},"coordinates":[42.18329,24.316745]},"tags_mismatch":true},{"osm":{"type":"node","id":3918857567,"tags":{"brand":"Техномаркет","brand:wikidata":"Q7692633","opening_hours":"Mo-Sa 10:00-20:00; Su 10:00-19:30","shop":"electronics","website":"https://www.technomarket.bg/magazini/veliko-tyrnovo/tehnomarket-veliko-tyrnovo"},"wikidata":"Q7692633","coordinates":[43.0730125,25.6148742]},"atp":{"id":"N2EjHvAOCC1MJNut0fsjiRxpr1k=","tags":{"ref":"0000024","shop":"electronics","addr:street_address":"бул. „Липник“ 121Д, Мол Русе","addr:country":"BG","name":"ТЕХНОМАРКЕТ РУСЕ","phone":"+359 82 280 046","website":"https://www.technomarket.bg/magazini/ruse/tehnomarket-ruse","email":"tmruse@technomarket.bg","opening_hours":"Mo-Sa 10:00-20:00; Su 10:00-19:30","brand":"Техномаркет","brand:wikidata":"Q7692633"},"coordinates":[43.85313,25.99027]},"tags_mismatch":true},{"osm":{"type":"node","id":4224262278,"tags":{"brand":"Техномаркет","brand:wikidata":"Q7692633","opening_hours":"Mo-Sa 10:00-19:00; Su 10:00-17:00","shop":"electronics","website":"https://www.technomarket.bg/magazini/asenovgrad/tehnomarket-asenovgrad"},"wikidata":"Q7692633","coordinates":[42.0189224,24.8635396]},"atp":{"id":"66kkU4Vl1sLxITTEIBSfwV-jrJ4=","tags":{"ref":"0000037","shop":"electronics","addr:street_address":"Източна промишлена зона, преди завод Химко, Партерен етаж на магазин „Идея“, 3000 Враца","addr:country":"BG","name":"ТЕХНОМАРКЕТ ВРАЦА","phone":"092;66 46 40","website":"https://www.technomarket.bg/magazini/vraca/tehnomarket-vraca","email":"tmvratza@technomarket.bg","opening_hours":"Mo-Fr 09:30-19:00; Sa-Su 10:00-18:00","brand":"Техномаркет","brand:wikidata":"Q7692633"},"coordinates":[43.1851367,23.5862368]},"tags_mismatch":true},{"osm":{"type":"node","id":5099016710,"tags":{"brand":"Техномаркет","brand:wikidata":"Q7692633","opening_hours":"Mo-Sa 09:00-19:00; Su 10:00-17:00","shop":"electronics","website":"https://www.technomarket.bg/magazini/kazanlyk/tehnomarket-kazanlyk"},"wikidata":"Q7692633","coordinates":[42.616733,25.3683734]},"atp":{"id":"7BVp6L5yqT1JA8RjyQAI3GoLmIs=","tags":{"ref":"0000038","shop":"electronics","addr:street_address":"бул. Европа 6","addr:country":"BG","name":"ТЕХНОМАРКЕТ ПЛЕВЕН","phone":"+359 64 892 360","website":"https://www.technomarket.bg/magazini/pleven/tehnomarket-pleven","email":"tmpleven@technomarket.bg","opening_hours":"Mo-Fr 10:00-20:00; Sa-Su 10:00-19:00","brand":"Техномаркет","brand:wikidata":"Q7692633"},"coordinates":[43.407877,24.636347]},"tags_mismatch":true},{"osm":{"type":"node","id":5250453974,"tags":{"addr:city":"Бургас","addr:housenumber":"29","addr:postcode":"8008","addr:street":"Транспортна","brand":"Техномаркет","brand:wikidata":"Q7692633","email":"tmburgas1@technomarket.bg","opening_hours":"Mo-Sa 10:00-20:00; Su 10:00-19:30","phone":"+359 56 860 700","shop":"electronics","website":"https://www.technomarket.bg/magazini/burgas/tehnomarket-burgas","wheelchair":"limited"},"wikidata":"Q7692633","coordinates":[42.5304815,27.4600866]},"atp":{"id":"ctf0PiPJAb9ceKwKXc3msUGhPiI=","tags":{"ref":"0000042","shop":"electronics","addr:street_address":"ул. Търговска 45","addr:country":"BG","name":"ТЕХНОМАРКЕТ ЛОВЕЧ","phone":"068/689810, 0896691525","website":"https://www.technomarket.bg/magazini/lovech/tehnomarket-lovech","email":"tmlovech@technomarket.bg","opening_hours":"Mo-Su 09:30-19:00","brand":"Техномаркет","brand:wikidata":"Q7692633"},"coordinates":[43.135582,24.716942]},"tags_mismatch":true},{"osm":{"type":"node","id":5613450974,"tags":{"addr:city":"София","addr:housenumber":"2А","addr:street":"бул. Ломско шосе","branch":"София Надежда","brand":"Техномаркет","brand:wikidata":"Q7692633","contact:email":"tmnadezhda@technomarket.bg","contact:phone":"+359 2 907 8870","level":"1","opening_hours":"Mo-Sa 10:00-20:00; Su 10:00-19:00","shop":"electronics","website":"https://www.technomarket.bg/magazini/sofiq/tehnomarket-sofiq-nadezhda"},"wikidata":"Q7692633","coordinates":[42.72413,23.3062701]},"atp":{"id":"IHYSshWlZ0Qnua2BKLpRPBwXQyw=","tags":{"ref":"0000045","shop":"electronics","addr:street_address":"бул.Беломорски № 68","addr:country":"BG","name":"ТЕХНОМАРКЕТ КЪРДЖАЛИ","phone":"+359 36 121 160","website":"https://www.technomarket.bg/magazini/kyrdzhali/tehnomarket-kyrdzhali","email":"tmkardjali@technomarket.bg","opening_hours":"Mo-Sa 09:00-19:00; Su 10:00-19:00","brand":"Техномаркет","brand:wikidata":"Q7692633"},"coordinates":[41.63278,25.378288]},"tags_mismatch":true},{"osm":{"type":"node","id":6665451465,"tags":{"addr:city":"София","addr:housenumber":"101","addr:street":"бул. Александър Стамболийски","branch":"Mall of Sofia","brand":"Техномаркет","brand:wikidata":"Q7692633","email":"tmmallofsofia@technomarket.bg","level":"-2","opening_hours":"Mo-Su 10:00-21:00","phone":"+359 2 920 9580","shop":"electronics","website":"https://www.technomarket.bg/magazini/sofiq/tehnomarket-sofiq-mall-of-sofia","wheelchair":"yes"},"wikidata":"Q7692633","coordinates":[42.6982474,23.308165]},"atp":false,"tags_mismatch":false},{"osm":{"type":"node","id":7762313434,"tags":{"brand":"Техномаркет","brand:wikidata":"Q7692633","shop":"electronics"},"wikidata":"Q7692633","coordinates":[42.1450735,24.7800612]},"atp":false,"tags_mismatch":false},{"osm":{"type":"node","id":7832351131,"tags":{"addr:city":"София","addr:housenumber":"171","addr:street":"бул. Европа","branch":"София Люлин","brand":"Техномаркет","brand:wikidata":"Q7692633","opening_hours":"Mo-Sa 10:00-20:00; Su 10:00-19:00","phone":"+359 2 925 0556","shop":"electronics","website":"https://www.technomarket.bg/magazini/sofiq/tehnomarket-sofiq-lyulin"},"wikidata":"Q7692633","coordinates":[42.7336334,23.247829]},"atp":false,"tags_mismatch":false},{"osm":{"type":"node","id":7832454416,"tags":{"addr:city":"София","addr:housenumber":"216","addr:street":"Околовръстен път","brand":"Техномаркет","brand:wikidata":"Q7692633","check_date":"2022-10-31","email":"tmringmall@technomarket.bg","opening_hours":"Mo-Su 10:00-22:00","phone":"+359 2 902 4900","shop":"electronics","website":"https://www.technomarket.bg/magazini/sofiq/tehnomarket-ring-mol"},"wikidata":"Q7692633","coordinates":[42.624532,23.3533228]},"atp":false,"tags_mismatch":false},{"osm":{"type":"node","id":7924074847,"tags":{"brand":"Техномаркет","brand:wikidata":"Q7692633","opening_hours":"Mo-Su 10:00-19:00","shop":"electronics","website":"https://www.technomarket.bg/magazini/gabrovo/tehnomarket-gabrovo"},"wikidata":"Q7692633","coordinates":[42.8672474,25.3170145]},"atp":false,"tags_mismatch":false},{"osm":{"type":"node","id":8500719679,"tags":{"brand":"Техномаркет","brand:wikidata":"Q7692633","opening_hours":"Mo-Su 10:00-20:00","shop":"electronics","website":"https://www.technomarket.bg/magazini/qmbol/tehnomarket-qmbol"},"wikidata":"Q7692633","coordinates":[42.4776876,26.5135988]},"atp":false,"tags_mismatch":false},{"osm":{"type":"node","id":9729652505,"tags":{"brand":"Техномаркет","brand:wikidata":"Q7692633","opening_hours":"Mo-Sa 09:00-19:00; Su 10:00-17:00","shop":"electronics","website":"https://www.technomarket.bg/magazini/goce-delchev/tehnomarket-goce-delchev"},"wikidata":"Q7692633","coordinates":[41.5755667,23.7426715]},"atp":false,"tags_mismatch":false},{"osm":{"type":"node","id":9792476419,"tags":{"brand":"Техномаркет","brand:wikidata":"Q7692633","opening_hours":"Mo-Sa 09:00-19:00; Su 10:00-17:00","shop":"electronics","website":"https://www.technomarket.bg/magazini/pyrvomaj/tehnomarket-pyrvomaj"},"wikidata":"Q7692633","coordinates":[42.0902429,25.2113367]},"atp":false,"tags_mismatch":false},{"osm":{"type":"node","id":10080107738,"tags":{"brand":"Техномаркет","brand:wikidata":"Q7692633","opening_hours":"Mo-Sa 10:00-20:00; Su 10:00-19:00","shop":"electronics","website":"https://www.technomarket.bg/magazini/pernik/tehnomarket-pernik"},"wikidata":"Q7692633","coordinates":[42.6062042,23.0557043]},"atp":false,"tags_mismatch":false},{"osm":{"type":"node","id":10180061017,"tags":{"brand":"Техномаркет","brand:wikidata":"Q7692633","email":"tmdobrich@technomarket.bg","opening_hours":"Mo-Su 10:00-20:00","shop":"electronics","website":"https://www.technomarket.bg/magazini/dobrich/tehnomarket-dobrich"},"wikidata":"Q7692633","coordinates":[43.5654917,27.8393902]},"atp":false,"tags_mismatch":false},{"osm":{"type":"node","id":10309151267,"tags":{"brand":"Техномаркет","brand:wikidata":"Q7692633","opening_hours":"Mo-Sa 10:00-20:00; Su 10:00-19:30","shop":"electronics","website":"https://www.technomarket.bg/magazini/plovdiv/tehnomarket-plovdiv"},"wikidata":"Q7692633","coordinates":[42.1556452,24.7070584]},"atp":false,"tags_mismatch":false},{"osm":{"type":"node","id":11206982242,"tags":{"brand":"Техномаркет","brand:wikidata":"Q7692633","fixme":"add building","opening_hours":"Mo-Sa 10:00-19:00; Su 10:00-17:00","shop":"electronics","website":"https://www.technomarket.bg/magazini/troqn/tehnomarket-troqn"},"wikidata":"Q7692633","coordinates":[42.8915685,24.7166107]},"atp":false,"tags_mismatch":false},{"osm":{"type":"node","id":11254567599,"tags":{"brand":"Техномаркет","brand:wikidata":"Q7692633","opening_hours":"Mo-Sa 10:00-19:00; Su 10:00-17:00","shop":"electronics","website":"https://www.technomarket.bg/magazini/samokov/tehnomarket-samokov"},"wikidata":"Q7692633","coordinates":[42.3449508,23.5519998]},"atp":false,"tags_mismatch":false},{"osm":{"type":"node","id":11254584997,"tags":{"brand":"Техномаркет","brand:wikidata":"Q7692633","opening_hours":"Mo-Fr 09:30-19:00; Sa-Su 10:00-18:00","shop":"electronics","website":"https://www.technomarket.bg/magazini/vraca/tehnomarket-vraca"},"wikidata":"Q7692633","coordinates":[43.184877,23.586835]},"atp":false,"tags_mismatch":false},{"osm":{"type":"node","id":11254816944,"tags":{"brand":"Техномаркет","brand:wikidata":"Q7692633","opening_hours":"Mo-Sa 10:00-20:00; Su 10:00-18:00","shop":"electronics","website":"https://www.technomarket.bg/magazini/sliven/tehnomarket-sliven"},"wikidata":"Q7692633","coordinates":[42.6823096,26.339347]},"atp":false,"tags_mismatch":false},{"osm":{"type":"node","id":11276749897,"tags":{"brand":"Техномаркет","brand:wikidata":"Q7692633","contact:email":"tmsvilengrad@technomarket.bg","contact:phone":"+359 37 963 444","opening_hours":"Mo-Sa 10:00-19:00; Su 10:00-17:00","shop":"electronics","website":"https://www.technomarket.bg/magazini/svilengrad/tehnomarket-svilengrad","wheelchair":"yes"},"wikidata":"Q7692633","coordinates":[41.7709316,26.1992564]},"atp":false,"tags_mismatch":false},{"osm":{"type":"node","id":11324280410,"tags":{"brand":"Техномаркет","brand:wikidata":"Q7692633","check_date":"2024-03-13","internet_access":"no","level":"1","opening_hours":"Mo-Su 10:00-20:00","payment:cash":"yes","payment:credit_cards":"yes","payment:debit_cards":"yes","shop":"electronics","website":"https://www.technomarket.bg/magazini/sofiq/tehnomarket-sofiq-knqzhevo","wheelchair":"yes"},"wikidata":"Q7692633","coordinates":[42.6600944,23.2446645]},"atp":false,"tags_mismatch":false},{"osm":{"type":"node","id":11326080119,"tags":{"brand":"Техномаркет","brand:wikidata":"Q7692633","shop":"electronics"},"wikidata":"Q7692633","coordinates":[42.4196577,25.6083461]},"atp":false,"tags_mismatch":false},{"osm":{"type":"node","id":11463250787,"tags":{"brand":"Техномаркет","brand:wikidata":"Q7692633","shop":"electronics"},"wikidata":"Q7692633","coordinates":[43.2794076,26.9272302]},"atp":false,"tags_mismatch":false},{"osm":{"type":"node","id":11509482767,"tags":{"addr:city":"Дупница","addr:postcode":"2600","brand":"Техномаркет","brand:wikidata":"Q7692633","opening_hours":"Mo-Sa 09:00-19:00; Su 10:00-17:00","shop":"electronics","website":"https://www.technomarket.bg/magazini/dupnica/tehnomarket-dupnica"},"wikidata":"Q7692633","coordinates":[42.2672357,23.1139642]},"atp":false,"tags_mismatch":false},{"osm":{"type":"node","id":11509493365,"tags":{"brand":"Техномаркет","brand:wikidata":"Q7692633","shop":"electronics"},"wikidata":"Q7692633","coordinates":[42.7036967,24.1626498]},"atp":false,"tags_mismatch":false},{"osm":{"type":"node","id":11685130818,"tags":{"brand":"Техномаркет","brand:wikidata":"Q7692633","shop":"electronics"},"wikidata":"Q7692633","coordinates":[41.572397,24.7160632]},"atp":false,"tags_mismatch":false},{"osm":{"type":"node","id":11723449704,"tags":{"brand":"Техномаркет","brand:wikidata":"Q7692633","shop":"electronics"},"wikidata":"Q7692633","coordinates":[42.6553912,23.5900822]},"atp":false,"tags_mismatch":false},{"osm":{"type":"node","id":11874807941,"tags":{"brand":"Техномаркет","brand:wikidata":"Q7692633","shop":"electronics"},"wikidata":"Q7692633","coordinates":[42.6523764,27.6726529]},"atp":false,"tags_mismatch":false},{"osm":{"type":"way","id":116742967,"tags":{"brand":"Техномаркет","brand:wikidata":"Q7692633","building":"yes","opening_hours":"Mo-Fr 10:00-20:00; Sa-Su 10:00-19:00","shop":"electronics","source":"Bing","website":"https://www.technomarket.bg/magazini/pleven/tehnomarket-pleven"},"wikidata":"Q7692633","coordinates":[43.4080609,24.6367471]},"atp":false,"tags_mismatch":false},{"osm":{"type":"way","id":190979536,"tags":{"brand":"Техномаркет","brand:wikidata":"Q7692633","building":"yes","opening_hours":"Mo-Sa 10:00-20:00; Su 10:00-19:00","shop":"electronics","website":"https://www.technomarket.bg/magazini/blagoevgrad/tehnomarket-blagoevgrad"},"wikidata":"Q7692633","coordinates":[41.9974409,23.0882729]},"atp":false,"tags_mismatch":false},{"osm":{"type":"way","id":234244530,"tags":{"brand":"Техномаркет","brand:wikidata":"Q7692633","building":"yes","shop":"electronics"},"wikidata":"Q7692633","coordinates":[43.9660146,22.862551]},"atp":false,"tags_mismatch":false},{"osm":{"type":"way","id":260124612,"tags":{"brand":"Техномаркет","brand:wikidata":"Q7692633","building":"yes","opening_hours":"Mo-Fr 09:30-19:00; Sa-Su 10:00-18:00","shop":"electronics","website":"https://www.technomarket.bg/magazini/botevgrad/tehnomarket-botevgrad"},"wikidata":"Q7692633","coordinates":[42.9087581,23.8026911]},"atp":false,"tags_mismatch":false},{"osm":{"type":"way","id":309045473,"tags":{"addr:city":"Хасково","addr:housenumber":"77","addr:postcode":"6300","addr:street":"Съединение","brand":"Техномаркет","brand:wikidata":"Q7692633","building":"yes","opening_hours":"Mo-Sa 10:00-19:00; Su 10:00-18:00","shop":"electronics","website":"https://www.technomarket.bg/magazini/haskovo/tehnomarket-haskovo"},"wikidata":"Q7692633","coordinates":[41.9316543,25.6043439]},"atp":false,"tags_mismatch":false},{"osm":{"type":"way","id":394448573,"tags":{"brand":"Техномаркет","brand:wikidata":"Q7692633","building":"yes","shop":"electronics"},"wikidata":"Q7692633","coordinates":[43.4049772,23.241462]},"atp":false,"tags_mismatch":false},{"osm":{"type":"way","id":424708438,"tags":{"addr:city":"Кърджали","addr:postcode":"6600","brand":"Техномаркет","brand:wikidata":"Q7692633","building":"yes","opening_hours":"Mo-Sa 09:00-19:00; Su 10:00-19:00","shop":"electronics","website":"https://www.technomarket.bg/magazini/kyrdzhali/tehnomarket-kyrdzhali"},"wikidata":"Q7692633","coordinates":[41.6319609,25.378802]},"atp":false,"tags_mismatch":false},{"osm":{"type":"way","id":435324436,"tags":{"brand":"Техномаркет","brand:wikidata":"Q7692633","building":"yes","opening_hours":"Mo-Sa 10:00-20:00; Su 10:00-19:30","shop":"electronics","website":"https://www.technomarket.bg/magazini/varna/tehnomarket-varna","wheelchair":"yes"},"wikidata":"Q7692633","coordinates":[43.2324404,27.8661279]},"atp":false,"tags_mismatch":false},{"osm":{"type":"way","id":450126859,"tags":{"brand":"Техномаркет","brand:wikidata":"Q7692633","building":"yes","email":"tmbansko@technomarket.bg","opening_hours":"Mo-Sa 10:00-19:00; Su 10:00-17:00","phone":"+359 89 669 1263","shop":"electronics","website":"https://www.technomarket.bg/magazini/bansko/tehnomarket-bansko"},"wikidata":"Q7692633","coordinates":[41.8458476,23.483291]},"atp":false,"tags_mismatch":false},{"osm":{"type":"way","id":1081128636,"tags":{"brand":"Техномаркет","brand:wikidata":"Q7692633","building":"yes","opening_hours":"Mo-Sa 09:30-19:30; Su 10:00-19:00","shop":"electronics","website":"https://www.technomarket.bg/magazini/pazardzhik/tehnomarket-pazardzhik"},"wikidata":"Q7692633","coordinates":[42.1835145,24.3166455]},"atp":false,"tags_mismatch":false},{"osm":{"type":"way","id":1204015076,"tags":{"brand":"Техномаркет","brand:wikidata":"Q7692633","building":"yes","opening_hours":"Mo-Sa 10:00-19:00; Su 09:30-17:00","shop":"electronics","website":"https://www.technomarket.bg/magazini/velingrad/tehnomarket-velingrad"},"wikidata":"Q7692633","coordinates":[42.0290913,24.0074258]},"atp":false,"tags_mismatch":false}]}