{"metadata":{"type":"brand","wikidata":"Q108169047","name":"Lidl","compare_keys":["opening_hours"]},"data":[{"osm":false,"atp":{"id":"qERgQX7TxjcfCgc7BA443DUSwTs=","tags":{"ref":"228","shop":"supermarket","addr:street_address":"ул. Пристанищна 41A","addr:city":"Лом","addr:postcode":"3600","addr:country":"BG","name":"Лом – ул. Пристанищна 41А","brand":"Lidl","brand:wikidata":"Q151954"},"coordinates":[43.82741,23.24094]},"tags_mismatch":false,"dist":0},{"osm":false,"atp":{"id":"xonW97gK-8_EXEeor72l09Bfyjc=","tags":{"ref":"237","shop":"supermarket","addr:street_address":"бул. Москва 24А","addr:city":"Карнобат","addr:postcode":"8400","addr:country":"BG","name":"Карнобат – бул. Москва 24А","brand":"Lidl","brand:wikidata":"Q151954"},"coordinates":[42.65086,26.97682]},"tags_mismatch":false,"dist":0},{"osm":false,"atp":{"id":"GMiPl4hsVdoqtADl25js4Jh7aBc=","tags":{"ref":"240","shop":"supermarket","addr:street_address":"бул. 25 септември 70","addr:city":"Добрич","addr:postcode":"9300","addr:country":"BG","name":"Добрич – бул. 25 септември 70","brand":"Lidl","brand:wikidata":"Q151954"},"coordinates":[43.57813,27.82943]},"tags_mismatch":false,"dist":0}]}