{"metadata":{"type":"brand","wikidata":"Q1941592","name":"A1","compare_keys":["opening_hours","phone"]},"data":[{"osm":{"type":"node","id":1243236042,"tags":{"brand":"A1","brand:wikidata":"Q1941592","shop":"telecommunication"},"wikidata":"Q1941592","coordinates":[43.2089251,27.9191864]},"atp":{"id":"g5F4-ZMlYDjSbYyfuqKW1asY7qA=","tags":{"ref":"367","shop":"telecommunication","addr:full":"бул. Осми Приморски полк 57A","addr:country":"BG","name":"А1 магазин Варна, 8 Прим. полк 57А ","phone":"+359 88 220 7605","opening_hours":"Mo-Fr 09:00-19:00","brand":"A1","brand:wikidata":"Q1941592"},"coordinates":[43.209157,27.919454]},"dist":33.694,"tags_mismatch":true},{"osm":{"type":"node","id":1350379860,"tags":{"brand":"A1","brand:wikidata":"Q1941592","shop":"telecommunication"},"wikidata":"Q1941592","coordinates":[42.1449986,24.7565425]},"atp":{"id":"pBxQaCGz50-zSjQlfRK-_aelp8E=","tags":{"ref":"30","shop":"telecommunication","addr:full":"бул. Мария Луиза 14","addr:country":"BG","name":"А1 магазин Пловдив, Мария Луиза 14","phone":"+359 88 220 7376","opening_hours":"Mo-Fr 09:00-19:00","brand":"A1","brand:wikidata":"Q1941592"},"coordinates":[42.14496,24.756305]},"dist":20.046,"tags_mismatch":true},{"osm":{"type":"node","id":1378846493,"tags":{"brand":"A1","brand:wikidata":"Q1941592","shop":"telecommunication"},"wikidata":"Q1941592","coordinates":[42.4260687,25.6302655]},"atp":{"id":"HK3AzYA5XdwmbaTxH8N3fNQFkQo=","tags":{"ref":"338","shop":"telecommunication","addr:full":"Цар Симеон Велики 117","addr:country":"BG","name":"А1 магазин Ст. Загора, С. Велики 117 ","phone":"+359 88 220 7397","opening_hours":"Mo-Fr 09:00-19:00","brand":"A1","brand:wikidata":"Q1941592"},"coordinates":[42.425507,25.631063]},"dist":90.475,"tags_mismatch":true},{"osm":{"type":"node","id":1410071508,"tags":{"brand":"A1","brand:wikidata":"Q1941592","shop":"telecommunication"},"wikidata":"Q1941592","coordinates":[41.5785031,24.6951152]},"atp":{"id":"Pj-XDPq8AmTO8axyAjTLERURN-c=","tags":{"ref":"355","shop":"telecommunication","addr:full":"бул. България 97","addr:country":"BG","name":"А1 магазин Смолян, България 97","phone":"+359 88 220 7383","opening_hours":"Mo-Fr 09:00-18:30","brand":"A1","brand:wikidata":"Q1941592"},"coordinates":[41.580491,24.688449]},"dist":596.916,"tags_mismatch":true},{"osm":{"type":"node","id":1504852252,"tags":{"brand":"A1","brand:wikidata":"Q1941592","shop":"telecommunication"},"wikidata":"Q1941592","coordinates":[43.5694968,27.8273881]},"atp":{"id":"S1-hjhfB4SBMNTEFmZs2Dk8vTfc=","tags":{"ref":"89","shop":"telecommunication","addr:full":"ул. Независимост 2","addr:country":"BG","name":"А1 магазин Добрич, Независимост 2  ","phone":"+359 88 220 7455","opening_hours":"Mo-Fr 09:00-19:00","brand":"A1","brand:wikidata":"Q1941592"},"coordinates":[43.569861,27.828703]},"dist":113.412,"tags_mismatch":true},{"osm":{"type":"node","id":1798420545,"tags":{"brand":"A1","brand:wikidata":"Q1941592","shop":"telecommunication"},"wikidata":"Q1941592","coordinates":[42.1266146,24.7402457]},"atp":{"id":"mY7wmH5uIsgiYz5HTYou9W8C92A=","tags":{"ref":"368","shop":"telecommunication","addr:full":"Габрово, ул. Янтра 1","addr:country":"BG","name":"А1 магазин A1 м-н Габрово, ул. Янтра 1 ","phone":"+359 88 220 7484","opening_hours":"Mo-Fr 09:00-19:00","brand":"A1","brand:wikidata":"Q1941592"},"coordinates":[42.872585,25.318916]},"tags_mismatch":true},{"osm":{"type":"node","id":2620926212,"tags":{"addr:city":"София","addr:housenumber":"33","addr:street":"Лайош Кошут","brand":"A1","brand:wikidata":"Q1941592","int_name":"A1","old_name":"Мтел","old_name:en":"Mtel","opening_hours":"Mo-Fr 09:00-19:30","phone":"+359 88 220 7308","shop":"telecommunication","wheelchair":"limited"},"wikidata":"Q1941592","coordinates":[42.691367,23.3118828]},"atp":{"id":"bItsi4U0rGdahqrm20frzWQFvAQ=","tags":{"ref":"13","shop":"telecommunication","addr:full":"ул. Лайош Кошут 33","addr:country":"BG","name":"А1 магазин София, Лайош Кошут 33","phone":"+359 88 220 7308","opening_hours":"Mo-Fr 09:00-19:00","brand":"A1","brand:wikidata":"Q1941592"},"coordinates":[42.691358,23.311959]},"dist":6.308,"tags_mismatch":true},{"osm":{"type":"node","id":2628124769,"tags":{"addr:housenumber":"32","addr:street":"бул. Княз Александър Дондуков","brand":"A1","brand:wikidata":"Q1941592","contact:phone":"+359 88 220 7327","int_name":"A1","old_name":"Мтел","old_name:en":"Mtel","opening_hours":"Mo-Fr 09:00-19:30","shop":"telecommunication","wheelchair":"no"},"wikidata":"Q1941592","coordinates":[42.6981314,23.3310356]},"atp":{"id":"1m_ncXEVQ5vfXDWg4c-2HQiTJZI=","tags":{"ref":"223","shop":"telecommunication","addr:full":"Бул. Дондуков 32","addr:country":"BG","name":"А1 магазин София, Дондуков 32","phone":"+359 88 220 7327","opening_hours":"Mo-Fr 09:00-19:00","brand":"A1","brand:wikidata":"Q1941592"},"coordinates":[42.69809,23.330908]},"dist":11.399,"tags_mismatch":true},{"osm":{"type":"node","id":2961220853,"tags":{"brand":"A1","brand:wikidata":"Q1941592","shop":"telecommunication"},"wikidata":"Q1941592","coordinates":[43.075495,25.6214823]},"atp":{"id":"DyFLXCQOKZlxlOjFPxKtNjNOjYM=","tags":{"ref":"73","shop":"telecommunication","addr:full":"ул. Никола Габровски 32","addr:country":"BG","name":"А1 магазин В. Търново, Габровски 32","phone":"+359 88 220 7480","opening_hours":"Mo-Fr 09:00-19:00","brand":"A1","brand:wikidata":"Q1941592"},"coordinates":[43.075504,25.621359]},"dist":10.065,"tags_mismatch":true},{"osm":{"type":"node","id":3284857455,"tags":{"addr:city":"София","addr:housenumber":"171","addr:postcode":"1229","addr:street":"бул. Ломско шосе","brand":"A1","brand:wikidata":"Q1941592","int_name":"A1","old_name":"Мтел","old_name:en":"Mtel","opening_hours":"Mo-Fr 09:00-19:30","shop":"telecommunication"},"wikidata":"Q1941592","coordinates":[42.7263213,23.3020346]},"atp":{"id":"BQTIK3sdzebBvIfqwXWhdHGKxgo=","tags":{"ref":"429","shop":"telecommunication","addr:full":"бул. Мария Луиза 25, Кауфланд","addr:country":"BG","name":"А1 магазин А1 м-н София, Централни хали КФ","opening_hours":"Mo-Su 09:00-21:00","brand":"A1","brand:wikidata":"Q1941592"},"coordinates":[42.7002401314,23.3220177952]},"tags_mismatch":true},{"osm":{"type":"node","id":3381502440,"tags":{"addr:housenumber":"12","addr:street":"Александровска","brand":"A1","brand:wikidata":"Q1941592","check_date":"2022-11-02","internet_access":"wlan","internet_access:fee":"no","opening_hours":"Mo-Fr 09:00-19:30","phone":"+359 88 220 7471","shop":"telecommunication"},"wikidata":"Q1941592","coordinates":[42.4919848,27.4729793]},"atp":{"id":"dEAOz7wm8fFhznDqAI4HCvRsT2A=","tags":{"ref":"110","shop":"telecommunication","addr:full":"ул. Свобода 3","addr:country":"BG","name":"А1 магазин Айтос, Свобода 3","phone":"+359 88 220 7420","opening_hours":"Mo-Fr 09:00-18:30","brand":"A1","brand:wikidata":"Q1941592"},"coordinates":[42.703587,27.254295]},"tags_mismatch":true},{"osm":{"type":"node","id":3522631036,"tags":{"addr:housenumber":"18","addr:street":"бул. Мадрид","brand":"A1","brand:wikidata":"Q1941592","int_name":"A1","old_name":"Мтел","old_name:en":"Mtel","opening_hours":"Mo-Fr 09:00-19:30","phone":"+359 88 220 7313","shop":"telecommunication"},"wikidata":"Q1941592","coordinates":[42.6961716,23.3488242]},"atp":{"id":"uxjpM7-UhmaWaulWaZjALBrdUtg=","tags":{"ref":"20","shop":"telecommunication","addr:full":"бул. Мадрид 18","addr:country":"BG","name":"А1 магазин София, Мадрид 18","phone":"+359 88 220 7313","opening_hours":"Mo-Fr 09:00-19:00","brand":"A1","brand:wikidata":"Q1941592"},"coordinates":[42.696107,23.348853]},"dist":7.559,"tags_mismatch":true},{"osm":{"type":"node","id":3828185159,"tags":{"brand":"A1","brand:wikidata":"Q1941592","shop":"telecommunication"},"wikidata":"Q1941592","coordinates":[42.5034488,27.4737794]},"atp":{"id":"j-3sGWCnW-8PIq5yYV-6Hh0yuMU=","tags":{"ref":"53","shop":"telecommunication","addr:full":"ул. Сан Стефано 129","addr:country":"BG","name":"А1 магазин Бургас, Сан Стефано 129","phone":"+359 88 220 7426","opening_hours":"Mo-Fr 09:00-19:00","brand":"A1","brand:wikidata":"Q1941592"},"coordinates":[42.503367,27.473331]},"dist":37.867,"tags_mismatch":true},{"osm":{"type":"node","id":3841520906,"tags":{"brand":"A1","brand:wikidata":"Q1941592","old_name":"Mtel","shop":"telecommunication"},"wikidata":"Q1941592","coordinates":[42.1435462,24.7497048]},"atp":{"id":"Ie9HhxuX06p8t9DR93v5tdLG7AA=","tags":{"ref":"406","shop":"telecommunication","addr:full":"ул. Капитан Петко Войвода 2В","addr:country":"BG","name":"А1 магазин Аксаково, К. П. Войвода ","opening_hours":"Mo-Fr 09:00-18:30","brand":"A1","brand:wikidata":"Q1941592"},"coordinates":[43.258331,27.813358]},"tags_mismatch":true},{"osm":{"type":"node","id":3984966038,"tags":{"brand":"A1","brand:wikidata":"Q1941592","check_date":"2022-10-26","int_name":"A1","old_name":"Мтел","old_name:en":"Mtel","opening_hours":"Mo-Fr 09:00-19:30","shop":"telecommunication","wheelchair":"yes"},"wikidata":"Q1941592","coordinates":[42.6449261,23.3422484]},"atp":{"id":"V5wiKamnIQLvdMJ4Vtl27WZ_wKQ=","tags":{"ref":"285","shop":"telecommunication","addr:full":"Студентски град, ул. Акад. Борис Стефанов 35","addr:country":"BG","name":"А1 магазин София, Б. Стефанов 35 ","phone":"+359 88 220 7640","opening_hours":"Mo-Fr 09:00-19:00","brand":"A1","brand:wikidata":"Q1941592"},"coordinates":[42.645424,23.342297]},"dist":55.506,"tags_mismatch":true},{"osm":{"type":"node","id":4103329012,"tags":{"brand":"A1","brand:wikidata":"Q1941592","shop":"telecommunication"},"wikidata":"Q1941592","coordinates":[42.6939182,27.7091235]},"atp":{"id":"a2Atxg5aku8vWZb886c0JaeGES0=","tags":{"ref":"189","shop":"telecommunication","addr:full":"Слънчев бряг- Бизнес Център Кондор","addr:country":"BG","name":"А1 магазин Слънчев бряг, KK Сл. бряг 1","phone":"+359 88 220 7432","opening_hours":"Mo-Fr 08:00-17:00","brand":"A1","brand:wikidata":"Q1941592"},"coordinates":[42.693281,27.708806]},"dist":75.455,"tags_mismatch":true},{"osm":{"type":"node","id":4105536928,"tags":{"brand":"A1","brand:wikidata":"Q1941592","shop":"telecommunication"},"wikidata":"Q1941592","coordinates":[42.1451942,24.7318243]},"atp":{"id":"E3qnr88B1v3mIzILm-rVq3hL5KI=","tags":{"ref":"32","shop":"telecommunication","addr:full":"бул. Васил Априлов 84","addr:country":"BG","name":"А1 магазин Пловдив, В. Априлов 84 ","phone":"+359 88 220 7372","opening_hours":"Mo-Fr 09:00-19:00","brand":"A1","brand:wikidata":"Q1941592"},"coordinates":[42.145483,24.731743]},"dist":32.805,"tags_mismatch":true},{"osm":{"type":"node","id":4226457736,"tags":{"brand":"A1","brand:wikidata":"Q1941592","contact:phone":"+359 88 220 7631","int_name":"A1","old_name":"Мтел","old_name:en":"Mtel","opening_hours":"Mo-Fr 09:00-19:30; Sa 10:00-17:00","shop":"telecommunication"},"wikidata":"Q1941592","coordinates":[42.6526363,23.3734302]},"atp":{"id":"VwxR7P64ddptKF0nHyFFMsSgDFM=","tags":{"ref":"303","shop":"telecommunication","addr:full":"ж.к. Младост 1, бул. Андрей Сахаров, ТЦ Алко<br/>(не предлага пълното портфолио от услуги)","addr:country":"BG","name":"А1 магазин София, Младост, Сахаров ","phone":"+359 88 220 7631","opening_hours":"Mo-Fr 09:00-19:00","brand":"A1","brand:wikidata":"Q1941592"},"coordinates":[42.652505,23.373494]},"dist":15.504,"tags_mismatch":true},{"osm":{"type":"node","id":4230833991,"tags":{"addr:city":"Кърджали","addr:postcode":"6600","brand":"A1","brand:wikidata":"Q1941592","shop":"telecommunication"},"wikidata":"Q1941592","coordinates":[41.6439332,25.3664643]},"atp":{"id":"sLbhnKs1tjCZ86ZDS7ggJwEwA4A=","tags":{"ref":"50","shop":"telecommunication","addr:full":"бул. България 52","addr:country":"BG","name":"А1 магазин Кърджали, България 52","phone":"+359 88 220 7390","opening_hours":"Mo-Fr 09:00-19:00","brand":"A1","brand:wikidata":"Q1941592"},"coordinates":[41.644795,25.368722]},"dist":210.659,"tags_mismatch":true},{"osm":{"type":"node","id":4230872806,"tags":{"addr:city":"Кърджали","addr:postcode":"6600","brand":"A1","brand:wikidata":"Q1941592","shop":"telecommunication"},"wikidata":"Q1941592","coordinates":[41.6446766,25.3688298]},"atp":{"id":"Id1iE882lEQwCSDvrhaYx_3C5qM=","tags":{"ref":"336","shop":"telecommunication","addr:full":"пл. Николай Хайтов 3","addr:country":"BG","name":"А1 магазин Асеновград, Н. Хайтов 12","phone":"+359 88 220 7360","opening_hours":"Mo-Fr 09:00-18:00","brand":"A1","brand:wikidata":"Q1941592"},"coordinates":[42.006405,24.874646]},"tags_mismatch":true},{"osm":{"type":"node","id":4230972517,"tags":{"addr:city":"София","addr:housenumber":"63","addr:postcode":"1632","addr:street":"Монтевидео","brand":"A1","brand:wikidata":"Q1941592","contact:phone":"+359 88 210 0448","int_name":"A1","old_name":"Мтел","old_name:en":"Mtel","opening_hours":"Mo-Fr 09:00-19:30; Sa 10:00-17:00","shop":"telecommunication"},"wikidata":"Q1941592","coordinates":[42.6884883,23.2547361]},"atp":{"id":"oxgq6Bkbk3xeZ4gXqKDa_QIS820=","tags":{"ref":"169","shop":"telecommunication","addr:full":"жк.Овча купел, бул.Монтевидео 63","addr:country":"BG","name":"А1 магазин София, Овча купел ","phone":"+359 88 220 7404","opening_hours":"Mo-Fr 09:00-19:00","brand":"A1","brand:wikidata":"Q1941592"},"coordinates":[42.688569,23.254658]},"dist":11.012,"tags_mismatch":true},{"osm":{"type":"node","id":4294978789,"tags":{"addr:housenumber":"45","addr:postcode":"1000","addr:street":"Александър Екзарх","brand":"A1","brand:wikidata":"Q1941592","int_name":"A1","old_name":"Мтел","old_name:en":"Mtel","shop":"telecommunication"},"wikidata":"Q1941592","coordinates":[42.7019868,23.3594294]},"atp":{"id":"ad65E_w9Yzsrc-mzaZR2qe5HAT8=","tags":{"ref":"373","shop":"telecommunication","addr:full":"София, ул. Тодорини кукли 20","addr:country":"BG","name":"А1 магазин София Тодорини кукли 20","phone":"+359 88 210 0451","opening_hours":"Mo-Fr 09:00-19:00","brand":"A1","brand:wikidata":"Q1941592"},"coordinates":[42.702111,23.357594]},"dist":150.616,"tags_mismatch":true},{"osm":{"type":"node","id":4430676211,"tags":{"brand":"A1","brand:wikidata":"Q1941592","shop":"telecommunication"},"wikidata":"Q1941592","coordinates":[43.5693444,27.8299791]},"atp":{"id":"LPVoYzLwh3b2efoDoBFnc8M5IlA=","tags":{"ref":"258","shop":"telecommunication","addr:full":"пл. Свобода 5","addr:country":"BG","name":"А1 магазин Добрич, пл. Свобода 5","phone":"+359 88 220 7456","opening_hours":"Mo-Fr 09:00-19:00","brand":"A1","brand:wikidata":"Q1941592"},"coordinates":[43.569368,27.83056]},"dist":46.874,"tags_mismatch":true},{"osm":{"type":"node","id":4542072148,"tags":{"addr:housenumber":"153","addr:street":"Георги С. Раковски","brand":"A1","brand:wikidata":"Q1941592","check_date":"2023-04-20","int_name":"A1","old_name":"Мтел","old_name:en":"Mtel","opening_hours":"Mo-Fr 09:00-19:30; Sa 10:00-17:00","shop":"telecommunication"},"wikidata":"Q1941592","coordinates":[42.6912614,23.3249565]},"atp":{"id":"7TwUAnkO7bxYVQ5cStL6lsSFEp0=","tags":{"ref":"12","shop":"telecommunication","addr:full":"ул. Г. С. Раковски 153","addr:country":"BG","name":"А1 магазин София, Г. Раковски 153","phone":"+359 88 220 7322","opening_hours":"Mo-Fr 09:00-19:00","brand":"A1","brand:wikidata":"Q1941592"},"coordinates":[42.691214,23.324816]},"dist":12.635,"tags_mismatch":true},{"osm":{"type":"node","id":4588824095,"tags":{"addr:street":"бул. Царица Йоанна","brand":"A1","brand:wikidata":"Q1941592","int_name":"A1","internet_access":"wlan","old_name":"Мтел","old_name:en":"Mtel","shop":"telecommunication","wheelchair":"no"},"wikidata":"Q1941592","coordinates":[42.7129414,23.2683324]},"atp":{"id":"5YVkruHUomfEKXnnUi_I-xExcLo=","tags":{"ref":"6","shop":"telecommunication","addr:full":"ж.к. Люлин 10, бл.154","addr:country":"BG","name":"А1 магазин София, Люлин 10, 154","phone":"+359 88 220 7311","opening_hours":"Mo-Fr 09:00-19:00","brand":"A1","brand:wikidata":"Q1941592"},"coordinates":[42.712741,23.268718]},"dist":38.588,"tags_mismatch":true},{"osm":{"type":"node","id":4942859414,"tags":{"addr:city":"София","addr:housenumber":"14","addr:postcode":"1113","addr:street":"бул. Цариградско шосе","brand":"A1","brand:wikidata":"Q1941592","int_name":"A1","old_name":"Мтел","old_name:en":"Mtel","opening_hours":"Mo-Fr 09:00-19:00","shop":"telecommunication"},"wikidata":"Q1941592","coordinates":[42.6747373,23.3592741]},"atp":{"id":"7qojvbcP7bUswkW0vvvDwdzx--A=","tags":{"ref":"420","shop":"telecommunication","addr:full":"бул. Цариградско шосе 14","addr:country":"BG","name":"А1 магазин А1 м-н София, Плиска","phone":"+359 88 220 7321","opening_hours":"Mo-Fr 09:00-19:00","brand":"A1","brand:wikidata":"Q1941592"},"coordinates":[42.6739368,23.3603378]},"dist":124.439,"tags_mismatch":true},{"osm":{"type":"node","id":4944691052,"tags":{"brand":"A1","brand:wikidata":"Q1941592","int_name":"A1","old_name":"Мтел","shop":"telecommunication"},"wikidata":"Q1941592","coordinates":[43.0805177,25.6300612]},"atp":{"id":"NzAxYDYPLP8tGugLMudKh-2S2Kc=","tags":{"ref":"74","shop":"telecommunication","addr:full":"ул. Васил Левски 6","addr:country":"BG","name":"А1 магазин В. Търново, В. Левски 6","phone":"+359 88 220 7481","opening_hours":"Mo-Fr 09:00-19:00","brand":"A1","brand:wikidata":"Q1941592"},"coordinates":[43.080443,25.629949]},"dist":12.33,"tags_mismatch":true},{"osm":{"type":"node","id":4947500096,"tags":{"brand":"A1","brand:wikidata":"Q1941592","check_date":"2024-02-17","int_name":"A1","old_name":"Мтел","old_name:en":"Mtel","shop":"telecommunication"},"wikidata":"Q1941592","coordinates":[42.7060088,23.3240666]},"atp":{"id":"3GhtFkriaq1XHQ9C2vyV6Jw6lM8=","tags":{"ref":"16","shop":"telecommunication","addr:full":"бул. Мария Луиза 66","addr:country":"BG","name":"А1 магазин София, Мария Луиза 66","phone":"+359 88 220 7312","opening_hours":"Mo-Fr 09:00-19:00","brand":"A1","brand:wikidata":"Q1941592"},"coordinates":[42.706104,23.324101]},"dist":10.953,"tags_mismatch":true},{"osm":{"type":"node","id":4961752806,"tags":{"addr:housenumber":"77","addr:street":"3-ти март","brand":"A1","brand:wikidata":"Q1941592","shop":"telecommunication"},"wikidata":"Q1941592","coordinates":[42.2664605,27.7485956]},"atp":{"id":"hrUp6DVGzurHdFPgN1M-QQwjAPQ=","tags":{"ref":"108","shop":"telecommunication","addr:full":"ул. Димитър Благоев 79","addr:country":"BG","name":"А1 магазин Б. Слатина, Д. Благоев 79 ","phone":"+359 88 220 7536","opening_hours":"Mo-Fr 09:00-18:00","brand":"A1","brand:wikidata":"Q1941592"},"coordinates":[43.470448,23.942806]},"tags_mismatch":true},{"osm":{"type":"node","id":5030698122,"tags":{"addr:housenumber":"27","addr:street":"Хан Крум","brand":"A1","brand:wikidata":"Q1941592","opening_hours":"Mo-Fr 09:00-18:15","shop":"telecommunication"},"wikidata":"Q1941592","coordinates":[42.6638095,27.716576]},"atp":{"id":"Z37_Z2RDM8W-tG3a2lO4StWNZfo=","tags":{"ref":"57","shop":"telecommunication","addr:full":"ул. Хан Крум 27","addr:country":"BG","name":"А1 магазин Несебър, Хан Крум 27","phone":"+359 88 220 7431","opening_hours":"Mo-Fr 09:00-18:30","brand":"A1","brand:wikidata":"Q1941592"},"coordinates":[42.663262,27.717666]},"dist":107.934,"tags_mismatch":true},{"osm":{"type":"node","id":5032477136,"tags":{"brand":"A1","brand:wikidata":"Q1941592","shop":"telecommunication"},"wikidata":"Q1941592","coordinates":[42.8897076,26.4434497]},"atp":{"id":"5g9Hc06v0-FoFB8aRD96C4hDRvk=","tags":{"ref":"98","shop":"telecommunication","addr:full":"ул. Черно море 1","addr:country":"BG","name":"А1 магазин Балчик, Черно море 1","phone":"+359 88 220 7443","opening_hours":"Mo-Fr 09:00-18:30","brand":"A1","brand:wikidata":"Q1941592"},"coordinates":[43.405352,28.167948]},"tags_mismatch":true},{"osm":{"type":"node","id":5117749533,"tags":{"brand":"A1","brand:wikidata":"Q1941592","shop":"telecommunication","wheelchair":"no"},"wikidata":"Q1941592","coordinates":[42.1501938,24.7469066]},"atp":{"id":"m5RXbKQiEXn3Lnx2Bpdm12reCec=","tags":{"ref":"28","shop":"telecommunication","addr:full":"Ул. Опълченска 2","addr:country":"BG","name":"А1 магазин Пловдив, Опълченска 2","phone":"+359 88 220 7374","opening_hours":"Mo-Fr 09:00-19:00","brand":"A1","brand:wikidata":"Q1941592"},"coordinates":[42.150317,24.746819]},"dist":15.486,"tags_mismatch":true},{"osm":{"type":"node","id":5387848869,"tags":{"brand":"A1","brand:wikidata":"Q1941592","shop":"telecommunication"},"wikidata":"Q1941592","coordinates":[42.6186772,25.3958263]},"atp":{"id":"RozPftT08blTgLFnT7R4qut5-y4=","tags":{"ref":"332","shop":"telecommunication","addr:full":"пл. Никола Вапцаров 6","addr:country":"BG","name":"А1 магазин Банско, Н. Вапцаров 6 ","phone":"+359 88 220 7520","opening_hours":"Mo-Fr 09:00-18:00","brand":"A1","brand:wikidata":"Q1941592"},"coordinates":[41.837652,23.488398]},"tags_mismatch":true},{"osm":{"type":"node","id":5426593294,"tags":{"addr:city":"Русе","addr:housenumber":"38","addr:street":"бул. Христо Ботев","brand":"A1","brand:wikidata":"Q1941592","shop":"telecommunication"},"wikidata":"Q1941592","coordinates":[43.8323886,25.9689073]},"atp":{"id":"mokNZQTE7jXZWkMDo4Mclz1bzqo=","tags":{"ref":"341","shop":"telecommunication","addr:full":"Русе, ж.к. Дружба-1, бул. Христо Ботев 38 (Кауфланд)","addr:country":"BG","name":"А1 магазин Русе, Христо Ботев 38 КФ","phone":"+359 88 220 7516","opening_hours":"Mo-Su 08:00-21:00","brand":"A1","brand:wikidata":"Q1941592"},"coordinates":[43.832224,25.968423]},"dist":42.943,"tags_mismatch":true},{"osm":{"type":"node","id":5634656877,"tags":{"addr:city":"Дулово","addr:housenumber":"16","addr:postcode":"7650","addr:street":"Васил Левски","brand":"A1","brand:wikidata":"Q1941592","opening_hours":"Mo-Fr 09:00-18:30","phone":"+359 88 220 7578","shop":"telecommunication"},"wikidata":"Q1941592","coordinates":[43.8235073,27.1410116]},"atp":{"id":"BQaxj3NgSRB3WOxfU8LmZva2fmE=","tags":{"ref":"383","shop":"telecommunication","addr:full":"ул.Васил Левски 16","addr:country":"BG","name":"А1 магазин Дулово, Васил Левски 16","phone":"+359 88 220 7578","opening_hours":"Mo-Fr 09:00-18:00","brand":"A1","brand:wikidata":"Q1941592"},"coordinates":[43.823461,27.141059]},"dist":6.4,"tags_mismatch":true},{"osm":{"type":"node","id":5941930854,"tags":{"brand":"A1","brand:wikidata":"Q1941592","shop":"telecommunication"},"wikidata":"Q1941592","coordinates":[42.0177913,23.0971121]},"atp":{"id":"N6nJlYaQSaCcvt0tdpRdXhcnI0c=","tags":{"ref":"136","shop":"telecommunication","addr:full":"бул. Освобождение 80","addr:country":"BG","name":"А1 магазин Белово, Освобождение 80 ","phone":"+359 88 220 7361","opening_hours":"Mo-Fr 09:00-18:00","brand":"A1","brand:wikidata":"Q1941592"},"coordinates":[42.215857,24.015839]},"tags_mismatch":true},{"osm":{"type":"node","id":6357556879,"tags":{"addr:housenumber":"19","addr:street":"бул. Княгиня Мария Луиза","brand":"A1","brand:wikidata":"Q1941592","check_date":"2022-09-02","check_date:opening_hours":"2021-03-18","int_name":"A1","old_name":"Мтел","old_name:en":"Mtel","opening_hours":"Mo-Fr 09:00-19:30","phone":"+359 88 220 7387","shop":"telecommunication"},"wikidata":"Q1941592","coordinates":[42.6988756,23.3218476]},"atp":{"id":"TY7X1vOa6NuF45vBcwWcSdkdU3U=","tags":{"ref":"137","shop":"telecommunication","addr:full":"ул.Николаевска 8","addr:country":"BG","name":"А1 магазин Берковица, Николаевска 8 ","phone":"+359 88 220 7534","opening_hours":"Mo-Fr 09:00-18:30","brand":"A1","brand:wikidata":"Q1941592"},"coordinates":[43.23856,23.127836]},"tags_mismatch":true},{"osm":{"type":"node","id":6414107889,"tags":{"brand":"A1","brand:wikidata":"Q1941592","level":"0","shop":"telecommunication"},"wikidata":"Q1941592","coordinates":[43.2169101,27.8976902]},"atp":{"id":"7DuFPU3Y070mgRJaO7kn4sZqMdw=","tags":{"ref":"249","shop":"telecommunication","addr:full":"ул. Акад. Андрей Сахаров 2 ТК Гранд МОЛ","addr:country":"BG","name":"А1 магазин Варна, МОЛ Гранд МОЛ","phone":"+359 88 220 7464","opening_hours":"Mo-Su 10:00-21:00","brand":"A1","brand:wikidata":"Q1941592"},"coordinates":[43.218322,27.898022]},"dist":159.282,"tags_mismatch":true},{"osm":{"type":"node","id":6567551386,"tags":{"brand":"A1","brand:wikidata":"Q1941592","level":"1","shop":"telecommunication","wheelchair":"yes"},"wikidata":"Q1941592","coordinates":[42.7096698,23.2935325]},"atp":{"id":"PYwI5YOwN2ATQsmEs2qrfNAI4Io=","tags":{"ref":"358","shop":"telecommunication","addr:full":"бул. Св. Димитър Солунски 21 (Кауфланд)","addr:country":"BG","name":"А1 магазин Благоевград, Д. Солунски КФ","phone":"+359 88 220 7549","opening_hours":"Mo-Su 08:00-20:00","brand":"A1","brand:wikidata":"Q1941592"},"coordinates":[42.010812,23.093964]},"tags_mismatch":true},{"osm":{"type":"node","id":6578553216,"tags":{"brand":"A1","brand:wikidata":"Q1941592","shop":"telecommunication"},"wikidata":"Q1941592","coordinates":[42.5475407,22.965136]},"atp":{"id":"nV27UrgAuQoF48m05zCgFFqRpAY=","tags":{"ref":"168","shop":"telecommunication","addr:full":"пл. Свобода 20","addr:country":"BG","name":"А1 магазин Радомир, Свобода 20","phone":"+359 88 220 7527","opening_hours":"Mo-Fr 09:00-18:00","brand":"A1","brand:wikidata":"Q1941592"},"coordinates":[42.546846,22.964167]},"dist":110.762,"tags_mismatch":true},{"osm":{"type":"node","id":6588421617,"tags":{"brand":"A1","brand:wikidata":"Q1941592","shop":"telecommunication"},"wikidata":"Q1941592","coordinates":[42.7115133,23.3026283]},"atp":{"id":"JP45r5e4-FJTocIHjTKnbF4OuuM=","tags":{"ref":"342","shop":"telecommunication","addr:full":"София, ж.к. Банишора, ул. Скопие 1 (Кауфланд)","addr:country":"BG","name":"А1 магазин София, ул. Скопие 1 КФ","phone":"+359 88 220 7645","opening_hours":"Mo-Su 08:00-21:00","brand":"A1","brand:wikidata":"Q1941592"},"coordinates":[42.711357,23.302489]},"dist":20.775,"tags_mismatch":true},{"osm":{"type":"node","id":6846259756,"tags":{"addr:city":"София","addr:housenumber":"125","addr:postcode":"1504","addr:street":"Първа българска армия","branch":"София, Орландовци ПБА","brand":"A1","brand:wikidata":"Q1941592","int_name":"A1","old_name":"Мтел","old_name:en":"Mtel","opening_hours":"Mo-Fr 09:00-19:00","shop":"telecommunication"},"wikidata":"Q1941592","coordinates":[42.7177247,23.3390942]},"atp":{"id":"ske39LXgixkAmsVCYYQ5ydiksBc=","tags":{"ref":"62","shop":"telecommunication","addr:full":"ул. Тодор Александров 3","addr:country":"BG","name":"А1 магазин Благоевград, T. Александров, 3","phone":"+359 88 220 7522","opening_hours":"Mo-Fr 09:00-18:30","brand":"A1","brand:wikidata":"Q1941592"},"coordinates":[42.020207,23.100365]},"tags_mismatch":true},{"osm":{"type":"node","id":6927327185,"tags":{"brand":"A1","brand:wikidata":"Q1941592","check_date":"2023-05-21","internet_access":"wlan","internet_access:fee":"customers","opening_hours":"Mo-Fr 10:00-19:30","payment:credit_cards":"yes","payment:debit_cards":"yes","shop":"telecommunication","website":"https://a1.bg","wheelchair":"no"},"wikidata":"Q1941592","coordinates":[42.145624,24.749136]},"atp":{"id":"PjzWwuyYHT-LjT398IgdG_dqOVo=","tags":{"ref":"29","shop":"telecommunication","addr:full":"ул. Ал. Батенберг 27","addr:country":"BG","name":"А1 магазин Пловдив, Батенберг 27 ","phone":"+359 88 220 7375","opening_hours":"Mo-Fr 09:00-19:00","brand":"A1","brand:wikidata":"Q1941592"},"coordinates":[42.1457084,24.746965]},"dist":179.233,"tags_mismatch":true},{"osm":{"type":"node","id":6975165867,"tags":{"branch":"София, Красна поляна","brand":"A1","brand:wikidata":"Q1941592","int_name":"A1","old_name":"Мтел","old_name:en":"Mtel","opening_hours":"Mo-Fr 09:00-19:30","phone":"+359 88 220 7331","shop":"telecommunication"},"wikidata":"Q1941592","coordinates":[42.6959444,23.2870232]},"atp":{"id":"3i-ge786VTG_K9nGzeeOTEXXXEM=","tags":{"ref":"191","shop":"telecommunication","addr:full":"Между бул.Възкресение и бул.Вардар","addr:country":"BG","name":"А1 магазин София, Красна поляна ","phone":"+359 88 220 7331","opening_hours":"Mo-Fr 09:00-19:00","brand":"A1","brand:wikidata":"Q1941592"},"coordinates":[42.695998,23.287017]},"dist":5.982,"tags_mismatch":true},{"osm":{"type":"node","id":7257233528,"tags":{"brand":"A1","brand:wikidata":"Q1941592","int_name":"A1","old_name":"Мтел","old_name:en":"Mtel","opening_hours":"Mo-Fr 09:00-19:30","shop":"telecommunication","website":"https://www.a1.bg/"},"wikidata":"Q1941592","coordinates":[42.7165298,23.2504322]},"atp":{"id":"PSrEeIL4ipMHC_BA-at6UnJdJHQ=","tags":{"ref":"394","shop":"telecommunication","addr:full":"базар Искра 2000","addr:country":"BG","name":"А1 магазин София, Люлин 4, К. Пазар ","phone":"+359 88 220 7310","opening_hours":"Mo-Fr 09:00-19:00","brand":"A1","brand:wikidata":"Q1941592"},"coordinates":[42.716558,23.251391]},"dist":78.394,"tags_mismatch":true},{"osm":{"type":"node","id":7828716185,"tags":{"brand":"A1","brand:wikidata":"Q1941592","shop":"telecommunication"},"wikidata":"Q1941592","coordinates":[43.1084919,26.4175156]},"atp":{"id":"1lVXg6AvVl4SFe8zd2_ZNwK5h-4=","tags":{"ref":"372","shop":"telecommunication","addr:full":"ул. Цар Освободител 2","addr:country":"BG","name":"А1 магазин Омуртаг, ул. Цар Осв. 2","phone":"+359 88 220 7573","opening_hours":"Mo-Fr 09:00-18:00","brand":"A1","brand:wikidata":"Q1941592"},"coordinates":[43.107747,26.418484]},"dist":114.197,"tags_mismatch":true},{"osm":{"type":"node","id":8198926343,"tags":{"brand":"A1","brand:wikidata":"Q1941592","shop":"telecommunication"},"wikidata":"Q1941592","coordinates":[42.0255567,23.9911956]},"atp":{"id":"-hlQrIxA7gPvwnj8nYeRB8Soq1I=","tags":{"ref":"35","shop":"telecommunication","addr:full":"бул. Съединение 85","addr:country":"BG","name":"А1 магазин Велинград, Съединение 85","phone":"+359 88 220 7362","opening_hours":"Mo-Fr 09:00-18:30","brand":"A1","brand:wikidata":"Q1941592"},"coordinates":[42.025036,23.991077]},"dist":58.722,"tags_mismatch":true},{"osm":{"type":"node","id":8273550704,"tags":{"brand":"A1","brand:wikidata":"Q1941592","opening_hours":"Mo-Fr 09:00-18:30","phone":"+359 88 220 7418","shop":"telecommunication"},"wikidata":"Q1941592","coordinates":[42.6535731,24.7563677]},"atp":{"id":"ZGpJa6DZM9MN-UCBSqeLHACmIFY=","tags":{"ref":"390","shop":"telecommunication","addr:full":"бул. \"Иван Вазов\" 38","addr:country":"BG","name":"А1 магазин Сопот, Иван Вазов 38","phone":"+359 88 220 7418","opening_hours":"Mo-Fr 09:00-18:00","brand":"A1","brand:wikidata":"Q1941592"},"coordinates":[42.653564,24.756339]},"dist":2.556,"tags_mismatch":true},{"osm":{"type":"node","id":8505008826,"tags":{"brand":"A1","brand:wikidata":"Q1941592","opening_hours":"Mo-Fr 09:00-19:30","shop":"telecommunication"},"wikidata":"Q1941592","coordinates":[43.2129761,27.9233716]},"atp":{"id":"2YivhlZQUP9XRVxLeNEjK1KmAzE=","tags":{"ref":"369","shop":"telecommunication","addr:full":"бул. Чаталджа 35","addr:country":"BG","name":"А1 магазин Варна, бул. Чаталджа 35","phone":"+359 88 220 7560","opening_hours":"Mo-Fr 09:00-19:00","brand":"A1","brand:wikidata":"Q1941592"},"coordinates":[43.212737,27.923698]},"dist":37.504,"tags_mismatch":true},{"osm":{"type":"node","id":8671003386,"tags":{"brand":"A1","brand:wikidata":"Q1941592","shop":"telecommunication"},"wikidata":"Q1941592","coordinates":[43.2093909,27.9090548]},"atp":{"id":"JGhRWFwoumlsQO-3AWCKm6bL6h8=","tags":{"ref":"93","shop":"telecommunication","addr:full":"бул. Владислав Варненчик 48","addr:country":"BG","name":"А1 магазин Варна, Вл. Варненчик 48","phone":"+359 88 220 7450","opening_hours":"Mo-Fr 09:00-19:00","brand":"A1","brand:wikidata":"Q1941592"},"coordinates":[43.209474,27.909189]},"dist":14.272,"tags_mismatch":true},{"osm":{"type":"node","id":9383218522,"tags":{"brand":"A1","brand:wikidata":"Q1941592","level":"1","opening_hours":"Mo-Su 08:00-21:00","shop":"telecommunication"},"wikidata":"Q1941592","coordinates":[42.6707574,23.2731831]},"atp":{"id":"5kFmDo1PcDQHpXvhCdd3FC0oHD0=","tags":{"ref":"328","shop":"telecommunication","addr:full":"ул. Тодор Каблешков 3, магазин Кауфланд","addr:country":"BG","name":"А1 магазин София, Бъкстон-КФ ","phone":"+359 88 220 7338","opening_hours":"Mo-Su 08:00-21:00","brand":"A1","brand:wikidata":"Q1941592"},"coordinates":[42.670649,23.273312]},"dist":16.011,"tags_mismatch":true},{"osm":{"type":"node","id":9430979805,"tags":{"brand":"A1","brand:wikidata":"Q1941592","shop":"telecommunication"},"wikidata":"Q1941592","coordinates":[42.7105828,23.2579031]},"atp":{"id":"VOJ1DMAsIrX5bA2t0T8K6ME0-Q8=","tags":{"ref":"359","shop":"telecommunication","addr:full":"ж.к. Люлин-6, бул. Д-р Петър Дертлиев 56 (Кауфланд)","addr:country":"BG","name":"А1 магазин София, Петър Дертлиев 56 КФ","phone":"+359 88 220 7385","opening_hours":"Mo-Su 08:00-21:00","brand":"A1","brand:wikidata":"Q1941592"},"coordinates":[42.709415,23.258436]},"dist":136.959,"tags_mismatch":true},{"osm":{"type":"node","id":9536841466,"tags":{"brand":"A1","brand:wikidata":"Q1941592","opening_hours":"Mo-Fr 09:00-19:00","shop":"telecommunication"},"wikidata":"Q1941592","coordinates":[42.6780849,23.285408]},"atp":{"id":"OAMO0BLbOscxpCFdkkPyIKFgkQw=","tags":{"ref":"409","shop":"telecommunication","addr:full":"жк Красно село, бул. Гоце Делчев 4","addr:country":"BG","name":"А1 магазин София, Гоце Делчев 4","phone":"+359 88 220 7344","opening_hours":"Mo-Fr 09:00-19:00","brand":"A1","brand:wikidata":"Q1941592"},"coordinates":[42.678061,23.285521]},"dist":9.612,"tags_mismatch":true},{"osm":{"type":"node","id":9558246543,"tags":{"brand":"A1","brand:wikidata":"Q1941592","check_date:opening_hours":"2023-04-20","opening_hours":"Mo-Su 08:00-21:00","shop":"telecommunication"},"wikidata":"Q1941592","coordinates":[42.1662563,24.7491141]},"atp":{"id":"vVBynfeC-obB5u-2jD9KQ-fW7iY=","tags":{"ref":"250","shop":"telecommunication","addr:full":"ул. Брезовско шосе 127, Кауфланд","addr:country":"BG","name":"А1 магазин Пловдив, Брез. шосе 127 КФ","phone":"+359 88 220 7417","opening_hours":"Mo-Su 08:00-21:00","brand":"A1","brand:wikidata":"Q1941592"},"coordinates":[42.166635,24.749139]},"dist":42.159,"tags_mismatch":true},{"osm":{"type":"node","id":9643657520,"tags":{"brand":"A1","brand:wikidata":"Q1941592","shop":"telecommunication"},"wikidata":"Q1941592","coordinates":[43.2230524,27.8725335]},"atp":{"id":"KLFliNpfTUgQeUGMuzr798HCOUQ=","tags":{"ref":"64","shop":"telecommunication","addr:full":"пл. Освобождение 5","addr:country":"BG","name":"А1 магазин Ботевград, Освобожд.","phone":"+359 88 220 7535","opening_hours":"Mo-Fr 09:00-18:30","brand":"A1","brand:wikidata":"Q1941592"},"coordinates":[42.907403,23.79291]},"tags_mismatch":true},{"osm":{"type":"node","id":9724588914,"tags":{"brand":"A1","brand:wikidata":"Q1941592","shop":"telecommunication"},"wikidata":"Q1941592","coordinates":[43.1809661,27.4430837]},"atp":{"id":"aLNAiiKqFAUaSxIlbqNFcmiN3r8=","tags":{"ref":"337","shop":"telecommunication","addr:full":"ул. Хаджи Димитър 11","addr:country":"BG","name":"А1 магазин Бяла, Хаджи Димитър 11","phone":"+359 88 220 7497","opening_hours":"Mo-Fr 09:00-18:00","brand":"A1","brand:wikidata":"Q1941592"},"coordinates":[43.4588257,25.7359832]},"tags_mismatch":true},{"osm":{"type":"node","id":9836177566,"tags":{"brand":"A1","brand:wikidata":"Q1941592","check_date":"2022-12-23","internet_access":"wlan","internet_access:fee":"no","level":"0","payment:mastercard":"yes","payment:visa":"yes","shop":"telecommunication","website":"https://a1.bg","wheelchair":"yes"},"wikidata":"Q1941592","coordinates":[42.8102792,23.2172023]},"atp":{"id":"wVeDoWxQDBQCxKqvxi9YtmQ0Rp4=","tags":{"ref":"229","shop":"telecommunication","addr:full":"Ъгълът на ул. Александровска и ул. Георги Кирков","addr:country":"BG","name":"А1 магазин Бургас, Александровска","phone":"+359 88 220 7471","opening_hours":"Mo-Fr 09:00-19:00","brand":"A1","brand:wikidata":"Q1941592"},"coordinates":[42.4948198788,27.4719610613]},"tags_mismatch":true},{"osm":{"type":"node","id":9842145917,"tags":{"addr:city":"Благоевград","addr:housenumber":"3","addr:postcode":"2700","addr:street":"Тодор Александров","brand":"A1","brand:wikidata":"Q1941592","opening_hours":"Mo-Fr 09:00-19:30","phone":"+359 88 220 7522","shop":"telecommunication"},"wikidata":"Q1941592","coordinates":[42.0201739,23.1003273]},"atp":{"id":"G2u5kMRpLaYAx1oH-wVP_K2iLRM=","tags":{"ref":"54","shop":"telecommunication","addr:full":"ж.к. Меден Рудник зона А бл.436","addr:country":"BG","name":"А1 магазин Бургас, М. Рудник 436","phone":"+359 88 220 7427","opening_hours":"Mo-Fr 09:00-19:00","brand":"A1","brand:wikidata":"Q1941592"},"coordinates":[42.461279,27.417954]},"tags_mismatch":true},{"osm":{"type":"node","id":9984561892,"tags":{"brand":"A1","brand:wikidata":"Q1941592","shop":"telecommunication"},"wikidata":"Q1941592","coordinates":[42.6185886,25.3938957]},"atp":{"id":"Vct8t1Z6fRkIX1bU-MA4uEmX3Cg=","tags":{"ref":"52","shop":"telecommunication","addr:full":"ж.к. Славейков, бул.Тракия 125","addr:country":"BG","name":"А1 магазин Бургас, Тракия 125","phone":"+359 88 220 7421","opening_hours":"Mo-Fr 09:00-19:00","brand":"A1","brand:wikidata":"Q1941592"},"coordinates":[42.519934,27.451553]},"tags_mismatch":true},{"osm":{"type":"node","id":10096784557,"tags":{"brand":"A1","brand:wikidata":"Q1941592","shop":"telecommunication"},"wikidata":"Q1941592","coordinates":[43.2088489,27.9042274]},"atp":{"id":"iisWXevl_ghbArehzcUYWnmNPNo=","tags":{"ref":"370","shop":"telecommunication","addr:full":"Варна, ул. Дрин 53","addr:country":"BG","name":"А1 магазин Варна, ул. Дрин 53","phone":"+359 88 220 7561","opening_hours":"Mo-Fr 09:00-19:00","brand":"A1","brand:wikidata":"Q1941592"},"coordinates":[43.208882,27.903885]},"dist":27.993,"tags_mismatch":true},{"osm":{"type":"node","id":10157390135,"tags":{"brand":"A1","brand:wikidata":"Q1941592","check_date":"2022-11-04","shop":"telecommunication"},"wikidata":"Q1941592","coordinates":[42.495767,27.471387]},"atp":{"id":"Bc66JVsAxtYDPM1sMzBuR-Lqfxw=","tags":{"ref":"325","shop":"telecommunication","addr:full":"МОЛ Галерия - ул. „Янко Комитов” 6","addr:country":"BG","name":"А1 магазин Бургас, МОЛ Галерия ","phone":"+359 88 220 7419","opening_hours":"Mo-Su 10:00-22:00","brand":"A1","brand:wikidata":"Q1941592"},"coordinates":[42.512782,27.454378]},"tags_mismatch":true},{"osm":{"type":"node","id":10219920342,"tags":{"brand":"A1","brand:wikidata":"Q1941592","check_date":"2022-11-26","opening_hours":"Mo-Fr 09:00-19:00","payment:mastercard":"yes","payment:visa":"yes","shop":"telecommunication","website":"https://a1.bg","wheelchair":"no"},"wikidata":"Q1941592","coordinates":[42.6534183,23.3424653]},"atp":{"id":"g4BLxX94_w5DxDcN1_bmqrYmUhQ=","tags":{"ref":"48","shop":"telecommunication","addr:full":"ул. \"Академик Борис Стефанов\" №2","addr:country":"BG","name":"А1 магазин София, Акад. Б. Стефанов 2 ","phone":"+359 88 220 7325","opening_hours":"Mo-Fr 09:00-19:00","brand":"A1","brand:wikidata":"Q1941592"},"coordinates":[42.653444,23.342492]},"dist":3.596,"tags_mismatch":true},{"osm":{"type":"node","id":10249381512,"tags":{"brand":"A1","brand:wikidata":"Q1941592","level":"0","shop":"telecommunication"},"wikidata":"Q1941592","coordinates":[42.660502,23.3830018]},"atp":{"id":"_qjHibjBC6JaUa4kCmmzT3uGx9E=","tags":{"ref":"329","shop":"telecommunication","addr:full":"The Mall, бул. Цариградско Шосе 115","addr:country":"BG","name":"А1 магазин София, МОЛ Царигр. Шосе","phone":"+359 88 220 7343","opening_hours":"Mo-Su 10:00-22:00","brand":"A1","brand:wikidata":"Q1941592"},"coordinates":[42.660612,23.382314]},"dist":57.557,"tags_mismatch":true},{"osm":{"type":"node","id":10651054902,"tags":{"brand":"A1","brand:wikidata":"Q1941592","shop":"telecommunication"},"wikidata":"Q1941592","coordinates":[42.5033517,24.7035431]},"atp":{"id":"sk7vd2NAJKl5YMwYELUPQEcvhL4=","tags":{"ref":"58","shop":"telecommunication","addr:full":"ул. Иван Вазов 40","addr:country":"BG","name":"А1 магазин Хисаря, Иван Вазов 40","phone":"+359 88 220 7620","opening_hours":"Mo-Fr 09:00-18:00","brand":"A1","brand:wikidata":"Q1941592"},"coordinates":[42.50341,24.703214]},"dist":27.747,"tags_mismatch":true},{"osm":{"type":"node","id":10678506660,"tags":{"brand":"A1","brand:wikidata":"Q1941592","shop":"telecommunication"},"wikidata":"Q1941592","coordinates":[42.4250433,25.629853]},"atp":{"id":"N6_HUcxWNJuMA-PybyIw7cVqP8A=","tags":{"ref":"123","shop":"telecommunication","addr:full":"бул. Цар Симеон Велики 105","addr:country":"BG","name":"А1 магазин Ст. Загора, С. Велики 105 ","phone":"+359 88 220 7395","opening_hours":"Mo-Fr 09:00-19:00","brand":"A1","brand:wikidata":"Q1941592"},"coordinates":[42.424207,25.625026]},"dist":406.968,"tags_mismatch":true},{"osm":{"type":"node","id":10903798051,"tags":{"brand":"A1","brand:wikidata":"Q1941592","shop":"telecommunication"},"wikidata":"Q1941592","coordinates":[42.7034467,27.2541538]},"atp":{"id":"3aTYaFl1XKVi6tdTebZeKuSz5AI=","tags":{"ref":"219","shop":"telecommunication","addr:full":"ул. Транспортна, ТК Карфур, МОЛ Бургас Плаза","addr:country":"BG","name":"А1 магазин Бургас, МОЛ Бургас Плаза","phone":"+359 88 220 7470","opening_hours":"Mo-Su 10:00-20:00","brand":"A1","brand:wikidata":"Q1941592"},"coordinates":[42.530607,27.457723]},"tags_mismatch":true},{"osm":{"type":"node","id":11235788037,"tags":{"brand":"A1","brand:wikidata":"Q1941592","shop":"telecommunication"},"wikidata":"Q1941592","coordinates":[43.1403465,24.7185418]},"atp":{"id":"52D7VZAqFqf75woO79g09bq4B5U=","tags":{"ref":"81","shop":"telecommunication","addr:full":"ул. Търговска 52","addr:country":"BG","name":"А1 магазин Ловеч, Търговска 52","phone":"+359 88 220 7486","opening_hours":"Mo-Fr 09:00-19:00","brand":"A1","brand:wikidata":"Q1941592"},"coordinates":[43.140496,24.718556]},"dist":16.664,"tags_mismatch":true},{"osm":{"type":"node","id":11325714827,"tags":{"brand":"A1","brand:wikidata":"Q1941592","check_date":"2021-04-17","shop":"telecommunication"},"wikidata":"Q1941592","coordinates":[43.2507682,26.5713962]},"atp":{"id":"aKZSHCG-2eCpVsS6qV5E0I3rL28=","tags":{"ref":"178","shop":"telecommunication","addr:full":"ул. Хан Аспарух 36","addr:country":"BG","name":"А1 магазин Царево, Хан Аспарух 36","phone":"+359 88 220 7440","opening_hours":"Mo-Fr 09:00-18:30","brand":"A1","brand:wikidata":"Q1941592"},"coordinates":[42.170178,27.849579]},"tags_mismatch":true},{"osm":{"type":"node","id":11550146969,"tags":{"brand":"A1","brand:wikidata":"Q1941592","level":"0","opening_hours":"Mo-Su 10:00-22:00","shop":"telecommunication"},"wikidata":"Q1941592","coordinates":[42.6572096,23.3137071]},"atp":{"id":"e2rd-qwboyfEauvjHl4CMYbTTFI=","tags":{"ref":"320","shop":"telecommunication","addr:full":"бул. Черни връх №100","addr:country":"BG","name":"А1 магазин София, МОЛ Парадайз","phone":"+359 88 220 7341","opening_hours":"Mo-Su 10:00-22:00","brand":"A1","brand:wikidata":"Q1941592"},"coordinates":[42.657754,23.315975]},"dist":195.086,"tags_mismatch":true},{"osm":{"type":"node","id":11598742655,"tags":{"brand":"A1","brand:wikidata":"Q1941592","level":"0","shop":"telecommunication"},"wikidata":"Q1941592","coordinates":[42.6645024,23.2885649]},"atp":{"id":"WHJWJUbIFnAIfOouGwho9TTAwok=","tags":{"ref":"279","shop":"telecommunication","addr:full":"бул. България 69","addr:country":"BG","name":"А1 магазин София, МОЛ България","phone":"+359 88 220 7340","opening_hours":"Mo-Su 10:00-21:00","brand":"A1","brand:wikidata":"Q1941592"},"coordinates":[42.664088,23.288653]},"dist":46.639,"tags_mismatch":true},{"osm":{"type":"node","id":11685158002,"tags":{"brand":"A1","brand:wikidata":"Q1941592","level":"0","shop":"telecommunication"},"wikidata":"Q1941592","coordinates":[42.6981817,23.3091761]},"atp":{"id":"5RAnagNZmf6W6tqj-m7_3CjzWqo=","tags":{"ref":"159","shop":"telecommunication","addr:full":"бул.\"Ал. Стамболийски\" №101","addr:country":"BG","name":"А1 магазин София, МОЛ София","phone":"+359 88 220 7315","opening_hours":"Mo-Su 10:00-21:00","brand":"A1","brand:wikidata":"Q1941592"},"coordinates":[42.698209,23.308497]},"dist":55.58,"tags_mismatch":true},{"osm":{"type":"node","id":11816590582,"tags":{"brand":"A1","brand:wikidata":"Q1941592","shop":"telecommunication"},"wikidata":"Q1941592","coordinates":[42.74151,23.2768036]},"atp":{"id":"CtljxGmk00YdC5j1RNeE_Ka7w38=","tags":{"ref":"198","shop":"telecommunication","addr:full":"София, жк. Обеля, ул. Дмитрий Лихачов 58А","addr:country":"BG","name":"А1 магазин София, Обеля Лихачов","phone":"35988220735","opening_hours":"Mo-Fr 09:00-19:00","brand":"A1","brand:wikidata":"Q1941592"},"coordinates":[42.742518,23.276889]},"dist":112.301,"tags_mismatch":true},{"osm":{"type":"node","id":11938894754,"tags":{"brand":"A1","brand:wikidata":"Q1941592","level":"-1","shop":"telecommunication"},"wikidata":"Q1941592","coordinates":[42.7000616,23.3216317]},"atp":{"id":"gI8slLmHnymDfwB0T97y0udmhjY=","tags":{"ref":"127","shop":"telecommunication","addr:full":"ул. \"Васил Априлов\" 3","addr:country":"BG","name":"А1 магазин Червен Бряг, В. Априлов 3","phone":"+359 88 220 7495","opening_hours":"Mo-Fr 09:00-18:00","brand":"A1","brand:wikidata":"Q1941592"},"coordinates":[43.281374,24.082084]},"tags_mismatch":true},{"osm":{"type":"node","id":11961111293,"tags":{"brand":"A1","brand:wikidata":"Q1941592","opening_hours":"Mo-Fr 09:00-18:00","shop":"telecommunication"},"wikidata":"Q1941592","coordinates":[43.2061686,24.163676]},"atp":{"id":"kkZEd4JyYdsThVpm1XXR_Cg4uHY=","tags":{"ref":"389","shop":"telecommunication","addr:full":"ул. \"Възраждане\" 60","addr:country":"BG","name":"А1 магазин Луковит, Възраждане 60","phone":"+359 88 220 7519","opening_hours":"Mo-Fr 09:00-18:00","brand":"A1","brand:wikidata":"Q1941592"},"coordinates":[43.208247,24.162816]},"dist":241.39,"tags_mismatch":true},{"osm":{"type":"node","id":11969198198,"tags":{"brand":"A1","brand:wikidata":"Q1941592","shop":"telecommunication"},"wikidata":"Q1941592","coordinates":[42.907328,23.7928787]},"atp":{"id":"sfVC3ACFaR8hCLpUAzv0BBZ-c7M=","tags":{"ref":"356","shop":"telecommunication","addr:full":"Чирпан, 6200, бул.Георги Димитров 24","addr:country":"BG","name":"А1 магазин Чирпан, Г. Димитров 24 (Реновация от 07.08.2024 г. - 02.09.2024 г.)","phone":"+359 88 220 7401","opening_hours":"Mo-Fr 09:00-18:00","brand":"A1","brand:wikidata":"Q1941592"},"coordinates":[42.19842,25.325423]},"tags_mismatch":true},{"osm":{"type":"way","id":1152362306,"tags":{"brand":"A1","brand:wikidata":"Q1941592","check_date":"2023-03-16","internet_access":"no","level":"1","opening_hours":"10:00-22:00","payment:mastercard":"yes","payment:visa":"yes","shop":"telecommunication","wheelchair":"yes"},"wikidata":"Q1941592","coordinates":[42.6240213,23.3522398]},"atp":{"id":"Rn9QjBUCgM7hXzYsP4tuqjULQ3c=","tags":{"ref":"331","shop":"telecommunication","addr:full":"ул. Околовръстен път N214","addr:country":"BG","name":"А1 магазин София, МОЛ Ринг МОЛ","phone":"+359 88 220 7305","opening_hours":"Mo-Su 10:00-22:00","brand":"A1","brand:wikidata":"Q1941592"},"coordinates":[42.624529,23.352217]},"dist":56.484,"tags_mismatch":true},{"osm":{"type":"way","id":1162417380,"tags":{"brand":"A1","brand:wikidata":"Q1941592","building":"yes","shop":"telecommunication"},"wikidata":"Q1941592","coordinates":[42.2642207,23.1140961]},"atp":{"id":"q_FCZ_rFJE70i7f54nJTdzRM1rg=","tags":{"ref":"365","shop":"telecommunication","addr:full":"адрес: ул. Освобождение 23","addr:country":"BG","name":"А1 магазин Девин, Освобождение 23 ","phone":"+359 88 220 7363","opening_hours":"Mo-Fr 09:00-18:00","brand":"A1","brand:wikidata":"Q1941592"},"coordinates":[41.7438,24.3958113]},"tags_mismatch":true},{"osm":false,"atp":{"id":"Y9Liqm-4wbNLSlYBZY8-0JtqSfI=","tags":{"ref":"45","shop":"telecommunication","addr:full":"бул. България 7","addr:country":"BG","name":"А1 магазин Димитровград, България 7","phone":"+359 88 220 7388","opening_hours":"Mo-Fr 09:00-18:30","brand":"A1","brand:wikidata":"Q1941592"},"coordinates":[42.059955,25.592549]},"tags_mismatch":false,"dist":0},{"osm":false,"atp":{"id":"q7WO5gKTH0MFE6MHz82b72Yve0Y=","tags":{"ref":"362","shop":"telecommunication","addr:full":"Магазинът ще бъде в реновация от 08.08.2024 г. до 15.08.2024 г., ул. Ромен Ролан 7, Кауфланд","addr:country":"BG","name":"А1 магазин Димитровград, Р. Ролан 7 КФ","phone":"+359 88 220 7416","opening_hours":"Mo-Su 08:00-20:00","brand":"A1","brand:wikidata":"Q1941592"},"coordinates":[42.059076,25.587451]},"tags_mismatch":false,"dist":0},{"osm":false,"atp":{"id":"1X05Y6Fp2c29dDLAhNnBxK1edS0=","tags":{"ref":"67","shop":"telecommunication","addr:full":"ул. Лоза 1","addr:country":"BG","name":"А1 магазин Дупница, Лоза 1 ","phone":"+359 88 220 7524","opening_hours":"Mo-Fr 09:00-19:00","brand":"A1","brand:wikidata":"Q1941592"},"coordinates":[42.2624626,23.1065645]},"tags_mismatch":false,"dist":0},{"osm":false,"atp":{"id":"8agiz_hx-_lQVeDw47-Gd99VlN8=","tags":{"ref":"391","shop":"telecommunication","addr:full":"ул. Търговска 25","addr:country":"BG","name":"А1 магазин Елхово, Търговска 25","phone":"+359 88 220 7428","opening_hours":"Mo-Fr 09:00-18:00","brand":"A1","brand:wikidata":"Q1941592"},"coordinates":[42.171986,26.567263]},"tags_mismatch":false,"dist":0},{"osm":false,"atp":{"id":"uHYdDEtyQQVFH9Vr5c4SthUy-4w=","tags":{"ref":"385","shop":"telecommunication","addr:full":"гр.Елин Пелин, ул. София 9","addr:country":"BG","name":"А1 магазин Елин Пелин, София 9 ","phone":"+359 88 220 7660","opening_hours":"Mo-Fr 09:00-18:30","brand":"A1","brand:wikidata":"Q1941592"},"coordinates":[42.671171,23.598566]},"tags_mismatch":false,"dist":0},{"osm":false,"atp":{"id":"bSJIv_le9z2yzs76A2-Cj-MNdQM=","tags":{"ref":"382","shop":"telecommunication","addr:full":"бул. Руски 92","addr:country":"BG","name":"А1 магазин Етрополе, Руски 92 ","phone":"+359 88 220 7567","opening_hours":"Mo-Fr 09:00-18:00","brand":"A1","brand:wikidata":"Q1941592"},"coordinates":[42.834039,23.997617]},"tags_mismatch":false,"dist":0},{"osm":false,"atp":{"id":"htutywQ__DxJ3BhM-T8T5YVpj9A=","tags":{"ref":"82","shop":"telecommunication","addr:full":"ул. \"Елена Грънчарова\" №6","addr:country":"BG","name":"А1 магазин Г. Оряховица, Грънчарова","phone":"+359 88 220 7483","opening_hours":"Mo-Fr 09:00-19:00","brand":"A1","brand:wikidata":"Q1941592"},"coordinates":[43.122832,25.691694]},"tags_mismatch":false,"dist":0},{"osm":false,"atp":{"id":"wBPvFhtpc_3schTmoJ8DBcAyRRM=","tags":{"ref":"352","shop":"telecommunication","addr:full":"ул. Мано Тодоров 7А (Кауфланд)","addr:country":"BG","name":"А1 магазин Г. Оряховица, Мано Тодоров КФ","phone":"+359 88 220 7517","opening_hours":"Mo-Su 08:00-20:00","brand":"A1","brand:wikidata":"Q1941592"},"coordinates":[43.12262,25.68356]},"tags_mismatch":false,"dist":0},{"osm":false,"atp":{"id":"_FNw1WgycZOFWYG425Opg3ESngM=","tags":{"ref":"381","shop":"telecommunication","addr:full":"ул. Солун 18","addr:country":"BG","name":"А1 магазин Гоце Делчев, Солун 18","phone":"+359 88 220 7523","opening_hours":"Mo-Fr 09:00-18:30","brand":"A1","brand:wikidata":"Q1941592"},"coordinates":[41.5715409,23.7271269]},"tags_mismatch":false,"dist":0},{"osm":false,"atp":{"id":"nmYs2DeERGgEAhNcP82g5hnxShw=","tags":{"ref":"47","shop":"telecommunication","addr:full":"бул. България 1","addr:country":"BG","name":"А1 магазин Харманли, България 1","phone":"+359 88 220 7398","opening_hours":"Mo-Fr 09:00-18:00","brand":"A1","brand:wikidata":"Q1941592"},"coordinates":[41.930609,25.903052]},"tags_mismatch":false,"dist":0},{"osm":false,"atp":{"id":"tEQ9BVDQfKUDYbO2DEOQ0ftsZhY=","tags":{"ref":"416","shop":"telecommunication","addr:full":"Хасково, ул. Отец Паисий 23","addr:country":"BG","name":"А1 магазин Отец Паисий 23","opening_hours":"Mo-Fr 09:00-19:00","brand":"A1","brand:wikidata":"Q1941592"},"coordinates":[41.9317845,25.5525284]},"tags_mismatch":false,"dist":0},{"osm":false,"atp":{"id":"XSl9ZGW47zFaa0HBpmc4GwxRxmM=","tags":{"ref":"273","shop":"telecommunication","addr:full":"бул. Съединение 44 (Кауфланд)","addr:country":"BG","name":"А1 магазин Хасково, Съединение 44 КФ","phone":"+359 88 220 7415","opening_hours":"Mo-Sa 08:00-20:30; Su 09:00-20:00","brand":"A1","brand:wikidata":"Q1941592"},"coordinates":[41.93163,25.566882]},"tags_mismatch":false,"dist":0},{"osm":false,"atp":{"id":"owLaE-vsMDUZTT6IWI7moehtdpk=","tags":{"ref":"397","shop":"telecommunication","addr:full":"ул. Цар Освободител 137","addr:country":"BG","name":"А1 магазин Ихтиман, Цар Освободител ","phone":"+359 88 220 7571","opening_hours":"Mo-Fr 09:00-18:00","brand":"A1","brand:wikidata":"Q1941592"},"coordinates":[42.437484,23.816704]},"tags_mismatch":false,"dist":0},{"osm":false,"atp":{"id":"f3FjCpEAdyapZDXzQb3LZoQQdOc=","tags":{"ref":"128","shop":"telecommunication","addr:full":"ул. Васил Левски 63","addr:country":"BG","name":"А1 магазин Исперих, В. Левски 63","phone":"+359 88 220 7498","opening_hours":"Mo-Fr 09:00-18:00","brand":"A1","brand:wikidata":"Q1941592"},"coordinates":[43.721048,26.831699]},"tags_mismatch":false,"dist":0},{"osm":false,"atp":{"id":"hc8g2kaSL6bUur1r3bwXvSP9GXY=","tags":{"ref":"39","shop":"telecommunication","addr:full":"ул. Петко Събев 4","addr:country":"BG","name":"А1 магазин Карлово, Петко Събев 4","phone":"+359 88 220 7365","opening_hours":"Mo-Fr 09:00-19:00","brand":"A1","brand:wikidata":"Q1941592"},"coordinates":[42.643297,24.804577]},"tags_mismatch":false,"dist":0},{"osm":false,"atp":{"id":"pyl8_b2rkimQ4SpOB1HcXqHLkZE=","tags":{"ref":"327","shop":"telecommunication","addr:full":"ул.България №6","addr:country":"BG","name":"А1 магазин Карнобат, България 6","phone":"+359 88 220 7429","opening_hours":"Mo-Fr 09:00-18:30","brand":"A1","brand:wikidata":"Q1941592"},"coordinates":[42.650033,26.984826]},"tags_mismatch":false,"dist":0},{"osm":false,"atp":{"id":"n14J86xABip7KhmJ2lIrPSJz1q0=","tags":{"ref":"129","shop":"telecommunication","addr:full":"ул. България 59","addr:country":"BG","name":"А1 магазин Каварна, България 59","phone":"+359 88 220 7457","opening_hours":"Mo-Fr 09:00-18:30","brand":"A1","brand:wikidata":"Q1941592"},"coordinates":[43.436046,28.337776]},"tags_mismatch":false,"dist":0},{"osm":false,"atp":{"id":"-kdUX66iyvh_mPQJtLpx6pcq6bU=","tags":{"ref":"344","shop":"telecommunication","addr:full":"ул. Александър Батенберг 1","addr:country":"BG","name":"А1 магазин Казанлък, Батенберг 1","phone":"+359 88 220 7389","opening_hours":"Mo-Fr 09:00-19:00","brand":"A1","brand:wikidata":"Q1941592"},"coordinates":[42.617469,25.410332]},"tags_mismatch":false,"dist":0},{"osm":false,"atp":{"id":"mE6_XVrdL1oNFWwXXQiAe1CFb34=","tags":{"ref":"395","shop":"telecommunication","addr:full":"ул. Марин Боев 67","addr:country":"BG","name":"А1 магазин Кнежа, Марин Боев 67","phone":"+359 88 220 7330","opening_hours":"Mo-Fr 09:00-18:00","brand":"A1","brand:wikidata":"Q1941592"},"coordinates":[43.495121,24.079648]},"tags_mismatch":false,"dist":0},{"osm":false,"atp":{"id":"iF815aPtfWR_fna4UkyVd4ECLww=","tags":{"ref":"408","shop":"telecommunication","addr:full":"ул.Търговска 1","addr:country":"BG","name":"А1 магазин Костенец, Търговска 1","phone":"+359 88 220 7592","opening_hours":"Mo-Fr 09:00-18:00","brand":"A1","brand:wikidata":"Q1941592"},"coordinates":[42.308324,23.858338]},"tags_mismatch":false,"dist":0},{"osm":false,"atp":{"id":"eqo_jFyRy3yUMmThs9D2pftzgR0=","tags":{"ref":"417","shop":"telecommunication","addr:full":"ул. Ломско шосе 26","addr:country":"BG","name":"А1 магазин Костинброд, Ломско шосе 26","phone":"+359 88 220 7594","opening_hours":"Mo-Fr 09:00-18:00","brand":"A1","brand:wikidata":"Q1941592"},"coordinates":[42.7405164,23.2872923]},"tags_mismatch":false,"dist":0},{"osm":false,"atp":{"id":"LeqVYup1gcfNJT60FVkvr4QWg-0=","tags":{"ref":"366","shop":"telecommunication","addr:full":"Козлодуй, 3320, ул. Христо Ботев 15","addr:country":"BG","name":"А1 магазин Козлодуй, Хр. Ботев 15 ","phone":"+359 88 220 7540","opening_hours":"Mo-Fr 09:00-18:30","brand":"A1","brand:wikidata":"Q1941592"},"coordinates":[43.77848,23.727196]},"tags_mismatch":false,"dist":0},{"osm":false,"atp":{"id":"svthTUGPi3Tnsy_aQKXNJo0I-pA=","tags":{"ref":"185","shop":"telecommunication","addr:full":"пл.България 13","addr:country":"BG","name":"А1 магазин Крумовград, България 13","phone":"+359 88 220 7366","opening_hours":"Mo-Fr 09:00-18:00","brand":"A1","brand:wikidata":"Q1941592"},"coordinates":[41.470993,25.653159]},"tags_mismatch":false,"dist":0},{"osm":false,"atp":{"id":"3mLtAUxG_7cue1lWyOO7ofRu13o=","tags":{"ref":"405","shop":"telecommunication","addr:full":"ул. Цар Освободител 4","addr:country":"BG","name":"А1 магазин Кубрат, Цар Освободител 4","opening_hours":"Mo-Fr 09:00-18:00","brand":"A1","brand:wikidata":"Q1941592"},"coordinates":[43.797133,26.499085]},"tags_mismatch":false,"dist":0},{"osm":false,"atp":{"id":"G2fwqaDLOHSuUbRalZ9Zq5OJvRs=","tags":{"ref":"68","shop":"telecommunication","addr:full":"ул. \"Демокрация\" 37","addr:country":"BG","name":"А1 магазин Кюстендил, Демокрация 37","phone":"+359 88 220 7526","opening_hours":"Mo-Fr 09:00-19:00","brand":"A1","brand:wikidata":"Q1941592"},"coordinates":[42.280246,22.688807]},"tags_mismatch":false,"dist":0},{"osm":false,"atp":{"id":"ZnXnJYcNfPCwM3yiFxytYSzOLcI=","tags":{"ref":"192","shop":"telecommunication","addr:full":"ул. Александър Стамболийски 47, Магазинът ще бъде в реновация от 05.06.2024 г. до 27.06.2024 г.","addr:country":"BG","name":"А1 магазин Левски, Стамболийски 47","phone":"+359 88 220 7485","opening_hours":"Mo-Fr 09:00-18:00","brand":"A1","brand:wikidata":"Q1941592"},"coordinates":[43.360413,25.142463]},"tags_mismatch":false,"dist":0},{"osm":false,"atp":{"id":"xUqjZqZpYJXYhPIQsWm-NztRIH8=","tags":{"ref":"413","shop":"telecommunication","addr:full":"ул. Славянска 2","addr:country":"BG","name":"А1 магазин Лом, Славянска 2","phone":"+359 88 220 7541","opening_hours":"Mo-Fr 09:00-19:00","brand":"A1","brand:wikidata":"Q1941592"},"coordinates":[43.819871,23.23829]},"tags_mismatch":false,"dist":0},{"osm":false,"atp":{"id":"0UgdlnOKtIjsemFtZH5DNJb4Pfc=","tags":{"ref":"401","shop":"telecommunication","addr:full":"ул. Ивайловградска 2, м-н №4","addr:country":"BG","name":"А1 магазин Любимец, Ивайловградска 2","phone":"+359 88 220 7350","opening_hours":"Mo-Fr 09:00-18:00","brand":"A1","brand:wikidata":"Q1941592"},"coordinates":[41.844272,26.080544]},"tags_mismatch":false,"dist":0},{"osm":false,"atp":{"id":"AiMdLvuCkwFnf0aYxp9mnT9k9d4=","tags":{"ref":"339","shop":"telecommunication","addr:full":"ул. „Ленински проспект“ 7","addr:country":"BG","name":"А1 магазин Перник, Ленински пр-кт7 ","phone":"+359 88 220 7529","opening_hours":"Mo-Fr 09:00-19:00","brand":"A1","brand:wikidata":"Q1941592"},"coordinates":[42.606874,23.102855]},"tags_mismatch":false,"dist":0},{"osm":false,"atp":{"id":"cm3Eyco2tQhHm20La77i0s4dP1k=","tags":{"ref":"218","shop":"telecommunication","addr:full":"ул. Перушица 8","addr:country":"BG","name":"А1 магазин МОЛ Пловдив","phone":"+359 88 220 7406","opening_hours":"Mo-Su 10:00-21:00","brand":"A1","brand:wikidata":"Q1941592"},"coordinates":[42.141952,24.719215]},"tags_mismatch":false,"dist":0},{"osm":false,"atp":{"id":"Spu36wmnAakaEWtAU9-rvUF2pfk=","tags":{"ref":"142","shop":"telecommunication","addr:full":"ул. Хр.Ботев 29","addr:country":"BG","name":"А1 магазин Мездра, Хр. Ботев 29","phone":"+359 88 220 7542","opening_hours":"Mo-Fr 09:00-18:00","brand":"A1","brand:wikidata":"Q1941592"},"coordinates":[43.142532,23.713632]},"tags_mismatch":false,"dist":0},{"osm":false,"atp":{"id":"iSPOagXpJi0txJHg0F_imFGDSbY=","tags":{"ref":"143","shop":"telecommunication","addr:full":"ул. Гюмюрджинска 43","addr:country":"BG","name":"А1 магазин Момчилград, Гюмюрдж.","phone":"+359 88 220 7391","opening_hours":"Mo-Fr 09:00-18:00","brand":"A1","brand:wikidata":"Q1941592"},"coordinates":[41.528643,25.407277]},"tags_mismatch":false,"dist":0},{"osm":false,"atp":{"id":"t50ZorCxiNhZjCGUAqkGgVNANo4=","tags":{"ref":"353","shop":"telecommunication","addr:full":"бул. 3-ти Март 139А (Кауфланд)","addr:country":"BG","name":"А1 магазин Монтана, 3-ти март 139А КФ","phone":"+359 88 220 7548","opening_hours":"Mo-Su 08:00-20:00","brand":"A1","brand:wikidata":"Q1941592"},"coordinates":[43.421686,23.227082]},"tags_mismatch":false,"dist":0},{"osm":false,"atp":{"id":"G0L2p7NgmXpgzvX0zfsQHhmkVyM=","tags":{"ref":"101","shop":"telecommunication","addr:full":"ул.\"3-ти март\" 88","addr:country":"BG","name":"А1 магазин Монтана, 3-ти март 88","phone":"+359 88 220 7552","opening_hours":"Mo-Fr 09:00-19:00","brand":"A1","brand:wikidata":"Q1941592"},"coordinates":[43.4053,23.2238]},"tags_mismatch":false,"dist":0},{"osm":false,"atp":{"id":"cdq4fQJg5jQwqesu4DIWQ6iASM8=","tags":{"ref":"396","shop":"telecommunication","addr:full":"ул. Васил Левски 34","addr:country":"BG","name":"А1 магазин Нова Загора, В. Левски","phone":"+359 88 220 7392","opening_hours":"Mo-Fr 09:00-18:30","brand":"A1","brand:wikidata":"Q1941592"},"coordinates":[42.49547,26.011797]},"tags_mismatch":false,"dist":0},{"osm":false,"atp":{"id":"tb5AAAUfZiT5fhBuLlbgBbbV3JE=","tags":{"ref":"399","shop":"telecommunication","addr:full":"ул. Търговска 1","addr:country":"BG","name":"А1 магазин Нови Искър, Търговска 1","phone":"+359 88 220 7593","opening_hours":"Mo-Fr 09:00-18:00","brand":"A1","brand:wikidata":"Q1941592"},"coordinates":[42.821062,23.354255]},"tags_mismatch":false,"dist":0},{"osm":false,"atp":{"id":"pRJWHZNsW6lK7P7nmdMpWNN4Yso=","tags":{"ref":"384","shop":"telecommunication","addr:full":"ул. Цар Освободител 16","addr:country":"BG","name":"А1 магазин Нови Пазар, Цар Осв. 16 ","phone":"+359 88 220 7572","opening_hours":"Mo-Fr 09:00-18:00","brand":"A1","brand:wikidata":"Q1941592"},"coordinates":[43.343833,27.191841]},"tags_mismatch":false,"dist":0},{"osm":false,"atp":{"id":"ApRw_bwyKyfbxoOufgBcZL819E4=","tags":{"ref":"426","shop":"telecommunication","addr:full":"ул. Георги Бенковски 5","addr:country":"BG","name":"А1 магазин Панагюрище, Георги Бенковски 5","phone":"+359 88 220 7369","opening_hours":"Mo-Fr 09:00-18:30","brand":"A1","brand:wikidata":"Q1941592"},"coordinates":[42.50292,24.18839]},"tags_mismatch":false,"dist":0},{"osm":false,"atp":{"id":"NC3zhe1dMQCTF_qHLMe5ck8WtFs=","tags":{"ref":"40","shop":"telecommunication","addr:full":"ул. Орфей 12А","addr:country":"BG","name":"А1 магазин Първомай, Орфей 12А","phone":"+359 88 220 7381","opening_hours":"Mo-Fr 09:00-18:30","brand":"A1","brand:wikidata":"Q1941592"},"coordinates":[42.097919,25.225508]},"tags_mismatch":false,"dist":0},{"osm":false,"atp":{"id":"hFw6g6nyVXu0GRR3_mqNhjYDAnk=","tags":{"ref":"106","shop":"telecommunication","addr:full":"ул.\"Свобода\" 1","addr:country":"BG","name":"А1 магазин Павликени, Свобода 1","phone":"+359 88 220 7487","opening_hours":"Mo-Fr 09:00-18:30","brand":"A1","brand:wikidata":"Q1941592"},"coordinates":[43.238733,25.306592]},"tags_mismatch":false,"dist":0},{"osm":false,"atp":{"id":"9FDFSDSnliAGptAVISykZ5v1OYk=","tags":{"ref":"27","shop":"telecommunication","addr:full":"ул.\"Търговска\" 2","addr:country":"BG","name":"А1 магазин Пазарджик, Търговска 2","phone":"+359 88 220 7368","opening_hours":"Mo-Fr 09:00-19:00","brand":"A1","brand:wikidata":"Q1941592"},"coordinates":[42.193315,24.332702]},"tags_mismatch":false,"dist":0},{"osm":false,"atp":{"id":"1ICrkYxa5UFzrZsk3fitB5aEvOE=","tags":{"ref":"69","shop":"telecommunication","addr:full":"ул. Търговска 13","addr:country":"BG","name":"А1 магазин Перник, Търговска 13","phone":"+359 88 220 7528","opening_hours":"Mo-Fr 09:00-19:00","brand":"A1","brand:wikidata":"Q1941592"},"coordinates":[42.60381,23.030499]},"tags_mismatch":false,"dist":0},{"osm":false,"atp":{"id":"0OwWHlc1lZD9vi-WRQdqknGlmmU=","tags":{"ref":"42","shop":"telecommunication","addr:full":"пл. България, Търговски център","addr:country":"BG","name":"А1 магазин Пещера, България ТЦ","phone":"+359 88 220 7370","opening_hours":"Mo-Fr 09:00-18:30","brand":"A1","brand:wikidata":"Q1941592"},"coordinates":[42.031857,24.301044]},"tags_mismatch":false,"dist":0},{"osm":false,"atp":{"id":"MBA3qkWcb-COzFpLJ-ugnUm6UdY=","tags":{"ref":"41","shop":"telecommunication","addr:full":"ул. \"Цар Борис III\" 11","addr:country":"BG","name":"А1 магазин Петрич, Борис III 11","phone":"+359 88 220 7530","opening_hours":"Mo-Fr 09:00-18:30","brand":"A1","brand:wikidata":"Q1941592"},"coordinates":[41.393477,23.208355]},"tags_mismatch":false,"dist":0},{"osm":false,"atp":{"id":"_eQFa4UhOEYejfqbhSGSAIB3fvM=","tags":{"ref":"148","shop":"telecommunication","addr:full":"бул. Цар освободител 44","addr:country":"BG","name":"А1 магазин Пирдоп, Цар Освобод.44","phone":"+359 88 220 7544","opening_hours":"Mo-Fr 09:00-18:00","brand":"A1","brand:wikidata":"Q1941592"},"coordinates":[42.700074,24.18297]},"tags_mismatch":false,"dist":0},{"osm":false,"atp":{"id":"IORwxhG1wjZGFo4SRQE2vLAeJfg=","tags":{"ref":"76","shop":"telecommunication","addr:full":"ул. Данаил Попов 15","addr:country":"BG","name":"А1 магазин Плевен, Данаил Попов 15","phone":"+359 88 220 7489","opening_hours":"Mo-Fr 09:00-19:00","brand":"A1","brand:wikidata":"Q1941592"},"coordinates":[43.414456,24.61674]},"tags_mismatch":false,"dist":0},{"osm":false,"atp":{"id":"iG8J8YjVGraDXICCJCwqfq4YKEE=","tags":{"ref":"346","shop":"telecommunication","addr:full":"пл. Иван Миндилков 1","addr:country":"BG","name":"А1 магазин Плевен, Панорама МОЛ","phone":"+359 88 220 7488","opening_hours":"Mo-Su 10:00-21:00","brand":"A1","brand:wikidata":"Q1941592"},"coordinates":[43.41952,24.614028]},"tags_mismatch":false,"dist":0},{"osm":false,"atp":{"id":"HRgNtc2MJkfVOWdMwgM1t64MPp8=","tags":{"ref":"133","shop":"telecommunication","addr:full":"ж.к. Сторгозия, Търговски комплекс Теодорос","addr:country":"BG","name":"А1 магазин Плевен, Сторгозия","phone":"+359 88 220 7490","opening_hours":"Mo-Fr 09:00-19:00","brand":"A1","brand:wikidata":"Q1941592"},"coordinates":[43.423325,24.598086]},"tags_mismatch":false,"dist":0},{"osm":false,"atp":{"id":"t6htIWcJE-u1PZbIcPyfcczu2_k=","tags":{"ref":"33","shop":"telecommunication","addr:full":"бул.\"България\" 29","addr:country":"BG","name":"А1 магазин Пловдив, България 29","phone":"+359 88 220 7371","opening_hours":"Mo-Fr 09:00-19:00","brand":"A1","brand:wikidata":"Q1941592"},"coordinates":[42.158786,24.744033]},"tags_mismatch":false,"dist":0},{"osm":false,"atp":{"id":"AeOY1p6STmOwyfPEOR1WNZQjcV4=","tags":{"ref":"319","shop":"telecommunication","addr:full":"гр. Пловдив, ПК 4000, ул. Иван Вазов № 61","addr:country":"BG","name":"А1 магазин Пловдив, Иван Вазов 61","phone":"+359 88 220 7379","opening_hours":"Mo-Fr 09:00-19:00","brand":"A1","brand:wikidata":"Q1941592"},"coordinates":[42.135741,24.74267]},"tags_mismatch":false,"dist":0},{"osm":false,"atp":{"id":"TmZGboOqCNX26nbXOW6Bl6u46wg=","tags":{"ref":"134","shop":"telecommunication","addr:full":"бул. Македония 23","addr:country":"BG","name":"А1 магазин Пловдив, Македония 23","phone":"+359 88 220 7377","opening_hours":"Mo-Fr 09:00-19:00","brand":"A1","brand:wikidata":"Q1941592"},"coordinates":[42.131525,24.7432928]},"tags_mismatch":false,"dist":0},{"osm":false,"atp":{"id":"UJz7cKfiikkF0bHGq4_djGjnjnU=","tags":{"ref":"167","shop":"telecommunication","addr:full":"бул. Руски 54, МОЛ Марково Тепе","addr:country":"BG","name":"А1 магазин Пловдив, МОЛ Марк. Тепе ","phone":"+359 88 220 7680","opening_hours":"Mo-Su 10:00-21:00","brand":"A1","brand:wikidata":"Q1941592"},"coordinates":[42.141158,24.741036]},"tags_mismatch":false,"dist":0},{"osm":false,"atp":{"id":"sasV6vcTAb6fO6G0BIDSyJNd4ng=","tags":{"ref":"411","shop":"telecommunication","addr:full":"ул. Д-р Георги Странски 3","addr:country":"BG","name":"А1 магазин Пловдив, МОЛ Плаза","opening_hours":"Mo-Su 10:00-21:00","brand":"A1","brand:wikidata":"Q1941592"},"coordinates":[42.145129,24.782178]},"tags_mismatch":false,"dist":0},{"osm":false,"atp":{"id":"wPpB5aMR2QYEFpB6A1c3ksvF9is=","tags":{"ref":"357","shop":"telecommunication","addr:full":"ж.к. Тракия, бул. Освобождение 47, Кауфланд","addr:country":"BG","name":"А1 магазин Пловдив, Освобождение 47 КФ","phone":"+359 88 220 7411","opening_hours":"Mo-Su 08:00-21:00","brand":"A1","brand:wikidata":"Q1941592"},"coordinates":[42.133389,24.789885]},"tags_mismatch":false,"dist":0},{"osm":false,"atp":{"id":"VvXV39XmHyH04ma-44XzDiOcaJo=","tags":{"ref":"427","shop":"telecommunication","addr:country":"BG","name":"А1 магазин Пловдив, Македония 95","opening_hours":"Mo-Su 08:00-20:00","brand":"A1","brand:wikidata":"Q1941592"},"coordinates":[42.12334,24.74055]},"tags_mismatch":false,"dist":0},{"osm":false,"atp":{"id":"bj8xIFaoehc7oZQaWWOHaeGscNQ=","tags":{"ref":"31","shop":"telecommunication","addr:full":"ж.к. Тракия, Зона А6, ул. Съединение 45","addr:country":"BG","name":"А1 магазин Пловдив, Тракия","phone":"+359 88 220 7373","opening_hours":"Mo-Fr 09:00-19:00","brand":"A1","brand:wikidata":"Q1941592"},"coordinates":[42.13155,24.79433]},"tags_mismatch":false,"dist":0},{"osm":false,"atp":{"id":"989qvLlsZ2cRnsvUrbTl3oSonSI=","tags":{"ref":"224","shop":"telecommunication","addr:full":"Търговска 3","addr:country":"BG","name":"А1 магазин Поморие, Търговска 3","phone":"+359 88 220 7433","opening_hours":"Mo-Fr 09:00-18:30","brand":"A1","brand:wikidata":"Q1941592"},"coordinates":[42.557947,27.639295]},"tags_mismatch":false,"dist":0},{"osm":false,"atp":{"id":"91EdSd7ENreATKFOKNihcXuBLIM=","tags":{"ref":"107","shop":"telecommunication","addr:full":"бул.България 68","addr:country":"BG","name":"А1 магазин Попово, България 68 ","phone":"+359 88 220 7500","opening_hours":"Mo-Fr 09:00-18:30","brand":"A1","brand:wikidata":"Q1941592"},"coordinates":[43.348842,26.225395]},"tags_mismatch":false,"dist":0},{"osm":false,"atp":{"id":"0LfmybGtYZ1bGVUq11P2hL2m2nc=","tags":{"ref":"130","shop":"telecommunication","addr:full":"ул.Георги Димитров 19","addr:country":"BG","name":"А1 магазин Провадия, Г.Димитров 19 ","phone":"+359 88 220 7459","opening_hours":"Mo-Fr 09:00-18:00","brand":"A1","brand:wikidata":"Q1941592"},"coordinates":[43.183692,27.441556]},"tags_mismatch":false,"dist":0},{"osm":false,"atp":{"id":"gSj5qowfeO7tHAU9hVkylC9LkOM=","tags":{"ref":"186","shop":"telecommunication","addr:full":"ул. Георги Димитров 5, ет. 1","addr:country":"BG","name":"А1 магазин Раднево, ул. Георги Димитров 5","phone":"+359 88 220 7393","opening_hours":"Mo-Fr 09:00-18:00","brand":"A1","brand:wikidata":"Q1941592"},"coordinates":[42.289928,25.93374]},"tags_mismatch":false,"dist":0},{"osm":false,"atp":{"id":"vOchTHl-vx_3oMueaG4i36iay7E=","tags":{"ref":"160","shop":"telecommunication","addr:full":"По време на ремонта ще се обособи временно работно място в магазин за аксесоари., Работно време на временната каса - от понеделник до петък, от 09:00 до 18:00 ч., с обедна почивка от 13:00 до 14:00.","addr:country":"BG","name":"А1 магазин Раковски, Петър Богдан 75","phone":"+359 88 220 7382","opening_hours":"Mo-Fr 09:00-18:30","brand":"A1","brand:wikidata":"Q1941592"},"coordinates":[42.271506,24.942529]},"tags_mismatch":false,"dist":0},{"osm":false,"atp":{"id":"MgSjEzatE2TViSfUDjuA2lLI2MI=","tags":{"ref":"85","shop":"telecommunication","addr:full":"бул. България 11","addr:country":"BG","name":"А1 магазин Разград, България 11","phone":"+359 88 220 7501","opening_hours":"Mo-Fr 09:00-19:00","brand":"A1","brand:wikidata":"Q1941592"},"coordinates":[43.524959,26.525988]},"tags_mismatch":false,"dist":0},{"osm":false,"atp":{"id":"cDCsY1kwfWkS58r1SO8PnNQVkp4=","tags":{"ref":"70","shop":"telecommunication","addr:full":"ул. \"Екзарх Йосиф\" 11","addr:country":"BG","name":"А1 магазин Разлог, Екзарх Йосиф 3 - в реновация от 03.09.2024 г. до 26.09.2024 г.","phone":"+359 88 220 7531","opening_hours":"Mo-Fr 09:00-18:30","brand":"A1","brand:wikidata":"Q1941592"},"coordinates":[41.885288,23.465515]},"tags_mismatch":false,"dist":0},{"osm":false,"atp":{"id":"-ei8P0KRpv3aNGuRRtcppM6Wr-E=","tags":{"ref":"349","shop":"telecommunication","addr:full":"Русе, бул. Липник 8 (Кауфланд)","addr:country":"BG","name":"А1 магазин Русе, Липник 8 КФ","phone":"+359 88 220 7554","opening_hours":"Mo-Su 08:00-21:00","brand":"A1","brand:wikidata":"Q1941592"},"coordinates":[43.845785,25.965951]},"tags_mismatch":false,"dist":0},{"osm":false,"atp":{"id":"qv7PjwIhUVn_pojQu204T_Z0jp4=","tags":{"ref":"115","shop":"telecommunication","addr:full":"бул. Липник 121","addr:country":"BG","name":"А1 магазин Русе, МОЛ Русе","phone":"+359 88 220 7511","opening_hours":"Mo-Su 10:00-20:00","brand":"A1","brand:wikidata":"Q1941592"},"coordinates":[43.853476,25.990518]},"tags_mismatch":false,"dist":0},{"osm":false,"atp":{"id":"Lbu0qFLfyan7F60lU874U_gQarg=","tags":{"ref":"84","shop":"telecommunication","addr:full":"ул. Петко Д. Петков 13","addr:country":"BG","name":"А1 магазин Русе, П. Д. Петков 13","phone":"+359 88 220 7503","opening_hours":"Mo-Fr 09:00-19:00","brand":"A1","brand:wikidata":"Q1941592"},"coordinates":[43.849985,25.956287]},"tags_mismatch":false,"dist":0},{"osm":false,"atp":{"id":"LYWVL0xKk3YFIKdh1cn7fpqcGYw=","tags":{"ref":"71","shop":"telecommunication","addr:full":"ул. Искър 4","addr:country":"BG","name":"А1 магазин Самоков, Искър 4","phone":"+359 88 220 7532","opening_hours":"Mo-Fr 09:00-19:00","brand":"A1","brand:wikidata":"Q1941592"},"coordinates":[42.331686,23.556557]},"tags_mismatch":false,"dist":0},{"osm":false,"atp":{"id":"qxgfLd659hrxfJCgbSzlDWR-tlk=","tags":{"ref":"72","shop":"telecommunication","addr:full":"пл. България 2","addr:country":"BG","name":"А1 магазин Сандански, България 2 ","phone":"+359 88 220 7533","opening_hours":"Mo-Fr 09:00-18:00","brand":"A1","brand:wikidata":"Q1941592"},"coordinates":[41.56132,23.277896]},"tags_mismatch":false,"dist":0},{"osm":false,"atp":{"id":"cCjUECKyVlGyet9AElE5E32hqMs=","tags":{"ref":"78","shop":"telecommunication","addr:full":"ул. \"Христо Спиридонов\" 6","addr:country":"BG","name":"А1 магазин Севлиево, Х. Спиридонов 6","phone":"+359 88 220 7492","opening_hours":"Mo-Fr 09:00-19:00","brand":"A1","brand:wikidata":"Q1941592"},"coordinates":[43.026548,25.103531]},"tags_mismatch":false,"dist":0},{"osm":false,"atp":{"id":"wka2DUtb3DZuyYbjY7yStIQOKHI=","tags":{"ref":"335","shop":"telecommunication","addr:full":"бул. Симеон Велики 46В","addr:country":"BG","name":"А1 магазин Шумен, С. Велики  46В ","phone":"+359 88 220 7461","opening_hours":"Mo-Fr 09:00-19:00","brand":"A1","brand:wikidata":"Q1941592"},"coordinates":[43.273736,26.927342]},"tags_mismatch":false,"dist":0},{"osm":false,"atp":{"id":"Zvm10pSbeB0UPz1r2ntd3xF-IaQ=","tags":{"ref":"252","shop":"telecommunication","addr:full":"бул. Славянски 26","addr:country":"BG","name":"А1 магазин Шумен, Славянски 26 ","phone":"+359 88 220 7472","opening_hours":"Mo-Fr 09:00-19:00","brand":"A1","brand:wikidata":"Q1941592"},"coordinates":[43.271315,26.931421]},"tags_mismatch":false,"dist":0},{"osm":false,"atp":{"id":"Y-I66Z5f3Zim_lh4SngGar8eSXc=","tags":{"ref":"87","shop":"telecommunication","addr:full":"ул. Симеон Велики 29","addr:country":"BG","name":"А1 магазин Силистра, С. Велики 29","phone":"+359 88 220 7505","opening_hours":"Mo-Fr 09:00-19:00","brand":"A1","brand:wikidata":"Q1941592"},"coordinates":[44.118314,27.260501]},"tags_mismatch":false,"dist":0},{"osm":false,"atp":{"id":"-jy6eQCG5Uiw0wirMOM5aNmS3rc=","tags":{"ref":"424","shop":"telecommunication","addr:full":"гр. Сливен, кв. Българка, бул. \"Георги Данчев\" 30, Кауфланд","addr:country":"BG","name":"А1 магазин Сливен, Георги Данчев 30 КФ","phone":"+359 88 220 7436","opening_hours":"Mo-Sa 09:00-21:00; Su 09:00-20:00","brand":"A1","brand:wikidata":"Q1941592"},"coordinates":[42.68286,26.34185]},"tags_mismatch":false,"dist":0},{"osm":false,"atp":{"id":"1X_B4Xg7ny-PIEOINE2EyoF_hzE=","tags":{"ref":"422","shop":"telecommunication","addr:full":"бул.Цар Освободител №11","addr:country":"BG","name":"А1 магазин Сливен, Освободител 11","opening_hours":"Mo-Fr 09:00-19:00","brand":"A1","brand:wikidata":"Q1941592"},"coordinates":[42.6858,26.3292]},"tags_mismatch":false,"dist":0},{"osm":false,"atp":{"id":"O0LIM6Hy5Eln0UHmWaYeeWb2hZQ=","tags":{"ref":"425","shop":"telecommunication","addr:full":"ж.к. Дружба 1, ул. Хайделберг 1, Кауфланд","addr:country":"BG","name":"А1 магазин София, Хайделберг 1 КФ ","phone":"+359 88 220 7336","opening_hours":"Mo-Sa 09:00-21:00; Su 09:00-20:00","brand":"A1","brand:wikidata":"Q1941592"},"coordinates":[42.65633,23.39913]},"tags_mismatch":false,"dist":0},{"osm":false,"atp":{"id":"KLRxW24TQ13229cBQG8iZ9veqoE=","tags":{"ref":"25","shop":"telecommunication","addr:full":"бул. Арсеналски 2, МОЛ Парк Център, партер","addr:country":"BG","name":"А1 магазин София, МОЛ Парк Център","phone":"+359 88 220 7323","opening_hours":"Mo-Su 10:00-20:30","brand":"A1","brand:wikidata":"Q1941592"},"coordinates":[42.67846,23.3200305]},"tags_mismatch":false,"dist":0},{"osm":false,"atp":{"id":"eurNesOqDonoUozrV7U0ibNPVxo=","tags":{"ref":"230","shop":"telecommunication","addr:full":"бул. Ситняково 48","addr:country":"BG","name":"А1 магазин София, МОЛ Сердика","phone":"+359 88 220 7332","opening_hours":"Mo-Su 10:00-22:00","brand":"A1","brand:wikidata":"Q1941592"},"coordinates":[42.691541,23.353944]},"tags_mismatch":false,"dist":0},{"osm":false,"atp":{"id":"PVC0uCzImyHZfRnt7NesgO9jqLs=","tags":{"ref":"164","shop":"telecommunication","addr:full":"ул.Коста Лулчев 52","addr:country":"BG","name":"А1 магазин София, МОЛ Скай Сити","phone":"+359 88 220 7324","opening_hours":"Mo-Su 10:00-21:00","brand":"A1","brand:wikidata":"Q1941592"},"coordinates":[42.679737,23.367547]},"tags_mismatch":false,"dist":0},{"osm":false,"atp":{"id":"y7rz4jRf3QuYGDUA1d1x_DjYq-s=","tags":{"ref":"418","shop":"telecommunication","addr:full":"жк.Овча купел, бул.Монтевидео 23","addr:country":"BG","name":"А1 магазин София, Монтевидео 23","phone":"+359 88 220 7547","opening_hours":"Mo-Fr 09:00-19:00","brand":"A1","brand:wikidata":"Q1941592"},"coordinates":[42.679345,23.254216]},"tags_mismatch":false,"dist":0},{"osm":false,"atp":{"id":"0xwfmkf9yioAk4yp4ZGDL8UlySk=","tags":{"ref":"7","shop":"telecommunication","addr:full":"ж.к. Надежда, бул. ”Ломско шосе” бл. 171;","addr:country":"BG","name":"А1 магазин София, Надежда, бл. 171","phone":"+359 88 220 7318","opening_hours":"Mo-Fr 09:00-19:00","brand":"A1","brand:wikidata":"Q1941592"},"coordinates":[42.735606,23.291466]},"tags_mismatch":false,"dist":0},{"osm":false,"atp":{"id":"jPhJ6GTh5X1XcaHorXvYGxae_ZE=","tags":{"ref":"347","shop":"telecommunication","addr:full":"София, ул. Резбарска 7 (Кауфланд)","addr:country":"BG","name":"А1 магазин София, Резбарска 7 КФ","phone":"+359 88 220 7345","opening_hours":"Mo-Su 08:00-21:00","brand":"A1","brand:wikidata":"Q1941592"},"coordinates":[42.712931,23.354164]},"tags_mismatch":false,"dist":0},{"osm":false,"atp":{"id":"HayWzO-FpLzrvkM_S7Q-sdrRUAk=","tags":{"ref":"9","shop":"telecommunication","addr:full":"ж.к. Дружба 1, ул. Иван Арабаджията, кв. 71а","addr:country":"BG","name":"А1 магазин София, Дружба 1, кв. 71а","phone":"+359 88 220 7306","opening_hours":"Mo-Fr 09:00-19:00","brand":"A1","brand:wikidata":"Q1941592"},"coordinates":[42.66786,23.395728]},"tags_mismatch":false,"dist":0},{"osm":false,"atp":{"id":"8AlttvzUHAMJN_0naFdtMCxWq5k=","tags":{"ref":"228","shop":"telecommunication","addr:full":"жк. Младост 3 бл. 301","addr:country":"BG","name":"А1 магазин София, Младост 3, 301","phone":"+359 88 220 7316","opening_hours":"Mo-Fr 09:00-19:00","brand":"A1","brand:wikidata":"Q1941592"},"coordinates":[42.644536,23.379322]},"tags_mismatch":false,"dist":0},{"osm":false,"atp":{"id":"j5iU-YRSnqRnP5iFT0x2WK3uQsc=","tags":{"ref":"170","shop":"telecommunication","addr:full":"бул.\"Витоша\" 82","addr:country":"BG","name":"А1 магазин София, Витоша 82","phone":"+359 88 220 7303","opening_hours":"Mo-Fr 09:00-19:00","brand":"A1","brand:wikidata":"Q1941592"},"coordinates":[42.687759,23.318323]},"tags_mismatch":false,"dist":0},{"osm":false,"atp":{"id":"cSlPCZSZyzCQ9mmf-adSetBtCgU=","tags":{"ref":"387","shop":"telecommunication","addr:full":"ул. Републиканска, срещу Общината","addr:country":"BG","name":"А1 магазин Созопол, Републиканска","phone":"+359 88 220 7438","opening_hours":"Mo-Fr 09:00-18:30","brand":"A1","brand:wikidata":"Q1941592"},"coordinates":[42.418652,27.694592]},"tags_mismatch":false,"dist":0},{"osm":false,"atp":{"id":"70opGtaUS1nWgiWCUBWZ_4xWLoc=","tags":{"ref":"43","shop":"telecommunication","addr:full":"бул. Симеон Велики 55","addr:country":"BG","name":"А1 магазин Ст. Загора, С. Велики 55","phone":"+359 88 220 7396","opening_hours":"Mo-Fr 09:00-19:00","brand":"A1","brand:wikidata":"Q1941592"},"coordinates":[42.422652,25.616368]},"tags_mismatch":false,"dist":0},{"osm":false,"atp":{"id":"QyyE98IoCe92JvEIiXqMz6JNx38=","tags":{"ref":"153","shop":"telecommunication","addr:full":"бул. Търговски, Централна търговска зона","addr:country":"BG","name":"А1 магазин Стамболийски, Търговски","phone":"+359 88 220 7384","opening_hours":"Mo-Fr 09:00-18:30","brand":"A1","brand:wikidata":"Q1941592"},"coordinates":[42.132756,24.53534]},"tags_mismatch":false,"dist":0},{"osm":false,"atp":{"id":"TVSnS6XOLzlJIZXDBaj0yXIAVsY=","tags":{"ref":"49","shop":"telecommunication","addr:full":"бул. България 86","addr:country":"BG","name":"А1 магазин Свиленград, България 86","phone":"35988220741","opening_hours":"Mo-Fr 09:00-18:00","brand":"A1","brand:wikidata":"Q1941592"},"coordinates":[41.765864,26.201018]},"tags_mismatch":false,"dist":0},{"osm":false,"atp":{"id":"_nZCXsc8s-b4aQyoM0F7iYvdquA=","tags":{"ref":"79","shop":"telecommunication","addr:full":"ул. Цар Освободител 88","addr:country":"BG","name":"А1 магазин Свищов, Освободител 88","phone":"+359 88 220 7491","opening_hours":"Mo-Fr 09:00-18:00","brand":"A1","brand:wikidata":"Q1941592"},"coordinates":[43.616569,25.34817]},"tags_mismatch":false,"dist":0},{"osm":false,"atp":{"id":"roZNYLBnCy0IaGH7rMXKp7gA8FA=","tags":{"ref":"151","shop":"telecommunication","addr:full":"ул.Цар Симеон 33","addr:country":"BG","name":"А1 магазин Своге, Цар Симеон 33","phone":"+359 88 220 7545","opening_hours":"Mo-Fr 09:00-18:00","brand":"A1","brand:wikidata":"Q1941592"},"coordinates":[42.959959,23.34726]},"tags_mismatch":false,"dist":0},{"osm":false,"atp":{"id":"QG6Z_jqrZAAWTrty266uy-elbZk=","tags":{"ref":"86","shop":"telecommunication","addr:full":"ул.\"Васил Левски\" 28","addr:country":"BG","name":"А1 магазин Търговище, В. Левски 28","phone":"+359 88 220 7507","opening_hours":"Mo-Fr 09:00-19:00","brand":"A1","brand:wikidata":"Q1941592"},"coordinates":[43.247587,26.572639]},"tags_mismatch":false,"dist":0},{"osm":false,"atp":{"id":"WgFATP2ZNSrE6vb-rjctzdsqI_Y=","tags":{"ref":"154","shop":"telecommunication","addr:full":"ул. Хан Аспарух 43","addr:country":"BG","name":"А1 магазин Тервел, Хан Аспарух 43 ","phone":"+359 88 220 7460","opening_hours":"Mo-Fr 09:00-18:00","brand":"A1","brand:wikidata":"Q1941592"},"coordinates":[43.746682,27.409663]},"tags_mismatch":false,"dist":0},{"osm":false,"atp":{"id":"3dXc5F4nIYSxUeZANuqzvPtkO6M=","tags":{"ref":"126","shop":"telecommunication","addr:full":"ул. Иван Вазов 2","addr:country":"BG","name":"А1 магазин Тетевен, Иван Вазов 2","phone":"+359 88 220 7493","opening_hours":"Mo-Fr 09:00-18:00","brand":"A1","brand:wikidata":"Q1941592"},"coordinates":[42.918256,24.261501]},"tags_mismatch":false,"dist":0},{"osm":false,"atp":{"id":"ZL3Y_UZoMbKB1wRWDkk_BF3c-9Y=","tags":{"ref":"345","shop":"telecommunication","addr:full":"ул. Васил Левски, № 68","addr:country":"BG","name":"А1 магазин Троян, В. Левски 68","phone":"+359 88 220 7494","opening_hours":"Mo-Fr 09:00-18:00","brand":"A1","brand:wikidata":"Q1941592"},"coordinates":[42.886666,24.712582]},"tags_mismatch":false,"dist":0},{"osm":false,"atp":{"id":"84XTGSK_XY-AkTv7l5DeCXQKFjs=","tags":{"ref":"404","shop":"telecommunication","addr:full":"ул. Ангел Кънчев 28","addr:country":"BG","name":"А1 магазин Трявна, Ангел Кънчев 28","opening_hours":"Mo-Fr 09:00-18:00","brand":"A1","brand:wikidata":"Q1941592"},"coordinates":[42.866115,25.491279]},"tags_mismatch":false,"dist":0},{"osm":false,"atp":{"id":"dHj94FjiDGrkQN2feG6xTt71seY=","tags":{"ref":"162","shop":"telecommunication","addr:full":"ул. Оборище 18","addr:country":"BG","name":"А1 магазин Велико Търново, МОЛ Велико Търново","phone":"+359 88 220 7482","opening_hours":"Mo-Sa 10:00-21:00; Su 10:00-20:00","brand":"A1","brand:wikidata":"Q1941592"},"coordinates":[43.07917,25.599829]},"tags_mismatch":false,"dist":0},{"osm":false,"atp":{"id":"ZVyfE7jv0HkLzpCiVv6RtnFcdB4=","tags":{"ref":"428","shop":"telecommunication","addr:full":"кв. Аспарухово, ул. Св. Св. Кирил и Методий 53","addr:country":"BG","name":"А1 магазин Варна, Аспарухово","phone":"+359 88 220 7446","opening_hours":"Mo-Fr 09:00-19:00","brand":"A1","brand:wikidata":"Q1941592"},"coordinates":[43.1766777039,27.8923339844]},"tags_mismatch":false,"dist":0},{"osm":false,"atp":{"id":"oEDX_mWz_FaOJeNLBY02pWM99DI=","tags":{"ref":"423","shop":"telecommunication","addr:full":"ул. Княз Борис I 53","addr:country":"BG","name":"А1 магазин Варна, Княз Борис I 53","phone":"+359 88 220 7444","opening_hours":"Mo-Fr 09:00-19:00","brand":"A1","brand:wikidata":"Q1941592"},"coordinates":[43.20555,27.91936]},"tags_mismatch":false,"dist":0},{"osm":false,"atp":{"id":"KTLmGTyPlgUmksrcNSDU2kSpLR8=","tags":{"ref":"410","shop":"telecommunication","addr:full":"бул. Сливница №185","addr:country":"BG","name":"А1 магазин Варна, Мол Делта Планет","phone":"+359 88 220 7352","opening_hours":"Mo-Su 10:00-21:00","brand":"A1","brand:wikidata":"Q1941592"},"coordinates":[43.22798,27.874879]},"tags_mismatch":false,"dist":0},{"osm":false,"atp":{"id":"bEMYrdEoGRmXR2Gf2LAKEe-oL4c=","tags":{"ref":"393","shop":"telecommunication","addr:full":"бул. Република 60 (Кауфланд)","addr:country":"BG","name":"А1 магазин Варна, Република 60 КФ","phone":"+359 88 220 7320","opening_hours":"Mo-Su 08:00-20:00","brand":"A1","brand:wikidata":"Q1941592"},"coordinates":[43.235282,27.88147]},"tags_mismatch":false,"dist":0},{"osm":false,"atp":{"id":"SjaMU-6fjQc50bNbvIWXGRhMNsA=","tags":{"ref":"90","shop":"telecommunication","addr:full":"жк. Вл. Варненчик бул.\"Константин и Фружин\"420 к-с Пикадили","addr:country":"BG","name":"А1 магазин Варна, Варненчик Пикад-и ","phone":"+359 88 220 7454","opening_hours":"Mo-Fr 09:00-19:00; Sa 10:00-17:00","brand":"A1","brand:wikidata":"Q1941592"},"coordinates":[43.243243,27.848527]},"tags_mismatch":false,"dist":0},{"osm":false,"atp":{"id":"IiOkq_WfnkGV-EGwNqYSrlfHciE=","tags":{"ref":"94","shop":"telecommunication","addr:full":"ул. „Цар Борис III“ 28","addr:country":"BG","name":"А1 магазин Варна, Виница","phone":"+359 88 220 7449","opening_hours":"Mo-Fr 09:00-19:00","brand":"A1","brand:wikidata":"Q1941592"},"coordinates":[43.244792,27.980638]},"tags_mismatch":false,"dist":0},{"osm":false,"atp":{"id":"P4Pfj2cUVcijJLQ-o9vJoiMmSUw=","tags":{"ref":"132","shop":"telecommunication","addr:full":"ул. Ян Палах 10","addr:country":"BG","name":"А1 магазин Варна, Ян Палах 10 ","phone":"+359 88 220 7445","opening_hours":"Mo-Fr 09:00-19:00","brand":"A1","brand:wikidata":"Q1941592"},"coordinates":[43.219737,27.914667]},"tags_mismatch":false,"dist":0},{"osm":false,"atp":{"id":"UrlTdZZWYRCUh-_MlCF2ZavgKyI=","tags":{"ref":"102","shop":"telecommunication","addr:full":"ул. Железничарска 2","addr:country":"BG","name":"А1 магазин Видин, Железничарска 2","phone":"+359 88 220 7537","opening_hours":"Mo-Fr 09:00-19:00","brand":"A1","brand:wikidata":"Q1941592"},"coordinates":[43.985259,22.875676]},"tags_mismatch":false,"dist":0},{"osm":false,"atp":{"id":"nEy1m4rgmhEu4lEvra8R56ns7gM=","tags":{"ref":"361","shop":"telecommunication","addr:full":"Видин, Панония 41 (Кауфланд)","addr:country":"BG","name":"А1 магазин Видин, Панония 41 КФ","phone":"+359 88 220 7339","opening_hours":"Mo-Sa 08:00-20:00; Su 09:00-20:00","brand":"A1","brand:wikidata":"Q1941592"},"coordinates":[44.000338,22.870034]},"tags_mismatch":false,"dist":0},{"osm":false,"atp":{"id":"OJk8Gsbc3hOZHh-H-J6ASsx3MxM=","tags":{"ref":"99","shop":"telecommunication","addr:full":"ул. Н. Войводов 10","addr:country":"BG","name":"А1 магазин Враца, Н. Войводов 10","phone":"+359 88 220 7538","opening_hours":"Mo-Fr 09:00-19:00","brand":"A1","brand:wikidata":"Q1941592"},"coordinates":[43.204621,23.551711]},"tags_mismatch":false,"dist":0},{"osm":false,"atp":{"id":"_ZHCB1jznU1L8RAlV9KBtIPKmsE=","tags":{"ref":"376","shop":"telecommunication","addr:full":"ул. Оборище 7 (Кауфланд)","addr:country":"BG","name":"А1 магазин Враца, Оборище 7 КФ ","phone":"+359 88 220 7570","opening_hours":"Mo-Su 08:00-20:00","brand":"A1","brand:wikidata":"Q1941592"},"coordinates":[43.208162,23.545188]},"tags_mismatch":false,"dist":0},{"osm":false,"atp":{"id":"xmrjw-fP1_2bE9V3RicygyWkGQ4=","tags":{"ref":"318","shop":"telecommunication","addr:full":"ул. Търговска 2","addr:country":"BG","name":"А1 магазин Ямбол, Търговска 2","phone":"+359 88 220 7441","opening_hours":"Mo-Fr 09:00-19:00","brand":"A1","brand:wikidata":"Q1941592"},"coordinates":[42.48313,26.506411]},"tags_mismatch":false,"dist":0},{"osm":false,"atp":{"id":"YhuQCJJx9wdrZMZyaFViWJE5yfA=","tags":{"ref":"140","shop":"telecommunication","addr:full":"бул.България 19","addr:country":"BG","name":"А1 магазин Златоград, България 19","phone":"+359 88 220 7364","opening_hours":"Mo-Fr 09:00-18:00","brand":"A1","brand:wikidata":"Q1941592"},"coordinates":[41.3842547,25.0924344]},"tags_mismatch":false,"dist":0},{"osm":false,"atp":{"id":"BHi4kquS7AU5wRo2cuHZPk9Zzd0=","tags":{"ref":"421","shop":"telecommunication","addr:full":"гр. Варна, жк. Трошево, бул. Христо Смирненски 2, П.К. 9009","addr:country":"BG","name":"А1 магазин Варна, Трошево КФ","phone":"+359 88 220 7467","opening_hours":"Mo-Su 08:00-21:00","brand":"A1","brand:wikidata":"Q1941592"},"coordinates":[43.22124,27.8909]},"tags_mismatch":false,"dist":0}]}