{"metadata":{"type":"brand","wikidata":"Q61140834","name":"Фантастико","compare_keys":["opening_hours","website","ref"]},"data":[{"osm":{"type":"node","id":319291918,"tags":{"addr:city":"София","addr:housenumber":"50","addr:postcode":"1463","addr:street":"Бузлуджа","branch":"ул. „Бузлуджа“","brand":"Фантастико","brand:wikidata":"Q61140834","int_name":"Fantastico","opening_hours":"Mo-Su 07:30-22:00","ref":"25","shop":"supermarket","website":"https://www.fantastico.bg/shops/f25","wheelchair":"no"},"wikidata":"Q61140834","coordinates":[42.6871974,23.3153188]},"atp":{"id":"M5LsOatHcEmYn0ih3VXxC2qucYI=","tags":{"ref":"25","shop":"supermarket","addr:full":"гр. София, ул. \"Бузлуджа\" №50, п.к. 1463","addr:country":"BG","name":"Магазин Ф25: ул. „Бузлуджа“","website":"https://www.fantastico.bg/shops/f25","opening_hours":"07:30-22:00","image":"https://www.fantastico.bg/attachments/Shop/35/gallery/DSC-4528-352x352_thumb-list.jpg","brand":"Фантастико","brand:wikidata":"Q61140834"},"coordinates":[42.68720434183592,23.315306053967333]},"dist":1.297,"tags_mismatch":true},{"osm":{"type":"node","id":462194746,"tags":{"addr:city":"София","addr:housenumber":"2","addr:postcode":"1618","addr:street":"Хубча","branch":"ж.к. Красно село","brand":"Фантастико","brand:wikidata":"Q61140834","check_date":"2023-06-14","int_name":"Fantastico","opening_hours":"Mo-Su 07:30-22:00","ref":"2","shop":"supermarket","website":"https://www.fantastico.bg/shops/f2","wheelchair":"limited"},"wikidata":"Q61140834","coordinates":[42.6773886,23.2865175]},"atp":{"id":"Q1pJgoVb1H9LVynfLJNlU1cEVEo=","tags":{"ref":"2","shop":"supermarket","addr:full":"гр. София, ул. \"Хубча\" No2, п.к. 1618","addr:country":"BG","name":"Магазин Ф2: ж.к. „Красно село“","website":"https://www.fantastico.bg/shops/f2","opening_hours":"07:30-23:00","brand":"Фантастико","brand:wikidata":"Q61140834"},"coordinates":[42.6772124,23.28637660000004]},"dist":22.728,"tags_mismatch":true},{"osm":{"type":"node","id":1488921285,"tags":{"addr:city":"София","addr:floor":"-1","addr:housename":"Sky City Mall","addr:housenumber":"52","addr:postcode":"1574","addr:street":"Коста Лулчев","branch":"ж.к. „Гео Милев“","brand":"Фантастико","brand:wikidata":"Q61140834","int_name":"Fantastico","opening_hours":"Mo-Su 07:30-22:00","ref":"28","shop":"supermarket","toilets:wheelchair":"yes","website":"https://www.fantastico.bg/shops/f28","wheelchair":"yes"},"wikidata":"Q61140834","coordinates":[42.6796462,23.3679907]},"atp":{"id":"h34oI9shNFtY1Disb6TDXcnjpuo=","tags":{"ref":"28","shop":"supermarket","addr:full":"гр. София, ул. \"Коста Лулчев\" №52, подземен етаж на SkyCity mall, п.к. 1574","addr:country":"BG","name":"Магазин Ф28: SkyCity Mall","website":"https://www.fantastico.bg/shops/f28","opening_hours":"07:30-22:00","image":"https://www.fantastico.bg/attachments/Shop/38/gallery/Bio-web_thumb-list.jpg","brand":"Фантастико","brand:wikidata":"Q61140834"},"coordinates":[42.6798861,23.36765390000005]},"dist":38.335,"tags_mismatch":true},{"osm":{"type":"node","id":1699508612,"tags":{"branch":"ж.к. Борово","brand":"Фантастико","brand:wikidata":"Q61140834","check_date":"2023-09-02","contact:phone":"+359 2 958 2170","int_name":"Fantastico","opening_hours":"07:30-23:00","ref":"10","shop":"supermarket","start_date":"2016-08-25","website":"https://www.fantastico.bg/shops/f10"},"wikidata":"Q61140834","coordinates":[42.6721399,23.2847979]},"atp":{"id":"m5q40s82LOzFT-jAZs2_l0QAZFw=","tags":{"ref":"10","shop":"supermarket","addr:full":"гр. София, ул. \"Ген. Стефан Тошев\", бл. 223, вх. Д, п.к. 1680","addr:country":"BG","name":"Магазин Ф10: ж.к. „Борово“","website":"https://www.fantastico.bg/shops/f10","opening_hours":"07:30-22:00","image":"https://www.fantastico.bg/attachments/Shop/20/gallery/DSC-6353_thumb-list.jpg","brand":"Фантастико","brand:wikidata":"Q61140834"},"coordinates":[42.67207692662909,23.284392167279066]},"dist":33.902,"tags_mismatch":true},{"osm":{"type":"node","id":1928883268,"tags":{"addr:city":"София","addr:housenumber":"8","addr:postcode":"1505","addr:street":"бул. Мадрид","branch":"бул. „Мадрид“","brand":"Фантастико","brand:wikidata":"Q61140834","int_name":"Fantastico","opening_hours":"Mo-Su 07:30-24:00","ref":"3","shop":"supermarket","website":"https://www.fantastico.bg"},"wikidata":"Q61140834","coordinates":[42.6959494,23.3477364]},"atp":{"id":"Zc6kZPfSHHTdE90u-CWHZkjTYYA=","tags":{"ref":"3","shop":"supermarket","addr:full":"гр. София, бул. \"Мадрид\" №8, п.к. 1505","addr:country":"BG","name":"Магазин Ф3: бул. „Мадрид“","website":"https://www.fantastico.bg/shops/f3","opening_hours":"07:30-23:00","brand":"Фантастико","brand:wikidata":"Q61140834"},"coordinates":[42.69593719999999,23.347845699999993]},"dist":9.035,"tags_mismatch":true},{"osm":{"type":"node","id":2179732506,"tags":{"addr:city":"София","addr:housenumber":"бл. 331А","addr:postcode":"1330","addr:street":"бул. Никола Мушанов","branch":"ж.к. „Красна поляна“","brand":"Фантастико","brand:wikidata":"Q61140834","check_date:opening_hours":"2024-06-19","int_name":"Fantastico","opening_hours":"Mo-Su 07:30-22:00","ref":"20","shop":"supermarket","website":"https://www.fantastico.bg","wheelchair":"yes"},"wikidata":"Q61140834","coordinates":[42.6940559,23.284012]},"atp":{"id":"osS_Xho4y2fT2584v_qYf1dL0aA=","tags":{"ref":"20","shop":"supermarket","addr:full":"гр. София, бул. \"Никола Мушанов\", бл. 331А, п.к. 1330","addr:country":"BG","name":"Магазин Ф20: ж.к. „Красна поляна“","website":"https://www.fantastico.bg/shops/f20","opening_hours":"07:30-22:00","brand":"Фантастико","brand:wikidata":"Q61140834"},"coordinates":[42.69346665873221,23.282924243022194]},"dist":110.436,"tags_mismatch":true},{"osm":{"type":"node","id":2179873225,"tags":{"addr:city":"София","addr:housenumber":"72","addr:postcode":"1505","addr:street":"Оборище","branch":"ул. „Оборище“","brand":"Фантастико","brand:wikidata":"Q61140834","check_date:opening_hours":"2022-11-28","int_name":"Fantastico","opening_hours":"Mo-Su 07:30-22:00","ref":"1","shop":"supermarket","website":"https://www.fantastico.bg/shops/f1"},"wikidata":"Q61140834","coordinates":[42.6934964,23.3509172]},"atp":{"id":"zpWJaGhXm2yz9ee8aTbVVSo4HWo=","tags":{"ref":"1","shop":"supermarket","addr:full":"гр. София, ул. \"Оборище\" 72, п.к. 1505","addr:country":"BG","name":"Магазин Ф1: ул. „Оборище“","website":"https://www.fantastico.bg/shops/f1","opening_hours":"07:30 -22:00","image":"https://www.fantastico.bg/attachments/Shop/12/gallery/IMG-5229_thumb-list.jpg","brand":"Фантастико","brand:wikidata":"Q61140834"},"coordinates":[42.69357029999999,23.35060329999999]},"dist":26.938,"tags_mismatch":true},{"osm":{"type":"node","id":2494872354,"tags":{"addr:city":"София","addr:housenumber":"46","addr:postcode":"1574","addr:street":"бул. Шипченски проход","branch":"ж.к. „Гео Милев“","brand":"Фантастико","brand:wikidata":"Q61140834","check_date":"2024-07-20","int_name":"Fantastico","opening_hours":"07:30-22:00","ref":"13","shop":"supermarket","website":"https://www.fantastico.bg/shops/f13"},"wikidata":"Q61140834","coordinates":[42.6783471,23.3651295]},"atp":{"id":"cl43yF6TdWiB4nIG-MX5TlG7ofI=","tags":{"ref":"13","shop":"supermarket","addr:full":"гр. София, ул. \"Шипченски проход\" №46, п.к. 1574","addr:country":"BG","name":"Магазин Ф13: ж.к. „Гео Милев“, ул. \"Шипченски проход\"","website":"https://www.fantastico.bg/shops/f13","opening_hours":"07:30-23:00","brand":"Фантастико","brand:wikidata":"Q61140834"},"coordinates":[42.67799005608602,23.36484190478518]},"dist":46.14,"tags_mismatch":true},{"osm":{"type":"node","id":4675298989,"tags":{"addr:city":"София","addr:housenumber":"4","addr:postcode":"1330","addr:street":"Алеко Туранджа","branch":"кв. „Разсадника“","brand":"Фантастико","brand:wikidata":"Q61140834","int_name":"Fantastico","opening_hours":"Mo-Su 07:30-24:00","ref":"39","shop":"supermarket","website":"https://www.fantastico.bg"},"wikidata":"Q61140834","coordinates":[42.698805,23.290566]},"atp":{"id":"-6E2qWqCD2gWunOadQ2hDE_sBg8=","tags":{"ref":"39","shop":"supermarket","addr:full":"гр. София, ул. \"Хъшове\" №4, до блок 10, п.к. 1330","addr:country":"BG","name":"Магазин Ф39: кв. „Разсадника“","website":"https://www.fantastico.bg/shops/f39","opening_hours":"07:30-22:00","image":"https://www.fantastico.bg/attachments/Shop/49/gallery/FFF39-7742-out_thumb-list.jpg","brand":"Фантастико","brand:wikidata":"Q61140834"},"coordinates":[42.6988964,23.290519300000028]},"dist":10.856,"tags_mismatch":true},{"osm":{"type":"node","id":4716437699,"tags":{"addr:city":"София","addr:housenumber":"2, бл.12","addr:postcode":"1373","addr:street":"Суходолска","branch":"ж.к. „Западен парк“","brand":"Фантастико","brand:wikidata":"Q61140834","int_name":"Fantastico","opening_hours":"Mo-Su 07:30-23:00","ref":"4","shop":"supermarket","website":"https://www.fantastico.bg"},"wikidata":"Q61140834","coordinates":[42.7024013,23.2831503]},"atp":{"id":"Ji-8hlyU32NWTz2wF1X1AcDt39w=","tags":{"ref":"4","shop":"supermarket","addr:full":"гр. София, ж.к. Западен парк, ул. ж.к. Западен парк бл.12.","addr:country":"BG","name":"Магазин Ф4: ж.к. „Западен парк“","website":"https://www.fantastico.bg/shops/f4","opening_hours":"07:30-22:00","image":"https://www.fantastico.bg/attachments/Shop/14/gallery/DSC-6640_thumb-list.jpg","brand":"Фантастико","brand:wikidata":"Q61140834"},"coordinates":[42.7011408,23.2798583]},"dist":303.335,"tags_mismatch":true},{"osm":{"type":"node","id":5163029522,"tags":{"addr:city":"София","addr:housenumber":"20","addr:postcode":"1421","addr:street":"бул. Черни връх","branch":"ж.к. „Лозенец“","brand":"Фантастико","brand:wikidata":"Q61140834","check_date:opening_hours":"2023-09-30","int_name":"Fantastico","opening_hours":"PH,Mo-Su 07:30-22:00","ref":"8","shop":"supermarket","website":"https://www.fantastico.bg","wheelchair":"yes"},"wikidata":"Q61140834","coordinates":[42.6747121,23.3213195]},"atp":{"id":"ZsFytYGn8m1otMBoeoV3-J_GFAM=","tags":{"ref":"8","shop":"supermarket","addr:full":"гр. София, бул. \"Черни връх\" №20, п.к. 1421","addr:country":"BG","name":"Магазин Ф8: ж.к. „Лозенец“","website":"https://www.fantastico.bg/shops/f8","opening_hours":"07:30-22:00","image":"https://www.fantastico.bg/attachments/Shop/18/gallery/DSC-0119-352x352_thumb-list.jpg","brand":"Фантастико","brand:wikidata":"Q61140834"},"coordinates":[42.67446289999999,23.321319099999982]},"dist":27.71,"tags_mismatch":true},{"osm":{"type":"node","id":5918168207,"tags":{"addr:city":"София","addr:housenumber":"65","addr:postcode":"1309","addr:street":"бул. Сливница","branch":"Спирка „Оряхово“","brand":"Фантастико","brand:wikidata":"Q61140834","int_name":"Fantastico","level":"-1","opening_hours":"7:30-22:00","ref":"9","shop":"supermarket","website":"https://www.fantastico.bg/shops/f9"},"wikidata":"Q61140834","coordinates":[42.7105153,23.2919341]},"atp":{"id":"kR8XVhQH5_5-WK6Gs8G9dEKsk8Q=","tags":{"ref":"9","shop":"supermarket","addr:full":"гр. София, бул. \"Сливница\" №65, подземен етаж на търговски център \"Глобус\", п.к. 1309","addr:country":"BG","name":"Магазин Ф9: Спирка „Оряхово“","website":"https://www.fantastico.bg/shops/f9","opening_hours":"07:30-22:00","image":"https://www.fantastico.bg/attachments/Shop/19/gallery/FFF09-AC08-CENTR01_thumb-list.jpg","brand":"Фантастико","brand:wikidata":"Q61140834"},"coordinates":[42.710459856935465,23.29187661901858]},"dist":7.75,"tags_mismatch":true},{"osm":{"type":"node","id":6138137680,"tags":{"addr:housenumber":"77","addr:street":"бул. Д-р Г. М. Димитров","air_conditioning":"yes","branch":"F6","brand":"Фантастико","brand:wikidata":"Q61140834","int_name":"Fantastico","internet_access":"yes","internet_access:fee":"no","opening_hours":"Mo-Su 07:00-23:00","payment:cash":"yes","payment:coins":"yes","payment:credit_cards":"yes","payment:debit_cards":"yes","payment:mastercard":"yes","payment:visa":"yes","shop":"supermarket","website":"https://www.fantastico.bg","wheelchair":"yes"},"wikidata":"Q61140834","coordinates":[42.6587702,23.3470785]},"atp":{"id":"Sdb_HiCjBBW6JonhB1V0ipcJAFg=","tags":{"ref":"6","shop":"supermarket","addr:full":"гр. София, бул. \"Г.М. Димитров\" №77, п.к. 1172","addr:country":"BG","name":"Магазин Ф6: Студентски град /до хотел Vega/","website":"https://www.fantastico.bg/shops/f6","opening_hours":"07:30-00:00","image":"https://www.fantastico.bg/attachments/Shop/16/gallery/Alkohol-duh_thumb-list.jpg","brand":"Фантастико","brand:wikidata":"Q61140834"},"coordinates":[42.658935612720335,23.346733216008033]},"dist":33.697,"tags_mismatch":true},{"osm":{"type":"node","id":7731589824,"tags":{"brand":"Фантастико","brand:wikidata":"Q61140834","shop":"supermarket"},"wikidata":"Q61140834","coordinates":[42.716615,23.1700569]},"atp":{"id":"KrmIwF1OfKL0uYDZp2Ox_BTGan0=","tags":{"ref":"44","shop":"supermarket","addr:full":"гр. Банкя, кв. \"Изгрев\", ул. \"Стефан Стамболов\" 138, п.к. 1320","addr:country":"BG","name":"Магазин Ф44: гр. Банкя","website":"https://www.fantastico.bg/shops/f44","opening_hours":"07:30-22:00","image":"https://www.fantastico.bg/attachments/Shop/55/gallery/vanshen_thumb-list.jpg","brand":"Фантастико","brand:wikidata":"Q61140834"},"coordinates":[42.7150569,23.1667817]},"dist":318.77,"tags_mismatch":true},{"osm":{"type":"node","id":10562947881,"tags":{"brand":"Фантастико","brand:wikidata":"Q61140834","opening_hours":"07:30-22:00","shop":"supermarket"},"wikidata":"Q61140834","coordinates":[42.6735077,23.3504368]},"atp":{"id":"_H3_0pA0nW1kQzZ8epMwfzv8qKY=","tags":{"ref":"37","shop":"supermarket","addr:full":"гр. София, ул. \"Акад. Методи Попов\", бл. 76, п.к. 1113","addr:country":"BG","name":"Магазин Ф37: кв. „Изток“","website":"https://www.fantastico.bg/shops/f37","opening_hours":"07:30-22:00","image":"https://www.fantastico.bg/attachments/Shop/47/gallery/01_thumb-list.jpg","brand":"Фантастико","brand:wikidata":"Q61140834"},"coordinates":[42.673500350556864,23.350386733590767]},"dist":4.174,"tags_mismatch":true},{"osm":{"type":"node","id":10918098935,"tags":{"addr:housenumber":"87А","addr:street":"бул. Симеоновско шосе","branch":"бул. Симеоновско шосе","brand":"Фантастико","brand:wikidata":"Q61140834","int_name":"Fantastico","level":"1","level:ref":"2","opening_hours":"Mo-Su 07:30-23:00","ref":"33","shop":"supermarket","website":"https://www.fantastico.bg","wheelchair":"yes"},"wikidata":"Q61140834","coordinates":[42.6408929,23.335328]},"atp":{"id":"PqtkqFlDHLE5-iR7U448gANpefU=","tags":{"ref":"33","shop":"supermarket","addr:full":"гр. София, бул. \"Симеоновско шосе\" №87А, п.к. 1700","addr:country":"BG","name":"Магазин Ф33: бул. „Симеоновско шосе“","website":"https://www.fantastico.bg/shops/f33","opening_hours":"07:30-23:00","image":"https://www.fantastico.bg/attachments/Shop/43/gallery/Alkohol-1600x1200_thumb-list.jpg","brand":"Фантастико","brand:wikidata":"Q61140834"},"coordinates":[42.6407395414812,23.335025177246052]},"dist":30.072,"tags_mismatch":true},{"osm":{"type":"way","id":17266272,"tags":{"addr:city":"София","addr:housenumber":"26","addr:postcode":"1336","addr:street":"бул. Джавахарлал Неру","branch":"ж.к. „Люлин 6“ /център/","brand":"Фантастико","brand:wikidata":"Q61140834","building":"retail","int_name":"Fantastico","opening_hours":"Mo-Su 07:30-24:00","ref":"16","shop":"supermarket","website":"https://www.fantastico.bg","wheelchair":"yes"},"wikidata":"Q61140834","coordinates":[42.7147339,23.254868]},"atp":{"id":"YnrUsPn1CqKBuBIgEL12qM6UIMg=","tags":{"ref":"16","shop":"supermarket","addr:full":"гр. София, бул. \"Джавахарлал Неру\" №26, п.к. 1336","addr:country":"BG","name":"Магазин Ф16: ж.к. „Люлин 6“ /център/","website":"https://www.fantastico.bg/shops/f16","opening_hours":"07:30-22:00","image":"https://www.fantastico.bg/attachments/Shop/26/gallery/DSC-0132_thumb-list.jpg","brand":"Фантастико","brand:wikidata":"Q61140834"},"coordinates":[42.71478285094977,23.25507546295171]},"dist":17.802,"tags_mismatch":true},{"osm":{"type":"way","id":26649680,"tags":{"addr:city":"София","addr:housenumber":"1","addr:postcode":"1360","addr:street":"Тома Георгиев","alt_name":"Fantastico15","branch":"ж.к. „Люлин 1“","brand":"Фантастико","brand:wikidata":"Q61140834","building":"retail","building:levels":"1","int_name":"Fantastico","opening_hours":"Mo-Su 07:30-24:00","ref":"15","shop":"supermarket","website":"https://www.fantastico.bg"},"wikidata":"Q61140834","coordinates":[42.7296075,23.253419]},"atp":{"id":"EZtFKzWjDYlzm8TY5mWNYI5cTCw=","tags":{"ref":"15","shop":"supermarket","addr:full":"гр. София, ул. \"Тома Георгиев\" №1, п.к. 1360","addr:country":"BG","name":"Магазин Ф15: ж.к. „Люлин 1“","website":"https://www.fantastico.bg/shops/f15","opening_hours":"07:30-22:00","image":"https://www.fantastico.bg/attachments/Shop/25/gallery/Picture-045_thumb-list.jpg","brand":"Фантастико","brand:wikidata":"Q61140834"},"coordinates":[42.729767332659286,23.253490899475082]},"dist":18.718,"tags_mismatch":true},{"osm":{"type":"way","id":34600498,"tags":{"addr:city":"София","addr:housenumber":"11","addr:postcode":"1220","addr:street":"Царевец","addr:suburb":"ж.к. Надежда 1","branch":"ж.к. „Надежда 1“","brand":"Фантастико","brand:wikidata":"Q61140834","building":"retail","building:levels":"1","int_name":"Fantastico","opening_hours":"Mo-Su 07:30-24:00","ref":"27","shop":"supermarket","website":"https://www.fantastico.bg","wheelchair":"yes"},"wikidata":"Q61140834","coordinates":[42.7260247,23.2953492]},"atp":{"id":"-DPW5R2FZUxuWPPU70c-gDsMqIQ=","tags":{"ref":"27","shop":"supermarket","addr:full":"гр. София, ул. \"Царевец\" №11, п.к. 1220","addr:country":"BG","name":"Магазин Ф27: ж.к. „Надежда 1“","website":"https://www.fantastico.bg/shops/f27","opening_hours":"07:30-22:00","image":"https://www.fantastico.bg/attachments/Shop/37/gallery/DSC-3033_thumb-list.jpg","brand":"Фантастико","brand:wikidata":"Q61140834"},"coordinates":[42.726034908879946,23.295409570639094]},"dist":5.06,"tags_mismatch":true},{"osm":{"type":"way","id":65134345,"tags":{"addr:city":"София","addr:housenumber":"12","addr:postcode":"1700","addr:street":"Акад. Борис Стефанов","brand":"Фантастико","brand:wikidata":"Q61140834","building":"commercial","building:levels":"1","check_date":"2022-12-14","int_name":"Fantastico","internet_access":"no","opening_hours":"24/7","payment:mastercard":"yes","payment:visa":"yes","phone":"+359 2 969 2500","ref":"22","roof:levels":"0","shop":"supermarket","website":"https://www.fantastico.bg","wheelchair":"yes"},"wikidata":"Q61140834","coordinates":[42.6501754,23.3413884]},"atp":{"id":"P-Gz4Py1wxLlfcv0pure9aWXwTM=","tags":{"ref":"22","shop":"supermarket","addr:full":"гр. София, ул. \"Акад. Борис Стефанов\" №22, п.к. 1700","addr:country":"BG","name":"Магазин Ф22: кв. „Студентски град“","website":"https://www.fantastico.bg/shops/f22","opening_hours":"07:30-24:00","image":"https://www.fantastico.bg/attachments/Shop/32/gallery/DSC-6410-ok_thumb-list.jpg","brand":"Фантастико","brand:wikidata":"Q61140834"},"coordinates":[42.65025869999999,23.341512400000056]},"dist":13.735,"tags_mismatch":true},{"osm":{"type":"way","id":106700277,"tags":{"addr:city":"София","addr:housenumber":"27","addr:postcode":"1574","addr:street":"Николай Коперник","branch":"ж.к. „Гео Милев“","brand":"Фантастико","brand:wikidata":"Q61140834","building":"retail","building:levels":"1","building:use":"shop","int_name":"Fantastico","opening_hours":"Mo-Su 07:30-24:00","ref":"40","roof:levels":"0","shop":"supermarket","website":"https://www.fantastico.bg","wheelchair":"yes"},"wikidata":"Q61140834","coordinates":[42.6806445,23.3611826]},"atp":{"id":"UaoX6zGYynC3IFP7ZWBcciyGVGQ=","tags":{"ref":"40","shop":"supermarket","addr:full":"гр. София, ул. \"Николай Коперник\" №27, п.к. 1574","addr:country":"BG","name":"Магазин Ф40: ж.к. „Гео Милев“","website":"https://www.fantastico.bg/shops/f40","opening_hours":"07:30-00:00","image":"https://www.fantastico.bg/attachments/Shop/50/gallery/FFF40-3_thumb-list.jpg","brand":"Фантастико","brand:wikidata":"Q61140834"},"coordinates":[42.6806131,23.361460999999963]},"dist":23.024,"tags_mismatch":true},{"osm":{"type":"way","id":146320877,"tags":{"addr:city":"София","addr:housenumber":"81","addr:postcode":"1510","addr:street":"Макгахан","branch":"ж.к. „Хаджи Димитър“","brand":"Фантастико","brand:wikidata":"Q61140834","building":"retail","int_name":"Fantastico","opening_hours":"Mo-Su 07:30-24:00","ref":"34","shop":"supermarket","website":"https://www.fantastico.bg","wheelchair":"yes"},"wikidata":"Q61140834","coordinates":[42.7073021,23.3514375]},"atp":{"id":"oBXfCFEvMbwieePxkVN8u9Wfi8M=","tags":{"ref":"34","shop":"supermarket","addr:full":"гр. София, ул. \"Макгахан\" №81, п.к. 1510","addr:country":"BG","name":"Магазин Ф34: ж.к. „Хаджи Димитър“","website":"https://www.fantastico.bg/shops/f34","opening_hours":"07:30-22:00","image":"https://www.fantastico.bg/attachments/Shop/44/gallery/10-07-22-283_thumb-list.jpg","brand":"Фантастико","brand:wikidata":"Q61140834"},"coordinates":[42.71051213248673,23.350534080426087]},"tags_mismatch":true},{"osm":{"type":"way","id":146320878,"tags":{"addr:city":"София","addr:housenumber":"29","addr:postcode":"1510","addr:street":"Баба Вида","branch":"ж.к. „Хаджи Димитър“","brand":"Фантастико","brand:wikidata":"Q61140834","building":"retail","int_name":"Fantastico","opening_hours":"07:30-24:00","ref":"11","shop":"supermarket","website":"https://www.fantastico.bg","wheelchair":"yes"},"wikidata":"Q61140834","coordinates":[42.7090369,23.3554282]},"atp":{"id":"H0zJr3MiCdhZgObsejU3SYPkrVk=","tags":{"ref":"11","shop":"supermarket","addr:full":"гр. София, ул. \"Васил Кънчев\" и ул. \"Баба Вида\" №29, п.к. 1510","addr:country":"BG","name":"Магазин Ф11: ж.к. „Хаджи Димитър“","website":"https://www.fantastico.bg/shops/f11","opening_hours":"07:30-22:00","image":"https://www.fantastico.bg/attachments/Shop/21/gallery/DSC-9518_thumb-list.jpg","brand":"Фантастико","brand:wikidata":"Q61140834"},"coordinates":[42.7090063,23.35544870000001]},"dist":3.792,"tags_mismatch":true},{"osm":{"type":"way","id":146542079,"tags":{"addr:city":"София","addr:housenumber":"26","addr:postcode":"1229","addr:street":"Хан Кубрат","brand":"Фантастико","brand:wikidata":"Q61140834","building":"retail","building:levels":"1","int_name":"Fantastico","opening_hours":"Mo-Su 07:30-22:00","roof:levels":"0","roof:shape":"flat","shop":"supermarket","website":"https://www.fantastico.bg","wheelchair":"yes"},"wikidata":"Q61140834","coordinates":[42.7305826,23.2875431]},"atp":{"id":"o6W9gvs5TVYT4iNk2iIX42Xy45E=","tags":{"ref":"17","shop":"supermarket","addr:full":"гр. София, бул. \"Хан Кубрат\" №26, п.к. 1229","addr:country":"BG","name":"Магазин Ф17: ж.к. „Надежда 3“","website":"https://www.fantastico.bg/shops/f17","opening_hours":"07:30-22:00","image":"https://www.fantastico.bg/attachments/Shop/27/gallery/IMG-3158_thumb-list.jpg","brand":"Фантастико","brand:wikidata":"Q61140834"},"coordinates":[42.73063797632815,23.28740821769111]},"dist":12.621,"tags_mismatch":true},{"osm":{"type":"way","id":166109700,"tags":{"addr:city":"София","addr:housenumber":"3","addr:postcode":"1715","addr:street":"Александър Паскалев","addr:suburb":"ж.к. Младост 4","air_conditioning":"yes","branch":"ж.к. „Младост 4“","brand":"Фантастико","brand:wikidata":"Q61140834","building":"retail","building:levels":"1","check_date":"2023-08-17","int_name":"Fantastico","internet_access":"no","opening_hours":"Mo-Su 07:30-24:00","organic":"yes","payment:mastercard":"yes","payment:visa":"yes","ref":"12","roof:shape":"flat","shop":"supermarket","stroller":"yes","toilets":"yes","toilets:wheelchair":"yes","website":"https://www.fantastico.bg/shops/f12","wheelchair":"yes"},"wikidata":"Q61140834","coordinates":[42.6358391,23.3772286]},"atp":{"id":"CYbR_llIMmAD-BxTJ9gbRVWa_aY=","tags":{"ref":"12","shop":"supermarket","addr:full":"гр. София, ул. \"Александър Паскалев\" №3, п.к. 1715","addr:country":"BG","name":"Магазин Ф12: ж.к. „Младост 4“","website":"https://www.fantastico.bg/shops/f12","opening_hours":"07:30-22:00","image":"https://www.fantastico.bg/attachments/Shop/22/gallery/IMG-5237_thumb-list.jpg","brand":"Фантастико","brand:wikidata":"Q61140834"},"coordinates":[42.63556198742513,23.376725779901108]},"dist":51.394,"tags_mismatch":true},{"osm":{"type":"way","id":166110149,"tags":{"addr:city":"София","addr:housenumber":"срещу бл. 321","addr:postcode":"1229","addr:street":"102","branch":"ж.к. „Младост 3“","brand":"Фантастико","brand:wikidata":"Q61140834","building":"retail","int_name":"Fantastico","opening_hours":"7:30-22:00","ref":"32","shop":"supermarket","website":"https://www.fantastico.bg/shops/f32"},"wikidata":"Q61140834","coordinates":[42.6420821,23.3750817]},"atp":{"id":"-rM1OrIMp3lw9z-o4XGhYT940ZQ=","tags":{"ref":"32","shop":"supermarket","addr:full":"гр. София, ул. \"102\", срещу блок 321, п.к. 1229","addr:country":"BG","name":"Магазин Ф32: ж.к. „Младост 3“","website":"https://www.fantastico.bg/shops/f32","opening_hours":"07:30-22:00","image":"https://www.fantastico.bg/attachments/Shop/42/gallery/1_thumb-list.jpg","brand":"Фантастико","brand:wikidata":"Q61140834"},"coordinates":[42.6420608719108,23.375049692034963]},"dist":3.525,"tags_mismatch":true},{"osm":{"type":"way","id":166213530,"tags":{"addr:city":"София","addr:housenumber":"138","addr:postcode":"1404","addr:street":"Нишава","branch":"ж.к. „Стрелбище“","brand":"Фантастико","brand:wikidata":"Q61140834","building":"retail","building:levels":"1","changing_table:fee":"yes","check_date":"2024-09-05","contact:facebook":"fantastico.stores","contact:instagram":"fantasticostores","int_name":"Fantastico","internet_access":"no","opening_hours":"Mo-Su 07:30-22:00","payment:mastercard":"yes","payment:visa":"yes","ref":"18","shop":"supermarket","toilets":"yes","toilets:access":"yes","website":"https://www.fantastico.bg","wheelchair":"yes"},"wikidata":"Q61140834","coordinates":[42.6718506,23.2999118]},"atp":{"id":"FCTvYUUu-buBWxdK9H1C10jYFvY=","tags":{"ref":"18","shop":"supermarket","addr:full":"гр. София, ул. \"Нишава\" №138, п.к. 1404","addr:country":"BG","name":"Магазин Ф18: ж.к. „Стрелбище“","website":"https://www.fantastico.bg/shops/f18","opening_hours":"07:30-22:00","image":"https://www.fantastico.bg/attachments/Shop/28/gallery/DSC-0041_thumb-list.jpg","brand":"Фантастико","brand:wikidata":"Q61140834"},"coordinates":[42.671978553052256,23.299682149212686]},"dist":23.557,"tags_mismatch":true},{"osm":{"type":"way","id":170004743,"tags":{"addr:city":"София","addr:housenumber":"204","addr:postcode":"1415","addr:street":"бул. Черни връх","branch":"кв. „Драгалевци“","brand":"Фантастико","brand:wikidata":"Q61140834","building":"retail","check_date":"2022-12-05","check_date:opening_hours":"2024-01-27","int_name":"Fantastico","internet_access":"no","opening_hours":"07:30-23:00","payment:mastercard":"yes","payment:visa":"yes","ref":"30","shop":"supermarket","website":"https://www.fantastico.bg/shops/f30","wheelchair":"yes"},"wikidata":"Q61140834","coordinates":[42.6407605,23.3116122]},"atp":{"id":"4NxGPvhrNibzzn5Q44KR2A08ZWw=","tags":{"ref":"30","shop":"supermarket","addr:full":"гр. София, бул. \"Черни връх\" №204, п.к. 1415","addr:country":"BG","name":"Магазин Ф30: Търговски център \"Драгалевци\"","website":"https://www.fantastico.bg/shops/f30","opening_hours":"07:30-00:00","image":"https://www.fantastico.bg/attachments/Shop/40/gallery/20190307-072224_thumb-list.jpg","brand":"Фантастико","brand:wikidata":"Q61140834"},"coordinates":[42.64018588051207,23.311697520098846]},"dist":64.275,"tags_mismatch":true},{"osm":{"type":"way","id":208370463,"tags":{"addr:city":"София","addr:housenumber":"между бл. 96 и бл. 97","addr:postcode":"1517","addr:street":"Тодорини кукли","branch":"бул. „Тодорини кукли“","brand":"Фантастико","brand:wikidata":"Q61140834","building":"retail","building:levels":"1","int_name":"Fantastico","opening_hours":"24/7","ref":"24","shop":"supermarket","website":"https://www.fantastico.bg"},"wikidata":"Q61140834","coordinates":[42.7047819,23.3672775]},"atp":{"id":"dNDLQadiSpwIZLdUOJ73SljSBgE=","tags":{"ref":"24","shop":"supermarket","addr:full":"гр. София, бул. \"Тодорини кукли\", между бл. 96 и бл. 97, п.к. 1517","addr:country":"BG","name":"Магазин Ф24: бул. „Тодорини кукли“","website":"https://www.fantastico.bg/shops/f24","opening_hours":"07:30-24:00","brand":"Фантастико","brand:wikidata":"Q61140834"},"coordinates":[42.70477288793095,23.36738403693994]},"dist":8.763,"tags_mismatch":true},{"osm":{"type":"way","id":221474547,"tags":{"addr:city":"София","addr:housenumber":"140","addr:postcode":"1582","addr:street":"бул. Проф. Цветан Лазаров","branch":"ж.к. „Дружба 2“","brand":"Фантастико","brand:wikidata":"Q61140834","building":"retail","int_name":"Fantastico","opening_hours":"Mo-Su 07:30-22:00","ref":"35","shop":"supermarket","website":"https://www.fantastico.bg"},"wikidata":"Q61140834","coordinates":[42.649782,23.407372]},"atp":{"id":"5TkyjaQvXvKsCB6WqlVAm8fzTeg=","tags":{"ref":"35","shop":"supermarket","addr:full":"гр. Сoфия, бул. \"Проф. Цветан Лазаров\" №140, п.к. 1582","addr:country":"BG","name":"Магазин Ф35: ж.к. „Дружба 2“","website":"https://www.fantastico.bg/shops/f35","opening_hours":"07:30-22:00","image":"https://www.fantastico.bg/attachments/Shop/45/gallery/DSC01863_thumb-list.jpg","brand":"Фантастико","brand:wikidata":"Q61140834"},"coordinates":[42.64996755190429,23.407397216393974]},"dist":20.735,"tags_mismatch":true},{"osm":{"type":"way","id":237524391,"tags":{"addr:city":"София","addr:housenumber":"22","addr:postcode":"1784","addr:street":"Йерусалим","branch":"ж.к. „Младост 1“","brand":"Фантастико","brand:wikidata":"Q61140834","building":"retail","building:levels":"1","int_name":"Fantastico","opening_hours":"7:30-23:00","phone":"+359 88 255 8033","ref":"42","roof:levels":"0","shop":"supermarket","website":"https://www.fantastico.bg/shops/f42"},"wikidata":"Q61140834","coordinates":[42.6560823,23.3741333]},"atp":{"id":"p3h2YzQshgFQ7Eezi0YzSV282do=","tags":{"ref":"42","shop":"supermarket","addr:full":"гр. София, ул. \"Йерусалим\" №22, п.к. 1784","addr:country":"BG","name":"Магазин Ф42: ж.к. „Младост 1“","website":"https://www.fantastico.bg/shops/f42","opening_hours":"07:30-22:00","image":"https://www.fantastico.bg/attachments/Shop/52/gallery/FFF42-1920x1920-ENTR_thumb-list.jpg","brand":"Фантастико","brand:wikidata":"Q61140834"},"coordinates":[42.65601641329193,23.375104554769905]},"dist":79.763,"tags_mismatch":true},{"osm":{"type":"way","id":258370998,"tags":{"addr:city":"София","addr:housenumber":"98","addr:postcode":"1618","addr:street":"Монтевидео","branch":"ж.к. „Овча купел“ 1","brand":"Фантастико","brand:wikidata":"Q61140834","building":"retail","building:levels":"2","int_name":"Fantastico","opening_hours":"Mo-Su 07:30-24:00","ref":"7","shop":"supermarket","website":"https://www.fantastico.bg"},"wikidata":"Q61140834","coordinates":[42.6861471,23.2559525]},"atp":{"id":"lXjvB323A78ziUo20UuQH-DczZ0=","tags":{"ref":"7","shop":"supermarket","addr:full":"гр. София, ул. \"Монтевидео\" №98, п.к. 1618","addr:country":"BG","name":"Магазин Ф7: ж.к. „Овча купел“ 1","website":"https://www.fantastico.bg/shops/f7","opening_hours":"07:30-22:00","image":"https://www.fantastico.bg/attachments/Shop/17/gallery/FFF07-zelenchuci-2_thumb-list.jpg","brand":"Фантастико","brand:wikidata":"Q61140834"},"coordinates":[42.6857711,23.256051800000023]},"dist":42.59,"tags_mismatch":true},{"osm":{"type":"way","id":262375754,"tags":{"addr:city":"София","addr:housenumber":"3, до бл. 2","addr:postcode":"1592","addr:street":"Тирана","branch":"ж.к. „Дружба 1“","brand":"Фантастико","brand:wikidata":"Q61140834","building":"retail","int_name":"Fantastico","opening_hours":"Mo-Su 07:30-24:00","ref":"31","shop":"supermarket","website":"https://www.fantastico.bg"},"wikidata":"Q61140834","coordinates":[42.6649575,23.3926058]},"atp":{"id":"6ny76gpEu1V91uMJXYSIw5ijrHY=","tags":{"ref":"31","shop":"supermarket","addr:full":"гр. София, ул. \"Тирана\" № 3, до бл. 2, п.к. 1592","addr:country":"BG","name":"Магазин Ф31: ж.к. „Дружба 1“","website":"https://www.fantastico.bg/shops/f31","opening_hours":"07:30-22:00","brand":"Фантастико","brand:wikidata":"Q61140834"},"coordinates":[42.664942184268554,23.392572962704435]},"dist":3.179,"tags_mismatch":true},{"osm":{"type":"way","id":264161719,"tags":{"addr:city":"София","addr:housenumber":"15","addr:postcode":"1756","addr:street":"бул. Свети Климент Охридски","branch":"кв. „Дървеница“","brand":"Фантастико","brand:wikidata":"Q61140834","building":"retail","building:levels":"2","int_name":"Fantastico","opening_hours":"Mo-Su 07:30-24:00","ref":"36","shop":"supermarket","website":"https://www.fantastico.bg","wheelchair":"yes"},"wikidata":"Q61140834","coordinates":[42.65387,23.3604732]},"atp":{"id":"d3tnEEo_efQGIgB9UuRvq3VcR1E=","tags":{"ref":"36","shop":"supermarket","addr:full":"гр. София, бул. \"Св. Климент Охридски\" №15, п.к. 1756","addr:country":"BG","name":"Магазин Ф36: кв. „Дървеница“","website":"https://www.fantastico.bg/shops/f36","opening_hours":"07:30-22:00","image":"https://www.fantastico.bg/attachments/Shop/46/gallery/DSC-4278_thumb-list.jpg","brand":"Фантастико","brand:wikidata":"Q61140834"},"coordinates":[42.653817962229645,23.360409676790596]},"dist":7.776,"tags_mismatch":true},{"osm":{"type":"way","id":302265406,"tags":{"addr:city":"София","addr:housenumber":"14","addr:postcode":"1220","addr:street":"Св. Никола Нови","brand":"Фантастико","brand:wikidata":"Q61140834","building":"retail","building:levels":"2","check_date:opening_hours":"2021-04-14","int_name":"Fantastico","opening_hours":"Mo-Su 07:30-22:00","shop":"supermarket","website":"https://www.fantastico.bg"},"wikidata":"Q61140834","coordinates":[42.7320629,23.305983]},"atp":{"id":"7FeA41y2y6eSz8te8wi09uA9550=","tags":{"ref":"23","shop":"supermarket","addr:full":"гр. София, ул. \"Св. Никола Нови\" №14, п.к. 1220","addr:country":"BG","name":"Магазин Ф23: ж.к. „Надежда 2“","website":"https://www.fantastico.bg/shops/f23","opening_hours":"07:30-22:00","brand":"Фантастико","brand:wikidata":"Q61140834"},"coordinates":[42.732093743890005,23.305895510064715]},"dist":7.926,"tags_mismatch":true},{"osm":{"type":"way","id":397533233,"tags":{"addr:city":"София","addr:housenumber":"15","addr:postcode":"1715","addr:street":"Д-р Атанас Москов","branch":"ж.к. Младост 4, F21","brand":"Фантастико","brand:wikidata":"Q61140834","building":"retail","building:levels":"1","building:levels:underground":"1","check_date":"2024-03-28","check_date:opening_hours":"2023-06-06","int_name":"Fantastico","internet_access":"no","opening_hours":"07:30-22:00","organic":"yes","payment:mastercard":"yes","payment:visa":"yes","ref":"21","shop":"supermarket","toilets:access":"customers","toilets:wheelchair":"designated","website":"https://www.fantastico.bg","wheelchair":"yes"},"wikidata":"Q61140834","coordinates":[42.6274658,23.3788502]},"atp":{"id":"lnnshoHH5e52I4FStb-7RTsLrK8=","tags":{"ref":"21","shop":"supermarket","addr:full":"гр. София, ул. \"Д-р Атанас Москов\" №15, п.к. 1715","addr:country":"BG","name":"Магазин Ф21: ж.к. „Младост 4“ /до Бизнес парк/","website":"https://www.fantastico.bg/shops/f21","opening_hours":"07:30-22:00","image":"https://www.fantastico.bg/attachments/Shop/31/gallery/fasada_thumb-list.jpg","brand":"Фантастико","brand:wikidata":"Q61140834"},"coordinates":[42.62733056338495,23.378956111669936]},"dist":17.356,"tags_mismatch":true},{"osm":{"type":"way","id":430872259,"tags":{"addr:city":"София","addr:housenumber":"64","addr:postcode":"1618","addr:street":"бул. Александър С. Пушкин","branch":"кв. „Бояна“","brand":"Фантастико","brand:wikidata":"Q61140834","building":"retail","building:levels":"1","int_name":"Fantastico","opening_hours":"Mo-Su 07:30-22:00","ref":"19","shop":"supermarket","website":"https://www.fantastico.bg"},"wikidata":"Q61140834","coordinates":[42.6585255,23.2642572]},"atp":{"id":"7--2hUVNzbppy3dqdUmensm4H08=","tags":{"ref":"19","shop":"supermarket","addr:full":"гр. София, бул. \"А.С.Пушкин\" №64, п.к. 1618","addr:country":"BG","name":"Магазин Ф19: кв. „Бояна“","website":"https://www.fantastico.bg/shops/f19","opening_hours":"07:30-22:00","image":"https://www.fantastico.bg/attachments/Shop/29/gallery/DSC-8740w_thumb-list.jpg","brand":"Фантастико","brand:wikidata":"Q61140834"},"coordinates":[42.6585907,23.264452000000006]},"dist":17.502,"tags_mismatch":true},{"osm":{"type":"way","id":461333945,"tags":{"addr:city":"Кюстендил","addr:housenumber":"231","addr:postcode":"2501","addr:street":"Цар Освободител","brand":"Фантастико","brand:wikidata":"Q61140834","building":"retail","opening_hours":"Mo-Su 07:30-22:00","ref":"29","shop":"supermarket","website":"https://www.fantastico.bg"},"wikidata":"Q61140834","coordinates":[42.2834465,22.7005133]},"atp":{"id":"Oplb8Rsgv8TcErKG9hUrdspiyho=","tags":{"ref":"29","shop":"supermarket","addr:full":"ул. \"Цар Освободител\" № 231, п.к. 2501","addr:country":"BG","name":"Магазин Ф29: Кюстендил","website":"https://www.fantastico.bg/shops/f29","opening_hours":"07:30-22:00","image":"https://www.fantastico.bg/attachments/Shop/39/gallery/6_thumb-list.jpg","brand":"Фантастико","brand:wikidata":"Q61140834"},"coordinates":[42.2868817,22.693930799999976]},"tags_mismatch":true},{"osm":{"type":"way","id":498621144,"tags":{"addr:city":"София","addr:housenumber":"42А","addr:postcode":"1618","addr:street":"Любляна","brand":"Фантастико","brand:wikidata":"Q61140834","building":"retail","int_name":"Fantastico","opening_hours":"Mo-Su 07:30-22:00","shop":"supermarket","website":"https://www.fantastico.bg/shops/f38"},"wikidata":"Q61140834","coordinates":[42.670848,23.2577488]},"atp":{"id":"dfB-HMrVC-zdH8jUXtcNIcTF6Os=","tags":{"ref":"38","shop":"supermarket","addr:full":"гр. София, ул. \"Любляна\" №42А, п.к 1618","addr:country":"BG","name":"Магазин Ф38: ж.к. „Овча купел“","website":"https://www.fantastico.bg/shops/f38","opening_hours":"07:30-23:00","image":"https://www.fantastico.bg/attachments/Shop/48/gallery/fasada-1_thumb-list.jpg","brand":"Фантастико","brand:wikidata":"Q61140834"},"coordinates":[42.67093332573923,23.258409780426064]},"dist":54.866,"tags_mismatch":true},{"osm":{"type":"way","id":505867827,"tags":{"addr:city":"Елин Пелин","addr:housenumber":"7","addr:postcode":"2100","addr:street":"Витоша","branch":"гр. Елин Пелин","brand":"Фантастико","brand:wikidata":"Q61140834","building":"retail","int_name":"Fantastico","opening_hours":"Mo-Su 07:30-23:00","ref":"41","shop":"supermarket","website":"https://www.fantastico.bg/shops/f41"},"wikidata":"Q61140834","coordinates":[42.6638349,23.5966258]},"atp":{"id":"beybRUiUvdcb3_kY0kCyS3m-QW4=","tags":{"ref":"41","shop":"supermarket","addr:full":"ул. \"Витоша\" №7, п.к. 2100","addr:country":"BG","name":"Магазин Ф41: гр. Елин Пелин","website":"https://www.fantastico.bg/shops/f41","opening_hours":"07:30-22:00","image":"https://www.fantastico.bg/attachments/Shop/51/gallery/plodove_thumb-list.jpg","brand":"Фантастико","brand:wikidata":"Q61140834"},"coordinates":[42.6638577,23.596635200000037]},"dist":2.649,"tags_mismatch":true},{"osm":{"type":"way","id":574553748,"tags":{"addr:housenumber":"52","addr:street":"Юрий Гагарин","brand":"Фантастико","brand:wikidata":"Q61140834","building":"yes","check_date":"2023-03-11","internet_access":"no","payment:mastercard":"yes","payment:visa":"yes","shop":"supermarket","website":"https://www.fantastico.bg/shops/f45","wheelchair":"yes"},"wikidata":"Q61140834","coordinates":[42.6040375,23.1138677]},"atp":{"id":"b_Em_3zq93FhXMgOL78Q0-_7jVg=","tags":{"ref":"45","shop":"supermarket","addr:full":"гр. Перник, ул. \"Юрий Гагарин\" №52, п.к. 2304","addr:country":"BG","name":"Магазин Ф45: Търговски център Фантастико - гр. Перник","website":"https://www.fantastico.bg/shops/f45","opening_hours":"07:30-22:00","image":"https://www.fantastico.bg/attachments/Shop/56/gallery/119555_thumb-list.jpg","brand":"Фантастико","brand:wikidata":"Q61140834"},"coordinates":[42.60394,23.11426]},"dist":33.889,"tags_mismatch":true},{"osm":{"type":"way","id":825146967,"tags":{"addr:housenumber":"51А","addr:postcode":"1618","addr:street":"Пирин","branch":"F14","brand":"Фантастико","brand:wikidata":"Q61140834","building":"yes","check_date":"2024-03-01","check_date:opening_hours":"2023-08-06","currency:BGN":"yes","currency:EUR":"yes","internet_access":"no","opening_hours":"Mo-Su 07:30-22:00","payment:cash":"yes","payment:credit_cards":"yes","payment:debit_cards":"yes","shop":"supermarket","website":"https://www.fantastico.bg/shops/f43","wheelchair":"yes"},"wikidata":"Q61140834","coordinates":[42.6655557,23.279969]},"atp":{"id":"MCKjprHHYXi_krCfQa5uVPQd2Ag=","tags":{"ref":"43","shop":"supermarket","addr:full":"гр. София, кв. \"Манастирски ливади\", ул. \"Пирин\" 51А, п.к. 1404","addr:country":"BG","name":"Магазин Ф43: кв. \"Манастирски ливади\"","website":"https://www.fantastico.bg/shops/f43","opening_hours":"07:30-22:00","image":"https://www.fantastico.bg/attachments/Shop/54/gallery/PiZ_thumb-list.jpg","brand":"Фантастико","brand:wikidata":"Q61140834"},"coordinates":[42.66572970000001,23.279747]},"dist":26.53,"tags_mismatch":true},{"osm":{"type":"way","id":1139639508,"tags":{"brand":"Фантастико","brand:wikidata":"Q61140834","building":"yes","opening_hours":"7:30-22:00","ref":"14","shop":"supermarket","website":"https://www.fantastico.bg/shops/f14"},"wikidata":"Q61140834","coordinates":[42.9079859,23.7853782]},"atp":{"id":"smsfRlq2_PHXwQ48E_3oF501PJY=","tags":{"ref":"14","shop":"supermarket","addr:full":"ул. “Витоша“ №1А","addr:country":"BG","name":"Магазин Ф14: гр. Ботевград","website":"https://www.fantastico.bg/shops/f14","opening_hours":"07:30-22:00","image":"https://www.fantastico.bg/attachments/Shop/53/gallery/20211221-131859_thumb-list.jpg","brand":"Фантастико","brand:wikidata":"Q61140834"},"coordinates":[42.908017608317365,23.785349150729242]},"dist":4.246,"tags_mismatch":true}]}