{"metadata":{"type":"brand","wikidata":"Q64033983","name":"Т-Маркет","compare_keys":["opening_hours"]},"data":[{"osm":{"type":"node","id":166613987,"tags":{"brand":"Т-Маркет","brand:wikidata":"Q64033983","int_name":"T-Market","shop":"supermarket","website":"https://tmarket.bg/"},"wikidata":"Q64033983","coordinates":[42.6685879,23.3943282]},"atp":{"id":"_g89HhqtxntLRoeBVEFurJISnes=","tags":{"shop":"supermarket","addr:country":"BG","name":"Т-Маркет","opening_hours":"Mo-Su 08:00-22:00","brand":"T-Market","brand:wikidata":"Q64033983"},"coordinates":[42.0553855,25.5872625]},"tags_mismatch":true},{"osm":{"type":"node","id":179925154,"tags":{"brand":"Т-Маркет","brand:wikidata":"Q64033983","int_name":"T-Market","shop":"supermarket","website":"https://tmarket.bg/"},"wikidata":"Q64033983","coordinates":[42.6690445,23.3894123]},"atp":{"id":"CzybUiio-a_RWaV8yz1vm25k500=","tags":{"shop":"supermarket","addr:country":"BG","name":"Т-Маркет","opening_hours":"Mo-Su 08:00-22:00","brand":"T-Market","brand:wikidata":"Q64033983"},"coordinates":[42.669089223521524,23.387420915755254]},"dist":162.89,"tags_mismatch":true},{"osm":{"type":"node","id":346417672,"tags":{"addr:city":"Слънчев бряг","addr:postcode":"8240","addr:street":"кв. Камелия, зона Запад","brand":"Т-Маркет","brand:wikidata":"Q64033983","shop":"supermarket"},"wikidata":"Q64033983","coordinates":[42.6876122,27.7051478]},"atp":{"id":"lQhBoQXkAylWBMu0-MbIS2fHIA0=","tags":{"shop":"supermarket","addr:country":"BG","name":"Т-Маркет","opening_hours":"Mo-Su 08:00-22:00","brand":"T-Market","brand:wikidata":"Q64033983"},"coordinates":[42.18708276097957,24.335090424267566]},"tags_mismatch":true},{"osm":{"type":"node","id":1286888161,"tags":{"brand":"Т-Маркет","brand:wikidata":"Q64033983","int_name":"T-Market","opening_hours":"PH,Mo-Su 08:00-22:00","shop":"supermarket","toilets:wheelchair":"no","website":"https://tmarket.bg/","wheelchair":"yes"},"wikidata":"Q64033983","coordinates":[42.6742628,23.3588253]},"atp":{"id":"orptMZ7V4EXxne4Fy9R987yNO-I=","tags":{"shop":"supermarket","addr:country":"BG","name":"Т-Маркет","opening_hours":"Mo-Su 08:00-22:00","brand":"T-Market","brand:wikidata":"Q64033983"},"coordinates":[42.67428932319137,23.35670111575532]},"dist":173.683,"tags_mismatch":true},{"osm":{"type":"node","id":1391113323,"tags":{"brand":"Т-Маркет","brand:wikidata":"Q64033983","shop":"supermarket"},"wikidata":"Q64033983","coordinates":[42.1568748,24.7434396]},"atp":{"id":"j8jKiWH7HsNoOEXUPKPioRgO9q8=","tags":{"shop":"supermarket","addr:full":"гр. Бургас, ул. Марагидик №17","addr:country":"BG","name":"Т-Маркет","opening_hours":"Mo-Su 08:00-22:00","brand":"T-Market","brand:wikidata":"Q64033983"},"coordinates":[42.4951534,27.4710685]},"tags_mismatch":true},{"osm":{"type":"node","id":1419025402,"tags":{"brand":"Т-Маркет","brand:wikidata":"Q64033983","int_name":"T-Market","opening_hours":"PH,Mo-Su 08:00-22:00","shop":"supermarket"},"wikidata":"Q64033983","coordinates":[43.4360623,28.3369796]},"atp":{"id":"Xw8SCo2x-MKR_WbqwyHyTKGYoTY=","tags":{"shop":"supermarket","addr:country":"BG","name":"Т-Маркет","opening_hours":"Mo-Su 08:00-23:00","brand":"T-Market","brand:wikidata":"Q64033983"},"coordinates":[43.43579937912934,28.335839115490717]},"dist":96.616,"tags_mismatch":true},{"osm":{"type":"node","id":1615898778,"tags":{"addr:street":"Съединение","brand":"Т-Маркет","brand:wikidata":"Q64033983","shop":"supermarket"},"wikidata":"Q64033983","coordinates":[42.1287209,24.7804012]},"atp":{"id":"g_bvRSinx4R_5pJskQIkoGw2taI=","tags":{"shop":"supermarket","addr:full":"гр. Бургас","addr:country":"BG","name":"Т-Маркет","opening_hours":"Mo-Su 08:00-22:00","brand":"T-Market","brand:wikidata":"Q64033983"},"coordinates":[42.45523,27.418675]},"tags_mismatch":true},{"osm":{"type":"node","id":2162716961,"tags":{"brand":"Т-Маркет","brand:wikidata":"Q64033983","shop":"supermarket"},"wikidata":"Q64033983","coordinates":[42.3329552,23.5559215]},"atp":{"id":"uN5b2OjleTJ6hXo-njVTA7H8tTY=","tags":{"shop":"supermarket","addr:country":"BG","name":"Т-Маркет","opening_hours":"Mo-Su 08:00-22:00","brand":"T-Market","brand:wikidata":"Q64033983"},"coordinates":[42.33293804480646,23.553828015498656]},"dist":172.095,"tags_mismatch":true},{"osm":{"type":"node","id":2186786962,"tags":{"brand":"Т-Маркет","brand:wikidata":"Q64033983","check_date:opening_hours":"2023-09-25","contact:phone":"+359 2 868 1317","int_name":"T-Market","opening_hours":"PH,Mo-Su 08:00-22:00","shop":"supermarket","website":"https://tmarket.bg/"},"wikidata":"Q64033983","coordinates":[42.6694425,23.3233538]},"atp":{"id":"0lT578FrszSaH3rAW79us6oPwJY=","tags":{"shop":"supermarket","addr:country":"BG","name":"Т-Маркет","opening_hours":"Mo-Su 08:00-22:00","brand":"T-Market","brand:wikidata":"Q64033983"},"coordinates":[42.66944382349949,23.32126021550752]},"dist":171.169,"tags_mismatch":true},{"osm":{"type":"node","id":2208059400,"tags":{"brand":"Т-Маркет","brand:wikidata":"Q64033983","int_name":"T-Market","opening_hours":"Mo-Sa 08:00-22:00; Su 08:00-21:00","shop":"supermarket","website":"https://tmarket.bg/"},"wikidata":"Q64033983","coordinates":[42.706473,23.2852778]},"atp":{"id":"rrMuRUw14Lne3cf0iN_ih0J7EhU=","tags":{"shop":"supermarket","addr:country":"BG","name":"Т-Маркет","opening_hours":"Mo-Su 08:00-22:00","brand":"T-Market","brand:wikidata":"Q64033983"},"coordinates":[42.0993826,27.9396268]},"tags_mismatch":true},{"osm":{"type":"node","id":2362564606,"tags":{"brand":"Т-Маркет","brand:wikidata":"Q64033983","int_name":"T-Market","opening_hours":"Mo-Su 07:30-24:00","self_checkout":"no","shop":"supermarket","website":"https://tmarket.bg/","wheelchair":"yes"},"wikidata":"Q64033983","coordinates":[42.6775821,23.2969324]},"atp":{"id":"HI0ozxvEEHxvMNU4-VDGXapmrx0=","tags":{"shop":"supermarket","addr:country":"BG","name":"Т-Маркет","opening_hours":"Mo-Su 08:00-22:00","brand":"T-Market","brand:wikidata":"Q64033983"},"coordinates":[42.4396423,27.6375164]},"tags_mismatch":true},{"osm":{"type":"node","id":2560723098,"tags":{"addr:housenumber":"27","addr:street":"Велчо Атанасов","brand":"Т-Маркет","brand:wikidata":"Q64033983","int_name":"T-Market","opening_hours":"PH,Mo-Su 08:00-22:00","shop":"supermarket","website":"https://tmarket.bg/"},"wikidata":"Q64033983","coordinates":[42.6930883,23.3600454]},"atp":{"id":"5zL4kFGrvDGnY7M4_NEYzEx0jhs=","tags":{"shop":"supermarket","addr:country":"BG","name":"Т-Маркет","opening_hours":"Mo-Su 08:00-22:00","brand":"T-Market","brand:wikidata":"Q64033983"},"coordinates":[42.69310257916599,23.35784331546685]},"dist":179.979,"tags_mismatch":true},{"osm":{"type":"node","id":2561299949,"tags":{"brand":"Т-Маркет","brand:wikidata":"Q64033983","int_name":"T-Market","opening_hours":"PH,Mo-Su 08:00-22:00","shop":"supermarket","website":"https://tmarket.bg/"},"wikidata":"Q64033983","coordinates":[42.6915983,23.3631733]},"atp":{"id":"A2b2o4wGS0rTWOfJZn0BR91OZX0=","tags":{"shop":"supermarket","addr:full":"гр. Плевен, пл. Иван Миндиликов № 1","addr:country":"BG","name":"Т-Маркет","opening_hours":"Mo-Su 10:00-21:30","brand":"T-Market","brand:wikidata":"Q64033983"},"coordinates":[43.4201143,24.6200017]},"tags_mismatch":true},{"osm":{"type":"node","id":3080013027,"tags":{"brand":"Т-Маркет","brand:wikidata":"Q64033983","int_name":"T-Market","shop":"supermarket","website":"https://tmarket.bg/"},"wikidata":"Q64033983","coordinates":[42.7132173,23.2699706]},"atp":{"id":"DVLE3VvmYNFFQJj5KxHZ_Z4wdwQ=","tags":{"shop":"supermarket","addr:full":"гр. Дупница, ул. Иван Вазов 26","addr:country":"BG","name":"Т-Маркет","opening_hours":"Mo-Su 08:00-22:00","brand":"T-Market","brand:wikidata":"Q64033983"},"coordinates":[42.26704579134762,23.11231671099097]},"tags_mismatch":true},{"osm":{"type":"node","id":3193692275,"tags":{"addr:housenumber":"102","addr:street":"Костенски водопад","brand":"Т-Маркет","brand:wikidata":"Q64033983","check_date":"2023-11-20","contact:phone":"+359 2 869 0400","int_name":"T-Market","internet_access":"no","opening_hours":"08:00-22:00","payment:mastercard":"yes","payment:visa":"yes","shop":"supermarket","website":"https://tmarket.bg/","wheelchair":"yes"},"wikidata":"Q64033983","coordinates":[42.6624239,23.2953465]},"atp":{"id":"jqFLNm3tdd6P5dTgcz03BS2TToM=","tags":{"shop":"supermarket","addr:country":"BG","name":"Т-Маркет","opening_hours":"Mo-Su 08:00-22:00","brand":"T-Market","brand:wikidata":"Q64033983"},"coordinates":[42.66249782394021,23.2933834157551]},"dist":160.728,"tags_mismatch":true},{"osm":{"type":"node","id":3193735086,"tags":{"brand":"Т-Маркет","brand:wikidata":"Q64033983","check_date":"2023-09-24","int_name":"T-Market","opening_hours":"PH,Mo-Su 08:00-22:00","shop":"supermarket","website":"https://tmarket.bg/"},"wikidata":"Q64033983","coordinates":[42.6700448,23.2956465]},"atp":{"id":"BwkJUcqKSlbeToC0gfrN_cBQVJw=","tags":{"shop":"supermarket","addr:country":"BG","name":"Т-Маркет","opening_hours":"Mo-Su 08:00-22:00","brand":"T-Market","brand:wikidata":"Q64033983"},"coordinates":[42.669884023471134,23.293549515755203]},"dist":172.375,"tags_mismatch":true},{"osm":{"type":"node","id":3688615499,"tags":{"brand":"Т-Маркет","brand:wikidata":"Q64033983","opening_hours":"Mo-Su 08:00-22:00","shop":"supermarket","start_date":"2024-03-05"},"wikidata":"Q64033983","coordinates":[42.6770156,23.3335941]},"atp":{"id":"iSk-aDunHCj01_h71Qomb3vLC2c=","tags":{"shop":"supermarket","addr:full":"Търговски комплекс HOLIDAY PARK Хасково, на адрес Димитровградско шосе, срещу Бирената фабрика","addr:country":"BG","name":"Т-Маркет","opening_hours":"Mo-Su 08:00-21:00","brand":"T-Market","brand:wikidata":"Q64033983"},"coordinates":[41.970438,25.5600381]},"tags_mismatch":true},{"osm":{"type":"node","id":3706827112,"tags":{"brand":"Т-Маркет","brand:wikidata":"Q64033983","shop":"supermarket"},"wikidata":"Q64033983","coordinates":[42.5033849,27.4731769]},"atp":{"id":"FBeNA_W6Y8X8Kz5ATJHOMgnWl3s=","tags":{"shop":"supermarket","addr:full":"гр. Бургас, ул. Константин Величков 34.","addr:country":"BG","name":"Т-Маркет","opening_hours":"Mo-Su 08:00-22:00","brand":"T-Market","brand:wikidata":"Q64033983"},"coordinates":[42.50322477917743,27.471312115460837]},"dist":153.903,"tags_mismatch":true},{"osm":{"type":"node","id":4105523119,"tags":{"brand":"Т-Маркет","brand:wikidata":"Q64033983","shop":"supermarket"},"wikidata":"Q64033983","coordinates":[42.1482368,24.7319075]},"atp":{"id":"jGI2QME4PTQwKkB6PWxfMvQO3Ag=","tags":{"shop":"supermarket","addr:country":"BG","name":"Т-Маркет","opening_hours":"Mo-Su 08:00-22:00","brand":"T-Market","brand:wikidata":"Q64033983"},"coordinates":[42.14823807920169,24.729804715223956]},"dist":173.356,"tags_mismatch":true},{"osm":{"type":"node","id":4152317792,"tags":{"brand":"Т-Маркет","brand:wikidata":"Q64033983","int_name":"T-Market","opening_hours":"PH,Mo-Su 08:00-22:00","shop":"supermarket","website":"https://tmarket.bg/","wheelchair":"no"},"wikidata":"Q64033983","coordinates":[42.6831403,23.2874562]},"atp":{"id":"oLQmxmgZ4oGE6CqmtDOfpCL5jdY=","tags":{"shop":"supermarket","addr:country":"BG","name":"Т-Маркет","opening_hours":"Mo-Su 08:00-22:00","brand":"T-Market","brand:wikidata":"Q64033983"},"coordinates":[42.683180666520855,23.28641025826766]},"dist":85.614,"tags_mismatch":true},{"osm":{"type":"node","id":4226457990,"tags":{"brand":"Т-Маркет","brand:wikidata":"Q64033983","shop":"supermarket"},"wikidata":"Q64033983","coordinates":[43.2074283,24.1624]},"atp":{"id":"bElCDtFgEAdpZBAKAg1Om-91GpA=","tags":{"shop":"supermarket","addr:country":"BG","name":"Т-Маркет","opening_hours":"Mo-Sa 08:00-22:00; Su 08:00-21:00","brand":"T-Market","brand:wikidata":"Q64033983"},"coordinates":[43.20756758914991,24.160208615521668]},"dist":178.281,"tags_mismatch":true},{"osm":{"type":"node","id":4592342679,"tags":{"brand":"Т-Маркет","brand:wikidata":"Q64033983","int_name":"T-Market","shop":"supermarket","website":"https://tmarket.bg/"},"wikidata":"Q64033983","coordinates":[42.7045505,23.3666255]},"atp":{"id":"xZ054Ou2XfPlJg0Z1AX3hKkLjmw=","tags":{"shop":"supermarket","addr:country":"BG","name":"Т-Маркет","opening_hours":"Mo-Su 08:00-22:00","brand":"T-Market","brand:wikidata":"Q64033983"},"coordinates":[42.70393204435204,23.365965052467935]},"dist":87.417,"tags_mismatch":true},{"osm":{"type":"node","id":4791350022,"tags":{"addr:city":"Ловеч","addr:housenumber":"2","addr:postcode":"5502","addr:street":"бул. „Мизия“","brand":"Т-Маркет","brand:wikidata":"Q64033983","opening_hours":"Mo-Su 08:00-21:00","payment:cash":"yes","payment:coins":"yes","payment:credit_cards":"yes","payment:debit_cards":"yes","payment:notes":"yes","shop":"supermarket","website":"https://tmarket.bg/"},"wikidata":"Q64033983","coordinates":[43.1505563,24.7165919]},"atp":{"id":"Bt6cLKf8G2UMagJU4-3fF_rmIHs=","tags":{"shop":"supermarket","addr:country":"BG","name":"Т-Маркет","opening_hours":"Mo-Su 08:00-22:00","brand":"T-Market","brand:wikidata":"Q64033983"},"coordinates":[43.150460292811445,24.714354315520215]},"dist":181.834,"tags_mismatch":true},{"osm":{"type":"node","id":4938157906,"tags":{"brand":"Т-Маркет","brand:wikidata":"Q64033983","int_name":"T-Market","opening_hours":"Mo-Su 07:30-22:00","shop":"supermarket","website":"https://tmarket.bg/","wheelchair":"yes"},"wikidata":"Q64033983","coordinates":[42.6646636,23.3623831]},"atp":{"id":"4U06eSANnMhY7m1a_-42-gCCU-g=","tags":{"shop":"supermarket","addr:country":"BG","name":"Т-Маркет","opening_hours":"Mo-Sa 07:30-22:00; Su 08:00-22:00","brand":"T-Market","brand:wikidata":"Q64033983"},"coordinates":[42.66483902379204,23.360250215507453]},"dist":175.483,"tags_mismatch":true},{"osm":{"type":"node","id":5389332242,"tags":{"atm":"yes","brand":"Т-Маркет","brand:wikidata":"Q64033983","shop":"supermarket"},"wikidata":"Q64033983","coordinates":[42.140395,24.7938252]},"atp":{"id":"6f9Z5SRxQmVf0ck26HzdNcXXk9U=","tags":{"shop":"supermarket","addr:full":"ул. Тича 25","addr:country":"BG","name":"Т-Маркет","opening_hours":"Mo-Su 08:00-22:00","brand":"T-Market","brand:wikidata":"Q64033983"},"coordinates":[42.995263,27.7219173]},"tags_mismatch":true},{"osm":{"type":"node","id":5646112861,"tags":{"brand":"Т-Маркет","brand:wikidata":"Q64033983","shop":"supermarket"},"wikidata":"Q64033983","coordinates":[42.6514955,26.9843412]},"atp":{"id":"32DxiaNAqnMp-zTmFJLLLY6WgU8=","tags":{"shop":"supermarket","addr:country":"BG","name":"Т-Маркет","opening_hours":"Mo-Su 08:00-22:00","brand":"T-Market","brand:wikidata":"Q64033983"},"coordinates":[42.65163882463022,26.982027915507064]},"dist":189.856,"tags_mismatch":true},{"osm":{"type":"node","id":6552453587,"tags":{"brand":"Т-Маркет","brand:wikidata":"Q64033983","shop":"supermarket"},"wikidata":"Q64033983","coordinates":[42.9177082,24.2642495]},"atp":{"id":"16upqOQV8iVmzMD5Dh9qhr1Wnks=","tags":{"shop":"supermarket","addr:country":"BG","name":"Т-Маркет","opening_hours":"Mo-Su 07:00-22:00","brand":"T-Market","brand:wikidata":"Q64033983"},"coordinates":[42.917778807689906,24.26222251551403]},"dist":165.247,"tags_mismatch":true},{"osm":{"type":"node","id":6678721503,"tags":{"brand":"Т-Маркет","brand:wikidata":"Q64033983","shop":"supermarket"},"wikidata":"Q64033983","coordinates":[43.7742043,23.7289467]},"atp":{"id":"-iMMeNOu2abbatSwOqjc3a9TnUY=","tags":{"shop":"supermarket","addr:country":"BG","name":"Т-Маркет","opening_hours":"Mo-Su 08:00-21:00","brand":"T-Market","brand:wikidata":"Q64033983"},"coordinates":[43.77377825264311,23.726327115536876]},"dist":215.598,"tags_mismatch":true},{"osm":{"type":"node","id":6726372285,"tags":{"brand":"Т-Маркет","brand:wikidata":"Q64033983","shop":"supermarket"},"wikidata":"Q64033983","coordinates":[42.0977033,25.2250988]},"atp":{"id":"gVEXnSPZDoIkbSANE4jlXO5Kslg=","tags":{"shop":"supermarket","addr:full":"Горна Оряховица, ул. Васил Левски 10","addr:country":"BG","name":"Т-Маркет","opening_hours":"Mo-Su 08:00-22:00","brand":"T-Market","brand:wikidata":"Q64033983"},"coordinates":[43.1322052,25.6843404]},"tags_mismatch":true},{"osm":{"type":"node","id":6819939488,"tags":{"brand":"Т-Маркет","brand:wikidata":"Q64033983","shop":"supermarket"},"wikidata":"Q64033983","coordinates":[43.1126668,26.4179585]},"atp":{"id":"SmSmy4-FFEqTxnNxdOJ-6FyACMI=","tags":{"shop":"supermarket","addr:country":"BG","name":"Т-Маркет","opening_hours":"Mo-Su 08:00-21:00","brand":"T-Market","brand:wikidata":"Q64033983"},"coordinates":[43.1123681,26.418758399999998]},"dist":72.933,"tags_mismatch":true},{"osm":{"type":"node","id":7166914225,"tags":{"addr:city":"София","brand":"Т-Маркет","brand:wikidata":"Q64033983","int_name":"T-Market","shop":"supermarket","website":"https://tmarket.bg/"},"wikidata":"Q64033983","coordinates":[42.7244572,23.2470503]},"atp":{"id":"66Vh5IOnqLF_PuzcFoS7Qiuz6Xc=","tags":{"shop":"supermarket","addr:country":"BG","name":"Т-Маркет","opening_hours":"Mo-Su 08:00-22:00","brand":"T-Market","brand:wikidata":"Q64033983"},"coordinates":[42.724441920004,23.244855315756386]},"dist":179.309,"tags_mismatch":true},{"osm":{"type":"node","id":7252292078,"tags":{"addr:city":"София","addr:housenumber":"44","addr:street":"бул. Панчо Владигеров","brand":"Т-Маркет","brand:wikidata":"Q64033983","contact:phone":"+359 2 824 0091","int_name":"T-Market","shop":"supermarket","website":"https://tmarket.bg/"},"wikidata":"Q64033983","coordinates":[42.7179168,23.2521424]},"atp":{"id":"N8Ks8-FpmA3JItDO0ANAejiPplU=","tags":{"shop":"supermarket","addr:country":"BG","name":"Т-Маркет","opening_hours":"Mo-Fr 07:30-22:00; Su 08:00-22:00","brand":"T-Market","brand:wikidata":"Q64033983"},"coordinates":[42.71773357916453,23.250055915467687]},"dist":171.669,"tags_mismatch":true},{"osm":{"type":"node","id":7804149418,"tags":{"brand":"Т-Маркет","brand:wikidata":"Q64033983","shop":"supermarket"},"wikidata":"Q64033983","coordinates":[41.5760307,23.7427801]},"atp":{"id":"tkeqen1wJNIMvKK1xMrRqDjvfrE=","tags":{"shop":"supermarket","addr:country":"BG","name":"Т-Маркет","opening_hours":"Mo-Su 08:00-22:00","brand":"T-Market","brand:wikidata":"Q64033983"},"coordinates":[41.57595999224648,23.740721515479088]},"dist":171.418,"tags_mismatch":true},{"osm":{"type":"node","id":9343137709,"tags":{"addr:city":"Пловдив","addr:housenumber":"1","addr:postcode":"4006","addr:street":"Герлово","brand":"Т-Маркет","brand:wikidata":"Q64033983","shop":"supermarket"},"wikidata":"Q64033983","coordinates":[42.1524982,24.7898906]},"atp":{"id":"Sin10v1O9WCjfeWMwnQV5nHXV7Y=","tags":{"shop":"supermarket","addr:full":"гр. Петрич, ул.Свобода 33","addr:country":"BG","name":"Т-Маркет","opening_hours":"Mo-Su 08:00-22:00","brand":"T-Market","brand:wikidata":"Q64033983"},"coordinates":[41.4034669,23.2044808]},"tags_mismatch":true},{"osm":{"type":"node","id":10139140181,"tags":{"brand":"Т-Маркет","brand:wikidata":"Q64033983","shop":"supermarket"},"wikidata":"Q64033983","coordinates":[42.1204838,24.7563346]},"atp":{"id":"66yXc40rCoZ4kyZoCYd98cAct_8=","tags":{"shop":"supermarket","addr:full":"гр. Генерал Тошево, ул. Трети март 14","addr:country":"BG","name":"Т-Маркет","opening_hours":"Mo-Su 07:30-21:00","brand":"T-Market","brand:wikidata":"Q64033983"},"coordinates":[43.7016762,28.0396345]},"tags_mismatch":true},{"osm":{"type":"node","id":10302133514,"tags":{"addr:city":"София","addr:housenumber":"35","addr:postcode":"1734","addr:street":"Акад. Борис Стефанов","brand":"Т-Маркет","brand:wikidata":"Q64033983","opening_hours":"Mo-Su 08:00-24:00; PH off","organic":"yes","shop":"supermarket","wheelchair":"yes"},"wikidata":"Q64033983","coordinates":[42.6458021,23.3419333]},"atp":{"id":"i7lBHQKicUVox_8mHNMwY4hUsNk=","tags":{"shop":"supermarket","addr:country":"BG","name":"Т-Маркет","opening_hours":"Mo-Su 08:00-24:00","brand":"T-Market","brand:wikidata":"Q64033983"},"coordinates":[42.64580492500015,23.339841515754657]},"dist":171.087,"tags_mismatch":true},{"osm":{"type":"node","id":10895381340,"tags":{"brand":"Т-Маркет","brand:wikidata":"Q64033983","shop":"supermarket"},"wikidata":"Q64033983","coordinates":[42.705092,27.2491963]},"atp":{"id":"04mUbPFYlJo0-KH37SXwvqgi43w=","tags":{"shop":"supermarket","addr:country":"BG","name":"Т-Маркет","opening_hours":"Mo-Su 08:00-22:00","brand":"T-Market","brand:wikidata":"Q64033983"},"coordinates":[42.70507242123575,27.24711971550849]},"dist":169.696,"tags_mismatch":true},{"osm":{"type":"node","id":10911021003,"tags":{"brand":"Т-Маркет","brand:wikidata":"Q64033983","payment:cash":"yes","payment:credit_cards":"yes","payment:debit_cards":"yes","shop":"supermarket"},"wikidata":"Q64033983","coordinates":[42.1318832,24.7032494]},"atp":{"id":"kVZm_UXvtoaQbpVl-6akgg748zQ=","tags":{"shop":"supermarket","addr:country":"BG","name":"Т-Маркет","opening_hours":"Mo-Su 08:00-22:00","brand":"T-Market","brand:wikidata":"Q64033983"},"coordinates":[42.13217407920278,24.701216515223308]},"dist":170.728,"tags_mismatch":true},{"osm":{"type":"node","id":10982993815,"tags":{"brand":"Т-Маркет","brand:wikidata":"Q64033983","opening_hours":"Mo-Su 10:00-20:00","shop":"supermarket"},"wikidata":"Q64033983","coordinates":[42.1836777,24.3457906]},"atp":{"id":"AJT2qag88jsTpMSA2aV2umey1ng=","tags":{"shop":"supermarket","addr:full":"гр. Нови Пазар, ул. Оборище 29","addr:country":"BG","name":"Т-Маркет","opening_hours":"Mo-Su 08:00-21:00","brand":"T-Market","brand:wikidata":"Q64033983"},"coordinates":[43.3472628,27.1970594]},"tags_mismatch":true},{"osm":{"type":"node","id":11072492183,"tags":{"brand":"Т-Маркет","brand:wikidata":"Q64033983","shop":"supermarket"},"wikidata":"Q64033983","coordinates":[43.9842835,22.872303]},"atp":{"id":"roFxdXgXliDhpbL71akdt6tQ4GU=","tags":{"shop":"supermarket","addr:country":"BG","name":"Т-Маркет","opening_hours":"Mo-Su 08:00-22:00","brand":"T-Market","brand:wikidata":"Q64033983"},"coordinates":[43.9844531,22.8720634]},"dist":26.891,"tags_mismatch":true},{"osm":{"type":"node","id":11233091845,"tags":{"brand":"Т-Маркет","brand:wikidata":"Q64033983","shop":"supermarket"},"wikidata":"Q64033983","coordinates":[41.9710835,25.559132]},"atp":{"id":"JAkPRAQLAK08jvv42ME4nt5eN5g=","tags":{"shop":"supermarket","addr:full":"гр. София, пл. Велчова Завера 1","addr:country":"BG","name":"Т-Маркет","opening_hours":"Mo-Su 08:00-22:00","brand":"T-Market","brand:wikidata":"Q64033983"},"coordinates":[42.67751333522726,23.33876635089288]},"tags_mismatch":true},{"osm":{"type":"node","id":11295438325,"tags":{"brand":"Т-Маркет","brand:wikidata":"Q64033983","shop":"supermarket"},"wikidata":"Q64033983","coordinates":[42.6463144,23.3743323]},"atp":{"id":"eRkajNaWomO5DUEq6_uMDObewuI=","tags":{"shop":"supermarket","addr:full":"ул. \"Никола Попов\" № 2A","addr:country":"BG","name":"Т-Маркет","opening_hours":"Mo-Su 08:00-22:00","brand":"T-Market","brand:wikidata":"Q64033983"},"coordinates":[42.35271552593948,27.19190163802795]},"tags_mismatch":true},{"osm":{"type":"node","id":11509482765,"tags":{"brand":"Т-Маркет","brand:wikidata":"Q64033983","shop":"supermarket"},"wikidata":"Q64033983","coordinates":[42.2673394,23.1138136]},"atp":{"id":"vS3mqYrk0AKmn_uPVD3rIp5mdIg=","tags":{"shop":"supermarket","addr:country":"BG","name":"Т-Маркет","opening_hours":"Mo-Su 08:00-22:00","brand":"T-Market","brand:wikidata":"Q64033983"},"coordinates":[42.67856526735187,23.288343497618072]},"tags_mismatch":true},{"osm":{"type":"node","id":11608677356,"tags":{"brand":"Т-Маркет","brand:wikidata":"Q64033983","level":"0","shop":"supermarket"},"wikidata":"Q64033983","coordinates":[41.6149541,25.3763434]},"atp":{"id":"A5C43FgiIUaTAWxs2Vg1eu1OD4U=","tags":{"shop":"supermarket","addr:country":"BG","name":"Т-Маркет","opening_hours":"Mo-Su 08:00-22:00","brand":"T-Market","brand:wikidata":"Q64033983"},"coordinates":[42.738946219081534,23.292743315756752]},"tags_mismatch":true},{"osm":{"type":"node","id":11802604974,"tags":{"brand":"Т-Маркет","brand:wikidata":"Q64033983","opening_hours":"Mo-u 07:30-21:00","shop":"supermarket"},"wikidata":"Q64033983","coordinates":[43.7021866,28.0404512]},"atp":{"id":"YCjk6rMwT38daTpwle2u8zF4x74=","tags":{"shop":"supermarket","addr:country":"BG","name":"Т-Маркет","opening_hours":"Mo-Su 08:00-22:00","brand":"T-Market","brand:wikidata":"Q64033983"},"coordinates":[42.669590676600826,23.31042534756583]},"tags_mismatch":true},{"osm":{"type":"node","id":12087027916,"tags":{"addr:city":"Царево","addr:housenumber":"1","addr:street":"Даниела Йорданова","brand":"Т-Маркет","brand:wikidata":"Q64033983","fixme":"approximate location due to oudated satellite imagery","ref:vatin":"BG131324923","shop":"supermarket"},"wikidata":"Q64033983","coordinates":[42.1657617,27.8454786]},"atp":{"id":"uG-Kh0SZM-vjQBANlka-44-ZXDM=","tags":{"shop":"supermarket","addr:country":"BG","name":"Т-Маркет","opening_hours":"Mo-Su 08:00-22:00","brand":"T-Market","brand:wikidata":"Q64033983"},"coordinates":[42.64146732527601,23.36601251550673]},"tags_mismatch":true},{"osm":{"type":"way","id":65154082,"tags":{"addr:housenumber":"10","addr:street":"Васил Калчев","brand":"Т-Маркет","brand:wikidata":"Q64033983","building":"commercial","int_name":"T-Market","opening_hours":"PH,Mo-Su 08:00-22:00","shop":"supermarket","website":"https://tmarket.bg/","wheelchair":"yes"},"wikidata":"Q64033983","coordinates":[42.664102,23.3494459]},"atp":{"id":"4-nyIjrFFvKNk14jjWMWGR9qgEk=","tags":{"shop":"supermarket","addr:country":"BG","name":"Т-Маркет","opening_hours":"Mo-Su 08:00-22:00","brand":"T-Market","brand:wikidata":"Q64033983"},"coordinates":[42.66399202384533,23.347144615755134]},"dist":188.564,"tags_mismatch":true},{"osm":{"type":"way","id":75284992,"tags":{"brand":"Т-Маркет","brand:wikidata":"Q64033983","building":"yes","shop":"supermarket"},"wikidata":"Q64033983","coordinates":[42.1337849,24.7941185]},"atp":{"id":"7QVafrwg9UJ0flgPRpNZAHocE0Y=","tags":{"shop":"supermarket","addr:country":"BG","name":"Т-Маркет","opening_hours":"Mo-Su 08:00-22:00","brand":"T-Market","brand:wikidata":"Q64033983"},"coordinates":[42.68323990495381,23.37217962156426]},"tags_mismatch":true},{"osm":{"type":"way","id":93462967,"tags":{"addr:city":"Бяла Слатина","addr:housenumber":"41А","addr:postcode":"3200","addr:street":"Търнавска","brand":"Т-Маркет","brand:wikidata":"Q64033983","building":"yes","shop":"supermarket"},"wikidata":"Q64033983","coordinates":[43.4776606,23.9317996]},"atp":{"id":"QGTMpgKIJPejkm9XtYSDvbpraxQ=","tags":{"shop":"supermarket","addr:country":"BG","name":"Т-Маркет","opening_hours":"Mo-Su 08:00-22:00","brand":"T-Market","brand:wikidata":"Q64033983"},"coordinates":[43.47761287178508,23.930107215528977]},"dist":136.658,"tags_mismatch":true},{"osm":{"type":"way","id":166109683,"tags":{"brand":"Т-Маркет","brand:wikidata":"Q64033983","building":"retail","int_name":"T-Market","shop":"supermarket","website":"https://tmarket.bg/"},"wikidata":"Q64033983","coordinates":[42.632628,23.3767138]},"atp":{"id":"ELrG-NTNZ-yGTGEWv3DSo4vqYas=","tags":{"shop":"supermarket","addr:country":"BG","name":"Т-Маркет","opening_hours":"Mo-Fr 07:30-22:00; Su 08:00-22:00","brand":"T-Market","brand:wikidata":"Q64033983"},"coordinates":[42.719265220333014,23.261302315756346]},"tags_mismatch":true},{"osm":{"type":"way","id":167324006,"tags":{"brand":"Т-Маркет","brand:wikidata":"Q64033983","building":"yes","shop":"supermarket","website":"https://tmarket.bg/"},"wikidata":"Q64033983","coordinates":[42.6970164,23.2761571]},"atp":{"id":"S8f_G-rp0XjwWCd_9m6P6_x3gAY=","tags":{"shop":"supermarket","addr:country":"BG","name":"Т-Маркет","opening_hours":"Mo-Su 08:00-22:00","brand":"T-Market","brand:wikidata":"Q64033983"},"coordinates":[42.69720572173571,23.27405371550827]},"dist":173.178,"tags_mismatch":true},{"osm":{"type":"way","id":167324118,"tags":{"brand":"Т-Маркет","brand:wikidata":"Q64033983","building":"yes","building:levels":"2","int_name":"T-Market","shop":"supermarket","website":"https://tmarket.bg/"},"wikidata":"Q64033983","coordinates":[42.6846454,23.2410628]},"atp":{"id":"7XUM5jH9Lx2ThfqMJrkUxb6reWY=","tags":{"shop":"supermarket","addr:country":"BG","name":"Т-Маркет","opening_hours":"Mo-Su 08:00-22:00","brand":"T-Market","brand:wikidata":"Q64033983"},"coordinates":[42.68452942254117,23.238865315507876]},"dist":180.083,"tags_mismatch":true},{"osm":{"type":"way","id":167325065,"tags":{"brand":"Т-Маркет","brand:wikidata":"Q64033983","building":"yes","building:levels":"2","int_name":"T-Market","roof:material":"tar_paper","shop":"supermarket","website":"https://tmarket.bg/","wheelchair":"yes"},"wikidata":"Q64033983","coordinates":[42.7013258,23.2845933]},"atp":{"id":"CVApGbictiPRH2IO0wXLpr_COVI=","tags":{"shop":"supermarket","addr:country":"BG","name":"Т-Маркет","opening_hours":"Mo-Su 08:00-22:00","brand":"T-Market","brand:wikidata":"Q64033983"},"coordinates":[42.69933962159969,23.278124815755806]},"tags_mismatch":true},{"osm":{"type":"way","id":167326935,"tags":{"addr:postcode":"1582","brand":"Т-Маркет","brand:wikidata":"Q64033983","building":"retail","int_name":"T-Market","shop":"supermarket","website":"https://tmarket.bg/"},"wikidata":"Q64033983","coordinates":[42.6472923,23.4054578]},"atp":{"id":"WLJ4MpSAeF6xSfJM-fk5DCoIPZM=","tags":{"shop":"supermarket","addr:country":"BG","name":"Т-Маркет","opening_hours":"Mo-Su 08:00-22:00","brand":"T-Market","brand:wikidata":"Q64033983"},"coordinates":[42.64728852490593,23.403483015754713]},"dist":161.514,"tags_mismatch":true},{"osm":{"type":"way","id":227930453,"tags":{"brand":"Т-Маркет","brand:wikidata":"Q64033983","building":"yes","shop":"supermarket"},"wikidata":"Q64033983","coordinates":[42.3091883,23.8583803]},"atp":{"id":"rIOPkKkUf933LcimdnmPmVJi2Yo=","tags":{"shop":"supermarket","addr:country":"BG","name":"Т-Маркет","opening_hours":"Mo-Su 08:00-22:00","brand":"T-Market","brand:wikidata":"Q64033983"},"coordinates":[42.309205546304206,23.856285615498024]},"dist":172.259,"tags_mismatch":true},{"osm":{"type":"way","id":244831796,"tags":{"addr:city":"Раднево","addr:housenumber":"4","addr:postcode":"6260","addr:street":"Митьо Станев","brand":"Т-Маркет","brand:wikidata":"Q64033983","building":"yes","note":"exPenny Market","shop":"supermarket"},"wikidata":"Q64033983","coordinates":[42.2885322,25.9325176]},"atp":{"id":"f6NRnZR3LrPeXrzkRxdWB43LrQQ=","tags":{"shop":"supermarket","addr:country":"BG","name":"Т-Маркет","opening_hours":"Mo-Su 08:00-22:00","brand":"T-Market","brand:wikidata":"Q64033983"},"coordinates":[42.708246984149625,23.255086742780115]},"tags_mismatch":true},{"osm":{"type":"way","id":274053015,"tags":{"addr:city":"Пловдив","addr:postcode":"4021","addr:street":"Гонда вода","brand":"Т-Маркет","brand:wikidata":"Q64033983","building":"yes","payment:cash":"yes","payment:contactless":"yes","payment:credit_cards":"yes","payment:debit_cards":"yes","shop":"supermarket"},"wikidata":"Q64033983","coordinates":[42.1615013,24.7565484]},"atp":{"id":"63_J8yg1uKCur6IBtipGhdZwqJU=","tags":{"shop":"supermarket","addr:country":"BG","name":"Т-Маркет","opening_hours":"Mo-Su 08:00-22:00","brand":"T-Market","brand:wikidata":"Q64033983"},"coordinates":[42.161425879200664,24.754277315224424]},"dist":187.38,"tags_mismatch":true},{"osm":{"type":"way","id":294197412,"tags":{"brand":"Т-Маркет","brand:wikidata":"Q64033983","building":"yes","payment:cash":"yes","payment:credit_cards":"yes","payment:debit_cards":"yes","shop":"supermarket"},"wikidata":"Q64033983","coordinates":[42.1308413,24.7081545]},"atp":{"id":"yzNiQHP2BLxVMqmwZv9meuYuKt4=","tags":{"shop":"supermarket","addr:country":"BG","name":"Т-Маркет","opening_hours":"Mo-Su 08:00-22:00","brand":"T-Market","brand:wikidata":"Q64033983"},"coordinates":[42.13080767920298,24.705934315223292]},"dist":183.123,"tags_mismatch":true},{"osm":{"type":"way","id":296756752,"tags":{"brand":"Т-Маркет","brand:wikidata":"Q64033983","building":"yes","shop":"supermarket"},"wikidata":"Q64033983","coordinates":[42.1332084,24.7122721]},"atp":{"id":"0TmPH4RtTpt1ANhwPVSy4dfXHII=","tags":{"shop":"supermarket","addr:country":"BG","name":"Т-Маркет","opening_hours":"Mo-Su 08:00-22:00","brand":"T-Market","brand:wikidata":"Q64033983"},"coordinates":[42.12040887920366,24.73061121522299]},"tags_mismatch":true},{"osm":{"type":"way","id":314995293,"tags":{"brand":"Т-Маркет","brand:wikidata":"Q64033983","building":"yes","int_name":"T-Market","opening_hours":"Mo-Su,PH 08:00-22:00","shop":"supermarket","website":"https://tmarket.bg/"},"wikidata":"Q64033983","coordinates":[42.641433,23.368113]},"atp":{"id":"G5VfWs0xCq0yFwS6y1MirqdrnMU=","tags":{"shop":"supermarket","addr:country":"BG","name":"Т-Маркет","opening_hours":"Mo-Su 08:00-22:00","brand":"T-Market","brand:wikidata":"Q64033983"},"coordinates":[42.133988979202684,24.79162711522348]},"tags_mismatch":true},{"osm":{"type":"way","id":397622860,"tags":{"brand":"Т-Маркет","brand:wikidata":"Q64033983","building":"supermarket","shop":"supermarket"},"wikidata":"Q64033983","coordinates":[42.0113287,24.8784553]},"atp":{"id":"EodDT7lRrYrSKIAwqUTn68J8ztA=","tags":{"shop":"supermarket","addr:country":"BG","name":"Т-Маркет","opening_hours":"Mo-Su 08:00-22:00","brand":"T-Market","brand:wikidata":"Q64033983"},"coordinates":[42.01133066504495,24.876374815490276]},"dist":171.888,"tags_mismatch":true},{"osm":{"type":"way","id":397691858,"tags":{"brand":"Т-Маркет","brand:wikidata":"Q64033983","shop":"supermarket","wheelchair":"yes"},"wikidata":"Q64033983","coordinates":[42.6417933,24.8005273]},"atp":{"id":"3GfB4MVPHqt3Cs2CP5yWgrf42wM=","tags":{"shop":"supermarket","addr:country":"BG","name":"Т-Маркет","opening_hours":"Mo-Su 08:00-22:00","brand":"T-Market","brand:wikidata":"Q64033983"},"coordinates":[42.642143325233036,24.79912521550677]},"dist":121.108,"tags_mismatch":true},{"osm":{"type":"way","id":530890685,"tags":{"brand":"Т-Маркет","brand:wikidata":"Q64033983","building":"yes","shop":"supermarket"},"wikidata":"Q64033983","coordinates":[42.5519054,22.9663211]},"atp":{"id":"xjErHWZeO8GQogNQscgbSu9pqAU=","tags":{"shop":"supermarket","addr:country":"BG","name":"Т-Маркет","opening_hours":"Mo-Su 08:00-22:00","brand":"T-Market","brand:wikidata":"Q64033983"},"coordinates":[42.55153843098031,22.964096915504385]},"dist":186.705,"tags_mismatch":true},{"osm":{"type":"way","id":538554226,"tags":{"brand":"Т-Маркет","brand:wikidata":"Q64033983","building":"yes","int_name":"T-Market","shop":"supermarket","website":"https://tmarket.bg/","wheelchair":"yes"},"wikidata":"Q64033983","coordinates":[42.8131117,23.2141788]},"atp":{"id":"3gOOd37k2WMc-Q_S2LGWMnMcxi4=","tags":{"shop":"supermarket","addr:country":"BG","name":"Т-Маркет","opening_hours":"Mo-Su 08:00-22:00","brand":"T-Market","brand:wikidata":"Q64033983"},"coordinates":[42.812998914369246,23.212010515511228]},"dist":177.311,"tags_mismatch":true},{"osm":{"type":"way","id":615330404,"tags":{"brand":"Т-Маркет","brand:wikidata":"Q64033983","building":"yes","shop":"supermarket"},"wikidata":"Q64033983","coordinates":[43.2353067,23.1362079]},"atp":{"id":"v2E2k1t4Di_9Qt9w5v35jJJl5mY=","tags":{"shop":"supermarket","addr:country":"BG","name":"Т-Маркет","opening_hours":"Mo-Su 08:00-22:00","brand":"T-Market","brand:wikidata":"Q64033983"},"coordinates":[43.23532618736886,23.1340715155225]},"dist":173.084,"tags_mismatch":true},{"osm":{"type":"way","id":686131348,"tags":{"brand":"Т-Маркет","brand:wikidata":"Q64033983","building":"yes","opening_hours":"Mo-Sa08:00-22:00,Su 08:00-21:00","shop":"supermarket","wheelchair":"designated"},"wikidata":"Q64033983","coordinates":[43.4186995,23.2227892]},"atp":{"id":"Bw-EYDgjHcLDbsCJaTbkrVfwdkk=","tags":{"shop":"supermarket","addr:country":"BG","name":"Т-Маркет","opening_hours":"Mo-Sa 08:00-22:00; Su 08:00-21:00","brand":"T-Market","brand:wikidata":"Q64033983"},"coordinates":[43.41861727558581,23.22045801552731]},"dist":188.504,"tags_mismatch":true},{"osm":{"type":"way","id":725452417,"tags":{"brand":"Т-Маркет","brand:wikidata":"Q64033983","building":"yes","shop":"supermarket"},"wikidata":"Q64033983","coordinates":[42.6646233,27.706294]},"atp":{"id":"gPIzRPBpz2HabvBb8hVNhGvv2rw=","tags":{"shop":"supermarket","addr:country":"BG","name":"Т-Маркет","opening_hours":"Mo-Su 08:00-22:00","brand":"T-Market","brand:wikidata":"Q64033983"},"coordinates":[42.664619323805915,27.70415741550733]},"dist":174.699,"tags_mismatch":true},{"osm":{"type":"way","id":1161170236,"tags":{"brand":"Т-Маркет","brand:wikidata":"Q64033983","building":"yes","opening_hours":"08:00-22:00","shop":"supermarket"},"wikidata":"Q64033983","coordinates":[42.8388007,24.0038294]},"atp":{"id":"hRbJQV15aTe2tE2konmp7iq9isY=","tags":{"shop":"supermarket","addr:country":"BG","name":"Т-Маркет","opening_hours":"Mo-Su 08:00-22:00","brand":"T-Market","brand:wikidata":"Q64033983"},"coordinates":[42.13598069999999,24.716055817443834]},"tags_mismatch":true},{"osm":{"type":"way","id":1263814101,"tags":{"brand":"Т-Маркет","brand:wikidata":"Q64033983","building":"commercial","shop":"supermarket"},"wikidata":"Q64033983","coordinates":[42.1480451,24.7723602]},"atp":{"id":"sqwN-mr6RTry8ytmJ6nFCY-hC8o=","tags":{"shop":"supermarket","addr:full":"гр.","addr:country":"BG","name":"Т-Маркет","opening_hours":"Mo-Su 08:00-22:00","brand":"T-Market","brand:wikidata":"Q64033983"},"coordinates":[42.14815627920161,24.77051391544949]},"dist":152.711,"tags_mismatch":true},{"osm":false,"atp":{"id":"dYVzrHoo4rW7pfm_1cB9Q3Ge6Ww=","tags":{"shop":"supermarket","addr:country":"BG","name":"Т-Маркет","opening_hours":"Mo-Su 08:00-22:00","brand":"T-Market","brand:wikidata":"Q64033983"},"coordinates":[42.12871600000001,24.771477669775404]},"tags_mismatch":false,"dist":0},{"osm":false,"atp":{"id":"Jmii1QqPXD0-hodI8ep0Z8z-Zeo=","tags":{"shop":"supermarket","addr:country":"BG","name":"Т-Маркет","opening_hours":"Mo-Su 08:00-22:00","brand":"T-Market","brand:wikidata":"Q64033983"},"coordinates":[42.13451061724063,24.77829883425784]},"tags_mismatch":false,"dist":0},{"osm":false,"atp":{"id":"Ck22EZZ_9uLarjXIOhCoqGgje8k=","tags":{"shop":"supermarket","addr:country":"BG","name":"Т-Маркет","opening_hours":"Mo-Su 08:00-22:00","brand":"T-Market","brand:wikidata":"Q64033983"},"coordinates":[42.14823807920169,24.729804715223956]},"tags_mismatch":false,"dist":0},{"osm":false,"atp":{"id":"wdj7eugSTgYCCokNJWSp5Kp0jl0=","tags":{"shop":"supermarket","addr:country":"BG","name":"Т-Маркет","opening_hours":"Mo-Su 08:00-22:00","brand":"T-Market","brand:wikidata":"Q64033983"},"coordinates":[42.15251507920126,24.785246615224025]},"tags_mismatch":false,"dist":0},{"osm":false,"atp":{"id":"lYm50UYuuLFtFNedkrMNhKphKAE=","tags":{"shop":"supermarket","addr:country":"BG","name":"Т-Маркет","opening_hours":"Mo-Su 08:00-22:00","brand":"T-Market","brand:wikidata":"Q64033983"},"coordinates":[42.69310652199568,23.357843315755705]},"tags_mismatch":false,"dist":0},{"osm":false,"atp":{"id":"16r6SHKhBeQfAC3nsmztWhIQSBo=","tags":{"shop":"supermarket","addr:country":"BG","name":"Т-Маркет","opening_hours":"Mo-Sa 08:00-22:00; Su 08:00-21:00","brand":"T-Market","brand:wikidata":"Q64033983"},"coordinates":[42.7064888,23.276462969775377]},"tags_mismatch":false,"dist":0},{"osm":false,"atp":{"id":"sh-Tj3f9_hwD2cBbN4rht0kE9gY=","tags":{"shop":"supermarket","addr:country":"BG","name":"Т-Маркет","opening_hours":"Mo-Su 07:00-20:30","brand":"T-Market","brand:wikidata":"Q64033983"},"coordinates":[43.23574928734208,25.31148781531383]},"tags_mismatch":false,"dist":0},{"osm":false,"atp":{"id":"iq9sNaG3mHhIyAKi2P8mhjtjRhY=","tags":{"shop":"supermarket","addr:country":"BG","name":"Т-Маркет","opening_hours":"Mo-Su 08:00-22:00","brand":"T-Market","brand:wikidata":"Q64033983"},"coordinates":[43.348147080121024,26.231844615317147]},"tags_mismatch":false,"dist":0},{"osm":false,"atp":{"id":"qofG4TfEI9vBXed8OCu4ID0g84U=","tags":{"shop":"supermarket","addr:country":"BG","name":"Т-Маркет","opening_hours":"Mo-Su 08:00-22:00","brand":"T-Market","brand:wikidata":"Q64033983"},"coordinates":[43.348147080121024,26.231844615317147]},"tags_mismatch":false,"dist":0},{"osm":false,"atp":{"id":"6AfiItoIem_Cu7mZPBPjT6vaY2A=","tags":{"shop":"supermarket","addr:country":"BG","name":"Т-Маркет","opening_hours":"Mo-Su 08:00-22:00","brand":"T-Market","brand:wikidata":"Q64033983"},"coordinates":[42.799955579159715,23.338892315470222]},"tags_mismatch":false,"dist":0},{"osm":false,"atp":{"id":"g9eSs5xN2THY6o3IpILME6LVGyI=","tags":{"shop":"supermarket","addr:country":"BG","name":"Т-Маркет","opening_hours":"Mo-Su 08:00-22:00","brand":"T-Market","brand:wikidata":"Q64033983"},"coordinates":[42.47592967214768,26.525786964556897]},"tags_mismatch":false,"dist":0},{"osm":false,"atp":{"id":"zB7P88irSmKbX0nD8sDKCbMJZ3Q=","tags":{"shop":"supermarket","addr:country":"BG","name":"Т-Маркет","opening_hours":"Mo-Su 08:00-22:00","brand":"T-Market","brand:wikidata":"Q64033983"},"coordinates":[42.83464531299039,23.996474415511866]},"tags_mismatch":false,"dist":0},{"osm":false,"atp":{"id":"qDK-aqz6xjKRdkiisIsueCAwWYk=","tags":{"shop":"supermarket","addr:country":"BG","name":"Т-Маркет","opening_hours":"Mo-Su 08:00-22:00","brand":"T-Market","brand:wikidata":"Q64033983"},"coordinates":[42.66921922351372,23.596472915507487]},"tags_mismatch":false,"dist":0},{"osm":false,"atp":{"id":"vGU57GJuQVTuf4SackEvIeZ_z14=","tags":{"shop":"supermarket","addr:country":"BG","name":"Т-Маркет","opening_hours":"Mo-Su 08:00-22:00","brand":"T-Market","brand:wikidata":"Q64033983"},"coordinates":[42.716286620523,24.135601915508754]},"tags_mismatch":false,"dist":0},{"osm":false,"atp":{"id":"pt3CbqBk9EBmDdb7APdk_W1SEX8=","tags":{"shop":"supermarket","addr:country":"BG","name":"Т-Маркет","opening_hours":"Mo-Su 08:00-22:00","brand":"T-Market","brand:wikidata":"Q64033983"},"coordinates":[42.596466206202855,23.016428161738833]},"tags_mismatch":false,"dist":0},{"osm":false,"atp":{"id":"jMoEopIynDpfnqloU8NZONbmnKI=","tags":{"shop":"supermarket","addr:country":"BG","name":"Т-Маркет","opening_hours":"Mo-Su 08:00-22:00","brand":"T-Market","brand:wikidata":"Q64033983"},"coordinates":[42.59658191003034,23.01642813982397]},"tags_mismatch":false,"dist":0},{"osm":false,"atp":{"id":"fKDKuVqUulVUZObP0zYbz_SbxU8=","tags":{"shop":"supermarket","addr:country":"BG","name":"Т-Маркет","opening_hours":"Mo-Su 08:00-22:00","brand":"T-Market","brand:wikidata":"Q64033983"},"coordinates":[43.82124569956568,23.237750115538216]},"tags_mismatch":false,"dist":0},{"osm":false,"atp":{"id":"VP3UMnjg6e2mvuz49aSHeafOlbQ=","tags":{"shop":"supermarket","addr:country":"BG","name":"Т-Маркет","opening_hours":"Mo-Sa 08:00-22:00; Su 08:00-21:00","brand":"T-Market","brand:wikidata":"Q64033983"},"coordinates":[43.4233955752781,24.59244831552752]},"tags_mismatch":false,"dist":0},{"osm":false,"atp":{"id":"_eGHifVD0a_2rUtDNf5pKMeCzBE=","tags":{"shop":"supermarket","addr:country":"BG","name":"Т-Маркет","opening_hours":"Mo-Su 08:00-21:00","brand":"T-Market","brand:wikidata":"Q64033983"},"coordinates":[42.812998914369246,23.212010515511228]},"tags_mismatch":false,"dist":0},{"osm":false,"atp":{"id":"LvskWLLJdoDCgX-VuKLLPkF7uO0=","tags":{"shop":"supermarket","addr:country":"BG","name":"Т-Маркет","opening_hours":"Mo-Sa 08:00-22:00; Su 08:00-21:00","brand":"T-Market","brand:wikidata":"Q64033983"},"coordinates":[43.515700069329,26.51403071552993]},"tags_mismatch":false,"dist":0},{"osm":false,"atp":{"id":"Nhx_k-1j1qCaXJ81a1yGR8aTt4U=","tags":{"shop":"supermarket","addr:country":"BG","name":"Т-Маркет","opening_hours":"Mo-Su 08:00-22:00","brand":"T-Market","brand:wikidata":"Q64033983"},"coordinates":[42.11494165216143,24.824381222780882]},"tags_mismatch":false,"dist":0},{"osm":false,"atp":{"id":"IG3-ntzRfYPKP3qw40S2RXxAg90=","tags":{"shop":"supermarket","addr:country":"BG","name":"Т-Маркет","opening_hours":"Mo-Su 07:30-24:00","brand":"T-Market","brand:wikidata":"Q64033983"},"coordinates":[42.66399202384533,23.347144615755134]},"tags_mismatch":false,"dist":0},{"osm":false,"atp":{"id":"35pfQ-8grqgmVLroATjjNpuR2rM=","tags":{"shop":"supermarket","addr:country":"BG","name":"Т-Маркет","opening_hours":"Mo-Su 08:00-22:00","brand":"T-Market","brand:wikidata":"Q64033983"},"coordinates":[42.68145703287425,25.48143430682214]},"tags_mismatch":false,"dist":0},{"osm":false,"atp":{"id":"keFbfL7Sh89deD9-bmyhxhOoriY=","tags":{"shop":"supermarket","addr:country":"BG","name":"Т-Маркет","opening_hours":"Mo-Su 08:00-22:00","brand":"T-Market","brand:wikidata":"Q64033983"},"coordinates":[42.71729677916456,23.238987415467687]},"tags_mismatch":false,"dist":0},{"osm":false,"atp":{"id":"Kq3uaV-BifgVUJfQu1buQrInl4o=","tags":{"shop":"supermarket","addr:country":"BG","name":"Т-Маркет","opening_hours":"Mo-Su 08:00-22:00","brand":"T-Market","brand:wikidata":"Q64033983"},"coordinates":[41.77087898009736,26.19698831481086]},"tags_mismatch":false,"dist":0},{"osm":false,"atp":{"id":"m3reKUVul8bFeV8oVECpX-BfZck=","tags":{"shop":"supermarket","addr:country":"BG","name":"Т-Маркет","opening_hours":"Mo-Su 08:00-22:00","brand":"T-Market","brand:wikidata":"Q64033983"},"coordinates":[42.2661647791933,27.74513351545337]},"tags_mismatch":false,"dist":0},{"osm":false,"atp":{"id":"GxUD02DRZsCm0k3p6EjqTyP9PnQ=","tags":{"shop":"supermarket","addr:country":"BG","name":"Т-Маркет","opening_hours":"Mo-Su 08:00-22:00","brand":"T-Market","brand:wikidata":"Q64033983"},"coordinates":[42.8760194,27.8879606]},"tags_mismatch":false,"dist":0},{"osm":false,"atp":{"id":"LWID7jOzikRPStbiHNkx6q4_Dcw=","tags":{"shop":"supermarket","addr:country":"BG","name":"Т-Маркет","opening_hours":"Mo-Su 08:00-22:00","brand":"T-Market","brand:wikidata":"Q64033983"},"coordinates":[41.47720624204541,25.646787491214525]},"tags_mismatch":false,"dist":0},{"osm":false,"atp":{"id":"wRGN8BjOZTNWQWh-qhEe1EJi8Y0=","tags":{"shop":"supermarket","addr:country":"BG","name":"Т-Маркет","opening_hours":"Mo-Su 08:00-22:00","brand":"T-Market","brand:wikidata":"Q64033983"},"coordinates":[42.364642479186564,23.003404515456396]},"tags_mismatch":false,"dist":0},{"osm":false,"atp":{"id":"lYBRHlPDKqc5tkv8RhfvqgsvZJk=","tags":{"shop":"supermarket","addr:country":"BG","name":"Т-Маркет","opening_hours":"Mo-Su 08:00-22:00","brand":"T-Market","brand:wikidata":"Q64033983"},"coordinates":[41.74101997923316,24.401301315436783]},"tags_mismatch":false,"dist":0},{"osm":false,"atp":{"id":"OgqdegbHVWfx03wByFu2uuhGbmM=","tags":{"shop":"supermarket","addr:full":"гр. Стамболийски, ул. Търговска №50","addr:country":"BG","name":"Т-Маркет","opening_hours":"Mo-Su 08:00-22:00","brand":"T-Market","brand:wikidata":"Q64033983"},"coordinates":[42.13261227920296,24.53072771544915]},"tags_mismatch":false,"dist":0},{"osm":false,"atp":{"id":"ddQ2kwGzUz4c5YJB3YQ4IS6zFTg=","tags":{"shop":"supermarket","addr:full":"гр. Свищов","addr:country":"BG","name":"Т-Маркет","opening_hours":"Mo-Su 08:00-22:00","brand":"T-Market","brand:wikidata":"Q64033983"},"coordinates":[43.612954179122745,25.344436415496467]},"tags_mismatch":false,"dist":0},{"osm":false,"atp":{"id":"n-N0ugJcBGAPj7MNV_NJnn1Gi5s=","tags":{"shop":"supermarket","addr:country":"BG","name":"Т-Маркет","opening_hours":"Mo-Su 08:00-22:00","brand":"T-Market","brand:wikidata":"Q64033983"},"coordinates":[42.183399979199145,26.57234111545085]},"tags_mismatch":false,"dist":0},{"osm":false,"atp":{"id":"tqtH6rgcBmGEesI4JnnTnrZO6Uk=","tags":{"shop":"supermarket","addr:country":"BG","name":"Т-Маркет","opening_hours":"Mo-Su 08:00-21:00","brand":"T-Market","brand:wikidata":"Q64033983"},"coordinates":[43.79499427911659,26.49837881550227]},"tags_mismatch":false,"dist":0},{"osm":false,"atp":{"id":"N4_LQih5_FQP_2nvhOJD-MLteDs=","tags":{"shop":"supermarket","addr:full":"гр. Котел, ул. Хаджи Къна Боева №4, ет.2","addr:country":"BG","name":"Т-Маркет","opening_hours":"Mo-Su 08:00-21:00","brand":"T-Market","brand:wikidata":"Q64033983"},"coordinates":[42.888279179154935,26.443331015473056]},"tags_mismatch":false,"dist":0},{"osm":false,"atp":{"id":"vB_7pCXRONCsUHrnVVuEL6r4FdQ=","tags":{"shop":"supermarket","addr:full":"гр. Поморие, ул.Професор Стоянов 23","addr:country":"BG","name":"Т-Маркет","opening_hours":"Mo-Su 08:00-24:00","brand":"T-Market","brand:wikidata":"Q64033983"},"coordinates":[42.561571400000005,27.6388335]},"tags_mismatch":false,"dist":0},{"osm":false,"atp":{"id":"6VMc-KcauVgzQif_Fe_6mOBIayE=","tags":{"shop":"supermarket","addr:full":"гр. Варна, Бизнес парк, сграда Б, ул. Ян Палах №10","addr:country":"BG","name":"Т-Маркет","opening_hours":"Mo-Su 08:00-22:00","brand":"T-Market","brand:wikidata":"Q64033983"},"coordinates":[43.2197159,27.914092]},"tags_mismatch":false,"dist":0},{"osm":false,"atp":{"id":"ATOBpyMheHLrYJ0AdPtLQpcMRsQ=","tags":{"shop":"supermarket","addr:full":"кв. „Пясъците“ № 15","addr:country":"BG","name":"Т-Маркет","opening_hours":"Mo-Su 08:00-22:00","brand":"T-Market","brand:wikidata":"Q64033983"},"coordinates":[42.6602274,27.7205135]},"tags_mismatch":false,"dist":0},{"osm":false,"atp":{"id":"Pft8YX66c1yUcnxi0EZYPTKkysM=","tags":{"shop":"supermarket","addr:full":"гр. Момчилград, ул. Гюмюрджинса 63","addr:country":"BG","name":"Т-Маркет","opening_hours":"Mo-Su 08:00-22:00","brand":"T-Market","brand:wikidata":"Q64033983"},"coordinates":[41.5239217,25.411216199999995]},"tags_mismatch":false,"dist":0},{"osm":false,"atp":{"id":"YKLbn6qIFUVn4qyh24lhmJNo4QI=","tags":{"shop":"supermarket","addr:full":"гр. Кърджали, ул. Първи май 45А","addr:country":"BG","name":"Т-Маркет","opening_hours":"Mo-Su 08:00-21:00","brand":"T-Market","brand:wikidata":"Q64033983"},"coordinates":[41.606592899999995,25.3865207]},"tags_mismatch":false,"dist":0},{"osm":false,"atp":{"id":"rTvoCbv2_mCCO42xIn8dWn6Vj6s=","tags":{"shop":"supermarket","addr:full":"бул. „Цар Борис III-ти Обединител“ 179, 4000 Пловдив","addr:country":"BG","name":"Т-Маркет","opening_hours":"Mo-Su 08:00-22:00","brand":"T-Market","brand:wikidata":"Q64033983"},"coordinates":[42.137378206323405,24.75484372850105]},"tags_mismatch":false,"dist":0},{"osm":false,"atp":{"id":"l6yKABpoOl4bEs4yvhXNlKE0yL8=","tags":{"shop":"supermarket","addr:full":"ул. „Бачо Киро“ 4, 6100 Калиакчийски","addr:country":"BG","name":"Т-Маркет","opening_hours":"Mo-Su 08:00-22:00","brand":"T-Market","brand:wikidata":"Q64033983"},"coordinates":[42.6149283,25.3906752]},"tags_mismatch":false,"dist":0},{"osm":false,"atp":{"id":"fYzYQM50WJn4cnj0eXuLHZbawGc=","tags":{"shop":"supermarket","addr:full":"ул. „Княз Борис I“ №54, Твърдица, България","addr:country":"BG","name":"Т-Маркет","opening_hours":"Mo-Su 08:00-22:00","brand":"T-Market","brand:wikidata":"Q64033983"},"coordinates":[42.6895324,23.3167898]},"tags_mismatch":false,"dist":0},{"osm":false,"atp":{"id":"aTidkGUpjFtoTXqMtciyKLLzaXg=","tags":{"shop":"supermarket","addr:full":"ж.к. Славейков 214, 8010 ж.к. Петко Р. Славейков, Бургас, България","addr:country":"BG","name":"Т-Маркет","opening_hours":"Mo-Su 08:00-22:00","brand":"T-Market","brand:wikidata":"Q64033983"},"coordinates":[42.5202689,27.4516176]},"tags_mismatch":false,"dist":0},{"osm":false,"atp":{"id":"GiZnYRNFQ-7E641bEhiXqXAh810=","tags":{"shop":"supermarket","addr:country":"BG","name":"Т-Маркет","opening_hours":"Mo-Su 08:00-22:00","brand":"T-Market","brand:wikidata":"Q64033983"},"coordinates":[42.031438542519055,24.004668395308787]},"tags_mismatch":false,"dist":0},{"osm":false,"atp":{"id":"Lp9USUUpfMyp48d2mNF_BZLomvo=","tags":{"shop":"supermarket","addr:full":"гр. Божурище, бул. ЕВРОПА 22","addr:country":"BG","name":"Т-Маркет","opening_hours":"Mo-Su 08:00-22:00","brand":"T-Market","brand:wikidata":"Q64033983"},"coordinates":[42.76267808569189,23.197367205872453]},"tags_mismatch":false,"dist":0},{"osm":false,"atp":{"id":"F3NK_ANz-_1yF-WTr-u1DhdSRsA=","tags":{"shop":"supermarket","addr:country":"BG","name":"Т-Маркет","opening_hours":"Mo-Su 07:30-24:00","brand":"T-Market","brand:wikidata":"Q64033983"},"coordinates":[42.13143399323977,27.889222435198107]},"tags_mismatch":false,"dist":0},{"osm":false,"atp":{"id":"BgtkOLGA93tvnYLYXE1i64uxipQ=","tags":{"shop":"supermarket","addr:full":"гр.Панагюрище, ул. Райна Княгиня №1","addr:country":"BG","name":"Т-Маркет","opening_hours":"Mo-Su 08:00-22:00","brand":"T-Market","brand:wikidata":"Q64033983"},"coordinates":[42.50563588456046,24.18343009239301]},"tags_mismatch":false,"dist":0},{"osm":false,"atp":{"id":"3bV2w4cjfkYuG_vf_y7GnU_v488=","tags":{"shop":"supermarket","addr:full":"гр.Кюстендил, ул. Тинтява 49","addr:country":"BG","name":"Т-Маркет","opening_hours":"Mo-Su 08:00-22:00","brand":"T-Market","brand:wikidata":"Q64033983"},"coordinates":[42.27505559409869,22.668973302007636]},"tags_mismatch":false,"dist":0}]}