{"metadata":{"type":"brand","wikidata":"Q685967","name":"Kaufland","compare_keys":["opening_hours","addr:city","addr:postcode","website","ref"]},"data":[{"osm":{"type":"way","id":48337730,"tags":{"addr:city":"София","addr:housenumber":"25","addr:street":"бул. Княгиня Мария Луиза","alt_name":"Centralni Hali","alt_name:bg":"Централни софийски хали","alt_name:de":"Zentralmarkthalle","alt_name:en":"Central Market Hall","alt_name:es":"Mercado central","alt_name:fr":"Marché central","branch":"София-Център","brand":"Kaufland","brand:wikidata":"Q685967","building":"marketplace","building:wikidata":"Q190675","building:wikimedia_commons":"Category:Central Market Hall in Sofia","building:wikipedia":"bg:Централни софийски хали","opening_date":"2024-05-23","opening_hours":"Mo-Su 07:00-23:00","ref":"BG6400","self_checkout":"yes","shop":"supermarket","website":"https://www.kaufland.bg/moyat-kaufland/uslugi/filiali/sofia-zentrum-6400.html","wheelchair":"yes"},"wikidata":"Q685967","coordinates":[42.6999866,23.3217957]},"atp":{"id":"dPDtdiZGpPtMEB7XhYlx9CHhEMM=","tags":{"ref":"BG6400","shop":"supermarket","addr:street_address":"бул. \"Княгиня Мария Луиза\" 25","addr:city":"София","addr:postcode":"1000","addr:country":"BG","name":"Kaufland Sofia-Center","phone":"+359 800 12 220","website":"https://www.kaufland.bg/moyat-kaufland/uslugi/filiali/sofia-zentrum-6400.html","opening_hours":"Mo-Su 07:00-23:00","brand":"Kaufland","brand:wikidata":"Q685967"},"coordinates":[42.699987,23.32192]},"dist":10.158,"tags_mismatch":true},{"osm":{"type":"way","id":1052494001,"tags":{"addr:city":"София","addr:housenumber":"271","addr:street":"Околовръстен път","branch":"Младост 4","brand":"Kaufland","brand:wikidata":"Q685967","building":"yes","opening_date":"2022-06-23","opening_hours":"Mo-Su 07:00-22:00","ref":"BG8800","shop":"supermarket","start_date":"2022-06-23","website":"https://www.kaufland.bg/moyat-kaufland/uslugi/filiali/sofia-mladost-okolovrasten-pat-8800.html","wheelchair":"yes"},"wikidata":"Q685967","coordinates":[42.6241848,23.3837043]},"atp":{"id":"MRrI5Nx_6w95iQqYrN10HpTGZqA=","tags":{"ref":"BG8800","shop":"supermarket","addr:street_address":"ул. Околовръстен път 271","addr:city":"София","addr:postcode":"1000","addr:country":"BG","name":"Kaufland Sofia-Mladost Okolovrasten pat","phone":"+359 800 12 220","website":"https://www.kaufland.bg/moyat-kaufland/uslugi/filiali/sofia-mladost-okolovrasten-pat-8800.html","opening_hours":"Mo-Su 07:00-22:00","brand":"Kaufland","brand:wikidata":"Q685967"},"coordinates":[42.624226,23.383834]},"dist":11.559,"tags_mismatch":true}]}