{"metadata":{"type":"brand","wikidata":"Q14915070","name":"Yettel","compare_keys":["opening_hours"]},"data":[{"osm":{"type":"node","id":1243236052,"tags":{"addr:city":"Варна","addr:housenumber":"76","addr:postcode":"9000","addr:street":"бул. 8-ми Приморски полк","brand":"Yettel","brand:wikidata":"Q14915070","check_date":"2023-02-21","old_name":"Telenor;Globul","opening_hours":"Mo-Fr 09:00-19:30","payment:cash":"yes","payment:credit_cards":"yes","payment:debit_cards":"yes","shop":"telecommunication","website":"https://yettel.bg/"},"wikidata":"Q14915070","coordinates":[43.2085824,27.9194075]},"atp":{"id":"GQ0CVebapS6MHwcb2CJMSjyx_Ts=","tags":{"shop":"telecommunication","addr:street_address":"бул. 8-ми Приморски полк 76","addr:city":"Варна","addr:country":"BG","name":"Yettel","opening_hours":"Mo-Fr 09:00-19:00","brand":"Yettel","brand:wikidata":"Q14915070"},"coordinates":[43.20863,27.91922]},"dist":16.092,"tags_mismatch":true},{"osm":{"type":"node","id":1347020585,"tags":{"brand":"Yettel","brand:wikidata":"Q14915070","shop":"telecommunication"},"wikidata":"Q14915070","coordinates":[42.4252621,25.6314691]},"atp":{"id":"oXGL2G6qUt5DeX9d3RzBXGjB81U=","tags":{"shop":"telecommunication","addr:street_address":"ул. Цар Симеон Велики 119","addr:city":"Стара Загора","addr:country":"BG","name":"Yettel","opening_hours":"Mo-Fr 09:00-19:00; Sa 10:00-17:00","brand":"Yettel","brand:wikidata":"Q14915070"},"coordinates":[42.4251158,25.6313721]},"dist":18.112,"tags_mismatch":true},{"osm":{"type":"node","id":1378846537,"tags":{"brand":"Yettel","brand:wikidata":"Q14915070","shop":"telecommunication"},"wikidata":"Q14915070","coordinates":[42.4262734,25.6314503]},"atp":{"id":"7rjDPEzBuEySpYpmJ6vnXukBrTE=","tags":{"shop":"telecommunication","addr:street_address":"ул. Св. Княз Борис 110 Б","addr:city":"Стара Загора","addr:country":"BG","name":"Yettel","opening_hours":"Mo-Fr 09:00-19:00","brand":"Yettel","brand:wikidata":"Q14915070"},"coordinates":[42.42637,25.63144]},"dist":10.775,"tags_mismatch":true},{"osm":{"type":"node","id":1391113138,"tags":{"addr:city":"Пловдив","addr:housenumber":"63","addr:postcode":"4000","addr:street":"бул. България","brand":"Yettel","brand:wikidata":"Q14915070","old_name":"Telenor;Globul","opening_hours":"Mo-Fr 09:00-19:30","shop":"telecommunication","website":"https://yettel.bg/"},"wikidata":"Q14915070","coordinates":[42.1588801,24.7383436]},"atp":{"id":"J6PeUiaTQGXXAMHcSci02GURC2Y=","tags":{"shop":"telecommunication","addr:street_address":"бул. България 63","addr:city":"Пловдив","addr:country":"BG","name":"Yettel","opening_hours":"Mo-Fr 09:00-19:00","brand":"Yettel","brand:wikidata":"Q14915070"},"coordinates":[42.15905,24.73824]},"dist":20.732,"tags_mismatch":true},{"osm":{"type":"node","id":3203408576,"tags":{"addr:city":"Русе","addr:housenumber":"3","addr:postcode":"7000","addr:street":"пл. Свобода","brand":"Yettel","brand:wikidata":"Q14915070","old_name":"Telenor;Globul","opening_hours":"Mo-Fr 09:00-19:30","phone":"+359 82 590 050","shop":"telecommunication","telecom":"telecommunication","website":"https://yettel.bg/"},"wikidata":"Q14915070","coordinates":[43.8497349,25.9542461]},"atp":{"id":"9YPJaLH9xqDBxCHHRz7KjpLPbR0=","tags":{"shop":"telecommunication","addr:street_address":"пл. Свобода 3","addr:city":"Русе","addr:country":"BG","name":"Yettel","opening_hours":"Mo-Fr 09:00-19:00","brand":"Yettel","brand:wikidata":"Q14915070"},"coordinates":[43.84983,25.95399]},"dist":23.099,"tags_mismatch":true},{"osm":{"type":"node","id":3234259682,"tags":{"brand":"Yettel","brand:wikidata":"Q14915070","shop":"telecommunication"},"wikidata":"Q14915070","coordinates":[43.8535954,25.9903235]},"atp":{"id":"Jxa6qo-IrWUiBqYYiz_UgDuxQy8=","tags":{"shop":"telecommunication","addr:street_address":"Mall Русе, бул. Липник 121Д","addr:city":"Русе","addr:country":"BG","name":"Yettel","opening_hours":"Mo-Su 09:30-20:00","brand":"Yettel","brand:wikidata":"Q14915070"},"coordinates":[43.85386,25.98952]},"dist":70.828,"tags_mismatch":true},{"osm":{"type":"node","id":3274481098,"tags":{"brand":"Yettel","brand:wikidata":"Q14915070","shop":"telecommunication"},"wikidata":"Q14915070","coordinates":[43.5693744,27.8274828]},"atp":{"id":"Ga_mmJGNoD5JTa3DyV1nkEsfdDo=","tags":{"shop":"telecommunication","addr:street_address":"ул. Независимост 2","addr:city":"Добрич","addr:country":"BG","name":"Yettel","opening_hours":"Mo-Fr 09:00-19:00","brand":"Yettel","brand:wikidata":"Q14915070"},"coordinates":[43.56952,27.8277]},"dist":23.839,"tags_mismatch":true},{"osm":{"type":"node","id":3381502439,"tags":{"brand":"Yettel","brand:wikidata":"Q14915070","shop":"telecommunication"},"wikidata":"Q14915070","coordinates":[42.4914172,27.4731831]},"atp":{"id":"-OEl2ohVCarCFLvdV6DD3Xr9_2c=","tags":{"shop":"telecommunication","addr:street_address":"ул. Александровска 2","addr:city":"Бургас","addr:country":"BG","name":"Yettel","opening_hours":"Mo-Fr 09:00-19:00; Sa 10:00-17:00","brand":"Yettel","brand:wikidata":"Q14915070"},"coordinates":[42.491402,27.4734]},"dist":17.864,"tags_mismatch":true},{"osm":{"type":"node","id":3522631057,"tags":{"brand":"Yettel","brand:wikidata":"Q14915070","opening_hours":"Mo-Fr 09:00-20:00","shop":"telecommunication"},"wikidata":"Q14915070","coordinates":[42.6960793,23.3483691]},"atp":{"id":"h1okC-sAvF_aRxFKyXpP6GHnYE4=","tags":{"shop":"telecommunication","addr:street_address":"бул. Мадрид 14","addr:city":"София","addr:country":"BG","name":"Yettel","opening_hours":"Mo-Fr 09:00-19:00","brand":"Yettel","brand:wikidata":"Q14915070"},"coordinates":[42.69647,23.34829]},"dist":43.922,"tags_mismatch":true},{"osm":{"type":"node","id":3833841637,"tags":{"addr:city":"Бургас","addr:postcode":"8000","brand":"Yettel","brand:wikidata":"Q14915070","shop":"telecommunication"},"wikidata":"Q14915070","coordinates":[42.504573,27.4699129]},"atp":false,"tags_mismatch":false},{"osm":{"type":"node","id":3999382316,"tags":{"addr:city":"Елин Пелин","addr:postcode":"2100","brand":"Yettel","brand:wikidata":"Q14915070","shop":"telecommunication"},"wikidata":"Q14915070","coordinates":[42.6713694,23.598879]},"atp":{"id":"dNnkyNr_IDaMssm7wTO1ZED0zTM=","tags":{"shop":"telecommunication","addr:street_address":"Автогара, магазин 6","addr:city":"Елин Пелин","addr:country":"BG","name":"Yettel","opening_hours":"Mo-Fr 09:00-18:00","brand":"Yettel","brand:wikidata":"Q14915070"},"coordinates":[42.67112,23.59864]},"dist":33.924,"tags_mismatch":true},{"osm":{"type":"node","id":4103526589,"tags":{"addr:city":"Слънчев бряг","addr:housenumber":"51","addr:postcode":"8240","addr:street":"1-ва","brand":"Yettel","brand:wikidata":"Q14915070","old_name":"Telenor;Globul","opening_hours":"Mo-Fr 09:00-19:00","payment:cash":"yes","payment:credit_cards":"yes","payment:debit_cards":"yes","shop":"telecommunication","website":"https://yettel.bg/"},"wikidata":"Q14915070","coordinates":[42.6942175,27.7100239]},"atp":{"id":"DA7zcfqBm7Ir-lXmR6787opEndM=","tags":{"shop":"telecommunication","addr:street_address":"ул. Булевард 51","addr:city":"Слънчев бряг","addr:country":"BG","name":"Yettel","opening_hours":"Mo-Fr 09:00-18:00","brand":"Yettel","brand:wikidata":"Q14915070"},"coordinates":[42.694302,27.7096]},"dist":35.895,"tags_mismatch":true},{"osm":{"type":"node","id":4105536936,"tags":{"brand":"Yettel","brand:wikidata":"Q14915070","shop":"telecommunication"},"wikidata":"Q14915070","coordinates":[42.1453901,24.7317023]},"atp":false,"tags_mismatch":false},{"osm":{"type":"node","id":4230833990,"tags":{"addr:city":"Кърджали","addr:postcode":"6600","brand":"Yettel","brand:wikidata":"Q14915070","shop":"telecommunication"},"wikidata":"Q14915070","coordinates":[41.6439744,25.3664598]},"atp":{"id":"S4migL0Tnb8grFsrBdKGzP6z5rs=","tags":{"shop":"telecommunication","addr:street_address":"бул. Тракия 1","addr:city":"Кърджали","addr:country":"BG","name":"Yettel","opening_hours":"Mo-Fr 09:00-18:00","brand":"Yettel","brand:wikidata":"Q14915070"},"coordinates":[41.644798,25.368999]},"dist":230.01,"tags_mismatch":true},{"osm":{"type":"node","id":4430676212,"tags":{"addr:city":"Добрич","addr:housenumber":"бл. 29","addr:place":"площад Свобода","addr:postcode":"9300","brand":"Yettel","brand:wikidata":"Q14915070","old_name":"Telenor;Globul","opening_hours":"Mo-Fr 09:00-19:30; Sa 10:00-17:00","payment:cash":"yes","payment:credit_cards":"yes","payment:debit_cards":"yes","shop":"telecommunication","website":"https://yettel.bg/"},"wikidata":"Q14915070","coordinates":[43.5688663,27.8293984]},"atp":{"id":"9LpoU51sxu5plr64LPa0fxt7Uw0=","tags":{"shop":"telecommunication","addr:street_address":"пл. Свобода 9, бл. 29","addr:city":"Добрич","addr:country":"BG","name":"Yettel","opening_hours":"Mo-Fr 09:00-19:30","brand":"Yettel","brand:wikidata":"Q14915070"},"coordinates":[43.568916,27.829383]},"dist":5.664,"tags_mismatch":true},{"osm":{"type":"node","id":4441603989,"tags":{"brand":"Yettel","brand:wikidata":"Q14915070","opening_hours":"Mo-Fr 08:00-17:00","shop":"telecommunication"},"wikidata":"Q14915070","coordinates":[41.6471591,24.1588846]},"atp":{"id":"0AQJ1ikWnSbnz51cvygqXbDEvtA=","tags":{"shop":"telecommunication","addr:street_address":"ул. Хисар 1","addr:city":"Доспат","addr:country":"BG","name":"Yettel","opening_hours":"Mo-Fr 09:00-18:00","brand":"Yettel","brand:wikidata":"Q14915070"},"coordinates":[41.64736,24.15885]},"dist":22.523,"tags_mismatch":true},{"osm":{"type":"node","id":4501446126,"tags":{"brand":"Yettel","brand:wikidata":"Q14915070","old_name":"Telenor;Globul","shop":"telecommunication"},"wikidata":"Q14915070","coordinates":[42.6942578,23.3204238]},"atp":{"id":"Q0WFPkMdIPTJ4ti7Itd96U4NXJk=","tags":{"shop":"telecommunication","addr:street_address":"бул. Витоша 10","addr:city":"София","addr:country":"BG","name":"Yettel","opening_hours":"Mo-Fr 09:00-19:30; Sa 10:00-18:00","brand":"Yettel","brand:wikidata":"Q14915070"},"coordinates":[42.6934,23.32007]},"dist":99.669,"tags_mismatch":true},{"osm":{"type":"node","id":4876629282,"tags":{"brand":"Yettel","brand:wikidata":"Q14915070","old_name":"Telenor;Globul","shop":"telecommunication"},"wikidata":"Q14915070","coordinates":[42.8513299,23.0398288]},"atp":false,"tags_mismatch":false},{"osm":{"type":"node","id":5027187644,"tags":{"addr:city":"Казанлък","addr:housenumber":"2","addr:postcode":"6100","addr:street":"пл. Севтополис","brand":"Yettel","brand:wikidata":"Q14915070","old_name":"Telenor;Globul","opening_hours":"Mo-Fr 09:00-19:30; Sa 10:00-17:00","payment:cash":"yes","payment:credit_cards":"yes","payment:debit_cards":"yes","shop":"telecommunication","website":"https://yettel.bg/"},"wikidata":"Q14915070","coordinates":[42.6194767,25.392801]},"atp":{"id":"5VNdzyJHrisc7WALNMq5ylbTYiI=","tags":{"shop":"telecommunication","addr:street_address":"пл. Севтополис 2","addr:city":"Казанлък","addr:country":"BG","name":"Yettel","opening_hours":"Mo-Fr 09:00-19:00; Sa 10:00-17:00","brand":"Yettel","brand:wikidata":"Q14915070"},"coordinates":[42.61956,25.39277]},"dist":9.604,"tags_mismatch":true},{"osm":{"type":"node","id":5117749534,"tags":{"addr:city":"Пловдив","addr:housenumber":"2","addr:postcode":"4000","addr:street":"Княз Богориди","brand":"Yettel","brand:wikidata":"Q14915070","old_name":"Telenor;Globul","opening_hours":"Mo-Fr 09:00-19:30","payment:cash":"yes","payment:credit_cards":"yes","payment:debit_cards":"yes","shop":"telecommunication","website":"https://yettel.bg/","wheelchair":"no"},"wikidata":"Q14915070","coordinates":[42.1504354,24.7470514]},"atp":{"id":"hy5waacfp4-wch3s5r1x15hhbj4=","tags":{"shop":"telecommunication","addr:street_address":"ул. Княз Богориди 2","addr:city":"Пловдив","addr:country":"BG","name":"Yettel","opening_hours":"Mo-Fr 09:00-19:00","brand":"Yettel","brand:wikidata":"Q14915070"},"coordinates":[42.1505,24.7469]},"dist":14.401,"tags_mismatch":true},{"osm":{"type":"node","id":5635089595,"tags":{"addr:city":"Дулово","addr:housenumber":"16","addr:postcode":"7650","addr:street":"Васил Левски","brand":"Yettel","brand:wikidata":"Q14915070","old_name":"Telenor;Globul","payment:cash":"yes","payment:credit_cards":"yes","payment:debit_cards":"yes","shop":"telecommunication","website":"https://yettel.bg/"},"wikidata":"Q14915070","coordinates":[43.8236895,27.1410085]},"atp":{"id":"HBqw-RVWv-42tb1UFpr6hDi6CIU=","tags":{"shop":"telecommunication","addr:street_address":"ул. Васил Левски 16","addr:city":"Дулово","addr:country":"BG","name":"Yettel","opening_hours":"Mo-Fr 09:00-18:30","brand":"Yettel","brand:wikidata":"Q14915070"},"coordinates":[43.82361,27.14083]},"dist":16.829,"tags_mismatch":true},{"osm":{"type":"node","id":5908083847,"tags":{"addr:city":"София","addr:housenumber":"171","addr:postcode":"1220","addr:street":"бул. Ломско шосе","brand":"Yettel","brand:wikidata":"Q14915070","old_name":"Telenor;Globul","phone":"+359 2 415 2080;+359 2 415 2077","shop":"telecommunication","website":"https://www.yettel.bg"},"wikidata":"Q14915070","coordinates":[42.726481,23.301861]},"atp":{"id":"NPoyUMZiF1DHOWaPHFkGNeYdQbU=","tags":{"shop":"telecommunication","addr:street_address":"бул. Ломско шосе, бл. 171 м-н №10","addr:city":"София","addr:country":"BG","name":"Yettel","opening_hours":"Mo-Fr 09:00-19:30; Sa 10:00-18:00","brand":"Yettel","brand:wikidata":"Q14915070"},"coordinates":[42.726429,23.302097]},"dist":20.126,"tags_mismatch":true},{"osm":{"type":"node","id":6033873772,"tags":{"brand":"Yettel","brand:wikidata":"Q14915070","old_name":"Telenor;Globul","shop":"telecommunication","wheelchair":"yes"},"wikidata":"Q14915070","coordinates":[42.6281873,23.3738483]},"atp":{"id":"w0D0xZggPX5DJ4EndeW-Vujhctk=","tags":{"shop":"telecommunication","addr:street_address":"жк Младост 4, Бизнес парк София, сгр. 4","addr:city":"София","addr:country":"BG","name":"Yettel","opening_hours":"Mo-Fr 09:00-19:00","brand":"Yettel","brand:wikidata":"Q14915070"},"coordinates":[42.62842,23.37386]},"dist":25.893,"tags_mismatch":true},{"osm":{"type":"node","id":6296611460,"tags":{"addr:city":"Костинброд","addr:postcode":"2230","addr:street":"Детелина","brand":"Yettel","brand:wikidata":"Q14915070","old_name":"Telenor;Globul","opening_hours":"Mo-Fr 09:00-18:30","shop":"telecommunication","website":"https://yettel.bg/","wheelchair":"yes"},"wikidata":"Q14915070","coordinates":[42.8082421,23.2013555]},"atp":false,"tags_mismatch":false},{"osm":{"type":"node","id":6407220594,"tags":{"addr:city":"Шумен","addr:housenumber":"46 В","addr:postcode":"9700","addr:street":"бул. Симеон Велики","brand":"Yettel","brand:wikidata":"Q14915070","old_name":"Telenor;Globul","opening_hours":"Mo-Fr 09:00-19:00","shop":"telecommunication","website":"https://yettel.bg/"},"wikidata":"Q14915070","coordinates":[43.2762342,26.9427869]},"atp":false,"tags_mismatch":false},{"osm":{"type":"node","id":6448393462,"tags":{"addr:city":"София","addr:country":"BG","addr:housenumber":"64","addr:street":"бул. Витоша","brand":"Yettel","brand:wikidata":"Q14915070","check_date":"2023-11-19","int_name":"Yettel","old_name":"Globul;Telenor","opening_hours":"Mo-Fr 09:00-19:30","payment:cash":"yes","payment:mastercard":"yes","payment:visa":"yes","phone":"+359 2 415 2390","shop":"telecommunication","wheelchair":"yes"},"wikidata":"Q14915070","coordinates":[42.688858,23.3187027]},"atp":{"id":"moHhHPM7HFhssk6-4LeN1ARb9PU=","tags":{"shop":"telecommunication","addr:street_address":"бул. Витоша 64","addr:city":"София","addr:country":"BG","name":"Yettel","opening_hours":"Mo-Fr 09:00-19:00","brand":"Yettel","brand:wikidata":"Q14915070"},"coordinates":[42.6889,23.318899]},"dist":16.71,"tags_mismatch":true},{"osm":{"type":"node","id":6732270683,"tags":{"addr:city":"Добрич","addr:postcode":"9300","addr:street":"Отец Паисий","brand":"Yettel","brand:wikidata":"Q14915070","shop":"telecommunication"},"wikidata":"Q14915070","coordinates":[43.5704748,27.8330871]},"atp":{"id":"D-pH3VcMYFMHnhnTsEHTy7u9Klw=","tags":{"shop":"telecommunication","addr:street_address":"ул. Отец Паисий 23","addr:city":"Добрич","addr:country":"BG","name":"Yettel","opening_hours":"Mo-Fr 09:00-19:00","brand":"Yettel","brand:wikidata":"Q14915070"},"coordinates":[43.57043,27.83327]},"dist":15.554,"tags_mismatch":true},{"osm":{"type":"node","id":6901820261,"tags":{"brand":"Yettel","brand:wikidata":"Q14915070","int_name":"Yettel","old_name":"Telenor;Globul","opening_hours":"Mo-Fr 09:00-20:00; Sa 10:00-18:00","payment:cash":"yes","payment:credit_cards":"yes","payment:debit_cards":"yes","phone":"+359 2 415 2560","shop":"telecommunication","website":"https://yettel.bg/"},"wikidata":"Q14915070","coordinates":[42.7151855,23.252015]},"atp":{"id":"bCIj3GFX3ivNgTi4sy_ZTAUgAqM=","tags":{"shop":"telecommunication","addr:street_address":"жк Люлин 6 бул. Захари Стоянов до бл. 601","addr:city":"София","addr:country":"BG","name":"Yettel","opening_hours":"Mo-Fr 09:00-19:30; Sa 10:00-18:00","brand":"Yettel","brand:wikidata":"Q14915070"},"coordinates":[42.71513,23.25203]},"dist":6.292,"tags_mismatch":true},{"osm":{"type":"node","id":7154932566,"tags":{"brand":"Yettel","brand:wikidata":"Q14915070","shop":"telecommunication","website":"https://www.yettel.bg/"},"wikidata":"Q14915070","coordinates":[42.729767,23.2534781]},"atp":false,"tags_mismatch":false},{"osm":{"type":"node","id":7760543285,"tags":{"brand":"Yettel","brand:wikidata":"Q14915070","shop":"telecommunication"},"wikidata":"Q14915070","coordinates":[42.5004869,24.1877853]},"atp":{"id":"iRk5e6dvBV9EELC08N_EPCuuZX4=","tags":{"shop":"telecommunication","addr:street_address":"ул. Георги Бенковски 32","addr:city":"Панагюрище","addr:country":"BG","name":"Yettel","opening_hours":"Mo-Fr 09:00-18:30","brand":"Yettel","brand:wikidata":"Q14915070"},"coordinates":[42.500329,24.18782]},"dist":17.787,"tags_mismatch":true},{"osm":{"type":"node","id":7828540186,"tags":{"brand":"Yettel","brand:wikidata":"Q14915070","old_name":"Telenor;Globul","opening_hours":"Mo-Fr 09:00-18:30","shop":"telecommunication","website":"https://yettel.bg/"},"wikidata":"Q14915070","coordinates":[43.1085756,26.4173161]},"atp":{"id":"_N4eDb0nKtbb2CfWDLfI8GnKt7A=","tags":{"shop":"telecommunication","addr:street_address":"ул. Цар Освободител 2","addr:city":"Омуртаг","addr:country":"BG","name":"Yettel","opening_hours":"Mo-Fr 09:00-18:00","brand":"Yettel","brand:wikidata":"Q14915070"},"coordinates":[43.10854,26.41698]},"dist":27.57,"tags_mismatch":true},{"osm":{"type":"node","id":7913265013,"tags":{"addr:city":"Благоевград","addr:housenumber":"3","addr:postcode":"2700","addr:street":"Тодор Александров","brand":"Yettel","brand:wikidata":"Q14915070","old_name":"Telenor;Globul","opening_hours":"Mo-Fr 09:00-19:30; Sa 09:00-17:00","payment:cash":"yes","payment:credit_cards":"yes","payment:debit_cards":"yes","shop":"telecommunication","website":"https://yettel.bg/"},"wikidata":"Q14915070","coordinates":[42.0201069,23.1002478]},"atp":{"id":"FHqOkxgMa5OdZE-gOHgLEBMB5S0=","tags":{"shop":"telecommunication","addr:street_address":"ул. Тодор Александров 3","addr:city":"Благоевград","addr:country":"BG","name":"Yettel","opening_hours":"Mo-Fr 09:00-19:00; Sa 10:00-17:00","brand":"Yettel","brand:wikidata":"Q14915070"},"coordinates":[42.020116,23.100214]},"dist":2.97,"tags_mismatch":true},{"osm":{"type":"node","id":9025403073,"tags":{"brand":"Yettel","brand:wikidata":"Q14915070","check_date":"2023-02-19","old_name":"Telenor;Globul","shop":"telecommunication","wheelchair":"no"},"wikidata":"Q14915070","coordinates":[42.1449201,24.7494554]},"atp":{"id":"ZEzGHDA1V62DNAP6ulEunlIPqkY=","tags":{"shop":"telecommunication","addr:street_address":"бул. Александър Батенберг I 35","addr:city":"Пловдив","addr:country":"BG","name":"Yettel","opening_hours":"Mo-Fr 09:00-19:00","brand":"Yettel","brand:wikidata":"Q14915070"},"coordinates":[42.144697,24.749386]},"dist":25.459,"tags_mismatch":true},{"osm":{"type":"node","id":9240314458,"tags":{"addr:city":"Хасково","addr:housenumber":"12","addr:postcode":"6300","addr:street":"Велико Търново","brand":"Yettel","brand:wikidata":"Q14915070","old_name":"Telenor","opening_hours":"Mo-Fr 09:00-19:30","payment:cash":"yes","payment:credit_cards":"yes","payment:debit_cards":"yes","shop":"telecommunication"},"wikidata":"Q14915070","coordinates":[41.9320912,25.5561454]},"atp":{"id":"tqI-97D4A69pLk4AP1iUBz-Sg8s=","tags":{"shop":"telecommunication","addr:street_address":"ул. Велико Търново 12","addr:city":"Хасково","addr:country":"BG","name":"Yettel","opening_hours":"Mo-Fr 09:00-19:00; Sa 10:00-17:00","brand":"Yettel","brand:wikidata":"Q14915070"},"coordinates":[41.932201,25.556]},"dist":17.139,"tags_mismatch":true},{"osm":{"type":"node","id":9558246542,"tags":{"brand":"Yettel","brand:wikidata":"Q14915070","check_date:opening_hours":"2023-04-20","old_name":"Telenor;Globul","opening_hours":"Mo-Sa 09:00-21:00; Su 09:00-20:00","shop":"telecommunication"},"wikidata":"Q14915070","coordinates":[42.1662554,24.7490564]},"atp":{"id":"J2zmMHqLpwDFRG7oEJdLKgK3ni0=","tags":{"shop":"telecommunication","addr:street_address":"Брезовско шосе 127","addr:city":"Пловдив","addr:country":"BG","name":"Yettel","opening_hours":"Mo-Sa 08:00-21:00; Su 09:00-21:00","brand":"Yettel","brand:wikidata":"Q14915070"},"coordinates":[42.167727,24.749267]},"dist":164.552,"tags_mismatch":true},{"osm":{"type":"node","id":9583302282,"tags":{"addr:city":"Златоград","addr:housenumber":"бл. 192","addr:postcode":"4980","addr:street":"Беловидово","brand":"Yettel","brand:wikidata":"Q14915070","old_name":"Telenor","opening_hours":"Mo-Fr 09:00-18:30","shop":"telecommunication","website":"https://www.yettel.bg/"},"wikidata":"Q14915070","coordinates":[41.3790634,25.0972148]},"atp":{"id":"OWm-Ck-vwtfYexa88p3_QXR5OG8=","tags":{"shop":"telecommunication","addr:street_address":"ул. Беловидово, бл. 192","addr:city":"Златоград","addr:country":"BG","name":"Yettel","opening_hours":"Mo-Fr 09:00-18:00","brand":"Yettel","brand:wikidata":"Q14915070"},"coordinates":[41.379276,25.097242]},"dist":23.749,"tags_mismatch":true},{"osm":{"type":"node","id":9671736310,"tags":{"addr:city":"Варна","addr:housenumber":"1","addr:street":"Студентска","brand":"Yettel","brand:wikidata":"Q14915070","old_name":"Telenor;Globul","opening_hours":"Mo-Fr 09:00-13:00","payment:cash":"yes","payment:credit_cards":"yes","payment:debit_cards":"yes","shop":"telecommunication"},"wikidata":"Q14915070","coordinates":[43.2242071,27.9304014]},"atp":{"id":"fV63CPKfgHu3LAXoVyK34nS22wE=","tags":{"shop":"telecommunication","addr:street_address":"ул.Студентска 1","addr:city":"Варна","addr:country":"BG","name":"Yettel","opening_hours":"Mo-Fr 09:00-19:00","brand":"Yettel","brand:wikidata":"Q14915070"},"coordinates":[43.2233834,27.9319363]},"dist":154.454,"tags_mismatch":true},{"osm":{"type":"node","id":9683384373,"tags":{"brand":"Yettel","brand:wikidata":"Q14915070","old_name":"Telenor;Globul","shop":"telecommunication"},"wikidata":"Q14915070","coordinates":[42.7019406,23.359573]},"atp":{"id":"uVe9xEswOkSnZkzavM-hzdKLCoY=","tags":{"shop":"telecommunication","addr:street_address":"ул. Тодорини кукли № 20","addr:city":"София","addr:country":"BG","name":"Yettel","opening_hours":"Mo-Fr 09:00-19:00","brand":"Yettel","brand:wikidata":"Q14915070"},"coordinates":[42.7019879,23.3595129]},"dist":7.196,"tags_mismatch":true},{"osm":{"type":"node","id":9929955417,"tags":{"brand":"Yettel","brand:wikidata":"Q14915070","old_name":"Telenor;Globul","shop":"telecommunication"},"wikidata":"Q14915070","coordinates":[43.2710229,26.9281002]},"atp":{"id":"vu0Q1X6PpfbZBjG9xZYQTIE3Uwo=","tags":{"shop":"telecommunication","addr:street_address":"ул. Стилиян Чилингиров 2","addr:city":"Шумен","addr:country":"BG","name":"Yettel","opening_hours":"Mo-Fr 09:00-19:00","brand":"Yettel","brand:wikidata":"Q14915070"},"coordinates":[43.271,26.9279]},"dist":16.408,"tags_mismatch":true},{"osm":{"type":"node","id":10086106852,"tags":{"brand":"Yettel","brand:wikidata":"Q14915070","old_name":"Telenor;Globul","shop":"telecommunication"},"wikidata":"Q14915070","coordinates":[43.2124095,27.9040662]},"atp":{"id":"ye7_mY82YYr3EP6pm0ZZCcNY_xc=","tags":{"shop":"telecommunication","addr:street_address":"бул. Владислав Варненчик 81A","addr:city":"Варна","addr:country":"BG","name":"Yettel","opening_hours":"Mo-Fr 09:00-19:00","brand":"Yettel","brand:wikidata":"Q14915070"},"coordinates":[43.212799,27.903999]},"dist":43.651,"tags_mismatch":true},{"osm":{"type":"node","id":10231116601,"tags":{"brand":"Yettel","brand:wikidata":"Q14915070","old_name":"Telenor;Globul","shop":"telecommunication"},"wikidata":"Q14915070","coordinates":[42.8524806,23.0380868]},"atp":{"id":"dEgF_UPfthH2IpTExjUAiGbYEfo=","tags":{"shop":"telecommunication","addr:street_address":"ул. Паисий Хилендарски 40A","addr:city":"Сливница","addr:country":"BG","name":"Yettel","opening_hours":"Mo-Fr 09:00-18:00","brand":"Yettel","brand:wikidata":"Q14915070"},"coordinates":[42.85295,23.0373]},"dist":82.692,"tags_mismatch":true},{"osm":{"type":"node","id":10249380831,"tags":{"brand":"Yettel","brand:wikidata":"Q14915070","level":"0","old_name":"Telenor;Globul","shop":"telecommunication"},"wikidata":"Q14915070","coordinates":[42.6608382,23.3825299]},"atp":{"id":"V8Te612AO-eK5zajmF14sRlIMnA=","tags":{"shop":"telecommunication","addr:street_address":"The Mall, бул. Цариградско шосе 115","addr:city":"София","addr:country":"BG","name":"Yettel","opening_hours":"Mo-Su 10:00-22:00","brand":"Yettel","brand:wikidata":"Q14915070"},"coordinates":[42.66021,23.38159]},"dist":103.857,"tags_mismatch":true},{"osm":{"type":"node","id":10297355313,"tags":{"brand":"Yettel","brand:wikidata":"Q14915070","old_name":"Telenor;Globul","opening_hours":"Mo-Fr 09:00-20:00","shop":"telecommunication","website":"https://www.yettel.bg/"},"wikidata":"Q14915070","coordinates":[42.6508004,23.3419293]},"atp":{"id":"Yjd1_8RUgM6z-rgVl2o4jjAX1UU=","tags":{"shop":"telecommunication","addr:street_address":"ж.к. Студентски град, бул. Академик Б. Стефанов 20","addr:city":"София","addr:country":"BG","name":"Yettel","opening_hours":"Mo-Fr 09:00-19:30","brand":"Yettel","brand:wikidata":"Q14915070"},"coordinates":[42.6507,23.342199]},"dist":24.721,"tags_mismatch":true},{"osm":{"type":"node","id":10651054901,"tags":{"brand":"Yettel","brand:wikidata":"Q14915070","old_name":"Telenor;Globul","shop":"telecommunication"},"wikidata":"Q14915070","coordinates":[42.5031743,24.7038157]},"atp":false,"tags_mismatch":false},{"osm":{"type":"node","id":10671878312,"tags":{"brand":"Yettel","brand:wikidata":"Q14915070","old_name":"Telenor;Globul","shop":"telecommunication"},"wikidata":"Q14915070","coordinates":[42.264497,23.1160566]},"atp":{"id":"zuj71TXOphOVfvgSYpNDg725h14=","tags":{"shop":"telecommunication","addr:street_address":"ул. Свети Иван Рилски 4","addr:city":"Дупница","addr:country":"BG","name":"Yettel","opening_hours":"Mo-Fr 09:00-19:00","brand":"Yettel","brand:wikidata":"Q14915070"},"coordinates":[42.26442,23.11613]},"dist":10.478,"tags_mismatch":true},{"osm":{"type":"node","id":10683278259,"tags":{"addr:city":"Благоевград","addr:housenumber":"3","addr:postcode":"2700","addr:street":"бул. Св. Св. Кирил и Методий","brand":"Yettel","brand:wikidata":"Q14915070","old_name":"Telenor;Globul","opening_hours":"Mo-Fr 09:00-19:30","payment:cash":"yes","payment:credit_cards":"yes","payment:debit_cards":"yes","shop":"telecommunication","website":"https://yettel.bg/"},"wikidata":"Q14915070","coordinates":[42.0201396,23.0943365]},"atp":{"id":"lrR1mR3GOkaRDkjCcpcBtRLERlQ=","tags":{"shop":"telecommunication","addr:street_address":"ул. Св. Св. Кирил и Методи 3","addr:city":"Благоевград","addr:country":"BG","name":"Yettel","opening_hours":"Mo-Fr 09:00-18:30","brand":"Yettel","brand:wikidata":"Q14915070"},"coordinates":[42.020119,23.094308]},"dist":3.285,"tags_mismatch":true},{"osm":{"type":"node","id":10683407262,"tags":{"addr:city":"Казанлък","addr:housenumber":"7","addr:postcode":"6100","addr:street":"Княз Александър Батенберг","brand":"Yettel","brand:wikidata":"Q14915070","old_name":"Telenor;Globul","opening_hours":"Mo-Fr 09:00-19:30","payment:cash":"yes","payment:credit_cards":"yes","payment:debit_cards":"yes","shop":"telecommunication","website":"https://yettel.bg/"},"wikidata":"Q14915070","coordinates":[42.6189563,25.3942776]},"atp":{"id":"TQ8naTCwFWgKcTM3pn0_qkcc7MI=","tags":{"shop":"telecommunication","addr:street_address":"бул. Княз Александър Батенберг 7","addr:city":"Казанлък","addr:country":"BG","name":"Yettel","opening_hours":"Mo-Fr 09:00-19:00","brand":"Yettel","brand:wikidata":"Q14915070"},"coordinates":[42.618999,25.3955]},"dist":100.136,"tags_mismatch":true},{"osm":{"type":"node","id":10683482234,"tags":{"brand":"Yettel","brand:wikidata":"Q14915070","old_name":"Telenor;Globul","opening_hours":"Mo-Su 09:00-19:00; Sa 09:00-16:00","payment:cash":"yes","payment:credit_cards":"yes","payment:debit_cards":"yes","shop":"telecommunication","website":"https://yettel.bg/"},"wikidata":"Q14915070","coordinates":[41.6449354,25.36911]},"atp":false,"tags_mismatch":false},{"osm":{"type":"node","id":10683493499,"tags":{"addr:city":"Несебър","addr:housenumber":"11","addr:postcode":"8230","addr:street":"Хан Крум","brand":"Yettel","brand:wikidata":"Q14915070","old_name":"Telenor;Globul","opening_hours":"Mo-Fr 09:00-19:00","shop":"telecommunication","website":"https://yettel.bg/"},"wikidata":"Q14915070","coordinates":[42.66243,27.7188352]},"atp":{"id":"ANbkKUI48yIOC1XFzzJ06VaI9DM=","tags":{"shop":"telecommunication","addr:street_address":"ул. Хан Крум 11","addr:city":"Несебър","addr:country":"BG","name":"Yettel","opening_hours":"Mo-Fr 09:00-18:00","brand":"Yettel","brand:wikidata":"Q14915070"},"coordinates":[42.66322,27.71849]},"dist":92.267,"tags_mismatch":true},{"osm":{"type":"node","id":10683557769,"tags":{"addr:city":"Бургас","addr:housenumber":"107","addr:postcode":"8000","addr:street":"Александровска","brand":"Yettel","brand:wikidata":"Q14915070","old_name":"Telenor;Globul","opening_hours":"Mo-Fr 09:00-19:30","payment:cash":"yes","payment:credit_cards":"yes","payment:debit_cards":"yes","shop":"telecommunication","website":"https://yettel.bg/"},"wikidata":"Q14915070","coordinates":[42.4992406,27.4702466]},"atp":{"id":"pYDHTTJHf6jlRcUVmEeXNK6a9aE=","tags":{"shop":"telecommunication","addr:street_address":"ул. Александровска 107","addr:city":"Бургас","addr:country":"BG","name":"Yettel","opening_hours":"Mo-Fr 09:00-19:00","brand":"Yettel","brand:wikidata":"Q14915070"},"coordinates":[42.499916,27.4701]},"dist":76.057,"tags_mismatch":true},{"osm":{"type":"node","id":10697274713,"tags":{"brand":"Yettel","brand:wikidata":"Q14915070","shop":"telecommunication"},"wikidata":"Q14915070","coordinates":[42.4381583,25.6319824]},"atp":{"id":"xRio2ZDsTlJ-vdt10NBQ-2_kvZk=","tags":{"shop":"telecommunication","addr:street_address":"Mall Galeria Stara Zagora, ул. Хан Аспарух 30","addr:city":"Стара Загора","addr:country":"BG","name":"Yettel","opening_hours":"Mo-Su 10:00-21:00","brand":"Yettel","brand:wikidata":"Q14915070"},"coordinates":[42.4382,25.63178]},"dist":17.245,"tags_mismatch":true},{"osm":{"type":"node","id":10979756980,"tags":{"brand":"Yettel","brand:wikidata":"Q14915070","shop":"telecommunication"},"wikidata":"Q14915070","coordinates":[43.3460591,27.1947596]},"atp":{"id":"Zm9b6EpvDD_NON7AOoiNGgMBVlw=","tags":{"shop":"telecommunication","addr:street_address":"ул. Цар Освободител 5","addr:city":"Нови пазар","addr:country":"BG","name":"Yettel","opening_hours":"Mo-Fr 09:00-18:30","brand":"Yettel","brand:wikidata":"Q14915070"},"coordinates":[43.34612,27.19483]},"dist":8.847,"tags_mismatch":true},{"osm":{"type":"node","id":11235822437,"tags":{"brand":"Yettel","brand:wikidata":"Q14915070","shop":"telecommunication"},"wikidata":"Q14915070","coordinates":[43.1407016,24.7186294]},"atp":{"id":"-24MAiBPScN2CBESo0sJxNst614=","tags":{"shop":"telecommunication","addr:street_address":"ул. Търговска 54, вх. А, ет. 1","addr:city":"Ловеч","addr:country":"BG","name":"Yettel","opening_hours":"Mo-Fr 09:00-18:30","brand":"Yettel","brand:wikidata":"Q14915070"},"coordinates":[43.14073,24.71832]},"dist":25.301,"tags_mismatch":true},{"osm":{"type":"node","id":11257967659,"tags":{"brand":"Yettel","brand:wikidata":"Q14915070","shop":"telecommunication"},"wikidata":"Q14915070","coordinates":[42.4184994,27.6948997]},"atp":false,"tags_mismatch":false},{"osm":{"type":"node","id":11325714825,"tags":{"brand":"Yettel","brand:wikidata":"Q14915070","shop":"telecommunication"},"wikidata":"Q14915070","coordinates":[43.2506519,26.5715185]},"atp":{"id":"ExNHBYUJSPdenozEP6Z5SZ14Noo=","tags":{"shop":"telecommunication","addr:street_address":"ул. Цар Симеон 4, ет. 1","addr:city":"Търговище","addr:country":"BG","name":"Yettel","opening_hours":"Mo-Fr 09:00-18:30","brand":"Yettel","brand:wikidata":"Q14915070"},"coordinates":[43.2505145,26.5714224]},"dist":17.146,"tags_mismatch":true},{"osm":{"type":"node","id":11537933452,"tags":{"brand":"Yettel","brand:wikidata":"Q14915070","check_date":"2019","shop":"telecommunication"},"wikidata":"Q14915070","coordinates":[42.6963953,23.2868993]},"atp":false,"tags_mismatch":false},{"osm":{"type":"node","id":11938894753,"tags":{"brand":"Yettel","brand:wikidata":"Q14915070","level":"-1","shop":"telecommunication"},"wikidata":"Q14915070","coordinates":[42.7001157,23.3216507]},"atp":{"id":"cQKlyGkz-2cyQRnLtTzKNoNZNIs=","tags":{"shop":"telecommunication","addr:street_address":"бул. Мария Луиза 25","addr:city":"София","addr:country":"BG","name":"Yettel","opening_hours":"Mo-Su 09:00-21:00","brand":"Yettel","brand:wikidata":"Q14915070"},"coordinates":[42.701801,23.322399]},"dist":197.121,"tags_mismatch":true},{"osm":{"type":"node","id":11969198199,"tags":{"brand":"Yettel","brand:wikidata":"Q14915070","shop":"telecommunication"},"wikidata":"Q14915070","coordinates":[42.9079187,23.794185]},"atp":{"id":"E0vYvQIFCvGZsOLVpNET-eoIGao=","tags":{"shop":"telecommunication","addr:street_address":"пл. Саранск 7","addr:city":"Ботевград","addr:country":"BG","name":"Yettel","opening_hours":"Mo-Fr 09:00-19:00","brand":"Yettel","brand:wikidata":"Q14915070"},"coordinates":[42.907651,23.793366]},"dist":73.044,"tags_mismatch":true},{"osm":{"type":"node","id":12073982247,"tags":{"brand":"Yettel","brand:wikidata":"Q14915070","shop":"telecommunication"},"wikidata":"Q14915070","coordinates":[42.809035,23.2128876]},"atp":{"id":"2kYqlvX_1-g7_S-R8zC6WK_5X6s=","tags":{"shop":"telecommunication","addr:street_address":"ул. Електра, ет. 1, обект 8 Билла Парк","addr:city":"Костинброд","addr:country":"BG","name":"Yettel","opening_hours":"Mo-Fr 09:00-18:00","brand":"Yettel","brand:wikidata":"Q14915070"},"coordinates":[42.8092664,23.2102776]},"dist":214.46,"tags_mismatch":true},{"osm":{"type":"node","id":12165020020,"tags":{"brand":"Yettel","brand:wikidata":"Q14915070","level":"0","shop":"telecommunication"},"wikidata":"Q14915070","coordinates":[42.6642376,23.2882534]},"atp":{"id":"NJ-zMcWP8_bYkMAxDFgro-pe5Lg=","tags":{"shop":"telecommunication","addr:street_address":"Bulgaria Mall, бул. България 69","addr:city":"София","addr:country":"BG","name":"Yettel","opening_hours":"Mo-Su 10:00-21:00","brand":"Yettel","brand:wikidata":"Q14915070"},"coordinates":[42.6647,23.288401]},"dist":52.814,"tags_mismatch":true},{"osm":false,"atp":{"id":"sLFLPkzhreGvsrc-It79gXvAF3g=","tags":{"shop":"telecommunication","addr:street_address":"ул. Д-р Людвиг Заменхоф 1","addr:city":"Варна","addr:country":"BG","name":"Yettel","opening_hours":"Mo-Fr 09:00-19:30; Sa 10:00-18:00","brand":"Yettel","brand:wikidata":"Q14915070"},"coordinates":[43.203248,27.912938]},"tags_mismatch":false,"dist":0},{"osm":false,"atp":{"id":"PL7faRCuIzUPB5RE4TpQFDSX6Pc=","tags":{"shop":"telecommunication","addr:street_address":"бул. Цар Симеон Велики 92","addr:city":"Стара Загора","addr:country":"BG","name":"Yettel","opening_hours":"Mo-Fr 09:00-19:00","brand":"Yettel","brand:wikidata":"Q14915070"},"coordinates":[42.424,25.623899]},"tags_mismatch":false,"dist":0},{"osm":false,"atp":{"id":"aIuO05D3AYFN7M6wXiyjrrJfebA=","tags":{"shop":"telecommunication","addr:street_address":"ул. Търговска 12","addr:city":"Перник","addr:country":"BG","name":"Yettel","opening_hours":"Mo-Fr 09:00-19:00; Sa 10:00-18:00","brand":"Yettel","brand:wikidata":"Q14915070"},"coordinates":[42.60471,23.03048]},"tags_mismatch":false,"dist":0},{"osm":false,"atp":{"id":"cHmye44ybBKzMmU-m5L1U7-kskY=","tags":{"shop":"telecommunication","addr:street_address":"ул. Асен Златаров 30","addr:city":"Пазарджик","addr:country":"BG","name":"Yettel","opening_hours":"Mo-Fr 09:00-19:00; Sa 10:00-17:00","brand":"Yettel","brand:wikidata":"Q14915070"},"coordinates":[42.19233,24.33369]},"tags_mismatch":false,"dist":0},{"osm":false,"atp":{"id":"E4RnLs5AY2pMZgq1KGzQ1_9rhAc=","tags":{"shop":"telecommunication","addr:street_address":"жк Тракия, ул. Съединение 45, до бл.100","addr:city":"Пловдив","addr:country":"BG","name":"Yettel","opening_hours":"Mo-Fr 09:00-19:30; Sa 10:00-17:00","brand":"Yettel","brand:wikidata":"Q14915070"},"coordinates":[42.1315,24.794201]},"tags_mismatch":false,"dist":0},{"osm":false,"atp":{"id":"UpsAopaVLCyhvaMPh6bylZ2wdow=","tags":{"shop":"telecommunication","addr:street_address":"бул. България 11","addr:city":"Разград","addr:country":"BG","name":"Yettel","opening_hours":"Mo-Fr 09:00-19:00","brand":"Yettel","brand:wikidata":"Q14915070"},"coordinates":[43.525101,26.5257]},"tags_mismatch":false,"dist":0},{"osm":false,"atp":{"id":"HGmLTmWlQilcT55e7DFMuA6CCWI=","tags":{"shop":"telecommunication","addr:street_address":"ул. Васил Левски 8","addr:city":"Велико Търново","addr:country":"BG","name":"Yettel","opening_hours":"Mo-Fr 09:00-19:00","brand":"Yettel","brand:wikidata":"Q14915070"},"coordinates":[43.07993,25.6295]},"tags_mismatch":false,"dist":0},{"osm":false,"atp":{"id":"dmMxp9hFR2fsJdPUhadskvKN_JA=","tags":{"shop":"telecommunication","addr:street_address":"ул. Васил Левски 28","addr:city":"Търговище","addr:country":"BG","name":"Yettel","opening_hours":"Mo-Fr 09:00-19:00","brand":"Yettel","brand:wikidata":"Q14915070"},"coordinates":[43.24761,26.5728]},"tags_mismatch":false,"dist":0},{"osm":false,"atp":{"id":"eFo7k3mWyOOzIJ2fgvHhyClJ6fY=","tags":{"shop":"telecommunication","addr:street_address":"бул. Цар Освободител 30","addr:city":"Сливен","addr:country":"BG","name":"Yettel","opening_hours":"Mo-Fr 09:00-19:00","brand":"Yettel","brand:wikidata":"Q14915070"},"coordinates":[42.68043,26.31961]},"tags_mismatch":false,"dist":0},{"osm":false,"atp":{"id":"1bGz6t8siiELDo7AASEGhvea-88=","tags":{"shop":"telecommunication","addr:street_address":"ул. Петко Каравелов 1","addr:city":"Габрово","addr:country":"BG","name":"Yettel","opening_hours":"Mo-Fr 09:00-19:00","brand":"Yettel","brand:wikidata":"Q14915070"},"coordinates":[42.872398,25.3193]},"tags_mismatch":false,"dist":0},{"osm":false,"atp":{"id":"y0ogQAZnDvBkw4yjiOLvnKxvUpI=","tags":{"shop":"telecommunication","addr:street_address":"ул. Васил Левски 132","addr:city":"Плевен","addr:country":"BG","name":"Yettel","opening_hours":"Mo-Fr 09:00-19:00","brand":"Yettel","brand:wikidata":"Q14915070"},"coordinates":[43.412498,24.6154]},"tags_mismatch":false,"dist":0},{"osm":false,"atp":{"id":"OqXh80lHDmscEdfuvgcgW_XOvUI=","tags":{"shop":"telecommunication","addr:street_address":"жк. Дружба 1, срещу блок 18","addr:city":"София","addr:country":"BG","name":"Yettel","opening_hours":"Mo-Fr 09:00-19:00","brand":"Yettel","brand:wikidata":"Q14915070"},"coordinates":[42.6679,23.39557]},"tags_mismatch":false,"dist":0},{"osm":false,"atp":{"id":"QcbLweEEPUzdSw-G-Xo29_7vhsk=","tags":{"shop":"telecommunication","addr:street_address":"Central Mall, ул. Оборище 18","addr:city":"Велико Търново","addr:country":"BG","name":"Yettel","opening_hours":"Mo-Su 10:00-20:00","brand":"Yettel","brand:wikidata":"Q14915070"},"coordinates":[43.07943,25.60035]},"tags_mismatch":false,"dist":0},{"osm":false,"atp":{"id":"zFzFD86DkVBN32lnijn_lRtfam4=","tags":{"shop":"telecommunication","addr:street_address":"Околовръстен път 214","addr:city":"София","addr:country":"BG","name":"Yettel","opening_hours":"Mo-Su 10:00-22:00","brand":"Yettel","brand:wikidata":"Q14915070"},"coordinates":[42.624078,23.352753]},"tags_mismatch":false,"dist":0},{"osm":false,"atp":{"id":"JH2xqhH6Jhs6X2RbZdkowY4oDBg=","tags":{"shop":"telecommunication","addr:street_address":"пл. Иван Миндиликов 1","addr:city":"Плевен","addr:country":"BG","name":"Yettel","opening_hours":"Mo-Su 10:00-21:00","brand":"Yettel","brand:wikidata":"Q14915070"},"coordinates":[43.4195,24.61419]},"tags_mismatch":false,"dist":0},{"osm":false,"atp":{"id":"bGkxudfvy7tfk5AvPbLOB_aw2Uk=","tags":{"shop":"telecommunication","addr:street_address":"жк. Владислав Варненчик, бул. Св. Елена 26","addr:city":"Варна","addr:country":"BG","name":"Yettel","opening_hours":"Mo-Fr 09:00-19:00","brand":"Yettel","brand:wikidata":"Q14915070"},"coordinates":[43.245998,27.8496]},"tags_mismatch":false,"dist":0},{"osm":false,"atp":{"id":"Bb96xgYP4c2TcaS0Tk8hLJd2TVU=","tags":{"shop":"telecommunication","addr:street_address":"ул. Д-р Георги Странски № 3","addr:city":"Пловдив","addr:country":"BG","name":"Yettel","opening_hours":"Mo-Su 10:00-21:00","brand":"Yettel","brand:wikidata":"Q14915070"},"coordinates":[42.14319,24.78467]},"tags_mismatch":false,"dist":0},{"osm":false,"atp":{"id":"W3iYHiyz9feClAK6vbD82p-UAWE=","tags":{"shop":"telecommunication","addr:street_address":"ул.Чаталджа 49","addr:city":"Варна","addr:country":"BG","name":"Yettel","opening_hours":"Mo-Fr 09:00-19:00","brand":"Yettel","brand:wikidata":"Q14915070"},"coordinates":[43.21336,27.92327]},"tags_mismatch":false,"dist":0},{"osm":false,"atp":{"id":"8pV6wOnARWQktWOyGUEZWUZqkrY=","tags":{"shop":"telecommunication","addr:street_address":"бул. Могильов 47, Terra Mall","addr:city":"Габрово","addr:country":"BG","name":"Yettel","opening_hours":"Mo-Su 10:00-20:00","brand":"Yettel","brand:wikidata":"Q14915070"},"coordinates":[42.885899,25.3132]},"tags_mismatch":false,"dist":0},{"osm":false,"atp":{"id":"E2fVc01znkM2ppNzpczwJ2VNVKc=","tags":{"shop":"telecommunication","addr:street_address":"Serdika Center, бул. Ситняково 48","addr:city":"София","addr:country":"BG","name":"Yettel","opening_hours":"Mo-Su 10:00-22:00","brand":"Yettel","brand:wikidata":"Q14915070"},"coordinates":[42.691002,23.353399]},"tags_mismatch":false,"dist":0},{"osm":false,"atp":{"id":"7_nCPXIrzFtx67ThK8rc9iE_glM=","tags":{"shop":"telecommunication","addr:street_address":"жк Изгрев, бл.109, вх. Б, eт. 0, обект 6","addr:city":"Бургас","addr:country":"BG","name":"Yettel","opening_hours":"Mo-Fr 09:00-19:00","brand":"Yettel","brand:wikidata":"Q14915070"},"coordinates":[42.5239,27.46576]},"tags_mismatch":false,"dist":0},{"osm":false,"atp":{"id":"o7P1cC9Q_6YpA2Er-6NjdyLdb8M=","tags":{"shop":"telecommunication","addr:street_address":"ул. Цар Освободител 106","addr:city":"Свищов","addr:country":"BG","name":"Yettel","opening_hours":"Mo-Fr 09:00-18:30","brand":"Yettel","brand:wikidata":"Q14915070"},"coordinates":[43.61568,25.35097]},"tags_mismatch":false,"dist":0},{"osm":false,"atp":{"id":"j4OlD8m58E-8jjkJwUWINm0naMA=","tags":{"shop":"telecommunication","addr:street_address":"ул. Янко Комитов 6, Mall Galleria Burgas","addr:city":"Бургас","addr:country":"BG","name":"Yettel","opening_hours":"Mo-Su 10:00-21:00","brand":"Yettel","brand:wikidata":"Q14915070"},"coordinates":[42.512901,27.454901]},"tags_mismatch":false,"dist":0},{"osm":false,"atp":{"id":"hTfs1U1eXo-wDyHUvbsSAnVyO6M=","tags":{"shop":"telecommunication","addr:street_address":"ул. Ян Палах 10, Търговски Център Ян Палах","addr:city":"Варна","addr:country":"BG","name":"Yettel","opening_hours":"Mo-Fr 09:00-19:00","brand":"Yettel","brand:wikidata":"Q14915070"},"coordinates":[43.219601,27.9142]},"tags_mismatch":false,"dist":0},{"osm":false,"atp":{"id":"0dMHHHW1gMTdhOY5-EfPslUz3sA=","tags":{"shop":"telecommunication","addr:street_address":"жк Меден рудник, ул. Въстаническа 302","addr:city":"Бургас","addr:country":"BG","name":"Yettel","opening_hours":"Mo-Fr 09:00-19:00; Sa 10:00-17:00","brand":"Yettel","brand:wikidata":"Q14915070"},"coordinates":[42.452801,27.419701]},"tags_mismatch":false,"dist":0},{"osm":false,"atp":{"id":"Ah8ai_bZZaPMREXB6TggvebEEHg=","tags":{"shop":"telecommunication","addr:street_address":"жк Младост 3, ул. Бъднина, бл 301","addr:city":"София","addr:country":"BG","name":"Yettel","opening_hours":"Mo-Fr 09:00-19:30; Sa 10:00-18:00","brand":"Yettel","brand:wikidata":"Q14915070"},"coordinates":[42.64479,23.37868]},"tags_mismatch":false,"dist":0},{"osm":false,"atp":{"id":"f9ID-UHKPKv3JPF7v3e6xGe9V3c=","tags":{"shop":"telecommunication","addr:street_address":"ул. Цар Симеон 18","addr:city":"Своге","addr:country":"BG","name":"Yettel","opening_hours":"Mo-Fr 09:00-18:00","brand":"Yettel","brand:wikidata":"Q14915070"},"coordinates":[42.96086,23.34496]},"tags_mismatch":false,"dist":0},{"osm":false,"atp":{"id":"C1pG-czxlrhrP7w8yGEaGc-A9JI=","tags":{"shop":"telecommunication","addr:street_address":"бул. Съединение 169","addr:city":"Девня","addr:country":"BG","name":"Yettel","opening_hours":"Mo-Fr 09:00-18:00","brand":"Yettel","brand:wikidata":"Q14915070"},"coordinates":[43.2196128,27.5557]},"tags_mismatch":false,"dist":0},{"osm":false,"atp":{"id":"ASf3gdjmjAmGkSoNQgalDXeD5Vo=","tags":{"shop":"telecommunication","addr:street_address":"ул. Иван Вазов 48, бл. 29","addr:city":"Сопот","addr:country":"BG","name":"Yettel","opening_hours":"Mo-Fr 09:00-18:30","brand":"Yettel","brand:wikidata":"Q14915070"},"coordinates":[42.653702,24.754999]},"tags_mismatch":false,"dist":0},{"osm":false,"atp":{"id":"rD7hO_wwRA1BZblemx4-f_E_V1E=","tags":{"shop":"telecommunication","addr:street_address":"ул. Цар Освободител 110","addr:city":"Ихтиман","addr:country":"BG","name":"Yettel","opening_hours":"Mo-Fr 09:00-18:00","brand":"Yettel","brand:wikidata":"Q14915070"},"coordinates":[42.43706,23.81655]},"tags_mismatch":false,"dist":0},{"osm":false,"atp":{"id":"YnE-xP8jCz2ZzySdKZuprn-S78k=","tags":{"shop":"telecommunication","addr:street_address":"ул. Иван Вазаов 37","addr:city":"Тетевен","addr:country":"BG","name":"Yettel","opening_hours":"Mo-Fr 09:00-18:00","brand":"Yettel","brand:wikidata":"Q14915070"},"coordinates":[42.91817,24.26362]},"tags_mismatch":false,"dist":0},{"osm":false,"atp":{"id":"qZj55UKdBnlq0sTZQYrpQ_9gmK4=","tags":{"shop":"telecommunication","addr:street_address":"ул. Хан Аспарух 43","addr:city":"Царево","addr:country":"BG","name":"Yettel","opening_hours":"Mo-Fr 09:00-18:00","brand":"Yettel","brand:wikidata":"Q14915070"},"coordinates":[42.169498,27.846901]},"tags_mismatch":false,"dist":0},{"osm":false,"atp":{"id":"MRxMtzyAnbKNBmqi5zGUeUkxV6E=","tags":{"shop":"telecommunication","addr:street_address":"ул. Търговска 33","addr:city":"Перник","addr:country":"BG","name":"Yettel","opening_hours":"Mo-Fr 09:00-19:00","brand":"Yettel","brand:wikidata":"Q14915070"},"coordinates":[42.603001,23.0303]},"tags_mismatch":false,"dist":0},{"osm":false,"atp":{"id":"y9Bk3NxJUwLX-fmg3Wtykho3NA8=","tags":{"shop":"telecommunication","addr:street_address":"ул. Др. Константин Стоилов 30","addr:city":"Сливен","addr:country":"BG","name":"Yettel","opening_hours":"Mo-Fr 09:00-19:00","brand":"Yettel","brand:wikidata":"Q14915070"},"coordinates":[42.678902,26.322599]},"tags_mismatch":false,"dist":0},{"osm":false,"atp":{"id":"RB19Xm4_3-hrBBO2KHBgAhy2eoc=","tags":{"shop":"telecommunication","addr:street_address":"ул. Трети Март 27","addr:city":"Асеновград","addr:country":"BG","name":"Yettel","opening_hours":"Mo-Fr 09:00-19:00","brand":"Yettel","brand:wikidata":"Q14915070"},"coordinates":[42.00573,24.8743]},"tags_mismatch":false,"dist":0},{"osm":false,"atp":{"id":"w_KXtkQgAO0G9l2WPF1gpzRCfjw=","tags":{"shop":"telecommunication","addr:street_address":"бул. България 21","addr:city":"Разград","addr:country":"BG","name":"Yettel","opening_hours":"Mo-Fr 09:00-19:00","brand":"Yettel","brand:wikidata":"Q14915070"},"coordinates":[43.52516,26.52196]},"tags_mismatch":false,"dist":0},{"osm":false,"atp":{"id":"AuJi5FSe0PBtG7pS7OE3pNVFB5U=","tags":{"shop":"telecommunication","addr:street_address":"ул. Цар Симеон Велики 55","addr:city":"Видин","addr:country":"BG","name":"Yettel","opening_hours":"Mo-Fr 09:00-19:00","brand":"Yettel","brand:wikidata":"Q14915070"},"coordinates":[43.9902,22.873899]},"tags_mismatch":false,"dist":0},{"osm":false,"atp":{"id":"J7iZQu1Q_ftFyMAZPLDLWUaZjpg=","tags":{"shop":"telecommunication","addr:street_address":"ул. Иван Вазов 61","addr:city":"Пловдив","addr:country":"BG","name":"Yettel","opening_hours":"Mo-Fr 09:00-18:30","brand":"Yettel","brand:wikidata":"Q14915070"},"coordinates":[42.13616,24.74219]},"tags_mismatch":false,"dist":0},{"osm":false,"atp":{"id":"2I2DCVMPMmlLTU6i4TMcM4HQUao=","tags":{"shop":"telecommunication","addr:street_address":"ул. Търговска 8","addr:city":"Ямбол","addr:country":"BG","name":"Yettel","opening_hours":"Mo-Fr 09:00-19:00","brand":"Yettel","brand:wikidata":"Q14915070"},"coordinates":[42.48288,26.50812]},"tags_mismatch":false,"dist":0},{"osm":false,"atp":{"id":"uXoui0BRH1RA3zCofaxn9qqleBI=","tags":{"shop":"telecommunication","addr:street_address":"ул. Николаевска 21А","addr:city":"Дупница","addr:country":"BG","name":"Yettel","opening_hours":"Mo-Fr 09:00-19:00","brand":"Yettel","brand:wikidata":"Q14915070"},"coordinates":[42.266,23.12082]},"tags_mismatch":false,"dist":0},{"osm":false,"atp":{"id":"x84UnOEgU6IpaVAepaRRvr4Hiy0=","tags":{"shop":"telecommunication","addr:street_address":"ул. Асен Златарев 1","addr:city":"Пазарджик","addr:country":"BG","name":"Yettel","opening_hours":"Mo-Fr 09:00-19:00","brand":"Yettel","brand:wikidata":"Q14915070"},"coordinates":[42.191399,24.332399]},"tags_mismatch":false,"dist":0},{"osm":false,"atp":{"id":"hAYbwoUyndofYyI-v0LltC-khEo=","tags":{"shop":"telecommunication","addr:street_address":"бул. България 111, магазин 2","addr:city":"Свиленград","addr:country":"BG","name":"Yettel","opening_hours":"Mo-Fr 09:00-18:00","brand":"Yettel","brand:wikidata":"Q14915070"},"coordinates":[41.76609,26.20045]},"tags_mismatch":false,"dist":0},{"osm":false,"atp":{"id":"ZfU8fXqhfT_u1PfccGvUj0098Ns=","tags":{"shop":"telecommunication","addr:street_address":"City Centre Sofia, бул. Арсеналски 2","addr:city":"София","addr:country":"BG","name":"Yettel","opening_hours":"Mo-Su 10:00-22:00","brand":"Yettel","brand:wikidata":"Q14915070"},"coordinates":[42.679154,23.320198]},"tags_mismatch":false,"dist":0},{"osm":false,"atp":{"id":"ANp_-uSAvQ6z8K2BbSU9XzXqa7c=","tags":{"shop":"telecommunication","addr:street_address":"Mall of Sofia, бул. Ал. Стамболийски 101","addr:city":"София","addr:country":"BG","name":"Yettel","opening_hours":"Mo-Su 10:00-21:00","brand":"Yettel","brand:wikidata":"Q14915070"},"coordinates":[42.69792,23.30885]},"tags_mismatch":false,"dist":0},{"osm":false,"atp":{"id":"Iy6AscPIssygLAzPQBOGex9yldo=","tags":{"shop":"telecommunication","addr:street_address":"Sky City Mall, ж.к. Слатина, ул. Коста Лулчев 52","addr:city":"София","addr:country":"BG","name":"Yettel","opening_hours":"Mo-Su 10:00-21:00","brand":"Yettel","brand:wikidata":"Q14915070"},"coordinates":[42.68011,23.36716]},"tags_mismatch":false,"dist":0},{"osm":false,"atp":{"id":"Ug8YtJL5yYoQLv3AEhLxo08SinY=","tags":{"shop":"telecommunication","addr:street_address":"Търговки център Grand, ул. Капитан Райчо и ул. Петко Д. Петков","addr:city":"Пловдив","addr:country":"BG","name":"Yettel","opening_hours":"Mo-Fr 10:00-19:30","brand":"Yettel","brand:wikidata":"Q14915070"},"coordinates":[42.14174,24.75637]},"tags_mismatch":false,"dist":0},{"osm":false,"atp":{"id":"pVObpF4mbPkbCpZIb37p82nEk3s=","tags":{"shop":"telecommunication","addr:street_address":"кв. Изток, ул. Минск 15","addr:city":"Перник","addr:country":"BG","name":"Yettel","opening_hours":"Mo-Fr 09:00-19:00; Sa 10:00-18:00","brand":"Yettel","brand:wikidata":"Q14915070"},"coordinates":[42.60845,23.09879]},"tags_mismatch":false,"dist":0},{"osm":false,"atp":{"id":"pqDs9ie6_ZscnNvCde_YVwIzLzo=","tags":{"shop":"telecommunication","addr:street_address":"ж.к. Овча Купел1, бул. Монтевидео до бл. 419","addr:city":"София","addr:country":"BG","name":"Yettel","opening_hours":"Mo-Fr 09:00-20:00","brand":"Yettel","brand:wikidata":"Q14915070"},"coordinates":[42.688218,23.2548]},"tags_mismatch":false,"dist":0},{"osm":false,"atp":{"id":"DGqTfTEFr6SLSkpo6tHrg4QTG0I=","tags":{"shop":"telecommunication","addr:street_address":"Mall Varna, бул. Владислав Варненчик 186","addr:city":"Варна","addr:country":"BG","name":"Yettel","opening_hours":"Mo-Su 10:00-20:00","brand":"Yettel","brand:wikidata":"Q14915070"},"coordinates":[43.2202,27.8892]},"tags_mismatch":false,"dist":0},{"osm":false,"atp":{"id":"0-Ddw2T-C-N1hXdQhtKw09iMCvk=","tags":{"shop":"telecommunication","addr:street_address":"бул. Вардар и бул. Възкресение, магазин 3","addr:city":"София","addr:country":"BG","name":"Yettel","opening_hours":"Mo-Fr 09:00-19:30; Sa 10:00-18:00","brand":"Yettel","brand:wikidata":"Q14915070"},"coordinates":[42.692799,23.2864]},"tags_mismatch":false,"dist":0},{"osm":false,"atp":{"id":"encEnvxfM_povKvkQoRl-Xx_jkQ=","tags":{"shop":"telecommunication","addr:street_address":"Mall Vidin, бул. Цар Симеон Велики 20А","addr:city":"Видин","addr:country":"BG","name":"Yettel","opening_hours":"Mo-Fr 09:00-19:00","brand":"Yettel","brand:wikidata":"Q14915070"},"coordinates":[43.98698,22.87496]},"tags_mismatch":false,"dist":0},{"osm":false,"atp":{"id":"03qcipStSC9_z7pWc18fSZ6OMLc=","tags":{"shop":"telecommunication","addr:street_address":"район Сердика, ул. Христо Станишев 1","addr:city":"София","addr:country":"BG","name":"Yettel","opening_hours":"Mo-Fr 09:00-19:30","brand":"Yettel","brand:wikidata":"Q14915070"},"coordinates":[42.7163895,23.3408806]},"tags_mismatch":false,"dist":0},{"osm":false,"atp":{"id":"UxqONAacMiKldCIFb6B0kntLoTQ=","tags":{"shop":"telecommunication","addr:street_address":"ул. Никола Войводов 8","addr:city":"Враца","addr:country":"BG","name":"Yettel","opening_hours":"Mo-Fr 09:00-19:00","brand":"Yettel","brand:wikidata":"Q14915070"},"coordinates":[43.204899,23.5513]},"tags_mismatch":false,"dist":0},{"osm":false,"atp":{"id":"JVVCKLezMUrjMurKoP5D6RqCcXU=","tags":{"shop":"telecommunication","addr:street_address":"Mall Plovdiv, ул. Перущица 8","addr:city":"Пловдив","addr:country":"BG","name":"Yettel","opening_hours":"Mo-Su 10:00-21:00","brand":"Yettel","brand:wikidata":"Q14915070"},"coordinates":[42.14128,24.71967]},"tags_mismatch":false,"dist":0},{"osm":false,"atp":{"id":"EEWnIK2np0I47t0iHiUmuKyO7w8=","tags":{"shop":"telecommunication","addr:street_address":"Mall Бургас Плаза, ул. Транспортна","addr:city":"Бургас","addr:country":"BG","name":"Yettel","opening_hours":"Mo-Su 10:00-20:00","brand":"Yettel","brand:wikidata":"Q14915070"},"coordinates":[42.530701,27.4573]},"tags_mismatch":false,"dist":0},{"osm":false,"atp":{"id":"pESwkCB28Gg0z8qVjiKShWWbR3Y=","tags":{"shop":"telecommunication","addr:street_address":"Grand Mall Varna, ж.к. Младост, ул. Андрей Сахаров 2","addr:city":"Варна","addr:country":"BG","name":"Yettel","opening_hours":"Mo-Su 10:00-21:00","brand":"Yettel","brand:wikidata":"Q14915070"},"coordinates":[43.21714,27.89695]},"tags_mismatch":false,"dist":0},{"osm":false,"atp":{"id":"H4PHbgBarTEGkNyQgzIVYmMPkec=","tags":{"shop":"telecommunication","addr:street_address":"бул.Руски 54, Мол Марково Тепе","addr:city":"Пловдив","addr:country":"BG","name":"Yettel","opening_hours":"Mo-Su 10:00-21:00","brand":"Yettel","brand:wikidata":"Q14915070"},"coordinates":[42.14135,24.74149]},"tags_mismatch":false,"dist":0},{"osm":false,"atp":{"id":"KldFY76oVgBJQXyeBE0p35urkGs=","tags":{"shop":"telecommunication","addr:street_address":"кв. Кючук Париж, ул. Македония 43","addr:city":"Пловдив","addr:country":"BG","name":"Yettel","opening_hours":"Mo-Fr 09:00-19:00","brand":"Yettel","brand:wikidata":"Q14915070"},"coordinates":[42.13018,24.74408]},"tags_mismatch":false,"dist":0},{"osm":false,"atp":{"id":"P4M7_aCYcaVFK6YZbnAh73VElVU=","tags":{"shop":"telecommunication","addr:street_address":"ул. Христо Ботев 2","addr:city":"Велики Преслав","addr:country":"BG","name":"Yettel","opening_hours":"Mo-Fr 09:00-18:30","brand":"Yettel","brand:wikidata":"Q14915070"},"coordinates":[43.161301,26.814301]},"tags_mismatch":false,"dist":0},{"osm":false,"atp":{"id":"FDVzrjdJ14ytDfCL6B4MPZ_8Wn0=","tags":{"shop":"telecommunication","addr:street_address":"ул. Ангел Кънчев 13","addr:city":"Трявна","addr:country":"BG","name":"Yettel","opening_hours":"Mo-Fr 09:00-18:30","brand":"Yettel","brand:wikidata":"Q14915070"},"coordinates":[42.86654467836117,25.491270055573196]},"tags_mismatch":false,"dist":0},{"osm":false,"atp":{"id":"8liURXl205rfdZgoqX7dwuz0Ppc=","tags":{"shop":"telecommunication","addr:street_address":"бул. Симеон Велики 46 В","addr:city":"Шумен","addr:country":"BG","name":"Yettel","opening_hours":"Mo-Fr 09:00-19:00","brand":"Yettel","brand:wikidata":"Q14915070"},"coordinates":[43.273701,26.927999]},"tags_mismatch":false,"dist":0},{"osm":false,"atp":{"id":"br69taC_wgZ0n0pYOxuIcBn9pHw=","tags":{"shop":"telecommunication","addr:street_address":"пл. Македония 22","addr:city":"Сандански","addr:country":"BG","name":"Yettel","opening_hours":"Mo-Fr 09:00-19:00","brand":"Yettel","brand:wikidata":"Q14915070"},"coordinates":[41.56281,23.27872]},"tags_mismatch":false,"dist":0},{"osm":false,"atp":{"id":"QLsGAXbRBExn3pZHuIoChcpbpLw=","tags":{"shop":"telecommunication","addr:street_address":"ул. Любен Каравелов 5","addr:city":"Кюстендил","addr:country":"BG","name":"Yettel","opening_hours":"Mo-Fr 09:00-19:00","brand":"Yettel","brand:wikidata":"Q14915070"},"coordinates":[42.27995,22.692]},"tags_mismatch":false,"dist":0},{"osm":false,"atp":{"id":"TyOifWY6fk1MyV7UHw2RP01_CkQ=","tags":{"shop":"telecommunication","addr:street_address":"бул. Велики Преслав 6","addr:city":"Шумен","addr:country":"BG","name":"Yettel","opening_hours":"Mo-Fr 09:00-19:00","brand":"Yettel","brand:wikidata":"Q14915070"},"coordinates":[43.270103,26.93621]},"tags_mismatch":false,"dist":0},{"osm":false,"atp":{"id":"54iJ2iOWiqviE-Oe5Dj0aMO8z78=","tags":{"shop":"telecommunication","addr:street_address":"ул. Марица 4","addr:city":"Асеновград","addr:country":"BG","name":"Yettel","opening_hours":"Mo-Fr 09:00-19:00; Sa 10:00-17:00","brand":"Yettel","brand:wikidata":"Q14915070"},"coordinates":[42.008598,24.871901]},"tags_mismatch":false,"dist":0},{"osm":false,"atp":{"id":"dj-UeEwZmlbyIJryd_w1GwJo4vQ=","tags":{"shop":"telecommunication","addr:street_address":"ул. Кирил и Методий 1","addr:city":"Козлодуй","addr:country":"BG","name":"Yettel","opening_hours":"Mo-Fr 09:00-18:30","brand":"Yettel","brand:wikidata":"Q14915070"},"coordinates":[43.77611,23.72904]},"tags_mismatch":false,"dist":0},{"osm":false,"atp":{"id":"gm1nVE5pcNZwedoht3uIkknJlNg=","tags":{"shop":"telecommunication","addr:street_address":"ул. Славянска 3","addr:city":"Лом","addr:country":"BG","name":"Yettel","opening_hours":"Mo-Fr 09:00-18:30","brand":"Yettel","brand:wikidata":"Q14915070"},"coordinates":[43.82452,23.23759]},"tags_mismatch":false,"dist":0},{"osm":false,"atp":{"id":"xfjdyXoIB05vdRId6AraZ2zbyAU=","tags":{"shop":"telecommunication","addr:street_address":"ул. Цар Освободител 13","addr:city":"Айтос","addr:country":"BG","name":"Yettel","opening_hours":"Mo-Fr 09:00-19:00","brand":"Yettel","brand:wikidata":"Q14915070"},"coordinates":[42.703062,27.25438]},"tags_mismatch":false,"dist":0},{"osm":false,"atp":{"id":"q3AJH7-7Tx2q8bbTnHRi0dQaUbQ=","tags":{"shop":"telecommunication","addr:street_address":"бул. България 5","addr:city":"Пазарджик","addr:country":"BG","name":"Yettel","opening_hours":"Mo-Fr 09:00-19:00","brand":"Yettel","brand:wikidata":"Q14915070"},"coordinates":[42.18867,24.33158]},"tags_mismatch":false,"dist":0},{"osm":false,"atp":{"id":"z_abbFzy3abBRGxdmunEApET1cw=","tags":{"shop":"telecommunication","addr:street_address":"ул. Васил Левски 74","addr:city":"Троян","addr:country":"BG","name":"Yettel","opening_hours":"Mo-Fr 09:00-18:00","brand":"Yettel","brand:wikidata":"Q14915070"},"coordinates":[42.887199,24.710899]},"tags_mismatch":false,"dist":0},{"osm":false,"atp":{"id":"HWyHDiHgydmRsVW28AGZh4uUxJg=","tags":{"shop":"telecommunication","addr:street_address":"ул. Отец Паисий 1","addr:city":"Силистра","addr:country":"BG","name":"Yettel","opening_hours":"Mo-Fr 09:00-19:00","brand":"Yettel","brand:wikidata":"Q14915070"},"coordinates":[44.11686,27.26072]},"tags_mismatch":false,"dist":0},{"osm":false,"atp":{"id":"OFk_NYGRqJMdpe0fxIa9lgxswC8=","tags":{"shop":"telecommunication","addr:street_address":"ул. Георги Димитров 22","addr:city":"Чирпан","addr:country":"BG","name":"Yettel","opening_hours":"Mo-Fr 09:00-19:00","brand":"Yettel","brand:wikidata":"Q14915070"},"coordinates":[42.198502,25.325199]},"tags_mismatch":false,"dist":0},{"osm":false,"atp":{"id":"vW8RzIP1Rx5cJqAhLzlhP4XLuUc=","tags":{"shop":"telecommunication","addr:street_address":"бул. Сливница 185","addr:city":"Варна","addr:country":"BG","name":"Yettel","opening_hours":"Mo-Su 10:00-21:00","brand":"Yettel","brand:wikidata":"Q14915070"},"coordinates":[43.227725454838,27.874674797058]},"tags_mismatch":false,"dist":0},{"osm":false,"atp":{"id":"EvV_sK4b9YpIXTzttye1Kz44dls=","tags":{"shop":"telecommunication","addr:street_address":"ул. „Граф Игнатиев“ № 4, ет.1.","addr:city":"Монтана","addr:country":"BG","name":"Yettel","opening_hours":"Mo-Fr 09:00-19:00","brand":"Yettel","brand:wikidata":"Q14915070"},"coordinates":[43.406358,23.225759]},"tags_mismatch":false,"dist":0},{"osm":false,"atp":{"id":"_7weWuUDqjKFKCi__Df-JW9kUb4=","tags":{"shop":"telecommunication","addr:street_address":"бул. Димитър Благоев 9, вх.В, ет.1","addr:city":"Димитровград","addr:country":"BG","name":"Yettel","opening_hours":"Mo-Fr 09:00-18:00","brand":"Yettel","brand:wikidata":"Q14915070"},"coordinates":[42.05561,25.59224]},"tags_mismatch":false,"dist":0},{"osm":false,"atp":{"id":"qiztqNGL7kuTwCZvaUqsUKPZIlk=","tags":{"shop":"telecommunication","addr:street_address":"бул. България 10","addr:city":"Харманли","addr:country":"BG","name":"Yettel","opening_hours":"Mo-Fr 09:00-19:00","brand":"Yettel","brand:wikidata":"Q14915070"},"coordinates":[41.929846,25.90385]},"tags_mismatch":false,"dist":0},{"osm":false,"atp":{"id":"HXCG2DwqZV4KPpNavmjJF8rqmNs=","tags":{"shop":"telecommunication","addr:street_address":"бул. Липник 8","addr:city":"Русе","addr:country":"BG","name":"Yettel","opening_hours":"Mo-Sa 08:00-21:00; Su 09:00-21:00","brand":"Yettel","brand:wikidata":"Q14915070"},"coordinates":[43.845814,25.965881]},"tags_mismatch":false,"dist":0},{"osm":false,"atp":{"id":"-YTjUiK-lhl1jjPzdggeMQ6RNeU=","tags":{"shop":"telecommunication","addr:street_address":"ул. Македония 97Б","addr:city":"Пловдив","addr:country":"BG","name":"Yettel","opening_hours":"Mo-Sa 08:00-21:00; Su 09:00-21:00","brand":"Yettel","brand:wikidata":"Q14915070"},"coordinates":[42.122947,24.741208]},"tags_mismatch":false,"dist":0},{"osm":false,"atp":{"id":"M1VXY2r42qlRt0ACg-xWPa5Gdks=","tags":{"shop":"telecommunication","addr:street_address":"акад. Дмитрий Лихачов“ 58, търг. център \"Сантара\"","addr:city":"София","addr:country":"BG","name":"Yettel","opening_hours":"Mo-Fr 09:00-19:30","brand":"Yettel","brand:wikidata":"Q14915070"},"coordinates":[42.74162,23.27729]},"tags_mismatch":false,"dist":0},{"osm":false,"atp":{"id":"TPOFObXmGzAcFHsfK1Vz_EDv4yI=","tags":{"shop":"telecommunication","addr:street_address":"бул. Руски 1","addr:city":"Павликени","addr:country":"BG","name":"Yettel","opening_hours":"Mo-Fr 09:00-18:00","brand":"Yettel","brand:wikidata":"Q14915070"},"coordinates":[43.23738,25.30804]},"tags_mismatch":false,"dist":0},{"osm":false,"atp":{"id":"p3XlfCQyOFKiEUcQzyAwm1CPQwY=","tags":{"shop":"telecommunication","addr:street_address":"ул. Стефан Караджа 4","addr:city":"Червен бряг","addr:country":"BG","name":"Yettel","opening_hours":"Mo-Fr 09:00-18:00","brand":"Yettel","brand:wikidata":"Q14915070"},"coordinates":[43.2814,24.08077]},"tags_mismatch":false,"dist":0},{"osm":false,"atp":{"id":"jYetkfpDPmyQcQj4ttI1j2-k_8c=","tags":{"shop":"telecommunication","addr:street_address":"ул, Белмекен 4","addr:city":"Костенец","addr:country":"BG","name":"Yettel","opening_hours":"Mo-Fr 09:00-19:00","brand":"Yettel","brand:wikidata":"Q14915070"},"coordinates":[42.30721,23.85766]},"tags_mismatch":false,"dist":0},{"osm":false,"atp":{"id":"JstXAkxZUVy7gpOdKreIduF2Dj0=","tags":{"shop":"telecommunication","addr:street_address":"ул. „Св.Св. Кирил и Методий“ № 53, ет1","addr:city":"Варна","addr:country":"BG","name":"Yettel","opening_hours":"Mo-Fr 09:00-19:00","brand":"Yettel","brand:wikidata":"Q14915070"},"coordinates":[43.179371,27.896994]},"tags_mismatch":false,"dist":0},{"osm":false,"atp":{"id":"Bu0KfbI_31LAVAtiMuH7K1Woh7Y=","tags":{"shop":"telecommunication","addr:street_address":"ул. Димитър Грънчаров 14","addr:city":"Провадия","addr:country":"BG","name":"Yettel","opening_hours":"Mo-Fr 09:00-18:30","brand":"Yettel","brand:wikidata":"Q14915070"},"coordinates":[43.18014,27.4439]},"tags_mismatch":false,"dist":0},{"osm":false,"atp":{"id":"D22oe36Q4t5jeMYJNOeN4G6mPRk=","tags":{"shop":"telecommunication","addr:street_address":"ул. Хан Аспарух 37, блок Боряна","addr:city":"Тервел","addr:country":"BG","name":"Yettel","opening_hours":"Mo-Fr 09:00-18:00","brand":"Yettel","brand:wikidata":"Q14915070"},"coordinates":[43.7487,27.40812]},"tags_mismatch":false,"dist":0},{"osm":false,"atp":{"id":"jBeR6l2xD6E0hUVyB7YZiSXzzsU=","tags":{"shop":"telecommunication","addr:street_address":"бул. Съединение 206","addr:city":"Велинград","addr:country":"BG","name":"Yettel","opening_hours":"Mo-Fr 09:00-19:00","brand":"Yettel","brand:wikidata":"Q14915070"},"coordinates":[42.025351,23.991336]},"tags_mismatch":false,"dist":0},{"osm":false,"atp":{"id":"Uzra25GQpVduPWHjorTMFrtUqds=","tags":{"shop":"telecommunication","addr:street_address":"ул. Княз Борис I 60","addr:city":"Поморие","addr:country":"BG","name":"Yettel","opening_hours":"Mo-Fr 09:00-18:00","brand":"Yettel","brand:wikidata":"Q14915070"},"coordinates":[42.557098,27.6399]},"tags_mismatch":false,"dist":0},{"osm":false,"atp":{"id":"zzmOt9YZTDpNq7x7E_VyV2fq8b0=","tags":{"shop":"telecommunication","addr:street_address":"ул. Цар Симеон 43","addr:city":"Банско","addr:country":"BG","name":"Yettel","opening_hours":"Mo-Fr 09:00-18:30","brand":"Yettel","brand:wikidata":"Q14915070"},"coordinates":[41.83958,23.48723]},"tags_mismatch":false,"dist":0},{"osm":false,"atp":{"id":"UjC3Qm8-k2HVf5uYkfJR6oyzemI=","tags":{"shop":"telecommunication","addr:street_address":"ул. Пауталия 20","addr:city":"Кюстендил","addr:country":"BG","name":"Yettel","opening_hours":"Mo-Fr 09:00-19:00","brand":"Yettel","brand:wikidata":"Q14915070"},"coordinates":[42.28045,22.69008]},"tags_mismatch":false,"dist":0},{"osm":false,"atp":{"id":"ImySUh3lDN8sxnJX0jDPXaYMkq4=","tags":{"shop":"telecommunication","addr:street_address":"ул. Гео Милев 1","addr:city":"Тутракан","addr:country":"BG","name":"Yettel","opening_hours":"Mo-Fr 09:00-18:00","brand":"Yettel","brand:wikidata":"Q14915070"},"coordinates":[44.0463,26.61658]},"tags_mismatch":false,"dist":0},{"osm":false,"atp":{"id":"0AlKrBe6fHSNQc1KLuB_hqM-CC0=","tags":{"shop":"telecommunication","addr:street_address":"пл. Свобода 5","addr:city":"Севлиево","addr:country":"BG","name":"Yettel","opening_hours":"Mo-Fr 09:00-18:00","brand":"Yettel","brand:wikidata":"Q14915070"},"coordinates":[43.0266,25.103399]},"tags_mismatch":false,"dist":0},{"osm":false,"atp":{"id":"MmcqpIT1_PnfeQeH52zTsg7jLY4=","tags":{"shop":"telecommunication","addr:street_address":"ул. Хаджи Димитър 6","addr:city":"Бяла","addr:country":"BG","name":"Yettel","opening_hours":"Mo-Fr 09:00-18:00","brand":"Yettel","brand:wikidata":"Q14915070"},"coordinates":[43.45868,25.7393]},"tags_mismatch":false,"dist":0},{"osm":false,"atp":{"id":"ePqGqwBx2GMadPqFgbNG1dOU7Aw=","tags":{"shop":"telecommunication","addr:street_address":"бул. Република, бл. 4","addr:city":"Гълъбово","addr:country":"BG","name":"Yettel","opening_hours":"Mo-Fr 09:00-19:00","brand":"Yettel","brand:wikidata":"Q14915070"},"coordinates":[42.13875,25.86653]},"tags_mismatch":false,"dist":0},{"osm":false,"atp":{"id":"T4YxkmyMUF3xJugC6DVFkWMhFnk=","tags":{"shop":"telecommunication","addr:street_address":"ул. Георги Димитров 9","addr:city":"Раднево","addr:country":"BG","name":"Yettel","opening_hours":"Mo-Fr 09:00-19:00","brand":"Yettel","brand:wikidata":"Q14915070"},"coordinates":[42.289993,25.933971]},"tags_mismatch":false,"dist":0},{"osm":false,"atp":{"id":"r8az34a2iNNeE8wp4vbtkQLnRII=","tags":{"shop":"telecommunication","addr:street_address":"ул. Княз Борис I 16","addr:city":"Първомай","addr:country":"BG","name":"Yettel","opening_hours":"Mo-Fr 09:00-19:00","brand":"Yettel","brand:wikidata":"Q14915070"},"coordinates":[42.099249,25.224854]},"tags_mismatch":false,"dist":0},{"osm":false,"atp":{"id":"3FcuKamdPAIa2BOoJmm3VfECwUM=","tags":{"shop":"telecommunication","addr:street_address":"ул. Княз Борис I 1","addr:city":"Горна Оряховица","addr:country":"BG","name":"Yettel","opening_hours":"Mo-Fr 09:00-18:30","brand":"Yettel","brand:wikidata":"Q14915070"},"coordinates":[43.1225,25.69191]},"tags_mismatch":false,"dist":0},{"osm":false,"atp":{"id":"P2fn-7C3d6Va15NRz0YZe9ZYGDk=","tags":{"shop":"telecommunication","addr:street_address":"ул. Цар Борис III 20","addr:city":"Петрич","addr:country":"BG","name":"Yettel","opening_hours":"Mo-Fr 09:00-18:30","brand":"Yettel","brand:wikidata":"Q14915070"},"coordinates":[41.39471,23.20751]},"tags_mismatch":false,"dist":0},{"osm":false,"atp":{"id":"_CEr0rAAl0rueUFpEidV2eyZU3A=","tags":{"shop":"telecommunication","addr:street_address":"ул. Шейново 6 (Бизнес център - партер)","addr:city":"Разлог","addr:country":"BG","name":"Yettel","opening_hours":"Mo-Fr 09:00-18:30","brand":"Yettel","brand:wikidata":"Q14915070"},"coordinates":[41.88514,23.4669]},"tags_mismatch":false,"dist":0},{"osm":false,"atp":{"id":"z2sJiJenFxA5sVxr-b4TunYnTqM=","tags":{"shop":"telecommunication","addr:street_address":"бул. Търговски 1","addr:city":"Стамболийски","addr:country":"BG","name":"Yettel","opening_hours":"Mo-Fr 09:00-18:30","brand":"Yettel","brand:wikidata":"Q14915070"},"coordinates":[42.1325,24.53537]},"tags_mismatch":false,"dist":0},{"osm":false,"atp":{"id":"jy4Qw_up80h7rY6i0e7WejDhF5w=","tags":{"shop":"telecommunication","addr:street_address":"ул. Ген. Карцов 11","addr:city":"Карлово","addr:country":"BG","name":"Yettel","opening_hours":"Mo-Fr 09:00-19:00","brand":"Yettel","brand:wikidata":"Q14915070"},"coordinates":[42.64184,24.80864]},"tags_mismatch":false,"dist":0},{"osm":false,"atp":{"id":"kwOzFjxiNM2yMzJiXdD6sFpxQD4=","tags":{"shop":"telecommunication","addr:street_address":"ул. Александър Стамболийски 32","addr:city":"Левски","addr:country":"BG","name":"Yettel","opening_hours":"Mo-Fr 09:00-18:00","brand":"Yettel","brand:wikidata":"Q14915070"},"coordinates":[43.36025,25.14265]},"tags_mismatch":false,"dist":0},{"osm":false,"atp":{"id":"MYK9QS30mKAJlcw4xkg2gYzYcsc=","tags":{"shop":"telecommunication","addr:street_address":"ул. Македония 1","addr:city":"Симитли","addr:country":"BG","name":"Yettel","opening_hours":"Mo-Fr 09:00-18:00","brand":"Yettel","brand:wikidata":"Q14915070"},"coordinates":[41.89208,23.11217]},"tags_mismatch":false,"dist":0},{"osm":false,"atp":{"id":"ayZ6pW9RrP9xi6d8H59c20hfUMg=","tags":{"shop":"telecommunication","addr:street_address":"бул. България 78","addr:city":"Попово","addr:country":"BG","name":"Yettel","opening_hours":"Mo-Fr 09:00-18:30","brand":"Yettel","brand:wikidata":"Q14915070"},"coordinates":[43.34893,26.2249]},"tags_mismatch":false,"dist":0},{"osm":false,"atp":{"id":"s4VK1Fucm3yOgSOtgAnYcsliMfg=","tags":{"shop":"telecommunication","addr:street_address":"ул. България 59","addr:city":"Каварна","addr:country":"BG","name":"Yettel","opening_hours":"Mo-Fr 09:00-18:00","brand":"Yettel","brand:wikidata":"Q14915070"},"coordinates":[43.43551,28.33801]},"tags_mismatch":false,"dist":0},{"osm":false,"atp":{"id":"Cr4eVGUfm-M4xteIXj2HkB2TUMg=","tags":{"shop":"telecommunication","addr:street_address":"ул. Черно море 32 А","addr:city":"Балчик","addr:country":"BG","name":"Yettel","opening_hours":"Mo-Fr 09:00-18:00","brand":"Yettel","brand:wikidata":"Q14915070"},"coordinates":[43.40944,28.16553]},"tags_mismatch":false,"dist":0},{"osm":false,"atp":{"id":"JQKiRxDXYWFgAkxR9X-v9QQeUOo=","tags":{"shop":"telecommunication","addr:street_address":"ул. Христо Ботев 35","addr:city":"Мездра","addr:country":"BG","name":"Yettel","opening_hours":"Mo-Fr 09:00-18:30","brand":"Yettel","brand:wikidata":"Q14915070"},"coordinates":[43.1423,23.7124]},"tags_mismatch":false,"dist":0},{"osm":false,"atp":{"id":"dCbavaSVA43RASMDFOorp9qmCZo=","tags":{"shop":"telecommunication","addr:street_address":"ул. Тича 6","addr:city":"Долни Чифлик","addr:country":"BG","name":"Yettel","opening_hours":"Mo-Fr 09:00-18:00","brand":"Yettel","brand:wikidata":"Q14915070"},"coordinates":[42.99217,27.71902]},"tags_mismatch":false,"dist":0},{"osm":false,"atp":{"id":"ligGj-kdKlhF2Va6mx-PGMUhvgw=","tags":{"shop":"telecommunication","addr:street_address":"ул. Гюмюрджинска 37","addr:city":"Момчилград","addr:country":"BG","name":"Yettel","opening_hours":"Mo-Fr 09:00-18:30","brand":"Yettel","brand:wikidata":"Q14915070"},"coordinates":[41.528577,25.407732]},"tags_mismatch":false,"dist":0},{"osm":false,"atp":{"id":"a-uXz60aqRWsF8s4ZMoX6c25pMI=","tags":{"shop":"telecommunication","addr:street_address":"пл. България (Търговски център)","addr:city":"Пещера","addr:country":"BG","name":"Yettel","opening_hours":"Mo-Fr 09:00-18:30","brand":"Yettel","brand:wikidata":"Q14915070"},"coordinates":[42.03178,24.30185]},"tags_mismatch":false,"dist":0},{"osm":false,"atp":{"id":"TT4aRKzZHcIM-TPOqwp0GYiz2bA=","tags":{"shop":"telecommunication","addr:street_address":"ул. Търговска 21","addr:city":"Елхово","addr:country":"BG","name":"Yettel","opening_hours":"Mo-Fr 09:00-18:00","brand":"Yettel","brand:wikidata":"Q14915070"},"coordinates":[42.1718,26.56633]},"tags_mismatch":false,"dist":0},{"osm":false,"atp":{"id":"P6xOFXUxa1xTf6cICSUUOtadpHg=","tags":{"shop":"telecommunication","addr:street_address":"ул. Васил Левски 49","addr:city":"Нова Загора","addr:country":"BG","name":"Yettel","opening_hours":"Mo-Fr 09:00-18:30","brand":"Yettel","brand:wikidata":"Q14915070"},"coordinates":[42.493099,26.0128]},"tags_mismatch":false,"dist":0},{"osm":false,"atp":{"id":"S4aVQjFKa2mHmcCcIpf8UMsauW8=","tags":{"shop":"telecommunication","addr:street_address":"кв. Секирово, ул. Петър Богдан 77А","addr:city":"Раковски","addr:country":"BG","name":"Yettel","opening_hours":"Mo-Fr 09:00-19:00","brand":"Yettel","brand:wikidata":"Q14915070"},"coordinates":[42.27167,24.94341]},"tags_mismatch":false,"dist":0},{"osm":false,"atp":{"id":"0osET71FeqGag2p1lALGSjjYvcU=","tags":{"shop":"telecommunication","addr:street_address":"ул. Македония 33","addr:city":"Самоков","addr:country":"BG","name":"Yettel","opening_hours":"Mo-Fr 09:00-19:00","brand":"Yettel","brand:wikidata":"Q14915070"},"coordinates":[42.33717,23.55948]},"tags_mismatch":false,"dist":0},{"osm":false,"atp":{"id":"xbGlVeWsvob_qvOFu02Z03O-pq0=","tags":{"shop":"telecommunication","addr:street_address":"ул. Цар Освободител 51","addr:city":"Пирдоп","addr:country":"BG","name":"Yettel","opening_hours":"Mo-Fr 09:00-18:00","brand":"Yettel","brand:wikidata":"Q14915070"},"coordinates":[42.69991,24.17887]},"tags_mismatch":false,"dist":0},{"osm":false,"atp":{"id":"xewtzXeE4VMnPAUkXGMTny9nyL8=","tags":{"shop":"telecommunication","addr:street_address":"бул. България 1","addr:city":"Карнобат","addr:country":"BG","name":"Yettel","opening_hours":"Mo-Fr 09:00-18:00","brand":"Yettel","brand:wikidata":"Q14915070"},"coordinates":[42.6493,26.9851]},"tags_mismatch":false,"dist":0},{"osm":false,"atp":{"id":"sCpjSe_jooX52u1ibH6zNEXYy_I=","tags":{"shop":"telecommunication","addr:street_address":"ул. Марин Боев 66","addr:city":"Кнежа","addr:country":"BG","name":"Yettel","opening_hours":"Mo-Fr 09:00-18:00","brand":"Yettel","brand:wikidata":"Q14915070"},"coordinates":[43.495515,24.079821]},"tags_mismatch":false,"dist":0},{"osm":false,"atp":{"id":"ydih4pGW-Ec0CysIbp0laxD_o84=","tags":{"shop":"telecommunication","addr:street_address":"ул.Лудогорие 28","addr:city":"Исперих","addr:country":"BG","name":"Yettel","opening_hours":"Mo-Fr 09:00-18:30","brand":"Yettel","brand:wikidata":"Q14915070"},"coordinates":[43.71483,26.82938]},"tags_mismatch":false,"dist":0},{"osm":false,"atp":{"id":"0i3DGeL6GiIqDQyqbEPpOvsKJ1E=","tags":{"shop":"telecommunication","addr:street_address":"ул. Христо Ботев 16","addr:city":"Бяла Слатина","addr:country":"BG","name":"Yettel","opening_hours":"Mo-Fr 09:00-18:30","brand":"Yettel","brand:wikidata":"Q14915070"},"coordinates":[43.469898,23.944201]},"tags_mismatch":false,"dist":0},{"osm":false,"atp":{"id":"uglkGUEdgSzb4Ts3KZdtg3zCUEk=","tags":{"shop":"telecommunication","addr:street_address":"пл. Възраждане 2","addr:city":"Кубрат","addr:country":"BG","name":"Yettel","opening_hours":"Mo-Fr 09:00-18:30","brand":"Yettel","brand:wikidata":"Q14915070"},"coordinates":[43.7966,26.49927]},"tags_mismatch":false,"dist":0},{"osm":false,"atp":{"id":"flA8xmKmsm3HQ8aQ7ntFSsRmdFU=","tags":{"shop":"telecommunication","addr:street_address":"ул. Бяло море 2","addr:city":"Гоце Делчев","addr:country":"BG","name":"Yettel","opening_hours":"Mo-Fr 09:00-19:30","brand":"Yettel","brand:wikidata":"Q14915070"},"coordinates":[41.57138,23.72624]},"tags_mismatch":false,"dist":0},{"osm":false,"atp":{"id":"y8BRoQUibfUrK0Z5HDTVFwJZ-5A=","tags":{"shop":"telecommunication","addr:street_address":"ул. Бяло Море 13","addr:city":"Гоце Делчев","addr:country":"BG","name":"Yettel","opening_hours":"Mo-Fr 09:00-19:30; Sa 10:00-17:00","brand":"Yettel","brand:wikidata":"Q14915070"},"coordinates":[41.5714,23.729]},"tags_mismatch":false,"dist":0}]}