{"metadata":{"type":"brand","wikidata":"Q537781","name":"Billa","compare_keys":["opening_hours","phone","addr:city","addr:postcode"]},"data":[{"osm":{"type":"node","id":1674801924,"tags":{"addr:city":"София","brand":"Billa","brand:wikidata":"Q537781","opening_hours":"Mo-Su 07:30-22:00","phone":"+359 2 906 0070","shop":"supermarket","website":"https://www.billa.bg/"},"wikidata":"Q537781","coordinates":[42.7123008,23.248401]},"atp":{"id":"7SLWF71ynJwD7rLIoSTctwYgkVQ=","tags":{"ref":"38-136","capacity:motorcar":68,"shop":"supermarket","addr:street":"Бул. Панчо Владигеров 15","addr:city":"София","addr:state":"София","addr:postcode":"1000","addr:country":"BG","name":"Billa","phone":"+359 2 906 0070","opening_hours":"Mo-Su 07:30-22:00","brand":"Billa","brand:wikidata":"Q537781"},"coordinates":[42.71202,23.24865]},"dist":37.266,"tags_mismatch":true},{"osm":{"type":"node","id":2498853743,"tags":{"brand":"Billa","brand:wikidata":"Q537781","opening_hours":"Mo-Su 07:30-22:00","phone":"+359 2 917 0860","shop":"supermarket","website":"https://www.billa.bg/"},"wikidata":"Q537781","coordinates":[42.6900022,23.2486947]},"atp":{"id":"dp8Y74khPToLwPHplsWZJIwpMkY=","tags":{"ref":"38-120","capacity:motorcar":60,"shop":"supermarket","addr:street":"Бул. Президент Линкълн 72","addr:city":"София","addr:state":"София","addr:postcode":"1632","addr:country":"BG","name":"Billa","phone":"+359 2 917 0860","opening_hours":"Mo-Su 07:30-22:00","brand":"Billa","brand:wikidata":"Q537781"},"coordinates":[42.6900056,23.248742]},"dist":3.884,"tags_mismatch":true},{"osm":{"type":"node","id":3002833641,"tags":{"addr:city":"София","addr:housenumber":"94","addr:postcode":"1407","addr:street":"бул. Черни връх","brand":"Billa","brand:wikidata":"Q537781","opening_hours":"Mo-Su 07:30-22:00","phone":"+359 2 902 4710","shop":"supermarket","website":"https://www.billa.bg/"},"wikidata":"Q537781","coordinates":[42.6562315,23.3148501]},"atp":{"id":"DfIg_ElFLseaTFDbtMpKRvHtE4I=","tags":{"ref":"38-259","shop":"supermarket","addr:street":"Бул. Черни Връх 100","addr:city":"София","addr:state":"София","addr:postcode":"1407","addr:country":"BG","name":"Billa","opening_hours":"Mo-Su 08:00-22:00","brand":"Billa","brand:wikidata":"Q537781"},"coordinates":[42.657862,23.314836]},"dist":181.307,"tags_mismatch":true},{"osm":{"type":"node","id":3364181144,"tags":{"addr:city":"Плевен","addr:postcode":"5800","addr:street":"Васил Левски","brand":"Billa","brand:wikidata":"Q537781","check_date":"2022-12-25","check_date:opening_hours":"2022-12-25","internet_access":"no","opening_hours":"Mo-Su 07:30-21:00","payment:mastercard":"yes","payment:visa":"yes","phone":"+359 64 678 710","shop":"supermarket","website":"https://billa.bg","wheelchair":"yes"},"wikidata":"Q537781","coordinates":[43.4098841,24.6182272]},"atp":{"id":"8HIznOse2EaY9DgZcT_Rb5lDVmY=","tags":{"ref":"38-229","shop":"supermarket","addr:street":"Перник Плаза Ритейл Парк","addr:city":"Перник","addr:state":"Перник","addr:postcode":"2300","addr:country":"BG","name":"Billa","phone":"+359 76 658 030","opening_hours":"Mo-Su 07:30-22:00","brand":"Billa","brand:wikidata":"Q537781"},"coordinates":[42.607163,23.056201]},"tags_mismatch":true},{"osm":{"type":"node","id":3522548196,"tags":{"brand":"Billa","brand:wikidata":"Q537781","level":"-2","opening_hours":"Mo-Su 08:00-22:00","shop":"supermarket"},"wikidata":"Q537781","coordinates":[42.6788332,23.3207658]},"atp":{"id":"Ltg5VM_2KtSWKqaWfRic9093Olk=","tags":{"ref":"38-260","shop":"supermarket","addr:street":"Бул. Арсеналски 2","addr:city":"София","addr:state":"София","addr:postcode":"1421","addr:country":"BG","name":"Billa","phone":"+359 2 907 8280","opening_hours":"Mo-Su 08:00-22:00","brand":"Billa","brand:wikidata":"Q537781"},"coordinates":[42.678878,23.320787]},"dist":5.274,"tags_mismatch":true},{"osm":{"type":"node","id":4443396590,"tags":{"brand":"Billa","brand:wikidata":"Q537781","opening_hours":"Mo-Su 07:30-22:00","shop":"supermarket"},"wikidata":"Q537781","coordinates":[42.5665571,27.6218969]},"atp":{"id":"xkXWZxeB-tIS2LhfvPkd1dBD7J4=","tags":{"ref":"38-533","capacity:motorcar":94,"shop":"supermarket","addr:street":"Ул. Княз Борис I 104","addr:city":"Поморие","addr:state":"Бургас","addr:postcode":"8200","addr:country":"BG","name":"Billa","phone":"+359 59 626 710","opening_hours":"Mo-Su 07:30-22:00","brand":"Billa","brand:wikidata":"Q537781"},"coordinates":[42.5666519,27.6220229]},"dist":14.751,"tags_mismatch":true},{"osm":{"type":"node","id":4484489734,"tags":{"addr:city":"София","addr:housename":"Сан Стефано плаза","addr:housenumber":"22","addr:postcode":"1504","addr:street":"Сан Стефано","brand":"Billa","brand:wikidata":"Q537781","opening_hours":"Mo-Su 07:30-22:00","shop":"supermarket","toilets:wheelchair":"yes","website":"https://www.billa.bg/","wheelchair":"yes"},"wikidata":"Q537781","coordinates":[42.6919352,23.337904]},"atp":{"id":"Aj-nFHcWwMOX7gmioTKm9ZBXF7Q=","tags":{"ref":"38-192","shop":"supermarket","addr:street":"Ул. Сан Стефано 22","addr:city":"София","addr:state":"София","addr:postcode":"1504","addr:country":"BG","name":"Billa","phone":"+359 2 904 0860","opening_hours":"Mo-Su 07:30-22:00","brand":"Billa","brand:wikidata":"Q537781"},"coordinates":[42.691595,23.3379799]},"dist":38.334,"tags_mismatch":true},{"osm":{"type":"node","id":5028381654,"tags":{"brand":"Billa","brand:wikidata":"Q537781","opening_hours":"Mo-Su 07:30-22:00","shop":"supermarket","website":"https://www.billa.bg/","wheelchair":"yes"},"wikidata":"Q537781","coordinates":[42.6609396,23.3659662]},"atp":{"id":"MH860PWyhlzi-ptq_lZRJuJ-5hk=","tags":{"ref":"38-194","shop":"supermarket","addr:street":"Ул. Полк. Г. Янков 17","addr:city":"София","addr:state":"София","addr:postcode":"1797","addr:country":"BG","name":"Billa","phone":"+359 2 905 7880","opening_hours":"Mo-Su 07:30-22:00","brand":"Billa","brand:wikidata":"Q537781"},"coordinates":[42.661047,23.36589]},"dist":13.47,"tags_mismatch":true},{"osm":{"type":"node","id":5327747870,"tags":{"brand":"Billa","brand:wikidata":"Q537781","opening_hours":"Mo-Su 07:30-22:00","shop":"supermarket"},"wikidata":"Q537781","coordinates":[43.8386886,25.9539797]},"atp":{"id":"-SfKELTenWEMw-CuYe-i9h2-B04=","tags":{"ref":"38-603","capacity:motorcar":19,"shop":"supermarket","addr:street":"Бул. Неофит Бозвели 18","addr:city":"Русе","addr:state":"Русе","addr:postcode":"7012","addr:country":"BG","name":"Billa","phone":"+359 82 817 520","opening_hours":"Mo-Su 07:30-22:00","brand":"Billa","brand:wikidata":"Q537781"},"coordinates":[43.83882,25.95351]},"dist":40.406,"tags_mismatch":true},{"osm":{"type":"node","id":5647351221,"tags":{"addr:city":"Варна","addr:housenumber":"2","addr:postcode":"9000","addr:street":"Цар Иван Страцимир","brand":"Billa","brand:wikidata":"Q537781","shop":"supermarket"},"wikidata":"Q537781","coordinates":[43.209813,27.9021214]},"atp":{"id":"Rbk16IHgC8odA7IuoMM1vjDDoos=","tags":{"ref":"38-701","capacity:motorcar":120,"shop":"supermarket","addr:street":"Ул. Орловска 119","addr:city":"Габрово","addr:state":"Габрово","addr:postcode":"5308","addr:country":"BG","name":"Billa","phone":"+359 66 816 010","opening_hours":"Mo-Su 07:30-22:00","brand":"Billa","brand:wikidata":"Q537781"},"coordinates":[42.88085,25.32037]},"tags_mismatch":true},{"osm":{"type":"node","id":6569454457,"tags":{"addr:city":"София","addr:postcode":"1407","brand":"Billa","brand:wikidata":"Q537781","check_date":"2022-12-05","internet_access":"no","level":"-1","opening_hours":"Mo-Su 08:00-22:00","payment:mastercard":"yes","payment:visa":"yes","self_checkout":"yes","shop":"supermarket","website":"https://www.billa.bg/","wheelchair":"yes"},"wikidata":"Q537781","coordinates":[42.6573457,23.3134201]},"atp":{"id":"HyfvHcx4FJU_ZpStFNMHYXYjEzk=","tags":{"ref":"38-601","capacity:motorcar":252,"shop":"supermarket","addr:street":"Бул.Симеон Велики No:34","addr:city":"Шумен","addr:state":"Шумен","addr:postcode":"9700","addr:country":"BG","name":"Billa","phone":"+359 54 850 660","opening_hours":"Mo-Su 07:30-22:00","brand":"Billa","brand:wikidata":"Q537781"},"coordinates":[43.27484,26.93675]},"tags_mismatch":true},{"osm":{"type":"node","id":8173094961,"tags":{"addr:city":"София","addr:housenumber":"15","addr:postcode":"1324","addr:street":"бул. Царица Йоанна","brand":"Billa","brand:wikidata":"Q537781","internet_access":"wlan","level":"-1","opening_hours":"Mo-Su 07:30-21:00","organic":"yes","payment:cash":"yes","payment:credit_cards":"yes","payment:debit_cards":"yes","phone":"+359 2 903 9830","shop":"supermarket","stroller":"yes","wheelchair":"yes"},"wikidata":"Q537781","coordinates":[42.7102466,23.2715185]},"atp":{"id":"4nyhJ92gMBn9poA-78QbkFPZcEs=","tags":{"ref":"38-403","capacity:motorcar":118,"shop":"supermarket","addr:street":"Ул. Кап.Петко Войвода No:20","addr:city":"Стара Загора","addr:state":"Стара Загора","addr:postcode":"6010","addr:country":"BG","name":"Billa","phone":"+359 42 613 320","opening_hours":"Mo-Su 07:30-22:00","brand":"Billa","brand:wikidata":"Q537781"},"coordinates":[42.41985,25.608]},"tags_mismatch":true},{"osm":{"type":"node","id":9744122943,"tags":{"brand":"Billa","brand:wikidata":"Q537781","check_date":"2024-02-03","opening_hours":"Mo-Su 07:30-22:00","shop":"supermarket"},"wikidata":"Q537781","coordinates":[42.6627222,23.3551297]},"atp":{"id":"wmhw30UYmn8OggsehWP_q6UAyWY=","tags":{"ref":"38-270","shop":"supermarket","addr:street":"Жк. Дианабад Бл. 65 Вход В","addr:city":"София","addr:state":"София","addr:postcode":"1000","addr:country":"BG","name":"Billa","opening_hours":"Mo-Su 07:30-22:00","brand":"Billa","brand:wikidata":"Q537781"},"coordinates":[42.662801,23.35525]},"dist":13.173,"tags_mismatch":true},{"osm":{"type":"node","id":10080107725,"tags":{"addr:city":"Перник","addr:housenumber":"2А","addr:postcode":"2300","addr:street":"Юрий Гагарин","brand":"Billa","brand:wikidata":"Q537781","opening_hours":"Mo-Su 07:30-22:00","payment:cash":"yes","payment:mastercard":"yes","payment:visa":"yes","phone":"+359 76 658 030","shop":"supermarket"},"wikidata":"Q537781","coordinates":[42.607175,23.0564875]},"atp":{"id":"7jIu8UfU-CtEW9ntL9SWJuBViLY=","tags":{"ref":"38-408","capacity:motorcar":104,"shop":"supermarket","addr:street":"Бул. България 115","addr:city":"Кърджали","addr:state":"Кърджали","addr:postcode":"6610","addr:country":"BG","name":"Billa","phone":"+359 36 121 010","opening_hours":"Mo-Su 07:30-22:00","brand":"Billa","brand:wikidata":"Q537781"},"coordinates":[41.63373,25.38035]},"tags_mismatch":true},{"osm":{"type":"node","id":10184381032,"tags":{"brand":"Billa","brand:wikidata":"Q537781","shop":"supermarket"},"wikidata":"Q537781","coordinates":[42.4944091,24.1877091]},"atp":{"id":"LQxDVm9fta0NkWzZlrxD9MzDzhE=","tags":{"ref":"38-268","capacity:motorcar":55,"shop":"supermarket","addr:street":"Ул. Туше Делииванов 5","addr:city":"София","addr:state":"София","addr:postcode":"1592","addr:country":"BG","name":"Billa","phone":"+359 2 906 8080","opening_hours":"Mo-Su 07:30-22:00","brand":"Billa","brand:wikidata":"Q537781"},"coordinates":[42.668696,23.397635]},"tags_mismatch":true},{"osm":{"type":"node","id":10219921195,"tags":{"addr:city":"София","addr:housenumber":"2Б","addr:postcode":"1700","addr:street":"Висарион Белински","brand":"Billa","brand:wikidata":"Q537781","check_date":"2023-05-27","contact:website":"https://billa.bg","internet_access":"no","opening_hours":"Mo-Su 07:30-22:00","payment:mastercard":"yes","payment:visa":"yes","phone":"+359 2 904 8110","shop":"supermarket","wheelchair":"yes"},"wikidata":"Q537781","coordinates":[42.6535653,23.3437995]},"atp":{"id":"ol7EScSawgXYVDRwMuDFWzyUENg=","tags":{"ref":"38-181","shop":"supermarket","addr:street":"Ул. Висарион Белински 2б","addr:city":"София","addr:state":"София","addr:postcode":"1700","addr:country":"BG","name":"Billa","phone":"+359 2 904 8110","opening_hours":"Mo-Su 07:30-23:00","brand":"Billa","brand:wikidata":"Q537781"},"coordinates":[42.6535934,23.3436956]},"dist":9.053,"tags_mismatch":true},{"osm":{"type":"node","id":10249381132,"tags":{"addr:city":"София","addr:postcode":"1784","brand":"Billa","brand:wikidata":"Q537781","level":"-2","opening_hours":"Mo-Su 08:00-22:00","self_checkout":"yes","shop":"supermarket"},"wikidata":"Q537781","coordinates":[42.6612059,23.3830958]},"atp":{"id":"Wlm6V1h7axzjRyjD8myoP0bmBmo=","tags":{"ref":"38-265","shop":"supermarket","addr:street":"Бул. Цариградско Шосе 115 З","addr:city":"София","addr:state":"София","addr:postcode":"1784","addr:country":"BG","name":"Billa","opening_hours":"Mo-Su 08:30-22:00","brand":"Billa","brand:wikidata":"Q537781"},"coordinates":[42.660654,23.382496]},"dist":78.559,"tags_mismatch":true},{"osm":{"type":"node","id":10926066605,"tags":{"addr:city":"Созопол","addr:postcode":"8130","brand":"Billa","brand:wikidata":"Q537781","opening_hours":"Mo-Su 07:30-22:00","phone":"+359 55 045 210","shop":"supermarket","website":"https://www.billa.bg/"},"wikidata":"Q537781","coordinates":[42.419316,27.6931812]},"atp":{"id":"ZrHm1M30bC_Gg3vScUSFRvKJ9cY=","tags":{"ref":"38-551","shop":"supermarket","addr:street":"Ул. Индустриална 3","addr:city":"Созопол","addr:state":"Бургас","addr:postcode":"8130","addr:country":"BG","name":"Billa","phone":"+359 55 045 210","opening_hours":"Mo-Su 07:30-23:00","brand":"Billa","brand:wikidata":"Q537781"},"coordinates":[42.41917,27.69233]},"dist":71.734,"tags_mismatch":true},{"osm":{"type":"node","id":11064711736,"tags":{"brand":"Billa","brand:wikidata":"Q537781","shop":"supermarket"},"wikidata":"Q537781","coordinates":[42.1279194,24.7206549]},"atp":{"id":"0j8H3XQxAEsyX1g7vlguMjorzzI=","tags":{"ref":"38-338","shop":"supermarket","addr:street":"Ул.  Белия Камък 24","addr:city":"Смолян","addr:state":"Смолян","addr:postcode":"4700","addr:country":"BG","name":"Billa","opening_hours":"Mo-Su 07:30-22:00","brand":"Billa","brand:wikidata":"Q537781"},"coordinates":[41.57212,24.72116]},"tags_mismatch":true},{"osm":{"type":"node","id":11175217509,"tags":{"addr:city":"София","addr:housenumber":"5","addr:postcode":"1592","addr:street":"Туше Делииванов","brand":"Billa","brand:wikidata":"Q537781","opening_hours":"Mo-Su 07:30-22:00","phone":"+359 2 906 8080","shop":"supermarket","website":"https://billa.bg"},"wikidata":"Q537781","coordinates":[42.6687504,23.3974533]},"atp":{"id":"chaSZa-PW1FabAM5kjm88DodlWw=","tags":{"ref":"38-604","capacity:motorcar":56,"shop":"supermarket","addr:street":"Ул. Дунав 40","addr:city":"Разград","addr:state":"Разград","addr:postcode":"7200","addr:country":"BG","name":"Billa","phone":"+359 84 616 060","opening_hours":"Mo-Su 07:30-22:00","brand":"Billa","brand:wikidata":"Q537781"},"coordinates":[43.52965,26.52083]},"tags_mismatch":true},{"osm":{"type":"node","id":11401475082,"tags":{"brand":"Billa","brand:wikidata":"Q537781","shop":"supermarket"},"wikidata":"Q537781","coordinates":[43.28079,26.9266377]},"atp":{"id":"FFP5c9B2Iy8FNo0LNgd3i8-KSus=","tags":{"ref":"38-629","shop":"supermarket","addr:street":"Ул. Кралевиче 1","addr:city":"Шумен","addr:state":"Шумен","addr:postcode":"9700","addr:country":"BG","name":"Billa","phone":"+359 54 818 250","opening_hours":"Mo-Su 07:30-22:00","brand":"Billa","brand:wikidata":"Q537781"},"coordinates":[43.280635,26.92666]},"dist":17.329,"tags_mismatch":true},{"osm":{"type":"node","id":11579666833,"tags":{"addr:city":"Стара Загора","addr:housenumber":"30","addr:street":"Хан Аспарух","brand":"Billa","brand:wikidata":"Q537781","ref:vatin":"BG130007884","shop":"supermarket"},"wikidata":"Q537781","coordinates":[42.438147,25.6330155]},"atp":{"id":"lMFgNrwweBymgzhphUXbQHp2fJY=","tags":{"ref":"38-426","shop":"supermarket","addr:street":"Ул. Хан Аспарух 30","addr:city":"Стара Загора","addr:state":"Стара Загора","addr:postcode":"6000","addr:country":"BG","name":"Billa","opening_hours":"Mo-Su 08:00-22:00","brand":"Billa","brand:wikidata":"Q537781"},"coordinates":[42.43807,25.6316751]},"dist":110.329,"tags_mismatch":true},{"osm":{"type":"node","id":11581796841,"tags":{"addr:city":"Хасково","addr:housenumber":"59","addr:postcode":"6300","addr:street":"Банска","brand":"Billa","brand:wikidata":"Q537781","opening_hours":"Mo-Su 07:30-22:00","shop":"supermarket"},"wikidata":"Q537781","coordinates":[41.936138,25.5352926]},"atp":{"id":"27Lng7QrXzBRfMbG4eCHcw_ay3M=","tags":{"ref":"38-429","shop":"supermarket","addr:street":"Ул. Банска 59","addr:city":"Хасково","addr:state":"Хасково","addr:postcode":"6300","addr:country":"BG","name":"Billa","phone":"+359 38 691 060","opening_hours":"Mo-Su 07:30-22:00","brand":"Billa","brand:wikidata":"Q537781"},"coordinates":[41.936374,25.535758]},"dist":46.59,"tags_mismatch":true},{"osm":{"type":"node","id":11685130820,"tags":{"brand":"Billa","brand:wikidata":"Q537781","shop":"supermarket"},"wikidata":"Q537781","coordinates":[41.5722255,24.7165369]},"atp":{"id":"-mmNBtdVf1N9zIbdB1qIQkrAl_c=","tags":{"ref":"38-214","capacity:motorcar":128,"shop":"supermarket","addr:street":"Кв. Изток, Ул. Юрий Гагарин 1","addr:city":"Перник","addr:state":"Перник","addr:postcode":"2300","addr:country":"BG","name":"Billa","phone":"+359 76 686 410","opening_hours":"Mo-Su 07:30-22:00","brand":"Billa","brand:wikidata":"Q537781"},"coordinates":[42.61005,23.09966]},"tags_mismatch":true},{"osm":{"type":"node","id":11701089602,"tags":{"brand":"Billa","brand:wikidata":"Q537781","check_date":"2024-03-07","shop":"supermarket"},"wikidata":"Q537781","coordinates":[42.690695,23.4138078]},"atp":{"id":"EYpl96OYv1-EjhAOY6buYlmic7Y=","tags":{"ref":"38-704","capacity:motorcar":60,"shop":"supermarket","addr:street":"Ул. Д-Р Съйко Съев  30","addr:city":"Ловеч","addr:state":"Ловеч","addr:postcode":"5501","addr:country":"BG","name":"Billa","phone":"+359 68 689 710","opening_hours":"Mo-Su 07:30-22:00","brand":"Billa","brand:wikidata":"Q537781"},"coordinates":[43.134745,24.709437]},"tags_mismatch":true},{"osm":{"type":"way","id":46838700,"tags":{"brand":"Billa","brand:wikidata":"Q537781","building":"retail","check_date":"2022-12-25","internet_access":"no","opening_hours":"Mo-Su 07:30-22:00","payment:mastercard":"yes","payment:visa":"yes","shop":"supermarket","website":"https://billa.bg","wheelchair":"yes"},"wikidata":"Q537781","coordinates":[43.4178403,24.6124769]},"atp":{"id":"XMcCS0Qzy4Z8w2rZfpCl7Q3szqY=","tags":{"ref":"38-702","capacity:motorcar":125,"shop":"supermarket","addr:street":"Ул.Асен Халачев 2","addr:city":"Плевен","addr:state":"Плевен","addr:postcode":"5805","addr:country":"BG","name":"Billa","phone":"+359 64 885 510","opening_hours":"Mo-Su 07:30-22:00","brand":"Billa","brand:wikidata":"Q537781"},"coordinates":[43.41775,24.61272]},"dist":22.053,"tags_mismatch":true},{"osm":{"type":"way","id":67711900,"tags":{"addr:city":"Стара Загора","addr:postcode":"6010","brand":"Billa","brand:wikidata":"Q537781","building":"yes","opening_hours":"Mo-Su 07:30-22:00","phone":"+359 42 613 320","shop":"supermarket"},"wikidata":"Q537781","coordinates":[42.419908,25.6083239]},"atp":{"id":"oU6dYH3MfITYZALS0fES8O4lAaQ=","tags":{"ref":"38-613","capacity:motorcar":0,"shop":"supermarket","addr:street":"Площад Свобода 7","addr:city":"Русе","addr:state":"Русе","addr:postcode":"7000","addr:country":"BG","name":"Billa","phone":"+359 82 815 470","opening_hours":"Mo-Su 07:30-21:00","brand":"Billa","brand:wikidata":"Q537781"},"coordinates":[43.8486,25.95488]},"tags_mismatch":true},{"osm":{"type":"way","id":159749546,"tags":{"addr:city":"Пловдив","addr:housenumber":"132А","addr:postcode":"4004","addr:street":"Димитър Талев","brand":"Billa","brand:wikidata":"Q537781","building":"yes","opening_hours":"Mo-Su 07:30-22:00","shop":"supermarket"},"wikidata":"Q537781","coordinates":[42.1188116,24.7349351]},"atp":{"id":"Nq7j2xVSdAvSjuJC0NQ_hC9V5Zg=","tags":{"ref":"38-315","capacity:motorcar":0,"shop":"supermarket","addr:street":"Ул. Димитър Талев 132а","addr:city":"Пловдив","addr:state":"Пловдив","addr:postcode":"4004","addr:country":"BG","name":"Billa","phone":"+359 32 277 020","opening_hours":"Mo-Su 07:30-22:00","brand":"Billa","brand:wikidata":"Q537781"},"coordinates":[42.11871,24.7351]},"dist":17.681,"tags_mismatch":true},{"osm":{"type":"way","id":160140394,"tags":{"addr:city":"Пазарджик","addr:housenumber":"1","addr:street":"Любен Боянов","brand":"Billa","brand:wikidata":"Q537781","building":"supermarket","int_name":"Billa","opening_hours":"Mo-Su 07:30-22:00","shop":"supermarket","wheelchair":"yes"},"wikidata":"Q537781","coordinates":[42.1865055,24.3200904]},"atp":{"id":"i5z5JXSxG1gKr1_zJ5W14MvLiJ8=","tags":{"ref":"38-301","capacity:motorcar":294,"shop":"supermarket","addr:street":"Любен Боянов 1","addr:city":"Пазарджик","addr:state":"Пазарджик","addr:postcode":"4400","addr:country":"BG","name":"Billa","phone":"+359 34 405 410","opening_hours":"Mo-Su 07:30-22:00","brand":"Billa","brand:wikidata":"Q537781"},"coordinates":[42.18673,24.32017]},"dist":25.81,"tags_mismatch":true},{"osm":{"type":"way","id":165879111,"tags":{"addr:city":"Перник","addr:postcode":"2300","brand":"Billa","brand:wikidata":"Q537781","building":"yes","opening_hours":"Mo-Su 07:30-22:00","phone":"+359 76 686 410","shop":"supermarket"},"wikidata":"Q537781","coordinates":[42.6095661,23.0996077]},"atp":{"id":"jN-AbTokGwU7xmMhP7q5QrafTsk=","tags":{"ref":"38-207","capacity:motorcar":63,"shop":"supermarket","addr:street":"Ул. Искър 2","addr:city":"Самоков","addr:state":"София-област","addr:postcode":"2000","addr:country":"BG","name":"Billa","phone":"+359 72 268 870","opening_hours":"Mo-Su 07:30-22:00","brand":"Billa","brand:wikidata":"Q537781"},"coordinates":[42.3348514,23.5553975]},"tags_mismatch":true},{"osm":{"type":"way","id":184060391,"tags":{"addr:city":"Разград","addr:postcode":"7200","brand":"Billa","brand:wikidata":"Q537781","building":"yes","opening_hours":"Mo-Su 07:30-22:00","phone":"+359 84 616 060","shop":"supermarket"},"wikidata":"Q537781","coordinates":[43.5296364,26.5208827]},"atp":{"id":"LJwAY4-OwnaDlHM4bc89n5lPd3k=","tags":{"ref":"38-621","shop":"supermarket","addr:street":"Ул. Тулча 19","addr:city":"Русе","addr:state":"Русе","addr:postcode":"7005","addr:country":"BG","name":"Billa","phone":"+359 82 299 260","opening_hours":"Mo-Su 07:30-22:00","brand":"Billa","brand:wikidata":"Q537781"},"coordinates":[43.853893,25.978971]},"tags_mismatch":true},{"osm":{"type":"way","id":206514351,"tags":{"addr:city":"Самоков","addr:housenumber":"2","addr:postcode":"2000","addr:street":"Искър","brand":"Billa","brand:wikidata":"Q537781","building":"supermarket","check_date":"2024-02-25","internet_access":"wlan","internet_access:fee":"customers","opening_hours":"Mo-Su 07:30-22:00","payment:cash":"yes","payment:credit_cards":"yes","payment:debit_cards":"yes","phone":"+359 72 268 870","shop":"supermarket","website":"https://billa.bg","wheelchair":"yes"},"wikidata":"Q537781","coordinates":[42.334832,23.5551326]},"atp":{"id":"opXN4BUEXA0bixRTAdOoazFZLZA=","tags":{"ref":"38-221","shop":"supermarket","addr:street":"Ул. Пауталия 10","addr:city":"Кюстендил","addr:state":"Кюстендил","addr:postcode":"2500","addr:country":"BG","name":"Billa","phone":"+359 78 538 010","opening_hours":"Mo-Su 07:30-22:00","brand":"Billa","brand:wikidata":"Q537781"},"coordinates":[42.2798,22.6902802]},"tags_mismatch":true},{"osm":{"type":"way","id":212735376,"tags":{"addr:city":"Русе","addr:postcode":"7005","brand":"Billa","brand:wikidata":"Q537781","building":"retail","building:levels":"1","opening_hours":"Mo-Su 07:30-22:00","phone":"+359 82 299 260","shop":"supermarket"},"wikidata":"Q537781","coordinates":[43.8539909,25.9787659]},"atp":{"id":"ZQXB1UKJOyHzD022HnOdXPNls-I=","tags":{"ref":"38-803","capacity:motorcar":72,"shop":"supermarket","addr:street":"Ул. Св. Климент Охридски 5","addr:city":"Монтана","addr:state":"Монтана","addr:postcode":"3400","addr:country":"BG","name":"Billa","phone":"+359 96 393 310","opening_hours":"Mo-Su 07:30-22:00","brand":"Billa","brand:wikidata":"Q537781"},"coordinates":[43.40965,23.22706]},"tags_mismatch":true},{"osm":{"type":"way","id":222887187,"tags":{"addr:city":"Велико Търново","addr:housenumber":"1","addr:street":"Краков","brand":"Billa","brand:wikidata":"Q537781","building":"retail","opening_hours":"Mo-Fr 07:30-22:00; Sa 08:00-22:00; Su 08:30-21:00","shop":"supermarket","source":"Bing"},"wikidata":"Q537781","coordinates":[43.0743047,25.6109705]},"atp":{"id":"PXC6aNrBvrmBzHyIKbv5HpgDLP4=","tags":{"ref":"38-155","capacity:motorcar":62,"shop":"supermarket","addr:street":"Бул. Братя Бъкстон 96","addr:city":"София","addr:state":"София","addr:postcode":"1618","addr:country":"BG","name":"Billa","phone":"+359 2 903 6260","opening_hours":"Mo-Su 07:30-22:00","brand":"Billa","brand:wikidata":"Q537781"},"coordinates":[42.6585714,23.2722066]},"tags_mismatch":true},{"osm":{"type":"way","id":230957147,"tags":{"addr:housenumber":"7","addr:street":"пл. Свобода","brand":"Billa","brand:wikidata":"Q537781","building":"retail","building:levels":"9","building:part":"yes","opening_hours":"Mo-Su 07:30-21:00","shop":"supermarket"},"wikidata":"Q537781","coordinates":[43.8487028,25.9552138]},"atp":{"id":"Eugbb7tGcSQ7okvpjYNonNUVv4U=","tags":{"ref":"38-607","capacity:motorcar":10,"shop":"supermarket","addr:street":"Ул. Солун 12","addr:city":"Русе","addr:state":"Русе","addr:postcode":"7020","addr:country":"BG","name":"Billa","phone":"+359 82 890 510","opening_hours":"Mo-Su 07:30-22:00","brand":"Billa","brand:wikidata":"Q537781"},"coordinates":[43.84939,25.96737]},"tags_mismatch":true},{"osm":{"type":"way","id":247420497,"tags":{"addr:city":"Кърджали","addr:housenumber":"115","addr:postcode":"6610","addr:street":"бул. България","brand":"Billa","brand:wikidata":"Q537781","building":"yes","building:levels":"1","opening_hours":"Mo-Su 07:30-22:00","phone":"+359 361 21 010","shop":"supermarket"},"wikidata":"Q537781","coordinates":[41.6337387,25.3803879]},"atp":{"id":"7Sjp6YbFo3VdOqFgfcvoPeRQ1MY=","tags":{"ref":"38-717","capacity:motorcar":48,"shop":"supermarket","addr:street":"Ул. Г.С.Раковски 2","addr:city":"Троян","addr:state":"Ловеч","addr:postcode":"5600","addr:country":"BG","name":"Billa","phone":"+359 67 061 750","opening_hours":"Mo-Su 07:30-22:00","brand":"Billa","brand:wikidata":"Q537781"},"coordinates":[42.885439,24.713413]},"tags_mismatch":true},{"osm":{"type":"way","id":258548985,"tags":{"addr:city":"Шумен","addr:housenumber":"34","addr:postcode":"9700","addr:street":"бул. Симеон Велики","air_conditioning":"yes","brand":"Billa","brand:wikidata":"Q537781","building":"yes","building:levels":"1","currency:BGN":"yes","opening_hours":"Mo-Su 07:30-22:00","payment:cash":"yes","payment:contactless":"yes","payment:credit_cards":"yes","payment:debit_cards":"yes","payment:mastercard":"yes","payment:visa":"yes","phone":"+359 54 850 660","shop":"supermarket","website":"https://www.billa.bg/","wheelchair":"yes"},"wikidata":"Q537781","coordinates":[43.2749718,26.936836]},"atp":{"id":"KAYhhG2TL7s9x4HgR996TST_dew=","tags":{"ref":"38-625","shop":"supermarket","addr:street":"Бул. Добруджа 4","addr:city":"Добрич","addr:state":"Добрич","addr:postcode":"9300","addr:country":"BG","name":"Billa","opening_hours":"Mo-Su 07:30-22:00","brand":"Billa","brand:wikidata":"Q537781"},"coordinates":[43.568688,27.847224]},"tags_mismatch":true},{"osm":{"type":"way","id":406286315,"tags":{"brand":"Billa","brand:wikidata":"Q537781","building":"yes","check_date:opening_hours":"2024-07-27","nonsquare":"yes","opening_hours":"Mo-Su 07:30-22:00","self_checkout":"yes","shop":"supermarket"},"wikidata":"Q537781","coordinates":[42.6143929,23.3391721]},"atp":{"id":"yd4lgVeQwVZcw1IeNizoSBNPp50=","tags":{"ref":"38-174","capacity:motorcar":27,"shop":"supermarket","addr:street":"Бул. Симеоновско Шосе 211","addr:city":"София","addr:state":"София","addr:postcode":"1000","addr:country":"BG","name":"Billa","phone":"+359 2 904 5060","opening_hours":"Mo-Su 07:30-22:00","brand":"Billa","brand:wikidata":"Q537781"},"coordinates":[42.6144215,23.3391209]},"dist":5.26,"tags_mismatch":true},{"osm":{"type":"way","id":413357323,"tags":{"addr:city":"Кюстендил","addr:postcode":"2500","brand":"Billa","brand:wikidata":"Q537781","building":"yes","building:levels":"3","opening_hours":"Mo-Su 07:30-22:00","phone":"+359 78 538 010","shop":"supermarket"},"wikidata":"Q537781","coordinates":[42.2797345,22.6900615]},"atp":{"id":"-pkEdaiKDR4hW-xZAjPv5W1sR6c=","tags":{"ref":"38-810","capacity:motorcar":80,"shop":"supermarket","addr:street":"Бул. Акад. И. Дуриданов 2","addr:city":"Монтана","addr:state":"Монтана","addr:postcode":"3400","addr:country":"BG","name":"Billa","phone":"+359 96 399 550","opening_hours":"Mo-Su 07:30-22:00","brand":"Billa","brand:wikidata":"Q537781"},"coordinates":[43.419508,23.221827]},"tags_mismatch":true},{"osm":{"type":"way","id":428993875,"tags":{"addr:city":"София","addr:housenumber":"96","addr:postcode":"1618","addr:street":"бул. Братя Бъкстон","brand":"Billa","brand:wikidata":"Q537781","building":"yes","building:levels":"1","opening_hours":"Mo-Su 07:30-22:00","phone":"+359 2 903 6260","self_checkout":"yes","shop":"supermarket","website":"https://www.billa.bg/"},"wikidata":"Q537781","coordinates":[42.6585775,23.2716389]},"atp":{"id":"xOmgdQsttre_st5NAWZYw_ASQJI=","tags":{"ref":"38-550","capacity:motorcar":19,"shop":"supermarket","addr:street":"Кв. Сарафово Ул. Слънце 30","addr:city":"Бургас","addr:state":"Бургас","addr:postcode":"8000","addr:country":"BG","name":"Billa","phone":"+359 56 599 240","opening_hours":"Mo-Su 07:30-23:00","brand":"Billa","brand:wikidata":"Q537781"},"coordinates":[42.563195,27.51931]},"tags_mismatch":true},{"osm":{"type":"way","id":468098039,"tags":{"addr:city":"Ловеч","addr:housenumber":"30","addr:postcode":"5501","addr:street":"Съйко Съев","brand":"Billa","brand:wikidata":"Q537781","building":"yes","opening_hours":"Mo-Su 07:30-22:00","phone":"+359 68 689 710","shop":"supermarket"},"wikidata":"Q537781","coordinates":[43.1348081,24.7093361]},"atp":{"id":"HWNq6HVHfJx2k0CIIvhxOxJRbzQ=","tags":{"ref":"38-423","shop":"supermarket","addr:street":"Бул. Цар Освободител 1 Б","addr:city":"Сливен","addr:state":"Сливен","addr:postcode":"8800","addr:country":"BG","name":"Billa","phone":"+359 44 699 060","opening_hours":"Mo-Su 07:30-22:00","brand":"Billa","brand:wikidata":"Q537781"},"coordinates":[42.68009,26.314336]},"tags_mismatch":true},{"osm":{"type":"way","id":469477820,"tags":{"addr:city":"Габрово","addr:housenumber":"119","addr:postcode":"5308","addr:street":"Орловска","addr:street:en":"Orlovska","brand":"Billa","brand:wikidata":"Q537781","building":"commercial","building:levels":"1","note:cadastre:building_use":"Сграда за тьрговия","opening_hours":"Mo-Su 07:30-22:00","phone":"+359 66 816 010","shop":"supermarket","website":"https://www.billa.bg/","wheelchair":"yes"},"wikidata":"Q537781","coordinates":[42.8809343,25.3201218]},"atp":{"id":"AGgN0uGPPW178DHI94KLD01Bxfk=","tags":{"ref":"38-714","capacity:motorcar":112,"shop":"supermarket","addr:street":"Бул. Могильов 47","addr:city":"Габрово","addr:state":"Габрово","addr:postcode":"5300","addr:country":"BG","name":"Billa","phone":"+359 66 840 450","opening_hours":"Mo-Su 07:30-21:00","brand":"Billa","brand:wikidata":"Q537781"},"coordinates":[42.88584,25.31283]},"tags_mismatch":true},{"osm":{"type":"way","id":685966068,"tags":{"addr:city":"Монтана","addr:postcode":"3400","brand":"Billa","brand:wikidata":"Q537781","building":"yes","opening_hours":"Mo-Su 07:30-22:00","phone":"+359 96 393 310","shop":"supermarket"},"wikidata":"Q537781","coordinates":[43.4095885,23.2270494]},"atp":{"id":"9yqi4IS2diXqFyrSBwOxsh0l_iY=","tags":{"ref":"38-332","capacity:motorcar":10,"shop":"supermarket","addr:street":"Бул. 6-Ти Септември 42","addr:city":"Пловдив","addr:state":"Пловдив","addr:postcode":"4000","addr:country":"BG","name":"Billa","phone":"+359 32 229 230","opening_hours":"Mo-Su 07:30-22:00","brand":"Billa","brand:wikidata":"Q537781"},"coordinates":[42.146026,24.723954]},"tags_mismatch":true},{"osm":{"type":"way","id":686131347,"tags":{"addr:city":"Монтана","addr:postcode":"3400","brand":"Billa","brand:wikidata":"Q537781","building":"yes","opening_hours":"Mo-Su 07:30-22:00","phone":"+359 96 399 550","shop":"supermarket"},"wikidata":"Q537781","coordinates":[43.4198583,23.2222489]},"atp":{"id":"o54ghA2J5r6LE-r2oGxYVRI0Lyg=","tags":{"ref":"38-227","capacity:motorcar":20,"shop":"supermarket","addr:street":"Ул. Връх Китка 2a","addr:city":"Петрич","addr:state":"Благоевград","addr:postcode":"2850","addr:country":"BG","name":"Billa","opening_hours":"Mo-Su 07:30-22:00","brand":"Billa","brand:wikidata":"Q537781"},"coordinates":[41.394952,23.206266]},"tags_mismatch":true},{"osm":{"type":"way","id":798857475,"tags":{"addr:city":"Петрич","addr:postcode":"2850","brand":"Billa","brand:wikidata":"Q537781","building":"yes","capacity":"20","fee":"yes","opening_hours":"Mo-Su 07:30-22:00","parking":"surface","shop":"supermarket","surface":"dirt"},"wikidata":"Q537781","coordinates":[41.3950059,23.2062734]},"atp":{"id":"OWWPbMd5WCWlu3MG6ELMVu_jrM0=","tags":{"ref":"38-228","capacity:motorcar":53,"shop":"supermarket","addr:street":"Ул. Борис Ангелушев 2","addr:city":"Благоевград","addr:state":"Благоевград","addr:postcode":"2700","addr:country":"BG","name":"Billa","phone":"+359 73 818 490","opening_hours":"Mo-Su 07:30-22:00","brand":"Billa","brand:wikidata":"Q537781"},"coordinates":[42.00244,23.1001898]},"tags_mismatch":true},{"osm":{"type":"way","id":1016681733,"tags":{"brand":"Billa","brand:wikidata":"Q537781","building":"retail","landuse":"commercial","shop":"supermarket"},"wikidata":"Q537781","coordinates":[43.2209074,27.898553]},"atp":{"id":"8uTbz0mGFRx_Ae1XEIDOahpSxjs=","tags":{"ref":"38-336","capacity:motorcar":60,"shop":"supermarket","addr:street":"Ул. Георги Бенковски 67","addr:city":"Панагюрище","addr:state":"Пазарджик","addr:postcode":"4500","addr:country":"BG","name":"Billa","opening_hours":"Mo-Su 08:00-21:00","brand":"Billa","brand:wikidata":"Q537781"},"coordinates":[42.498995,24.1874001]},"tags_mismatch":true},{"osm":{"type":"way","id":1126950975,"tags":{"brand":"Billa","brand:wikidata":"Q537781","building":"yes","opening_hours":"Mo-Su 07:00-22:30","shop":"supermarket"},"wikidata":"Q537781","coordinates":[42.7186119,23.2783078]},"atp":{"id":"pPjEsuc-TmsyYYofyBc0UiSg3m0=","tags":{"ref":"38-542","shop":"supermarket","addr:street":"Бул. Сливница 185","addr:city":"Варна","addr:state":"Варна","addr:postcode":"9000","addr:country":"BG","name":"Billa","opening_hours":"Mo-Su 07:30-22:00","brand":"Billa","brand:wikidata":"Q537781"},"coordinates":[43.227139,27.87497]},"tags_mismatch":true},{"osm":{"type":"way","id":1182333114,"tags":{"addr:city":"Бургас","addr:postcode":"8000","brand":"Billa","brand:wikidata":"Q537781","building":"commercial","opening_hours":"Mo-Su 07:30-23:00","phone":"+359 56 599 240","shop":"supermarket"},"wikidata":"Q537781","coordinates":[42.5632729,27.5195001]},"atp":{"id":"lQLMtUAZIPgUhvPBpEF6ltdXFz4=","tags":{"ref":"38-624","shop":"supermarket","addr:street":"Ул. Христо Ботев 40","addr:city":"Добрич","addr:state":"Добрич","addr:postcode":"9300","addr:country":"BG","name":"Billa","phone":"+359 58 899 000","opening_hours":"Mo-Su 07:30-22:00","brand":"Billa","brand:wikidata":"Q537781"},"coordinates":[43.5744,27.841565]},"tags_mismatch":true},{"osm":{"type":"way","id":1221272168,"tags":{"addr:city":"Благоевград","addr:housenumber":"2","addr:postcode":"2700","addr:street":"Борис Ангелушев","brand":"Billa","brand:wikidata":"Q537781","building":"yes","payment:cash":"yes","payment:debit_cards":"yes","payment:maestro":"yes","payment:visa":"yes","shop":"supermarket"},"wikidata":"Q537781","coordinates":[42.0027448,23.1008635]},"atp":{"id":"OX5kwBTEhKONZ3mZgKB0iDN5_oM=","tags":{"ref":"38-253","shop":"supermarket","addr:street":"Бул. Ситняково 48","addr:city":"София","addr:state":"София","addr:postcode":"1505","addr:country":"BG","name":"Billa","phone":"+359 2 907 8560","opening_hours":"Mo-Su 08:30-22:00","brand":"Billa","brand:wikidata":"Q537781"},"coordinates":[42.691516,23.353555]},"tags_mismatch":true},{"osm":false,"atp":{"id":"4R9p3MikTNoRfAnPPXue9vlKu6Y=","tags":{"ref":"38-513","capacity:motorcar":20,"shop":"supermarket","addr:street":"Ул. Капитан Райчо Николов 101","addr:city":"Варна","addr:state":"Варна","addr:postcode":"9009","addr:country":"BG","name":"Billa","phone":"+359 52 702 420","opening_hours":"Mo-Su 07:30-22:00","brand":"Billa","brand:wikidata":"Q537781"},"coordinates":[43.21463,27.89422]},"tags_mismatch":false,"dist":0},{"osm":false,"atp":{"id":"AGtdb2SUe_0sRuYKQCAChJMG_10=","tags":{"ref":"38-626","shop":"supermarket","addr:street":"Бул. Цар Симеон Велики 25","addr:city":"Силистра","addr:state":"Силистра","addr:postcode":"7500","addr:country":"BG","name":"Billa","phone":"08 825020","opening_hours":"Mo-Su 07:30-22:00","brand":"Billa","brand:wikidata":"Q537781"},"coordinates":[44.1165953,27.2594349]},"tags_mismatch":false,"dist":0},{"osm":false,"atp":{"id":"ccAGGWp8frQFIxEY0PN3l2y47bA=","tags":{"ref":"38-333","capacity:motorcar":90,"shop":"supermarket","addr:street":"Ул. Клокотница 2","addr:city":"Стамболийски","addr:state":"Пловдив","addr:postcode":"4210","addr:country":"BG","name":"Billa","opening_hours":"Mo-Su 07:30-22:00","brand":"Billa","brand:wikidata":"Q537781"},"coordinates":[42.137199,24.54368]},"tags_mismatch":false,"dist":0},{"osm":false,"atp":{"id":"7HTRXysa3Zqo7Zf44nHStcho_TA=","tags":{"ref":"38-339","capacity:motorcar":20,"shop":"supermarket","addr:street":"Ул Карловско Шосе 93","addr:city":"Граф Игнатиево","addr:state":"Пловдив","addr:postcode":"4198","addr:country":"BG","name":"Billa","phone":"+359 31 183 490","opening_hours":"Mo-Su 07:30-22:00","brand":"Billa","brand:wikidata":"Q537781"},"coordinates":[42.283077,24.732661]},"tags_mismatch":false,"dist":0},{"osm":false,"atp":{"id":"hH9qkq5nomRuS0yj6eai494hvg4=","tags":{"ref":"38-718","capacity:motorcar":39,"shop":"supermarket","addr:street":"Ул. Беляковско Шосе 1","addr:city":"Велико Търново","addr:state":"Велико Търново","addr:postcode":"5000","addr:country":"BG","name":"Billa","opening_hours":"Mo-Su 07:30-22:00","brand":"Billa","brand:wikidata":"Q537781"},"coordinates":[43.082671,25.6113923]},"tags_mismatch":false,"dist":0},{"osm":false,"atp":{"id":"Nqg1yl3SpVvxZacL9LN4xsGuBIE=","tags":{"ref":"38-428","shop":"supermarket","addr:street":"Ул. Георги Димитров 87","addr:city":"Чирпан","addr:state":"Стара Загора","addr:postcode":"6200","addr:country":"BG","name":"Billa","phone":"+359 41 690 820","opening_hours":"Mo-Su 07:30-22:00","brand":"Billa","brand:wikidata":"Q537781"},"coordinates":[42.19893,25.3338401]},"tags_mismatch":false,"dist":0},{"osm":false,"atp":{"id":"STAHF6j_k0pGCRI5bEgaHaAZNSo=","tags":{"ref":"38-425","shop":"supermarket","addr:street":"Кв. Възрожденци, Ул. Христо Ботев 73","addr:city":"Кърджали","addr:state":"София","addr:postcode":"6600","addr:country":"BG","name":"Billa","phone":"+359 36 132 460","opening_hours":"Mo-Su 07:30-22:00","brand":"Billa","brand:wikidata":"Q537781"},"coordinates":[41.636719,25.35459]},"tags_mismatch":false,"dist":0},{"osm":false,"atp":{"id":"xxEhn0CySNTsYYRbm9K77z12VNM=","tags":{"ref":"38-251","capacity:motorcar":76,"shop":"supermarket","addr:street":"Бул. Сливница 284","addr:city":"София","addr:state":"София","addr:postcode":"1000","addr:country":"BG","name":"Billa","phone":"+359 2 906 2210","opening_hours":"Mo-Su 07:30-22:00","brand":"Billa","brand:wikidata":"Q537781"},"coordinates":[42.70358,23.1463699]},"tags_mismatch":false,"dist":0},{"osm":false,"atp":{"id":"W9OY9apjc7G0FORM3UyfE5Rdixo=","tags":{"ref":"38-546","shop":"supermarket","addr:street":"Ул. Ак. Андрей Сахаров 3","addr:city":"Варна","addr:state":"Варна","addr:postcode":"9000","addr:country":"BG","name":"Billa","opening_hours":"Mo-Su 07:30-22:00","brand":"Billa","brand:wikidata":"Q537781"},"coordinates":[43.20682,27.9015251]},"tags_mismatch":false,"dist":0}]}