{"metadata":{"type":"brand","wikidata":"Q266572","name":"dm","compare_keys":["opening_hours","phone","website","addr:city","addr:postcode"]},"data":[{"osm":{"type":"node","id":1381604863,"tags":{"addr:city":"Пловдив","addr:postcode":"4000","brand":"dm","brand:wikidata":"Q266572","opening_hours":"Mo-Su 09:00-20:00","phone":"+359 32 510 992","shop":"chemist","website":"https://www.dm-drogeriemarkt.bg/store/g002/plovdiv/bul-mendeleev-2b"},"wikidata":"Q266572","coordinates":[42.1300937,24.7695749]},"atp":false,"tags_mismatch":false},{"osm":{"type":"node","id":1798347817,"tags":{"addr:city":"Пазарджик","addr:housenumber":"1","addr:postcode":"4400","addr:street":"Градски пазар","brand":"dm","brand:wikidata":"Q266572","opening_hours":"Mo-Su 09:00-20:00","phone":"+359 34 910 397","shop":"chemist","website":"https://www.dm-drogeriemarkt.bg/store/g01b/pazardzhik/ul-gradski-pazar-1","wheelchair":"yes"},"wikidata":"Q266572","coordinates":[42.1919676,24.3356709]},"atp":false,"tags_mismatch":false},{"osm":{"type":"node","id":2318943399,"tags":{"addr:city":"Велико Търново","addr:postcode":"5002","brand":"dm","brand:wikidata":"Q266572","opening_hours":"Mo-Su 09:00-20:00","phone":"+359 62 510 892","shop":"chemist","website":"https://www.dm-drogeriemarkt.bg/store/g010/veliko-t-rnovo/ul-magistralna-17","wheelchair":"yes"},"wikidata":"Q266572","coordinates":[43.0729594,25.6155981]},"atp":false,"tags_mismatch":false},{"osm":{"type":"node","id":2620862389,"tags":{"addr:city":"София","addr:housenumber":"1","addr:place":"пл. България","addr:postcode":"1414","brand":"dm","brand:wikidata":"Q266572","check_date:opening_hours":"2023-06-04","level":"-1","opening_hours":"Mo-Fr 08:00-21:00; Sa 09:00-21:00; Su 10:00-21:00","phone":"+359 2 421 7307","shop":"chemist","website":"https://www.dm-drogeriemarkt.bg/store/g01d/sofiya/pl-b-lgariya-1"},"wikidata":"Q266572","coordinates":[42.685889,23.3180282]},"atp":false,"tags_mismatch":false},{"osm":{"type":"node","id":2628122740,"tags":{"addr:city":"София","addr:housenumber":"32","addr:postcode":"1000","addr:street":"бул. Княз Александър Дондуков","brand":"dm","brand:wikidata":"Q266572","opening_hours":"Mo-Su 08:00-21:00","phone":"+359 2 447 8792","shop":"chemist","website":"https://www.dm-drogeriemarkt.bg/store/g02n/sofiya/bul-knyaz-aleksand-r-dondukov-32","wheelchair":"yes"},"wikidata":"Q266572","coordinates":[42.6981127,23.3308479]},"atp":false,"tags_mismatch":false},{"osm":{"type":"node","id":2923429902,"tags":{"addr:city":"София","addr:housenumber":"75","addr:postcode":"1202","addr:street":"бул. Княгиня Мария Луиза","brand":"dm","brand:wikidata":"Q266572","check_date":"2023-08-31","opening_hours":"Mo-Su 08:00-20:00","phone":"+359 2 421 1992","shop":"chemist","website":"https://www.dm-drogeriemarkt.bg/store/g007/sofiya/bul-mariya-luiza-75"},"wikidata":"Q266572","coordinates":[42.7034926,23.3231918]},"atp":false,"tags_mismatch":false},{"osm":{"type":"node","id":3512476116,"tags":{"addr:city":"София","addr:postcode":"1839","brand":"dm","brand:wikidata":"Q266572","check_date":"2022-10-26","opening_hours":"Mo-Su 09:00-21:00","phone":"+359 2 421 8521","shop":"chemist","website":"https://www.dm-drogeriemarkt.bg/store/g019/sofiya/bul-botevradsko-shose-525"},"wikidata":"Q266572","coordinates":[42.7094403,23.4583925]},"atp":false,"tags_mismatch":false},{"osm":{"type":"node","id":3527080399,"tags":{"addr:city":"София","addr:housenumber":"2А","addr:place":"пл. Петко Р. Славейков","addr:postcode":"1000","brand":"dm","brand:wikidata":"Q266572","contact:phone":"+359 2 421 8988","opening_hours":"Mo-Sa 08:00-21:00; Su 09:00-20:00","phone":"+359 2 421 8988","shop":"chemist","website":"https://www.dm-drogeriemarkt.bg/store/g017/sofiya/ploshchad-petko-slavejkov-2a","wheelchair":"yes"},"wikidata":"Q266572","coordinates":[42.6921602,23.323769]},"atp":false,"tags_mismatch":false},{"osm":{"type":"node","id":3620752928,"tags":{"addr:city":"София","addr:housenumber":"52","addr:postcode":"1574","addr:street":"Коста Лулчев","brand":"dm","brand:wikidata":"Q266572","contact:phone":"+359 2 421 8507","contact_hours":"Mo-Su 10:00-22:00","opening_hours":"Mo-Su 10:00-21:00","phone":"+359 2 421 8507","shop":"chemist","website":"https://www.dm-drogeriemarkt.bg/store/g018/sofiya/ul-kosta-lulchev-52"},"wikidata":"Q266572","coordinates":[42.6796088,23.3677116]},"atp":false,"tags_mismatch":false},{"osm":{"type":"node","id":3623960697,"tags":{"addr:city":"София","addr:housenumber":"22","addr:postcode":"1000","addr:street":"бул. Цар Освободител","brand":"dm","brand:wikidata":"Q266572","check_date":"2023-09-09","contact:phone":"+359 2 489 6992","internet_access":"no","level":"-1","opening_hours":"Mo-Su 08:00-22:00","payment:mastercard":"yes","payment:visa":"yes","phone":"+359 2 489 6992","shop":"chemist","website":"https://www.dm-drogeriemarkt.bg/store/g00c/sofiya/bul-tsar-osvoboditel-22","wheelchair":"yes"},"wikidata":"Q266572","coordinates":[42.693013,23.334057]},"atp":false,"tags_mismatch":false},{"osm":{"type":"node","id":3688564857,"tags":{"addr:city":"София","addr:housenumber":"10","addr:postcode":"1113","addr:street":"бул. Цариградско шосе","brand":"dm","brand:wikidata":"Q266572","check_date":"2024-09-20","opening_hours":"Mo-Fr 08:00-21:00; Sa-Su 09:00-21:00","phone":"+359 88 246 6488","shop":"chemist","website":"https://www.dm-drogeriemarkt.bg/store/g03g/sofiya/bul-tsarigradsko-shose-bl-10","wheelchair":"yes"},"wikidata":"Q266572","coordinates":[42.6750963,23.3582483]},"atp":false,"tags_mismatch":false},{"osm":{"type":"node","id":3741782634,"tags":{"addr:city":"Велико Търново","addr:postcode":"5000","brand":"dm","brand:wikidata":"Q266572","name:pl":"DM","opening_hours":"Mo-Su 09:00-20:00","phone":"+359 62 526 102","shop":"chemist","website":"https://www.dm-drogeriemarkt.bg/store/g027/veliko-t-rnovo/hristo-botev-1"},"wikidata":"Q266572","coordinates":[43.0829961,25.633198]},"atp":false,"tags_mismatch":false},{"osm":{"type":"node","id":3901019514,"tags":{"addr:city":"Стара Загора","addr:postcode":"6000","addr:street":"Св.Патриарх Евтимий","brand":"dm","brand:wikidata":"Q266572","opening_hours":"Mo-Fr 08:30-20:00; Sa-Su 09:00-20:00","phone":"+359 42 910 992","shop":"chemist","website":"https://www.dm-drogeriemarkt.bg/store/g006/stara-zagora/ul-tsar-simeon-veliki-132"},"wikidata":"Q266572","coordinates":[42.4254629,25.6348086]},"atp":false,"tags_mismatch":false},{"osm":{"type":"node","id":4039277486,"tags":{"addr:city":"София","addr:postcode":"1220","brand":"dm","brand:wikidata":"Q266572","opening_hours":"Mo-Su 08:00-20:00","phone":"+359 2 447 5979","shop":"chemist","website":"https://www.dm-drogeriemarkt.bg/store/g02g/sofiya/bul-lomsko-shose-34"},"wikidata":"Q266572","coordinates":[42.726452,23.3029408]},"atp":false,"tags_mismatch":false},{"osm":{"type":"node","id":4097759118,"tags":{"addr:city":"Пловдив","addr:postcode":"4000","brand":"dm","brand:wikidata":"Q266572","opening_hours":"Mo-Fr 08:00-20:00; Sa 09:00-20:00; Su 09:00-18:00","phone":"+359 32 349 902","shop":"chemist","website":"https://www.dm-drogeriemarkt.bg/store/g028/plovdiv/ul-betoven-1"},"wikidata":"Q266572","coordinates":[42.1505261,24.7442168]},"atp":false,"tags_mismatch":false},{"osm":{"type":"node","id":4204156193,"tags":{"addr:city":"София","addr:postcode":"1784","addr:street":"Методи Андонов","brand":"dm","brand:wikidata":"Q266572","opening_hours":"Mo-Fr 08:00-21:00; Sa-Su 09:00-21:00","phone":"+359 2 447 5995","shop":"chemist","website":"https://www.dm-drogeriemarkt.bg/store/g02h/sofiya/ul-metodi-andonov-4"},"wikidata":"Q266572","coordinates":[42.6519518,23.3732616]},"atp":false,"tags_mismatch":false},{"osm":{"type":"node","id":4268055111,"tags":{"addr:city":"Кърджали","addr:housenumber":"2А","addr:postcode":"6600","addr:street":"бул. Булаир","brand":"dm","brand:wikidata":"Q266572","opening_hours":"Mo-Fr 08:00-20:00; Sa-Su 09:00-20:00","payment:cash":"yes","payment:mastercard":"yes","payment:visa":"yes","phone":"+359 36 154 392","shop":"chemist","website":"https://www.dm-drogeriemarkt.bg/store/g015/k-rdzhali/ul-bulair-2a"},"wikidata":"Q266572","coordinates":[41.6386242,25.3695988]},"atp":false,"tags_mismatch":false},{"osm":{"type":"node","id":4430676210,"tags":{"addr:city":"Добрич","addr:postcode":"9300","brand":"dm","brand:wikidata":"Q266572","opening_hours":"Mo-Su 09:00-20:00","phone":"+359 58 510 992","shop":"chemist","website":"https://www.dm-drogeriemarkt.bg/store/g00i/dobrich/pl-svoboda-6"},"wikidata":"Q266572","coordinates":[43.5691132,27.8303572]},"atp":false,"tags_mismatch":false},{"osm":{"type":"node","id":4730767183,"tags":{"addr:city":"Бургас","addr:postcode":"8001","brand":"dm","brand:wikidata":"Q266572","opening_hours":"Mo-Su 09:00-20:00","phone":"+359 88 246 6485","shop":"chemist","website":"https://www.dm-drogeriemarkt.bg/store/g03d/burgas/ul-todor-aleksandrov-30"},"wikidata":"Q266572","coordinates":[42.503439,27.4601877]},"atp":false,"tags_mismatch":false},{"osm":{"type":"node","id":4931291023,"tags":{"addr:city":"Варна","addr:housenumber":"61","addr:postcode":"9000","addr:street":"бул. Владислав Варненчик","brand":"dm","brand:wikidata":"Q266572","name:it":"Dm","opening_hours":"Mo-Su 09:00-20:00","phone":"+359 52 910 812","shop":"chemist","website":"https://www.dm-drogeriemarkt.bg/store/g00b/varna/bul-vladislav-varnenchik-61"},"wikidata":"Q266572","coordinates":[43.2117143,27.9061654]},"atp":false,"tags_mismatch":false},{"osm":{"type":"node","id":4931312421,"tags":{"addr:city":"Варна","addr:housenumber":"24","addr:postcode":"9000","addr:street":"бул. Сливница","brand":"dm","brand:wikidata":"Q266572","opening_hours":"Mo-Su 09:00-20:00","phone":"+359 52 912 486","shop":"chemist","website":"https://www.dm-drogeriemarkt.bg/store/g022/varna/bul-slivnitsa-24"},"wikidata":"Q266572","coordinates":[43.2070131,27.9179966]},"atp":false,"tags_mismatch":false},{"osm":{"type":"node","id":4955369915,"tags":{"addr:city":"София","addr:housenumber":"47","addr:postcode":"1407","addr:street":"бул. Черни връх","brand":"dm","brand:wikidata":"Q266572","opening_hours":"Mo-Sa 09:00-21:00; Su 10:00-20:00","phone":"+359 88 246 6474","shop":"chemist","website":"https://www.dm-drogeriemarkt.bg/store/g032/sofiya/bul-cherni-vr-h-47","wheelchair":"yes"},"wikidata":"Q266572","coordinates":[42.6626831,23.3177926]},"atp":false,"tags_mismatch":false},{"osm":{"type":"node","id":5271642179,"tags":{"addr:city":"Бургас","addr:postcode":"8000","brand":"dm","brand:wikidata":"Q266572","opening_hours":"Mo-Su 09:00-21:00","phone":"+359 56 706 471","shop":"chemist","website":"https://www.dm-drogeriemarkt.bg/store/g02i/burgas/vasil-levski-16"},"wikidata":"Q266572","coordinates":[42.4984458,27.46968]},"atp":false,"tags_mismatch":false},{"osm":{"type":"node","id":5318938319,"tags":{"addr:city":"София","addr:postcode":"1113","brand":"dm","brand:wikidata":"Q266572","check_date:opening_hours":"2024-03-18","opening_hours":"Mo-Fr 08:00-20:00; Sa,Su 09:00-20:00","phone":"+359 2 422 5422","shop":"chemist","website":"https://www.dm-drogeriemarkt.bg/store/g01m/sofiya/ul-nikolaj-hajtov-2"},"wikidata":"Q266572","coordinates":[42.6711607,23.3518089]},"atp":false,"tags_mismatch":false},{"osm":{"type":"node","id":5427850416,"tags":{"addr:city":"Варна","addr:housenumber":"1","addr:postcode":"9000","addr:street":"Студентска","air_conditioning":"yes","brand":"dm","brand:wikidata":"Q266572","opening_hours":"Mo-Su 09:00-20:00","phone":"+359 52 813 666","shop":"chemist","website":"https://www.dm-drogeriemarkt.bg/store/g033/varna/ul-studentska-1"},"wikidata":"Q266572","coordinates":[43.2241591,27.9305011]},"atp":false,"tags_mismatch":false},{"osm":{"type":"node","id":5522247322,"tags":{"addr:city":"София","addr:postcode":"1582","addr:street":"бул. Проф. Цветан Лазаров","brand":"dm","brand:wikidata":"Q266572","opening_hours":"Mo-Fr 08:00-20:00; Sa-Su 09:00-20:00","phone":"+359 2 421 8828","shop":"chemist","website":"https://www.dm-drogeriemarkt.bg/store/g01e/sofiya/zh-k-druzhba-bul-tsvetan-lazarov-206"},"wikidata":"Q266572","coordinates":[42.6551442,23.3992085]},"atp":false,"tags_mismatch":false},{"osm":{"type":"node","id":5741287121,"tags":{"addr:city":"София","addr:postcode":"1766","brand":"dm","brand:wikidata":"Q266572","check_date":"2024-02-02","internet_access":"wlan","internet_access:fee":"customers","opening_hours":"Mo-Fr 08:00-20:00; Sa 09:00-19:00; Su 10:00-18:00","payment:cash":"yes","payment:credit_cards":"yes","payment:debit_cards":"yes","phone":"+359 2 421 8992","shop":"chemist","website":"https://www.dm-drogeriemarkt.bg/store/g011/sofiya/zh-k-mladost-4-biznes-park-sgr-11","wheelchair":"yes"},"wikidata":"Q266572","coordinates":[42.6267005,23.3763697]},"atp":false,"tags_mismatch":false},{"osm":{"type":"node","id":5939144745,"tags":{"addr:city":"Благоевград","addr:postcode":"2700","brand":"dm","brand:wikidata":"Q266572","opening_hours":"Mo-Su 09:00-21:00","phone":"+359 73 588 654","shop":"chemist","website":"https://www.dm-drogeriemarkt.bg/store/g02k/blagoevgrad/trakiya-1"},"wikidata":"Q266572","coordinates":[42.0209235,23.1009018]},"atp":false,"tags_mismatch":false},{"osm":{"type":"node","id":6054196899,"tags":{"addr:city":"София","addr:housenumber":"5","addr:postcode":"1301","addr:street":"Пиротска","brand":"dm","brand:wikidata":"Q266572","check_date":"2024-09-02","check_date:opening_hours":"2021-03-18","opening_hours":"Mo-Su 08:00-20:00","phone":"+359 2 422 5345","shop":"chemist","website":"https://www.dm-drogeriemarkt.bg/store/g01f/sofiya/ul-pirotska-5"},"wikidata":"Q266572","coordinates":[42.6992933,23.3213297]},"atp":false,"tags_mismatch":false},{"osm":{"type":"node","id":6530416436,"tags":{"addr:city":"София","addr:housenumber":"3","addr:postcode":"1000","addr:street":"Съборна","brand":"dm","brand:wikidata":"Q266572","check_date":"2023-04-23","level":"-1","opening_hours":"Mo-Fr 08:00-20:00; Sa-Su 10:00-19:00","phone":"+359 88 246 6484","shop":"chemist","website":"https://www.dm-drogeriemarkt.bg/store/g03c/sofiya/ul-s-borna-3"},"wikidata":"Q266572","coordinates":[42.6958195,23.3242223]},"atp":false,"tags_mismatch":false},{"osm":{"type":"node","id":6561681759,"tags":{"addr:city":"София","addr:housename":"Сан Стефано плаза","addr:housenumber":"22","addr:postcode":"1504","addr:street":"Сан Стефано","brand":"dm","brand:wikidata":"Q266572","opening_hours":"Mo-Su 10:00-21:00","phone":"+359 2 424 4597","shop":"chemist","website":"https://www.dm-drogeriemarkt.bg/store/g02j/sofiya/san-stefano-22"},"wikidata":"Q266572","coordinates":[42.6918593,23.3379374]},"atp":false,"tags_mismatch":false},{"osm":{"type":"node","id":6568608410,"tags":{"addr:city":"София","addr:housenumber":"1","addr:postcode":"1000","addr:street":"Алабин","brand":"dm","brand:wikidata":"Q266572","check_date:opening_hours":"2024-09-21","opening_hours":"Mo-Fr 08:00-21:00; Sa 09:00-21:00; Su 09:00-20:00","phone":"+359 88 246 6408","shop":"chemist","website":"https://www.dm-drogeriemarkt.bg/store/g04c/sofiya/ul-alabin-1","wheelchair":"yes"},"wikidata":"Q266572","coordinates":[42.6949321,23.3159079]},"atp":false,"tags_mismatch":false},{"osm":{"type":"node","id":6580391632,"tags":{"addr:city":"София","addr:housenumber":"45","addr:postcode":"1618","addr:street":"Монтевидео","brand":"dm","brand:wikidata":"Q266572","opening_hours":"Mo-Su 09:00-21:00","phone":"+359 2 451 6177","shop":"chemist","website":"https://www.dm-drogeriemarkt.bg/store/g02m/sofiya/montevideo-45"},"wikidata":"Q266572","coordinates":[42.6866558,23.2551853]},"atp":false,"tags_mismatch":false},{"osm":{"type":"node","id":6637998351,"tags":{"addr:city":"Шумен","addr:housenumber":"64","addr:postcode":"9700","addr:street":"бул. Славянски","air_conditioning":"yes","brand":"dm","brand:wikidata":"Q266572","currency:BGN":"yes","internet_access":"wlan","level":"0","opening_hours":"Mo-Su 09:00-20:00","payment:cash":"yes","payment:contactless":"yes","payment:credit_cards":"yes","payment:debit_cards":"yes","payment:mastercard":"yes","payment:visa":"yes","phone":"+359 54 911 605","shop":"chemist","website":"https://www.dm-drogeriemarkt.bg/store/g02f/shumen/bul-slavyanski-64","wheelchair":"yes"},"wikidata":"Q266572","coordinates":[43.2710811,26.926835]},"atp":false,"tags_mismatch":false},{"osm":{"type":"node","id":6640296133,"tags":{"addr:city":"Варна","addr:postcode":"9023","brand":"dm","brand:wikidata":"Q266572","opening_hours":"Mo-Su 09:00-20:00","phone":"+359 52 816 199","shop":"chemist","website":"https://www.dm-drogeriemarkt.bg/store/g034/varna/konstantin-i-fruzhin-481"},"wikidata":"Q266572","coordinates":[43.2466505,27.8467945]},"atp":false,"tags_mismatch":false},{"osm":{"type":"node","id":6732322709,"tags":{"addr:city":"Хасково","addr:postcode":"6300","brand":"dm","brand:wikidata":"Q266572","opening_hours":"Mo-Su 09:00-20:00","phone":"+359 38 510 892","shop":"chemist","website":"https://www.dm-drogeriemarkt.bg/store/g00j/haskovo/pl-obshchinski-3"},"wikidata":"Q266572","coordinates":[41.9314614,25.5569319]},"atp":false,"tags_mismatch":false},{"osm":{"type":"node","id":6927327586,"tags":{"addr:city":"Пловдив","addr:postcode":"4000","brand":"dm","brand:wikidata":"Q266572","opening_hours":"Mo-Su 09:30-20:00","phone":"+359 32 307 890","shop":"chemist","website":"https://www.dm-drogeriemarkt.bg/store/g02a/plovdiv/ul-rajko-daskalov-8"},"wikidata":"Q266572","coordinates":[42.1490669,24.7480337]},"atp":false,"tags_mismatch":false},{"osm":{"type":"node","id":6932082186,"tags":{"addr:city":"Пловдив","addr:postcode":"4000","brand":"dm","brand:wikidata":"Q266572","opening_hours":"Mo-Su 09:00-21:00","phone":"+359 32 512 492","shop":"chemist","website":"https://www.dm-drogeriemarkt.bg/store/g01h/plovdiv/ul-vasil-levski-4"},"wikidata":"Q266572","coordinates":[42.1570044,24.7438612]},"atp":false,"tags_mismatch":false},{"osm":{"type":"node","id":7039050389,"tags":{"addr:city":"София","addr:housename":"Силвър Център","addr:housenumber":"28","addr:postcode":"1324","addr:street":"бул. Джавахарлал Неру","brand":"dm","brand:wikidata":"Q266572","opening_hours":"Mo-Su 09:00-20:00","phone":"+359 2 424 2035","shop":"chemist","website":"https://www.dm-drogeriemarkt.bg/store/g02e/sofiya/bul-dzhavaharlal-neru-28"},"wikidata":"Q266572","coordinates":[42.714799,23.254146]},"atp":false,"tags_mismatch":false},{"osm":{"type":"node","id":7482916452,"tags":{"addr:city":"Варна","addr:postcode":"9010","brand":"dm","brand:wikidata":"Q266572","opening_hours":"Mo-Su 09:00-20:00","phone":"+359 88 246 6490","shop":"chemist","website":"https://www.dm-drogeriemarkt.bg/store/g03i/varna/bul-osmi-primorski-polk-115"},"wikidata":"Q266572","coordinates":[43.2143315,27.9259069]},"atp":false,"tags_mismatch":false},{"osm":{"type":"node","id":8228250316,"tags":{"addr:city":"София","addr:postcode":"1407","brand":"dm","brand:wikidata":"Q266572","opening_hours":"Mo-Fr 08:00-21:00; Sa-Su 09:00-21:00","phone":"+359 88 246 6498","shop":"chemist","website":"https://www.dm-drogeriemarkt.bg/store/g042/sofiya/bul-dzhejms-baucher-103"},"wikidata":"Q266572","coordinates":[42.670042,23.3141208]},"atp":false,"tags_mismatch":false},{"osm":{"type":"node","id":8500719682,"tags":{"addr:city":"Ямбол","addr:postcode":"8600","brand":"dm","brand:wikidata":"Q266572","opening_hours":"Mo-Fr 09:00-20:00; Sa 09:00-20:30; Su 09:00-20:00","phone":"+359 88 246 6496","shop":"chemist","website":"https://www.dm-drogeriemarkt.bg/store/g040/yambol/ul-bitolya-37"},"wikidata":"Q266572","coordinates":[42.4769183,26.5123385]},"atp":false,"tags_mismatch":false},{"osm":{"type":"node","id":8728708657,"tags":{"addr:city":"София","addr:postcode":"1618","brand":"dm","brand:wikidata":"Q266572","opening_hours":"Mo-Fr 08:00-20:00; Sa 09:00-21:00; Su 09:00-20:00","phone":"+359 88 246 6492","shop":"chemist","website":"https://www.dm-drogeriemarkt.bg/store/g03k/sofiya/bul-bratya-b-kston-30"},"wikidata":"Q266572","coordinates":[42.6692718,23.2763907]},"atp":false,"tags_mismatch":false},{"osm":{"type":"node","id":9025316373,"tags":{"addr:city":"Русе","addr:postcode":"7000","brand":"dm","brand:wikidata":"Q266572","opening_hours":"Mo-Su 09:00-20:00","phone":"+359 88 246 6483","shop":"chemist","website":"https://www.dm-drogeriemarkt.bg/store/g03b/ruse/ul-aleksandrovska-73"},"wikidata":"Q266572","coordinates":[43.8507949,25.9552021]},"atp":false,"tags_mismatch":false},{"osm":{"type":"node","id":9025316374,"tags":{"addr:city":"Русе","addr:postcode":"7000","brand":"dm","brand:wikidata":"Q266572","opening_hours":"Mo-Su 09:00-20:00","phone":"+359 82 511 302","shop":"chemist","website":"https://www.dm-drogeriemarkt.bg/store/g01k/ruse/ul-hristo-danov-2"},"wikidata":"Q266572","coordinates":[43.8473652,25.9504913]},"atp":false,"tags_mismatch":false},{"osm":{"type":"node","id":9036247843,"tags":{"addr:city":"Пловдив","addr:postcode":"4000","brand":"dm","brand:wikidata":"Q266572","opening_hours":"Mo-Su 08:00-20:00","phone":"+359 32 512 311","shop":"chemist","website":"https://www.dm-drogeriemarkt.bg/store/g00k/plovdiv/ul-kapitan-rajcho-52"},"wikidata":"Q266572","coordinates":[42.1418829,24.7545262]},"atp":false,"tags_mismatch":false},{"osm":{"type":"node","id":9111338254,"tags":{"addr:city":"Бургас","addr:postcode":"8008","brand":"dm","brand:wikidata":"Q266572","opening_hours":"Mo-Su 10:00-21:00","phone":"+359 56 910 944","shop":"chemist","website":"https://www.dm-drogeriemarkt.bg/store/g004/burgas/ul-transportna-1"},"wikidata":"Q266572","coordinates":[42.5311579,27.458124]},"atp":false,"tags_mismatch":false},{"osm":{"type":"node","id":9129905591,"tags":{"addr:city":"Пловдив","addr:postcode":"4003","brand":"dm","brand:wikidata":"Q266572","opening_hours":"Mo-Fr 09:00-20:00; Sa 09:00-20:30; Su 09:00-20:00","phone":"+359 88 246 6482","shop":"chemist","website":"https://www.dm-drogeriemarkt.bg/store/g03a/plovdiv/bul-b-lgariya-115a"},"wikidata":"Q266572","coordinates":[42.15682,24.7286721]},"atp":false,"tags_mismatch":false},{"osm":{"type":"node","id":9348375766,"tags":{"addr:city":"София","addr:postcode":"1618","brand":"dm","brand:wikidata":"Q266572","opening_hours":"Mo-Su 08:00-21:00","phone":"+359 2 451 4761","shop":"chemist","website":"https://www.dm-drogeriemarkt.bg/store/g035/sofiya/hubcha-2"},"wikidata":"Q266572","coordinates":[42.6772177,23.2867582]},"atp":false,"tags_mismatch":false},{"osm":{"type":"node","id":9729652503,"tags":{"addr:city":"Гоце Делчев","addr:postcode":"2900","brand":"dm","brand:wikidata":"Q266572","opening_hours":"Mo-Su 09:00-20:00","phone":"+359 88 246 6494","shop":"chemist","website":"https://www.dm-drogeriemarkt.bg/store/g03m/gotse-delchev/ul-panairski-livadi-1"},"wikidata":"Q266572","coordinates":[41.5756194,23.7425092]},"atp":false,"tags_mismatch":false},{"osm":{"type":"node","id":9783894255,"tags":{"addr:city":"София","addr:postcode":"1330","brand":"dm","brand:wikidata":"Q266572","opening_hours":"Mo-Su 08:00-20:00","phone":"+359 2 401 2992","shop":"chemist","website":"https://www.dm-drogeriemarkt.bg/store/g016/sofiya/bul-v-zkresenie-132a"},"wikidata":"Q266572","coordinates":[42.6961845,23.2865588]},"atp":false,"tags_mismatch":false},{"osm":{"type":"node","id":9960927663,"tags":{"addr:city":"Горна Оряховица","addr:postcode":"5100","brand":"dm","brand:wikidata":"Q266572","opening_hours":"Mo-Su 09:00-20:00","phone":"+359 88 376 4100","shop":"chemist","website":"https://www.dm-drogeriemarkt.bg/store/g044/gorna-oryahovitsa/ul-vasil-levski-10","wheelchair":"yes"},"wikidata":"Q266572","coordinates":[43.1323916,25.6847498]},"atp":false,"tags_mismatch":false},{"osm":{"type":"node","id":10119103280,"tags":{"brand":"dm","brand:wikidata":"Q266572","check_date":"2022-12-28","opening_hours":"Mo-Su 09:00-21:00","payment:credit_cards":"yes","payment:debit_cards":"yes","payment:mastercard":"yes","payment:visa":"yes","phone":"+359 2 422 5426","shop":"chemist","website":"https://www.dm-drogeriemarkt.bg/store/g021/sofiya/ul-jordan-josifov-6","wheelchair":"limited"},"wikidata":"Q266572","coordinates":[42.6537907,23.3455191]},"atp":false,"tags_mismatch":false},{"osm":{"type":"node","id":10249380720,"tags":{"addr:city":"София","addr:postcode":"1784","brand":"dm","brand:wikidata":"Q266572","level":"0","opening_hours":"Mo-Su 10:00-22:00","phone":"+359 2 447 6277","shop":"chemist","website":"https://www.dm-drogeriemarkt.bg/store/g02c/sofiya/bul-tsarigradsko-shose-115"},"wikidata":"Q266572","coordinates":[42.6608944,23.3831882]},"atp":false,"tags_mismatch":false},{"osm":{"type":"node","id":10270062343,"tags":{"addr:city":"Сандански","addr:postcode":"2800","brand":"dm","brand:wikidata":"Q266572","opening_hours":"Mo-Su 09:00-20:00","phone":"+359 74 689 312","shop":"chemist","website":"https://www.dm-drogeriemarkt.bg/store/g026/sandanski/makedoniya-37"},"wikidata":"Q266572","coordinates":[41.5644052,23.2795517]},"atp":false,"tags_mismatch":false},{"osm":{"type":"node","id":10312722185,"tags":{"addr:city":"Плевен","addr:housenumber":"81","addr:postcode":"5800","addr:street":"Цар Самуил","brand":"dm","brand:wikidata":"Q266572","entrance":"yes","opening_hours":"Mo-Su 09:00-20:00","phone":"+359 64 910 992","shop":"chemist","website":"https://www.dm-drogeriemarkt.bg/store/g00d/pleven/zhk-storgoziya-ul-tsar-samuil-81a","wheelchair":"limited"},"wikidata":"Q266572","coordinates":[43.4240921,24.5963163]},"atp":false,"tags_mismatch":false},{"osm":{"type":"node","id":10592585909,"tags":{"addr:city":"Ямбол","addr:housenumber":"34","addr:postcode":"8600","addr:street":"Търговска","brand":"dm","brand:wikidata":"Q266572","opening_hours":"Mo-Su 08:30-20:00","phone":"+359 46 910 572","shop":"chemist","website":"https://www.dm-drogeriemarkt.bg/store/g020/yambol/ul-t-rgovska-34"},"wikidata":"Q266572","coordinates":[42.4817866,26.511764]},"atp":false,"tags_mismatch":false},{"osm":{"type":"node","id":10747755726,"tags":{"addr:city":"Пловдив","addr:postcode":"4000","brand":"dm","brand:wikidata":"Q266572","opening_hours":"Mo-Su 09:00-20:00","phone":"+359 88 376 4111","shop":"chemist","website":"https://www.dm-drogeriemarkt.bg/store/g04f/plovdiv/yl-vasil-levski-105"},"wikidata":"Q266572","coordinates":[42.1726327,24.7414878]},"atp":false,"tags_mismatch":false},{"osm":{"type":"node","id":10970480205,"tags":{"addr:city":"Враца","addr:housenumber":"9/2","addr:postcode":"3000","addr:street":"бул. Никола Войводов","brand":"dm","brand:wikidata":"Q266572","opening_hours":"Mo-Su 08:00-20:00","phone":"+359 92 910 992","shop":"chemist","website":"https://www.dm-drogeriemarkt.bg/store/g009/vratsa/ul-nikola-vojvodov-9-2"},"wikidata":"Q266572","coordinates":[43.2053332,23.5539582]},"atp":false,"tags_mismatch":false},{"osm":{"type":"node","id":10982942140,"tags":{"addr:city":"Перник","addr:postcode":"2300","brand":"dm","brand:wikidata":"Q266572","opening_hours":"Mo-Su 09:00-21:00","phone":"+359 88 376 4120","shop":"chemist","website":"https://www.dm-drogeriemarkt.bg/store/g050/pernik/ul-zahari-zograf-159"},"wikidata":"Q266572","coordinates":[42.6022846,23.0501639]},"atp":false,"tags_mismatch":false},{"osm":{"type":"node","id":10982993805,"tags":{"addr:city":"Пазарджик","addr:postcode":"4400","brand":"dm","brand:wikidata":"Q266572","opening_hours":"Mo-Su 10:00-20:00","phone":"+359 88 376 4112","shop":"chemist","website":"https://www.dm-drogeriemarkt.bg/store/g04g/pazardzhik/yl-dimcho-debelyanov-10"},"wikidata":"Q266572","coordinates":[42.1826357,24.3452244]},"atp":false,"tags_mismatch":false},{"osm":{"type":"node","id":11171422826,"tags":{"addr:city":"Хасково","addr:postcode":"6300","brand":"dm","brand:wikidata":"Q266572","opening_hours":"Mo-Su 09:00-20:00","phone":"+359 88 376 4117","shop":"chemist","website":"https://www.dm-drogeriemarkt.bg/store/g04l/haskovo/bul-g-s-rakovski-28-a"},"wikidata":"Q266572","coordinates":[41.9411142,25.5557928]},"atp":false,"tags_mismatch":false},{"osm":{"type":"node","id":11195324785,"tags":{"addr:city":"Монтана","addr:postcode":"3400","brand":"dm","brand:wikidata":"Q266572","opening_hours":"Mo-Su 09:00-21:00","phone":"+359 88 246 6497","shop":"chemist","website":"https://www.dm-drogeriemarkt.bg/store/g041/montana/bul-treti-mart-137b"},"wikidata":"Q266572","coordinates":[43.4184786,23.2268371]},"atp":false,"tags_mismatch":false},{"osm":{"type":"node","id":11206982239,"tags":{"addr:city":"Троян","addr:postcode":"5600","brand":"dm","brand:wikidata":"Q266572","opening_hours":"Mo-Su 09:00-21:00","phone":"+359 88 376 4106","shop":"chemist","website":"https://www.dm-drogeriemarkt.bg/store/g04a/troyan/yl-akademik-angel-balevski-1"},"wikidata":"Q266572","coordinates":[42.8926018,24.7154715]},"atp":false,"tags_mismatch":false},{"osm":{"type":"node","id":11214193156,"tags":{"addr:city":"София","addr:housenumber":"1","addr:postcode":"1415","addr:street":"Акад. Петър Динеков","brand":"dm","brand:wikidata":"Q266572","opening_hours":"Mo-Fr 08:00-21:00; Sa 09:00-21:00; Su 09:00-20:00","phone":"+359 88 376 4114","shop":"chemist","website":"https://www.dm-drogeriemarkt.bg/store/g04i/sofiya/ul-akad-pet-r-dinekov-1"},"wikidata":"Q266572","coordinates":[42.6396935,23.3112535]},"atp":false,"tags_mismatch":false},{"osm":{"type":"node","id":11215209402,"tags":{"addr:city":"София","addr:postcode":"1407","brand":"dm","brand:wikidata":"Q266572","level":"-1","opening_hours":"Mo-Su 10:00-22:00","phone":"+359 2 422 5491","shop":"chemist","website":"https://www.dm-drogeriemarkt.bg/store/g04n/sofiya/bul-cherni-vr-h-100"},"wikidata":"Q266572","coordinates":[42.658046,23.3149838]},"atp":false,"tags_mismatch":false},{"osm":{"type":"node","id":11233083736,"tags":{"addr:city":"Хасково","addr:postcode":"6300","brand":"dm","brand:wikidata":"Q266572","opening_hours":"Mo-Su 09:00-20:00","phone":"+359 88 376 4123","shop":"chemist","website":"https://www.dm-drogeriemarkt.bg/store/g053/haskovo/m-uvata-214-4"},"wikidata":"Q266572","coordinates":[41.9700897,25.5598785]},"atp":false,"tags_mismatch":false},{"osm":{"type":"node","id":11235300298,"tags":{"addr:city":"София","addr:postcode":"1715","brand":"dm","brand:wikidata":"Q266572","opening_hours":"Mo-Fr 09:00-20:00; Sa 09:00-21:00; Su 09:00-20:00","phone":"+359 88 246 6461","shop":"chemist","website":"https://www.dm-drogeriemarkt.bg/store/g047/sofiya/ul-d-r-atanas-moskov-20"},"wikidata":"Q266572","coordinates":[42.6358617,23.3738683]},"atp":false,"tags_mismatch":false},{"osm":{"type":"node","id":11253061342,"tags":{"addr:city":"Поморие","addr:postcode":"8200","brand":"dm","brand:wikidata":"Q266572","opening_hours":"Mo-Su 09:00-20:00","phone":"+359 88 376 4121","shop":"chemist","website":"https://www.dm-drogeriemarkt.bg/store/g051/pomorie/ul-knyaz-boris-i-104-b"},"wikidata":"Q266572","coordinates":[42.5658881,27.6220907]},"atp":false,"tags_mismatch":false},{"osm":{"type":"node","id":11254747836,"tags":{"addr:city":"Сливен","addr:postcode":"8800","brand":"dm","brand:wikidata":"Q266572","opening_hours":"Mo-Su 09:00-20:00","phone":"+359 88 376 4113","shop":"chemist","website":"https://www.dm-drogeriemarkt.bg/store/g04h/sliven/bul-georgi-danchev-26"},"wikidata":"Q266572","coordinates":[42.6824846,26.3409363]},"atp":false,"tags_mismatch":false},{"osm":{"type":"node","id":11255833053,"tags":{"addr:city":"София","addr:postcode":"1505","brand":"dm","brand:wikidata":"Q266572","opening_hours":"Mo-Su 08:00-21:00","phone":"+359 2 421 8996","shop":"chemist","website":"https://www.dm-drogeriemarkt.bg/store/g014/sofiya/ul-todorini-kukli-4"},"wikidata":"Q266572","coordinates":[42.7020111,23.3546415]},"atp":false,"tags_mismatch":false},{"osm":{"type":"node","id":11255836520,"tags":{"addr:city":"Перник","addr:postcode":"2300","brand":"dm","brand:wikidata":"Q266572","opening_hours":"Mo-Su 09:00-21:00","phone":"+359 76 510 992","shop":"chemist","website":"https://www.dm-drogeriemarkt.bg/store/g01c/pernik/ul-rakovska-2"},"wikidata":"Q266572","coordinates":[42.6053439,23.0368324]},"atp":false,"tags_mismatch":false},{"osm":{"type":"node","id":11256031498,"tags":{"addr:city":"Шумен","addr:postcode":"9700","brand":"dm","brand:wikidata":"Q266572","opening_hours":"Mo-Su 09:00-20:00","phone":"+359 88 246 6493","shop":"chemist","website":"https://www.dm-drogeriemarkt.bg/store/g03l/shumen/bul-tsar-simeon-veliki-37"},"wikidata":"Q266572","coordinates":[43.2743434,26.9441272]},"atp":false,"tags_mismatch":false},{"osm":{"type":"node","id":11256040542,"tags":{"addr:city":"Пловдив","addr:postcode":"4004","brand":"dm","brand:wikidata":"Q266572","opening_hours":"Mo-Su 09:00-21:00","phone":"+359 88 246 6481","shop":"chemist","website":"https://www.dm-drogeriemarkt.bg/store/g039/plovdiv/ul-makedoniya-95"},"wikidata":"Q266572","coordinates":[42.1227741,24.741087]},"atp":false,"tags_mismatch":false},{"osm":{"type":"node","id":11324280412,"tags":{"brand":"dm","brand:wikidata":"Q266572","check_date":"2024-03-13","internet_access":"no","level":"0","opening_hours":"Mo-Su 09:00-20:00","payment:cash":"yes","payment:credit_cards":"yes","payment:debit_cards":"yes","shop":"chemist","wheelchair":"yes"},"wikidata":"Q266572","coordinates":[42.6604597,23.2450646]},"atp":false,"tags_mismatch":false},{"osm":{"type":"node","id":11509482764,"tags":{"brand":"dm","brand:wikidata":"Q266572","shop":"chemist"},"wikidata":"Q266572","coordinates":[42.2671991,23.1135184]},"atp":false,"tags_mismatch":false},{"osm":{"type":"node","id":11509493362,"tags":{"brand":"dm","brand:wikidata":"Q266572","shop":"chemist"},"wikidata":"Q266572","coordinates":[42.7036033,24.1633435]},"atp":false,"tags_mismatch":false},{"osm":{"type":"node","id":11685130819,"tags":{"brand":"dm","brand:wikidata":"Q266572","shop":"chemist"},"wikidata":"Q266572","coordinates":[41.5722572,24.7164493]},"atp":false,"tags_mismatch":false},{"osm":{"type":"node","id":11723449706,"tags":{"brand":"dm","brand:wikidata":"Q266572","shop":"chemist"},"wikidata":"Q266572","coordinates":[42.6558864,23.5907742]},"atp":false,"tags_mismatch":false},{"osm":{"type":"node","id":11874807938,"tags":{"brand":"dm","brand:wikidata":"Q266572","shop":"chemist"},"wikidata":"Q266572","coordinates":[42.6521441,27.6719705]},"atp":false,"tags_mismatch":false},{"osm":{"type":"node","id":12073982248,"tags":{"brand":"dm","brand:wikidata":"Q266572","shop":"chemist"},"wikidata":"Q266572","coordinates":[42.8089842,23.2133456]},"atp":false,"tags_mismatch":false},{"osm":{"type":"node","id":12088524145,"tags":{"brand":"dm","brand:wikidata":"Q266572","opening_hours":"Mo-Su 09:00-20:00","shop":"chemist"},"wikidata":"Q266572","coordinates":[44.1200819,27.2604597]},"atp":false,"tags_mismatch":false},{"osm":{"type":"node","id":12110439575,"tags":{"brand":"dm","brand:wikidata":"Q266572","level":"-2","shop":"chemist"},"wikidata":"Q266572","coordinates":[42.664135,23.2887831]},"atp":false,"tags_mismatch":false},{"osm":{"type":"way","id":334574301,"tags":{"addr:city":"Бургас","addr:postcode":"8009","brand":"dm","brand:wikidata":"Q266572","building":"yes","opening_hours":"Mo-Fr 09:00-20:00; Sa 08:30-20:30; Su 09:00-20:00","phone":"+359 56 911 820","shop":"chemist","website":"https://www.dm-drogeriemarkt.bg/store/g024/burgas/zhk-meden-rudnik"},"wikidata":"Q266572","coordinates":[42.4580726,27.4154005]},"atp":false,"tags_mismatch":false},{"osm":{"type":"way","id":435601548,"tags":{"addr:city":"София","addr:housenumber":"14","addr:postcode":"1231","addr:street":"Ген. Никола Жеков","addr:suburb":"ж.к. Свобода","brand":"dm","brand:wikidata":"Q266572","building":"commercial","building:levels":"1","check_date":"2022-11-05","internet_access":"no","opening_hours":"Mo-Su 08:00-21:00","payment:mastercard":"yes","payment:visa":"yes","phone":"+359 2 451 0150","shop":"chemist","website":"https://www.dm-drogeriemarkt.bg/store/g030/sofiya/ul-gen-nikola-zhekov-14","wheelchair":"yes"},"wikidata":"Q266572","coordinates":[42.733985,23.3097343]},"atp":false,"tags_mismatch":false},{"osm":{"type":"way","id":839473011,"tags":{"addr:city":"Велинград","addr:postcode":"4600","brand":"dm","brand:wikidata":"Q266572","building":"yes","opening_hours":"Mo-Sa 09:00-20:00; Su 09:00-19:00","phone":"+359 88 376 4101","shop":"chemist","website":"https://www.dm-drogeriemarkt.bg/store/g045/velingrad/ul-krivolak-23a"},"wikidata":"Q266572","coordinates":[42.0233282,23.9948778]},"atp":false,"tags_mismatch":false},{"osm":{"type":"way","id":863394311,"tags":{"addr:city":"София","addr:housenumber":"30","addr:postcode":"1618","addr:street":"Тодор Каблешков","brand":"dm","brand:wikidata":"Q266572","building":"commercial","building:levels":"1","kids_area":"yes","kids_area:indoor":"no","opening_hours":"Mo-Sa 09:00-21:00; Su 10:00-20:00","phone":"+359 88 246 6491","roof:shape":"flat","shop":"chemist","website":"https://www.dm-drogeriemarkt.bg/store/g03j/sofiya/ul-todor-kableshkov-30","wheelchair":"yes"},"wikidata":"Q266572","coordinates":[42.6589613,23.3013178]},"atp":false,"tags_mismatch":false},{"osm":{"type":"way","id":1132987503,"tags":{"addr:city":"София","addr:postcode":"1700","brand":"dm","brand:wikidata":"Q266572","building":"yes","check_date":"2023-05-23","check_date:opening_hours":"2023-04-20","internet_access":"no","opening_hours":"Mo-Su 09:00-22:00","payment:contactless":"yes","payment:credit_cards":"yes","phone":"+359 88 376 4118","shop":"chemist","website":"https://www.dm-drogeriemarkt.bg/store/g04m/sofiya/ul-prof-d-r-ivan-stranski-20","wheelchair":"yes"},"wikidata":"Q266572","coordinates":[42.6420251,23.3367621]},"atp":false,"tags_mismatch":false}]}