{"metadata":{"type":"brand","wikidata":"Q138913","name":"Jysk","compare_keys":["website","opening_hours","addr:city","addr:postcode","addr:housenumber","addr:street","ref"]},"data":[{"osm":{"type":"node","id":410865121,"tags":{"addr:city":"Ямбол","addr:country":"BG","addr:housenumber":"7","addr:postcode":"8600","addr:street":"Арда","brand":"JYSK","brand:wikidata":"Q138913","opening_hours":"10:00-20:00","shop":"furniture"},"wikidata":"Q138913","coordinates":[42.4877903,26.5018188]},"atp":{"id":"C3XDHeBz8r_Ux_oApTRjgWVshKE=","tags":{"ref":"B213","shop":"furniture","addr:housenumber":"32","addr:street":"ул. Обиколна","addr:city":"София","addr:postcode":"1582","addr:country":"BG","name":"София, Дружба","phone":"+359 2 474 4546","website":"https://jysk.bg/magazini?storeId=B213","opening_hours":"Mo-Sa 10:00-20:00; Su 10:00-19:00","image":"https://cdn2.jysk.com/facades/B213/20190709053846873","brand":"JYSK","brand:wikidata":"Q138913"},"coordinates":[42.6425094,23.4078574]},"tags_mismatch":true},{"osm":{"type":"node","id":2570290451,"tags":{"addr:housenumber":"32","addr:postcode":"1582","addr:street":"Обиколна","brand":"JYSK","brand:wikidata":"Q138913","opening_hours":"Mo-Sa 10:00-20:00, Su 10:00-19:00","payment:cards":"yes","payment:cash":"yes","shop":"furniture","website":"https://jysk.bg/","wheelchair":"no"},"wikidata":"Q138913","coordinates":[42.6424928,23.4079133]},"atp":{"id":"ZpiQEYrJKEFkpARSFW3IVgXbD1Q=","tags":{"ref":"B255","shop":"furniture","addr:housenumber":"2","addr:street":"бул. Хан Аспарух","addr:city":"Велинград","addr:postcode":"4600","addr:country":"BG","name":"Велинград","phone":"+359 2 474 4546","website":"https://jysk.bg/magazini?storeId=B255","opening_hours":"Mo-Sa 10:00-20:00; Su 10:00-19:00","image":"https://cdn4.jysk.com/facades/B255/20240425161435463","brand":"JYSK","brand:wikidata":"Q138913"},"coordinates":[42.03115005389,24.004434949898]},"tags_mismatch":true},{"osm":{"type":"node","id":2647656005,"tags":{"addr:housenumber":"1","addr:street":"Резбарска","brand":"JYSK","brand:wikidata":"Q138913","opening_hours":"Mo-Sa 10:00-20:00;Su 10:00-19:00","shop":"furniture"},"wikidata":"Q138913","coordinates":[42.7097772,23.3451011]},"atp":{"id":"q4-TDB8LTJ3s-TuBIAbweN9mrl4=","tags":{"ref":"B228","shop":"furniture","addr:housenumber":"1ZH","addr:street":"ул. Резбарска","addr:city":"София","addr:postcode":"1000","addr:country":"BG","name":"София, Хаджи Димитър","phone":"+359 2 474 4546","website":"https://jysk.bg/magazini?storeId=B228","opening_hours":"Mo-Sa 10:00-20:00; Su 10:00-19:00","image":"https://cdn1.jysk.com/facades/B228/20191111125824677","brand":"JYSK","brand:wikidata":"Q138913"},"coordinates":[42.709838564367,23.345031026645]},"dist":8.907,"tags_mismatch":true},{"osm":{"type":"node","id":3393329319,"tags":{"brand":"JYSK","brand:wikidata":"Q138913","shop":"furniture"},"wikidata":"Q138913","coordinates":[42.5032849,27.4602389]},"atp":{"id":"TY1f8WILoTIPyoSOl4-XfOlfNAs=","tags":{"ref":"B206","shop":"furniture","addr:housenumber":"30","addr:street":"ул.Тодор Александров","addr:city":"Бургас","addr:postcode":"8000","addr:country":"BG","name":"Бургас, Трапезица","phone":"+359 2 474 4546","website":"https://jysk.bg/magazini?storeId=B206","opening_hours":"Mo-Sa 10:00-20:00; Su 10:00-19:00","image":"https://cdn3.jysk.com/facades/B206/20190709053844990","brand":"JYSK","brand:wikidata":"Q138913"},"coordinates":[42.503568982777,27.460262041602]},"dist":31.645,"tags_mismatch":true},{"osm":{"type":"node","id":4359053490,"tags":{"brand":"JYSK","brand:wikidata":"Q138913","opening_hours":"Mo-Sa 10:00-20:00; Su 10:00-19:00","shop":"furniture"},"wikidata":"Q138913","coordinates":[42.6381243,23.3724839]},"atp":{"id":"xBDO6VL0y-BqVRLwOyy70iwjY3Y=","tags":{"ref":"B203","shop":"furniture","addr:housenumber":"75","addr:street":"бул. Александър Малинов","addr:city":"София","addr:postcode":"1715","addr:country":"BG","name":"София, ХИТ Младост","phone":"+359 2 474 4546","website":"https://jysk.bg/magazini?storeId=B203","opening_hours":"Mo-Sa 10:00-20:00; Su 10:00-19:00","image":"https://cdn4.jysk.com/facades/B203/20190709053844513","brand":"JYSK","brand:wikidata":"Q138913"},"coordinates":[42.6380566,23.371878]},"dist":50.131,"tags_mismatch":true},{"osm":{"type":"node","id":5557190797,"tags":{"brand":"JYSK","brand:wikidata":"Q138913","shop":"furniture"},"wikidata":"Q138913","coordinates":[43.2232978,27.8731698]},"atp":{"id":"BGVTlLU6cyKTmRUnCE0lymRrCiA=","tags":{"ref":"B208","shop":"furniture","addr:housenumber":"55","addr:street":"бул. Република","addr:city":"Варна","addr:postcode":"9000","addr:country":"BG","name":"Варна, Ритейл Парк","phone":"+359 2 474 4546","website":"https://jysk.bg/magazini?storeId=B208","opening_hours":"Mo-Sa 10:00-20:00; Su 10:00-19:00","image":"https://cdn1.jysk.com/facades/B208/20220304081843047","brand":"JYSK","brand:wikidata":"Q138913"},"coordinates":[43.223228782013,27.873201899406]},"dist":8.103,"tags_mismatch":true},{"osm":{"type":"node","id":6414146654,"tags":{"addr:city":"София","addr:housenumber":"21","addr:postcode":"1220","addr:street":"бул. История Славянобългарска","brand":"JYSK","brand:wikidata":"Q138913","opening_hours":"Mo-Sa 10:00-20:00; Su 10:00-19:00","phone":"+359 2 474 4546","shop":"furniture","website":"https://jysk.bg"},"wikidata":"Q138913","coordinates":[42.717975,23.3149707]},"atp":{"id":"ZDMbK8jXtxeEAEhwbuJytQwH0hI=","tags":{"ref":"B219","shop":"furniture","addr:housenumber":"21","addr:street":"бул. История Славянобългарска","addr:city":"София","addr:postcode":"1220","addr:country":"BG","name":"София, Средец","phone":"+359 2 474 4546","website":"https://jysk.bg/magazini?storeId=B219","opening_hours":"Mo-Sa 10:00-20:00; Su 10:00-19:00","image":"https://cdn4.jysk.com/facades/B219/20230713151840797","brand":"JYSK","brand:wikidata":"Q138913"},"coordinates":[42.7181963,23.3145033]},"dist":45.426,"tags_mismatch":true},{"osm":{"type":"node","id":9381549112,"tags":{"addr:city":"Търговище","addr:housenumber":"29","addr:postcode":"7700","addr:street":"бул. Сюрен","brand":"JYSK","brand:wikidata":"Q138913","opening_hours":"Mo-Fr 10:00-20:00; Sa-Su 12:00-20:00","shop":"furniture"},"wikidata":"Q138913","coordinates":[43.2418333,26.557936]},"atp":{"id":"rYbYnjrDfyyGuxJM7X2CmZdyWHE=","tags":{"ref":"B237","shop":"furniture","addr:housenumber":"29","addr:street":"бул. Сюрен","addr:city":"Търговище","addr:postcode":"7700","addr:country":"BG","name":"Търговище","phone":"+359 2 474 4546","website":"https://jysk.bg/magazini?storeId=B237","opening_hours":"Mo-Sa 10:00-20:00; Su 10:00-19:00","image":"https://cdn2.jysk.com/facades/B237/20210716123559743","brand":"JYSK","brand:wikidata":"Q138913"},"coordinates":[43.241753306324,26.558193012384]},"dist":22.639,"tags_mismatch":true},{"osm":{"type":"node","id":9960899803,"tags":{"brand":"JYSK","brand:wikidata":"Q138913","shop":"furniture","wheelchair":"yes"},"wikidata":"Q138913","coordinates":[43.1322241,25.683906]},"atp":{"id":"A7j82ORQcYiP90WveWUUFKA7xTY=","tags":{"ref":"B238","shop":"furniture","addr:housenumber":"8-10","addr:street":"ул. Васил Левски","addr:city":"Горна Оряховица","addr:postcode":"5100","addr:country":"BG","name":"Горна Оряховица","phone":"+359 2 474 4546","website":"https://jysk.bg/magazini?storeId=B238","opening_hours":"Mo-Sa 10:00-20:00; Su 10:00-19:00","image":"https://cdn3.jysk.com/facades/B238/20220304081904617","brand":"JYSK","brand:wikidata":"Q138913"},"coordinates":[43.132195774814,25.683977117316]},"dist":6.575,"tags_mismatch":true},{"osm":{"type":"node","id":9976150166,"tags":{"brand":"JYSK","brand:wikidata":"Q138913","opening_hours":"Mo-Sa 10:00-20:00; Su 10:00-19:00","shop":"furniture"},"wikidata":"Q138913","coordinates":[42.7025653,23.2840729]},"atp":{"id":"YlRJTOfm4uz8mz1sKLHcbAi8O-M=","tags":{"ref":"B204","shop":"furniture","addr:housenumber":"196","addr:street":"бул. Александър Стамболийски","addr:city":"София","addr:postcode":"1330","addr:country":"BG","name":"София, Западен парк","phone":"+359 2 474 4546","website":"https://jysk.bg/magazini?storeId=B204","opening_hours":"Mo-Sa 10:00-20:00; Su 10:00-19:00","image":"https://cdn1.jysk.com/facades/B204/20190709053844673","brand":"JYSK","brand:wikidata":"Q138913"},"coordinates":[42.7025108,23.2842129]},"dist":12.946,"tags_mismatch":true},{"osm":{"type":"node","id":10249380663,"tags":{"brand":"JYSK","brand:wikidata":"Q138913","level":"-2","shop":"furniture"},"wikidata":"Q138913","coordinates":[42.6609661,23.3835904]},"atp":{"id":"pi85Hnpixy973byuTmLY43dsSl8=","tags":{"ref":"B226","shop":"furniture","addr:housenumber":"115Z","addr:street":"бул. Цариградско шосе","addr:city":"София","addr:postcode":"1784","addr:country":"BG","name":"София, Дъ Мол","phone":"+359 2 474 4546","website":"https://jysk.bg/magazini?storeId=B226","opening_hours":"Mo-Su 10:00-22:00","image":"https://cdn3.jysk.com/facades/B226/20191111130109847","brand":"JYSK","brand:wikidata":"Q138913"},"coordinates":[42.66073856766,23.382107872558]},"dist":123.839,"tags_mismatch":true},{"osm":{"type":"node","id":10312774975,"tags":{"addr:city":"Плевен","addr:housenumber":"2","addr:postcode":"5801","addr:street":"Иван Мендиликов","brand":"JYSK","brand:wikidata":"Q138913","opening_hours":"Mo-Sa 10:00-20:00; Su 10:00-19:00","ref":"B205","shop":"furniture","website":"https://jysk.bg/magazini?storeId=B205","wheelchair":"yes"},"wikidata":"Q138913","coordinates":[43.4195235,24.6105008]},"atp":{"id":"biynHKRp_XVH6lG4ZaNlcruUsBo=","tags":{"ref":"B205","shop":"furniture","addr:housenumber":"2","addr:street":"ул. Иван Мендиликов","addr:city":"Плевен","addr:postcode":"5801","addr:country":"BG","name":"Плевен","phone":"+359 2 474 4546","website":"https://jysk.bg/magazini?storeId=B205","opening_hours":"Mo-Sa 10:00-20:00; Su 10:00-19:00","image":"https://cdn2.jysk.com/facades/B205/20211202083033313","brand":"JYSK","brand:wikidata":"Q138913"},"coordinates":[43.419488143365,24.610489993779]},"dist":4.027,"tags_mismatch":true},{"osm":{"type":"node","id":10745036737,"tags":{"brand":"JYSK","brand:wikidata":"Q138913","fixme":"verify exact position","shop":"furniture"},"wikidata":"Q138913","coordinates":[42.1572535,24.7285452]},"atp":{"id":"e_wlF3mtBkwE_L9pEiL2cPzIQOM=","tags":{"ref":"B215","shop":"furniture","addr:housenumber":"115A","addr:street":"бул. България","addr:city":"Пловдив","addr:postcode":"4000","addr:country":"BG","name":"Пловдив, Кършияка","phone":"+359 2 474 4546","website":"https://jysk.bg/magazini?storeId=B215","opening_hours":"Mo-Sa 10:00-20:00; Su 10:00-19:00","image":"https://cdn4.jysk.com/facades/B215/20240229112854667","brand":"JYSK","brand:wikidata":"Q138913"},"coordinates":[42.15666881368,24.728843077385]},"dist":69.496,"tags_mismatch":true},{"osm":{"type":"node","id":10747755736,"tags":{"brand":"JYSK","brand:wikidata":"Q138913","shop":"furniture"},"wikidata":"Q138913","coordinates":[42.174061,24.741236]},"atp":{"id":"IW--9RFteZOMVa3vsaK7avrOX58=","tags":{"ref":"B247","shop":"furniture","addr:housenumber":"105","addr:street":"ул. Васил Левски","addr:city":"Пловдив","addr:postcode":"4000","addr:country":"BG","name":"Пловдив, ВИА Парк Север","phone":"+359 2 474 4546","website":"https://jysk.bg/magazini?storeId=B247","opening_hours":"Mo-Sa 10:00-20:00; Su 10:00-19:00","image":"https://cdn4.jysk.com/facades/B247/20221116135855367","brand":"JYSK","brand:wikidata":"Q138913"},"coordinates":[42.1739875,24.741086]},"dist":14.819,"tags_mismatch":true},{"osm":{"type":"node","id":10806881086,"tags":{"brand":"JYSK","brand:wikidata":"Q138913","shop":"furniture"},"wikidata":"Q138913","coordinates":[42.2733527,23.1292732]},"atp":{"id":"MFK6BYskhSECVEvqqXPnb7QO-0c=","tags":{"ref":"B236","shop":"furniture","addr:housenumber":"64","addr:street":"ул. Орлинска","addr:city":"Дупница","addr:postcode":"2600","addr:country":"BG","name":"Дупница","phone":"+359 2 474 4546","website":"https://jysk.bg/magazini?storeId=B236","opening_hours":"Mo-Sa 10:00-20:00; Su 10:00-19:00","image":"https://cdn1.jysk.com/facades/B236/20201217165335907","brand":"JYSK","brand:wikidata":"Q138913"},"coordinates":[42.273203102266,23.129764001614]},"dist":43.674,"tags_mismatch":true},{"osm":{"type":"node","id":10982993810,"tags":{"brand":"JYSK","brand:wikidata":"Q138913","opening_hours":"Mo-Sa 10:00-20:00; Su 10:00-19:00","shop":"furniture"},"wikidata":"Q138913","coordinates":[42.1832954,24.3448464]},"atp":{"id":"IjI7rf5dx6J7veo9WbEYoa_QFrI=","tags":{"ref":"B210","shop":"furniture","addr:housenumber":"10","addr:street":"ул. Димчо Дебелянов","addr:city":"Пазарджик","addr:postcode":"4400","addr:country":"BG","name":"Пазарджик, Холидей Ритейл парк","phone":"+359 2 474 4546","website":"https://jysk.bg/magazini?storeId=B210","opening_hours":"Mo-Sa 10:00-20:00; Su 10:00-19:00","image":"https://cdn3.jysk.com/facades/B210/20230601142153207","brand":"JYSK","brand:wikidata":"Q138913"},"coordinates":[42.183451678466,24.344832207828]},"dist":17.417,"tags_mismatch":true},{"osm":{"type":"node","id":11171713011,"tags":{"brand":"JYSK","brand:wikidata":"Q138913","level":"-1","shop":"furniture","wheelchair":"yes"},"wikidata":"Q138913","coordinates":[42.6252242,23.3513624]},"atp":{"id":"MCkm8VKwoGL6uMbYgl2wMftMSNo=","tags":{"ref":"B211","shop":"furniture","addr:street":"Околовръстен път 214","addr:city":"София","addr:postcode":"1434","addr:country":"BG","name":"София, Ринг Мол","phone":"+359 2 474 4546","website":"https://jysk.bg/magazini?storeId=B211","opening_hours":"Mo-Su 10:00-22:00","image":"https://cdn4.jysk.com/facades/B211/20220804140637550","brand":"JYSK","brand:wikidata":"Q138913"},"coordinates":[42.625012241799,23.350931776443]},"dist":42.389,"tags_mismatch":true},{"osm":{"type":"node","id":11207627313,"tags":{"brand":"JYSK","brand:wikidata":"Q138913","shop":"furniture"},"wikidata":"Q138913","coordinates":[42.4778669,26.5177168]},"atp":{"id":"S98zuIOhlKKOOlvvWCjIhhqOwQ8=","tags":{"ref":"B218","shop":"furniture","addr:housenumber":"28","addr:street":"бул. Граф Игнатиев","addr:city":"Ямбол","addr:postcode":"8602","addr:country":"BG","name":"Ямбол","phone":"+359 2 474 4546","website":"https://jysk.bg/magazini?storeId=B218","opening_hours":"Mo-Sa 10:00-20:00; Su 10:00-19:00","image":"https://cdn3.jysk.com/facades/B218/20210923170319887","brand":"JYSK","brand:wikidata":"Q138913"},"coordinates":[42.478165215533,26.517624882763]},"dist":34.017,"tags_mismatch":true},{"osm":{"type":"node","id":11254816939,"tags":{"brand":"JYSK","brand:wikidata":"Q138913","shop":"furniture"},"wikidata":"Q138913","coordinates":[42.6821602,26.3410032]},"atp":{"id":"ThXPvsOX1zXhovVzvEDCKN8SPOA=","tags":{"ref":"B216","shop":"furniture","addr:housenumber":"26","addr:street":"бул. Георги Данчев","addr:city":"Сливен","addr:postcode":"8808","addr:country":"BG","name":"Сливен","phone":"+359 2 474 4546","website":"https://jysk.bg/magazini?storeId=B216","opening_hours":"Mo-Sa 10:00-20:00; Su 10:00-19:00","image":"https://cdn1.jysk.com/facades/B216/20221103154018007","brand":"JYSK","brand:wikidata":"Q138913"},"coordinates":[42.6825037,26.3410361]},"dist":38.29,"tags_mismatch":true},{"osm":{"type":"node","id":11256040544,"tags":{"brand":"JYSK","brand:wikidata":"Q138913","shop":"furniture"},"wikidata":"Q138913","coordinates":[42.1228238,24.741496]},"atp":{"id":"r3VR3Z2MTEhyGzoWNH-CmWPq1rc=","tags":{"ref":"B223","shop":"furniture","addr:housenumber":"95","addr:street":"ул. Македония","addr:city":"Пловдив","addr:postcode":"4000","addr:country":"BG","name":"Пловдив, Ритейл Парк Райков","phone":"+359 2 474 4546","website":"https://jysk.bg/magazini?storeId=B223","opening_hours":"Mo-Sa 10:00-20:00; Su 10:00-19:00","image":"https://cdn4.jysk.com/facades/B223/20231115161816070","brand":"JYSK","brand:wikidata":"Q138913"},"coordinates":[42.122846182889,24.741470335322]},"dist":3.267,"tags_mismatch":true},{"osm":{"type":"node","id":11300967688,"tags":{"addr:city":"Монтана","addr:housenumber":"216А","addr:postcode":"3400","addr:street":"бул. Трети Март","brand":"JYSK","brand:wikidata":"Q138913","opening_hours":"Mo-Sa 10:00-20:00; Su 10:00-19:00","ref":"B224","shop":"furniture","website":"https://jysk.bg/magazini?storeId=B224"},"wikidata":"Q138913","coordinates":[43.422331,23.2288605]},"atp":{"id":"VFnAtA8cdhUxwcJr4elys_0iLQ0=","tags":{"ref":"B224","shop":"furniture","addr:housenumber":"216A","addr:street":"бул. 3-ти Март","addr:city":"Монтана","addr:postcode":"3400","addr:country":"BG","name":"Монтана","phone":"+359 2 474 4546","website":"https://jysk.bg/magazini?storeId=B224","opening_hours":"Mo-Sa 10:00-20:00; Su 10:00-19:00","image":"https://cdn1.jysk.com/facades/B224/20191111130158027","brand":"JYSK","brand:wikidata":"Q138913"},"coordinates":[43.422073575832,23.228776189113]},"dist":29.423,"tags_mismatch":true},{"osm":{"type":"node","id":11341534671,"tags":{"brand":"JYSK","brand:wikidata":"Q138913","opening_hours":"Mo-Su 10:00-20:00","shop":"furniture"},"wikidata":"Q138913","coordinates":[42.7095417,23.4573491]},"atp":{"id":"v2aPdOC2NzUxoOwkt5Y2eJqsIrY=","tags":{"ref":"B214","shop":"furniture","addr:housenumber":"525","addr:street":"бул. Ботевградско шосе","addr:city":"София","addr:postcode":"1839","addr:country":"BG","name":"София, Джъмбо Плаза","phone":"+359 2 474 4546","website":"https://jysk.bg/magazini?storeId=B214","opening_hours":"Mo-Sa 10:00-20:00; Su 10:00-19:00","image":"https://cdn3.jysk.com/facades/B214/20220113143938950","brand":"JYSK","brand:wikidata":"Q138913"},"coordinates":[42.709539389473,23.457347708506]},"dist":0.281,"tags_mismatch":true},{"osm":{"type":"node","id":11509493368,"tags":{"brand":"JYSK","brand:wikidata":"Q138913","shop":"furniture"},"wikidata":"Q138913","coordinates":[42.7037735,24.1621086]},"atp":{"id":"6OwkbzKNOustu2-XDli6o55wGrA=","tags":{"ref":"B245","shop":"furniture","addr:street":"Международен път Е871","addr:city":"Пирдоп","addr:postcode":"2070","addr:country":"BG","name":"Пирдоп","phone":"+359 2 474 4546","website":"https://jysk.bg/magazini?storeId=B245","opening_hours":"Mo-Sa 10:00-20:00; Su 10:00-19:00","image":"https://cdn2.jysk.com/facades/B245/20220706183852990","brand":"JYSK","brand:wikidata":"Q138913"},"coordinates":[42.703742714229,24.162185978675]},"dist":7.19,"tags_mismatch":true},{"osm":{"type":"node","id":11608677341,"tags":{"brand":"JYSK","brand:wikidata":"Q138913","level":"1","shop":"furniture"},"wikidata":"Q138913","coordinates":[41.6147986,25.3757896]},"atp":{"id":"3BT73k0ATZx2ZYyGPE4_hejHhRM=","tags":{"ref":"B244","shop":"furniture","addr:housenumber":"45","addr:street":"ул. 1-ви Май","addr:city":"Кърджали","addr:postcode":"6600","addr:country":"BG","name":"Кърджали","phone":"+359 2 474 4546","website":"https://jysk.bg/magazini?storeId=B244","opening_hours":"Mo-Sa 10:00-20:00; Su 10:00-19:00","image":"https://cdn1.jysk.com/facades/B244/20220825092501957","brand":"JYSK","brand:wikidata":"Q138913"},"coordinates":[41.614764365796,25.376317151312]},"dist":44.021,"tags_mismatch":true},{"osm":{"type":"node","id":11685130814,"tags":{"brand":"JYSK","brand:wikidata":"Q138913","shop":"furniture"},"wikidata":"Q138913","coordinates":[41.5726121,24.7154691]},"atp":{"id":"VsEJ3--UZBN_0yc_O8cNd74bZQY=","tags":{"ref":"B248","shop":"furniture","addr:housenumber":"24","addr:street":"ул. Белия камък","addr:city":"Смолян","addr:postcode":"4700","addr:country":"BG","name":"Смолян","phone":"+359 2 474 4546","website":"https://jysk.bg/magazini?storeId=B248","opening_hours":"Mo-Sa 10:00-20:00; Su 10:00-19:00","image":"https://cdn1.jysk.com/facades/B248/20221215181907073","brand":"JYSK","brand:wikidata":"Q138913"},"coordinates":[41.572428303848,24.715153818009]},"dist":33.25,"tags_mismatch":true},{"osm":{"type":"node","id":11723449709,"tags":{"brand":"JYSK","brand:wikidata":"Q138913","shop":"furniture"},"wikidata":"Q138913","coordinates":[42.6565038,23.5909754]},"atp":{"id":"d51KqKBKY9iQvCSUJiih8ZoifRU=","tags":{"ref":"B253","shop":"furniture","addr:housenumber":"25","addr:street":"бул. Витоша","addr:city":"Елин Пелин","addr:postcode":"2100","addr:country":"BG","name":"Елин Пелин","phone":"+359 2 474 4546","website":"https://jysk.bg/magazini?storeId=B253","opening_hours":"Mo-Sa 10:00-20:00; Su 10:00-19:00","image":"https://cdn2.jysk.com/facades/B253/20240130113959470","brand":"JYSK","brand:wikidata":"Q138913"},"coordinates":[42.6566797,23.5906427]},"dist":33.508,"tags_mismatch":true},{"osm":{"type":"node","id":11731270639,"tags":{"brand":"JYSK","brand:wikidata":"Q138913","shop":"furniture"},"wikidata":"Q138913","coordinates":[43.2794949,26.9276599]},"atp":{"id":"pHP5Wz-Ybcakomtzf_2vezJtLaI=","tags":{"ref":"B217","shop":"furniture","addr:housenumber":"1","addr:street":"ул. Кралевиче","addr:city":"Шумен","addr:postcode":"9703","addr:country":"BG","name":"Шумен","phone":"+359 2 474 4546","website":"https://jysk.bg/magazini?storeId=B217","opening_hours":"Mo-Sa 10:00-20:00; Su 10:00-19:00","image":"https://cdn2.jysk.com/facades/B217/20240313180727293","brand":"JYSK","brand:wikidata":"Q138913"},"coordinates":[43.28002977249,26.927630782552]},"dist":59.522,"tags_mismatch":true},{"osm":{"type":"node","id":11874807946,"tags":{"brand":"JYSK","brand:wikidata":"Q138913","shop":"furniture"},"wikidata":"Q138913","coordinates":[42.6524544,27.6728583]},"atp":{"id":"_RYsKqiuLav2JDwnSbl-VEh2W7s=","tags":{"ref":"B254","shop":"furniture","addr:housenumber":"2","addr:street":"местност Чатал Тепе","addr:city":"Равда","addr:postcode":"8238","addr:country":"BG","name":"Равда","phone":"+359 2 474 4546","website":"https://jysk.bg/magazini?storeId=B254","opening_hours":"Mo-Sa 10:00-20:00; Su 10:00-19:00","image":"https://cdn3.jysk.com/facades/B254/20240117213122190","brand":"JYSK","brand:wikidata":"Q138913"},"coordinates":[42.653370632548,27.672220026489]},"dist":114.474,"tags_mismatch":true},{"osm":{"type":"node","id":12110439574,"tags":{"brand":"JYSK","brand:wikidata":"Q138913","level":"-2","shop":"furniture"},"wikidata":"Q138913","coordinates":[42.6640731,23.2887065]},"atp":{"id":"aK_2TnB5QOFUrimqw1cPD2ClwVs=","tags":{"ref":"B229","shop":"furniture","addr:housenumber":"69","addr:street":"бул. България","addr:city":"София","addr:postcode":"1404","addr:country":"BG","name":"София, Мол България","phone":"+359 2 474 4546","website":"https://jysk.bg/magazini?storeId=B229","opening_hours":"Mo-Su 10:00-21:00","image":"https://cdn2.jysk.com/facades/B229/20200708170356117","brand":"JYSK","brand:wikidata":"Q138913"},"coordinates":[42.664282650982,23.28773873046]},"dist":82.49,"tags_mismatch":true},{"osm":{"type":"way","id":138398286,"tags":{"brand":"JYSK","brand:wikidata":"Q138913","building":"yes","shop":"furniture"},"wikidata":"Q138913","coordinates":[42.4197633,25.6078808]},"atp":{"id":"sPXO2I_7sN4i42DR9b11fEC8iFE=","tags":{"ref":"B207","shop":"furniture","addr:housenumber":"20","addr:street":"ул. Капитан Петко Войвода","addr:city":"Стара Загора","addr:postcode":"6009","addr:country":"BG","name":"Стара Загора, Billa","phone":"+359 2 474 4546","website":"https://jysk.bg/magazini?storeId=B207","opening_hours":"Mo-Sa 10:00-20:00; Su 10:00-19:00","image":"https://cdn4.jysk.com/facades/B207/20190709053845160","brand":"JYSK","brand:wikidata":"Q138913"},"coordinates":[42.4198924,25.608281]},"dist":35.851,"tags_mismatch":true},{"osm":{"type":"way","id":234243648,"tags":{"addr:city":"Видин","addr:postcode":"3701","addr:street":"бул. Панония","brand":"JYSK","brand:wikidata":"Q138913","building":"yes","opening_hours":"Mo-Sa 10:00-20:00; Su 10:00-19:00","ref":"B222","shop":"furniture","website":"https://jysk.bg/magazini?storeId=B222"},"wikidata":"Q138913","coordinates":[44.0072272,22.8818118]},"atp":{"id":"09xAAlD0Bec64upP77pu0MpSzrE=","tags":{"ref":"B222","shop":"furniture","addr:housenumber":"67","addr:street":"бул. Панония","addr:city":"Видин","addr:postcode":"3701","addr:country":"BG","name":"Видин","phone":"+359 2 474 4546","website":"https://jysk.bg/magazini?storeId=B222","opening_hours":"Mo-Sa 10:00-20:00; Su 10:00-19:00","image":"https://cdn3.jysk.com/facades/B222/20230614131356730","brand":"JYSK","brand:wikidata":"Q138913"},"coordinates":[44.007042982686,22.881781813492]},"dist":20.624,"tags_mismatch":true},{"osm":{"type":"way","id":284577265,"tags":{"brand":"JYSK","brand:wikidata":"Q138913","building":"yes","shop":"furniture","website":"https://jysk.bg/"},"wikidata":"Q138913","coordinates":[42.0133989,24.8706662]},"atp":{"id":"B_fPQqRAetlVhhKskeDmAv6VXpw=","tags":{"ref":"B209","shop":"furniture","addr:housenumber":"18","addr:street":"ул. Васил Левски","addr:city":"Асеновград","addr:postcode":"4230","addr:country":"BG","name":"Асеновград","phone":"+359 2 474 4546","website":"https://jysk.bg/magazini?storeId=B209","opening_hours":"Mo-Sa 10:00-20:00; Su 10:00-19:00","image":"https://cdn2.jysk.com/facades/B209/20240619144846027","brand":"JYSK","brand:wikidata":"Q138913"},"coordinates":[42.0133288,24.8707531]},"dist":10.597,"tags_mismatch":true},{"osm":{"type":"way","id":308896850,"tags":{"addr:city":"Хасково","addr:housenumber":"77","addr:postcode":"6300","addr:street":"Съединение","brand":"JYSK","brand:wikidata":"Q138913","building":"yes","note":"731.146.1","opening_hours":"Mo-Fr 08:30-19:00; Sa 09:00-17:30","shop":"furniture","website":"https://jysk.bg/"},"wikidata":"Q138913","coordinates":[41.9317027,25.6035646]},"atp":{"id":"MQZiMqG33hry1Q1Mb7SeahPegMQ=","tags":{"ref":"B232","shop":"furniture","addr:housenumber":"77","addr:street":"бул. Съединение","addr:city":"Хасково","addr:postcode":"6300","addr:country":"BG","name":"Хасково","phone":"+359 2 474 4546","website":"https://jysk.bg/magazini?storeId=B232","opening_hours":"Mo-Sa 10:00-20:00; Su 10:00-19:00","image":"https://cdn1.jysk.com/facades/B232/20200207144733957","brand":"JYSK","brand:wikidata":"Q138913"},"coordinates":[41.93155663674,25.603568045894]},"dist":16.244,"tags_mismatch":true},{"osm":{"type":"way","id":324074390,"tags":{"brand":"JYSK","brand:wikidata":"Q138913","building":"yes","shop":"furniture"},"wikidata":"Q138913","coordinates":[42.8926989,24.7171203]},"atp":{"id":"1Onrz3q9OdCZICy9chORAy6n2jA=","tags":{"ref":"B246","shop":"furniture","addr:housenumber":"1","addr:street":"ул. Академик Ангел Балевски","addr:city":"Троян","addr:postcode":"5600","addr:country":"BG","name":"Троян","phone":"+359 2 474 4546","website":"https://jysk.bg/magazini?storeId=B246","opening_hours":"Mo-Sa 10:00-20:00; Su 10:00-19:00","image":"https://cdn3.jysk.com/facades/B246/20220428122431143","brand":"JYSK","brand:wikidata":"Q138913"},"coordinates":[42.892861038526,24.716929140506]},"dist":23.823,"tags_mismatch":true},{"osm":{"type":"way","id":442181513,"tags":{"addr:street":"Околовръстен път","brand":"JYSK","brand:wikidata":"Q138913","building":"yes","opening_hours":"Mo-Su 10:00-20:00","shop":"furniture","website":"https://jysk.bg"},"wikidata":"Q138913","coordinates":[43.5510148,27.8380201]},"atp":{"id":"65qSMI_Ea9SlGb8crtDCC-yabCQ=","tags":{"ref":"B220","shop":"furniture","addr:housenumber":"2","addr:street":"ул. Околовръстен път Дружба IV","addr:city":"Добрич","addr:postcode":"9300","addr:country":"BG","name":"Добрич","phone":"+359 2 474 4546","website":"https://jysk.bg/magazini?storeId=B220","opening_hours":"Mo-Sa 10:00-20:00; Su 10:00-19:00","image":"https://cdn1.jysk.com/facades/B220/20230103122600327","brand":"JYSK","brand:wikidata":"Q138913"},"coordinates":[43.55087888353,27.837838795302]},"dist":21.021,"tags_mismatch":true},{"osm":{"type":"way","id":509179342,"tags":{"brand":"JYSK","brand:wikidata":"Q138913","building":"yes","shop":"furniture"},"wikidata":"Q138913","coordinates":[42.6102173,23.038021]},"atp":{"id":"Z1YuR16tGSFPrR_4A9sIIHA_poM=","tags":{"ref":"B212","shop":"furniture","addr:housenumber":"21","addr:street":"ул. Св.Св. Кирил и Методий","addr:city":"Перник","addr:postcode":"2302","addr:country":"BG","name":"Перник","phone":"+359 2 474 4546","website":"https://jysk.bg/magazini?storeId=B212","opening_hours":"Mo-Sa 10:00-20:00; Su 10:00-19:00","image":"https://cdn1.jysk.com/facades/B212/20220331153145993","brand":"JYSK","brand:wikidata":"Q138913"},"coordinates":[42.610077335524,23.038290512906]},"dist":26.994,"tags_mismatch":true},{"osm":{"type":"way","id":518322996,"tags":{"brand":"JYSK","brand:wikidata":"Q138913","building":"yes","opening_hours":"Mo-Sa 10:00-20:00; Su 10:00-19:00","shop":"furniture","website":"https://jysk.bg/"},"wikidata":"Q138913","coordinates":[42.675961,26.3213256]},"atp":{"id":"Atbz-mx7IVhy3HiGuybc36SgCc0=","tags":{"ref":"B227","shop":"furniture","addr:housenumber":"2","addr:street":"ул. Лайпциг","addr:city":"Димитровград","addr:postcode":"6400","addr:country":"BG","name":"Димитровград","phone":"+359 2 474 4546","website":"https://jysk.bg/magazini?storeId=B227","opening_hours":"Mo-Sa 10:00-20:00; Su 10:00-19:00","image":"https://cdn4.jysk.com/facades/B227/20191111130036967","brand":"JYSK","brand:wikidata":"Q138913"},"coordinates":[42.058820487175,25.58985343703]},"tags_mismatch":true},{"osm":{"type":"way","id":627426395,"tags":{"brand":"JYSK","brand:wikidata":"Q138913","building":"yes","opening_hours":"Mo-Sa 10:00-20:00; Su 10:00-19:00","payment:cash":"yes","payment:credit_cards":"yes","payment:debit_cards":"yes","phone":"024744546","shop":"furniture"},"wikidata":"Q138913","coordinates":[43.2227593,23.5442049]},"atp":{"id":"NRwRPPljgsmoSS5l6-gXz1QM6YE=","tags":{"ref":"B239","shop":"furniture","addr:housenumber":"3-А","addr:street":"кв. Дъбника","addr:city":"Враца","addr:postcode":"3000","addr:country":"BG","name":"Враца","phone":"+359 2 474 4546","website":"https://jysk.bg/magazini?storeId=B239","opening_hours":"Mo-Sa 10:00-20:00; Su 10:00-19:00","image":"https://cdn4.jysk.com/facades/B239/20210415161941557","brand":"JYSK","brand:wikidata":"Q138913"},"coordinates":[43.222689302573,23.544180517413]},"dist":8.03,"tags_mismatch":true},{"osm":{"type":"way","id":1219692352,"tags":{"addr:city":"Благоевград","addr:housenumber":"5","addr:postcode":"2700","addr:street":"бул. Димитър Солунски","brand":"JYSK","brand:wikidata":"Q138913","building":"yes","opening_hours":"Mo-Sa 10:00-20:00; Su 10:00-19:00","ref":"B233","shop":"furniture","website":"https://jysk.bg/magazini?storeId=B233"},"wikidata":"Q138913","coordinates":[42.010007,23.0920146]},"atp":{"id":"9WYXe4FwxlFWv4okokKZyccrZpo=","tags":{"ref":"B233","shop":"furniture","addr:housenumber":"5","addr:street":"бул. Свети Димитър Солунски","addr:city":"Благоевград","addr:postcode":"2700","addr:country":"BG","name":"Благоевград","phone":"+359 2 474 4546","website":"https://jysk.bg/magazini?storeId=B233","opening_hours":"Mo-Sa 10:00-20:00; Su 10:00-19:00","image":"https://cdn2.jysk.com/facades/B233/20200521092916217","brand":"JYSK","brand:wikidata":"Q138913"},"coordinates":[42.010397257648,23.091986807132]},"dist":43.455,"tags_mismatch":true},{"osm":{"type":"way","id":1263814089,"tags":{"brand":"JYSK","brand:wikidata":"Q138913","building":"yes","shop":"furniture"},"wikidata":"Q138913","coordinates":[42.1443213,24.7813366]},"atp":{"id":"Tw7r_HKUVvB3l5aTM0qGLE3PdVg=","tags":{"ref":"B201","shop":"furniture","addr:housenumber":"4","addr:street":"ул. Недко Каблешков","addr:city":"Пловдив","addr:postcode":"4006","addr:country":"BG","name":"Пловдив, Тракия","phone":"+359 2 474 4546","website":"https://jysk.bg/magazini?storeId=B201","opening_hours":"Mo-Sa 10:00-20:00; Su 10:00-19:00","image":"https://cdn2.jysk.com/facades/B201/20230516091658713","brand":"JYSK","brand:wikidata":"Q138913"},"coordinates":[42.144166949887,24.781559230299]},"dist":25.129,"tags_mismatch":true},{"osm":false,"atp":{"id":"fYKRUN-dNebr8__wLFt-SXyE5jg=","tags":{"ref":"B252","shop":"furniture","addr:housenumber":"32","addr:street":"ул. Генерал Заимов","addr:city":"Карлово","addr:postcode":"4300","addr:country":"BG","name":"Карлово","phone":"+359 2 474 4546","website":"https://jysk.bg/magazini?storeId=B252","opening_hours":"Mo-Su 11:00-19:00","image":"https://cdn1.jysk.com/facades/B252/20231005093930817","brand":"JYSK","brand:wikidata":"Q138913"},"coordinates":[42.633983176966,24.800979208265]},"tags_mismatch":false,"dist":0},{"osm":false,"atp":{"id":"SyYYAWc8dP66oa-KPI8e47g_Moc=","tags":{"ref":"B251","shop":"furniture","addr:housenumber":"67","addr:street":"ул. Георги Бенковски","addr:city":"Панагюрище","addr:postcode":"4500","addr:country":"BG","name":"Панагюрище","phone":"+359 2 474 4546","website":"https://jysk.bg/magazini?storeId=B251","opening_hours":"Mo-Sa 10:00-20:00; Su 10:00-19:00","image":"https://cdn4.jysk.com/facades/B251/20230407084239817","brand":"JYSK","brand:wikidata":"Q138913"},"coordinates":[42.495005565355,24.187935001328]},"tags_mismatch":false,"dist":0},{"osm":false,"atp":{"id":"J8ZgIaJnADDoRGWCKj2vxoq1YRo=","tags":{"ref":"B250","shop":"furniture","addr:housenumber":"150","addr:street":"бул. Пещерско шосе","addr:city":"Пловдив","addr:postcode":"4000","addr:country":"BG","name":"Пловдив, Туин Парк","phone":"+359 2 474 4546","website":"https://jysk.bg/magazini?storeId=B250","opening_hours":"Mo-Sa 10:00-20:00; Su 10:00-19:00","image":"https://cdn3.jysk.com/facades/B250/20230308195356907","brand":"JYSK","brand:wikidata":"Q138913"},"coordinates":[42.1316291,24.6949362]},"tags_mismatch":false,"dist":0},{"osm":false,"atp":{"id":"2Yeq8mAOLu0K_58dcuQiTINPlSY=","tags":{"ref":"B249","shop":"furniture","addr:housenumber":"20","addr:street":"ул. Мехомия","addr:city":"Разлог","addr:postcode":"2760","addr:country":"BG","name":"Разлог","phone":"+359 2 474 4546","website":"https://jysk.bg/magazini?storeId=B249","opening_hours":"Mo-Sa 10:00-20:00; Su 10:00-19:00","image":"https://cdn2.jysk.com/facades/B249/20230308195144747","brand":"JYSK","brand:wikidata":"Q138913"},"coordinates":[41.8820149,23.4708575]},"tags_mismatch":false,"dist":0},{"osm":false,"atp":{"id":"_-NpoGlcy44GLfNkpHC0z8WF2EM=","tags":{"ref":"B243","shop":"furniture","addr:housenumber":"41А","addr:street":"ул. Никола Д. Петков","addr:city":"Севлиево","addr:postcode":"5400","addr:country":"BG","name":"Севлиево","phone":"+359 2 474 4546","website":"https://jysk.bg/magazini?storeId=B243","opening_hours":"Mo-Sa 10:00-20:00; Su 10:00-19:00","image":"https://cdn4.jysk.com/facades/B243/20220210100951700","brand":"JYSK","brand:wikidata":"Q138913"},"coordinates":[43.021867271428,25.094723577246]},"tags_mismatch":false,"dist":0},{"osm":false,"atp":{"id":"UFs0xzv4GbxJFGirZjWYh81D9FM=","tags":{"ref":"B242","shop":"furniture","addr:housenumber":"1152","addr:street":"ул. Въстаническа","addr:city":"Бургас","addr:postcode":"8012","addr:country":"BG","name":"Бургас, Меден Рудник","phone":"+359 2 474 4546","website":"https://jysk.bg/magazini?storeId=B242","opening_hours":"Mo-Sa 10:00-20:00; Su 10:00-19:00","image":"https://cdn3.jysk.com/facades/B242/20210804172448893","brand":"JYSK","brand:wikidata":"Q138913"},"coordinates":[42.450774357967,27.413241547677]},"tags_mismatch":false,"dist":0},{"osm":false,"atp":{"id":"oxv36A0geMPjqEoA96laEW4Xgvs=","tags":{"ref":"B241","shop":"furniture","addr:housenumber":"68","addr:street":"бул. Свети Патриарх Евтимий","addr:city":"Стара Загора","addr:postcode":"6000","addr:country":"BG","name":"Стара Загора, Енигма","phone":"+359 2 474 4546","website":"https://jysk.bg/magazini?storeId=B241","opening_hours":"Mo-Sa 10:00-20:00; Su 10:00-19:00","image":"https://cdn2.jysk.com/facades/B241/20210716123852477","brand":"JYSK","brand:wikidata":"Q138913"},"coordinates":[42.416723354617,25.638214820901]},"tags_mismatch":false,"dist":0},{"osm":false,"atp":{"id":"uBPgS9eVvb0RomhcS75WnFhbGAs=","tags":{"ref":"B240","shop":"furniture","addr:housenumber":"1","addr:street":"ул. Тутракан","addr:city":"Силистра","addr:postcode":"7500","addr:country":"BG","name":"Силистра","phone":"+359 2 474 4546","website":"https://jysk.bg/magazini?storeId=B240","opening_hours":"Mo-Sa 10:00-20:00; Su 10:00-19:00","image":"https://cdn1.jysk.com/facades/B240/20210527091604977","brand":"JYSK","brand:wikidata":"Q138913"},"coordinates":[44.113092232107,27.252972667465]},"tags_mismatch":false,"dist":0},{"osm":false,"atp":{"id":"BsRtFJ12gWelwNtv0ajU4Si2uXI=","tags":{"ref":"B235","shop":"furniture","addr:housenumber":"147","addr:street":"бул. 23-ти п. Шипченски полк","addr:city":"Казанлък","addr:postcode":"6100","addr:country":"BG","name":"Казанлък","phone":"+359 2 474 4546","website":"https://jysk.bg/magazini?storeId=B235","opening_hours":"Mo-Sa 10:00-20:00; Su 10:00-19:00","image":"https://cdn4.jysk.com/facades/B235/20200826112736837","brand":"JYSK","brand:wikidata":"Q138913"},"coordinates":[42.617885140441,25.370346478004]},"tags_mismatch":false,"dist":0},{"osm":false,"atp":{"id":"8HiycUp6j1SNPH-s1SDarzB-Zn4=","tags":{"ref":"B234","shop":"furniture","addr:housenumber":"238","addr:street":"бул. Цар Освободител","addr:city":"Кюстендил","addr:postcode":"2500","addr:country":"BG","name":"Кюстендил","phone":"+359 2 474 4546","website":"https://jysk.bg/magazini?storeId=B234","opening_hours":"Mo-Sa 10:00-20:00; Su 10:00-19:00","image":"https://cdn3.jysk.com/facades/B234/20200603135321020","brand":"JYSK","brand:wikidata":"Q138913"},"coordinates":[42.282445091615,22.697116509262]},"tags_mismatch":false,"dist":0},{"osm":false,"atp":{"id":"A146O5lwISne-pjtlLte7lZ_UMY=","tags":{"ref":"B231","shop":"furniture","addr:housenumber":"40","addr:street":"бул. Васил Априлов","addr:city":"Габрово","addr:postcode":"5300","addr:country":"BG","name":"Габрово","phone":"+359 2 474 4546","website":"https://jysk.bg/magazini?storeId=B231","opening_hours":"Mo-Sa 10:00-20:00; Su 10:00-19:00","image":"https://cdn4.jysk.com/facades/B231/20191029093942407","brand":"JYSK","brand:wikidata":"Q138913"},"coordinates":[42.86752425817,25.317139556743]},"tags_mismatch":false,"dist":0},{"osm":false,"atp":{"id":"CxbR8iU46OYvcu2NgwdY4yNiqbY=","tags":{"ref":"B230","shop":"furniture","addr:housenumber":"52","addr:street":"ул. Коста Лулчев","addr:city":"София","addr:postcode":"1000","addr:country":"BG","name":"София, Скай Сити мол","phone":"+359 2 474 4546","website":"https://jysk.bg/magazini?storeId=B230","opening_hours":"Mo-Su 10:00-21:00","image":"https://cdn3.jysk.com/facades/B230/20191211155053027","brand":"JYSK","brand:wikidata":"Q138913"},"coordinates":[42.679869644484,23.367469645718]},"tags_mismatch":false,"dist":0},{"osm":false,"atp":{"id":"-oKgycfIMjolX11vbFAsJftxW7k=","tags":{"ref":"B202","shop":"furniture","addr:housenumber":"17","addr:street":"ул. Магистрална","addr:city":"Велико Търново","addr:postcode":"5002","addr:country":"BG","name":"Велико Търново","phone":"+359 2 474 4546","website":"https://jysk.bg/magazini?storeId=B202","opening_hours":"Mo-Sa 10:00-20:00; Su 10:00-19:00","image":"https://cdn3.jysk.com/facades/B202/20220526090924387","brand":"JYSK","brand:wikidata":"Q138913"},"coordinates":[43.073131438372,25.613709936124]},"tags_mismatch":false,"dist":0},{"osm":false,"atp":{"id":"CH6GKPVfU1NcxEm1Kvclk4LLbbE=","tags":{"ref":"B221","shop":"furniture","addr:housenumber":"3","addr:street":"ул. Андрей Сахаров","addr:city":"Варна","addr:postcode":"9000","addr:country":"BG","name":"Варна, Ритейл парк A-V","phone":"+359 2 474 4546","website":"https://jysk.bg/magazini?storeId=B221","opening_hours":"Mo-Sa 10:00-20:00; Su 10:00-19:00","image":"https://cdn2.jysk.com/facades/B221/20230728134810230","brand":"JYSK","brand:wikidata":"Q138913"},"coordinates":[43.220688525576,27.898822436124]},"tags_mismatch":false,"dist":0}]}