{"metadata":{"name":"TexCycle","key":"amenity","value":"recycling","compare_keys":false},"data":[{"osm":{"type":"node","id":6373884048,"tags":{"amenity":"recycling","operator:wikidata":"Q85614408","recycling:clothes":"yes","recycling:shoes":"yes","recycling_type":"container"},"wikidata":"Q85614408","coordinates":[42.6696533,23.3038942]},"atp":{"id":"crxhpfpTNDBE_2eS2y_OTTDuVtQ=","tags":{"@source_uri":"https://texcycle.bg/bin-locations-list/","@spider":"texcycle_bg","amenity":"recycling","recycling:clothes":"yes","recycling:shoes":"yes","addr:country":"BG","operator:wikidata":"Q85614408","nsi_id":"texcycle-f11175"},"coordinates":[42.669761,23.303832]},"dist":13.011,"tags_mismatch":true},{"osm":{"type":"node","id":6899052143,"tags":{"amenity":"recycling","check_date":"2025-04-01","operator:wikidata":"Q85614408","recycling:clothes":"yes","recycling:shoes":"yes","recycling_type":"container"},"wikidata":"Q85614408","coordinates":[42.7271968,23.3015218]},"atp":{"id":"Up3KNDo17IygHudl5rXoJu3sxtY=","tags":{"@source_uri":"https://texcycle.bg/bin-locations-list/","@spider":"texcycle_bg","amenity":"recycling","recycling:clothes":"yes","recycling:shoes":"yes","addr:country":"BG","operator:wikidata":"Q85614408","nsi_id":"texcycle-f11175"},"coordinates":[42.72715,23.30141]},"dist":10.511,"tags_mismatch":true},{"osm":{"type":"node","id":7222282001,"tags":{"amenity":"recycling","operator:wikidata":"Q85614408","recycling:clothes":"yes","recycling:shoes":"yes","recycling_type":"container","website":"https://texcycle.bg/"},"wikidata":"Q85614408","coordinates":[42.6464677,23.2672104]},"atp":{"id":"QJOBuf_hmfobTbOZ2JSNdNTlfh4=","tags":{"@source_uri":"https://texcycle.bg/bin-locations-list/","@spider":"texcycle_bg","amenity":"recycling","recycling:clothes":"yes","recycling:shoes":"yes","addr:country":"BG","operator:wikidata":"Q85614408","nsi_id":"texcycle-f11175"},"coordinates":[42.64649,23.267196]},"dist":2.745,"tags_mismatch":true},{"osm":{"type":"node","id":7227339349,"tags":{"amenity":"recycling","operator:wikidata":"Q85614408","recycling:clothes":"yes","recycling:shoes":"yes","recycling_type":"container","website":"https://texcycle.bg/"},"wikidata":"Q85614408","coordinates":[42.6894214,23.3328253]},"atp":{"id":"m58T2DJ3A_xkgfqCjRAY9iodhGw=","tags":{"@source_uri":"https://texcycle.bg/bin-locations-list/","@spider":"texcycle_bg","amenity":"recycling","recycling:clothes":"yes","recycling:shoes":"yes","addr:country":"BG","operator:wikidata":"Q85614408","nsi_id":"texcycle-f11175"},"coordinates":[42.68939,23.33284]},"dist":3.692,"tags_mismatch":true},{"osm":{"type":"node","id":8220596880,"tags":{"amenity":"recycling","count":"2","operator:wikidata":"Q85614408","recycling:clothes":"yes","recycling:shoes":"yes","recycling_type":"container"},"wikidata":"Q85614408","coordinates":[42.6753784,23.3583481]},"atp":{"id":"eZ1JODlHtcF6Tf4nGtTMrnhJMAU=","tags":{"@source_uri":"https://texcycle.bg/bin-locations-list/","@spider":"texcycle_bg","amenity":"recycling","recycling:clothes":"yes","recycling:shoes":"yes","addr:country":"BG","operator:wikidata":"Q85614408","nsi_id":"texcycle-f11175"},"coordinates":[42.67534,23.358419]},"dist":7.199,"tags_mismatch":true},{"osm":{"type":"node","id":8252048816,"tags":{"amenity":"recycling","operator:wikidata":"Q85614408","recycling:clothes":"yes","recycling:shoes":"yes","recycling_type":"container"},"wikidata":"Q85614408","coordinates":[42.6746041,23.3337823]},"atp":{"id":"PErHR_wypQWRlhzZ4XwAnLhj8zw=","tags":{"@source_uri":"https://texcycle.bg/bin-locations-list/","@spider":"texcycle_bg","amenity":"recycling","recycling:clothes":"yes","recycling:shoes":"yes","addr:country":"BG","operator:wikidata":"Q85614408","nsi_id":"texcycle-f11175"},"coordinates":[42.674645,23.334]},"dist":18.369,"tags_mismatch":true},{"osm":{"type":"node","id":8710187172,"tags":{"amenity":"recycling","covered":"no","indoor":"no","material":"metal","operator:wikidata":"Q85614408","recycling:cans":"no","recycling:cardboard":"no","recycling:clothes":"yes","recycling:glass":"no","recycling:glass_bottles":"no","recycling:paper":"no","recycling:plastic":"no","recycling:plastic_bottles":"no","recycling:plastic_packaging":"no","recycling:shoes":"yes","recycling_type":"container"},"wikidata":"Q85614408","coordinates":[42.7034071,23.3088]},"atp":{"id":"cj-lNpFosUHPrvVbtYDa06K8VM8=","tags":{"@source_uri":"https://texcycle.bg/bin-locations-list/","@spider":"texcycle_bg","amenity":"recycling","recycling:clothes":"yes","recycling:shoes":"yes","addr:country":"BG","operator:wikidata":"Q85614408","nsi_id":"texcycle-f11175"},"coordinates":[42.703421,23.308854]},"dist":4.675,"tags_mismatch":true},{"osm":{"type":"node","id":9831451617,"tags":{"amenity":"recycling","operator:wikidata":"Q85614408","recycling:clothes":"yes","recycling:shoes":"yes","recycling:textiles":"yes","recycling_type":"container"},"wikidata":"Q85614408","coordinates":[42.6714505,23.2833437]},"atp":{"id":"txq-OZ-LaZ52xMbIqU_oVJo9O2M=","tags":{"@source_uri":"https://texcycle.bg/bin-locations-list/","@spider":"texcycle_bg","amenity":"recycling","recycling:clothes":"yes","recycling:shoes":"yes","addr:country":"BG","operator:wikidata":"Q85614408","nsi_id":"texcycle-f11175"},"coordinates":[42.671354,23.28328]},"dist":11.927,"tags_mismatch":true},{"osm":{"type":"node","id":10034961044,"tags":{"amenity":"recycling","operator:wikidata":"Q85614408","recycling:clothes":"yes","recycling:shoes":"yes","recycling_type":"container"},"wikidata":"Q85614408","coordinates":[43.2225373,27.9422416]},"atp":{"id":"y9p5Vp3obxdgk0zuRcDJ5m9X22A=","tags":{"@source_uri":"https://texcycle.bg/bin-locations-list/","@spider":"texcycle_bg","amenity":"recycling","recycling:clothes":"yes","recycling:shoes":"yes","addr:country":"BG","operator:wikidata":"Q85614408","nsi_id":"texcycle-f11175"},"coordinates":[43.222549,27.942318]},"dist":6.326,"tags_mismatch":true},{"osm":{"type":"node","id":10155525512,"tags":{"amenity":"recycling","check_date":"2025-05-21","count":"2","operator:wikidata":"Q85614408","recycling:clothes":"yes","recycling:shoes":"yes","recycling_type":"container"},"wikidata":"Q85614408","coordinates":[42.6801826,23.2967207]},"atp":{"id":"3M0FsDKnIRkcLkFE_0fA1TWa7P4=","tags":{"@source_uri":"https://texcycle.bg/bin-locations-list/","@spider":"texcycle_bg","amenity":"recycling","recycling:clothes":"yes","recycling:shoes":"yes","addr:country":"BG","operator:wikidata":"Q85614408","nsi_id":"texcycle-f11175"},"coordinates":[42.680023,23.296743]},"dist":17.84,"tags_mismatch":true},{"osm":{"type":"node","id":10171895495,"tags":{"amenity":"recycling","operator:wikidata":"Q85614408","recycling:clothes":"yes","recycling:shoes":"yes","recycling_type":"container"},"wikidata":"Q85614408","coordinates":[42.6618365,23.2956366]},"atp":{"id":"fxzrBqJZYzwiHOqp5FQwWcvsC_0=","tags":{"@source_uri":"https://texcycle.bg/bin-locations-list/","@spider":"texcycle_bg","amenity":"recycling","recycling:clothes":"yes","recycling:shoes":"yes","addr:country":"BG","operator:wikidata":"Q85614408","nsi_id":"texcycle-f11175"},"coordinates":[42.66181,23.29561]},"dist":3.662,"tags_mismatch":true},{"osm":{"type":"node","id":10171895497,"tags":{"amenity":"recycling","check_date:recycling":"2025-04-23","operator:wikidata":"Q85614408","recycling:clothes":"yes","recycling:shoes":"yes","recycling_type":"container"},"wikidata":"Q85614408","coordinates":[42.6763796,23.303123]},"atp":{"id":"LQCBcXGnfCMurcdw-VA1U0-3Nzk=","tags":{"@source_uri":"https://texcycle.bg/bin-locations-list/","@spider":"texcycle_bg","amenity":"recycling","recycling:clothes":"yes","recycling:shoes":"yes","addr:country":"BG","operator:wikidata":"Q85614408","nsi_id":"texcycle-f11175"},"coordinates":[42.676331,23.303142]},"dist":5.623,"tags_mismatch":true},{"osm":{"type":"node","id":10171952281,"tags":{"amenity":"recycling","location":"overground","operator:wikidata":"Q85614408","recycling:clothes":"yes","recycling:shoes":"yes","recycling_type":"container"},"wikidata":"Q85614408","coordinates":[42.6600537,23.3476469]},"atp":{"id":"twsXHOJngpMoNPBDjsv0S2Ljvz4=","tags":{"@source_uri":"https://texcycle.bg/bin-locations-list/","@spider":"texcycle_bg","amenity":"recycling","recycling:clothes":"yes","recycling:shoes":"yes","addr:country":"BG","operator:wikidata":"Q85614408","nsi_id":"texcycle-f11175"},"coordinates":[42.660042,23.347566]},"dist":6.742,"tags_mismatch":true},{"osm":{"type":"node","id":10171990390,"tags":{"amenity":"recycling","location":"overground","operator:wikidata":"Q85614408","recycling:clothes":"yes","recycling:shoes":"yes","recycling_type":"container"},"wikidata":"Q85614408","coordinates":[42.6123302,23.3391426]},"atp":{"id":"DaGUeOx6l5t2BHKjuJj4V1-hfU0=","tags":{"@source_uri":"https://texcycle.bg/bin-locations-list/","@spider":"texcycle_bg","amenity":"recycling","recycling:clothes":"yes","recycling:shoes":"yes","addr:country":"BG","operator:wikidata":"Q85614408","nsi_id":"texcycle-f11175"},"coordinates":[42.612267,23.339092]},"dist":8.157,"tags_mismatch":true},{"osm":{"type":"node","id":10200190546,"tags":{"amenity":"recycling","check_date:recycling":"2025-05-06","operator:wikidata":"Q85614408","recycling:clothes":"yes","recycling:shoes":"yes","recycling_type":"container"},"wikidata":"Q85614408","coordinates":[42.6876151,23.3114795]},"atp":{"id":"VnIm7y8innh4WqifpNEEyW9ctcM=","tags":{"@source_uri":"https://texcycle.bg/bin-locations-list/","@spider":"texcycle_bg","amenity":"recycling","recycling:clothes":"yes","recycling:shoes":"yes","addr:country":"BG","operator:wikidata":"Q85614408","nsi_id":"texcycle-f11175"},"coordinates":[42.687672,23.31145]},"dist":6.771,"tags_mismatch":true},{"osm":{"type":"node","id":10215722434,"tags":{"amenity":"recycling","location":"overground","operator:wikidata":"Q85614408","recycling:clothes":"yes","recycling:shoes":"yes","recycling_type":"container"},"wikidata":"Q85614408","coordinates":[42.6791677,23.321896]},"atp":{"id":"J6JqRSPtXi3JhTW9IXtOTAjBfIQ=","tags":{"@source_uri":"https://texcycle.bg/bin-locations-list/","@spider":"texcycle_bg","amenity":"recycling","recycling:clothes":"yes","recycling:shoes":"yes","addr:country":"BG","operator:wikidata":"Q85614408","nsi_id":"texcycle-f11175"},"coordinates":[42.679196,23.32189]},"dist":3.185,"tags_mismatch":true},{"osm":{"type":"node","id":10228889101,"tags":{"amenity":"recycling","operator:wikidata":"Q85614408","recycling:clothes":"yes","recycling:shoes":"yes","recycling_type":"container"},"wikidata":"Q85614408","coordinates":[42.6290474,23.3095503]},"atp":{"id":"1pKhhBTPGYZHBGoBJb8Gj42g7no=","tags":{"@source_uri":"https://texcycle.bg/bin-locations-list/","@spider":"texcycle_bg","amenity":"recycling","recycling:clothes":"yes","recycling:shoes":"yes","addr:country":"BG","operator:wikidata":"Q85614408","nsi_id":"texcycle-f11175"},"coordinates":[42.629083,23.309487]},"dist":6.518,"tags_mismatch":true},{"osm":{"type":"node","id":10248611620,"tags":{"amenity":"recycling","check_date:recycling":"2025-04-12","location":"overground","operator:wikidata":"Q85614408","recycling:clothes":"yes","recycling:shoes":"yes","recycling_type":"container"},"wikidata":"Q85614408","coordinates":[42.6602661,23.318049]},"atp":{"id":"stCLx1w0xwZlTy7RyMH4eqKLdMQ=","tags":{"@source_uri":"https://texcycle.bg/bin-locations-list/","@spider":"texcycle_bg","amenity":"recycling","recycling:clothes":"yes","recycling:shoes":"yes","addr:country":"BG","operator:wikidata":"Q85614408","nsi_id":"texcycle-f11175"},"coordinates":[42.660363,23.318103]},"dist":11.644,"tags_mismatch":true},{"osm":{"type":"node","id":10253386079,"tags":{"amenity":"recycling","check_date":"2025-03","count":"2","operator:wikidata":"Q85614408","recycling:clothes":"yes","recycling:shoes":"yes","recycling_type":"container"},"wikidata":"Q85614408","coordinates":[42.6663446,23.3004649]},"atp":{"id":"RAIvwvg-kPrhqqOQo707JNS9De8=","tags":{"@source_uri":"https://texcycle.bg/bin-locations-list/","@spider":"texcycle_bg","amenity":"recycling","recycling:clothes":"yes","recycling:shoes":"yes","addr:country":"BG","operator:wikidata":"Q85614408","nsi_id":"texcycle-f11175"},"coordinates":[42.666423,23.300544]},"dist":10.855,"tags_mismatch":true},{"osm":{"type":"node","id":10265991862,"tags":{"amenity":"recycling","check_date:recycling":"2025-03-22","operator:wikidata":"Q85614408","recycling:clothes":"yes","recycling:shoes":"yes","recycling_type":"container"},"wikidata":"Q85614408","coordinates":[42.6777746,23.36028]},"atp":{"id":"fGZn2Io_orXU16RcvMR6S7M4dxY=","tags":{"@source_uri":"https://texcycle.bg/bin-locations-list/","@spider":"texcycle_bg","amenity":"recycling","recycling:clothes":"yes","recycling:shoes":"yes","addr:country":"BG","operator:wikidata":"Q85614408","nsi_id":"texcycle-f11175"},"coordinates":[42.67774,23.360347]},"dist":6.693,"tags_mismatch":true},{"osm":{"type":"node","id":10273939934,"tags":{"amenity":"recycling","check_date:recycling":"2025-03-16","location":"overground","operator:wikidata":"Q85614408","recycling:clothes":"yes","recycling:shoes":"yes","recycling_type":"container"},"wikidata":"Q85614408","coordinates":[42.6725126,23.2939356]},"atp":{"id":"KC9o5O445mU9xyc_2b6PZxjv4TQ=","tags":{"@source_uri":"https://texcycle.bg/bin-locations-list/","@spider":"texcycle_bg","amenity":"recycling","recycling:clothes":"yes","recycling:shoes":"yes","addr:country":"BG","operator:wikidata":"Q85614408","nsi_id":"texcycle-f11175"},"coordinates":[42.672434,23.293976]},"dist":9.343,"tags_mismatch":true},{"osm":{"type":"node","id":10312663667,"tags":{"amenity":"recycling","operator:wikidata":"Q85614408","recycling:clothes":"yes","recycling:shoes":"yes","recycling_type":"container"},"wikidata":"Q85614408","coordinates":[42.6752483,23.2935083]},"atp":{"id":"qEwC2Joa-GbpOje0uWTrs0GvgBs=","tags":{"@source_uri":"https://texcycle.bg/bin-locations-list/","@spider":"texcycle_bg","amenity":"recycling","recycling:clothes":"yes","recycling:shoes":"yes","addr:country":"BG","operator:wikidata":"Q85614408","nsi_id":"texcycle-f11175"},"coordinates":[42.675249,23.293521]},"dist":1.041,"tags_mismatch":true},{"osm":{"type":"node","id":10683707971,"tags":{"amenity":"recycling","operator:wikidata":"Q85614408","recycling:clothes":"yes","recycling:shoes":"yes","recycling_type":"container"},"wikidata":"Q85614408","coordinates":[42.6550383,23.3811853]},"atp":{"id":"yrKLbvB0Aav-5j1u1N11GIiCShU=","tags":{"@source_uri":"https://texcycle.bg/bin-locations-list/","@spider":"texcycle_bg","amenity":"recycling","recycling:clothes":"yes","recycling:shoes":"yes","addr:country":"BG","operator:wikidata":"Q85614408","nsi_id":"texcycle-f11175"},"coordinates":[42.653169,23.37814]},"dist":324.386,"tags_mismatch":true},{"osm":{"type":"node","id":10844468457,"tags":{"amenity":"recycling","operator:wikidata":"Q85614408","recycling:clothes":"yes","recycling:shoes":"yes","recycling_type":"container"},"wikidata":"Q85614408","coordinates":[42.6694188,23.2977996]},"atp":{"id":"q_9zpE2lSNdG-S2xoClB1NxKcsA=","tags":{"@source_uri":"https://texcycle.bg/bin-locations-list/","@spider":"texcycle_bg","amenity":"recycling","recycling:clothes":"yes","recycling:shoes":"yes","addr:country":"BG","operator:wikidata":"Q85614408","nsi_id":"texcycle-f11175"},"coordinates":[42.669355,23.297802]},"dist":7.097,"tags_mismatch":true},{"osm":{"type":"node","id":10852912477,"tags":{"amenity":"recycling","operator:wikidata":"Q85614408","recycling:clothes":"yes","recycling:shoes":"yes","recycling_type":"container"},"wikidata":"Q85614408","coordinates":[42.9217516,22.9305403]},"atp":{"id":"dfCuszYPFO97BmEGX0zyGxiMy-4=","tags":{"@source_uri":"https://texcycle.bg/bin-locations-list/","@spider":"texcycle_bg","amenity":"recycling","recycling:clothes":"yes","recycling:shoes":"yes","addr:country":"BG","operator:wikidata":"Q85614408","nsi_id":"texcycle-f11175"},"coordinates":[42.921712,22.930317]},"dist":18.708,"tags_mismatch":true},{"osm":{"type":"node","id":10870927847,"tags":{"amenity":"recycling","check_date:recycling":"2025-06-07","operator:wikidata":"Q85614408","recycling:clothes":"yes","recycling:shoes":"yes","recycling_type":"container"},"wikidata":"Q85614408","coordinates":[42.6598769,23.2991196]},"atp":{"id":"s6zK_Pl5fruimdrHRZV9GzxVGS4=","tags":{"@source_uri":"https://texcycle.bg/bin-locations-list/","@spider":"texcycle_bg","amenity":"recycling","recycling:clothes":"yes","recycling:shoes":"yes","addr:country":"BG","operator:wikidata":"Q85614408","nsi_id":"texcycle-f11175"},"coordinates":[42.659848,23.298994]},"dist":10.762,"tags_mismatch":true},{"osm":{"type":"node","id":10873966562,"tags":{"amenity":"recycling","operator:wikidata":"Q85614408","recycling:clothes":"yes","recycling:shoes":"yes","recycling_type":"container"},"wikidata":"Q85614408","coordinates":[42.6657864,23.2875214]},"atp":{"id":"XMPNcRzpOwCUIGE0raIwQuIvaS8=","tags":{"@source_uri":"https://texcycle.bg/bin-locations-list/","@spider":"texcycle_bg","amenity":"recycling","recycling:clothes":"yes","recycling:shoes":"yes","addr:country":"BG","operator:wikidata":"Q85614408","nsi_id":"texcycle-f11175"},"coordinates":[42.665868,23.287454]},"dist":10.616,"tags_mismatch":true},{"osm":{"type":"node","id":10892003079,"tags":{"amenity":"recycling","operator:wikidata":"Q85614408","recycling:clothes":"yes","recycling:shoes":"yes","recycling_type":"container"},"wikidata":"Q85614408","coordinates":[42.6825369,23.2930917]},"atp":{"id":"VoEaAH0tjFGsKyvtp2ZG1COI2TM=","tags":{"@source_uri":"https://texcycle.bg/bin-locations-list/","@spider":"texcycle_bg","amenity":"recycling","recycling:clothes":"yes","recycling:shoes":"yes","addr:country":"BG","operator:wikidata":"Q85614408","nsi_id":"texcycle-f11175"},"coordinates":[42.682437,23.293118]},"dist":11.314,"tags_mismatch":true},{"osm":{"type":"node","id":10921015340,"tags":{"amenity":"recycling","check_date:recycling":"2025-05-30","operator:wikidata":"Q85614408","recycling:clothes":"yes","recycling:shoes":"yes","recycling_type":"container"},"wikidata":"Q85614408","coordinates":[42.7001688,23.2982127]},"atp":{"id":"lQ76EPQoc3Dy64Ls9EgB7HX8veo=","tags":{"@source_uri":"https://texcycle.bg/bin-locations-list/","@spider":"texcycle_bg","amenity":"recycling","recycling:clothes":"yes","recycling:shoes":"yes","addr:country":"BG","operator:wikidata":"Q85614408","nsi_id":"texcycle-f11175"},"coordinates":[42.700312,23.298797]},"dist":50.333,"tags_mismatch":true},{"osm":{"type":"node","id":10931274078,"tags":{"amenity":"recycling","operator:wikidata":"Q85614408","recycling:clothes":"yes","recycling:shoes":"yes","recycling_type":"container"},"wikidata":"Q85614408","coordinates":[42.6655336,23.2936037]},"atp":{"id":"ayx5G3Up-Afx789SXnL0pI6Vk9E=","tags":{"@source_uri":"https://texcycle.bg/bin-locations-list/","@spider":"texcycle_bg","amenity":"recycling","recycling:clothes":"yes","recycling:shoes":"yes","addr:country":"BG","operator:wikidata":"Q85614408","nsi_id":"texcycle-f11175"},"coordinates":[42.665504,23.29369]},"dist":7.786,"tags_mismatch":true},{"osm":{"type":"node","id":10932537014,"tags":{"amenity":"recycling","operator:wikidata":"Q85614408","recycling:clothes":"yes","recycling:shoes":"yes","recycling_type":"container"},"wikidata":"Q85614408","coordinates":[42.6723609,23.2918163]},"atp":{"id":"D8kemXunvo48v8IpXwh1XTo9Y_E=","tags":{"@source_uri":"https://texcycle.bg/bin-locations-list/","@spider":"texcycle_bg","amenity":"recycling","recycling:clothes":"yes","recycling:shoes":"yes","addr:country":"BG","operator:wikidata":"Q85614408","nsi_id":"texcycle-f11175"},"coordinates":[42.672433,23.291899]},"dist":10.488,"tags_mismatch":true},{"osm":{"type":"node","id":10932537026,"tags":{"amenity":"recycling","check_date":"2025-05","operator:wikidata":"Q85614408","recycling:clothes":"yes","recycling:shoes":"yes","recycling_type":"container"},"wikidata":"Q85614408","coordinates":[42.6684854,23.2868234]},"atp":{"id":"9Xe8hViyMv5Y7LsTWuxv7nEyiX0=","tags":{"@source_uri":"https://texcycle.bg/bin-locations-list/","@spider":"texcycle_bg","amenity":"recycling","recycling:clothes":"yes","recycling:shoes":"yes","addr:country":"BG","operator:wikidata":"Q85614408","nsi_id":"texcycle-f11175"},"coordinates":[42.668527,23.286933]},"dist":10.084,"tags_mismatch":true},{"osm":{"type":"node","id":10942396373,"tags":{"amenity":"recycling","operator:wikidata":"Q85614408","recycling:clothes":"yes","recycling:shoes":"yes","recycling_type":"container"},"wikidata":"Q85614408","coordinates":[42.6623209,23.3976773]},"atp":{"id":"stJpBcc6i1PQDHBj5CY276YmXjs=","tags":{"@source_uri":"https://texcycle.bg/bin-locations-list/","@spider":"texcycle_bg","amenity":"recycling","recycling:clothes":"yes","recycling:shoes":"yes","addr:country":"BG","operator:wikidata":"Q85614408","nsi_id":"texcycle-f11175"},"coordinates":[42.662207,23.397442]},"dist":23.034,"tags_mismatch":true},{"osm":{"type":"node","id":11034611812,"tags":{"amenity":"recycling","operator:wikidata":"Q85614408","recycling:clothes":"yes","recycling:shoes":"yes","recycling_type":"container"},"wikidata":"Q85614408","coordinates":[42.668885,23.2751176]},"atp":{"id":"j3YZqwwp-9Shj6nEkNu5rs2A4pM=","tags":{"@source_uri":"https://texcycle.bg/bin-locations-list/","@spider":"texcycle_bg","amenity":"recycling","recycling:clothes":"yes","recycling:shoes":"yes","addr:country":"BG","operator:wikidata":"Q85614408","nsi_id":"texcycle-f11175"},"coordinates":[42.668931,23.274994]},"dist":11.326,"tags_mismatch":true},{"osm":{"type":"node","id":11139567186,"tags":{"amenity":"recycling","operator:wikidata":"Q85614408","recycling:clothes":"yes","recycling:shoes":"yes","recycling_type":"container"},"wikidata":"Q85614408","coordinates":[42.6587855,23.2407246]},"atp":{"id":"hA0CPwioje2JFTlYhZmuGhcgI-Y=","tags":{"@source_uri":"https://texcycle.bg/bin-locations-list/","@spider":"texcycle_bg","amenity":"recycling","recycling:clothes":"yes","recycling:shoes":"yes","addr:country":"BG","operator:wikidata":"Q85614408","nsi_id":"texcycle-f11175"},"coordinates":[42.658829,23.240721]},"dist":4.846,"tags_mismatch":true},{"osm":{"type":"node","id":11247603030,"tags":{"amenity":"recycling","operator:wikidata":"Q85614408","recycling:clothes":"yes","recycling:shoes":"yes","recycling_type":"container"},"wikidata":"Q85614408","coordinates":[42.68511,23.2956665]},"atp":{"id":"rCQoay-eQxm8ZPLNtoY1coVZVB4=","tags":{"@source_uri":"https://texcycle.bg/bin-locations-list/","@spider":"texcycle_bg","amenity":"recycling","recycling:clothes":"yes","recycling:shoes":"yes","addr:country":"BG","operator:wikidata":"Q85614408","nsi_id":"texcycle-f11175"},"coordinates":[42.685236,23.295664]},"dist":14.012,"tags_mismatch":true},{"osm":{"type":"node","id":11255770764,"tags":{"amenity":"recycling","operator:wikidata":"Q85614408","recycling:clothes":"yes","recycling:shoes":"yes","recycling_type":"container"},"wikidata":"Q85614408","coordinates":[42.7020621,23.35489]},"atp":{"id":"bEvU_5g_FFNA76E1rAZmwIu1nZ8=","tags":{"@source_uri":"https://texcycle.bg/bin-locations-list/","@spider":"texcycle_bg","amenity":"recycling","recycling:clothes":"yes","recycling:shoes":"yes","addr:country":"BG","operator:wikidata":"Q85614408","nsi_id":"texcycle-f11175"},"coordinates":[42.702086,23.354842]},"dist":4.738,"tags_mismatch":true},{"osm":{"type":"node","id":11255827345,"tags":{"amenity":"recycling","operator:wikidata":"Q85614408","recycling:clothes":"yes","recycling:shoes":"yes","recycling_type":"container"},"wikidata":"Q85614408","coordinates":[42.7020273,23.3590583]},"atp":{"id":"Iqch74vBgHthoMtgzNhl7AO6kGw=","tags":{"@source_uri":"https://texcycle.bg/bin-locations-list/","@spider":"texcycle_bg","amenity":"recycling","recycling:clothes":"yes","recycling:shoes":"yes","addr:country":"BG","operator:wikidata":"Q85614408","nsi_id":"texcycle-f11175"},"coordinates":[42.702082,23.359135]},"dist":8.734,"tags_mismatch":true},{"osm":{"type":"node","id":11373412754,"tags":{"amenity":"recycling","check_date":"2025-04-08","operator:wikidata":"Q85614408","recycling:clothes":"yes","recycling:shoes":"yes","recycling_type":"container"},"wikidata":"Q85614408","coordinates":[42.6825457,23.3256445]},"atp":{"id":"a1D8MM-In9S5PIeuIyEJ3uRbWP4=","tags":{"@source_uri":"https://texcycle.bg/bin-locations-list/","@spider":"texcycle_bg","amenity":"recycling","recycling:clothes":"yes","recycling:shoes":"yes","addr:country":"BG","operator:wikidata":"Q85614408","nsi_id":"texcycle-f11175"},"coordinates":[42.682364,23.325706]},"dist":20.82,"tags_mismatch":true},{"osm":{"type":"node","id":11420102678,"tags":{"amenity":"recycling","location":"overground","operator:wikidata":"Q85614408","recycling:clothes":"yes","recycling:shoes":"yes","recycling_type":"container"},"wikidata":"Q85614408","coordinates":[42.6854386,23.3305911]},"atp":{"id":"_RakyFz4HPnUmV_v1qjSMKxtV_Q=","tags":{"@source_uri":"https://texcycle.bg/bin-locations-list/","@spider":"texcycle_bg","amenity":"recycling","recycling:clothes":"yes","recycling:shoes":"yes","addr:country":"BG","operator:wikidata":"Q85614408","nsi_id":"texcycle-f11175"},"coordinates":[42.685309,23.330577]},"dist":14.457,"tags_mismatch":true},{"osm":{"type":"node","id":11532108067,"tags":{"amenity":"recycling","operator:wikidata":"Q85614408","recycling:clothes":"yes","recycling:shoes":"yes","recycling_type":"container"},"wikidata":"Q85614408","coordinates":[42.6656886,23.2849236]},"atp":{"id":"m-nkYfAMCI-KMhaqpwB-dpAFW4Q=","tags":{"@source_uri":"https://texcycle.bg/bin-locations-list/","@spider":"texcycle_bg","amenity":"recycling","recycling:clothes":"yes","recycling:shoes":"yes","addr:country":"BG","operator:wikidata":"Q85614408","nsi_id":"texcycle-f11175"},"coordinates":[42.665696,23.284945]},"dist":1.934,"tags_mismatch":true},{"osm":{"type":"node","id":11573528833,"tags":{"amenity":"recycling","operator:wikidata":"Q85614408","recycling:bags":"yes","recycling:clothes":"yes","recycling:shoes":"yes","recycling_type":"container"},"wikidata":"Q85614408","coordinates":[42.6592427,23.2729019]},"atp":{"id":"4LWYqnr1Ydkd98t_0WnraayHDTA=","tags":{"@source_uri":"https://texcycle.bg/bin-locations-list/","@spider":"texcycle_bg","amenity":"recycling","recycling:clothes":"yes","recycling:shoes":"yes","addr:country":"BG","operator:wikidata":"Q85614408","nsi_id":"texcycle-f11175"},"coordinates":[42.659218,23.272876]},"dist":3.468,"tags_mismatch":true},{"osm":{"type":"node","id":11704051869,"tags":{"amenity":"recycling","operator:wikidata":"Q85614408","recycling:clothes":"yes","recycling:shoes":"yes","recycling_type":"container"},"wikidata":"Q85614408","coordinates":[42.5769182,23.4142914]},"atp":false,"tags_mismatch":false},{"osm":{"type":"node","id":11727740964,"tags":{"amenity":"recycling","operator:wikidata":"Q85614408","recycling:clothes":"yes","recycling:shoes":"yes","recycling_type":"container"},"wikidata":"Q85614408","coordinates":[42.6623277,23.3761364]},"atp":{"id":"SPEY8ZnLvuKSOqv9YPxD_fwvF6I=","tags":{"@source_uri":"https://texcycle.bg/bin-locations-list/","@spider":"texcycle_bg","amenity":"recycling","recycling:clothes":"yes","recycling:shoes":"yes","addr:country":"BG","operator:wikidata":"Q85614408","nsi_id":"texcycle-f11175"},"coordinates":[42.662475,23.376131]},"dist":16.385,"tags_mismatch":true},{"osm":{"type":"node","id":11727755697,"tags":{"amenity":"recycling","operator:wikidata":"Q85614408","recycling:clothes":"yes","recycling:shoes":"yes","recycling_type":"container"},"wikidata":"Q85614408","coordinates":[42.6640162,23.3679597]},"atp":{"id":"IvSn-LnsVhQXmb5byAllUYXE8vk=","tags":{"@source_uri":"https://texcycle.bg/bin-locations-list/","@spider":"texcycle_bg","amenity":"recycling","recycling:clothes":"yes","recycling:shoes":"yes","addr:country":"BG","operator:wikidata":"Q85614408","nsi_id":"texcycle-f11175"},"coordinates":[42.663941,23.367948]},"dist":8.416,"tags_mismatch":true},{"osm":{"type":"node","id":11742072073,"tags":{"amenity":"recycling","operator:wikidata":"Q85614408","recycling:clothes":"yes","recycling:shoes":"yes","recycling_type":"container"},"wikidata":"Q85614408","coordinates":[42.6679124,23.2687878]},"atp":{"id":"kTr948CXaBrTbkMSf-1fK0H4NE0=","tags":{"@source_uri":"https://texcycle.bg/bin-locations-list/","@spider":"texcycle_bg","amenity":"recycling","recycling:clothes":"yes","recycling:shoes":"yes","addr:country":"BG","operator:wikidata":"Q85614408","nsi_id":"texcycle-f11175"},"coordinates":[42.667903,23.268514]},"dist":22.411,"tags_mismatch":true},{"osm":{"type":"node","id":11746027554,"tags":{"amenity":"recycling","operator:wikidata":"Q85614408","recycling:clothes":"yes","recycling:shoes":"yes","recycling_type":"container"},"wikidata":"Q85614408","coordinates":[42.671262,23.2770541]},"atp":{"id":"E8liRL2ujnMbBHgpiMTHslraYJU=","tags":{"@source_uri":"https://texcycle.bg/bin-locations-list/","@spider":"texcycle_bg","amenity":"recycling","recycling:clothes":"yes","recycling:shoes":"yes","addr:country":"BG","operator:wikidata":"Q85614408","nsi_id":"texcycle-f11175"},"coordinates":[42.671217,23.277078]},"dist":5.372,"tags_mismatch":true},{"osm":{"type":"node","id":11766969617,"tags":{"amenity":"recycling","operator:wikidata":"Q85614408","recycling:clothes":"yes","recycling:shoes":"yes","recycling_type":"container"},"wikidata":"Q85614408","coordinates":[42.681102,23.286299]},"atp":{"id":"R164aMYkKVxhRUxIjbCILHB5RKo=","tags":{"@source_uri":"https://texcycle.bg/bin-locations-list/","@spider":"texcycle_bg","amenity":"recycling","recycling:clothes":"yes","recycling:shoes":"yes","addr:country":"BG","operator:wikidata":"Q85614408","nsi_id":"texcycle-f11175"},"coordinates":[42.681133,23.286334]},"dist":4.48,"tags_mismatch":true},{"osm":{"type":"node","id":11769134976,"tags":{"amenity":"recycling","operator:wikidata":"Q85614408","recycling:clothes":"yes","recycling:shoes":"yes","recycling_type":"container"},"wikidata":"Q85614408","coordinates":[42.6840984,23.3268802]},"atp":{"id":"coVnDtP8J0tuVVUPA3ONd92qcgM=","tags":{"@source_uri":"https://texcycle.bg/bin-locations-list/","@spider":"texcycle_bg","amenity":"recycling","recycling:clothes":"yes","recycling:shoes":"yes","addr:country":"BG","operator:wikidata":"Q85614408","nsi_id":"texcycle-f11175"},"coordinates":[42.684074,23.326887]},"dist":2.77,"tags_mismatch":true},{"osm":{"type":"node","id":11830542600,"tags":{"amenity":"recycling","operator:wikidata":"Q85614408","recycling:clothes":"yes","recycling:shoes":"yes","recycling_type":"container"},"wikidata":"Q85614408","coordinates":[42.662331,23.3632484]},"atp":{"id":"OVIChrwN3X0LMuCsY8anxeediaI=","tags":{"@source_uri":"https://texcycle.bg/bin-locations-list/","@spider":"texcycle_bg","amenity":"recycling","recycling:clothes":"yes","recycling:shoes":"yes","addr:country":"BG","operator:wikidata":"Q85614408","nsi_id":"texcycle-f11175"},"coordinates":[42.662258,23.363312]},"dist":9.64,"tags_mismatch":true},{"osm":{"type":"node","id":11831012207,"tags":{"amenity":"recycling","operator:wikidata":"Q85614408","recycling:clothes":"yes","recycling:shoes":"yes","recycling_type":"container"},"wikidata":"Q85614408","coordinates":[42.653089,23.378133]},"atp":false,"tags_mismatch":false},{"osm":{"type":"node","id":11844761310,"tags":{"amenity":"recycling","operator:wikidata":"Q85614408","recycling:clothes":"yes","recycling:shoes":"yes","recycling_type":"container"},"wikidata":"Q85614408","coordinates":[42.6483027,23.384628]},"atp":{"id":"lGPCl4agVPPB7J1g83xeQItWEa4=","tags":{"@source_uri":"https://texcycle.bg/bin-locations-list/","@spider":"texcycle_bg","amenity":"recycling","recycling:clothes":"yes","recycling:shoes":"yes","addr:country":"BG","operator:wikidata":"Q85614408","nsi_id":"texcycle-f11175"},"coordinates":[42.648231,23.384672]},"dist":8.747,"tags_mismatch":true},{"osm":{"type":"node","id":12048889229,"tags":{"amenity":"recycling","operator:wikidata":"Q85614408","recycling:clothes":"yes","recycling:shoes":"yes","recycling_type":"container"},"wikidata":"Q85614408","coordinates":[42.6778131,23.3212083]},"atp":{"id":"JUZxyj123LlFRvyhilshDxHFA0Q=","tags":{"@source_uri":"https://texcycle.bg/bin-locations-list/","@spider":"texcycle_bg","amenity":"recycling","recycling:clothes":"yes","recycling:shoes":"yes","addr:country":"BG","operator:wikidata":"Q85614408","nsi_id":"texcycle-f11175"},"coordinates":[42.677212,23.320387]},"dist":94.738,"tags_mismatch":true},{"osm":{"type":"node","id":12100640485,"tags":{"amenity":"recycling","count":"2","operator:wikidata":"Q85614408","recycling:clothes":"yes","recycling:shoes":"yes","recycling_type":"container"},"wikidata":"Q85614408","coordinates":[42.7150641,23.2672223]},"atp":{"id":"RIi1eyUEqKgP_d38edq-2MN67Y0=","tags":{"@source_uri":"https://texcycle.bg/bin-locations-list/","@spider":"texcycle_bg","amenity":"recycling","recycling:clothes":"yes","recycling:shoes":"yes","addr:country":"BG","operator:wikidata":"Q85614408","nsi_id":"texcycle-f11175"},"coordinates":[42.715067,23.267211]},"dist":0.978,"tags_mismatch":true},{"osm":{"type":"node","id":12101361950,"tags":{"amenity":"recycling","operator:wikidata":"Q85614408","recycling:clothes":"yes","recycling:shoes":"yes"},"wikidata":"Q85614408","coordinates":[42.5864494,23.3604068]},"atp":{"id":"C0cBu6hzYGdzKvEv0BDir9F4Lnk=","tags":{"@source_uri":"https://texcycle.bg/bin-locations-list/","@spider":"texcycle_bg","amenity":"recycling","recycling:clothes":"yes","recycling:shoes":"yes","addr:country":"BG","operator:wikidata":"Q85614408","nsi_id":"texcycle-f11175"},"coordinates":[42.586447,23.360402]},"dist":0.475,"tags_mismatch":true},{"osm":{"type":"node","id":12126034535,"tags":{"amenity":"recycling","location":"overground","operator:wikidata":"Q85614408","recycling:clothes":"yes","recycling:shoes":"yes","recycling_type":"container"},"wikidata":"Q85614408","coordinates":[42.6736236,23.2996271]},"atp":{"id":"J9GYQ53SEmQcF18EHZKrucnEZ78=","tags":{"@source_uri":"https://texcycle.bg/bin-locations-list/","@spider":"texcycle_bg","amenity":"recycling","recycling:clothes":"yes","recycling:shoes":"yes","addr:country":"BG","operator:wikidata":"Q85614408","nsi_id":"texcycle-f11175"},"coordinates":[42.67365,23.29953]},"dist":8.464,"tags_mismatch":true},{"osm":{"type":"node","id":12155259636,"tags":{"amenity":"recycling","operator:wikidata":"Q85614408","recycling:clothes":"yes","recycling:shoes":"yes","recycling_type":"container"},"wikidata":"Q85614408","coordinates":[42.6351063,23.3749201]},"atp":{"id":"RPhAuZjMe5-4Uy16tPteD5ZZ3yM=","tags":{"@source_uri":"https://texcycle.bg/bin-locations-list/","@spider":"texcycle_bg","amenity":"recycling","recycling:clothes":"yes","recycling:shoes":"yes","addr:country":"BG","operator:wikidata":"Q85614408","nsi_id":"texcycle-f11175"},"coordinates":[42.635072,23.374926]},"dist":3.844,"tags_mismatch":true},{"osm":{"type":"node","id":12155283983,"tags":{"amenity":"recycling","count":"2","operator:wikidata":"Q85614408","recycling:clothes":"yes","recycling:shoes":"yes","recycling_type":"container"},"wikidata":"Q85614408","coordinates":[42.6411337,23.3727704]},"atp":{"id":"ZsbvB63gJlx1Dr1kmbuhPBuHtlk=","tags":{"@source_uri":"https://texcycle.bg/bin-locations-list/","@spider":"texcycle_bg","amenity":"recycling","recycling:clothes":"yes","recycling:shoes":"yes","addr:country":"BG","operator:wikidata":"Q85614408","nsi_id":"texcycle-f11175"},"coordinates":[42.641238,23.372969]},"dist":19.96,"tags_mismatch":true},{"osm":{"type":"node","id":12157835946,"tags":{"amenity":"recycling","location":"overground","operator:wikidata":"Q85614408","recycling:clothes":"yes","recycling:shoes":"yes","recycling_type":"container"},"wikidata":"Q85614408","coordinates":[42.7021599,23.2833797]},"atp":{"id":"56RXlDvDTuKG1AWdw6sUfVW57Mc=","tags":{"@source_uri":"https://texcycle.bg/bin-locations-list/","@spider":"texcycle_bg","amenity":"recycling","recycling:clothes":"yes","recycling:shoes":"yes","addr:country":"BG","operator:wikidata":"Q85614408","nsi_id":"texcycle-f11175"},"coordinates":[42.70219,23.283367]},"dist":3.504,"tags_mismatch":true},{"osm":{"type":"node","id":12192263393,"tags":{"amenity":"recycling","check_date":"2025-05-23","operator:wikidata":"Q85614408","recycling:clothes":"yes","recycling:shoes":"yes","recycling_type":"container"},"wikidata":"Q85614408","coordinates":[42.6977704,23.3311814]},"atp":{"id":"xxnBKmapPafUwr09QyuzNids7SI=","tags":{"@source_uri":"https://texcycle.bg/bin-locations-list/","@spider":"texcycle_bg","amenity":"recycling","recycling:clothes":"yes","recycling:shoes":"yes","addr:country":"BG","operator:wikidata":"Q85614408","nsi_id":"texcycle-f11175"},"coordinates":[42.697689,23.331146]},"dist":9.502,"tags_mismatch":true},{"osm":{"type":"node","id":12192263774,"tags":{"amenity":"recycling","operator:wikidata":"Q85614408","recycling:clothes":"yes","recycling:shoes":"yes","recycling_type":"container"},"wikidata":"Q85614408","coordinates":[42.6966479,23.3425498]},"atp":{"id":"A4bbXl3VerB-_lHi5XLOl5k7blI=","tags":{"@source_uri":"https://texcycle.bg/bin-locations-list/","@spider":"texcycle_bg","amenity":"recycling","recycling:clothes":"yes","recycling:shoes":"yes","addr:country":"BG","operator:wikidata":"Q85614408","nsi_id":"texcycle-f11175"},"coordinates":[42.69646,23.34235]},"dist":26.517,"tags_mismatch":true},{"osm":{"type":"node","id":12192266714,"tags":{"amenity":"recycling","operator:wikidata":"Q85614408","recycling:clothes":"yes","recycling:shoes":"yes","recycling_type":"container"},"wikidata":"Q85614408","coordinates":[42.7044425,23.3259009]},"atp":{"id":"u7F8t-GxOfdU_C8HaJkuC0f3Yqc=","tags":{"@source_uri":"https://texcycle.bg/bin-locations-list/","@spider":"texcycle_bg","amenity":"recycling","recycling:clothes":"yes","recycling:shoes":"yes","addr:country":"BG","operator:wikidata":"Q85614408","nsi_id":"texcycle-f11175"},"coordinates":[42.70442,23.325817]},"dist":7.298,"tags_mismatch":true},{"osm":{"type":"node","id":12192283112,"tags":{"amenity":"recycling","count":"2","operator:wikidata":"Q85614408","recycling:clothes":"yes","recycling:shoes":"yes","recycling_type":"container"},"wikidata":"Q85614408","coordinates":[42.7063325,23.2849675]},"atp":{"id":"25tj-Jms8lhpJoiwbtKOc3qsrzI=","tags":{"@source_uri":"https://texcycle.bg/bin-locations-list/","@spider":"texcycle_bg","amenity":"recycling","recycling:clothes":"yes","recycling:shoes":"yes","addr:country":"BG","operator:wikidata":"Q85614408","nsi_id":"texcycle-f11175"},"coordinates":[42.706412,23.28484]},"dist":13.663,"tags_mismatch":true},{"osm":{"type":"node","id":12192284048,"tags":{"amenity":"recycling","count":"2","note":"looks like there are 2 containers from aerials","operator:wikidata":"Q85614408","recycling:clothes":"yes","recycling:shoes":"yes","recycling_type":"container"},"wikidata":"Q85614408","coordinates":[42.6962546,23.3080598]},"atp":{"id":"tagWM06ESQa9FUcTyEHBqGydfFg=","tags":{"@source_uri":"https://texcycle.bg/bin-locations-list/","@spider":"texcycle_bg","amenity":"recycling","recycling:clothes":"yes","recycling:shoes":"yes","addr:country":"BG","operator:wikidata":"Q85614408","nsi_id":"texcycle-f11175"},"coordinates":[42.696325,23.307557]},"dist":41.83,"tags_mismatch":true},{"osm":{"type":"node","id":12192861866,"tags":{"amenity":"recycling","operator:wikidata":"Q85614408","recycling:clothes":"yes","recycling:shoes":"yes","recycling_type":"container"},"wikidata":"Q85614408","coordinates":[42.7189266,23.2565898]},"atp":{"id":"LEbSWUG6FgxuDMD7c6Dv8JOcjO8=","tags":{"@source_uri":"https://texcycle.bg/bin-locations-list/","@spider":"texcycle_bg","amenity":"recycling","recycling:clothes":"yes","recycling:shoes":"yes","addr:country":"BG","operator:wikidata":"Q85614408","nsi_id":"texcycle-f11175"},"coordinates":[42.718792,23.25676]},"dist":20.429,"tags_mismatch":true},{"osm":{"type":"node","id":12192861868,"tags":{"amenity":"recycling","operator:wikidata":"Q85614408","recycling:clothes":"yes","recycling:shoes":"yes","recycling_type":"container"},"wikidata":"Q85614408","coordinates":[42.7136224,23.2464622]},"atp":{"id":"0Thn_4wfIdr-kBdR9wtelJfSM84=","tags":{"@source_uri":"https://texcycle.bg/bin-locations-list/","@spider":"texcycle_bg","amenity":"recycling","recycling:clothes":"yes","recycling:shoes":"yes","addr:country":"BG","operator:wikidata":"Q85614408","nsi_id":"texcycle-f11175"},"coordinates":[42.71357,23.24644]},"dist":6.102,"tags_mismatch":true},{"osm":{"type":"node","id":12192884088,"tags":{"amenity":"recycling","operator:wikidata":"Q85614408","recycling:clothes":"yes","recycling:shoes":"yes","recycling_type":"container"},"wikidata":"Q85614408","coordinates":[42.6711005,23.2590768]},"atp":{"id":"7Fy_jK4277lP-Qgj27vtFLkptvA=","tags":{"@source_uri":"https://texcycle.bg/bin-locations-list/","@spider":"texcycle_bg","amenity":"recycling","recycling:clothes":"yes","recycling:shoes":"yes","addr:country":"BG","operator:wikidata":"Q85614408","nsi_id":"texcycle-f11175"},"coordinates":[42.671169,23.259138]},"dist":9.113,"tags_mismatch":true},{"osm":{"type":"node","id":12192884109,"tags":{"amenity":"recycling","count":"2","operator:wikidata":"Q85614408","recycling:clothes":"yes","recycling:shoes":"yes","recycling_type":"container"},"wikidata":"Q85614408","coordinates":[42.6612329,23.2431126]},"atp":{"id":"QnTt76iy6NjD8lmeZ8tYvX9FjLI=","tags":{"@source_uri":"https://texcycle.bg/bin-locations-list/","@spider":"texcycle_bg","amenity":"recycling","recycling:clothes":"yes","recycling:shoes":"yes","addr:country":"BG","operator:wikidata":"Q85614408","nsi_id":"texcycle-f11175"},"coordinates":[42.660818,23.242946]},"dist":48.104,"tags_mismatch":true},{"osm":{"type":"node","id":12193009155,"tags":{"amenity":"recycling","count":"2","operator:wikidata":"Q85614408","recycling:clothes":"yes","recycling:shoes":"yes","recycling_type":"container"},"wikidata":"Q85614408","coordinates":[42.6990946,23.2900846]},"atp":{"id":"MAFt6OAjrjFR9HXZNJWexKWwIRw=","tags":{"@source_uri":"https://texcycle.bg/bin-locations-list/","@spider":"texcycle_bg","amenity":"recycling","recycling:clothes":"yes","recycling:shoes":"yes","addr:country":"BG","operator:wikidata":"Q85614408","nsi_id":"texcycle-f11175"},"coordinates":[42.699148,23.290147]},"dist":7.827,"tags_mismatch":true},{"osm":{"type":"node","id":12193029040,"tags":{"amenity":"recycling","operator:wikidata":"Q85614408","recycling:clothes":"yes","recycling:shoes":"yes","recycling_type":"container"},"wikidata":"Q85614408","coordinates":[42.6927755,23.2819605]},"atp":{"id":"m2fmnwQ9G3GnMLzVdq3axI8p76c=","tags":{"@source_uri":"https://texcycle.bg/bin-locations-list/","@spider":"texcycle_bg","amenity":"recycling","recycling:clothes":"yes","recycling:shoes":"yes","addr:country":"BG","operator:wikidata":"Q85614408","nsi_id":"texcycle-f11175"},"coordinates":[42.692707,23.282032]},"dist":9.6,"tags_mismatch":true},{"osm":{"type":"node","id":12193039984,"tags":{"amenity":"recycling","operator:wikidata":"Q85614408","recycling:clothes":"yes","recycling:shoes":"yes","recycling_type":"container"},"wikidata":"Q85614408","coordinates":[42.6863039,23.2471128]},"atp":{"id":"MTUhha-umKomvcklNBE_41MnCJY=","tags":{"@source_uri":"https://texcycle.bg/bin-locations-list/","@spider":"texcycle_bg","amenity":"recycling","recycling:clothes":"yes","recycling:shoes":"yes","addr:country":"BG","operator:wikidata":"Q85614408","nsi_id":"texcycle-f11175"},"coordinates":[42.686322,23.247092]},"dist":2.635,"tags_mismatch":true},{"osm":{"type":"node","id":12193050954,"tags":{"amenity":"recycling","operator:wikidata":"Q85614408","recycling:clothes":"yes","recycling:shoes":"yes","recycling_type":"container"},"wikidata":"Q85614408","coordinates":[42.710146,23.3000328]},"atp":{"id":"0qynX-FaMRBW33_XdiSt7Lh9jHg=","tags":{"@source_uri":"https://texcycle.bg/bin-locations-list/","@spider":"texcycle_bg","amenity":"recycling","recycling:clothes":"yes","recycling:shoes":"yes","addr:country":"BG","operator:wikidata":"Q85614408","nsi_id":"texcycle-f11175"},"coordinates":[42.710159,23.300021]},"dist":1.738,"tags_mismatch":true},{"osm":{"type":"node","id":12193066345,"tags":{"amenity":"recycling","fixme":"verify existence, visible only on aerials","operator:wikidata":"Q85614408","recycling:clothes":"yes","recycling:shoes":"yes","recycling_type":"container"},"wikidata":"Q85614408","coordinates":[42.7014198,23.2918164]},"atp":{"id":"XP_FPg7iIOv1ktXmeIpuGRmlRmg=","tags":{"@source_uri":"https://texcycle.bg/bin-locations-list/","@spider":"texcycle_bg","amenity":"recycling","recycling:clothes":"yes","recycling:shoes":"yes","addr:country":"BG","operator:wikidata":"Q85614408","nsi_id":"texcycle-f11175"},"coordinates":[42.701485,23.291885]},"dist":9.164,"tags_mismatch":true},{"osm":{"type":"node","id":12193204286,"tags":{"amenity":"recycling","operator:wikidata":"Q85614408","recycling:clothes":"yes","recycling:shoes":"yes","recycling_type":"container"},"wikidata":"Q85614408","coordinates":[42.7394723,23.3033229]},"atp":{"id":"IEUnQ0eDvm96GHooCgc_nKiUiAk=","tags":{"@source_uri":"https://texcycle.bg/bin-locations-list/","@spider":"texcycle_bg","amenity":"recycling","recycling:clothes":"yes","recycling:shoes":"yes","addr:country":"BG","operator:wikidata":"Q85614408","nsi_id":"texcycle-f11175"},"coordinates":[42.73937,23.30335]},"dist":11.589,"tags_mismatch":true},{"osm":{"type":"node","id":12205855008,"tags":{"amenity":"recycling","operator:wikidata":"Q85614408","recycling:clothes":"yes","recycling:shoes":"yes","recycling_type":"container"},"wikidata":"Q85614408","coordinates":[42.6684723,23.2957309]},"atp":{"id":"N7zZyDa8b0hsfNR-mq99Mjv55lI=","tags":{"@source_uri":"https://texcycle.bg/bin-locations-list/","@spider":"texcycle_bg","amenity":"recycling","recycling:clothes":"yes","recycling:shoes":"yes","addr:country":"BG","operator:wikidata":"Q85614408","nsi_id":"texcycle-f11175"},"coordinates":[42.668415,23.295734]},"dist":6.377,"tags_mismatch":true},{"osm":{"type":"node","id":12214776446,"tags":{"amenity":"recycling","operator:wikidata":"Q85614408","recycling:clothes":"yes","recycling:shoes":"yes","recycling_type":"container"},"wikidata":"Q85614408","coordinates":[42.6837442,23.2874774]},"atp":{"id":"qVklXqqyB4SbAG1B2ZeSOVUYcUQ=","tags":{"@source_uri":"https://texcycle.bg/bin-locations-list/","@spider":"texcycle_bg","amenity":"recycling","recycling:clothes":"yes","recycling:shoes":"yes","addr:country":"BG","operator:wikidata":"Q85614408","nsi_id":"texcycle-f11175"},"coordinates":[42.683682,23.287439]},"dist":7.595,"tags_mismatch":true},{"osm":{"type":"node","id":12296905834,"tags":{"amenity":"recycling","operator:wikidata":"Q85614408","recycling:clothes":"yes","recycling:shoes":"yes","recycling_type":"container"},"wikidata":"Q85614408","coordinates":[42.6949801,23.3223726]},"atp":{"id":"0D41x7gVpYDeOTqyUiE9O0Ar71s=","tags":{"@source_uri":"https://texcycle.bg/bin-locations-list/","@spider":"texcycle_bg","amenity":"recycling","recycling:clothes":"yes","recycling:shoes":"yes","addr:country":"BG","operator:wikidata":"Q85614408","nsi_id":"texcycle-f11175"},"coordinates":[42.69543,23.322409]},"dist":50.115,"tags_mismatch":true},{"osm":{"type":"node","id":12297523550,"tags":{"amenity":"recycling","operator:wikidata":"Q85614408","recycling:clothes":"yes","recycling:shoes":"yes"},"wikidata":"Q85614408","coordinates":[42.6639415,23.3498148]},"atp":{"id":"iA611NwpuUFiRYyMfehEN-rY5W8=","tags":{"@source_uri":"https://texcycle.bg/bin-locations-list/","@spider":"texcycle_bg","amenity":"recycling","recycling:clothes":"yes","recycling:shoes":"yes","addr:country":"BG","operator:wikidata":"Q85614408","nsi_id":"texcycle-f11175"},"coordinates":[42.663935,23.349723]},"dist":7.541,"tags_mismatch":true},{"osm":{"type":"node","id":12297542383,"tags":{"amenity":"recycling","operator:wikidata":"Q85614408","recycling:clothes":"yes","recycling:shoes":"yes"},"wikidata":"Q85614408","coordinates":[42.652793,23.3473089]},"atp":{"id":"Kq85U19QfAq9sVGQU9nbj8Dsj70=","tags":{"@source_uri":"https://texcycle.bg/bin-locations-list/","@spider":"texcycle_bg","amenity":"recycling","recycling:clothes":"yes","recycling:shoes":"yes","addr:country":"BG","operator:wikidata":"Q85614408","nsi_id":"texcycle-f11175"},"coordinates":[42.65288,23.347201]},"dist":13.094,"tags_mismatch":true},{"osm":{"type":"node","id":12297552513,"tags":{"amenity":"recycling","operator:wikidata":"Q85614408","recycling:clothes":"yes","recycling:shoes":"yes"},"wikidata":"Q85614408","coordinates":[42.6513581,23.3638299]},"atp":{"id":"WNFwIRG_-ffbS_ZDZe8B6guH8xM=","tags":{"@source_uri":"https://texcycle.bg/bin-locations-list/","@spider":"texcycle_bg","amenity":"recycling","recycling:clothes":"yes","recycling:shoes":"yes","addr:country":"BG","operator:wikidata":"Q85614408","nsi_id":"texcycle-f11175"},"coordinates":[42.651348,23.363783]},"dist":3.997,"tags_mismatch":true},{"osm":{"type":"node","id":12669766500,"tags":{"amenity":"recycling","operator:wikidata":"Q85614408","recycling:clothes":"yes","recycling:shoes":"yes","recycling_type":"container"},"wikidata":"Q85614408","coordinates":[42.6696757,23.3578189]},"atp":{"id":"isdm_xnIOKBM8d6CY2RLBDiql1Q=","tags":{"@source_uri":"https://texcycle.bg/bin-locations-list/","@spider":"texcycle_bg","amenity":"recycling","recycling:clothes":"yes","recycling:shoes":"yes","addr:country":"BG","operator:wikidata":"Q85614408","nsi_id":"texcycle-f11175"},"coordinates":[42.669598,23.357995]},"dist":16.791,"tags_mismatch":true},{"osm":false,"atp":false,"tags_mismatch":false,"dist":0},{"osm":false,"atp":false,"tags_mismatch":false,"dist":0},{"osm":false,"atp":{"id":"BRbg8VvchjxMnJuirGMltC7n5IQ=","tags":{"amenity":"recycling","recycling:clothes":"yes","recycling:shoes":"yes","addr:country":"BG","name":"СРЕДЕЦ – кръстовището на ул. Цар Иван Асен II с ул. Мизия","operator:wikidata":"Q85614408"},"coordinates":[42.689144,23.344159]},"tags_mismatch":false,"dist":0},{"osm":false,"atp":false,"tags_mismatch":false,"dist":0},{"osm":false,"atp":false,"tags_mismatch":false,"dist":0},{"osm":false,"atp":false,"tags_mismatch":false,"dist":0},{"osm":false,"atp":false,"tags_mismatch":false,"dist":0},{"osm":false,"atp":false,"tags_mismatch":false,"dist":0},{"osm":false,"atp":false,"tags_mismatch":false,"dist":0},{"osm":false,"atp":false,"tags_mismatch":false,"dist":0},{"osm":false,"atp":false,"tags_mismatch":false,"dist":0},{"osm":false,"atp":false,"tags_mismatch":false,"dist":0},{"osm":false,"atp":false,"tags_mismatch":false,"dist":0},{"osm":false,"atp":false,"tags_mismatch":false,"dist":0},{"osm":false,"atp":false,"tags_mismatch":false,"dist":0},{"osm":false,"atp":{"id":"f-JdUDOgoC2G-WmTtGeIrfaR6Ag=","tags":{"amenity":"recycling","recycling:clothes":"yes","recycling:shoes":"yes","addr:country":"BG","name":"ВЪЗРАЖДАНЕ – УНИКРЕДИТ, ул. Гюешево 14, паркинга встрани от Билла","operator:wikidata":"Q85614408"},"coordinates":[42.69715,23.30158]},"tags_mismatch":false,"dist":0},{"osm":false,"atp":false,"tags_mismatch":false,"dist":0},{"osm":false,"atp":{"id":"kAcpKLEeMzL0VqCuH6q3xEblpX0=","tags":{"amenity":"recycling","recycling:clothes":"yes","recycling:shoes":"yes","addr:country":"BG","name":"ВЪЗРАЖДАНЕ – ъгъла на ул. Пиротска с бул. инж. Иван Иванов","operator:wikidata":"Q85614408"},"coordinates":[42.702434,23.303371]},"tags_mismatch":false,"dist":0},{"osm":false,"atp":false,"tags_mismatch":false,"dist":0},{"osm":false,"atp":false,"tags_mismatch":false,"dist":0},{"osm":false,"atp":{"id":"i5tG-lQd9GUdlVicZb8h7Kn2t4w=","tags":{"amenity":"recycling","recycling:clothes":"yes","recycling:shoes":"yes","addr:country":"BG","name":"ОБОРИЩЕ – ул. Каймакчалан, вляво от входа на МОЛ Сердика","operator:wikidata":"Q85614408"},"coordinates":[42.692411,23.354802]},"tags_mismatch":false,"dist":0},{"osm":false,"atp":false,"tags_mismatch":false,"dist":0},{"osm":false,"atp":{"id":"bofui7q5WtKjB6yWVO-M46nlXIA=","tags":{"amenity":"recycling","recycling:clothes":"yes","recycling:shoes":"yes","addr:country":"BG","name":"ОБОРИЩЕ – ъгъла на ул. Ангиста с ул. Кешан, до ЛИДЛ","operator:wikidata":"Q85614408"},"coordinates":[42.703893,23.334758]},"tags_mismatch":false,"dist":0},{"osm":false,"atp":{"id":"VEbD8C2RST7PG9ABOgxjNgd-q5A=","tags":{"amenity":"recycling","recycling:clothes":"yes","recycling:shoes":"yes","addr:country":"BG","name":"СЛАТИНА – ж.к. Гео Милев, ул. Атанас Узунов – срещу Асикс Арена","operator:wikidata":"Q85614408"},"coordinates":[42.684515,23.364293]},"tags_mismatch":false,"dist":0},{"osm":false,"atp":false,"tags_mismatch":false,"dist":0},{"osm":false,"atp":{"id":"k5x22E4vzAxbGvSebU_IjVUmQVo=","tags":{"amenity":"recycling","recycling:clothes":"yes","recycling:shoes":"yes","addr:country":"BG","name":"СЛАТИНА – кръстовището на ул. Слатинска и ул. Борис Новоселски, до бл.41 А","operator:wikidata":"Q85614408"},"coordinates":[42.687755,23.371406]},"tags_mismatch":false,"dist":0},{"osm":false,"atp":{"id":"gIz-trGZakz3D8Jd5n9sDP9mTCY=","tags":{"amenity":"recycling","recycling:clothes":"yes","recycling:shoes":"yes","addr:country":"BG","name":"СЛАТИНА – ул. Гео Милев, спирка „Слатина“","operator:wikidata":"Q85614408"},"coordinates":[42.680456,23.372742]},"tags_mismatch":false,"dist":0},{"osm":false,"atp":{"id":"qtCvAooOmTNxuEZ8xZKu_e5zptY=","tags":{"amenity":"recycling","recycling:clothes":"yes","recycling:shoes":"yes","addr:country":"BG","name":"СЛАТИНА – ул. Николай Коперник, спирката до 93 СУ „Ал.Теодоров-Балан“","operator:wikidata":"Q85614408"},"coordinates":[42.681886,23.362338]},"tags_mismatch":false,"dist":0},{"osm":false,"atp":{"id":"dbNyIQsIlI81OtBmbPggIe1cvpc=","tags":{"amenity":"recycling","recycling:clothes":"yes","recycling:shoes":"yes","addr:country":"BG","name":"СЛАТИНА – бул. Шипченски проход, пред зала Универсиада","operator:wikidata":"Q85614408"},"coordinates":[42.68137,23.356288]},"tags_mismatch":false,"dist":0},{"osm":false,"atp":{"id":"vJ41NUjPyJ6MpGaLB4IMfIafOjY=","tags":{"amenity":"recycling","recycling:clothes":"yes","recycling:shoes":"yes","addr:country":"BG","name":"СЛАТИНА – кръстовището на ул. Коста Лулчев и ул. Ал. Вон Хумболт","operator:wikidata":"Q85614408"},"coordinates":[42.68137,23.356288]},"tags_mismatch":false,"dist":0},{"osm":false,"atp":{"id":"tpMecKijNp8eljZ3LZ4cuuSPHvc=","tags":{"amenity":"recycling","recycling:clothes":"yes","recycling:shoes":"yes","addr:country":"BG","name":"СЛАТИНА – ул. Кутловица, пред 23 СУ Фредерик Ж. Кюри","operator:wikidata":"Q85614408"},"coordinates":[42.695116,23.356506]},"tags_mismatch":false,"dist":0},{"osm":false,"atp":false,"tags_mismatch":false,"dist":0},{"osm":false,"atp":false,"tags_mismatch":false,"dist":0},{"osm":false,"atp":false,"tags_mismatch":false,"dist":0},{"osm":false,"atp":false,"tags_mismatch":false,"dist":0},{"osm":false,"atp":false,"tags_mismatch":false,"dist":0},{"osm":false,"atp":false,"tags_mismatch":false,"dist":0},{"osm":false,"atp":false,"tags_mismatch":false,"dist":0},{"osm":false,"atp":false,"tags_mismatch":false,"dist":0},{"osm":false,"atp":false,"tags_mismatch":false,"dist":0},{"osm":false,"atp":false,"tags_mismatch":false,"dist":0},{"osm":false,"atp":false,"tags_mismatch":false,"dist":0},{"osm":false,"atp":false,"tags_mismatch":false,"dist":0},{"osm":false,"atp":false,"tags_mismatch":false,"dist":0},{"osm":false,"atp":false,"tags_mismatch":false,"dist":0},{"osm":false,"atp":false,"tags_mismatch":false,"dist":0},{"osm":false,"atp":false,"tags_mismatch":false,"dist":0},{"osm":false,"atp":false,"tags_mismatch":false,"dist":0},{"osm":false,"atp":false,"tags_mismatch":false,"dist":0},{"osm":false,"atp":false,"tags_mismatch":false,"dist":0},{"osm":false,"atp":false,"tags_mismatch":false,"dist":0},{"osm":false,"atp":false,"tags_mismatch":false,"dist":0},{"osm":false,"atp":false,"tags_mismatch":false,"dist":0},{"osm":false,"atp":false,"tags_mismatch":false,"dist":0},{"osm":false,"atp":false,"tags_mismatch":false,"dist":0},{"osm":false,"atp":false,"tags_mismatch":false,"dist":0},{"osm":false,"atp":false,"tags_mismatch":false,"dist":0},{"osm":false,"atp":{"id":"fasXjPfWyROZjPN4SrJ4XcST3h0=","tags":{"amenity":"recycling","recycling:clothes":"yes","recycling:shoes":"yes","addr:country":"BG","name":"КРАСНА ПОЛЯНА – кръстовището на ул. Румяна с ул. Стария войн, до бл. 24Ж","operator:wikidata":"Q85614408"},"coordinates":[42.696886,23.283013]},"tags_mismatch":false,"dist":0},{"osm":false,"atp":false,"tags_mismatch":false,"dist":0},{"osm":false,"atp":{"id":"5rqeb-dSOS7zMhSGPnwHvZwbiBQ=","tags":{"amenity":"recycling","recycling:clothes":"yes","recycling:shoes":"yes","addr:country":"BG","name":"КРАСНА ПОЛЯНА – ул. Суходолска до бл. 124В","operator:wikidata":"Q85614408"},"coordinates":[42.700726,23.278682]},"tags_mismatch":false,"dist":0},{"osm":false,"atp":false,"tags_mismatch":false,"dist":0},{"osm":false,"atp":false,"tags_mismatch":false,"dist":0},{"osm":false,"atp":{"id":"1wtSrd-kfbNV_2jlFyE1Ms1iAM8=","tags":{"amenity":"recycling","recycling:clothes":"yes","recycling:shoes":"yes","addr:country":"BG","name":"ИЛИНДЕН – ж.к. Света Троица, ъгъла на ул. Насте Стоянов и ул. Цар Иван Александър, до магазин Била","operator:wikidata":"Q85614408"},"coordinates":[42.707634,23.295007]},"tags_mismatch":false,"dist":0},{"osm":false,"atp":{"id":"RRXckkI51obVsnXC8LwzeguxKik=","tags":{"amenity":"recycling","recycling:clothes":"yes","recycling:shoes":"yes","addr:country":"BG","name":"НАДЕЖДА – ул. Република, до 137 ОДЗ „Калина Малина“","operator:wikidata":"Q85614408"},"coordinates":[42.732003,23.310308]},"tags_mismatch":false,"dist":0},{"osm":false,"atp":false,"tags_mismatch":false,"dist":0},{"osm":false,"atp":false,"tags_mismatch":false,"dist":0},{"osm":false,"atp":{"id":"Rqkd9w5i-16UtV0_umpc7dR7D5g=","tags":{"amenity":"recycling","recycling:clothes":"yes","recycling:shoes":"yes","addr:country":"BG","name":"НАДЕЖДА – кв. Илиенци, площада на ул. Жасмин и бул. Рожен","operator:wikidata":"Q85614408"},"coordinates":[42.750978,23.318027]},"tags_mismatch":false,"dist":0},{"osm":false,"atp":{"id":"9UobTdA8ZjiEPkhn2h-BoIU2pKw=","tags":{"amenity":"recycling","recycling:clothes":"yes","recycling:shoes":"yes","addr:country":"BG","name":"НАДЕЖДА – кв. Требич – ул. Латин Колев, Паметник на загиналите","operator:wikidata":"Q85614408"},"coordinates":[42.772696,23.316201]},"tags_mismatch":false,"dist":0},{"osm":false,"atp":false,"tags_mismatch":false,"dist":0},{"osm":false,"atp":{"id":"w38qLMUb_51nqbmrAiNgHePiqPQ=","tags":{"amenity":"recycling","recycling:clothes":"yes","recycling:shoes":"yes","addr:country":"BG","name":"ИСКЪР – Цариградски комплекс, бл. 285В","operator:wikidata":"Q85614408"},"coordinates":[42.647363,23.401194]},"tags_mismatch":false,"dist":0},{"osm":false,"atp":{"id":"gQ7z-GkIDS67JX90pfav_owLLwU=","tags":{"amenity":"recycling","recycling:clothes":"yes","recycling:shoes":"yes","addr:country":"BG","name":"ИСКЪР – ж.к. Дружба – бул. Цветан Лазаров, до храм „Св.Пророк Илия 2“","operator:wikidata":"Q85614408"},"coordinates":[42.655119,23.399704]},"tags_mismatch":false,"dist":0},{"osm":false,"atp":{"id":"0W27fyvjSmWCYFQo6OKBfSge7o4=","tags":{"amenity":"recycling","recycling:clothes":"yes","recycling:shoes":"yes","addr:country":"BG","name":"ИСКЪР – ж.к. Дружба, ул. 5038, до Т-Маркет","operator:wikidata":"Q85614408"},"coordinates":[42.669663,23.389977]},"tags_mismatch":false,"dist":0},{"osm":false,"atp":{"id":"T3QpVjAFFUK73bPr3NvuAhKu3ZA=","tags":{"amenity":"recycling","recycling:clothes":"yes","recycling:shoes":"yes","addr:country":"BG","name":"ИСКЪР – ж.к. Дружба, ул. 5041, зад бл.108","operator:wikidata":"Q85614408"},"coordinates":[42.66751,23.391851]},"tags_mismatch":false,"dist":0},{"osm":false,"atp":false,"tags_mismatch":false,"dist":0},{"osm":false,"atp":{"id":"ZTjzx3AxrOmOExD8rGxsojKD7Xs=","tags":{"amenity":"recycling","recycling:clothes":"yes","recycling:shoes":"yes","addr:country":"BG","name":"МЛАДОСТ – кв. Младост 3, бул. Свето Преображение – срещу сградата на районна администрация Младост","operator:wikidata":"Q85614408"},"coordinates":[42.640909,23.380704]},"tags_mismatch":false,"dist":0},{"osm":false,"atp":false,"tags_mismatch":false,"dist":0},{"osm":false,"atp":{"id":"VOt5WqhS7A2A4kSruVqhQVWbLJA=","tags":{"amenity":"recycling","recycling:clothes":"yes","recycling:shoes":"yes","addr:country":"BG","name":"МЛАДОСТ – кв. Младост 4, Метростанция Бизнес Парк, до буферен паркинг","operator:wikidata":"Q85614408"},"coordinates":[42.628852,23.373459]},"tags_mismatch":false,"dist":0},{"osm":false,"atp":false,"tags_mismatch":false,"dist":0},{"osm":false,"atp":false,"tags_mismatch":false,"dist":0},{"osm":false,"atp":{"id":"5YREiqZcceGA6rFtXbb3LMEwhSs=","tags":{"amenity":"recycling","recycling:clothes":"yes","recycling:shoes":"yes","addr:country":"BG","name":"МЛАДОСТ – кв. Младост 3, ул.Бъднина, пред 144 СУ „Народни будители“","operator:wikidata":"Q85614408"},"coordinates":[42.642804,23.377676]},"tags_mismatch":false,"dist":0},{"osm":false,"atp":false,"tags_mismatch":false,"dist":0},{"osm":false,"atp":{"id":"SyOdd4tYAqOEFYFHsapCYHkgoiw=","tags":{"amenity":"recycling","recycling:clothes":"yes","recycling:shoes":"yes","addr:country":"BG","name":"МЛАДОСТ – ул. проф. д-р Васил Златарски, трафопоста до бл. 221","operator:wikidata":"Q85614408"},"coordinates":[42.643467,23.37276]},"tags_mismatch":false,"dist":0},{"osm":false,"atp":{"id":"eoht34KDEdUC_up-lUjMR1TV0Uo=","tags":{"amenity":"recycling","recycling:clothes":"yes","recycling:shoes":"yes","addr:country":"BG","name":"МЛАДОСТ – кв. Горубляне, ъгъла на бул. Самоковско шосе и ул. Петър Дипларов","operator:wikidata":"Q85614408"},"coordinates":[42.626614,23.406901]},"tags_mismatch":false,"dist":0},{"osm":false,"atp":false,"tags_mismatch":false,"dist":0},{"osm":false,"atp":false,"tags_mismatch":false,"dist":0},{"osm":false,"atp":false,"tags_mismatch":false,"dist":0},{"osm":false,"atp":false,"tags_mismatch":false,"dist":0},{"osm":false,"atp":false,"tags_mismatch":false,"dist":0},{"osm":false,"atp":false,"tags_mismatch":false,"dist":0},{"osm":false,"atp":false,"tags_mismatch":false,"dist":0},{"osm":false,"atp":{"id":"66y_y3RyS4HRKf7wVND6J04YNbc=","tags":{"amenity":"recycling","recycling:clothes":"yes","recycling:shoes":"yes","addr:country":"BG","name":"ВИТОША – с. Владая, ул. Войнишко възстание, до читалище „Светлина“","operator:wikidata":"Q85614408"},"coordinates":[42.628908,23.196045]},"tags_mismatch":false,"dist":0},{"osm":false,"atp":{"id":"_GKYf-0ovl3v0Hx6xJKnlNh1gyA=","tags":{"amenity":"recycling","recycling:clothes":"yes","recycling:shoes":"yes","addr:country":"BG","name":"ВИТОША – с. Мърчаево, ъгъла на ул. Маниш с ул. Черешова градина","operator:wikidata":"Q85614408"},"coordinates":[42.600056,23.169826]},"tags_mismatch":false,"dist":0},{"osm":false,"atp":false,"tags_mismatch":false,"dist":0},{"osm":false,"atp":false,"tags_mismatch":false,"dist":0},{"osm":false,"atp":false,"tags_mismatch":false,"dist":0},{"osm":false,"atp":false,"tags_mismatch":false,"dist":0},{"osm":false,"atp":false,"tags_mismatch":false,"dist":0},{"osm":false,"atp":{"id":"XYa1hk7WagdfsWjdr67fKco-DTk=","tags":{"amenity":"recycling","recycling:clothes":"yes","recycling:shoes":"yes","addr:country":"BG","name":"СЕРДИКА – ж.к. Банишора, ул. Опълченска 117, бл. 37, вх. В","operator:wikidata":"Q85614408"},"coordinates":[42.711996,23.314445]},"tags_mismatch":false,"dist":0},{"osm":false,"atp":{"id":"FNTlzDX4Av3aWAiPdRA5ZSzgMn4=","tags":{"amenity":"recycling","recycling:clothes":"yes","recycling:shoes":"yes","addr:country":"BG","name":"СЕРДИКА – кв. Орландовци, ул. Железопътна 18, до Билла","operator:wikidata":"Q85614408"},"coordinates":[42.717684,23.342967]},"tags_mismatch":false,"dist":0},{"osm":false,"atp":{"id":"9Lit6ZWfOKOJsY2Dr1PuQqo35xA=","tags":{"amenity":"recycling","recycling:clothes":"yes","recycling:shoes":"yes","addr:country":"BG","name":"СЕРДИКА – кв. Банишора, кръстовището на ул. Ген. Иван Чернаев и ул. Подполковник Калитин","operator:wikidata":"Q85614408"},"coordinates":[42.709211,23.311016]},"tags_mismatch":false,"dist":0},{"osm":false,"atp":{"id":"pBCyqniqwJYu9Mru0goa_wAOkOo=","tags":{"amenity":"recycling","recycling:clothes":"yes","recycling:shoes":"yes","addr:country":"BG","name":"СЕРДИКА – кв. Банишора, бул. Ген. Николай Г. Столетов 5А","operator:wikidata":"Q85614408"},"coordinates":[42.711901,23.311969]},"tags_mismatch":false,"dist":0},{"osm":false,"atp":false,"tags_mismatch":false,"dist":0},{"osm":false,"atp":false,"tags_mismatch":false,"dist":0},{"osm":false,"atp":{"id":"WQC1nN_ILG6TvhSVFZI58ke0WmQ=","tags":{"amenity":"recycling","recycling:clothes":"yes","recycling:shoes":"yes","addr:country":"BG","name":"ОВЧА КУПЕЛ – бул. Президент Линкълн, до спирка „пазара Овча купел“","operator:wikidata":"Q85614408"},"coordinates":[42.686574,23.255546]},"tags_mismatch":false,"dist":0},{"osm":false,"atp":{"id":"QVcZSTc-bO35gVzAJwWD6amjo-Q=","tags":{"amenity":"recycling","recycling:clothes":"yes","recycling:shoes":"yes","addr:country":"BG","name":"ОВЧА КУПЕЛ – кв. Суходол, ул. Бъдеще, пред магазин Фреш маркет","operator:wikidata":"Q85614408"},"coordinates":[42.696156,23.227013]},"tags_mismatch":false,"dist":0},{"osm":false,"atp":{"id":"bXzkzZtv-pdFaGxQLzkLU6X1Dbo=","tags":{"amenity":"recycling","recycling:clothes":"yes","recycling:shoes":"yes","addr:country":"BG","name":"ПОДУЯНЕ – ул. Тодорини кукли 47, до Т-Маркет","operator:wikidata":"Q85614408"},"coordinates":[42.684128,23.241579]},"tags_mismatch":false,"dist":0},{"osm":false,"atp":false,"tags_mismatch":false,"dist":0},{"osm":false,"atp":{"id":"pGKwcwcly0QKKQvzjApbOeUyj-c=","tags":{"amenity":"recycling","recycling:clothes":"yes","recycling:shoes":"yes","addr:country":"BG","name":"ПОДУЯНЕ – кв. Левски В – ул. Поп Грую, срещу бл. 9","operator:wikidata":"Q85614408"},"coordinates":[42.708782,23.380417]},"tags_mismatch":false,"dist":0},{"osm":false,"atp":{"id":"8MlmapTk0ajVvJaq7atQIVtq4pA=","tags":{"amenity":"recycling","recycling:clothes":"yes","recycling:shoes":"yes","addr:country":"BG","name":"ПОДУЯНЕ – кв. Левски Г – ул. Г. Кюмюрджиев, между 199 ОУ и 91 ОДЗ","operator:wikidata":"Q85614408"},"coordinates":[42.713776,23.377171]},"tags_mismatch":false,"dist":0},{"osm":false,"atp":{"id":"aNYq6nRtjxJrDcuqoq_bd6thgeM=","tags":{"amenity":"recycling","recycling:clothes":"yes","recycling:shoes":"yes","addr:country":"BG","name":"ПОДУЯНЕ – кв. Левски Г – ул. Г. Кюмюрджиев срещу бл. 29","operator:wikidata":"Q85614408"},"coordinates":[42.713031,23.387106]},"tags_mismatch":false,"dist":0},{"osm":false,"atp":{"id":"tqY8_Mq44J7fYJqr7_vDOCrz6iY=","tags":{"amenity":"recycling","recycling:clothes":"yes","recycling:shoes":"yes","addr:country":"BG","name":"ПОДУЯНЕ – кв. Стефан Караджа – ул. Васил Кънчев, спирката до бл.142","operator:wikidata":"Q85614408"},"coordinates":[42.706867,23.357795]},"tags_mismatch":false,"dist":0},{"osm":false,"atp":{"id":"ctr3RGTJqZJDsnt8--J2SwooKEI=","tags":{"amenity":"recycling","recycling:clothes":"yes","recycling:shoes":"yes","addr:country":"BG","name":"ПОДУЯНЕ – кв. Хаджи Димитър – ул. Резбарска до бл. 100","operator:wikidata":"Q85614408"},"coordinates":[42.708675,23.343833]},"tags_mismatch":false,"dist":0},{"osm":false,"atp":{"id":"BN__FALEwyNoIrdyeEGMZXBaA1s=","tags":{"amenity":"recycling","recycling:clothes":"yes","recycling:shoes":"yes","addr:country":"BG","name":"ПОДУЯНЕ – кв. Хаджи Димитър – ул. Никола Войновски, до 42 ОУ","operator:wikidata":"Q85614408"},"coordinates":[42.706641,23.345008]},"tags_mismatch":false,"dist":0},{"osm":false,"atp":false,"tags_mismatch":false,"dist":0},{"osm":false,"atp":{"id":"p6HnsHg_1iCl2pRQkfi3R3U14Mk=","tags":{"amenity":"recycling","recycling:clothes":"yes","recycling:shoes":"yes","addr:country":"BG","name":"ПОДУЯНЕ – ъгъла на ул. Сава Цонев с ул. Емануил Васкидович, пред 44 СУ „Неофит Бозвели“","operator:wikidata":"Q85614408"},"coordinates":[42.701452,23.368026]},"tags_mismatch":false,"dist":0},{"osm":false,"atp":{"id":"3KJSHibT4UBuKRDUj1wN6eUUqHY=","tags":{"amenity":"recycling","recycling:clothes":"yes","recycling:shoes":"yes","addr:country":"BG","name":"ПОДУЯНЕ – ъгъла на бул. Ботевградско шосе с ул. Вършец, бл. 6, вх. А","operator:wikidata":"Q85614408"},"coordinates":[42.699887,23.370897]},"tags_mismatch":false,"dist":0},{"osm":false,"atp":{"id":"fYGpzzF5Blm42PybC0TOOAUY99g=","tags":{"amenity":"recycling","recycling:clothes":"yes","recycling:shoes":"yes","addr:country":"BG","name":"ВРЪБНИЦА – кръстовището на ул. Златен клас с ул. Асен Трайков, до Т-Маркет","operator:wikidata":"Q85614408"},"coordinates":[42.73831,23.29498]},"tags_mismatch":false,"dist":0},{"osm":false,"atp":{"id":"Hrfwgf7uamZgz-gb9LDXg9KY-hI=","tags":{"amenity":"recycling","recycling:clothes":"yes","recycling:shoes":"yes","addr:country":"BG","name":"ВРЪБНИЦА – кв. Връбница 2 – ул. Тричко Велев, обръщалото на автобус 285","operator:wikidata":"Q85614408"},"coordinates":[42.739277,23.290783]},"tags_mismatch":false,"dist":0},{"osm":false,"atp":{"id":"AtcfHnL-v0LAMoQrm6LlHmEk2KU=","tags":{"amenity":"recycling","recycling:clothes":"yes","recycling:shoes":"yes","addr:country":"BG","name":"ВРЪБНИЦА – с. Мрамор, ул. Васил Левски, градинката пред кметсвото","operator:wikidata":"Q85614408"},"coordinates":[42.785959,23.273957]},"tags_mismatch":false,"dist":0},{"osm":false,"atp":{"id":"Hzgy_6T7pg1V7RrrDTnbUvUBFb0=","tags":{"amenity":"recycling","recycling:clothes":"yes","recycling:shoes":"yes","addr:country":"BG","name":"КРЕМИКОВЦИ – с. Челопечене, площада","operator:wikidata":"Q85614408"},"coordinates":[42.73199,23.476029]},"tags_mismatch":false,"dist":0},{"osm":false,"atp":{"id":"Q0KN185Cr0i6QkVOdTdNhlscEZA=","tags":{"amenity":"recycling","recycling:clothes":"yes","recycling:shoes":"yes","addr:country":"BG","name":"КРЕМИКОВЦИ – с. Горни Богров, до кметството","operator:wikidata":"Q85614408"},"coordinates":[42.719278,23.529757]},"tags_mismatch":false,"dist":0},{"osm":false,"atp":false,"tags_mismatch":false,"dist":0},{"osm":false,"atp":{"id":"4HBzSVM2zVnPso16reXwjkoIAio=","tags":{"amenity":"recycling","recycling:clothes":"yes","recycling:shoes":"yes","addr:country":"BG","name":"ПАНЧАРЕВО – с. Кривина, ул. Розова градина, на площада","operator:wikidata":"Q85614408"},"coordinates":[42.680355,23.465201]},"tags_mismatch":false,"dist":0},{"osm":false,"atp":{"id":"-rJpYtNG9aKRse3UCXt5YVBxzfQ=","tags":{"amenity":"recycling","recycling:clothes":"yes","recycling:shoes":"yes","addr:country":"BG","name":"ПАНЧАРЕВО – с. Кокаляне, ъгъла на ул. Искър с ул. Кръстан Младенов","operator:wikidata":"Q85614408"},"coordinates":[42.680355,23.465201]},"tags_mismatch":false,"dist":0},{"osm":false,"atp":{"id":"jb8LihOE9soXZozEEbunyIT15u0=","tags":{"amenity":"recycling","recycling:clothes":"yes","recycling:shoes":"yes","addr:country":"BG","name":"БАНКЯ – ул. Цар Симеон 1","operator:wikidata":"Q85614408"},"coordinates":[42.705471,23.148053]},"tags_mismatch":false,"dist":0},{"osm":false,"atp":{"id":"9nXEXmWOP2LNPr-plQn96VIlITw=","tags":{"amenity":"recycling","recycling:clothes":"yes","recycling:shoes":"yes","addr:country":"BG","name":"БАНКЯ – ул. Цар Освободител 1","operator:wikidata":"Q85614408"},"coordinates":[42.705801,23.150936]},"tags_mismatch":false,"dist":0},{"osm":false,"atp":{"id":"CP5w4vBr9MaQfBDMG5Ppm_rlF18=","tags":{"amenity":"recycling","recycling:clothes":"yes","recycling:shoes":"yes","addr:country":"BG","name":"БАНКЯ – с. Иваняне, до кметсвото","operator:wikidata":"Q85614408"},"coordinates":[42.706298,23.18133]},"tags_mismatch":false,"dist":0},{"osm":false,"atp":false,"tags_mismatch":false,"dist":0},{"osm":false,"atp":{"id":"3frkXki04DBTWms12TGdq6cGrv0=","tags":{"amenity":"recycling","recycling:clothes":"yes","recycling:shoes":"yes","addr:country":"BG","name":"СТУДЕНТСКИ – ж.к. Дървеница – ул. Бели мел, зад Фантастико","operator:wikidata":"Q85614408"},"coordinates":[42.654,23.360852]},"tags_mismatch":false,"dist":0},{"osm":false,"atp":false,"tags_mismatch":false,"dist":0},{"osm":false,"atp":false,"tags_mismatch":false,"dist":0},{"osm":false,"atp":false,"tags_mismatch":false,"dist":0},{"osm":false,"atp":{"id":"Wl5W4Id8hVmAMWnoHdWEqTvS2aQ=","tags":{"amenity":"recycling","recycling:clothes":"yes","recycling:shoes":"yes","addr:country":"BG","name":"СТУДЕНТСКИ – кв. Малинова долина, ул. проф. Живко Сталев, зад бл. 23","operator:wikidata":"Q85614408"},"coordinates":[42.63706,23.341039]},"tags_mismatch":false,"dist":0},{"osm":false,"atp":{"id":"qcSTpNOKggaf86xRUh_oWPH0Q8Q=","tags":{"amenity":"recycling","recycling:clothes":"yes","recycling:shoes":"yes","addr:country":"BG","name":"НОВИ ИСКЪР – с. Негован, ул. Васил Левски, на площада","operator:wikidata":"Q85614408"},"coordinates":[42.768989,23.404968]},"tags_mismatch":false,"dist":0},{"osm":false,"atp":{"id":"SmXB8G4j_fQV5Gn4WLsxA2TuIPQ=","tags":{"amenity":"recycling","recycling:clothes":"yes","recycling:shoes":"yes","addr:country":"BG","name":"НОВИ ИСКЪР – с. Мировяне, ул. Чавдар Войвода, пред читалище Христо Ботев","operator:wikidata":"Q85614408"},"coordinates":[42.790947,23.304259]},"tags_mismatch":false,"dist":0},{"osm":false,"atp":{"id":"l5PbgVvdWrIuIKCk-hXMZ7NV6d0=","tags":{"amenity":"recycling","recycling:clothes":"yes","recycling:shoes":"yes","addr:country":"BG","name":"НОВИ ИСКЪР – с. Кубратово, ул. Куманица, срещу кметството","operator:wikidata":"Q85614408"},"coordinates":[42.772766,23.362085]},"tags_mismatch":false,"dist":0},{"osm":false,"atp":{"id":"tr9etVRAxlz3_G0Ensma-6TJDKI=","tags":{"amenity":"recycling","recycling:clothes":"yes","recycling:shoes":"yes","addr:country":"BG","name":"НОВИ ИСКЪР – кв. Курило, ул. Чавдар войвода, до Пощата","operator:wikidata":"Q85614408"},"coordinates":[42.822451,23.354284]},"tags_mismatch":false,"dist":0},{"osm":false,"atp":{"id":"mtvFY4s5ftYweRBqb4tQoTZqoi4=","tags":{"amenity":"recycling","recycling:clothes":"yes","recycling:shoes":"yes","addr:country":"BG","name":"НОВИ ИСКЪР – кв. Гниляне, площад Гнилянска република","operator:wikidata":"Q85614408"},"coordinates":[42.808857,23.376268]},"tags_mismatch":false,"dist":0},{"osm":false,"atp":{"id":"0zkM_Q0bJktghCALtTovo265djY=","tags":{"amenity":"recycling","recycling:clothes":"yes","recycling:shoes":"yes","addr:country":"BG","name":"НОВИ ИСКЪР – с. Подгумер, площад Васил Левски","operator:wikidata":"Q85614408"},"coordinates":[42.802756,23.403911]},"tags_mismatch":false,"dist":0},{"osm":false,"atp":{"id":"1hUhu-5OXtC-1XwWRt-wb3IniQI=","tags":{"amenity":"recycling","recycling:clothes":"yes","recycling:shoes":"yes","addr:country":"BG","name":"НОВИ ИСКЪР – с. Доброславци, площад На Мегдана","operator:wikidata":"Q85614408"},"coordinates":[42.821538,23.282703]},"tags_mismatch":false,"dist":0},{"osm":false,"atp":{"id":"pKRCgkKGISXqSWqHcvpuytvB9lE=","tags":{"amenity":"recycling","recycling:clothes":"yes","recycling:shoes":"yes","addr:country":"BG","name":"НОВИ ИСКЪР – с. Локорско, площад Чавдарци","operator:wikidata":"Q85614408"},"coordinates":[42.795619,23.447044]},"tags_mismatch":false,"dist":0},{"osm":false,"atp":{"id":"TBRAZhRpfcKYCTNX4bVgvEzs5M4=","tags":{"amenity":"recycling","recycling:clothes":"yes","recycling:shoes":"yes","addr:country":"BG","name":"ж.к. Лазур до бл. 1","operator:wikidata":"Q85614408"},"coordinates":[42.50166,27.47826]},"tags_mismatch":false,"dist":0},{"osm":false,"atp":{"id":"hifwUeR99mTxb3A_XwwIMnorqI4=","tags":{"amenity":"recycling","recycling:clothes":"yes","recycling:shoes":"yes","addr:country":"BG","name":"ж.к. Лазур, ул. Места, срещу бл.21","operator:wikidata":"Q85614408"},"coordinates":[42.50823,27.47651]},"tags_mismatch":false,"dist":0},{"osm":false,"atp":{"id":"w4PNx7ufiYWc0Mv2uM3DbcdhhU4=","tags":{"amenity":"recycling","recycling:clothes":"yes","recycling:shoes":"yes","addr:country":"BG","name":"ж.к. Изгрев срещу бл. 32 до трафопоста","operator:wikidata":"Q85614408"},"coordinates":[42.53001,27.46512]},"tags_mismatch":false,"dist":0},{"osm":false,"atp":{"id":"hyWrRXQYH2saWHaIUsHYip02HUc=","tags":{"amenity":"recycling","recycling:clothes":"yes","recycling:shoes":"yes","addr:country":"BG","name":"ж. к. Зорница на гърба на спортна зала Бойчо Брънзов, с/у бл. 38","operator:wikidata":"Q85614408"},"coordinates":[42.51561,27.46756]},"tags_mismatch":false,"dist":0},{"osm":false,"atp":{"id":"98cIOA4dqrgnJtIkYbx1xhL9YPs=","tags":{"amenity":"recycling","recycling:clothes":"yes","recycling:shoes":"yes","addr:country":"BG","name":"ж.к. Братя Миладинови между училище Васил Априлов и бл. Народен юмрук","operator:wikidata":"Q85614408"},"coordinates":[42.5045,27.47237]},"tags_mismatch":false,"dist":0},{"osm":false,"atp":{"id":"kfApBJgNAfw5HBlquxFCRUd-NXo=","tags":{"amenity":"recycling","recycling:clothes":"yes","recycling:shoes":"yes","addr:country":"BG","name":"ЦГЧ , кв. 172 – зад бл. 104, срещу защитеното жилище","operator:wikidata":"Q85614408"},"coordinates":[42.50284,27.47435]},"tags_mismatch":false,"dist":0},{"osm":false,"atp":{"id":"XWXqg4LuWkPmBe22x1wNxgdaaUE=","tags":{"amenity":"recycling","recycling:clothes":"yes","recycling:shoes":"yes","addr:country":"BG","name":"ЗЦГЧ кв.38, срещу хотел Вега, в края на Фердинандова до Мария Луиза","operator:wikidata":"Q85614408"},"coordinates":[42.49196,27.46233]},"tags_mismatch":false,"dist":0},{"osm":false,"atp":{"id":"w4Bo5lBKfUH6upBaQKyYrXiMm1Y=","tags":{"amenity":"recycling","recycling:clothes":"yes","recycling:shoes":"yes","addr:country":"BG","name":"ж.к. Меден Рудник, бл. 369 (битака)","operator:wikidata":"Q85614408"},"coordinates":[42.45253,27.41437]},"tags_mismatch":false,"dist":0},{"osm":false,"atp":{"id":"BffjJh6StE0W_4fj5b4vALUmQgw=","tags":{"amenity":"recycling","recycling:clothes":"yes","recycling:shoes":"yes","addr:country":"BG","name":"ж.к. Меден рудник, зона В, кв. 34 – срещу третата секция на бл. 77, на паркинга","operator:wikidata":"Q85614408"},"coordinates":[42.45254,27.41708]},"tags_mismatch":false,"dist":0},{"osm":false,"atp":{"id":"EgQ8Ziz6HhA3EpRCCp_I62CBcr4=","tags":{"amenity":"recycling","recycling:clothes":"yes","recycling:shoes":"yes","addr:country":"BG","name":"ж.к. Меден рудник, зона Б, кв. 37 – между 84 и 85 блок","operator:wikidata":"Q85614408"},"coordinates":[42.4528,27.42093]},"tags_mismatch":false,"dist":0},{"osm":false,"atp":{"id":"R1ugzIFj7tK0kcPqGF_rKciVjRU=","tags":{"amenity":"recycling","recycling:clothes":"yes","recycling:shoes":"yes","addr:country":"BG","name":"ж.к. Меден рудник, зона А , кв. 16 – между бл. 38 и 34, пред тото пункта, срещу Лидъл","operator:wikidata":"Q85614408"},"coordinates":[42.45951,27.41622]},"tags_mismatch":false,"dist":0},{"osm":false,"atp":{"id":"YByl5zjLH7qmAN3MfK_zM8YvECE=","tags":{"amenity":"recycling","recycling:clothes":"yes","recycling:shoes":"yes","addr:country":"BG","name":"ж.к. Меден рудник, зона А на паркинга срещу ОУ Елин Пелин","operator:wikidata":"Q85614408"},"coordinates":[42.46101,27.42108]},"tags_mismatch":false,"dist":0},{"osm":false,"atp":{"id":"D7s4YBt0mfYDcfKiQIb97uDgRgg=","tags":{"amenity":"recycling","recycling:clothes":"yes","recycling:shoes":"yes","addr:country":"BG","name":"ж.к. Меден рудник, зона Б , кв. 22а – срещу спортна площадка до бл. 449","operator:wikidata":"Q85614408"},"coordinates":[42.45644,27.42087]},"tags_mismatch":false,"dist":0},{"osm":false,"atp":{"id":"8j9A1TWHXjui6F_7N2HUunpxZXk=","tags":{"amenity":"recycling","recycling:clothes":"yes","recycling:shoes":"yes","addr:country":"BG","name":"ж.к. Зорница до подлеза срещу бл. 20","operator:wikidata":"Q85614408"},"coordinates":[42.52036,27.46553]},"tags_mismatch":false,"dist":0},{"osm":false,"atp":{"id":"uu42_K9RoOguxI62eZ8JreMcSfw=","tags":{"amenity":"recycling","recycling:clothes":"yes","recycling:shoes":"yes","addr:country":"BG","name":"ж.к. Братя Миладинови, кв. 23 – зад блока на Трапезица, зад бл. 56","operator:wikidata":"Q85614408"},"coordinates":[42.50456,27.46499]},"tags_mismatch":false,"dist":0},{"osm":false,"atp":{"id":"LYm6C3uXEL5xUdU9LE0iyXld9hc=","tags":{"amenity":"recycling","recycling:clothes":"yes","recycling:shoes":"yes","addr:country":"BG","name":"ж.к. Славейков между ПТТС 8005 и бл. 8","operator:wikidata":"Q85614408"},"coordinates":[42.51599,27.45617]},"tags_mismatch":false,"dist":0},{"osm":false,"atp":{"id":"DLj-bybm9OfeG7Sj402uPZNgorE=","tags":{"amenity":"recycling","recycling:clothes":"yes","recycling:shoes":"yes","addr:country":"BG","name":"ж.к. Изгрев, кв. 18 – между бл.66/65","operator:wikidata":"Q85614408"},"coordinates":[42.52692,27.45948]},"tags_mismatch":false,"dist":0},{"osm":false,"atp":{"id":"Y0IoUzTrN3lSVyXANR1vauh-OSI=","tags":{"amenity":"recycling","recycling:clothes":"yes","recycling:shoes":"yes","addr:country":"BG","name":"кв. Сарафово – кв. 42 кръстовище ул. Ангел Димитров и ул. Ремсова до трафопоста","operator:wikidata":"Q85614408"},"coordinates":[42.55708,27.51562]},"tags_mismatch":false,"dist":0},{"osm":false,"atp":{"id":"8s5bchz0nSD7n-cVf0pO5FZBc98=","tags":{"amenity":"recycling","recycling:clothes":"yes","recycling:shoes":"yes","addr:country":"BG","name":"ж.к. Славейков – до бл. 365, срещу училище Михаил Лъкатник – 82","operator:wikidata":"Q85614408"},"coordinates":[42.52238,27.44745]},"tags_mismatch":false,"dist":0},{"osm":false,"atp":{"id":"O_YYg-4pKmGDonurjNCkQNbLe_A=","tags":{"amenity":"recycling","recycling:clothes":"yes","recycling:shoes":"yes","addr:country":"BG","name":"ж.к. Зорница до бл. 3","operator:wikidata":"Q85614408"},"coordinates":[42.515037,27.463327]},"tags_mismatch":false,"dist":0},{"osm":false,"atp":{"id":"daoO4MthO29bZqnBRjq9vxnpf6U=","tags":{"amenity":"recycling","recycling:clothes":"yes","recycling:shoes":"yes","addr:country":"BG","name":"ж.к. Изгрев, ул. Петко Загорски до бл. 41А","operator:wikidata":"Q85614408"},"coordinates":[42.521932,27.464235]},"tags_mismatch":false,"dist":0},{"osm":false,"atp":{"id":"ktQjd-7_-6HM4SES4YBenH_dg6I=","tags":{"amenity":"recycling","recycling:clothes":"yes","recycling:shoes":"yes","addr:country":"BG","name":"ж.к. Изгрев, ул. Георги Калоянчев, до пазар Велека","operator:wikidata":"Q85614408"},"coordinates":[42.525563,27.464937]},"tags_mismatch":false,"dist":0},{"osm":false,"atp":{"id":"_a_DYzbeMkwcm6jW7yqaLqP21m8=","tags":{"amenity":"recycling","recycling:clothes":"yes","recycling:shoes":"yes","addr:country":"BG","name":"ж.к. Братя Миладинови, ул. Шар планина, срещу магазин Болеро","operator:wikidata":"Q85614408"},"coordinates":[42.505313,27.468045]},"tags_mismatch":false,"dist":0},{"osm":false,"atp":{"id":"GVLuT439l9Wh6FlWZ_ER1wdSb6w=","tags":{"amenity":"recycling","recycling:clothes":"yes","recycling:shoes":"yes","addr:country":"BG","name":"ж.к. Лазур, ъгъла на ул. Копривщица с ул. Батак, до ГЧЕ „Васил Левски“","operator:wikidata":"Q85614408"},"coordinates":[42.508693,27.472924]},"tags_mismatch":false,"dist":0},{"osm":false,"atp":{"id":"8qZvZNhw4VMqSHxq9IJLZQzIe6w=","tags":{"amenity":"recycling","recycling:clothes":"yes","recycling:shoes":"yes","addr:country":"BG","name":"ж.к. Лазур, ъгъла на ул. Великов Търново с ул. Поморие, до Флора бар и грил","operator:wikidata":"Q85614408"},"coordinates":[42.503659,27.4796]},"tags_mismatch":false,"dist":0},{"osm":false,"atp":{"id":"mRn4gUo3XNMlCqc3RhBghKi6vYM=","tags":{"amenity":"recycling","recycling:clothes":"yes","recycling:shoes":"yes","addr:country":"BG","name":"ж.к. Лазур, ул. Васил Петлешков, срещу бл. 70","operator:wikidata":"Q85614408"},"coordinates":[42.511574,27.468991]},"tags_mismatch":false,"dist":0},{"osm":false,"atp":{"id":"sJiVZ7Lv9taAFnZtVdGJXdbyPRU=","tags":{"amenity":"recycling","recycling:clothes":"yes","recycling:shoes":"yes","addr:country":"BG","name":"ж.к. Славейков, ТЦ „Престиж“, до бл. 62","operator:wikidata":"Q85614408"},"coordinates":[42.518105,27.456054]},"tags_mismatch":false,"dist":0},{"osm":false,"atp":{"id":"Oj4JC_T9yavGjwIRjkPwUM5odw8=","tags":{"amenity":"recycling","recycling:clothes":"yes","recycling:shoes":"yes","addr:country":"BG","name":"ж.к. Славейков пред бл. 34, вх. 8","operator:wikidata":"Q85614408"},"coordinates":[42.521007,27.444605]},"tags_mismatch":false,"dist":0},{"osm":false,"atp":{"id":"KQ5I9vTpHDkPHJ-lvgOohpmgimE=","tags":{"amenity":"recycling","recycling:clothes":"yes","recycling:shoes":"yes","addr:country":"BG","name":"ж.к. Славейков пред бл. 82","operator:wikidata":"Q85614408"},"coordinates":[42.52118,27.450617]},"tags_mismatch":false,"dist":0},{"osm":false,"atp":{"id":"L7PAVPjemU4Z0XHTCHL7IRYqP1M=","tags":{"amenity":"recycling","recycling:clothes":"yes","recycling:shoes":"yes","addr:country":"BG","name":"кв. Ветрен, ул. Българка 54, Център за административни услуги","operator:wikidata":"Q85614408"},"coordinates":[42.603762,27.384742]},"tags_mismatch":false,"dist":0},{"osm":false,"atp":{"id":"cge8gBKQabL_Xi3DUFzK1dN2BN0=","tags":{"amenity":"recycling","recycling:clothes":"yes","recycling:shoes":"yes","addr:country":"BG","name":"кв. Банево, ул. Хаджи Димитър 2, пред Кметството","operator:wikidata":"Q85614408"},"coordinates":[42.627924,27.394079]},"tags_mismatch":false,"dist":0},{"osm":false,"atp":{"id":"yNszF5DBMyIPoZI37Zkg3zsSWoI=","tags":{"amenity":"recycling","recycling:clothes":"yes","recycling:shoes":"yes","addr:country":"BG","name":"На източния тротоар на ул. Княз Александър Батенберг, в близост до пресечката с бул. Цар Симеон Велики","operator:wikidata":"Q85614408"},"coordinates":[42.423134,25.616687]},"tags_mismatch":false,"dist":0},{"osm":false,"atp":{"id":"PYzSovk6xW5RcroBW7jNysxafo0=","tags":{"amenity":"recycling","recycling:clothes":"yes","recycling:shoes":"yes","addr:country":"BG","name":"На паркинга на парк Артилерийски, до ул. Одринска епопея","operator:wikidata":"Q85614408"},"coordinates":[42.41926,25.61357]},"tags_mismatch":false,"dist":0},{"osm":false,"atp":{"id":"gi9wnEOO_RwpsXF89hiVLsm5DTY=","tags":{"amenity":"recycling","recycling:clothes":"yes","recycling:shoes":"yes","addr:country":"BG","name":"В близост до парк Зеленият клин","operator:wikidata":"Q85614408"},"coordinates":[42.43039,25.63478]},"tags_mismatch":false,"dist":0},{"osm":false,"atp":{"id":"Ss679IobFci4bWV3VFpZviNqacg=","tags":{"amenity":"recycling","recycling:clothes":"yes","recycling:shoes":"yes","addr:country":"BG","name":"Квартал Железник – пресечката на ул. Ген. Иван Пашинов и ул. Алеко Константинов","operator:wikidata":"Q85614408"},"coordinates":[42.4135,25.5938]},"tags_mismatch":false,"dist":0},{"osm":false,"atp":{"id":"DB2lo4stW3QvAcIl5B2ng5ISs9A=","tags":{"amenity":"recycling","recycling:clothes":"yes","recycling:shoes":"yes","addr:country":"BG","name":"На паркинга на пресечката на ул. Любор Байер и бул. Руски","operator:wikidata":"Q85614408"},"coordinates":[42.42645,25.62677]},"tags_mismatch":false,"dist":0},{"osm":false,"atp":{"id":"t3vrYK3rWBjwNuvxs13QQYeukWo=","tags":{"amenity":"recycling","recycling:clothes":"yes","recycling:shoes":"yes","addr:country":"BG","name":"Северно от пресечката на ул. Стефан Караджа и ул. Ген. Гурко до източната ограда на Детска градина № 9 Светулка","operator:wikidata":"Q85614408"},"coordinates":[42.42527,25.63969]},"tags_mismatch":false,"dist":0},{"osm":false,"atp":{"id":"GQ8lLaTfJ21NPEnSdqO2dJrvl9s=","tags":{"amenity":"recycling","recycling:clothes":"yes","recycling:shoes":"yes","addr:country":"BG","name":"В квартал Три чучура юг срещу бл. 54","operator:wikidata":"Q85614408"},"coordinates":[42.41605,25.60717]},"tags_mismatch":false,"dist":0},{"osm":false,"atp":{"id":"hZfUglJAmVzfwC1Y5nHfjBgmfKg=","tags":{"amenity":"recycling","recycling:clothes":"yes","recycling:shoes":"yes","addr:country":"BG","name":"В кв. Зора на пресечката на ул. Златен клас и ул. Камчия","operator:wikidata":"Q85614408"},"coordinates":[42.42504,25.68625]},"tags_mismatch":false,"dist":0},{"osm":false,"atp":{"id":"YyZYTixAFzPBCkXzvAfXMYESssc=","tags":{"amenity":"recycling","recycling:clothes":"yes","recycling:shoes":"yes","addr:country":"BG","name":"бул. Никола Петков, паркинга до църква Св. Игнатий Старозагорски","operator:wikidata":"Q85614408"},"coordinates":[42.428358,25.657672]},"tags_mismatch":false,"dist":0},{"osm":false,"atp":{"id":"h304ZooZ2xfUvkXnef4MA6eaMmY=","tags":{"amenity":"recycling","recycling:clothes":"yes","recycling:shoes":"yes","addr:country":"BG","name":"ул. Св.Отец Паисий 89, пред сградата на EVN","operator:wikidata":"Q85614408"},"coordinates":[42.426599,25.620574]},"tags_mismatch":false,"dist":0},{"osm":false,"atp":{"id":"Uj-HXQUOpf3_hI432h5cD2jODng=","tags":{"amenity":"recycling","recycling:clothes":"yes","recycling:shoes":"yes","addr:country":"BG","name":"кръстовището на ул. Васил Левски с ул. Пенчо Минев, пред сградата на Районна Здравноосигурителна Каса","operator:wikidata":"Q85614408"},"coordinates":[42.429885,25.628814]},"tags_mismatch":false,"dist":0},{"osm":false,"atp":{"id":"qTtORRQ_a8eEUVSo7YHN2d0Yz9c=","tags":{"amenity":"recycling","recycling:clothes":"yes","recycling:shoes":"yes","addr:country":"BG","name":"ул. Подполковник Калитин, до Първо ОУ Г.Бакалов","operator:wikidata":"Q85614408"},"coordinates":[42.425715,25.64481]},"tags_mismatch":false,"dist":0},{"osm":false,"atp":{"id":"LZQmH9v528J3Jq-hxYu2PQ_8xRg=","tags":{"amenity":"recycling","recycling:clothes":"yes","recycling:shoes":"yes","addr:country":"BG","name":"Червен площад, кръстовището на ул. Княз Николаевич с ул. Иван Аксаков","operator:wikidata":"Q85614408"},"coordinates":[43.210424,27.922967]},"tags_mismatch":false,"dist":0},{"osm":false,"atp":{"id":"xviwLHJyIrVzCDcm0AXLfFkau-c=","tags":{"amenity":"recycling","recycling:clothes":"yes","recycling:shoes":"yes","addr:country":"BG","name":"Чаталджа – кръстовището на ул. Цар Иван Асен с ул. Драва Чех","operator:wikidata":"Q85614408"},"coordinates":[43.215221,27.924534]},"tags_mismatch":false,"dist":0},{"osm":false,"atp":{"id":"HyZ82YMq3n8R3Q482jjrb8pr6aU=","tags":{"amenity":"recycling","recycling:clothes":"yes","recycling:shoes":"yes","addr:country":"BG","name":"жк. Чайка, бул. Ал.Стамболийски, пиацата на такситата","operator:wikidata":"Q85614408"},"coordinates":[43.215378,27.941853]},"tags_mismatch":false,"dist":0},{"osm":false,"atp":{"id":"Uf9-uR3bFZGqKWmuEf9oHvJ-0AE=","tags":{"amenity":"recycling","recycling:clothes":"yes","recycling:shoes":"yes","addr:country":"BG","name":"жк. Чайка, подлез до бл. 2","operator:wikidata":"Q85614408"},"coordinates":[43.216952,27.931649]},"tags_mismatch":false,"dist":0},{"osm":false,"atp":{"id":"9X6SB2RC-uPODwAber-He249I58=","tags":{"amenity":"recycling","recycling:clothes":"yes","recycling:shoes":"yes","addr:country":"BG","name":"жк. Чайка, подлез до бл. 29","operator:wikidata":"Q85614408"},"coordinates":[43.219441,27.938067]},"tags_mismatch":false,"dist":0},{"osm":false,"atp":{"id":"4A5Y6ZYN8-r7kQvNgqPz-p1HUfY=","tags":{"amenity":"recycling","recycling:clothes":"yes","recycling:shoes":"yes","addr:country":"BG","name":"ул. Найден Геров, подлеза срещу Професионална гимназия по Туризъм","operator:wikidata":"Q85614408"},"coordinates":[43.210153,27.929927]},"tags_mismatch":false,"dist":0},{"osm":false,"atp":false,"tags_mismatch":false,"dist":0},{"osm":false,"atp":{"id":"Prsv2eNLQwTeLtvZova4DuekA4w=","tags":{"amenity":"recycling","recycling:clothes":"yes","recycling:shoes":"yes","addr:country":"BG","name":"ул. Братя Миладинови, паркинг пред бл.77","operator:wikidata":"Q85614408"},"coordinates":[43.213256,27.911684]},"tags_mismatch":false,"dist":0},{"osm":false,"atp":{"id":"SXCRyOURLXb-d3Wc5UGlr6sxPM0=","tags":{"amenity":"recycling","recycling:clothes":"yes","recycling:shoes":"yes","addr:country":"BG","name":"ул. Царевец, срещу бл. 7, вх. Г","operator:wikidata":"Q85614408"},"coordinates":[43.218825,27.922845]},"tags_mismatch":false,"dist":0},{"osm":false,"atp":{"id":"MV3K64-XGMDtl9VeYnAukG-Y-Ns=","tags":{"amenity":"recycling","recycling:clothes":"yes","recycling:shoes":"yes","addr:country":"BG","name":"ул. Иван Драсов с ул. Братя Миладинови","operator:wikidata":"Q85614408"},"coordinates":[43.210134,27.916187]},"tags_mismatch":false,"dist":0},{"osm":false,"atp":{"id":"Gtset0uCNWhRVsW5yK4BTJSkW9o=","tags":{"amenity":"recycling","recycling:clothes":"yes","recycling:shoes":"yes","addr:country":"BG","name":"базар Левски, до спирката преди ул. Явор","operator:wikidata":"Q85614408"},"coordinates":[43.219674,27.931008]},"tags_mismatch":false,"dist":0},{"osm":false,"atp":{"id":"vmkr9eClM8Haixkk4BoHHslUl_o=","tags":{"amenity":"recycling","recycling:clothes":"yes","recycling:shoes":"yes","addr:country":"BG","name":"ул. Битоля, между LIDL и МБАЛ „Света Анна“","operator:wikidata":"Q85614408"},"coordinates":[43.215002,27.916095]},"tags_mismatch":false,"dist":0},{"osm":false,"atp":{"id":"vALVS1WiypLrW9HF56aMbEDRR4o=","tags":{"amenity":"recycling","recycling:clothes":"yes","recycling:shoes":"yes","addr:country":"BG","name":"л. Граф Игнатиев с ул. Сан Стефано","operator:wikidata":"Q85614408"},"coordinates":[43.199355,27.917958]},"tags_mismatch":false,"dist":0},{"osm":false,"atp":{"id":"U3M2vTAHuqYh19nec7KxgJeLGwU=","tags":{"amenity":"recycling","recycling:clothes":"yes","recycling:shoes":"yes","addr:country":"BG","name":"бул. Сливница след кръстовището с ул. Дрин, посока център","operator:wikidata":"Q85614408"},"coordinates":[43.210982,27.911268]},"tags_mismatch":false,"dist":0},{"osm":false,"atp":{"id":"eS2jUF14cVvz4PU9W9ygluhXvRQ=","tags":{"amenity":"recycling","recycling:clothes":"yes","recycling:shoes":"yes","addr:country":"BG","name":"ул. Хан Аспарух с ул. Свети Климент, острова срещу Арменска църква","operator:wikidata":"Q85614408"},"coordinates":[43.20226,27.917949]},"tags_mismatch":false,"dist":0},{"osm":false,"atp":{"id":"WikMHfziXJrsROed1_3TKrQr_wQ=","tags":{"amenity":"recycling","recycling:clothes":"yes","recycling:shoes":"yes","addr:country":"BG","name":"бул. Цар Борис III Обединител, Бизнес парк Флавия","operator:wikidata":"Q85614408"},"coordinates":[42.11965,24.756219]},"tags_mismatch":false,"dist":0},{"osm":false,"atp":{"id":"OwFkxeoeRhrMt5FCg--pWvqx2Ks=","tags":{"amenity":"recycling","recycling:clothes":"yes","recycling:shoes":"yes","addr:country":"BG","name":"жк. Запад, ул. Марица, пред магазин БГ Маркет","operator:wikidata":"Q85614408"},"coordinates":[42.01687,23.08553]},"tags_mismatch":false,"dist":0},{"osm":false,"atp":{"id":"3FmaA-mqJTgB8R87ZF7uduyUNwA=","tags":{"amenity":"recycling","recycling:clothes":"yes","recycling:shoes":"yes","addr:country":"BG","name":"сградата на Камерната опера, ъгъла на ул. Св. Иван Рилски и ул. Иван Вазов","operator:wikidata":"Q85614408"},"coordinates":[42.02232,23.1014]},"tags_mismatch":false,"dist":0},{"osm":false,"atp":{"id":"GBaLJs-IZdP1a4nbwuShv-lmV6o=","tags":{"amenity":"recycling","recycling:clothes":"yes","recycling:shoes":"yes","addr:country":"BG","name":"магазин Билла, ъгъла на ул. Крали Марко и ул. Т. Александров","operator:wikidata":"Q85614408"},"coordinates":[42.0177,23.09669]},"tags_mismatch":false,"dist":0},{"osm":false,"atp":{"id":"Pw0tGe0yqcRCF1Bs38XCNpSMO8s=","tags":{"amenity":"recycling","recycling:clothes":"yes","recycling:shoes":"yes","addr:country":"BG","name":"жк. Еленово, ул. Георги Андрейчин, до автобусната спирка","operator:wikidata":"Q85614408"},"coordinates":[42.004,23.10608]},"tags_mismatch":false,"dist":0},{"osm":false,"atp":{"id":"DSBNWAZbA9oryPN76WVKDUS0J9U=","tags":{"amenity":"recycling","recycling:clothes":"yes","recycling:shoes":"yes","addr:country":"BG","name":"жк. Струмско, ул. Яне Сандански, срещу VI СУ и магазин „Стоми“","operator:wikidata":"Q85614408"},"coordinates":[41.9927,23.0886]},"tags_mismatch":false,"dist":0},{"osm":false,"atp":{"id":"7z_YkVXPKnr-TrsO0nWajS6mR_A=","tags":{"amenity":"recycling","recycling:clothes":"yes","recycling:shoes":"yes","addr:country":"BG","name":"парк Марно поле – ул. Цар Тодор – Светослав и ул. Марно поле","operator:wikidata":"Q85614408"},"coordinates":[43.08081,25.63224]},"tags_mismatch":false,"dist":0},{"osm":false,"atp":{"id":"Vup7mFRruG8NWDtrev58zagrY_k=","tags":{"amenity":"recycling","recycling:clothes":"yes","recycling:shoes":"yes","addr:country":"BG","name":"кв. Дружба – на ъгъла на ул Козлодуй и ул. Мармарлийска","operator:wikidata":"Q85614408"},"coordinates":[43.07594,25.6279]},"tags_mismatch":false,"dist":0},{"osm":false,"atp":{"id":"JaMY_Ln0DYvsuWwUyfwjXjv19W8=","tags":{"amenity":"recycling","recycling:clothes":"yes","recycling:shoes":"yes","addr:country":"BG","name":"кв. Бузлуджа – на ъгъла на ул. Константин Паница и ул. Иван Хаджидимитров","operator:wikidata":"Q85614408"},"coordinates":[43.06925,25.60788]},"tags_mismatch":false,"dist":0},{"osm":false,"atp":{"id":"S1zfZn_re_hummJteIjgvkKn5KE=","tags":{"amenity":"recycling","recycling:clothes":"yes","recycling:shoes":"yes","addr:country":"BG","name":"кв. Колю Фичето – ул. Симеон Велико – до Мол Велико Търново","operator:wikidata":"Q85614408"},"coordinates":[43.07948,25.60095]},"tags_mismatch":false,"dist":0},{"osm":false,"atp":{"id":"pNYn6bFm8Pb7rS9V08oncreM8nc=","tags":{"amenity":"recycling","recycling:clothes":"yes","recycling:shoes":"yes","addr:country":"BG","name":"кв. Картала – ъгъла на ул. Стоян Михайловски и ул. Петко Ю. Тодоров","operator:wikidata":"Q85614408"},"coordinates":[43.08394,25.62093]},"tags_mismatch":false,"dist":0},{"osm":false,"atp":{"id":"o9Dfo5blBtVKbStJHaZ_nzBSkIQ=","tags":{"amenity":"recycling","recycling:clothes":"yes","recycling:shoes":"yes","addr:country":"BG","name":"кръстовището на ул. Орловска с ул. Иван Н. Момчилов, пред ЦДГ „Ана Брадел“","operator:wikidata":"Q85614408"},"coordinates":[42.932458,25.885589]},"tags_mismatch":false,"dist":0},{"osm":false,"atp":{"id":"U3kwX-Sz64p9Qc7ncnJ9NQ2mDT4=","tags":{"amenity":"recycling","recycling:clothes":"yes","recycling:shoes":"yes","addr:country":"BG","name":"паркинга на Общински Младежки Център Захари Стоянов","operator:wikidata":"Q85614408"},"coordinates":[43.566754,27.8282]},"tags_mismatch":false,"dist":0},{"osm":false,"atp":{"id":"4NrDaRiXJPr_GMLIoRmGfKjEJOU=","tags":{"amenity":"recycling","recycling:clothes":"yes","recycling:shoes":"yes","addr:country":"BG","name":"На ъгъла на ул. Димитър Петков и Отец Паисий – до сградата на стоматологията","operator:wikidata":"Q85614408"},"coordinates":[43.5712,27.83293]},"tags_mismatch":false,"dist":0},{"osm":false,"atp":{"id":"e0YBT_vpUu8SNy5GzV3Z8-ywAKc=","tags":{"amenity":"recycling","recycling:clothes":"yes","recycling:shoes":"yes","addr:country":"BG","name":"ж.к. Добротица – до основно училище Хан Аспарух","operator:wikidata":"Q85614408"},"coordinates":[43.55294,27.83427]},"tags_mismatch":false,"dist":0},{"osm":false,"atp":{"id":"7A03Y-iXffse0-rbMA8yF5cbAK4=","tags":{"amenity":"recycling","recycling:clothes":"yes","recycling:shoes":"yes","addr:country":"BG","name":"ул.Христо Ботев, паркинга между бл.4 и бл.6, до Тото пункта","operator:wikidata":"Q85614408"},"coordinates":[43.574358,27.840896]},"tags_mismatch":false,"dist":0},{"osm":false,"atp":{"id":"5qHZeiDtXKKeu_1Va7z6-bxrrpM=","tags":{"amenity":"recycling","recycling:clothes":"yes","recycling:shoes":"yes","addr:country":"BG","name":"ул. Христо Ботев 68, площадка за разделно събиране на отпадъци на Община Добрич","operator:wikidata":"Q85614408"},"coordinates":[43.578051,27.855624]},"tags_mismatch":false,"dist":0},{"osm":false,"atp":{"id":"avOO02Xpu4YaJ3byFqhq85EUWqQ=","tags":{"amenity":"recycling","recycling:clothes":"yes","recycling:shoes":"yes","addr:country":"BG","name":"ул. Хаджи Димитър, пиацата на такситата, до Т Маркет","operator:wikidata":"Q85614408"},"coordinates":[42.704755,27.249105]},"tags_mismatch":false,"dist":0},{"osm":false,"atp":{"id":"pTcS577kg60_HhoDl6ANM5S6rIk=","tags":{"amenity":"recycling","recycling:clothes":"yes","recycling:shoes":"yes","addr:country":"BG","name":"ул. Станционна 27, срещу Уникредит Булбанк","operator:wikidata":"Q85614408"},"coordinates":[42.703156,27.252212]},"tags_mismatch":false,"dist":0},{"osm":false,"atp":{"id":"MzuzvwvOqex-NkRg0LZlHQpvnak=","tags":{"amenity":"recycling","recycling:clothes":"yes","recycling:shoes":"yes","addr:country":"BG","name":"ул. Солна 5, на паркинга срещу Общинска администрация","operator:wikidata":"Q85614408"},"coordinates":[42.55853,27.64189]},"tags_mismatch":false,"dist":0},{"osm":false,"atp":{"id":"6xZ6CoCT2Dk-PTMm4OGLl--7lfA=","tags":{"amenity":"recycling","recycling:clothes":"yes","recycling:shoes":"yes","addr:country":"BG","name":"ул. Княз Борис I 98, до сградата на Районно управление","operator:wikidata":"Q85614408"},"coordinates":[42.56098,27.63478]},"tags_mismatch":false,"dist":0},{"osm":false,"atp":{"id":"aDmmvTaKpQBD9yZaq5W0e-fQwBE=","tags":{"amenity":"recycling","recycling:clothes":"yes","recycling:shoes":"yes","addr:country":"BG","name":"ул. Княз Борис I 211, на автогарата в кв. Свети Георги","operator:wikidata":"Q85614408"},"coordinates":[42.5659,27.61124]},"tags_mismatch":false,"dist":0},{"osm":false,"atp":{"id":"PR52XQ1nxhiOPgqIQQNutLBz56c=","tags":{"amenity":"recycling","recycling:clothes":"yes","recycling:shoes":"yes","addr:country":"BG","name":"ул. Захари Стоянов, пред Арена Ботевград","operator:wikidata":"Q85614408"},"coordinates":[42.90043,23.788711]},"tags_mismatch":false,"dist":0},{"osm":false,"atp":{"id":"hQ3YpgWtEz9HbuG0CqqTsEqs6aY=","tags":{"amenity":"recycling","recycling:clothes":"yes","recycling:shoes":"yes","addr:country":"BG","name":"ул. Илия Стоянов, до ОУ Св. Св. Кирил и Методий","operator:wikidata":"Q85614408"},"coordinates":[42.903007,23.80421]},"tags_mismatch":false,"dist":0},{"osm":false,"atp":{"id":"bLdvDlCj0d3EB8-7I3s3gM6GLuA=","tags":{"amenity":"recycling","recycling:clothes":"yes","recycling:shoes":"yes","addr:country":"BG","name":"ул. Плиска, до детската площадка пред бл. 10","operator:wikidata":"Q85614408"},"coordinates":[42.915487,23.793518]},"tags_mismatch":false,"dist":0},{"osm":false,"atp":{"id":"X_4JBSz56jTjSibb1IDeKHj8fQ8=","tags":{"amenity":"recycling","recycling:clothes":"yes","recycling:shoes":"yes","addr:country":"BG","name":"ул. Никола Вапцаров 51","operator:wikidata":"Q85614408"},"coordinates":[41.575067,23.283789]},"tags_mismatch":false,"dist":0},{"osm":false,"atp":{"id":"1sUfCAOPHbiBY-puDqVXZkQ8pvc=","tags":{"amenity":"recycling","recycling:clothes":"yes","recycling:shoes":"yes","addr:country":"BG","name":"ж.к. Спартак, ул. Беласица 31","operator:wikidata":"Q85614408"},"coordinates":[41.553668,23.268442]},"tags_mismatch":false,"dist":0},{"osm":false,"atp":{"id":"W4sq0cI9bgPlANJWYmlsyI8HJGI=","tags":{"amenity":"recycling","recycling:clothes":"yes","recycling:shoes":"yes","addr:country":"BG","name":"ул. Тодор Каблешков 5, под IV ОУ Св.Св. Козма и Дамян","operator:wikidata":"Q85614408"},"coordinates":[41.554259,23.27525]},"tags_mismatch":false,"dist":0},{"osm":false,"atp":{"id":"1bu_PowdiXAx5doLBn-VpDec8g0=","tags":{"amenity":"recycling","recycling:clothes":"yes","recycling:shoes":"yes","addr:country":"BG","name":"кръговото кръстовище на ул. Добрич и ул. 7ми Септември","operator:wikidata":"Q85614408"},"coordinates":[44.111727,27.272667]},"tags_mismatch":false,"dist":0},{"osm":false,"atp":{"id":"h9ve_2uDiZwh5a--cIkQKpSx7_o=","tags":{"amenity":"recycling","recycling:clothes":"yes","recycling:shoes":"yes","addr:country":"BG","name":"кръстовището на ул. Сан Стефано с бул. Македония, пред кафе The Red one","operator:wikidata":"Q85614408"},"coordinates":[44.119394,27.268571]},"tags_mismatch":false,"dist":0},{"osm":false,"atp":{"id":"50PG14LqKy0-SFvVuz4A4Q0Ry1U=","tags":{"amenity":"recycling","recycling:clothes":"yes","recycling:shoes":"yes","addr:country":"BG","name":"бул. Македония 88, до спирката","operator:wikidata":"Q85614408"},"coordinates":[44.112561,27.263277]},"tags_mismatch":false,"dist":0},{"osm":false,"atp":{"id":"DITN4rDBEkqfObU1BXVHNYCSOeI=","tags":{"amenity":"recycling","recycling:clothes":"yes","recycling:shoes":"yes","addr:country":"BG","name":"кръстовището на ул. Христо Ботев и ул. Искър","operator:wikidata":"Q85614408"},"coordinates":[44.045199,26.61484]},"tags_mismatch":false,"dist":0},{"osm":false,"atp":{"id":"NUE7iAAVs9mHgYoSiQiLHSTkK5Y=","tags":{"amenity":"recycling","recycling:clothes":"yes","recycling:shoes":"yes","addr:country":"BG","name":"пред Районен съд","operator:wikidata":"Q85614408"},"coordinates":[43.357605,25.143226]},"tags_mismatch":false,"dist":0},{"osm":false,"atp":{"id":"jxFQq7YNjulekxNi0RQNc43wlHU=","tags":{"amenity":"recycling","recycling:clothes":"yes","recycling:shoes":"yes","addr:country":"BG","name":"ул. Александър Стамболийски 9","operator:wikidata":"Q85614408"},"coordinates":[43.40961,28.165151]},"tags_mismatch":false,"dist":0},{"osm":false,"atp":{"id":"ZUpMd9oVaqbkepHxI7nNPOEIk60=","tags":{"amenity":"recycling","recycling:clothes":"yes","recycling:shoes":"yes","addr:country":"BG","name":"жк. Балик, паркинга на магазин Аквилон","operator:wikidata":"Q85614408"},"coordinates":[43.421424,28.163493]},"tags_mismatch":false,"dist":0},{"osm":false,"atp":{"id":"5nlaafpwtu-Q9gZlMASmuofrJFc=","tags":{"amenity":"recycling","recycling:clothes":"yes","recycling:shoes":"yes","addr:country":"BG","name":"на паркинга между ул. Л. Каравелов и ул. Добротица","operator:wikidata":"Q85614408"},"coordinates":[43.431244,28.336729]},"tags_mismatch":false,"dist":0},{"osm":false,"atp":{"id":"VpQbmlAiweMNPzUoOEUcgsdMx3M=","tags":{"amenity":"recycling","recycling:clothes":"yes","recycling:shoes":"yes","addr:country":"BG","name":"на паркинга между ул. България и ул. Георги Кирков","operator:wikidata":"Q85614408"},"coordinates":[43.435263,28.338082]},"tags_mismatch":false,"dist":0},{"osm":false,"atp":{"id":"nP88CgTHM_brMiClp393i_Z6osI=","tags":{"amenity":"recycling","recycling:clothes":"yes","recycling:shoes":"yes","addr:country":"BG","name":"ул. Михаил Иванов, срещу сградата на Община Аксаково","operator:wikidata":"Q85614408"},"coordinates":[43.259252,27.81814]},"tags_mismatch":false,"dist":0},{"osm":false,"atp":{"id":"dCuxq8RN2sKFS2GUAHGuk-2T6nA=","tags":{"amenity":"recycling","recycling:clothes":"yes","recycling:shoes":"yes","addr:country":"BG","name":"ул. Трети март 44, до сградата на община Белослав","operator:wikidata":"Q85614408"},"coordinates":[43.189357,27.705293]},"tags_mismatch":false,"dist":0},{"osm":false,"atp":{"id":"HumGCJJSYJioq2HIplSIHYDbtyY=","tags":{"amenity":"recycling","recycling:clothes":"yes","recycling:shoes":"yes","addr:country":"BG","name":"ул.Оборище, на паркинга зад Народно читалище Зора","operator:wikidata":"Q85614408"},"coordinates":[43.536162,28.533044]},"tags_mismatch":false,"dist":0},{"osm":false,"atp":{"id":"1jYgbWeu2sgwNQv3ZVPqCgDBGkM=","tags":{"amenity":"recycling","recycling:clothes":"yes","recycling:shoes":"yes","addr:country":"BG","name":"ул. „Г.С.Раковски“, срещу сградата на Община Ветрино","operator:wikidata":"Q85614408"},"coordinates":[43.31532,27.434891]},"tags_mismatch":false,"dist":0},{"osm":false,"atp":{"id":"GZ8Efks-vYnn1kfd38qq3HnTGX4=","tags":{"amenity":"recycling","recycling:clothes":"yes","recycling:shoes":"yes","addr:country":"BG","name":"ул. Паркова, на паркинга да магазин Кипа","operator:wikidata":"Q85614408"},"coordinates":[43.113251,27.827292]},"tags_mismatch":false,"dist":0},{"osm":false,"atp":{"id":"EEZpqTXQJzsOjwEmnt8ReWCBuhY=","tags":{"amenity":"recycling","recycling:clothes":"yes","recycling:shoes":"yes","addr:country":"BG","name":"ул. Г. Б. Ковски, площада срещу Общината","operator:wikidata":"Q85614408"},"coordinates":[42.918076,24.264459]},"tags_mismatch":false,"dist":0},{"osm":false,"atp":{"id":"F2aNWLQM0E2xk9wZO6CSrxu6608=","tags":{"amenity":"recycling","recycling:clothes":"yes","recycling:shoes":"yes","addr:country":"BG","name":"ул. Бели Вит, до автобусната спирка","operator:wikidata":"Q85614408"},"coordinates":[42.913822,24.282264]},"tags_mismatch":false,"dist":0},{"osm":false,"atp":{"id":"spxtHO9A7VnbPdTN-3i1X8MeWLQ=","tags":{"amenity":"recycling","recycling:clothes":"yes","recycling:shoes":"yes","addr:country":"BG","name":"ул. Шар, на гърба на СУ Св. Св. Кирил и Методий","operator:wikidata":"Q85614408"},"coordinates":[42.546239,22.963393]},"tags_mismatch":false,"dist":0},{"osm":false,"atp":{"id":"k-l4aGOKM46EjGjYUrBrQcqf27c=","tags":{"amenity":"recycling","recycling:clothes":"yes","recycling:shoes":"yes","addr:country":"BG","name":"ъгъла на ул. Батенберг и ул. Васил Левски","operator:wikidata":"Q85614408"},"coordinates":[42.546752,22.965886]},"tags_mismatch":false,"dist":0},{"osm":false,"atp":{"id":"vQRgd24UWMECPeO-zHLTvSB8OWk=","tags":{"amenity":"recycling","recycling:clothes":"yes","recycling:shoes":"yes","addr:country":"BG","name":"ул. Княз Борис I, градинката зад спирката на Лидл","operator:wikidata":"Q85614408"},"coordinates":[42.266065,23.112869]},"tags_mismatch":false,"dist":0},{"osm":false,"atp":{"id":"cYVCMJhpYNS96WUkeMgYfiSe6wc=","tags":{"amenity":"recycling","recycling:clothes":"yes","recycling:shoes":"yes","addr:country":"BG","name":"ул. Орлинска, до Била","operator:wikidata":"Q85614408"},"coordinates":[42.273505,23.130632]},"tags_mismatch":false,"dist":0},{"osm":false,"atp":{"id":"VEZfYxozVUrIBruODtyKG18PEf8=","tags":{"amenity":"recycling","recycling:clothes":"yes","recycling:shoes":"yes","addr:country":"BG","name":"кв. Бистрица, ул. Асен Мердиджиев, Обръщалото на автобусите","operator:wikidata":"Q85614408"},"coordinates":[42.251874,23.128021]},"tags_mismatch":false,"dist":0},{"osm":false,"atp":{"id":"d3QMbByc34DIpWjv7CZ366-iJo8=","tags":{"amenity":"recycling","recycling:clothes":"yes","recycling:shoes":"yes","addr:country":"BG","name":"ул. Цар Симеон 72, пред входа на Градския парк","operator:wikidata":"Q85614408"},"coordinates":[41.836118,23.492084]},"tags_mismatch":false,"dist":0},{"osm":false,"atp":{"id":"64UE9P_9sO93L5A_4qboYQ9qAxU=","tags":{"amenity":"recycling","recycling:clothes":"yes","recycling:shoes":"yes","addr:country":"BG","name":"ул. Иконом К. Чучулайн","operator:wikidata":"Q85614408"},"coordinates":[41.837306,23.483308]},"tags_mismatch":false,"dist":0},{"osm":false,"atp":{"id":"G6KpU-crfi9ECsTo0cFCs4qQ_Rg=","tags":{"amenity":"recycling","recycling:clothes":"yes","recycling:shoes":"yes","addr:country":"BG","name":"ъгъла на ул. Спартак с ул. Власина, пред Спортно училище","operator:wikidata":"Q85614408"},"coordinates":[42.282748,22.67527]},"tags_mismatch":false,"dist":0},{"osm":false,"atp":{"id":"dARaTzkXdXkATtZq8vvb7QXPX5I=","tags":{"amenity":"recycling","recycling:clothes":"yes","recycling:shoes":"yes","addr:country":"BG","name":"ъгъла на ул. Добрич с ул. Нов Живот, срещу Енергото","operator:wikidata":"Q85614408"},"coordinates":[42.277827,22.671917]},"tags_mismatch":false,"dist":0},{"osm":false,"atp":{"id":"9qz0zArnKeHEQXBcEEGdChAEiwU=","tags":{"amenity":"recycling","recycling:clothes":"yes","recycling:shoes":"yes","addr:country":"BG","name":"ул. Гоце Делчев до бл. 99","operator:wikidata":"Q85614408"},"coordinates":[42.292736,22.698935]},"tags_mismatch":false,"dist":0},{"osm":false,"atp":{"id":"Rc-DYQYe-uIaz8TXi3ZumHtQviY=","tags":{"amenity":"recycling","recycling:clothes":"yes","recycling:shoes":"yes","addr:country":"BG","name":"ул. Синчец, пред ЦНСТ „Сияние“","operator:wikidata":"Q85614408"},"coordinates":[42.275722,22.703907]},"tags_mismatch":false,"dist":0},{"osm":false,"atp":{"id":"ZT22S33fxb1-aQlPXEqPqJszzXg=","tags":{"amenity":"recycling","recycling:clothes":"yes","recycling:shoes":"yes","addr:country":"BG","name":"ул. Камчия, пред стадион „Странджа“","operator:wikidata":"Q85614408"},"coordinates":[42.286035,22.702251]},"tags_mismatch":false,"dist":0},{"osm":false,"atp":{"id":"rO5AWMiPeTUHoMnmw1SWeF6O3To=","tags":{"amenity":"recycling","recycling:clothes":"yes","recycling:shoes":"yes","addr:country":"BG","name":"кв. Младост, паркинга между бл. 6 и бл. 7","operator:wikidata":"Q85614408"},"coordinates":[42.273851,22.671358]},"tags_mismatch":false,"dist":0},{"osm":false,"atp":{"id":"MV6iSLOFUy_P_-hYgjckFNpe0K8=","tags":{"amenity":"recycling","recycling:clothes":"yes","recycling:shoes":"yes","addr:country":"BG","name":"ъгъла на ул. Васил Левски с ул. Христо Смирненски","operator:wikidata":"Q85614408"},"coordinates":[41.892968,23.110737]},"tags_mismatch":false,"dist":0},{"osm":false,"atp":{"id":"ZTEneZQpG7GhtVq2DT_hpN1vkqs=","tags":{"amenity":"recycling","recycling:clothes":"yes","recycling:shoes":"yes","addr:country":"BG","name":"кв. Ораново, ъгъла на ул. Септемврийска с ул. Панайот Хитов","operator:wikidata":"Q85614408"},"coordinates":[41.892806,23.124141]},"tags_mismatch":false,"dist":0},{"osm":false,"atp":{"id":"KmEqM0MjlhuOcdc8DcrOTePxK7M=","tags":{"amenity":"recycling","recycling:clothes":"yes","recycling:shoes":"yes","addr:country":"BG","name":"кв. Вратлек, ул. Рожен","operator:wikidata":"Q85614408"},"coordinates":[41.741595,24.405834]},"tags_mismatch":false,"dist":0},{"osm":false,"atp":{"id":"n6KtA1HagDKUdI7C4lOSyQSd8-M=","tags":{"amenity":"recycling","recycling:clothes":"yes","recycling:shoes":"yes","addr:country":"BG","name":"ъгъла на ул. Родопи и ул. Спартак, до пешеходния мост","operator:wikidata":"Q85614408"},"coordinates":[41.743436,24.391773]},"tags_mismatch":false,"dist":0},{"osm":false,"atp":{"id":"DkhXVzCYcP16OX100PBRNEBU1jM=","tags":{"amenity":"recycling","recycling:clothes":"yes","recycling:shoes":"yes","addr:country":"BG","name":"ул. Атанас Кабов, на паркинга","operator:wikidata":"Q85614408"},"coordinates":[42.025642,24.370843]},"tags_mismatch":false,"dist":0},{"osm":false,"atp":{"id":"ziO3RlrBGe0d7bdaYUAG08AWRo4=","tags":{"amenity":"recycling","recycling:clothes":"yes","recycling:shoes":"yes","addr:country":"BG","name":"кръстовището на ул. Атанас Кабов с ул. 377","operator:wikidata":"Q85614408"},"coordinates":[42.023141,24.36954]},"tags_mismatch":false,"dist":0},{"osm":false,"atp":{"id":"mW4GXy9fz6tTFccyxemSGhu33v4=","tags":{"amenity":"recycling","recycling:clothes":"yes","recycling:shoes":"yes","addr:country":"BG","name":"ул. Шипка, срещу входа на градския парк","operator:wikidata":"Q85614408"},"coordinates":[42.08463,23.059738]},"tags_mismatch":false,"dist":0},{"osm":false,"atp":false,"tags_mismatch":false,"dist":0},{"osm":false,"atp":{"id":"ErrVeYytwfGp-KWBjJJGxbt-ti0=","tags":{"amenity":"recycling","recycling:clothes":"yes","recycling:shoes":"yes","addr:country":"BG","name":"ул. Сава Цонев до парк Ангел Каралийчев","operator:wikidata":"Q85614408"},"coordinates":[43.227249,25.960981]},"tags_mismatch":false,"dist":0},{"osm":false,"atp":{"id":"7sU4VnQtsw5IKX44CnDqIiNfR_w=","tags":{"amenity":"recycling","recycling:clothes":"yes","recycling:shoes":"yes","addr:country":"BG","name":"бул. Европа 85, пред Уникредит Булбанк","operator:wikidata":"Q85614408"},"coordinates":[42.763639,23.197758]},"tags_mismatch":false,"dist":0},{"osm":false,"atp":{"id":"Tw0xnvVkt-PZTBUDjruCWpgk29w=","tags":{"amenity":"recycling","recycling:clothes":"yes","recycling:shoes":"yes","addr:country":"BG","name":"ъгъла на ул. Самуил с ул. Пенчо Славейков","operator:wikidata":"Q85614408"},"coordinates":[42.440356,23.818876]},"tags_mismatch":false,"dist":0},{"osm":false,"atp":{"id":"px-2VwGHUCACvnOo6-pGTKbcxcg=","tags":{"amenity":"recycling","recycling:clothes":"yes","recycling:shoes":"yes","addr:country":"BG","name":"ъгъла на ул. Княз Борис I с ул. Св. Софроний Врачански, пред бл. 22","operator:wikidata":"Q85614408"},"coordinates":[42.436374,23.815277]},"tags_mismatch":false,"dist":0},{"osm":false,"atp":{"id":"vJ_fX9yxuzlTwgU4jDsUVp4y4b0=","tags":{"amenity":"recycling","recycling:clothes":"yes","recycling:shoes":"yes","addr:country":"BG","name":"кв. Повеляново, ул. Рила 3, пред Общински Младежки дом","operator:wikidata":"Q85614408"},"coordinates":[43.213484,27.648153]},"tags_mismatch":false,"dist":0},{"osm":false,"atp":{"id":"2Ixak_mcR1zep9XAYY0E9KlN32Q=","tags":{"amenity":"recycling","recycling:clothes":"yes","recycling:shoes":"yes","addr:country":"BG","name":"бул. Съединение 165","operator:wikidata":"Q85614408"},"coordinates":[43.218673,27.556605]},"tags_mismatch":false,"dist":0},{"osm":false,"atp":{"id":"z3GFIKR9nWx3SeXFrIxnq99G-do=","tags":{"amenity":"recycling","recycling:clothes":"yes","recycling:shoes":"yes","addr:country":"BG","name":"ул. Вела Пеева, между Община Добринище и Читалище „Димитър Благоев“","operator:wikidata":"Q85614408"},"coordinates":[41.821323,23.5632]},"tags_mismatch":false,"dist":0},{"osm":false,"atp":{"id":"J-_TFOVJuYk5lRGVRxHnuAG_zmM=","tags":{"amenity":"recycling","recycling:clothes":"yes","recycling:shoes":"yes","addr:country":"BG","name":"ул. Бела Река 88","operator:wikidata":"Q85614408"},"coordinates":[41.886873,23.458661]},"tags_mismatch":false,"dist":0},{"osm":false,"atp":{"id":"ytynHtHxV0ku1GT__QB1_gjmCL4=","tags":{"amenity":"recycling","recycling:clothes":"yes","recycling:shoes":"yes","addr:country":"BG","name":"ул. Опълченска, кръговото кръстовище до Тото пункта","operator:wikidata":"Q85614408"},"coordinates":[41.885574,23.467666]},"tags_mismatch":false,"dist":0},{"osm":false,"atp":{"id":"XgSTA6CBVXHYJx_08IUh6zgfXZg=","tags":{"amenity":"recycling","recycling:clothes":"yes","recycling:shoes":"yes","addr:country":"BG","name":"ул. Хан Пресиян 34, на гърба на Лидл","operator:wikidata":"Q85614408"},"coordinates":[42.034379,24.309085]},"tags_mismatch":false,"dist":0},{"osm":false,"atp":{"id":"wiZiTM-l9VeekJ-thJbgqV87OBQ=","tags":{"amenity":"recycling","recycling:clothes":"yes","recycling:shoes":"yes","addr:country":"BG","name":"ул. Симон Налбант, пред бл. 50Б","operator:wikidata":"Q85614408"},"coordinates":[42.038109,24.313409]},"tags_mismatch":false,"dist":0},{"osm":false,"atp":{"id":"0fjmNpoYjip7aF7T8w2EhXV1DnA=","tags":{"amenity":"recycling","recycling:clothes":"yes","recycling:shoes":"yes","addr:country":"BG","name":"ъгъла на ул. Възраждане с ул. Стефан Караджа","operator:wikidata":"Q85614408"},"coordinates":[43.329049,27.591346]},"tags_mismatch":false,"dist":0},{"osm":false,"atp":{"id":"6GLIB9nsuBoIlaT9UGwO_3EygqI=","tags":{"amenity":"recycling","recycling:clothes":"yes","recycling:shoes":"yes","addr:country":"BG","name":"ул. Муткурова, срещу ДЯ 4","operator:wikidata":"Q85614408"},"coordinates":[43.836426,25.957601]},"tags_mismatch":false,"dist":0},{"osm":false,"atp":{"id":"7kJt-4Opy6_b9QYjSoAgbQsVNIs=","tags":{"amenity":"recycling","recycling:clothes":"yes","recycling:shoes":"yes","addr:country":"BG","name":"бул. Ген. Скобелев, подлеза до бл. Българска роза","operator:wikidata":"Q85614408"},"coordinates":[43.845166,25.956655]},"tags_mismatch":false,"dist":0},{"osm":false,"atp":{"id":"qBJC_tyjccF8_fuKVsHJVulJa4s=","tags":{"amenity":"recycling","recycling:clothes":"yes","recycling:shoes":"yes","addr:country":"BG","name":"ул. Чипровци, пред бл. Иван Дечев, вх. Е","operator:wikidata":"Q85614408"},"coordinates":[43.843102,25.96922]},"tags_mismatch":false,"dist":0},{"osm":false,"atp":{"id":"E2iqNWEle3-teTPdsB7xcIst0ng=","tags":{"amenity":"recycling","recycling:clothes":"yes","recycling:shoes":"yes","addr:country":"BG","name":"ъгъла на ул. Петрохан с ул. Тича","operator:wikidata":"Q85614408"},"coordinates":[43.843531,25.976438]},"tags_mismatch":false,"dist":0},{"osm":false,"atp":{"id":"NghiN57rnF6wP38P9s0CvMAifn8=","tags":{"amenity":"recycling","recycling:clothes":"yes","recycling:shoes":"yes","addr:country":"BG","name":"ъгъла на ул. Байкал с ул. Захари Стоянов, до бл. 19","operator:wikidata":"Q85614408"},"coordinates":[43.847347,25.980617]},"tags_mismatch":false,"dist":0},{"osm":false,"atp":{"id":"KnE4Y5jy1ABQnkouWh5dSMkxeSw=","tags":{"amenity":"recycling","recycling:clothes":"yes","recycling:shoes":"yes","addr:country":"BG","name":"ул. Киев, до бл. Сметана срещу ДЯ 12","operator:wikidata":"Q85614408"},"coordinates":[43.851106,25.995072]},"tags_mismatch":false,"dist":0},{"osm":false,"atp":{"id":"sfiEGI73AiVx_gQs6-A6569Lgek=","tags":{"amenity":"recycling","recycling:clothes":"yes","recycling:shoes":"yes","addr:country":"BG","name":"ул. Измаил до бл. Дилянка и ДГ Зора","operator:wikidata":"Q85614408"},"coordinates":[43.849017,25.988403]},"tags_mismatch":false,"dist":0},{"osm":false,"atp":{"id":"6KJYl8dTbQchXGdpIvnXP2JkYgU=","tags":{"amenity":"recycling","recycling:clothes":"yes","recycling:shoes":"yes","addr:country":"BG","name":"ул. Никола Петков между бл. П. Вичев и бл. Ив. Кръстев 2","operator:wikidata":"Q85614408"},"coordinates":[43.851533,25.979219]},"tags_mismatch":false,"dist":0},{"osm":false,"atp":{"id":"lD2JM7_-DHeevDosHNP7LVIdPIo=","tags":{"amenity":"recycling","recycling:clothes":"yes","recycling:shoes":"yes","addr:country":"BG","name":"ул. Св. Св. Кирил и Методий между бл. Средец и бл. Перла","operator:wikidata":"Q85614408"},"coordinates":[43.856286,25.969967]},"tags_mismatch":false,"dist":0},{"osm":false,"atp":{"id":"6ImqfoqZLWIjevP9YO0hW3tfX9U=","tags":{"amenity":"recycling","recycling:clothes":"yes","recycling:shoes":"yes","addr:country":"BG","name":"ул. Тодор Каблешков, между ул. Видин и ул. Княз Ал. Д. Корсаков","operator:wikidata":"Q85614408"},"coordinates":[43.836697,25.954242]},"tags_mismatch":false,"dist":0},{"osm":false,"atp":{"id":"_bchfgamrJpHADOOjQdwpQ3lm7k=","tags":{"amenity":"recycling","recycling:clothes":"yes","recycling:shoes":"yes","addr:country":"BG","name":"площада в края на ул. Искър към ул. Тича","operator:wikidata":"Q85614408"},"coordinates":[43.742533,27.413167]},"tags_mismatch":false,"dist":0},{"osm":false,"atp":{"id":"gjgrMwgQLAeqtKo-BxJKxROKQAA=","tags":{"amenity":"recycling","recycling:clothes":"yes","recycling:shoes":"yes","addr:country":"BG","name":"кв. Чепино, площад Македония, пред Пощата","operator:wikidata":"Q85614408"},"coordinates":[42.005778,23.983909]},"tags_mismatch":false,"dist":0},{"osm":false,"atp":{"id":"xSomVSgqf9uS4t5m1GnZGYRbC_Q=","tags":{"amenity":"recycling","recycling:clothes":"yes","recycling:shoes":"yes","addr:country":"BG","name":"бул. Съединение 123, на спирката","operator:wikidata":"Q85614408"},"coordinates":[42.02903,23.991916]},"tags_mismatch":false,"dist":0},{"osm":false,"atp":{"id":"5WCWpVpePDdEzaCzKdDsy0qY--M=","tags":{"amenity":"recycling","recycling:clothes":"yes","recycling:shoes":"yes","addr:country":"BG","name":"кв. Каменица, площад Възраждане","operator:wikidata":"Q85614408"},"coordinates":[42.042514,23.987174]},"tags_mismatch":false,"dist":0},{"osm":false,"atp":{"id":"8Ea3tSb8_4q7b2odjFZ9pn4uQY0=","tags":{"amenity":"recycling","recycling:clothes":"yes","recycling:shoes":"yes","addr:country":"BG","name":"ул. Дунав, пред бл. 16","operator:wikidata":"Q85614408"},"coordinates":[41.571359,23.739296]},"tags_mismatch":false,"dist":0},{"osm":false,"atp":{"id":"t9k-zVnel5yYGOgj4YBf8eo6vTA=","tags":{"amenity":"recycling","recycling:clothes":"yes","recycling:shoes":"yes","addr:country":"BG","name":"локалното на ул. Иларион Макариополски, до бл. 3А","operator:wikidata":"Q85614408"},"coordinates":[41.571885,23.722913]},"tags_mismatch":false,"dist":0},{"osm":false,"atp":{"id":"ofREU-whX5Txdh5qPmFM-y_saWs=","tags":{"amenity":"recycling","recycling:clothes":"yes","recycling:shoes":"yes","addr:country":"BG","name":"с. Владо Тричков, на площада до спирката","operator:wikidata":"Q85614408"},"coordinates":[42.866724,23.367389]},"tags_mismatch":false,"dist":0},{"osm":false,"atp":{"id":"Pvk2hk9N_3ew3LykIEekcfdA8bc=","tags":{"amenity":"recycling","recycling:clothes":"yes","recycling:shoes":"yes","addr:country":"BG","name":"ул. Цар Симеон 35","operator:wikidata":"Q85614408"},"coordinates":[42.959973,23.346537]},"tags_mismatch":false,"dist":0}]}