{"metadata":{"name":"ОББ","key":"amenity","value":"bank","compare_keys":["opening_hours","phone"]},"data":[{"osm":{"type":"node","id":30361185,"tags":{"amenity":"bank","brand":"ОББ","brand:wikidata":"Q7887555","full_name:bg":"Обединена българска банка","full_name:en":"United Bulgarian Bank"},"wikidata":"Q7887555","coordinates":[42.8350254,22.6518172]},"atp":false,"tags_mismatch":false},{"osm":{"type":"node","id":277971947,"tags":{"addr:city":"София","addr:housenumber":"2","addr:postcode":"1528","addr:street":"5006","addr:suburb":"НПЗ Искър","amenity":"bank","atm":"yes","brand":"ОББ","brand:wikidata":"Q7887555","full_name:bg":"Обединена българска банка","full_name:en":"United Bulgarian Bank"},"wikidata":"Q7887555","coordinates":[42.6645179,23.4115849]},"atp":false,"tags_mismatch":false},{"osm":{"type":"node","id":298498811,"tags":{"amenity":"bank","atm":"yes","brand":"ОББ","brand:wikidata":"Q7887555","full_name:bg":"Обединена българска банка","full_name:en":"United Bulgarian Bank"},"wikidata":"Q7887555","coordinates":[43.025878,25.1047515]},"atp":{"id":"IUPmq5HphJGZPqwxRUFkDV4bdcE=","tags":{"ref":"4360","amenity":"bank","@source_uri":"https://www.ubb.bg/offices/pins","@spider":"ubb_bg","full_name:bg":"Обединена българска банка","full_name:en":"United Bulgarian Bank","addr:full":"пл. Свобода 1","addr:country":"BG","phone":"+359 67 531 211;+359 67 531 212","opening_hours":"Mo-Fr 08:30-17:00","brand":"ОББ","brand:wikidata":"Q7887555","nsi_id":"ubb-126296"},"coordinates":[43.02667973628202,25.10346331971282]},"dist":137.523,"tags_mismatch":true},{"osm":{"type":"node","id":344711267,"tags":{"addr:city":"Несебър","addr:housenumber":"54","addr:street":"Отец Паисий","amenity":"bank","atm":"yes","brand":"ОББ","brand:wikidata":"Q7887555","full_name:bg":"Обединена българска банка","full_name:en":"United Bulgarian Bank"},"wikidata":"Q7887555","coordinates":[42.6600563,27.7161906]},"atp":false,"tags_mismatch":false},{"osm":{"type":"node","id":351121553,"tags":{"addr:housenumber":"29","addr:postcode":"1324","addr:street":"бул. Джавахарлал Неру","amenity":"bank","atm":"yes","branch":"София 7/ Люлин 6 Джавахарлал Неру","brand":"ОББ","brand:wikidata":"Q7887555","full_name:bg":"Обединена българска банка","full_name:en":"United Bulgarian Bank","internet_access":"wlan","internet_access:fee":"no","opening_hours":"Mo-Fr 08:30-17:00","phone":"+359 2 921 6911","wheelchair":"yes"},"wikidata":"Q7887555","coordinates":[42.7141635,23.2560262]},"atp":{"id":"KlslJI1ZgK47w0u4QuQ7gfzuifM=","tags":{"ref":"6133","amenity":"bank","@source_uri":"https://www.ubb.bg/offices/pins","@spider":"ubb_bg","full_name:bg":"Обединена българска банка","full_name:en":"United Bulgarian Bank","addr:full":"бул. „Джавахарлал Неру“ 29","addr:country":"BG","phone":"+359 2 814 4310","opening_hours":"Mo-Fr 08:30-17:00","brand":"ОББ","brand:wikidata":"Q7887555","nsi_id":"ubb-126296"},"coordinates":[42.7140209,23.2558379]},"dist":22.093,"tags_mismatch":true},{"osm":{"type":"node","id":370046858,"tags":{"addr:city":"София","addr:housenumber":"41","addr:street":"бул. Джавахарлал Неру","amenity":"bank","atm":"yes","brand":"ОББ","brand:wikidata":"Q7887555","full_name:bg":"Обединена българска банка","full_name:en":"United Bulgarian Bank","opening_hours":"Mo-Fr 08:00-18:00; Sa 10:00-16:00","phone":"+359 2 811 3881","wheelchair":"yes"},"wikidata":"Q7887555","coordinates":[42.7145276,23.2534032]},"atp":false,"tags_mismatch":false},{"osm":{"type":"node","id":415610437,"tags":{"amenity":"bank","atm":"yes","brand":"ОББ","brand:wikidata":"Q7887555","contact:phone":"+359 2 814 4312","full_name:bg":"Обединена българска банка","full_name:en":"United Bulgarian Bank","opening_hours":"Mo-Fr 08:30-17:00","wheelchair":"no"},"wikidata":"Q7887555","coordinates":[42.7201452,23.2534398]},"atp":false,"tags_mismatch":false},{"osm":{"type":"node","id":634155512,"tags":{"addr:city":"Ямбол","addr:country":"BG","addr:housenumber":"34","addr:postcode":"8600","addr:street":"Георги С. Раковски","amenity":"bank","atm":"yes","brand":"ОББ","brand:wikidata":"Q7887555","drive_through":"no","full_name:bg":"Обединена българска банка","full_name:en":"United Bulgarian Bank","opening_hours":"Mo-Fr 08:30-18:00; Sa 10:00-14:00"},"wikidata":"Q7887555","coordinates":[42.4830417,26.5126553]},"atp":{"id":"TezFy7pNh7gCLnf6gX6bvtqrhNI=","tags":{"ref":"56","amenity":"bank","@source_uri":"https://www.ubb.bg/offices/pins","@spider":"ubb_bg","full_name:bg":"Обединена българска банка","full_name:en":"United Bulgarian Bank","addr:full":"ул. „Г.С.Раковски“ 34","addr:country":"BG","phone":"+359 46 685 608;+359 46 685 610;+359 46 685 612","opening_hours":"Mo-Fr 08:30-17:00","brand":"ОББ","brand:wikidata":"Q7887555","nsi_id":"ubb-126296"},"coordinates":[42.48326999492458,26.512606143951416]},"dist":25.703,"tags_mismatch":true},{"osm":{"type":"node","id":833931353,"tags":{"amenity":"bank","brand":"ОББ","brand:wikidata":"Q7887555","full_name:bg":"Обединена българска банка","full_name:en":"United Bulgarian Bank","opening_hours":"Mo-Fr 08:30-16:30","wheelchair":"yes"},"wikidata":"Q7887555","coordinates":[42.6851542,23.2973102]},"atp":{"id":"fHFBhMfHCEVPsksca6HrYI9oalQ=","tags":{"ref":"245","amenity":"bank","@source_uri":"https://www.ubb.bg/offices/pins","@spider":"ubb_bg","full_name:bg":"Обединена българска банка","full_name:en":"United Bulgarian Bank","addr:full":"ул. „Софийски герой“ 1","addr:country":"BG","phone":"+359 2 915 4085;+359 2 915 4080;+359 2 811 3954","opening_hours":"Mo-Fr 08:30-13:00,13:30-17:00","brand":"ОББ","brand:wikidata":"Q7887555","nsi_id":"ubb-126296"},"coordinates":[42.685030169939566,23.297334909439087]},"dist":13.939,"tags_mismatch":true},{"osm":{"type":"node","id":838051159,"tags":{"amenity":"bank","atm":"yes","brand":"ОББ","brand:wikidata":"Q7887555","check_date":"2024-05-10","full_name:bg":"Обединена българска банка","full_name:en":"United Bulgarian Bank","payment:cash":"yes","payment:credit_cards":"yes","payment:debit_cards":"yes","wheelchair":"yes"},"wikidata":"Q7887555","coordinates":[43.2097706,27.9202732]},"atp":{"id":"wHDxyjgYpNRdRz3cI90tR6Z4PTM=","tags":{"ref":"1","amenity":"bank","@source_uri":"https://www.ubb.bg/offices/pins","@spider":"ubb_bg","full_name:bg":"Обединена българска банка","full_name:en":"United Bulgarian Bank","addr:full":"бул. „Осми приморски полк“ 77","addr:country":"BG","phone":"+359 52 689 139;+359 52 689 137","opening_hours":"Mo-Fr 08:30-17:00","brand":"ОББ","brand:wikidata":"Q7887555","nsi_id":"ubb-126296"},"coordinates":[43.20986124462269,27.92032768855279]},"dist":11.004,"tags_mismatch":true},{"osm":{"type":"node","id":1129942934,"tags":{"amenity":"bank","atm":"yes","brand":"ОББ","brand:wikidata":"Q7887555","full_name:bg":"Обединена българска банка","full_name:en":"United Bulgarian Bank","opening_hours":"Mo-Fr 08:30-18:00"},"wikidata":"Q7887555","coordinates":[42.1378322,24.7400119]},"atp":{"id":"b9fho3qNvJlGmT0oznxxYDEMImE=","tags":{"ref":"4448","amenity":"bank","@source_uri":"https://www.ubb.bg/offices/pins","@spider":"ubb_bg","full_name:bg":"Обединена българска банка","full_name:en":"United Bulgarian Bank","addr:full":"бул. Васил Априлов 20","addr:country":"BG","phone":"+359 32 261 911;+359 32 261 918","opening_hours":"Mo-Fr 08:30-17:00","brand":"ОББ","brand:wikidata":"Q7887555","nsi_id":"ubb-126296"},"coordinates":[42.13802547020408,24.73987418769683]},"dist":24.306,"tags_mismatch":true},{"osm":{"type":"node","id":1154189835,"tags":{"amenity":"bank","brand":"ОББ","brand:wikidata":"Q7887555","full_name:bg":"Обединена българска банка","full_name:en":"United Bulgarian Bank"},"wikidata":"Q7887555","coordinates":[42.4617104,27.4147566]},"atp":false,"tags_mismatch":false},{"osm":{"type":"node","id":1168653486,"tags":{"amenity":"bank","brand":"ОББ","brand:wikidata":"Q7887555","full_name:bg":"Обединена българска банка","full_name:en":"United Bulgarian Bank"},"wikidata":"Q7887555","coordinates":[42.2907927,25.9358166]},"atp":{"id":"GxHELU9r5rhtjYPFqyUrjIMmsSY=","tags":{"ref":"59","amenity":"bank","@source_uri":"https://www.ubb.bg/offices/pins","@spider":"ubb_bg","full_name:bg":"Обединена българска банка","full_name:en":"United Bulgarian Bank","addr:full":"ул. „Георги Димитров“ 5","addr:country":"BG","phone":"+359 41 781 140;+359 41 781 143","opening_hours":"Mo-Fr 08:30-17:00","brand":"ОББ","brand:wikidata":"Q7887555","nsi_id":"ubb-126296"},"coordinates":[42.2905166207974,25.93484055250883]},"dist":85.954,"tags_mismatch":true},{"osm":{"type":"node","id":1168653527,"tags":{"amenity":"bank","brand":"ОББ","brand:wikidata":"Q7887555","full_name:bg":"Обединена българска банка","full_name:en":"United Bulgarian Bank"},"wikidata":"Q7887555","coordinates":[42.2906954,25.9359324]},"atp":false,"tags_mismatch":false},{"osm":{"type":"node","id":1227256718,"tags":{"addr:housenumber":"43","addr:postcode":"1111","addr:street":"бул. Шипченски проход","amenity":"bank","atm":"yes","brand":"ОББ","brand:wikidata":"Q7887555","check_date":"2025-03-22","full_name:bg":"Обединена българска банка","full_name:en":"United Bulgarian Bank","opening_hours":"Mo-Fr 08:30-17:00"},"wikidata":"Q7887555","coordinates":[42.6795345,23.3601171]},"atp":{"id":"okPP6b2WMQkIx1A4NzvzjOPdFqY=","tags":{"ref":"4402","amenity":"bank","@source_uri":"https://www.ubb.bg/offices/pins","@spider":"ubb_bg","full_name:bg":"Обединена българска банка","full_name:en":"United Bulgarian Bank","addr:full":"бул. Шипченски проход 43","addr:country":"BG","phone":"+359 2 817 1862","opening_hours":"Mo-Fr 08:30-17:00","brand":"ОББ","brand:wikidata":"Q7887555","nsi_id":"ubb-126296"},"coordinates":[42.6795876,23.3603725]},"dist":21.697,"tags_mismatch":true},{"osm":{"type":"node","id":1270803567,"tags":{"amenity":"bank","atm":"yes","brand":"ОББ","brand:wikidata":"Q7887555","check_date":"2022-07-19","full_name:bg":"Обединена българска банка","full_name:en":"United Bulgarian Bank"},"wikidata":"Q7887555","coordinates":[43.2104345,27.9084166]},"atp":{"id":"GB2qh8jxA9a5AJq_H38kjhZ82BE=","tags":{"ref":"4379","amenity":"bank","@source_uri":"https://www.ubb.bg/offices/pins","@spider":"ubb_bg","full_name:bg":"Обединена българска банка","full_name:en":"United Bulgarian Bank","addr:full":"бул. Владислав Варненчик 68","addr:country":"BG","phone":"+359 52 665 410;+359 52 665 412","opening_hours":"Mo-Fr 08:30-17:00","brand":"ОББ","brand:wikidata":"Q7887555","nsi_id":"ubb-126296"},"coordinates":[43.2104458,27.9084356]},"dist":1.987,"tags_mismatch":true},{"osm":{"type":"node","id":1343913961,"tags":{"amenity":"bank","atm":"yes","brand":"ОББ","brand:wikidata":"Q7887555","full_name:bg":"Обединена българска банка","full_name:en":"United Bulgarian Bank"},"wikidata":"Q7887555","coordinates":[42.6966537,27.710702]},"atp":false,"tags_mismatch":false},{"osm":{"type":"node","id":1347588787,"tags":{"amenity":"bank","brand":"ОББ","brand:wikidata":"Q7887555","full_name:bg":"Обединена българска банка","full_name:en":"United Bulgarian Bank"},"wikidata":"Q7887555","coordinates":[42.4230103,25.6185915]},"atp":{"id":"y8OH1yagjYXJYi5dRNBpLI4DF8Q=","tags":{"ref":"4358","amenity":"bank","@source_uri":"https://www.ubb.bg/offices/pins","@spider":"ubb_bg","full_name:bg":"Обединена българска банка","full_name:en":"United Bulgarian Bank","addr:full":"бул. Цар Симеон Велики 67","addr:country":"BG","phone":"+359 42 696 727;+359 42 696 712","opening_hours":"Mo-Fr 08:30-17:00","brand":"ОББ","brand:wikidata":"Q7887555","nsi_id":"ubb-126296"},"coordinates":[42.423141,25.6189092]},"dist":29.854,"tags_mismatch":true},{"osm":{"type":"node","id":1350379844,"tags":{"amenity":"bank","atm":"yes","brand":"ОББ","brand:wikidata":"Q7887555","full_name:bg":"Обединена българска банка","full_name:en":"United Bulgarian Bank","level":"0","wheelchair":"yes"},"wikidata":"Q7887555","coordinates":[42.1455145,24.7580515]},"atp":{"id":"8r-CLHuSb5UuHbON-mXhoRA-5AA=","tags":{"ref":"1134","amenity":"bank","@source_uri":"https://www.ubb.bg/offices/pins","@spider":"ubb_bg","full_name:bg":"Обединена българска банка","full_name:en":"United Bulgarian Bank","addr:full":"бул. „Княгиня Мария Луиза“ 26А","addr:country":"BG","phone":"+359 32 346 140;+359 32 346 139","opening_hours":"Mo-Fr 08:30-17:00","brand":"ОББ","brand:wikidata":"Q7887555","nsi_id":"ubb-126296"},"coordinates":[42.145456,24.757913599999938]},"dist":13.099,"tags_mismatch":true},{"osm":{"type":"node","id":1389589315,"tags":{"amenity":"bank","atm":"yes","brand":"ОББ","brand:wikidata":"Q7887555","full_name:bg":"Обединена българска банка","full_name:en":"United Bulgarian Bank"},"wikidata":"Q7887555","coordinates":[42.5032111,24.1885189]},"atp":false,"tags_mismatch":false},{"osm":{"type":"node","id":1479589311,"tags":{"amenity":"bank","atm":"yes","brand":"ОББ","brand:wikidata":"Q7887555","full_name:bg":"Обединена българска банка","full_name:en":"United Bulgarian Bank"},"wikidata":"Q7887555","coordinates":[42.1313378,24.7938695]},"atp":{"id":"mD7KXfiM5IY6HPrGxvhPX2OXcuE=","tags":{"ref":"275","amenity":"bank","@source_uri":"https://www.ubb.bg/offices/pins","@spider":"ubb_bg","full_name:bg":"Обединена българска банка","full_name:en":"United Bulgarian Bank","addr:full":"ул. „Съединение“ 49","addr:country":"BG","phone":"+359 32 606 694","opening_hours":"Mo-Fr 08:30-17:00","brand":"ОББ","brand:wikidata":"Q7887555","nsi_id":"ubb-126296"},"coordinates":[42.13355833609875,24.795198440551758]},"dist":270.139,"tags_mismatch":true},{"osm":{"type":"node","id":1495422928,"tags":{"amenity":"bank","atm":"yes","brand":"ОББ","brand:wikidata":"Q7887555","drive_through":"no","full_name:bg":"Обединена българска банка","full_name:en":"United Bulgarian Bank","opening_hours":"Mo-Fr 08:30-17:00"},"wikidata":"Q7887555","coordinates":[43.2032537,27.9171053]},"atp":false,"tags_mismatch":false},{"osm":{"type":"node","id":1652523363,"tags":{"amenity":"bank","atm":"yes","brand":"ОББ","brand:wikidata":"Q7887555","check_date":"2022-07-19","full_name:bg":"Обединена българска банка","full_name:en":"United Bulgarian Bank"},"wikidata":"Q7887555","coordinates":[43.2099801,27.9127062]},"atp":false,"tags_mismatch":false},{"osm":{"type":"node","id":1699374681,"tags":{"amenity":"bank","atm":"yes","brand":"ОББ","brand:wikidata":"Q7887555","full_name:bg":"Обединена българска банка","full_name:en":"United Bulgarian Bank"},"wikidata":"Q7887555","coordinates":[42.0257588,23.9928362]},"atp":{"id":"cNElsUU4k8lHIyWxzqjFpIT_GTc=","tags":{"ref":"118","amenity":"bank","@source_uri":"https://www.ubb.bg/offices/pins","@spider":"ubb_bg","full_name:bg":"Обединена българска банка","full_name:en":"United Bulgarian Bank","addr:full":"бул. „Ал.Стамболийски“ 3","addr:country":"BG","phone":"+359 35 956 561","opening_hours":"Mo-Fr 08:30-17:00","brand":"ОББ","brand:wikidata":"Q7887555","nsi_id":"ubb-126296"},"coordinates":[42.02569029838319,23.992552757263184]},"dist":24.62,"tags_mismatch":true},{"osm":{"type":"node","id":1700134517,"tags":{"amenity":"bank","atm":"yes","brand":"ОББ","brand:wikidata":"Q7887555","full_name:bg":"Обединена българска банка","full_name:en":"United Bulgarian Bank"},"wikidata":"Q7887555","coordinates":[42.8723546,25.3161467]},"atp":false,"tags_mismatch":false},{"osm":{"type":"node","id":1908209404,"tags":{"amenity":"bank","brand":"ОББ","brand:wikidata":"Q7887555","full_name:bg":"Обединена българска банка","full_name:en":"United Bulgarian Bank"},"wikidata":"Q7887555","coordinates":[43.0844516,25.6349551]},"atp":false,"tags_mismatch":false},{"osm":{"type":"node","id":1977596558,"tags":{"amenity":"bank","atm":"yes","brand":"ОББ","brand:wikidata":"Q7887555","full_name:bg":"Обединена българска банка","full_name:en":"United Bulgarian Bank"},"wikidata":"Q7887555","coordinates":[43.0799182,25.6165582]},"atp":false,"tags_mismatch":false},{"osm":{"type":"node","id":2012356971,"tags":{"amenity":"bank","atm":"yes","brand":"ОББ","brand:wikidata":"Q7887555","full_name:bg":"Обединена българска банка","full_name:en":"United Bulgarian Bank"},"wikidata":"Q7887555","coordinates":[42.5610016,27.6391312]},"atp":false,"tags_mismatch":false},{"osm":{"type":"node","id":2115928204,"tags":{"amenity":"bank","brand":"ОББ","brand:wikidata":"Q7887555","full_name:bg":"Обединена българска банка","full_name:en":"United Bulgarian Bank"},"wikidata":"Q7887555","coordinates":[43.210419,27.9073717]},"atp":false,"tags_mismatch":false},{"osm":{"type":"node","id":2149261983,"tags":{"amenity":"bank","brand":"ОББ","brand:wikidata":"Q7887555","full_name:bg":"Обединена българска банка","full_name:en":"United Bulgarian Bank"},"wikidata":"Q7887555","coordinates":[42.1282871,24.7483068]},"atp":false,"tags_mismatch":false},{"osm":{"type":"node","id":2268404703,"tags":{"addr:housenumber":"3","addr:street":"Прибойна","amenity":"bank","brand":"ОББ","brand:wikidata":"Q7887555","full_name:bg":"Обединена българска банка","full_name:en":"United Bulgarian Bank"},"wikidata":"Q7887555","coordinates":[42.6631814,27.7192537]},"atp":{"id":"TEPSlCkHh_281tCkhMSECRVzxJI=","tags":{"ref":"625","amenity":"bank","@source_uri":"https://www.ubb.bg/offices/pins","@spider":"ubb_bg","full_name:bg":"Обединена българска банка","full_name:en":"United Bulgarian Bank","addr:full":"ул. Прибойна № 3","addr:country":"BG","phone":"+359 55 440 033","opening_hours":"Mo-Fr 08:30-17:00","brand":"ОББ","brand:wikidata":"Q7887555","nsi_id":"ubb-126296"},"coordinates":[42.6632416,27.7192451]},"dist":6.731,"tags_mismatch":true},{"osm":{"type":"node","id":2312520371,"tags":{"amenity":"bank","brand":"ОББ","brand:wikidata":"Q7887555","full_name:bg":"Обединена българска банка","full_name:en":"United Bulgarian Bank"},"wikidata":"Q7887555","coordinates":[43.0782372,25.6326539]},"atp":false,"tags_mismatch":false},{"osm":{"type":"node","id":2315125417,"tags":{"amenity":"bank","atm":"yes","brand":"ОББ","brand:wikidata":"Q7887555","full_name:bg":"Обединена българска банка","full_name:en":"United Bulgarian Bank"},"wikidata":"Q7887555","coordinates":[43.0785926,25.6279922]},"atp":{"id":"S1JL0PE_UnPj_ASXh8GcHVtUTNU=","tags":{"ref":"116","amenity":"bank","@source_uri":"https://www.ubb.bg/offices/pins","@spider":"ubb_bg","full_name:bg":"Обединена българска банка","full_name:en":"United Bulgarian Bank","addr:full":"бул. „Васил Левски“ 29","addr:country":"BG","opening_hours":"Mo-Fr 08:30-17:00","brand":"ОББ","brand:wikidata":"Q7887555","nsi_id":"ubb-126296"},"coordinates":[43.078878550491105,25.628408432530705]},"dist":46.409,"tags_mismatch":true},{"osm":{"type":"node","id":2393984600,"tags":{"amenity":"bank","atm":"yes","brand":"ОББ","brand:wikidata":"Q7887555","full_name:bg":"Обединена българска банка","full_name:en":"United Bulgarian Bank"},"wikidata":"Q7887555","coordinates":[43.8460653,25.9590385]},"atp":false,"tags_mismatch":false},{"osm":{"type":"node","id":2403432550,"tags":{"addr:city":"София","addr:housenumber":"9","addr:postcode":"1111","addr:street":"бул. Шипченски проход","amenity":"bank","atm":"yes","brand":"ОББ","brand:wikidata":"Q7887555","full_name:bg":"Обединена българска банка","full_name:en":"United Bulgarian Bank","opening_hours":"Mo-Fr 08:30-16:30","phone":"+359 2 970 2015"},"wikidata":"Q7887555","coordinates":[42.6834009,23.3547171]},"atp":{"id":"_-oKqEnA5d3cHfu9Ba1qcg4g9xs=","tags":{"ref":"287","amenity":"bank","@source_uri":"https://www.ubb.bg/offices/pins","@spider":"ubb_bg","full_name:bg":"Обединена българска банка","full_name:en":"United Bulgarian Bank","addr:full":"бул. „Шипченски проход“ 9","addr:country":"BG","phone":"+359 2 970 2010;+359 2 970 2015","opening_hours":"Mo-Fr 08:30-17:00","brand":"ОББ","brand:wikidata":"Q7887555","nsi_id":"ubb-126296"},"coordinates":[42.683019034261186,23.3549184165895]},"dist":45.539,"tags_mismatch":true},{"osm":{"type":"node","id":2414591722,"tags":{"addr:housenumber":"46","addr:street":"Ропотамо","amenity":"bank","brand":"ОББ","brand:wikidata":"Q7887555","fixme":"verify exact position","full_name:bg":"Обединена българска банка","full_name:en":"United Bulgarian Bank","opening_hours":"Mo-Fr 08:30-13:00,13:30-17:00","phone":"+359 550 33 860"},"wikidata":"Q7887555","coordinates":[42.2678835,27.7549125]},"atp":false,"tags_mismatch":false},{"osm":{"type":"node","id":2574520778,"tags":{"amenity":"bank","atm":"yes","brand":"ОББ","brand:wikidata":"Q7887555","full_name:bg":"Обединена българска банка","full_name:en":"United Bulgarian Bank"},"wikidata":"Q7887555","coordinates":[43.5706204,27.8305613]},"atp":{"id":"SNsRJIfOj9Nt-GPeXrlMQr9KUlk=","tags":{"ref":"1196","amenity":"bank","@source_uri":"https://www.ubb.bg/offices/pins","@spider":"ubb_bg","full_name:bg":"Обединена българска банка","full_name:en":"United Bulgarian Bank","addr:full":"пл. „Възраждане“ 2","addr:country":"BG","phone":"+359 58 587 470","opening_hours":"Mo-Fr 08:30-17:00","brand":"ОББ","brand:wikidata":"Q7887555","nsi_id":"ubb-126296"},"coordinates":[43.570538037062576,27.830828652392608]},"dist":23.405,"tags_mismatch":true},{"osm":{"type":"node","id":2582377114,"tags":{"amenity":"bank","atm":"yes","brand":"ОББ","brand:wikidata":"Q7887555","full_name:bg":"Обединена българска банка","full_name:en":"United Bulgarian Bank"},"wikidata":"Q7887555","coordinates":[43.5687968,27.8336445]},"atp":false,"tags_mismatch":false},{"osm":{"type":"node","id":2624499090,"tags":{"addr:housenumber":"47","addr:postcode":"1606","addr:street":"бул. Христо Ботев","amenity":"bank","atm":"yes","brand":"ОББ","brand:wikidata":"Q7887555","drive_through":"no","full_name:bg":"Обединена българска банка","full_name:en":"United Bulgarian Bank","opening_hours":"Mo-Fr 08:30-16:30","phone":"+359 2 915 4665","wheelchair":"yes"},"wikidata":"Q7887555","coordinates":[42.694944,23.3150592]},"atp":{"id":"jIJSjY3h9afqHB1A-UqalbF5VQo=","tags":{"ref":"541","amenity":"bank","@source_uri":"https://www.ubb.bg/offices/pins","@spider":"ubb_bg","full_name:bg":"Обединена българска банка","full_name:en":"United Bulgarian Bank","addr:full":"бул. „Христо Ботев“ 47","addr:country":"BG","phone":"+359 2 915 4660;+359 2 915 4667","opening_hours":"Mo-Fr 08:30-17:00","brand":"ОББ","brand:wikidata":"Q7887555","nsi_id":"ubb-126296"},"coordinates":[42.694769454856385,23.31521099433303]},"dist":23.034,"tags_mismatch":true},{"osm":{"type":"node","id":2683357166,"tags":{"amenity":"bank","atm":"yes","brand":"ОББ","brand:wikidata":"Q7887555","full_name:bg":"Обединена българска банка","full_name:en":"United Bulgarian Bank","opening_hours":"Mo-Fr 08:30-17:00; Sa,Su off","wheelchair":"yes"},"wikidata":"Q7887555","coordinates":[43.855852,25.967903]},"atp":{"id":"0BnpvzOXti726CLL--vzXIO5N4E=","tags":{"ref":"339","amenity":"bank","@source_uri":"https://www.ubb.bg/offices/pins","@spider":"ubb_bg","full_name:bg":"Обединена българска банка","full_name:en":"United Bulgarian Bank","addr:full":"ул. „Плиска“ 19","addr:country":"BG","phone":"+359 82 812 465","opening_hours":"Mo-Fr 08:30-17:00","brand":"ОББ","brand:wikidata":"Q7887555","nsi_id":"ubb-126296"},"coordinates":[43.855558141286586,25.967264771461487]},"dist":60.716,"tags_mismatch":true},{"osm":{"type":"node","id":2691127645,"tags":{"amenity":"bank","atm":"yes","brand":"ОББ","brand:wikidata":"Q7887555","drive_through":"no","full_name:bg":"Обединена българска банка","full_name:en":"United Bulgarian Bank","old_name":"Райфайзен;Кей Би Си Банк","old_name:en":"Raiffeisen;KBC Bank","opening_hours":"Mo-Fr 08:30-17:00","wheelchair":"limited"},"wikidata":"Q7887555","coordinates":[42.6970292,23.3205403]},"atp":{"id":"K4R34omulCMW81c4VLbptArzvRE=","tags":{"ref":"4393","amenity":"bank","@source_uri":"https://www.ubb.bg/offices/pins","@spider":"ubb_bg","full_name:bg":"Обединена българска банка","full_name:en":"United Bulgarian Bank","addr:full":"пл. Света Неделя 5","addr:country":"BG","phone":"+359 2 915 6211;+359 2 915 6230","opening_hours":"Mo-Fr 08:30-17:00","brand":"ОББ","brand:wikidata":"Q7887555","nsi_id":"ubb-126296"},"coordinates":[42.69705938124501,23.32056205924684]},"dist":3.798,"tags_mismatch":true},{"osm":{"type":"node","id":2799412004,"tags":{"amenity":"bank","atm":"yes","brand":"ОББ","brand:wikidata":"Q7887555","full_name:bg":"Обединена българска банка","full_name:en":"United Bulgarian Bank"},"wikidata":"Q7887555","coordinates":[42.0311355,24.2983804]},"atp":{"id":"JGhCvRalPfRNcUI-XcE_Oe9jsO4=","tags":{"ref":"129","amenity":"bank","@source_uri":"https://www.ubb.bg/offices/pins","@spider":"ubb_bg","full_name:bg":"Обединена българска банка","full_name:en":"United Bulgarian Bank","addr:full":"ул. „Михаил Такев“ 65","addr:country":"BG","phone":"+359 35 060 041","opening_hours":"Mo-Fr 08:30-17:00","brand":"ОББ","brand:wikidata":"Q7887555","nsi_id":"ubb-126296"},"coordinates":[42.031436307237115,24.29849624633789]},"dist":34.79,"tags_mismatch":true},{"osm":{"type":"node","id":2902843445,"tags":{"addr:housenumber":"18/20","addr:postcode":"1504","addr:street":"Николай В. Гогол","amenity":"bank","atm":"yes","brand":"ОББ","brand:wikidata":"Q7887555","full_name:bg":"Обединена българска банка","full_name:en":"United Bulgarian Bank","internet_access":"wlan","official_name:en":"United Bulgarian Bank*","opening_hours":"Mo-Fr 08:30-17:00"},"wikidata":"Q7887555","coordinates":[42.6900546,23.3425657]},"atp":{"id":"G97QhAXrL5QUQISlD7axkxU9yuA=","tags":{"ref":"4403","amenity":"bank","@source_uri":"https://www.ubb.bg/offices/pins","@spider":"ubb_bg","full_name:bg":"Обединена българска банка","full_name:en":"United Bulgarian Bank","addr:full":"ул. Гогол 18-20","addr:country":"BG","phone":"02 9198 51 21;02 9198 57 02","opening_hours":"Mo-Fr 08:30-13:00,13:30-17:00","brand":"ОББ","brand:wikidata":"Q7887555","nsi_id":"ubb-126296"},"coordinates":[42.68999071233336,23.342426057672103]},"dist":13.444,"tags_mismatch":true},{"osm":{"type":"node","id":2994713270,"tags":{"amenity":"bank","atm":"yes","brand":"ОББ","brand:wikidata":"Q7887555","full_name:bg":"Обединена българска банка","full_name:en":"United Bulgarian Bank"},"wikidata":"Q7887555","coordinates":[42.1321161,24.716525]},"atp":false,"tags_mismatch":false},{"osm":{"type":"node","id":3021098137,"tags":{"addr:housenumber":"7А","addr:postcode":"1000","addr:street":"Света София","amenity":"bank","atm":"yes","brand":"ОББ","brand:wikidata":"Q7887555","full_name:bg":"Обединена българска банка","full_name:en":"United Bulgarian Bank","opening_hours":"Mo-Fr 08:30-17:00","phone":"+359 2 811 2174","wheelchair":"no"},"wikidata":"Q7887555","coordinates":[42.6965325,23.3195975]},"atp":{"id":"6l52S5s2VPsKwzvkFU9xSnUYpQE=","tags":{"ref":"224","amenity":"bank","@source_uri":"https://www.ubb.bg/offices/pins","@spider":"ubb_bg","full_name:bg":"Обединена българска банка","full_name:en":"United Bulgarian Bank","addr:full":"ул. „Света София“ 7А","addr:country":"BG","phone":"+359 2 811 2181;+359 2 811 2186","opening_hours":"Mo-Fr 08:30-17:00","brand":"ОББ","brand:wikidata":"Q7887555","nsi_id":"ubb-126296"},"coordinates":[42.696389892126184,23.320102421566844]},"dist":44.206,"tags_mismatch":true},{"osm":{"type":"node","id":3029796994,"tags":{"addr:housenumber":"12А","addr:street":"Тунджа","amenity":"bank","atm":"yes","brand":"ОББ","brand:wikidata":"Q7887555","full_name:bg":"Обединена българска банка","full_name:en":"United Bulgarian Bank","opening_hours":"Mo-Fr 08:30-17:00"},"wikidata":"Q7887555","coordinates":[42.6886129,23.3096653]},"atp":{"id":"0o1TMTmAaW0f4f5vaIZ57uPeGm4=","tags":{"ref":"918","amenity":"bank","@source_uri":"https://www.ubb.bg/offices/pins","@spider":"ubb_bg","full_name:bg":"Обединена българска банка","full_name:en":"United Bulgarian Bank","addr:full":"ул. „Тунджа“ 12А","addr:country":"BG","phone":"+359 2 902 9547;+359 2 902 9147;+359 2 902 9122","opening_hours":"Mo-Fr 08:30-17:00","brand":"ОББ","brand:wikidata":"Q7887555","nsi_id":"ubb-126296"},"coordinates":[42.688631,23.309657199999947]},"dist":2.119,"tags_mismatch":true},{"osm":{"type":"node","id":3030478932,"tags":{"amenity":"bank","atm":"yes","brand":"ОББ","brand:wikidata":"Q7887555","full_name:bg":"Обединена българска банка","full_name:en":"United Bulgarian Bank","opening_hours":"Mo-Fr 08:30-16:30"},"wikidata":"Q7887555","coordinates":[42.689256,23.4022065]},"atp":false,"tags_mismatch":false},{"osm":{"type":"node","id":3030480537,"tags":{"addr:housenumber":"123","addr:postcode":"1505","addr:street":"Оборище","amenity":"bank","atm":"yes","brand":"ОББ","brand:wikidata":"Q7887555","full_name:bg":"Обединена българска банка","full_name:en":"United Bulgarian Bank","opening_hours":"Mo-Fr 08:30-17:00","phone":"+359 2 942 5941"},"wikidata":"Q7887555","coordinates":[42.6933676,23.3536997]},"atp":{"id":"-50krTsQYqNd7XeSHLUlI-NcAtA=","tags":{"ref":"242","amenity":"bank","@source_uri":"https://www.ubb.bg/offices/pins","@spider":"ubb_bg","full_name:bg":"Обединена българска банка","full_name:en":"United Bulgarian Bank","addr:full":"ул. „Оборище“ 123","addr:country":"BG","phone":"+359 2 811 3590","opening_hours":"Mo-Fr 08:30-17:00","brand":"ОББ","brand:wikidata":"Q7887555","nsi_id":"ubb-126296"},"coordinates":[42.69342891518174,23.35372567176819]},"dist":7.141,"tags_mismatch":true},{"osm":{"type":"node","id":3030491898,"tags":{"addr:housenumber":"209A","amenity":"bank","brand":"ОББ","brand:wikidata":"Q7887555","full_name:bg":"Обединена българска банка","full_name:en":"United Bulgarian Bank","opening_hours":"08:30-16:30","phone":"+359 2 948 5452","wheelchair":"no"},"wikidata":"Q7887555","coordinates":[42.7026736,23.3540725]},"atp":{"id":"pAX0f_xhNgKclIzDZJ0x19g1NHo=","tags":{"ref":"673","amenity":"bank","@source_uri":"https://www.ubb.bg/offices/pins","@spider":"ubb_bg","full_name:bg":"Обединена българска банка","full_name:en":"United Bulgarian Bank","addr:full":"ж.к. „Суха река“, бл. 209А","addr:country":"BG","phone":"+359 2 948 5451","opening_hours":"Mo-Fr 08:30-17:00","brand":"ОББ","brand:wikidata":"Q7887555","nsi_id":"ubb-126296"},"coordinates":[42.7024917,23.353062499999965]},"dist":84.975,"tags_mismatch":true},{"osm":{"type":"node","id":3068324291,"tags":{"addr:housenumber":"32А","addr:street":"бул. Черни връх","amenity":"bank","brand":"ОББ","brand:wikidata":"Q7887555","full_name:bg":"Обединена българска банка","full_name:en":"United Bulgarian Bank","opening_hours":"Mo-Fr 08:30-17:00"},"wikidata":"Q7887555","coordinates":[42.6703112,23.3200226]},"atp":{"id":"5ADZqPTMvAM2gpsLRpCLRqX2DjY=","tags":{"ref":"4385","amenity":"bank","@source_uri":"https://www.ubb.bg/offices/pins","@spider":"ubb_bg","full_name:bg":"Обединена българска банка","full_name:en":"United Bulgarian Bank","addr:full":"бул. Черни връх 32 А","addr:country":"BG","phone":"+359 2 806 5821;+359 2 806 5822","opening_hours":"Mo-Fr 08:30-17:00","brand":"ОББ","brand:wikidata":"Q7887555","nsi_id":"ubb-126296"},"coordinates":[42.6701032,23.3198421]},"dist":27.436,"tags_mismatch":true},{"osm":{"type":"node","id":3069111838,"tags":{"addr:city":"София","addr:housenumber":"1","addr:postcode":"1421","addr:street":"бул. Черни връх","amenity":"bank","brand":"ОББ","brand:wikidata":"Q7887555","check_date:opening_hours":"2024-08-10","full_name:bg":"Обединена българска банка","full_name:en":"United Bulgarian Bank","opening_hours":"Mo-Fr 08:30-17:00","phone":"+359 2 819 2867"},"wikidata":"Q7887555","coordinates":[42.6819127,23.3216396]},"atp":{"id":"jhpaZ6XIQG9FC4q0byrNcgev5WA=","tags":{"ref":"1199","amenity":"bank","@source_uri":"https://www.ubb.bg/offices/pins","@spider":"ubb_bg","full_name:bg":"Обединена българска банка","full_name:en":"United Bulgarian Bank","addr:full":"бул. „Черни връх“ 1","addr:country":"BG","phone":"+359 2 811 2081","opening_hours":"Mo-Fr 08:30-17:00","brand":"ОББ","brand:wikidata":"Q7887555","nsi_id":"ubb-126296"},"coordinates":[42.68022,23.32196010000007]},"dist":190.034,"tags_mismatch":true},{"osm":{"type":"node","id":3072552787,"tags":{"addr:housenumber":"2","addr:postcode":"4400","addr:street":"11-ти Авуст","amenity":"bank","brand":"ОББ","brand:wikidata":"Q7887555","full_name:bg":"Обединена българска банка","full_name:en":"United Bulgarian Bank","phone":"+359 34 409 360"},"wikidata":"Q7887555","coordinates":[42.189144,24.3313534]},"atp":{"id":"pfYBAqoAFUzS0bSUXxcHqGndLsw=","tags":{"ref":"125","amenity":"bank","@source_uri":"https://www.ubb.bg/offices/pins","@spider":"ubb_bg","full_name:bg":"Обединена българска банка","full_name:en":"United Bulgarian Bank","addr:full":"ул. „11-ти август“ 2","addr:country":"BG","phone":"+359 34 409 394","opening_hours":"Mo-Fr 08:30-17:00","brand":"ОББ","brand:wikidata":"Q7887555","nsi_id":"ubb-126296"},"coordinates":[42.18908104472185,24.330843687057495]},"dist":42.574,"tags_mismatch":true},{"osm":{"type":"node","id":3080377461,"tags":{"addr:housenumber":"3","addr:postcode":"1463","addr:street":"д-р Христо Стамболски","amenity":"bank","brand":"ОББ","brand:wikidata":"Q7887555","full_name:bg":"Обединена българска банка","full_name:en":"United Bulgarian Bank","opening_hours":"Mo-Fr 08:30-17:00"},"wikidata":"Q7887555","coordinates":[42.684159,23.3165593]},"atp":{"id":"8cjBNU1_BrWryJ9yD8V9DeDpEy4=","tags":{"ref":"4384","amenity":"bank","@source_uri":"https://www.ubb.bg/offices/pins","@spider":"ubb_bg","full_name:bg":"Обединена българска банка","full_name:en":"United Bulgarian Bank","addr:full":"ул. Христо Стамболски 3 (до НДК)","addr:country":"BG","phone":"+359 2 917 8111;+359 2 917 8116","opening_hours":"Mo-Fr 08:30-17:00","brand":"ОББ","brand:wikidata":"Q7887555","nsi_id":"ubb-126296"},"coordinates":[42.6841432,23.3165085]},"dist":4.509,"tags_mismatch":true},{"osm":{"type":"node","id":3219048022,"tags":{"addr:housenumber":"112","addr:postcode":"1582","addr:street":"бул. Проф. Цветан Лазаров","addr:suburb":"ж.к. Дружба 2","amenity":"bank","atm":"yes","brand":"ОББ","brand:wikidata":"Q7887555","contact:phone":"+359 2 811 2871","full_name:bg":"Обединена българска банка","full_name:en":"United Bulgarian Bank","opening_hours":"Mo-Fr 08:30-16:30"},"wikidata":"Q7887555","coordinates":[42.6554906,23.3984658]},"atp":{"id":"thkeQCYTmezWAecD2mgZB-83gqM=","tags":{"ref":"523","amenity":"bank","@source_uri":"https://www.ubb.bg/offices/pins","@spider":"ubb_bg","full_name:bg":"Обединена българска банка","full_name:en":"United Bulgarian Bank","addr:full":"бул. „Цветан Лазаров“ пред бл. 206","addr:country":"BG","phone":"+359 2 817 3172","opening_hours":"Mo-Fr 08:30-17:00","brand":"ОББ","brand:wikidata":"Q7887555","nsi_id":"ubb-126296"},"coordinates":[42.65504567087549,23.39828621596098]},"dist":51.608,"tags_mismatch":true},{"osm":{"type":"node","id":3219063632,"tags":{"addr:housenumber":"120","addr:postcode":"1584","addr:street":"бул. Проф. Цветан Лазаров","addr:suburb":"ж.к. Дружба 2","amenity":"bank","brand":"ОББ","brand:wikidata":"Q7887555","contact:phone":"+359 2 807 9512","full_name:bg":"Обединена българска банка","full_name:en":"United Bulgarian Bank","opening_hours":"Mo-Fr 08:30-19:00"},"wikidata":"Q7887555","coordinates":[42.6542593,23.4009639]},"atp":{"id":"fR6HZ8vpx3UTkUXlb2ID7Yj937M=","tags":{"ref":"4399","amenity":"bank","@source_uri":"https://www.ubb.bg/offices/pins","@spider":"ubb_bg","full_name:bg":"Обединена българска банка","full_name:en":"United Bulgarian Bank","addr:full":"бул. Цветан Лазаров 120, ж.к. Дружба 2","addr:country":"BG","phone":"+359 2 807 9511;+359 2 807 9512","opening_hours":"Mo-Fr 08:30-17:00","brand":"ОББ","brand:wikidata":"Q7887555","nsi_id":"ubb-126296"},"coordinates":[42.6542872938631,23.40093608161468]},"dist":3.855,"tags_mismatch":true},{"osm":{"type":"node","id":3231668762,"tags":{"addr:housenumber":"49","addr:postcode":"1421","addr:street":"бул. България","amenity":"bank","atm":"yes","brand":"ОББ","brand:wikidata":"Q7887555","check_date":"2023-09-21","contact:phone":"+359 2 818 1914","full_name:bg":"Обединена българска банка","full_name:en":"United Bulgarian Bank","official_name:en":"United Bulgarian Bank*","opening_hours":"Mo-Fr 08:30-17:00","opening_hours:signed":"no","wheelchair":"yes"},"wikidata":"Q7887555","coordinates":[42.6681161,23.2912195]},"atp":{"id":"2ge_WNNUww8i5nQrggUYreo_Wnc=","tags":{"ref":"4355","amenity":"bank","@source_uri":"https://www.ubb.bg/offices/pins","@spider":"ubb_bg","full_name:bg":"Обединена българска банка","full_name:en":"United Bulgarian Bank","addr:full":"бул. България 49, бизнес център Витоша","addr:country":"BG","phone":"+359 2 818 1911;+359 2 818 1926","opening_hours":"Mo-Fr 08:30-17:00","brand":"ОББ","brand:wikidata":"Q7887555","nsi_id":"ubb-126296"},"coordinates":[42.668131597891716,23.291160763229353]},"dist":5.102,"tags_mismatch":true},{"osm":{"type":"node","id":3268680477,"tags":{"amenity":"bank","atm":"yes","brand":"ОББ","brand:wikidata":"Q7887555","full_name:bg":"Обединена българска банка","full_name:en":"United Bulgarian Bank"},"wikidata":"Q7887555","coordinates":[43.0252765,25.1042611]},"atp":false,"tags_mismatch":false},{"osm":{"type":"node","id":3284857460,"tags":{"addr:city":"София","addr:housenumber":"171","addr:street":"бул. Ломско шосе","amenity":"bank","atm":"yes","brand":"ОББ","brand:wikidata":"Q7887555","currency:BGN":"yes","full_name:bg":"Обединена българска банка","full_name:en":"United Bulgarian Bank","internet_access":"wlan","internet_access:fee":"no","opening_hours":"Mo-Fr 08:30-19:00","phone":"+359 2 813 4011;+359 2 813 4012"},"wikidata":"Q7887555","coordinates":[42.7259634,23.3024276]},"atp":{"id":"yxPy4vsXcbHzY5o08omUK2-DsJw=","tags":{"ref":"4413","amenity":"bank","@source_uri":"https://www.ubb.bg/offices/pins","@spider":"ubb_bg","full_name:bg":"Обединена българска банка","full_name:en":"United Bulgarian Bank","addr:full":"ж.к. Надежда, бул. Ломско шосе, бл. 171","addr:country":"BG","phone":"+359 2 813 4011;+359 2 813 4012","opening_hours":"Mo-Fr 08:30-17:00","brand":"ОББ","brand:wikidata":"Q7887555","nsi_id":"ubb-126296"},"coordinates":[42.72601797405191,23.302399899883266]},"dist":6.476,"tags_mismatch":true},{"osm":{"type":"node","id":3284865962,"tags":{"addr:city":"София","addr:housenumber":"171","addr:postcode":"1220","addr:street":"бул. Ломско шосе","amenity":"bank","atm":"yes","brand":"ОББ","brand:wikidata":"Q7887555","full_name:bg":"Обединена българска банка","full_name:en":"United Bulgarian Bank","opening_hours":"Mo-Fr 08:30-17:00","phone":"+359 2 811 3743"},"wikidata":"Q7887555","coordinates":[42.7264419,23.3019021]},"atp":{"id":"EiIIcM_arp-l_k1JNiHT4QWkcFw=","tags":{"ref":"816","amenity":"bank","@source_uri":"https://www.ubb.bg/offices/pins","@spider":"ubb_bg","full_name:bg":"Обединена българска банка","full_name:en":"United Bulgarian Bank","addr:full":"бул. „Ломско шосе“, бл. 171","addr:country":"BG","phone":"+359 2 811 3746;+359 2 811 3748;+359 2 811 3747","opening_hours":"Mo-Fr 08:30-17:00","brand":"ОББ","brand:wikidata":"Q7887555","nsi_id":"ubb-126296"},"coordinates":[42.72643916878301,23.30199122428894]},"dist":7.286,"tags_mismatch":true},{"osm":{"type":"node","id":3289988489,"tags":{"amenity":"bank","atm":"yes","brand":"ОББ","brand:wikidata":"Q7887555","full_name:bg":"Обединена българска банка","full_name:en":"United Bulgarian Bank"},"wikidata":"Q7887555","coordinates":[42.4934464,27.4715691]},"atp":{"id":"LPUl0P4vHZTxQqGnOMRW7O0BjT4=","tags":{"ref":"77","amenity":"bank","@source_uri":"https://www.ubb.bg/offices/pins","@spider":"ubb_bg","full_name:bg":"Обединена българска банка","full_name:en":"United Bulgarian Bank","addr:full":"ул. „Фердинандова“ 2","addr:country":"BG","phone":"+359 56 897 005","opening_hours":"Mo-Fr 08:30-17:00","brand":"ОББ","brand:wikidata":"Q7887555","nsi_id":"ubb-126296"},"coordinates":[42.493527378010405,27.471436858177185]},"dist":14.094,"tags_mismatch":true},{"osm":{"type":"node","id":3361137414,"tags":{"amenity":"bank","atm":"yes","brand":"ОББ","brand:wikidata":"Q7887555","full_name:bg":"Обединена българска банка","full_name:en":"United Bulgarian Bank"},"wikidata":"Q7887555","coordinates":[43.4110847,24.6200813]},"atp":{"id":"nL5YRDim7iplTPYmr3JM7RKrnzQ=","tags":{"ref":"352","amenity":"bank","@source_uri":"https://www.ubb.bg/offices/pins","@spider":"ubb_bg","full_name:bg":"Обединена българска банка","full_name:en":"United Bulgarian Bank","addr:full":"пл. „Свобода“ 25","addr:country":"BG","phone":"+359 64 895 726","opening_hours":"Mo-Fr 08:30-17:00","brand":"ОББ","brand:wikidata":"Q7887555","nsi_id":"ubb-126296"},"coordinates":[43.40984100862109,24.618419408798218]},"dist":192.733,"tags_mismatch":true},{"osm":{"type":"node","id":3362903304,"tags":{"addr:city":"Плевен","addr:housenumber":"1","addr:street":"Св. Климент Охридски","amenity":"bank","atm":"yes","brand":"ОББ","brand:wikidata":"Q7887555","check_date:opening_hours":"2021-07-14","full_name:bg":"Обединена българска банка","full_name:en":"United Bulgarian Bank","opening_hours":"Mo-Fr 08:30-12:30,13:00-16:30"},"wikidata":"Q7887555","coordinates":[43.4100755,24.6266936]},"atp":false,"tags_mismatch":false},{"osm":{"type":"node","id":3364208246,"tags":{"addr:city":"Плевен","addr:street":"Васил Левски","amenity":"bank","atm":"yes","brand":"ОББ","brand:wikidata":"Q7887555","check_date":"2022-12-03","full_name:bg":"Обединена българска банка","full_name:en":"United Bulgarian Bank","internet_access":"wlan","internet_access:fee":"customers","opening_hours":"Mo-Fr 08:30-17:30; Sa 10:00-14:00","payment:mastercard":"yes","payment:visa":"yes","wheelchair":"yes"},"wikidata":"Q7887555","coordinates":[43.4097015,24.6182772]},"atp":{"id":"8ctMtkPZ9cGY5FkqJjLOP-jTCWI=","tags":{"ref":"968","amenity":"bank","@source_uri":"https://www.ubb.bg/offices/pins","@spider":"ubb_bg","full_name:bg":"Обединена българска банка","full_name:en":"United Bulgarian Bank","addr:full":"ул. „Коста Хаджипакев“ 3","addr:country":"BG","phone":"+359 64 883 421","opening_hours":"Mo-Fr 08:30-17:00","brand":"ОББ","brand:wikidata":"Q7887555","nsi_id":"ubb-126296"},"coordinates":[43.4114613,24.617091200000004]},"dist":217.874,"tags_mismatch":true},{"osm":{"type":"node","id":3364453867,"tags":{"addr:city":"Плевен","addr:housenumber":"74","addr:street":"бул. Христо Ботев","amenity":"bank","atm":"yes","brand":"ОББ","brand:wikidata":"Q7887555","full_name:bg":"Обединена българска банка","full_name:en":"United Bulgarian Bank","opening_hours":"Mo-Fr 08:30-17:00, PH off"},"wikidata":"Q7887555","coordinates":[43.4092069,24.6255703]},"atp":false,"tags_mismatch":false},{"osm":{"type":"node","id":3419487082,"tags":{"addr:city":"Плевен","addr:street":"Васил Левски","amenity":"bank","atm":"yes","brand":"ОББ","brand:wikidata":"Q7887555","full_name:bg":"Обединена българска банка","full_name:en":"United Bulgarian Bank"},"wikidata":"Q7887555","coordinates":[43.4066657,24.6201539]},"atp":{"id":"6vE6_Dx_xp8Q4QOXWdKDERr6ju4=","tags":{"ref":"4374","amenity":"bank","@source_uri":"https://www.ubb.bg/offices/pins","@spider":"ubb_bg","full_name:bg":"Обединена българска банка","full_name:en":"United Bulgarian Bank","addr:full":"ул. Вардар 1 (вход от пл. Възраждане)","addr:country":"BG","phone":"+359 64 883 711;+359 64 883 712","opening_hours":"Mo-Fr 08:30-17:00","brand":"ОББ","brand:wikidata":"Q7887555","nsi_id":"ubb-126296"},"coordinates":[43.4066424,24.6194339]},"dist":58.221,"tags_mismatch":true},{"osm":{"type":"node","id":3465130034,"tags":{"addr:housenumber":"бл.304","addr:place":"ж.к. Младост 3","addr:postcode":"1712","amenity":"bank","brand":"ОББ","brand:wikidata":"Q7887555","contact:phone":"+359 2 817 5011;+359 2 817 5012","full_name:bg":"Обединена българска банка","full_name:en":"United Bulgarian Bank","opening_hours":"Mo-Fr 08:30-17:00"},"wikidata":"Q7887555","coordinates":[42.6453255,23.380035]},"atp":false,"tags_mismatch":false},{"osm":{"type":"node","id":3470933067,"tags":{"amenity":"bank","brand":"ОББ","brand:wikidata":"Q7887555","full_name:bg":"Обединена българска банка","full_name:en":"United Bulgarian Bank"},"wikidata":"Q7887555","coordinates":[43.5255312,26.5270979]},"atp":{"id":"aQWyLuWoCS-KDktZ0SrJQmbxiCA=","tags":{"ref":"29","amenity":"bank","@source_uri":"https://www.ubb.bg/offices/pins","@spider":"ubb_bg","full_name:bg":"Обединена българска банка","full_name:en":"United Bulgarian Bank","addr:full":"ул. „Св. Св. Кирил и Методий“ 4","addr:country":"BG","phone":"+359 84 640 001","opening_hours":"Mo-Fr 08:30-17:00","brand":"ОББ","brand:wikidata":"Q7887555","nsi_id":"ubb-126296"},"coordinates":[43.5258398,26.525844600000028]},"dist":106.713,"tags_mismatch":true},{"osm":{"type":"node","id":3474694589,"tags":{"amenity":"bank","atm":"yes","brand":"ОББ","brand:wikidata":"Q7887555","full_name:bg":"Обединена българска банка","full_name:en":"United Bulgarian Bank"},"wikidata":"Q7887555","coordinates":[42.6850565,26.3423603]},"atp":false,"tags_mismatch":false},{"osm":{"type":"node","id":3504391261,"tags":{"amenity":"bank","atm":"yes","brand":"ОББ","brand:wikidata":"Q7887555","check_date:opening_hours":"2024-03-20","contact:phone":"+359 2 926 7911","full_name:bg":"Обединена българска банка","full_name:en":"United Bulgarian Bank","opening_hours":"Mo-Fr 08:30-17:00"},"wikidata":"Q7887555","coordinates":[42.6981838,23.3277839]},"atp":{"id":"wUk9dOsoENe5GTiKZg-3IzLrRhU=","tags":{"ref":"351","amenity":"bank","@source_uri":"https://www.ubb.bg/offices/pins","@spider":"ubb_bg","full_name:bg":"Обединена българска банка","full_name:en":"United Bulgarian Bank","addr:full":"бул. „Княз Александър Дондуков“ 13","addr:country":"BG","phone":"+359 2 811 3895","opening_hours":"Mo-Fr 08:30-17:00","brand":"ОББ","brand:wikidata":"Q7887555","nsi_id":"ubb-126296"},"coordinates":[42.69814110000001,23.3277222]},"dist":6.926,"tags_mismatch":true},{"osm":{"type":"node","id":3526958798,"tags":{"addr:housenumber":"58","addr:postcode":"1000","addr:street":"Алабин","amenity":"bank","atm":"yes","brand":"ОББ","brand:wikidata":"Q7887555","full_name:bg":"Обединена българска банка","full_name:en":"United Bulgarian Bank","opening_hours":"Mo-Fr 10:00-18:00; Sa 10:00-16:00","phone":"+359 2 902 9123"},"wikidata":"Q7887555","coordinates":[42.6945227,23.3231202]},"atp":{"id":"xbJu9RFm4G72QKU-mrRZg7xxcVA=","tags":{"ref":"935","amenity":"bank","@source_uri":"https://www.ubb.bg/offices/pins","@spider":"ubb_bg","full_name:bg":"Обединена българска банка","full_name:en":"United Bulgarian Bank","addr:full":"ул. „Алабин“ 58","addr:country":"BG","phone":"+359 2 902 9123;+359 2 811 2862;+359 2 811 2860","opening_hours":"Mo-Fr 08:30-17:00","brand":"ОББ","brand:wikidata":"Q7887555","nsi_id":"ubb-126296"},"coordinates":[42.69447580000001,23.323152700000037]},"dist":5.852,"tags_mismatch":true},{"osm":{"type":"node","id":3531640789,"tags":{"addr:city":"София","addr:housenumber":"108","addr:postcode":"1000","addr:street":"Георги С. Раковски","amenity":"bank","atm":"yes","brand":"ОББ","brand:wikidata":"Q7887555","contact:phone":"+359 2 815 4717","full_name:bg":"Обединена българска банка","full_name:en":"United Bulgarian Bank","opening_hours":"Mo-Fr 08:30-17:00"},"wikidata":"Q7887555","coordinates":[42.6926464,23.3264658]},"atp":{"id":"pvD4hvvTcnV0lMkzBbrjgqHfraU=","tags":{"ref":"939","amenity":"bank","@source_uri":"https://www.ubb.bg/offices/pins","@spider":"ubb_bg","full_name:bg":"Обединена българска банка","full_name:en":"United Bulgarian Bank","addr:full":"ул. „Г.С. Раковски“ 108","addr:country":"BG","phone":"+359 2 815 4715","opening_hours":"Mo-Fr 08:30-17:00","brand":"ОББ","brand:wikidata":"Q7887555","nsi_id":"ubb-126296"},"coordinates":[42.69256658664427,23.326428909262063]},"dist":9.373,"tags_mismatch":true},{"osm":{"type":"node","id":3610587343,"tags":{"amenity":"bank","atm":"yes","brand":"ОББ","brand:wikidata":"Q7887555","full_name:bg":"Обединена българска банка","full_name:en":"United Bulgarian Bank"},"wikidata":"Q7887555","coordinates":[42.5588435,27.6418437]},"atp":{"id":"iY0_FTCch2H1g2Nddg1RwJBaNys=","tags":{"ref":"53","amenity":"bank","@source_uri":"https://www.ubb.bg/offices/pins","@spider":"ubb_bg","full_name:bg":"Обединена българска банка","full_name:en":"United Bulgarian Bank","addr:full":"ул. „Княз Борис“ 69","addr:country":"BG","phone":"+359 59 626 204","opening_hours":"Mo-Fr 08:30-17:00","brand":"ОББ","brand:wikidata":"Q7887555","nsi_id":"ubb-126296"},"coordinates":[42.55801182148979,27.63962745666504]},"dist":203.721,"tags_mismatch":true},{"osm":{"type":"node","id":3706881143,"tags":{"amenity":"bank","brand":"ОББ","brand:wikidata":"Q7887555","full_name:bg":"Обединена българска банка","full_name:en":"United Bulgarian Bank","opening_hours":"Mo-Fr 08:30-17:00"},"wikidata":"Q7887555","coordinates":[42.4998331,27.4700399]},"atp":{"id":"OrsemoURzPDQn2Psg92Ikk9GbDM=","tags":{"ref":"4420","amenity":"bank","@source_uri":"https://www.ubb.bg/offices/pins","@spider":"ubb_bg","full_name:bg":"Обединена българска банка","full_name:en":"United Bulgarian Bank","addr:full":"ул. Адам Мицкевич 1","addr:country":"BG","phone":"+359 56 897 842;+359 56 897 845","opening_hours":"Mo-Fr 08:30-17:00","brand":"ОББ","brand:wikidata":"Q7887555","nsi_id":"ubb-126296"},"coordinates":[42.50053079999999,27.4784014]},"dist":689.862,"tags_mismatch":true},{"osm":{"type":"node","id":3744677906,"tags":{"amenity":"bank","brand":"ОББ","brand:wikidata":"Q7887555","full_name:bg":"Обединена българска банка","full_name:en":"United Bulgarian Bank"},"wikidata":"Q7887555","coordinates":[43.0820686,25.6330288]},"atp":{"id":"HZ7DIDEOLwwPW2RSyedy5pwgpQI=","tags":{"ref":"472","amenity":"bank","@source_uri":"https://www.ubb.bg/offices/pins","@spider":"ubb_bg","full_name:bg":"Обединена българска банка","full_name:en":"United Bulgarian Bank","addr:full":"ул. Христо Ботев №3","addr:country":"BG","phone":"+359 62 610 350","opening_hours":"Mo-Fr 08:30-17:00","brand":"ОББ","brand:wikidata":"Q7887555","nsi_id":"ubb-126296"},"coordinates":[43.081948811633396,25.632955311157275]},"dist":14.596,"tags_mismatch":true},{"osm":{"type":"node","id":3744953025,"tags":{"amenity":"bank","brand":"ОББ","brand:wikidata":"Q7887555","full_name:bg":"Обединена българска банка","full_name:en":"United Bulgarian Bank"},"wikidata":"Q7887555","coordinates":[42.4832988,26.5047069]},"atp":false,"tags_mismatch":false},{"osm":{"type":"node","id":3828064383,"tags":{"amenity":"bank","brand":"ОББ","brand:wikidata":"Q7887555","full_name:bg":"Обединена българска банка","full_name:en":"United Bulgarian Bank","opening_hours":"Mo-Fr 08:30-17:00; Sa,Su off"},"wikidata":"Q7887555","coordinates":[42.1444383,24.7521181]},"atp":{"id":"82Qo3hAKvfNg-_MoPTTiPO83-Og=","tags":{"ref":"4433","amenity":"bank","@source_uri":"https://www.ubb.bg/offices/pins","@spider":"ubb_bg","full_name:bg":"Обединена българска банка","full_name:en":"United Bulgarian Bank","addr:full":"бул. Княгиня Мария Луиза 1","addr:country":"BG","phone":"+359 32 646 575;+359 32 646 565","opening_hours":"Mo-Fr 08:30-17:00","brand":"ОББ","brand:wikidata":"Q7887555","nsi_id":"ubb-126296"},"coordinates":[42.144624860571604,24.75251877116395]},"dist":39.007,"tags_mismatch":true},{"osm":{"type":"node","id":3841521097,"tags":{"amenity":"bank","brand":"ОББ","brand:wikidata":"Q7887555","full_name:bg":"Обединена българска банка","full_name:en":"United Bulgarian Bank"},"wikidata":"Q7887555","coordinates":[42.142506,24.7444863]},"atp":false,"tags_mismatch":false},{"osm":{"type":"node","id":3949119285,"tags":{"amenity":"bank","brand":"ОББ","brand:wikidata":"Q7887555","full_name:bg":"Обединена българска банка","full_name:en":"United Bulgarian Bank","opening_hours":"Mo-Fr 08:30-17:00"},"wikidata":"Q7887555","coordinates":[43.2387601,25.306192]},"atp":false,"tags_mismatch":false},{"osm":{"type":"node","id":3997719659,"tags":{"addr:housenumber":"98","addr:street":"Александровска","amenity":"bank","atm":"yes","brand":"ОББ","brand:wikidata":"Q7887555","full_name:bg":"Обединена българска банка","full_name:en":"United Bulgarian Bank"},"wikidata":"Q7887555","coordinates":[42.499744,27.4662018]},"atp":false,"tags_mismatch":false},{"osm":{"type":"node","id":3999275953,"tags":{"amenity":"bank","atm":"yes","brand":"ОББ","brand:wikidata":"Q7887555","currency:BGN":"yes","full_name:bg":"Обединена българска банка","full_name:en":"United Bulgarian Bank"},"wikidata":"Q7887555","coordinates":[42.6656114,23.5978125]},"atp":false,"tags_mismatch":false},{"osm":{"type":"node","id":3999354143,"tags":{"addr:city":"Елин Пелин","addr:postcode":"2100","addr:street":"пл. Независимост","amenity":"bank","atm":"yes","branch":"Елин Пелин","brand":"ОББ","brand:wikidata":"Q7887555","full_name:bg":"Обединена българска банка","full_name:en":"United Bulgarian Bank","phone":"+359 725 68 931"},"wikidata":"Q7887555","coordinates":[42.6689353,23.6014908]},"atp":{"id":"colMpozFcv2zGryP_FUZsotC_50=","tags":{"ref":"4347","amenity":"bank","@source_uri":"https://www.ubb.bg/offices/pins","@spider":"ubb_bg","full_name:bg":"Обединена българска банка","full_name:en":"United Bulgarian Bank","addr:full":"пл. „Независимост“","addr:country":"BG","phone":"+359 72 568 933","opening_hours":"Mo-Fr 08:30-13:00,13:30-17:00","brand":"ОББ","brand:wikidata":"Q7887555","nsi_id":"ubb-126296"},"coordinates":[42.6689794,23.60141329999999]},"dist":8.012,"tags_mismatch":true},{"osm":{"type":"node","id":4004491504,"tags":{"amenity":"bank","atm":"yes","brand":"ОББ","brand:wikidata":"Q7887555","check_date:opening_hours":"2024-11-20","full_name:bg":"Обединена българска банка","full_name:en":"United Bulgarian Bank","opening_hours":"08:30-17:00","wheelchair":"limited"},"wikidata":"Q7887555","coordinates":[42.0075827,24.8752269]},"atp":{"id":"QJWWwtJOnqDivIBqGKORoDlLcQk=","tags":{"ref":"311","amenity":"bank","@source_uri":"https://www.ubb.bg/offices/pins","@spider":"ubb_bg","full_name:bg":"Обединена българска банка","full_name:en":"United Bulgarian Bank","addr:full":"пл. „Академик Николай Хайтов“ 3","addr:country":"BG","phone":"+359 33 120 022","opening_hours":"Mo-Fr 08:30-17:00","brand":"ОББ","brand:wikidata":"Q7887555","nsi_id":"ubb-126296"},"coordinates":[42.00723739701482,24.8750102519989]},"dist":42.364,"tags_mismatch":true},{"osm":{"type":"node","id":4010001114,"tags":{"amenity":"bank","atm":"yes","brand":"ОББ","brand:wikidata":"Q7887555","full_name:bg":"Обединена българска банка","full_name:en":"United Bulgarian Bank","opening_hours":"08:30-17:00"},"wikidata":"Q7887555","coordinates":[42.0062602,24.8753202]},"atp":false,"tags_mismatch":false},{"osm":{"type":"node","id":4105536930,"tags":{"addr:city":"Пловдив","addr:housenumber":"146","addr:street":"6-ти Септември","amenity":"bank","atm":"yes","brand":"ОББ","brand:wikidata":"Q7887555","full_name:bg":"Обединена българска банка","full_name:en":"United Bulgarian Bank"},"wikidata":"Q7887555","coordinates":[42.150821,24.7452112]},"atp":false,"tags_mismatch":false},{"osm":{"type":"node","id":4105536931,"tags":{"amenity":"bank","brand":"ОББ","brand:wikidata":"Q7887555","full_name:bg":"Обединена българска банка","full_name:en":"United Bulgarian Bank","opening_hours":"Mo-Fr 08:30-17:00","phone":"+359 32 907 911;+359 32 907 912"},"wikidata":"Q7887555","coordinates":[42.149239,24.7390615]},"atp":{"id":"l9OLjaGOrySLBUuY3glPRMl190I=","tags":{"ref":"4437","amenity":"bank","@source_uri":"https://www.ubb.bg/offices/pins","@spider":"ubb_bg","full_name:bg":"Обединена българска банка","full_name:en":"United Bulgarian Bank","addr:full":"бул. Шести септември 125","addr:country":"BG","phone":"+359 32 907 911;+359 32 907 912","opening_hours":"Mo-Fr 08:30-17:00","brand":"ОББ","brand:wikidata":"Q7887555","nsi_id":"ubb-126296"},"coordinates":[42.1493629,24.7393248]},"dist":25.709,"tags_mismatch":false},{"osm":{"type":"node","id":4144299919,"tags":{"amenity":"bank","atm":"yes","brand":"ОББ","brand:wikidata":"Q7887555","full_name:bg":"Обединена българска банка","full_name:en":"United Bulgarian Bank"},"wikidata":"Q7887555","coordinates":[43.3498689,26.2253129]},"atp":{"id":"Vvu3G9_-2uGPcejNAsM7re-w-rs=","tags":{"ref":"28","amenity":"bank","@source_uri":"https://www.ubb.bg/offices/pins","@spider":"ubb_bg","full_name:bg":"Обединена българска банка","full_name:en":"United Bulgarian Bank","addr:full":"ул. „Цар Освободител“ 15","addr:country":"BG","phone":"+359 60 849 010;+359 60 849 024","opening_hours":"Mo-Fr 08:30-17:00","brand":"ОББ","brand:wikidata":"Q7887555","nsi_id":"ubb-126296"},"coordinates":[43.349742353195964,26.2241351970672]},"dist":96.261,"tags_mismatch":true},{"osm":{"type":"node","id":4144299921,"tags":{"amenity":"bank","atm":"yes","brand":"ОББ","brand:wikidata":"Q7887555","full_name:bg":"Обединена българска банка","full_name:en":"United Bulgarian Bank"},"wikidata":"Q7887555","coordinates":[43.3493501,26.2262409]},"atp":false,"tags_mismatch":false},{"osm":{"type":"node","id":4226506870,"tags":{"addr:city":"Кърджали","addr:postcode":"6600","addr:street":"ул. \"Георги Бенковски\"1","amenity":"bank","atm":"yes","brand":"ОББ","brand:wikidata":"Q7887555","full_name:bg":"Обединена българска банка","full_name:en":"United Bulgarian Bank"},"wikidata":"Q7887555","coordinates":[41.6422429,25.3693405]},"atp":{"id":"FwaogX_3OjaAA6BPCW8O4FhEgxw=","tags":{"ref":"163","amenity":"bank","@source_uri":"https://www.ubb.bg/offices/pins","@spider":"ubb_bg","full_name:bg":"Обединена българска банка","full_name:en":"United Bulgarian Bank","addr:full":"ул. „Георги Бенковски“ 1","addr:country":"BG","phone":"+359 36 166 100;+359 36 166 122;+359 36 166 114","opening_hours":"Mo-Fr 08:30-17:00","brand":"ОББ","brand:wikidata":"Q7887555","nsi_id":"ubb-126296"},"coordinates":[41.6422741,25.36976649999997]},"dist":35.569,"tags_mismatch":true},{"osm":{"type":"node","id":4300859328,"tags":{"amenity":"bank","brand":"ОББ","brand:wikidata":"Q7887555","full_name:bg":"Обединена българска банка","full_name:en":"United Bulgarian Bank","opening_hours":"Mo-Fr 08:30-16:30","phone":"+359 700 11717"},"wikidata":"Q7887555","coordinates":[42.6944821,27.7096923]},"atp":false,"tags_mismatch":false},{"osm":{"type":"node","id":4330820392,"tags":{"addr:city":"София","addr:housenumber":"13","addr:postcode":"1618","addr:street":"бул. Александър С. Пушкин","amenity":"bank","atm":"yes","brand":"ОББ","brand:wikidata":"Q7887555","check_date":"2023-09-04","full_name:bg":"Обединена българска банка","full_name:en":"United Bulgarian Bank","opening_hours":"Mo-Fr 8:30-17:00","phone":"+359 2 962 4102"},"wikidata":"Q7887555","coordinates":[42.6647032,23.2662652]},"atp":false,"tags_mismatch":false},{"osm":{"type":"node","id":4386668489,"tags":{"amenity":"bank","brand":"ОББ","brand:wikidata":"Q7887555","full_name:bg":"Обединена българска банка","full_name:en":"United Bulgarian Bank","opening_hours":"Mo-Fr 08:30-16:30"},"wikidata":"Q7887555","coordinates":[42.1717934,27.8541343]},"atp":false,"tags_mismatch":false},{"osm":{"type":"node","id":4498546870,"tags":{"amenity":"bank","brand":"ОББ","brand:wikidata":"Q7887555","full_name:bg":"Обединена българска банка","full_name:en":"United Bulgarian Bank"},"wikidata":"Q7887555","coordinates":[42.7069089,23.3503282]},"atp":false,"tags_mismatch":false},{"osm":{"type":"node","id":4582323837,"tags":{"addr:city":"София","addr:housenumber":"132","addr:postcode":"1309","addr:street":"бул. Тодор Александров","amenity":"bank","atm":"yes","brand":"ОББ","brand:wikidata":"Q7887555","full_name:bg":"Обединена българска банка","full_name:en":"United Bulgarian Bank","wheelchair":"limited"},"wikidata":"Q7887555","coordinates":[42.7015977,23.3010854]},"atp":{"id":"rit8s8TO64Wn1l5N7t8XayczNws=","tags":{"ref":"4356","amenity":"bank","@source_uri":"https://www.ubb.bg/offices/pins","@spider":"ubb_bg","full_name:bg":"Обединена българска банка","full_name:en":"United Bulgarian Bank","addr:full":"бул. Тодор Александров 132","addr:country":"BG","phone":"+359 2 915 9930;+359 2 915 9919","opening_hours":"Mo-Fr 08:30-13:00,13:30-17:00","brand":"ОББ","brand:wikidata":"Q7887555","nsi_id":"ubb-126296"},"coordinates":[42.701573161694256,23.301152156414037]},"dist":6.099,"tags_mismatch":true},{"osm":{"type":"node","id":4592319004,"tags":{"amenity":"bank","brand":"ОББ","brand:wikidata":"Q7887555","full_name:bg":"Обединена българска банка","full_name:en":"United Bulgarian Bank"},"wikidata":"Q7887555","coordinates":[42.7022121,23.3531678]},"atp":false,"tags_mismatch":false},{"osm":{"type":"node","id":4603473091,"tags":{"addr:housenumber":"3","addr:postcode":"8130","addr:street":"Индустриална","amenity":"bank","atm":"yes","brand":"ОББ","brand:wikidata":"Q7887555","full_name:bg":"Обединена българска банка","full_name:en":"United Bulgarian Bank","opening_hours":"Mo-Sa 08:30-17:00","phone":"+359 550 24 551"},"wikidata":"Q7887555","coordinates":[42.4208952,27.6929263]},"atp":false,"tags_mismatch":false},{"osm":{"type":"node","id":4715594055,"tags":{"amenity":"bank","brand":"ОББ","brand:wikidata":"Q7887555","full_name:bg":"Обединена българска банка","full_name:en":"United Bulgarian Bank"},"wikidata":"Q7887555","coordinates":[42.0254785,23.9935786]},"atp":false,"tags_mismatch":false},{"osm":{"type":"node","id":4763547004,"tags":{"amenity":"bank","atm":"yes","brand":"ОББ","brand:wikidata":"Q7887555","full_name:bg":"Обединена българска банка","full_name:en":"United Bulgarian Bank","opening_hours":"Mo-Fr 08:30-17:00","wheelchair":"yes"},"wikidata":"Q7887555","coordinates":[41.9331395,25.5573935]},"atp":{"id":"iVC2VL1oJZ0RdOeexr0_b9JiGck=","tags":{"ref":"4442","amenity":"bank","@source_uri":"https://www.ubb.bg/offices/pins","@spider":"ubb_bg","full_name:bg":"Обединена българска банка","full_name:en":"United Bulgarian Bank","addr:full":"пл. Свобода 7","addr:country":"BG","phone":"+359 38 604 719;+359 38 604 726","opening_hours":"Mo-Fr 08:30-17:00","brand":"ОББ","brand:wikidata":"Q7887555","nsi_id":"ubb-126296"},"coordinates":[41.9333157,25.5577]},"dist":32.042,"tags_mismatch":true},{"osm":{"type":"node","id":4789595423,"tags":{"addr:postcode":"5500","addr:street":"пл. Г. М. Димитров","amenity":"bank","brand":"ОББ","brand:wikidata":"Q7887555","full_name:bg":"Обединена българска банка","full_name:en":"United Bulgarian Bank","opening_hours":"Mo-Fr 08:30-16:30","phone":"+359 700 17717"},"wikidata":"Q7887555","coordinates":[43.1379363,24.7165]},"atp":{"id":"9y3pDB5xCx8cVHxsU-6Wi4h-ii4=","tags":{"ref":"123","amenity":"bank","@source_uri":"https://www.ubb.bg/offices/pins","@spider":"ubb_bg","full_name:bg":"Обединена българска банка","full_name:en":"United Bulgarian Bank","addr:full":"пл. „Г.М.Димитров“","addr:country":"BG","phone":"+359 68 689 248","opening_hours":"Mo-Fr 08:30-17:00","brand":"ОББ","brand:wikidata":"Q7887555","nsi_id":"ubb-126296"},"coordinates":[43.13771174422931,24.717049598693848]},"dist":51.109,"tags_mismatch":true},{"osm":{"type":"node","id":4931066107,"tags":{"amenity":"bank","brand":"ОББ","brand:wikidata":"Q7887555","full_name:bg":"Обединена българска банка","full_name:en":"United Bulgarian Bank","opening_hours":"Mo-Fr 08:30-17:00"},"wikidata":"Q7887555","coordinates":[42.6808694,23.3724399]},"atp":{"id":"M0K99QsXL-sDwPj8qhtOING_kzA=","tags":{"ref":"4397","amenity":"bank","@source_uri":"https://www.ubb.bg/offices/pins","@spider":"ubb_bg","full_name:bg":"Обединена българска банка","full_name:en":"United Bulgarian Bank","addr:full":"ул. Теменуга 3 (ъгъла с ул. Слатинска)","addr:country":"BG","phone":"+359 2 892 4011;+359 2 892 4012","opening_hours":"Mo-Fr 08:30-17:00","brand":"ОББ","brand:wikidata":"Q7887555","nsi_id":"ubb-126296"},"coordinates":[42.681177343912296,23.372504186647028]},"dist":34.643,"tags_mismatch":true},{"osm":{"type":"node","id":4947500114,"tags":{"amenity":"bank","atm":"yes","brand":"ОББ","brand:wikidata":"Q7887555","check_date":"2025-06-19","check_date:opening_hours":"2025-06-19","full_name:bg":"Обединена българска банка","full_name:en":"United Bulgarian Bank","opening_hours":"Mo-Fr 08:30-17:00"},"wikidata":"Q7887555","coordinates":[42.706332,23.323974]},"atp":{"id":"m1Kl36xoCa95qq0Djnxs_W1kBrM=","tags":{"ref":"240","amenity":"bank","@source_uri":"https://www.ubb.bg/offices/pins","@spider":"ubb_bg","full_name:bg":"Обединена българска банка","full_name:en":"United Bulgarian Bank","addr:full":"бул. “Княгиня Мария Луиза“ 70","addr:country":"BG","phone":"+359 2 811 3161","opening_hours":"Mo-Fr 08:30-17:00","brand":"ОББ","brand:wikidata":"Q7887555","nsi_id":"ubb-126296"},"coordinates":[42.7063590451199,23.32400737737771]},"dist":4.06,"tags_mismatch":true},{"osm":{"type":"node","id":4971220704,"tags":{"addr:city":"София","addr:housenumber":"1-9","addr:street":"Ген. Стефан Тошев","amenity":"bank","atm":"separate","branch":"Дойран","brand":"ОББ","brand:wikidata":"Q7887555","check_date":"2025-06-28","contact:phone":"+359 2 808 0590","full_name:bg":"Обединена българска банка","full_name:en":"United Bulgarian Bank","opening_hours":"Mo-Fr 08:30-16:30"},"wikidata":"Q7887555","coordinates":[42.6727149,23.2847351]},"atp":{"id":"PAg2cyG1AzLoTGiB7ElbyQ0NsgM=","tags":{"ref":"504","amenity":"bank","@source_uri":"https://www.ubb.bg/offices/pins","@spider":"ubb_bg","full_name:bg":"Обединена българска банка","full_name:en":"United Bulgarian Bank","addr:full":"ул. „Ген. Стефан Тошев“ 1-9","addr:country":"BG","phone":"+359 2 808 0590;+359 2 808 0595;+359 2 808 0591","opening_hours":"Mo-Fr 08:30-17:00","brand":"ОББ","brand:wikidata":"Q7887555","nsi_id":"ubb-126296"},"coordinates":[42.672907161809256,23.284921646118164]},"dist":26.261,"tags_mismatch":true},{"osm":{"type":"node","id":5033068006,"tags":{"amenity":"bank","brand":"ОББ","brand:wikidata":"Q7887555","full_name:bg":"Обединена българска банка","full_name:en":"United Bulgarian Bank"},"wikidata":"Q7887555","coordinates":[42.6184985,25.3923227]},"atp":{"id":"29N8nVc84gGCVFJfT68tIjAVY8U=","tags":{"ref":"372","amenity":"bank","@source_uri":"https://www.ubb.bg/offices/pins","@spider":"ubb_bg","full_name:bg":"Обединена българска банка","full_name:en":"United Bulgarian Bank","addr:full":"пл. „Севтополис“ 14","addr:country":"BG","phone":"+359 431 687 00;+359 431 687 09","opening_hours":"Mo-Fr 08:30-17:00","brand":"ОББ","brand:wikidata":"Q7887555","nsi_id":"ubb-126296"},"coordinates":[42.61820198236786,25.390799045562744]},"dist":128.961,"tags_mismatch":true},{"osm":{"type":"node","id":5040010790,"tags":{"addr:housenumber":"2","addr:postcode":"1404","addr:street":"Деян Белишки","amenity":"bank","brand":"ОББ","brand:wikidata":"Q7887555","check_date":"2024-09-12","full_name:bg":"Обединена българска банка","full_name:en":"United Bulgarian Bank","opening_hours":"Mo-Fr 08:30-17:00"},"wikidata":"Q7887555","coordinates":[42.6651124,23.3024804]},"atp":{"id":"gPf_OvcHxN5YNT6zLfygIhrAZbQ=","tags":{"ref":"4409","amenity":"bank","@source_uri":"https://www.ubb.bg/offices/pins","@spider":"ubb_bg","full_name:bg":"Обединена българска банка","full_name:en":"United Bulgarian Bank","addr:full":"ул. Деян Белишки 2","addr:country":"BG","phone":"+359 2 808 5911;+359 2 808 5914","opening_hours":"Mo-Fr 08:30-17:00","brand":"ОББ","brand:wikidata":"Q7887555","nsi_id":"ubb-126296"},"coordinates":[42.665179355742765,23.302486501535792]},"dist":7.462,"tags_mismatch":true},{"osm":{"type":"node","id":5077746624,"tags":{"amenity":"bank","brand":"ОББ","brand:wikidata":"Q7887555","full_name:bg":"Обединена българска банка","full_name:en":"United Bulgarian Bank","opening_hours":"Mo-Fr 08:30-17:00"},"wikidata":"Q7887555","coordinates":[42.6508714,23.3423382]},"atp":{"id":"OPKJUGnR6yzsGeTfeM_4ofpmEPY=","tags":{"ref":"4396","amenity":"bank","@source_uri":"https://www.ubb.bg/offices/pins","@spider":"ubb_bg","full_name:bg":"Обединена българска банка","full_name:en":"United Bulgarian Bank","addr:full":"ул. Aкад. Борис Стефанов 9","addr:country":"BG","phone":"+359 2 819 0436;+359 2 807 9437","opening_hours":"Mo-Fr 08:30-17:00","brand":"ОББ","brand:wikidata":"Q7887555","nsi_id":"ubb-126296"},"coordinates":[42.65087820417569,23.342419216602313]},"dist":6.669,"tags_mismatch":true},{"osm":{"type":"node","id":5145080921,"tags":{"amenity":"bank","brand":"ОББ","brand:wikidata":"Q7887555","full_name:bg":"Обединена българска банка","full_name:en":"United Bulgarian Bank","wheelchair":"no"},"wikidata":"Q7887555","coordinates":[43.986554,22.875241]},"atp":false,"tags_mismatch":false},{"osm":{"type":"node","id":5207821622,"tags":{"amenity":"bank","atm":"yes","branch":"Красно село","brand":"ОББ","brand:wikidata":"Q7887555","check_date":"2024-03-20","full_name:bg":"Обединена българска банка","full_name:en":"United Bulgarian Bank","internet_access":"wlan","official_name:en":"United Bulgarian Bank*","opening_hours":"Mo-Fr 08:30-17:00","phone":"+359 2 808 1751","ref":"26"},"wikidata":"Q7887555","coordinates":[42.6788378,23.2841892]},"atp":{"id":"Ivsf6Yge4T25CH0Hwt4YFe4bl5o=","tags":{"ref":"4415","amenity":"bank","@source_uri":"https://www.ubb.bg/offices/pins","@spider":"ubb_bg","full_name:bg":"Обединена българска банка","full_name:en":"United Bulgarian Bank","addr:full":"бул. Цар Борис ІІІ 124 А","addr:country":"BG","phone":"+359 2 808 1751;+359 2 808 1752","brand":"ОББ","brand:wikidata":"Q7887555","nsi_id":"ubb-126296"},"coordinates":[42.67883526253144,23.284146876352498]},"dist":3.471,"tags_mismatch":true},{"osm":{"type":"node","id":5228196023,"tags":{"amenity":"bank","brand":"ОББ","brand:wikidata":"Q7887555","full_name:bg":"Обединена българска банка","full_name:en":"United Bulgarian Bank"},"wikidata":"Q7887555","coordinates":[43.2190642,27.9365319]},"atp":false,"tags_mismatch":false},{"osm":{"type":"node","id":5262599576,"tags":{"amenity":"bank","brand":"ОББ","brand:wikidata":"Q7887555","full_name:bg":"Обединена българска банка","full_name:en":"United Bulgarian Bank"},"wikidata":"Q7887555","coordinates":[42.6176221,25.3890075]},"atp":false,"tags_mismatch":false},{"osm":{"type":"node","id":5337412128,"tags":{"amenity":"bank","atm":"yes","brand":"ОББ","brand:wikidata":"Q7887555","full_name:bg":"Обединена българска банка","full_name:en":"United Bulgarian Bank"},"wikidata":"Q7887555","coordinates":[42.5949028,26.6915536]},"atp":false,"tags_mismatch":false},{"osm":{"type":"node","id":5530208951,"tags":{"addr:city":"Ботевград","addr:housenumber":"2","addr:postcode":"2140","addr:street":"акад. Стоян Романовски","amenity":"bank","brand":"ОББ","brand:wikidata":"Q7887555","full_name:bg":"Обединена българска банка","full_name:en":"United Bulgarian Bank","opening_hours":"Mo-Fr 08:30-17:00","phone":"+359 723 68 711;+359 723 68 712"},"wikidata":"Q7887555","coordinates":[42.9069002,23.7906401]},"atp":{"id":"aZF6qCsmeUKP9xyjszbqi4bIIOs=","tags":{"ref":"262","amenity":"bank","@source_uri":"https://www.ubb.bg/offices/pins","@spider":"ubb_bg","full_name:bg":"Обединена българска банка","full_name:en":"United Bulgarian Bank","addr:full":"пл. „Саранск“ 3","addr:country":"BG","phone":"+359 72 368 105;+359 72 368 103;+359 72 368 104;+359 72 368 106","opening_hours":"Mo-Fr 08:30-17:00","brand":"ОББ","brand:wikidata":"Q7887555","nsi_id":"ubb-126296"},"coordinates":[42.90808541813713,23.792062997817993]},"dist":175.496,"tags_mismatch":true},{"osm":{"type":"node","id":5635089597,"tags":{"amenity":"bank","brand":"ОББ","brand:wikidata":"Q7887555","full_name:bg":"Обединена българска банка","full_name:en":"United Bulgarian Bank"},"wikidata":"Q7887555","coordinates":[43.8235159,27.1414064]},"atp":false,"tags_mismatch":false},{"osm":{"type":"node","id":5653442207,"tags":{"amenity":"bank","brand":"ОББ","brand:wikidata":"Q7887555","full_name:bg":"Обединена българска банка","full_name:en":"United Bulgarian Bank"},"wikidata":"Q7887555","coordinates":[43.1376235,24.7178867]},"atp":false,"tags_mismatch":false},{"osm":{"type":"node","id":5670305291,"tags":{"addr:city":"Поморие","addr:housenumber":"69","addr:postcode":"8200","addr:street":"Княз Борис I","amenity":"bank","atm":"yes","brand":"ОББ","brand:wikidata":"Q7887555","full_name:bg":"Обединена българска банка","full_name:en":"United Bulgarian Bank","opening_hours":"Mo-Fr 08:30-17:00","phone":"+359 596 26 204"},"wikidata":"Q7887555","coordinates":[42.557906,27.6393568]},"atp":false,"tags_mismatch":false},{"osm":{"type":"node","id":5672099122,"tags":{"amenity":"bank","atm":"yes","brand":"ОББ","brand:wikidata":"Q7887555","full_name:bg":"Обединена българска банка","full_name:en":"United Bulgarian Bank"},"wikidata":"Q7887555","coordinates":[42.7110951,23.3502833]},"atp":{"id":"hqctoYqiq1vRITLAJ3e-VI5rxgE=","tags":{"ref":"932","amenity":"bank","@source_uri":"https://www.ubb.bg/offices/pins","@spider":"ubb_bg","full_name:bg":"Обединена българска банка","full_name:en":"United Bulgarian Bank","addr:full":"ул. „Резбарска“ 5, Балканстар","addr:country":"BG","phone":"+359 2 902 9957","opening_hours":"Mo-Fr 08:30-17:00","brand":"ОББ","brand:wikidata":"Q7887555","nsi_id":"ubb-126296"},"coordinates":[42.7112458,23.35180749999995]},"dist":125.656,"tags_mismatch":true},{"osm":{"type":"node","id":5693025921,"tags":{"amenity":"bank","brand":"ОББ","brand:wikidata":"Q7887555","full_name:bg":"Обединена българска банка","full_name:en":"United Bulgarian Bank","opening_hours":"Mo-Fr 08:30-17:00"},"wikidata":"Q7887555","coordinates":[42.5598785,27.6405489]},"atp":false,"tags_mismatch":false},{"osm":{"type":"node","id":5730663281,"tags":{"addr:city":"Кула","amenity":"bank","brand":"ОББ","brand:wikidata":"Q7887555","full_name:bg":"Обединена българска банка","full_name:en":"United Bulgarian Bank"},"wikidata":"Q7887555","coordinates":[43.8896539,22.523174]},"atp":false,"tags_mismatch":false},{"osm":{"type":"node","id":5744630146,"tags":{"addr:housenumber":"11","addr:place":"Бизнес Парк София","amenity":"bank","brand":"ОББ","brand:wikidata":"Q7887555","check_date":"2024-02-02","full_name:bg":"Обединена българска банка","full_name:en":"United Bulgarian Bank","opening_hours":"Mo-Fr 08:30-17:00","payment:cash":"yes","payment:credit_cards":"yes","payment:debit_cards":"yes","wheelchair":"yes"},"wikidata":"Q7887555","coordinates":[42.6266926,23.3767353]},"atp":{"id":"72eIwOTu_5ZYixb_9DRd2dELdVo=","tags":{"ref":"254","amenity":"bank","@source_uri":"https://www.ubb.bg/offices/pins","@spider":"ubb_bg","full_name:bg":"Обединена българска банка","full_name:en":"United Bulgarian Bank","addr:full":"жк. Младост 4, Бизнес парк София, Сграда 11 А","addr:country":"BG","phone":"+359 2 976 1060","opening_hours":"Mo-Fr 08:30-17:00","brand":"ОББ","brand:wikidata":"Q7887555","nsi_id":"ubb-126296"},"coordinates":[42.627154447344594,23.375322818756104]},"dist":126.459,"tags_mismatch":true},{"osm":{"type":"node","id":5760711209,"tags":{"amenity":"bank","brand":"ОББ","brand:wikidata":"Q7887555","full_name:bg":"Обединена българска банка","full_name:en":"United Bulgarian Bank"},"wikidata":"Q7887555","coordinates":[42.679216,26.3141248]},"atp":{"id":"B9Ic9GAkTiQPmOE-E_I6fB8xDmI=","tags":{"ref":"4423","amenity":"bank","@source_uri":"https://www.ubb.bg/offices/pins","@spider":"ubb_bg","full_name:bg":"Обединена българска банка","full_name:en":"United Bulgarian Bank","addr:full":"ул. Цар Симеон 11","addr:country":"BG","phone":"+359 44 610 432;+359 44 610 433","opening_hours":"Mo-Fr 08:30-17:00","brand":"ОББ","brand:wikidata":"Q7887555","nsi_id":"ubb-126296"},"coordinates":[42.677941,26.3165957]},"dist":246.777,"tags_mismatch":true},{"osm":{"type":"node","id":5805527398,"tags":{"amenity":"bank","brand":"ОББ","brand:wikidata":"Q7887555","full_name:bg":"Обединена българска банка","full_name:en":"United Bulgarian Bank"},"wikidata":"Q7887555","coordinates":[43.737073,23.9589933]},"atp":{"id":"1KaP9mcHLN7d5EXq2S93AaW_3uA=","tags":{"ref":"110","amenity":"bank","@source_uri":"https://www.ubb.bg/offices/pins","@spider":"ubb_bg","full_name:bg":"Обединена българска банка","full_name:en":"United Bulgarian Bank","addr:full":"ул. „Васил Левски“ 1","addr:country":"BG","phone":"+359 91 714 770;+359 91 714 771;+359 91 714 773","opening_hours":"Mo-Fr 08:30-17:00","brand":"ОББ","brand:wikidata":"Q7887555","nsi_id":"ubb-126296"},"coordinates":[43.73664644034774,23.9583857221985]},"dist":68.062,"tags_mismatch":true},{"osm":{"type":"node","id":6205364635,"tags":{"amenity":"bank","brand":"ОББ","brand:wikidata":"Q7887555","full_name:bg":"Обединена българска банка","full_name:en":"United Bulgarian Bank"},"wikidata":"Q7887555","coordinates":[42.1416941,24.7535263]},"atp":{"id":"-uaweN3SEWcJzQinvnxSzzmqQdY=","tags":{"ref":"153","amenity":"bank","@source_uri":"https://www.ubb.bg/offices/pins","@spider":"ubb_bg","full_name:bg":"Обединена българска банка","full_name:en":"United Bulgarian Bank","addr:full":"ул. „Парчевич“ 2","addr:country":"BG","phone":"+359 32 606 782","opening_hours":"Mo-Fr 08:30-17:00","brand":"ОББ","brand:wikidata":"Q7887555","nsi_id":"ubb-126296"},"coordinates":[42.14265971544665,24.751768112182617]},"dist":180.395,"tags_mismatch":true},{"osm":{"type":"node","id":6235672117,"tags":{"amenity":"bank","brand":"ОББ","brand:wikidata":"Q7887555","full_name:bg":"Обединена българска банка","full_name:en":"United Bulgarian Bank"},"wikidata":"Q7887555","coordinates":[42.6468601,26.9841646]},"atp":{"id":"fMP2n-yFrMBfr1fKbmuov34EzkM=","tags":{"ref":"560","amenity":"bank","@source_uri":"https://www.ubb.bg/offices/pins","@spider":"ubb_bg","full_name:bg":"Обединена българска банка","full_name:en":"United Bulgarian Bank","addr:full":"ул. Карнобатска комуна № 1","addr:country":"BG","phone":"+359 55 929 065","opening_hours":"Mo-Fr 08:30-13:00,13:30-17:00","brand":"ОББ","brand:wikidata":"Q7887555","nsi_id":"ubb-126296"},"coordinates":[42.64708,26.98456]},"dist":40.543,"tags_mismatch":true},{"osm":{"type":"node","id":6296611469,"tags":{"amenity":"bank","atm":"yes","brand":"ОББ","brand:wikidata":"Q7887555","full_name:bg":"Обединена българска банка","full_name:en":"United Bulgarian Bank","opening_hours":"Mo-Fr 08:30-17:00","wheelchair":"yes"},"wikidata":"Q7887555","coordinates":[42.8100057,23.201839]},"atp":{"id":"P7MCOkDKdrmf6Dfhps45sUA3rgE=","tags":{"ref":"581","amenity":"bank","@source_uri":"https://www.ubb.bg/offices/pins","@spider":"ubb_bg","full_name:bg":"Обединена българска банка","full_name:en":"United Bulgarian Bank","addr:full":"ул. „Охрид“ 9","addr:country":"BG","phone":"+359 72 168 920;+359 72 168 921;+359 72 168 923","opening_hours":"Mo-Fr 08:30-17:00","brand":"ОББ","brand:wikidata":"Q7887555","nsi_id":"ubb-126296"},"coordinates":[42.809664255279614,23.201172351837158]},"dist":66.323,"tags_mismatch":true},{"osm":{"type":"node","id":6336432015,"tags":{"amenity":"bank","atm":"yes","brand":"ОББ","brand:wikidata":"Q7887555","drive_through":"no","full_name:bg":"Обединена българска банка","full_name:en":"United Bulgarian Bank","opening_hours":"Mo-Fr 08:30-17:00"},"wikidata":"Q7887555","coordinates":[42.7121071,23.3144441]},"atp":{"id":"rjIz7xBmO9B3yi7xOvcCYuQZOrY=","tags":{"ref":"390","amenity":"bank","@source_uri":"https://www.ubb.bg/offices/pins","@spider":"ubb_bg","full_name:bg":"Обединена българска банка","full_name:en":"United Bulgarian Bank","addr:full":"ул. „Опълченска“ 117-123, до бл. 37","addr:country":"BG","phone":"+359 2 810 2870;+359 2 810 2872","opening_hours":"Mo-Fr 08:30-17:00","brand":"ОББ","brand:wikidata":"Q7887555","nsi_id":"ubb-126296"},"coordinates":[42.71197310656505,23.314352687448263]},"dist":16.667,"tags_mismatch":true},{"osm":{"type":"node","id":6440474362,"tags":{"amenity":"bank","brand":"ОББ","brand:wikidata":"Q7887555","full_name:bg":"Обединена българска банка","full_name:en":"United Bulgarian Bank"},"wikidata":"Q7887555","coordinates":[43.4087239,23.2253203]},"atp":false,"tags_mismatch":false},{"osm":{"type":"node","id":6442273996,"tags":{"amenity":"bank","brand":"ОББ","brand:wikidata":"Q7887555","full_name:bg":"Обединена българска банка","full_name:en":"United Bulgarian Bank"},"wikidata":"Q7887555","coordinates":[43.6259721,22.684811]},"atp":false,"tags_mismatch":false},{"osm":{"type":"node","id":6473932023,"tags":{"addr:city":"София","addr:country":"BG","addr:housenumber":"9","addr:street":"проф. Фритьоф Нансен","amenity":"bank","atm":"yes","brand":"ОББ","brand:wikidata":"Q7887555","check_date":"2025-06-28","full_name:bg":"Обединена българска банка","full_name:en":"United Bulgarian Bank","opening_hours":"Mo-Fr 08:30-17:00","wheelchair":"limited"},"wikidata":"Q7887555","coordinates":[42.6876386,23.3217806]},"atp":{"id":"0uaFTy9q3YReXSzbuHe1Kzs8muQ=","tags":{"ref":"202","amenity":"bank","@source_uri":"https://www.ubb.bg/offices/pins","@spider":"ubb_bg","full_name:bg":"Обединена българска банка","full_name:en":"United Bulgarian Bank","addr:full":"ул. „Фритьоф Нансен“ 9","addr:country":"BG","phone":"+359 2 811 3638;+359 2 811 3635","opening_hours":"Mo-Fr 08:30-17:00","brand":"ОББ","brand:wikidata":"Q7887555","nsi_id":"ubb-126296"},"coordinates":[42.68758540135883,23.3217332046479]},"dist":7.071,"tags_mismatch":true},{"osm":{"type":"node","id":6511079711,"tags":{"addr:city":"София","addr:housenumber":"89Б","addr:postcode":"1000","addr:street":"бул. Витоша","amenity":"bank","brand":"ОББ","brand:wikidata":"Q7887555","check_date":"2023-09-09","full_name:bg":"Обединена българска банка","full_name:en":"United Bulgarian Bank","opening_hours":"Mo-Fr 08:00-18:00; Sa 10:00-16:00"},"wikidata":"Q7887555","coordinates":[42.6826052,23.3148027]},"atp":{"id":"YPTGAqpJN27lcFodR-rXj54En1w=","tags":{"ref":"915","amenity":"bank","@source_uri":"https://www.ubb.bg/offices/pins","@spider":"ubb_bg","full_name:bg":"Обединена българска банка","full_name:en":"United Bulgarian Bank","addr:full":"бул. „Витоша“ 89Б","addr:country":"BG","phone":"+359 2 902 9711;+359 2 902 9724","opening_hours":"Mo-Fr 08:30-17:00","brand":"ОББ","brand:wikidata":"Q7887555","nsi_id":"ubb-126296"},"coordinates":[42.6821022,23.31552339999996]},"dist":81.233,"tags_mismatch":true},{"osm":{"type":"node","id":6516404560,"tags":{"amenity":"bank","brand":"ОББ","brand:wikidata":"Q7887555","full_name:bg":"Обединена българска банка","full_name:en":"United Bulgarian Bank"},"wikidata":"Q7887555","coordinates":[42.1414595,24.7430457]},"atp":false,"tags_mismatch":false},{"osm":{"type":"node","id":6530479821,"tags":{"addr:city":"София","addr:housenumber":"1-3","addr:postcode":"1504","addr:street":"Оборище","amenity":"bank","atm":"yes","brand":"ОББ","brand:wikidata":"Q7887555","full_name:bg":"Обединена българска банка","full_name:en":"United Bulgarian Bank","opening_hours":"Mo-Fr 08:30-17:00"},"wikidata":"Q7887555","coordinates":[42.6957187,23.3352748]},"atp":{"id":"8NxOfR1bNzUfKR8FAoK6p_D-o5U=","tags":{"ref":"6178","amenity":"bank","@source_uri":"https://www.ubb.bg/offices/pins","@spider":"ubb_bg","full_name:bg":"Обединена българска банка","full_name:en":"United Bulgarian Bank","addr:full":"ул. Оборище 1-3","addr:country":"BG","phone":"+359 88 801 6011;+359 87 893 6613","opening_hours":"Mo-Fr 08:30-17:00","brand":"ОББ","brand:wikidata":"Q7887555","nsi_id":"ubb-126296"},"coordinates":[42.69579454877766,23.335273974205037]},"dist":8.434,"tags_mismatch":true},{"osm":{"type":"node","id":6585089289,"tags":{"amenity":"bank","brand":"ОББ","brand:wikidata":"Q7887555","full_name:bg":"Обединена българска банка","full_name:en":"United Bulgarian Bank","opening_hours":"Mo-Fr 08:30-17:00"},"wikidata":"Q7887555","coordinates":[42.6588851,23.3170329]},"atp":{"id":"_USB-iGVkAM5vdQ4uyofNMISCXs=","tags":{"ref":"437","amenity":"bank","@source_uri":"https://www.ubb.bg/offices/pins","@spider":"ubb_bg","full_name:bg":"Обединена българска банка","full_name:en":"United Bulgarian Bank","addr:full":"бул. „Черни връх“ 51Б","addr:country":"BG","phone":"+359 2 816 7711","opening_hours":"Mo-Fr 08:30-17:00","brand":"ОББ","brand:wikidata":"Q7887555","nsi_id":"ubb-126296"},"coordinates":[42.6588883,23.3173362]},"dist":24.804,"tags_mismatch":true},{"osm":{"type":"node","id":6593179140,"tags":{"amenity":"bank","brand":"ОББ","brand:wikidata":"Q7887555","full_name:bg":"Обединена българска банка","full_name:en":"United Bulgarian Bank"},"wikidata":"Q7887555","coordinates":[42.7000689,24.179155]},"atp":{"id":"xF0QSInsK03NMBdkm81p0MDeRdU=","tags":{"ref":"133","amenity":"bank","@source_uri":"https://www.ubb.bg/offices/pins","@spider":"ubb_bg","full_name:bg":"Обединена българска банка","full_name:en":"United Bulgarian Bank","addr:full":"пл. „Тодор Влайков“ бл. Б1","addr:country":"BG","phone":"+359 72 868 002","opening_hours":"Mo-Fr 08:30-17:00","brand":"ОББ","brand:wikidata":"Q7887555","nsi_id":"ubb-126296"},"coordinates":[42.70029702863211,24.179857727508534]},"dist":62.779,"tags_mismatch":true},{"osm":{"type":"node","id":6690645646,"tags":{"amenity":"bank","atm":"yes","brand":"ОББ","brand:wikidata":"Q7887555","full_name:bg":"Обединена българска банка","full_name:en":"United Bulgarian Bank","wheelchair":"yes"},"wikidata":"Q7887555","coordinates":[43.5720787,27.8272472]},"atp":{"id":"FRlCJldtGwvp3OUwO6me0i3nSao=","tags":{"ref":"4380","amenity":"bank","@source_uri":"https://www.ubb.bg/offices/pins","@spider":"ubb_bg","full_name:bg":"Обединена българска банка","full_name:en":"United Bulgarian Bank","addr:full":"бул. 25-ти Септември 25","addr:country":"BG","phone":"+359 58 653 000;+359 58 653 002","opening_hours":"Mo-Fr 08:30-17:00","brand":"ОББ","brand:wikidata":"Q7887555","nsi_id":"ubb-126296"},"coordinates":[43.57199984128819,27.82732447368013]},"dist":10.754,"tags_mismatch":true},{"osm":{"type":"node","id":6790699641,"tags":{"amenity":"bank","atm":"separate","brand":"ОББ","brand:wikidata":"Q7887555","check_date":"2025-05-30","full_name:bg":"Обединена българска банка","full_name:en":"United Bulgarian Bank","wheelchair":"yes"},"wikidata":"Q7887555","coordinates":[42.6989119,23.3084843]},"atp":{"id":"WFQpAwPNyyb_qGciyEi9GxlBcNg=","tags":{"ref":"943","amenity":"bank","@source_uri":"https://www.ubb.bg/offices/pins","@spider":"ubb_bg","full_name:bg":"Обединена българска банка","full_name:en":"United Bulgarian Bank","addr:full":"бул. „А.Стамболийски“ 84-86","addr:country":"BG","phone":"+359 2 902 9930","opening_hours":"Mo-Fr 08:30-17:00","brand":"ОББ","brand:wikidata":"Q7887555","nsi_id":"ubb-126296"},"coordinates":[42.69899139999999,23.308709099999987]},"dist":20.387,"tags_mismatch":true},{"osm":{"type":"node","id":6799053716,"tags":{"amenity":"bank","atm":"yes","brand":"ОББ","brand:wikidata":"Q7887555","full_name:bg":"Обединена българска банка","full_name:en":"United Bulgarian Bank"},"wikidata":"Q7887555","coordinates":[43.5679232,27.8273901]},"atp":false,"tags_mismatch":false},{"osm":{"type":"node","id":6804071143,"tags":{"addr:full":"гр. София, ж.к. Овча купел, бул. Монтевидео, до бл. 421","addr:street":"Монтевидео","amenity":"bank","atm":"yes","brand":"ОББ","brand:wikidata":"Q7887555","full_name:bg":"Обединена българска банка","full_name:en":"United Bulgarian Bank","opening_hours":"Mo-Fr 08:30-17:00","phone":"+359 2 805 3250"},"wikidata":"Q7887555","coordinates":[42.6898034,23.2544062]},"atp":{"id":"YJ0Y7W8c_k7qW2DXxyNyClsOQ3M=","tags":{"ref":"650","amenity":"bank","@source_uri":"https://www.ubb.bg/offices/pins","@spider":"ubb_bg","full_name:bg":"Обединена българска банка","full_name:en":"United Bulgarian Bank","addr:full":"бул. „Монтевидео“, до бл. 421","addr:country":"BG","phone":"+359 2 805 3250;+359 2 811 3081","opening_hours":"Mo-Fr 08:30-17:00","brand":"ОББ","brand:wikidata":"Q7887555","nsi_id":"ubb-126296"},"coordinates":[42.68983691477058,23.254335578531027]},"dist":6.871,"tags_mismatch":true},{"osm":{"type":"node","id":6813516691,"tags":{"addr:city":"София","addr:housenumber":"7","addr:postcode":"1528","addr:street":"бул. Искърско шосе","amenity":"bank","atm":"yes","branch":"Дружба 1 - ТЦ Европа","brand":"ОББ","brand:wikidata":"Q7887555","full_name:bg":"Обединена българска банка","full_name:en":"United Bulgarian Bank","opening_hours":"Mo-Fr 08:30-17:00","phone":"+359 2 904 0881","ref":"50"},"wikidata":"Q7887555","coordinates":[42.6717989,23.3958364]},"atp":{"id":"L-1l6UPyHqdrARMzfqwXdGJ08N0=","tags":{"ref":"4398","amenity":"bank","@source_uri":"https://www.ubb.bg/offices/pins","@spider":"ubb_bg","full_name:bg":"Обединена българска банка","full_name:en":"United Bulgarian Bank","addr:full":"бул. Искърско шосе 7","addr:country":"BG","phone":"+359 2 904 0881;+359 2 904 0882","opening_hours":"Mo-Fr 08:30-17:00","brand":"ОББ","brand:wikidata":"Q7887555","nsi_id":"ubb-126296"},"coordinates":[42.67227940000001,23.3963612]},"dist":68.524,"tags_mismatch":true},{"osm":{"type":"node","id":7045894955,"tags":{"addr:city":"София","addr:housenumber":"130-132","addr:postcode":"1309","addr:street":"бул. Александър Стамболийски","amenity":"bank","atm":"yes","branch":"клон Стамболийски","brand":"ОББ","brand:wikidata":"Q7887555","full_name:bg":"Обединена българска банка","full_name:en":"United Bulgarian Bank","opening_hours":"Mo-Fr 08:30-17:00","phone":"+359 2 811 3730"},"wikidata":"Q7887555","coordinates":[42.6998504,23.3023996]},"atp":{"id":"u1aFc4L5yxucOK1XGJ5ctUJUxGc=","tags":{"ref":"90","amenity":"bank","@source_uri":"https://www.ubb.bg/offices/pins","@spider":"ubb_bg","full_name:bg":"Обединена българска банка","full_name:en":"United Bulgarian Bank","addr:full":"бул. „Александър Стамболийски“ 130-132","addr:country":"BG","phone":"+359 2 811 3730;+359 2 815 5631","opening_hours":"Mo-Fr 08:30-13:00,13:30-17:00","brand":"ОББ","brand:wikidata":"Q7887555","nsi_id":"ubb-126296"},"coordinates":[42.69976862410133,23.301916122436523]},"dist":40.542,"tags_mismatch":true},{"osm":{"type":"node","id":7622818838,"tags":{"amenity":"bank","atm":"yes","brand":"ОББ","brand:wikidata":"Q7887555","full_name:bg":"Обединена българска банка","full_name:en":"United Bulgarian Bank"},"wikidata":"Q7887555","coordinates":[42.4260403,25.6289604]},"atp":{"id":"XSo7qM-qTYGroVUK04eMGLa39tc=","tags":{"ref":"336","amenity":"bank","@source_uri":"https://www.ubb.bg/offices/pins","@spider":"ubb_bg","full_name:bg":"Обединена българска банка","full_name:en":"United Bulgarian Bank","addr:full":"бул. „Руски“ 50","addr:country":"BG","phone":"+359 42 698 654;+359 42 698 655","opening_hours":"Mo-Fr 08:30-17:00","brand":"ОББ","brand:wikidata":"Q7887555","nsi_id":"ubb-126296"},"coordinates":[42.42664019825744,25.62760591506958]},"dist":129.65,"tags_mismatch":true},{"osm":{"type":"node","id":7728090764,"tags":{"amenity":"bank","atm":"yes","brand":"ОББ","brand:wikidata":"Q7887555","full_name:bg":"Обединена българска банка","full_name:en":"United Bulgarian Bank","opening_hours":"Mo-Fr 08:30-17:00"},"wikidata":"Q7887555","coordinates":[42.421681,25.6274239]},"atp":{"id":"KDlUh0quW54mioSmx4motphiFRU=","tags":{"ref":"658","amenity":"bank","@source_uri":"https://www.ubb.bg/offices/pins","@spider":"ubb_bg","full_name:bg":"Обединена българска банка","full_name:en":"United Bulgarian Bank","addr:full":"бул. „Митрополит Методи Кусев“ 6","addr:country":"BG","phone":"+359 42 693 100;+359 42 693 102","opening_hours":"Mo-Fr 08:30-17:00","brand":"ОББ","brand:wikidata":"Q7887555","nsi_id":"ubb-126296"},"coordinates":[42.42178937705782,25.627242056652904]},"dist":19.184,"tags_mismatch":true},{"osm":{"type":"node","id":7728116409,"tags":{"amenity":"bank","brand":"ОББ","brand:wikidata":"Q7887555","full_name:bg":"Обединена българска банка","full_name:en":"United Bulgarian Bank"},"wikidata":"Q7887555","coordinates":[42.4228827,25.6195671]},"atp":{"id":"Zn0gZoNSoJJjydkdQ-u86XIWMgA=","tags":{"ref":"4426","amenity":"bank","@source_uri":"https://www.ubb.bg/offices/pins","@spider":"ubb_bg","full_name:bg":"Обединена българска банка","full_name:en":"United Bulgarian Bank","addr:full":"бул. Митрополит Методи Кусев 2","addr:country":"BG","phone":"+359 42 693 511;+359 42 693 512","opening_hours":"Mo-Fr 08:30-17:00","brand":"ОББ","brand:wikidata":"Q7887555","nsi_id":"ubb-126296"},"coordinates":[42.4209368,25.6277202]},"dist":703.347,"tags_mismatch":true},{"osm":{"type":"node","id":7804149435,"tags":{"amenity":"bank","atm":"yes","brand":"ОББ","brand:wikidata":"Q7887555","full_name:bg":"Обединена българска банка","full_name:en":"United Bulgarian Bank"},"wikidata":"Q7887555","coordinates":[41.5712431,23.7263918]},"atp":{"id":"DSYpsD1LFeWR9SVkegGtHjPw0C4=","tags":{"ref":"6048","amenity":"bank","@source_uri":"https://www.ubb.bg/offices/pins","@spider":"ubb_bg","full_name:bg":"Обединена българска банка","full_name:en":"United Bulgarian Bank","addr:full":"ул. Полковник Борис Дрангов №4","addr:country":"BG","phone":"+359 75 169 400;+359 75 169 405;+359 75 169 404","opening_hours":"Mo-Fr 08:30-17:00","brand":"ОББ","brand:wikidata":"Q7887555","nsi_id":"ubb-126296"},"coordinates":[41.5721927,23.7243523]},"dist":199.836,"tags_mismatch":true},{"osm":{"type":"node","id":7887748385,"tags":{"addr:city":"Шумен","addr:postcode":"9700","addr:street":"Цар Освободител","air_conditioning":"yes","amenity":"bank","atm":"yes","brand":"ОББ","brand:wikidata":"Q7887555","drive_through":"no","full_name:bg":"Обединена българска банка","full_name:en":"United Bulgarian Bank","level":"0"},"wikidata":"Q7887555","coordinates":[43.2723254,26.9280103]},"atp":{"id":"iDrKmCe1hKBMdXY8A3YVgUJWClc=","tags":{"ref":"4381","amenity":"bank","@source_uri":"https://www.ubb.bg/offices/pins","@spider":"ubb_bg","full_name:bg":"Обединена българска банка","full_name:en":"United Bulgarian Bank","addr:full":"ул. Цар Освободител 97","addr:country":"BG","phone":"+359 54 850 951;+359 54 850 952","opening_hours":"Mo-Fr 08:30-17:00","brand":"ОББ","brand:wikidata":"Q7887555","nsi_id":"ubb-126296"},"coordinates":[43.27249333953967,26.92669792128754]},"dist":107.88,"tags_mismatch":true},{"osm":{"type":"node","id":8143966244,"tags":{"addr:city":"София","addr:housenumber":"76","addr:postcode":"1404","addr:street":"Тодор Каблешков","amenity":"bank","atm":"yes","brand":"ОББ","brand:wikidata":"Q7887555","check_date":"2024-10-03","full_name:bg":"Обединена българска банка","full_name:en":"United Bulgarian Bank","opening_hours":"Mo-Fr 08:30-17:00","payment:cash":"yes","payment:credit_cards":"yes","payment:debit_cards":"yes","phone":"+359 2 808 2641; +359 2 808 2646","wheelchair":"yes"},"wikidata":"Q7887555","coordinates":[42.6624381,23.2927652]},"atp":{"id":"eblVG0MLUsq78xPXNN8a0cHQbnY=","tags":{"ref":"84","amenity":"bank","@source_uri":"https://www.ubb.bg/offices/pins","@spider":"ubb_bg","full_name:bg":"Обединена българска банка","full_name:en":"United Bulgarian Bank","addr:full":"ул. „Тодор Каблешков“ 76","addr:country":"BG","phone":"+359 2 808 2641;+359 2 808 2646","opening_hours":"Mo-Fr 08:30-17:00","brand":"ОББ","brand:wikidata":"Q7887555","nsi_id":"ubb-126296"},"coordinates":[42.66279469999999,23.292154799999935]},"dist":63.745,"tags_mismatch":true},{"osm":{"type":"node","id":8173094962,"tags":{"addr:city":"София","addr:housenumber":"15","addr:postcode":"1324","addr:street":"бул. Царица Йоанна","amenity":"bank","atm":"yes","brand":"ОББ","brand:wikidata":"Q7887555","drive_through":"no","full_name:bg":"Обединена българска банка","full_name:en":"United Bulgarian Bank","level":"-1","opening_hours":"Mo-Su 09:00-20:30","phone":"+359 2 923 1981"},"wikidata":"Q7887555","coordinates":[42.7105085,23.2709676]},"atp":{"id":"WsOoYBnyKY3F3MM426AFeZSgOu8=","tags":{"ref":"4411","amenity":"bank","@source_uri":"https://www.ubb.bg/offices/pins","@spider":"ubb_bg","full_name:bg":"Обединена българска банка","full_name:en":"United Bulgarian Bank","addr:full":"бул. Царица Йоанна 15","addr:country":"BG","phone":"+359 2 923 1981;+359 2 923 1953","brand":"ОББ","brand:wikidata":"Q7887555","nsi_id":"ubb-126296"},"coordinates":[42.710446880527684,23.271485348271188]},"dist":42.854,"tags_mismatch":true},{"osm":{"type":"node","id":8247689187,"tags":{"addr:city":"София","addr:housenumber":"18","addr:postcode":"1113","addr:street":"Фредерик Жолио Кюри","amenity":"bank","atm":"yes","brand":"ОББ","brand:wikidata":"Q7887555","full_name:bg":"Обединена българска банка","full_name:en":"United Bulgarian Bank","official_name:en":"United Bulgarian Bank*","opening_hours":"Mo-Fr 08:30-17:00"},"wikidata":"Q7887555","coordinates":[42.6719424,23.351692]},"atp":{"id":"FvtE0Jj0j1ENk13u5GJbaTZ8uNQ=","tags":{"ref":"411","amenity":"bank","@source_uri":"https://www.ubb.bg/offices/pins","@spider":"ubb_bg","full_name:bg":"Обединена българска банка","full_name:en":"United Bulgarian Bank","addr:full":"ул. \"Ф. Ж. Кюри\" № 18 А","addr:country":"BG","phone":"+359 2 811 2881","opening_hours":"Mo-Fr 08:30-13:00,13:30-17:00","brand":"ОББ","brand:wikidata":"Q7887555","nsi_id":"ubb-126296"},"coordinates":[42.672092912295824,23.351953010450732]},"dist":27.119,"tags_mismatch":true},{"osm":{"type":"node","id":8399156632,"tags":{"amenity":"bank","brand":"ОББ","brand:wikidata":"Q7887555","full_name:bg":"Обединена българска банка","full_name:en":"United Bulgarian Bank"},"wikidata":"Q7887555","coordinates":[42.1588325,24.7459263]},"atp":{"id":"OFNMzD-1-tgGlytM2JWYkkAWTBA=","tags":{"ref":"653","amenity":"bank","@source_uri":"https://www.ubb.bg/offices/pins","@spider":"ubb_bg","full_name:bg":"Обединена българска банка","full_name:en":"United Bulgarian Bank","addr:full":"бул. „България“ 19","addr:country":"BG","phone":"+359 32 921 326","opening_hours":"Mo-Fr 08:30-17:00","brand":"ОББ","brand:wikidata":"Q7887555","nsi_id":"ubb-126296"},"coordinates":[42.15884643600783,24.746355414390564]},"dist":35.405,"tags_mismatch":true},{"osm":{"type":"node","id":8691522064,"tags":{"addr:city":"Казанлък","addr:housenumber":"3","addr:postcode":"6100","addr:street":"Отец Паисий Хилендарски","amenity":"bank","atm":"yes","brand":"ОББ","brand:wikidata":"Q7887555","full_name:bg":"Обединена българска банка","full_name:en":"United Bulgarian Bank","opening_hours":"8:30-17:00"},"wikidata":"Q7887555","coordinates":[42.620024,25.3953307]},"atp":false,"tags_mismatch":false},{"osm":{"type":"node","id":8733382581,"tags":{"amenity":"bank","brand":"ОББ","brand:wikidata":"Q7887555","full_name:bg":"Обединена българска банка","full_name:en":"United Bulgarian Bank"},"wikidata":"Q7887555","coordinates":[43.8255814,27.1412468]},"atp":{"id":"9wt5WQ8KkI0Lg_UcwVRGips_XyE=","tags":{"ref":"282","amenity":"bank","@source_uri":"https://www.ubb.bg/offices/pins","@spider":"ubb_bg","full_name:bg":"Обединена българска банка","full_name:en":"United Bulgarian Bank","addr:full":"ул. „Васил Левски“ 11","addr:country":"BG","phone":"+359 86 421 001","opening_hours":"Mo-Fr 08:30-13:00,13:30-17:00","brand":"ОББ","brand:wikidata":"Q7887555","nsi_id":"ubb-126296"},"coordinates":[43.82601241562128,27.141070457672125]},"dist":49.971,"tags_mismatch":true},{"osm":{"type":"node","id":8996011918,"tags":{"amenity":"bank","brand":"ОББ","brand:wikidata":"Q7887555","full_name:bg":"Обединена българска банка","full_name:en":"United Bulgarian Bank"},"wikidata":"Q7887555","coordinates":[43.6259379,22.6849642]},"atp":false,"tags_mismatch":false},{"osm":{"type":"node","id":9162421034,"tags":{"amenity":"bank","atm":"yes","brand":"ОББ","brand:wikidata":"Q7887555","full_name:bg":"Обединена българска банка","full_name:en":"United Bulgarian Bank","opening_hours":"08:30-16:00"},"wikidata":"Q7887555","coordinates":[43.4697051,23.9415128]},"atp":{"id":"suLQonA-5qn2wOQ816mQ2Oxm0SE=","tags":{"ref":"101","amenity":"bank","@source_uri":"https://www.ubb.bg/offices/pins","@spider":"ubb_bg","full_name:bg":"Обединена българска банка","full_name:en":"United Bulgarian Bank","addr:full":"ул. „Климент Охридски“ 58","addr:country":"BG","phone":"+359 91 588 617","opening_hours":"Mo-Fr 08:30-17:00","brand":"ОББ","brand:wikidata":"Q7887555","nsi_id":"ubb-126296"},"coordinates":[43.46976304815527,23.941805362701416]},"dist":24.473,"tags_mismatch":true},{"osm":{"type":"node","id":9204573607,"tags":{"amenity":"bank","brand":"ОББ","brand:wikidata":"Q7887555","full_name:bg":"Обединена българска банка","full_name:en":"United Bulgarian Bank"},"wikidata":"Q7887555","coordinates":[42.1402204,24.7229572]},"atp":false,"tags_mismatch":false},{"osm":{"type":"node","id":9655914913,"tags":{"amenity":"bank","brand":"ОББ","brand:wikidata":"Q7887555","full_name:bg":"Обединена българска банка","full_name:en":"United Bulgarian Bank"},"wikidata":"Q7887555","coordinates":[41.3982852,23.2057597]},"atp":{"id":"5dCdiRrge_RStvT2A9JgveZqhDA=","tags":{"ref":"309","amenity":"bank","@source_uri":"https://www.ubb.bg/offices/pins","@spider":"ubb_bg","full_name:bg":"Обединена българска банка","full_name:en":"United Bulgarian Bank","addr:full":"ул. „Полковник Дрангов“ 4","addr:country":"BG","phone":"+359 74 569 363","opening_hours":"Mo-Fr 08:30-17:00","brand":"ОББ","brand:wikidata":"Q7887555","nsi_id":"ubb-126296"},"coordinates":[41.39660421142422,23.20664942264557]},"dist":201.111,"tags_mismatch":true},{"osm":{"type":"node","id":9842690417,"tags":{"addr:housenumber":"2","addr:street":"Солун","amenity":"bank","brand":"ОББ","brand:wikidata":"Q7887555","full_name:bg":"Обединена българска банка","full_name:en":"United Bulgarian Bank","opening_hours":"Mo-Fr 08:30-17:00"},"wikidata":"Q7887555","coordinates":[42.265767,23.1191069]},"atp":{"id":"AiEEiRS3SpowBwj9VuFJuWC3a_0=","tags":{"ref":"260","amenity":"bank","@source_uri":"https://www.ubb.bg/offices/pins","@spider":"ubb_bg","full_name:bg":"Обединена българска банка","full_name:en":"United Bulgarian Bank","addr:full":"ул. „Николаевска“ 2","addr:country":"BG","phone":"+359 701 593 00;+359 701 593 01","opening_hours":"Mo-Fr 08:30-17:00","brand":"ОББ","brand:wikidata":"Q7887555","nsi_id":"ubb-126296"},"coordinates":[42.2648894,23.1183518]},"dist":115.688,"tags_mismatch":true},{"osm":{"type":"node","id":10171629264,"tags":{"amenity":"bank","brand":"ОББ","brand:wikidata":"Q7887555","full_name:bg":"Обединена българска банка","full_name:en":"United Bulgarian Bank"},"wikidata":"Q7887555","coordinates":[42.6783946,23.3833967]},"atp":false,"tags_mismatch":false},{"osm":{"type":"node","id":10177356400,"tags":{"addr:city":"Дряново","addr:housenumber":"105","addr:postcode":"5370","addr:street":"Шипка","amenity":"bank","atm":"yes","brand":"ОББ","brand:wikidata":"Q7887555","full_name:bg":"Обединена българска банка","full_name:en":"United Bulgarian Bank"},"wikidata":"Q7887555","coordinates":[42.9761882,25.4752906]},"atp":false,"tags_mismatch":false},{"osm":{"type":"node","id":10948451445,"tags":{"amenity":"bank","brand":"ОББ","brand:wikidata":"Q7887555","full_name:bg":"Обединена българска банка","full_name:en":"United Bulgarian Bank"},"wikidata":"Q7887555","coordinates":[43.3139281,27.1588667]},"atp":{"id":"pe3lRwq7Td_CmsAbG4baVKbLoMw=","tags":{"ref":"366","amenity":"bank","@source_uri":"https://www.ubb.bg/offices/pins","@spider":"ubb_bg","full_name:bg":"Обединена българска банка","full_name:en":"United Bulgarian Bank","addr:full":"ул. „Мадарски конник“ 40","addr:country":"BG","phone":"+359 53 274 910","opening_hours":"Mo-Fr 08:30-13:00,13:30-17:00","brand":"ОББ","brand:wikidata":"Q7887555","nsi_id":"ubb-126296"},"coordinates":[43.314091,27.159028]},"dist":22.325,"tags_mismatch":true},{"osm":{"type":"node","id":11096576576,"tags":{"amenity":"bank","atm":"separate","brand":"ОББ","brand:wikidata":"Q7887555","full_name:bg":"Обединена българска банка","full_name:en":"United Bulgarian Bank"},"wikidata":"Q7887555","coordinates":[41.8369341,23.4874011]},"atp":false,"tags_mismatch":false},{"osm":{"type":"node","id":11119849620,"tags":{"addr:housenumber":"2","addr:street":"Митрополит Методи Кусев","amenity":"bank","atm":"yes","brand":"ОББ","brand:wikidata":"Q7887555","drive_through":"no","full_name:bg":"Обединена българска банка","full_name:en":"United Bulgarian Bank","opening_hours":"Mo-Fr 08:30-17:00","phone":"042 693 511, 042 693 512"},"wikidata":"Q7887555","coordinates":[42.4207715,25.6277424]},"atp":false,"tags_mismatch":false},{"osm":{"type":"node","id":11539920389,"tags":{"addr:city":"Рила","addr:housenumber":"1","addr:postcode":"2630","addr:street":"Възраждане","amenity":"bank","brand":"ОББ","brand:wikidata":"Q7887555","full_name:bg":"Обединена българска банка","full_name:en":"United Bulgarian Bank","opening_hours":"Mo-Fr 08:30-17:00","phone":"+359 705 48 860;+359 705 48 861"},"wikidata":"Q7887555","coordinates":[42.1263792,23.1327104]},"atp":{"id":"el1vz7nC24UCjAlQzTMNwXvBMKM=","tags":{"ref":"1155","amenity":"bank","@source_uri":"https://www.ubb.bg/offices/pins","@spider":"ubb_bg","full_name:bg":"Обединена българска банка","full_name:en":"United Bulgarian Bank","addr:full":"пл. „Възраждане“ 1","addr:country":"BG","phone":"+359 705 488 60;+359 705 488 61","opening_hours":"Mo-Fr 08:30-13:00,13:30-17:00","brand":"ОББ","brand:wikidata":"Q7887555","nsi_id":"ubb-126296"},"coordinates":[42.12629699999999,23.132854500000008]},"dist":14.992,"tags_mismatch":true},{"osm":{"type":"node","id":12182744459,"tags":{"amenity":"bank","brand":"ОББ","brand:wikidata":"Q7887555","full_name:bg":"Обединена българска банка","full_name:en":"United Bulgarian Bank"},"wikidata":"Q7887555","coordinates":[42.6595759,23.3793245]},"atp":{"id":"tOw1_IWEYulGc5NPGI-da9nYJe8=","tags":{"ref":"310","amenity":"bank","@source_uri":"https://www.ubb.bg/offices/pins","@spider":"ubb_bg","full_name:bg":"Обединена българска банка","full_name:en":"United Bulgarian Bank","addr:full":"бул. „Цариградско шосе“ 54Б, Графикс Бизнес център","addr:country":"BG","phone":"+359 2 811 3966;+359 2 811 3961","opening_hours":"Mo-Fr 08:30-17:00","brand":"ОББ","brand:wikidata":"Q7887555","nsi_id":"ubb-126296"},"coordinates":[42.6596099,23.37919]},"dist":11.63,"tags_mismatch":true},{"osm":{"type":"node","id":12194103978,"tags":{"amenity":"bank","atm":"yes","brand":"ОББ","brand:wikidata":"Q7887555","full_name:bg":"Обединена българска банка","full_name:en":"United Bulgarian Bank"},"wikidata":"Q7887555","coordinates":[41.8848184,23.4663058]},"atp":false,"tags_mismatch":false},{"osm":{"type":"node","id":12281790225,"tags":{"amenity":"bank","brand":"ОББ","brand:wikidata":"Q7887555","full_name:bg":"Обединена българска банка","full_name:en":"United Bulgarian Bank","opening_hours":"Mo-Fr 08:00-13:00,13:30-17:00"},"wikidata":"Q7887555","coordinates":[42.6671087,23.3259927]},"atp":{"id":"KZXCFC7xPpNjs0STp70r3whrOa8=","tags":{"ref":"4386","amenity":"bank","@source_uri":"https://www.ubb.bg/offices/pins","@spider":"ubb_bg","full_name:bg":"Обединена българска банка","full_name:en":"United Bulgarian Bank","addr:full":"бул. Никола Вапцаров 55, сграда ЕКСПО 2000","addr:country":"BG","phone":"+359 2 819 0061;+359 2 819 0062","opening_hours":"Mo-Fr 08:30-13:00,13:30-17:00","brand":"ОББ","brand:wikidata":"Q7887555","nsi_id":"ubb-126296"},"coordinates":[42.6670487,23.3248983]},"dist":89.729,"tags_mismatch":true},{"osm":{"type":"node","id":12608146789,"tags":{"amenity":"bank","brand":"ОББ","brand:wikidata":"Q7887555","full_name:bg":"Обединена българска банка","full_name:en":"United Bulgarian Bank"},"wikidata":"Q7887555","coordinates":[42.8826771,24.7096605]},"atp":false,"tags_mismatch":false},{"osm":{"type":"node","id":12676992938,"tags":{"addr:city":"Габрово","amenity":"bank","atm":"yes","brand":"ОББ","brand:wikidata":"Q7887555","full_name:bg":"Обединена българска банка","full_name:en":"United Bulgarian Bank","level":"0"},"wikidata":"Q7887555","coordinates":[42.874334,25.3187547]},"atp":{"id":"BIhoQMiGo7JGSZesw7eudMV7tc8=","tags":{"ref":"993","amenity":"bank","@source_uri":"https://www.ubb.bg/offices/pins","@spider":"ubb_bg","full_name:bg":"Обединена българска банка","full_name:en":"United Bulgarian Bank","addr:full":"ул. „Шипка“ 1","addr:country":"BG","phone":"+359 66 988 030","opening_hours":"Mo-Fr 08:30-17:00","brand":"ОББ","brand:wikidata":"Q7887555","nsi_id":"ubb-126296"},"coordinates":[42.8743512,25.31895929999996]},"dist":16.782,"tags_mismatch":true},{"osm":{"type":"way","id":93584290,"tags":{"amenity":"bank","atm":"yes","brand":"ОББ","brand:wikidata":"Q7887555","building":"yes","full_name:bg":"Обединена българска банка","full_name:en":"United Bulgarian Bank"},"wikidata":"Q7887555","coordinates":[42.6800453,26.3189334]},"atp":{"id":"A154HJ9JlMNiOBiQNJcS_tuXXnQ=","tags":{"ref":"60","amenity":"bank","@source_uri":"https://www.ubb.bg/offices/pins","@spider":"ubb_bg","full_name:bg":"Обединена българска банка","full_name:en":"United Bulgarian Bank","addr:full":"бул. „Цар Освободител“ 26","addr:country":"BG","phone":"+359 44 616 320","opening_hours":"Mo-Fr 08:30-17:00","brand":"ОББ","brand:wikidata":"Q7887555","nsi_id":"ubb-126296"},"coordinates":[42.68022699680649,26.31890958175063]},"dist":20.297,"tags_mismatch":true},{"osm":{"type":"way","id":103474452,"tags":{"addr:city":"Хасково","addr:housenumber":"2","addr:postcode":"6300","addr:street":"Христо Ботев","amenity":"bank","atm":"yes","brand":"ОББ","brand:wikidata":"Q7887555","building":"yes","full_name:bg":"Обединена българска банка","full_name:en":"United Bulgarian Bank","opening_hours":"Mo-Fr 08:30-17:30; Sa 10:00-14:00; Su off"},"wikidata":"Q7887555","coordinates":[41.9324156,25.5517368]},"atp":{"id":"Yuzk1RwhaUkc2AnAyBg5lGgIEWs=","tags":{"ref":"161","amenity":"bank","@source_uri":"https://www.ubb.bg/offices/pins","@spider":"ubb_bg","full_name:bg":"Обединена българска банка","full_name:en":"United Bulgarian Bank","addr:full":"ул. „Христо Ботев“ 2","addr:country":"BG","phone":"+359 38 609 710","opening_hours":"Mo-Fr 08:30-17:00","brand":"ОББ","brand:wikidata":"Q7887555","nsi_id":"ubb-126296"},"coordinates":[41.93234862935797,25.551895201206207]},"dist":15.071,"tags_mismatch":true},{"osm":{"type":"way","id":140380352,"tags":{"amenity":"bank","brand":"ОББ","brand:wikidata":"Q7887555","building":"yes","full_name:bg":"Обединена българска банка","full_name:en":"United Bulgarian Bank"},"wikidata":"Q7887555","coordinates":[42.4087217,25.6378412]},"atp":false,"tags_mismatch":false},{"osm":{"type":"way","id":230855808,"tags":{"amenity":"bank","atm":"yes","brand":"ОББ","brand:wikidata":"Q7887555","building":"yes","full_name:bg":"Обединена българска банка","full_name:en":"United Bulgarian Bank","opening_hours":"Mo-Fr 08:00-18:00; Sa 10:00-14:00"},"wikidata":"Q7887555","coordinates":[43.8466079,25.9524356]},"atp":{"id":"tzYWGi104UPVMNUszYk1ey07Oac=","tags":{"ref":"730","amenity":"bank","@source_uri":"https://www.ubb.bg/offices/pins","@spider":"ubb_bg","full_name:bg":"Обединена българска банка","full_name:en":"United Bulgarian Bank","addr:full":"ул. „Атанас Буров“ 5","addr:country":"BG","phone":"+359 82 883 108;+359 82 883 133;+359 82 883 155","opening_hours":"Mo-Fr 08:30-17:00","brand":"ОББ","brand:wikidata":"Q7887555","nsi_id":"ubb-126296"},"coordinates":[43.84648260332466,25.952153205871582]},"dist":26.589,"tags_mismatch":true},{"osm":{"type":"way","id":238315547,"tags":{"amenity":"bank","atm":"yes","brand":"ОББ","brand:wikidata":"Q7887555","building":"yes","full_name:bg":"Обединена българска банка","full_name:en":"United Bulgarian Bank"},"wikidata":"Q7887555","coordinates":[43.8469893,25.9571071]},"atp":false,"tags_mismatch":false},{"osm":{"type":"way","id":242752305,"tags":{"amenity":"bank","atm":"yes","brand":"ОББ","brand:wikidata":"Q7887555","building":"yes","full_name:bg":"Обединена българска банка","full_name:en":"United Bulgarian Bank"},"wikidata":"Q7887555","coordinates":[43.8468795,25.9571966]},"atp":false,"tags_mismatch":false},{"osm":{"type":"way","id":259997464,"tags":{"amenity":"bank","brand":"ОББ","brand:wikidata":"Q7887555","building":"yes","full_name:bg":"Обединена българска банка","full_name:en":"United Bulgarian Bank"},"wikidata":"Q7887555","coordinates":[42.9071615,23.7936293]},"atp":false,"tags_mismatch":false},{"osm":{"type":"way","id":329253500,"tags":{"amenity":"bank","atm":"yes","brand":"ОББ","brand:wikidata":"Q7887555","building":"yes","check_date":"2024-10-06","full_name:bg":"Обединена българска банка","full_name:en":"United Bulgarian Bank"},"wikidata":"Q7887555","coordinates":[43.4114597,24.6171581]},"atp":false,"tags_mismatch":false},{"osm":{"type":"way","id":329548508,"tags":{"addr:city":"Плевен","addr:housenumber":"1","addr:street":"Вардар","amenity":"bank","atm":"yes","brand":"ОББ","brand:wikidata":"Q7887555","building":"yes","full_name:bg":"Обединена българска банка","full_name:en":"United Bulgarian Bank","opening_hours":"Mo-Fr 08:30-17:00, PH off"},"wikidata":"Q7887555","coordinates":[43.4066691,24.6194251]},"atp":false,"tags_mismatch":false},{"osm":{"type":"way","id":377130140,"tags":{"addr:city":"Ивайловград","addr:housenumber":"58","addr:postcode":"6570","addr:street":"България","amenity":"bank","atm":"yes","brand":"ОББ","brand:wikidata":"Q7887555","building":"yes","drive_through":"no","full_name:bg":"Обединена българска банка","full_name:en":"United Bulgarian Bank"},"wikidata":"Q7887555","coordinates":[41.5268964,26.1265883]},"atp":{"id":"KNz0OD2cEp1BsqIPlUenoBNmvo4=","tags":{"ref":"222","amenity":"bank","@source_uri":"https://www.ubb.bg/offices/pins","@spider":"ubb_bg","full_name:bg":"Обединена българска банка","full_name:en":"United Bulgarian Bank","addr:full":"ул. „България“ 58","addr:country":"BG","phone":"+359 36 616 702","opening_hours":"Mo-Fr 08:30-13:00,13:30-17:00","brand":"ОББ","brand:wikidata":"Q7887555","nsi_id":"ubb-126296"},"coordinates":[41.52763,26.12513]},"dist":146.257,"tags_mismatch":true},{"osm":{"type":"way","id":420267534,"tags":{"amenity":"bank","atm":"yes","brand":"ОББ","brand:wikidata":"Q7887555","full_name:bg":"Обединена българска банка","full_name:en":"United Bulgarian Bank"},"wikidata":"Q7887555","coordinates":[42.1423806,24.7520011]},"atp":false,"tags_mismatch":false},{"osm":{"type":"way","id":469471407,"tags":{"addr:city":"Габрово","addr:housenumber":"1","addr:postcode":"5300","addr:street":"Райчо Каролев","addr:street:en":"Raycho Karolev","addr:suburb":"Център","addr:suburb:en":"Centre","amenity":"bank","atm":"yes","brand":"ОББ","brand:wikidata":"Q7887555","building":"commercial","building:levels":"5","full_name:bg":"Обединена българска банка","full_name:en":"United Bulgarian Bank","note:cadastre:building_use":"Административна, делова сграда","opening_hours":"Mo-Fr 08:30-17:00"},"wikidata":"Q7887555","coordinates":[42.8682851,25.3179548]},"atp":{"id":"hLCbhM5TINA8sKG98AB1a7EjKRw=","tags":{"ref":"119","amenity":"bank","@source_uri":"https://www.ubb.bg/offices/pins","@spider":"ubb_bg","full_name:bg":"Обединена българска банка","full_name:en":"United Bulgarian Bank","addr:full":"ул. „Р. Каролев“ 1","addr:country":"BG","phone":"+359 66 818 031","opening_hours":"Mo-Fr 08:30-17:00","brand":"ОББ","brand:wikidata":"Q7887555","nsi_id":"ubb-126296"},"coordinates":[42.868486511019135,25.317810773849487]},"dist":25.285,"tags_mismatch":true},{"osm":{"type":"way","id":469937200,"tags":{"amenity":"bank","brand":"ОББ","brand:wikidata":"Q7887555","building":"yes","full_name:bg":"Обединена българска банка","full_name:en":"United Bulgarian Bank"},"wikidata":"Q7887555","coordinates":[43.2363057,23.1256478]},"atp":{"id":"szhY0SvBjEa9W4_APOCdBmIz3ZQ=","tags":{"ref":"111","amenity":"bank","@source_uri":"https://www.ubb.bg/offices/pins","@spider":"ubb_bg","full_name:bg":"Обединена българска банка","full_name:en":"United Bulgarian Bank","addr:full":"пл. „Йордан Радичков“ 1","addr:country":"BG","phone":"+359 95 389 410;+359 95 389 415","opening_hours":"Mo-Fr 08:30-17:00","brand":"ОББ","brand:wikidata":"Q7887555","nsi_id":"ubb-126296"},"coordinates":[43.2373643,23.1237781]},"dist":191.824,"tags_mismatch":true},{"osm":{"type":"way","id":957586619,"tags":{"amenity":"bank","atm":"yes","brand":"ОББ","brand:wikidata":"Q7887555","building":"yes","full_name:bg":"Обединена българска банка","full_name:en":"United Bulgarian Bank"},"wikidata":"Q7887555","coordinates":[42.6069186,23.0317169]},"atp":{"id":"T_wgSOC0JWxGdTNGvMKU_4ThHjU=","tags":{"ref":"175","amenity":"bank","@source_uri":"https://www.ubb.bg/offices/pins","@spider":"ubb_bg","full_name:bg":"Обединена българска банка","full_name:en":"United Bulgarian Bank","addr:full":"пл. „Кракра“ 2","addr:country":"BG","phone":"+359 76 688 010","opening_hours":"Mo-Fr 08:30-17:00","brand":"ОББ","brand:wikidata":"Q7887555","nsi_id":"ubb-126296"},"coordinates":[42.607337297962374,23.03109884262085]},"dist":68.747,"tags_mismatch":true},{"osm":{"type":"way","id":1362699433,"tags":{"addr:city":"Стара Загора","addr:housenumber":"50","addr:postcode":"6000","addr:street":"бул. Руски","amenity":"bank","brand":"ОББ","brand:wikidata":"Q7887555","building":"bank","full_name:bg":"Обединена българска банка","full_name:en":"United Bulgarian Bank","wheelchair":"yes"},"wikidata":"Q7887555","coordinates":[42.4268268,25.6278004]},"atp":false,"tags_mismatch":false},{"osm":false,"atp":false,"tags_mismatch":false,"dist":0},{"osm":false,"atp":false,"tags_mismatch":false,"dist":0},{"osm":false,"atp":false,"tags_mismatch":false,"dist":0},{"osm":false,"atp":{"id":"bxHWh0rv_Tuh0GX1d3R3TNzHm8E=","tags":{"ref":"30","amenity":"bank","full_name:bg":"Обединена българска банка","full_name:en":"United Bulgarian Bank","addr:full":"ул. Преслав 2","addr:country":"BG","name":"Търговище","phone":"+359 60 169 160;+359 60 169 169","opening_hours":"Mo-Fr 08:30-17:00","brand":"ОББ","brand:wikidata":"Q7887555"},"coordinates":[43.24624542805619,26.574192458999647]},"tags_mismatch":false,"dist":0},{"osm":false,"atp":{"id":"YuU4WNPg27u6mrInbgeprMOY7As=","tags":{"ref":"31","amenity":"bank","full_name:bg":"Обединена българска банка","full_name:en":"United Bulgarian Bank","addr:full":"ул. „Васил Левски“ 67","addr:country":"BG","name":"Исперих","phone":"+359 84 318 004","opening_hours":"Mo-Fr 08:30-17:00","brand":"ОББ","brand:wikidata":"Q7887555"},"coordinates":[43.716644308844444,26.827871380920442]},"tags_mismatch":false,"dist":0},{"osm":false,"atp":{"id":"eUFIXapGqOrQrsyMiqL_UwIyD-o=","tags":{"ref":"34","amenity":"bank","full_name:bg":"Обединена българска банка","full_name:en":"United Bulgarian Bank","addr:full":"ул. „Цар Освободител“ 128","addr:country":"BG","name":"Шумен","phone":"+359 54 850 479","opening_hours":"Mo-Fr 08:30-17:00","brand":"ОББ","brand:wikidata":"Q7887555"},"coordinates":[43.2724352,26.92197740000006]},"tags_mismatch":false,"dist":0},{"osm":false,"atp":{"id":"rOjVhVNEXvrCpD9DBueMB7bDtZo=","tags":{"ref":"51","amenity":"bank","full_name:bg":"Обединена българска банка","full_name:en":"United Bulgarian Bank","addr:full":"ул. „Александровска“ 11","addr:country":"BG","name":"Русе Приста","phone":"+359 82 818 950;+359 82 818 953;+359 82 818 958","opening_hours":"Mo-Fr 08:30-17:00","brand":"ОББ","brand:wikidata":"Q7887555"},"coordinates":[43.84533742454581,25.949106216430664]},"tags_mismatch":false,"dist":0},{"osm":false,"atp":{"id":"HzPCyK2xOfxZtiE09A-fCPtFy90=","tags":{"ref":"52","amenity":"bank","full_name:bg":"Обединена българска банка","full_name:en":"United Bulgarian Bank","addr:full":"пл. „Екзарх Йосиф I“ 7","addr:country":"BG","name":"Бяла","phone":"+359 81 771 170;+359 81 771 171","opening_hours":"Mo-Fr 09:30-16:00","brand":"ОББ","brand:wikidata":"Q7887555"},"coordinates":[43.459915,25.737283]},"tags_mismatch":false,"dist":0},{"osm":false,"atp":false,"tags_mismatch":false,"dist":0},{"osm":false,"atp":{"id":"_R2oXLHdY-Mz310c36pXgwzpH78=","tags":{"ref":"54","amenity":"bank","full_name:bg":"Обединена българска банка","full_name:en":"United Bulgarian Bank","addr:full":"пл. „Свобода“ 2","addr:country":"BG","name":"Нова Загора","phone":"+359 45 761 063","opening_hours":"Mo-Fr 08:30-17:00","brand":"ОББ","brand:wikidata":"Q7887555"},"coordinates":[42.49115009342029,26.01311445236206]},"tags_mismatch":false,"dist":0},{"osm":false,"atp":false,"tags_mismatch":false,"dist":0},{"osm":false,"atp":{"id":"vpenfh_Z8IxIW4ItOABcJc3l8w0=","tags":{"ref":"57","amenity":"bank","full_name:bg":"Обединена българска банка","full_name:en":"United Bulgarian Bank","addr:full":"ул. „Дунав“ 2","addr:country":"BG","name":"Елхово","phone":"+359 47 881 325","opening_hours":"Mo-Fr 08:30-17:00","brand":"ОББ","brand:wikidata":"Q7887555"},"coordinates":[42.17269134722609,26.568249575793743]},"tags_mismatch":false,"dist":0},{"osm":false,"atp":false,"tags_mismatch":false,"dist":0},{"osm":false,"atp":false,"tags_mismatch":false,"dist":0},{"osm":false,"atp":false,"tags_mismatch":false,"dist":0},{"osm":false,"atp":false,"tags_mismatch":false,"dist":0},{"osm":false,"atp":false,"tags_mismatch":false,"dist":0},{"osm":false,"atp":{"id":"O4jOZp8D3lBsmwafS4uxWWoBBV4=","tags":{"ref":"100","amenity":"bank","full_name:bg":"Обединена българска банка","full_name:en":"United Bulgarian Bank","addr:full":"ул. „Алеко Константинов“ 8А","addr:country":"BG","name":"Свищов","phone":"+359 63 161 670","opening_hours":"Mo-Fr 08:30-17:00","brand":"ОББ","brand:wikidata":"Q7887555"},"coordinates":[43.6188618,25.33952880000004]},"tags_mismatch":false,"dist":0},{"osm":false,"atp":false,"tags_mismatch":false,"dist":0},{"osm":false,"atp":{"id":"VEljlHnvf46j43L1RFOuSSP4ay0=","tags":{"ref":"102","amenity":"bank","full_name:bg":"Обединена българска банка","full_name:en":"United Bulgarian Bank","addr:full":"пл. „Свобода“ 6","addr:country":"BG","name":"Левски","phone":"+359 65 088 921","opening_hours":"Mo-Fr 08:30-17:00","brand":"ОББ","brand:wikidata":"Q7887555"},"coordinates":[43.35947842085957,25.141911506652832]},"tags_mismatch":false,"dist":0},{"osm":false,"atp":{"id":"xmpBrDkFyKW0yQL1PESqzeevArw=","tags":{"ref":"103","amenity":"bank","full_name:bg":"Обединена българска банка","full_name:en":"United Bulgarian Bank","addr:full":"ул. „Полк. Лукашов“ 2","addr:country":"BG","name":"Враца","phone":"+359 92 669 233","opening_hours":"Mo-Fr 08:30-17:00","brand":"ОББ","brand:wikidata":"Q7887555"},"coordinates":[43.20418262833355,23.549607396125793]},"tags_mismatch":false,"dist":0},{"osm":false,"atp":{"id":"Hx_ddxrejpWXV2y_H6gsNPLnDtM=","tags":{"ref":"107","amenity":"bank","full_name:bg":"Обединена българска банка","full_name:en":"United Bulgarian Bank","addr:full":"ул. „Граф Игнатиев“ 6","addr:country":"BG","name":"Монтана","phone":"+359 96 399 620","opening_hours":"Mo-Fr 08:30-17:00","brand":"ОББ","brand:wikidata":"Q7887555"},"coordinates":[43.406107551143585,23.226277828216553]},"tags_mismatch":false,"dist":0},{"osm":false,"atp":{"id":"KyDzhdBrGOT-0NgN_nO-3PuKZsE=","tags":{"ref":"109","amenity":"bank","full_name:bg":"Обединена българска банка","full_name:en":"United Bulgarian Bank","addr:full":"ул. „Славянска“ 38","addr:country":"BG","name":"Лом","phone":"+359 97 168 630;+359 97 168 638","opening_hours":"Mo-Fr 08:30-17:00","brand":"ОББ","brand:wikidata":"Q7887555"},"coordinates":[43.82216771483741,23.238690900802567]},"tags_mismatch":false,"dist":0},{"osm":false,"atp":false,"tags_mismatch":false,"dist":0},{"osm":false,"atp":false,"tags_mismatch":false,"dist":0},{"osm":false,"atp":{"id":"d_ZAyd74ELnXnwR8Q_988Qmc5cI=","tags":{"ref":"112","amenity":"bank","full_name:bg":"Обединена българска банка","full_name:en":"United Bulgarian Bank","addr:full":"ул. „Цар Александър II“ бл. 6/7","addr:country":"BG","name":"Видин","phone":"+359 94 691 475","opening_hours":"Mo-Fr 08:30-17:00","brand":"ОББ","brand:wikidata":"Q7887555"},"coordinates":[43.982269937989216,22.87475824356079]},"tags_mismatch":false,"dist":0},{"osm":false,"atp":{"id":"OHDJReplLb4XhE7cDrrkZlTFlUk=","tags":{"ref":"113","amenity":"bank","full_name:bg":"Обединена българска банка","full_name:en":"United Bulgarian Bank","addr:full":"пл. „Освобождение“ 2","addr:country":"BG","name":"Батак","phone":"+359 35 533 742","opening_hours":"Mo-Fr 08:30-17:00","brand":"ОББ","brand:wikidata":"Q7887555"},"coordinates":[41.94238261246885,24.216699600219727]},"tags_mismatch":false,"dist":0},{"osm":false,"atp":{"id":"Rij1tKLuHZT8r_5Bh-S4hvIj6n0=","tags":{"ref":"114","amenity":"bank","full_name:bg":"Обединена българска банка","full_name:en":"United Bulgarian Bank","addr:full":"ул. „Орфей“ 5","addr:country":"BG","name":"Белово","phone":"+359 35 814 401","opening_hours":"Mo-Fr 08:30-17:00","brand":"ОББ","brand:wikidata":"Q7887555"},"coordinates":[42.21369338327062,24.017419517040253]},"tags_mismatch":false,"dist":0},{"osm":false,"atp":false,"tags_mismatch":false,"dist":0},{"osm":false,"atp":false,"tags_mismatch":false,"dist":0},{"osm":false,"atp":false,"tags_mismatch":false,"dist":0},{"osm":false,"atp":{"id":"tRYgWAPlBYw7QxyIa3AT9V3YRzo=","tags":{"ref":"122","amenity":"bank","full_name:bg":"Обединена българска банка","full_name:en":"United Bulgarian Bank","addr:full":"ул. „Патриарх Евтимий“ 2","addr:country":"BG","name":"Горна Оряховица","phone":"+359 61 861 779","opening_hours":"Mo-Fr 08:30-17:00","brand":"ОББ","brand:wikidata":"Q7887555"},"coordinates":[43.12069548032723,25.68860272485358]},"tags_mismatch":false,"dist":0},{"osm":false,"atp":false,"tags_mismatch":false,"dist":0},{"osm":false,"atp":false,"tags_mismatch":false,"dist":0},{"osm":false,"atp":{"id":"oFhT6-npg7yQGV61zdZIh1biTlo=","tags":{"ref":"127","amenity":"bank","full_name:bg":"Обединена българска банка","full_name:en":"United Bulgarian Bank","addr:full":"ул. „Павел Бобеков“ 1","addr:country":"BG","name":"Панагюрище","phone":"+359 35 760 023","opening_hours":"Mo-Fr 08:30-17:30","brand":"ОББ","brand:wikidata":"Q7887555"},"coordinates":[42.50547739140054,24.188429067459083]},"tags_mismatch":false,"dist":0},{"osm":false,"atp":false,"tags_mismatch":false,"dist":0},{"osm":false,"atp":{"id":"Fxw0I9o88p9W3uDEp5ocdPHHqsQ=","tags":{"ref":"131","amenity":"bank","full_name:bg":"Обединена българска банка","full_name:en":"United Bulgarian Bank","addr:full":"Индустриална зона „Аурубис“","addr:country":"BG","name":"Пирдоп Аурубис","phone":"+359 72 862 707","opening_hours":"Mo-Fr 08:30-13:00,13:30-17:00","brand":"ОББ","brand:wikidata":"Q7887555"},"coordinates":[42.72144805884832,24.158980306237936]},"tags_mismatch":false,"dist":0},{"osm":false,"atp":false,"tags_mismatch":false,"dist":0},{"osm":false,"atp":{"id":"_yuOkH1kIhVKnFjjqVxruSG7Jj4=","tags":{"ref":"139","amenity":"bank","full_name:bg":"Обединена българска банка","full_name:en":"United Bulgarian Bank","addr:full":"ул. „Ангел Кънчев“ 116","addr:country":"BG","name":"Трявна","phone":"+359 67 761 011","opening_hours":"Mo-Fr 08:30-17:00","brand":"ОББ","brand:wikidata":"Q7887555"},"coordinates":[42.87069607237648,25.49720948562026]},"tags_mismatch":false,"dist":0},{"osm":false,"atp":{"id":"2keo64te6KTlZRLFkH9iT2gAtQM=","tags":{"ref":"142","amenity":"bank","full_name:bg":"Обединена българска банка","full_name:en":"United Bulgarian Bank","addr:full":"бул. „България“ 91","addr:country":"BG","name":"Свиленград","phone":"+359 37 970 381","opening_hours":"Mo-Fr 08:30-17:00","brand":"ОББ","brand:wikidata":"Q7887555"},"coordinates":[41.766342450614104,26.19956200942397]},"tags_mismatch":false,"dist":0},{"osm":false,"atp":false,"tags_mismatch":false,"dist":0},{"osm":false,"atp":false,"tags_mismatch":false,"dist":0},{"osm":false,"atp":{"id":"AssP5_n55deek0LT3gZuwEprK4w=","tags":{"ref":"162","amenity":"bank","full_name:bg":"Обединена българска банка","full_name:en":"United Bulgarian Bank","addr:full":"бул. „Георги С. Раковски“ 19","addr:country":"BG","name":"Димитровград","phone":"+359 39 165 460","opening_hours":"Mo-Fr 08:30-17:00","brand":"ОББ","brand:wikidata":"Q7887555"},"coordinates":[42.060112,25.594039]},"tags_mismatch":false,"dist":0},{"osm":false,"atp":false,"tags_mismatch":false,"dist":0},{"osm":false,"atp":false,"tags_mismatch":false,"dist":0},{"osm":false,"atp":false,"tags_mismatch":false,"dist":0},{"osm":false,"atp":false,"tags_mismatch":false,"dist":0},{"osm":false,"atp":false,"tags_mismatch":false,"dist":0},{"osm":false,"atp":{"id":"7h6X1K_jiH4wLQwnj0OGZ3DsorU=","tags":{"ref":"231","amenity":"bank","full_name:bg":"Обединена българска банка","full_name:en":"United Bulgarian Bank","addr:full":"пл. „Съединение“ 1","addr:country":"BG","name":"Чирпан","phone":"0941690070;+359 41 690 071","opening_hours":"Mo-Fr 08:30-17:00","brand":"ОББ","brand:wikidata":"Q7887555"},"coordinates":[42.19956,25.32512]},"tags_mismatch":false,"dist":0},{"osm":false,"atp":false,"tags_mismatch":false,"dist":0},{"osm":false,"atp":false,"tags_mismatch":false,"dist":0},{"osm":false,"atp":false,"tags_mismatch":false,"dist":0},{"osm":false,"atp":false,"tags_mismatch":false,"dist":0},{"osm":false,"atp":{"id":"_GRgLhLJ3I_uVeY3OKbCKVvWpgY=","tags":{"ref":"256","amenity":"bank","full_name:bg":"Обединена българска банка","full_name:en":"United Bulgarian Bank","addr:full":"бул. „Македония“ 37","addr:country":"BG","name":"Самоков","phone":"+359 72 268 044;+359 72 268 043;+359 72 268 046;+359 72 268 049","opening_hours":"Mo-Fr 08:30-17:00","brand":"ОББ","brand:wikidata":"Q7887555"},"coordinates":[42.33724570495059,23.55765402317047]},"tags_mismatch":false,"dist":0},{"osm":false,"atp":{"id":"sXQLTeWONw7BjmoTxDoOBAXT17c=","tags":{"ref":"259","amenity":"bank","full_name:bg":"Обединена българска банка","full_name:en":"United Bulgarian Bank","addr:full":"пл. „Демокрация“","addr:country":"BG","name":"Кюстендил","phone":"+359 78 559 801;+359 78 559 805","opening_hours":"Mo-Fr 08:30-17:00","brand":"ОББ","brand:wikidata":"Q7887555"},"coordinates":[42.28038029817307,22.690304875504808]},"tags_mismatch":false,"dist":0},{"osm":false,"atp":false,"tags_mismatch":false,"dist":0},{"osm":false,"atp":false,"tags_mismatch":false,"dist":0},{"osm":false,"atp":{"id":"sd1DhexUNRo6NEedRTaGWYtsyXI=","tags":{"ref":"265","amenity":"bank","full_name:bg":"Обединена българска банка","full_name:en":"United Bulgarian Bank","addr:full":"ж.к. „Изгрев“, бл. 109 Б","addr:country":"BG","name":"Бургас Изгрев","phone":"+359 56 563 100","opening_hours":"Mo-Fr 08:30-17:00","brand":"ОББ","brand:wikidata":"Q7887555"},"coordinates":[42.523783381370535,27.465240955352783]},"tags_mismatch":false,"dist":0},{"osm":false,"atp":false,"tags_mismatch":false,"dist":0},{"osm":false,"atp":{"id":"f1FtXhOrhRQDhXiVgSuu5TpZql4=","tags":{"ref":"280","amenity":"bank","full_name:bg":"Обединена българска банка","full_name:en":"United Bulgarian Bank","addr:full":"пл. „Сава Младенов“ 1","addr:country":"BG","name":"Тетевен","phone":"+359 67 856 111","opening_hours":"Mo-Fr 08:30-17:00","brand":"ОББ","brand:wikidata":"Q7887555"},"coordinates":[42.918048939636094,24.26599415950477]},"tags_mismatch":false,"dist":0},{"osm":false,"atp":false,"tags_mismatch":false,"dist":0},{"osm":false,"atp":false,"tags_mismatch":false,"dist":0},{"osm":false,"atp":{"id":"yBjxKlNFoSCU0wLNF6uXQ_lTn7s=","tags":{"ref":"292","amenity":"bank","full_name:bg":"Обединена българска банка","full_name:en":"United Bulgarian Bank","addr:full":"ул. „Генерал Карцов“ 18","addr:country":"BG","name":"Троян","phone":"+359 67 050 918","opening_hours":"Mo-Fr 08:30-17:00","brand":"ОББ","brand:wikidata":"Q7887555"},"coordinates":[42.8746787,24.712370100000044]},"tags_mismatch":false,"dist":0},{"osm":false,"atp":{"id":"s10ePUGbFc82rD4a77BsRs3Fo14=","tags":{"ref":"294","amenity":"bank","full_name:bg":"Обединена българска банка","full_name:en":"United Bulgarian Bank","addr:full":"ул. „Христо Ботев“ 33","addr:country":"BG","name":"Мездра","phone":"+359 91 091 460","opening_hours":"Mo-Fr 08:30-13:00,13:30-17:00","brand":"ОББ","brand:wikidata":"Q7887555"},"coordinates":[43.1423737,23.71367250000003]},"tags_mismatch":false,"dist":0},{"osm":false,"atp":{"id":"_nTYkDdQP_XZ0zuBhk0xn1yAmck=","tags":{"ref":"302","amenity":"bank","full_name:bg":"Обединена българска банка","full_name:en":"United Bulgarian Bank","addr:full":"ул. „Ивайловградска“ 2","addr:country":"BG","name":"Любимец","phone":"+359 37 518 961","opening_hours":"Mo-Fr 08:30-17:00","brand":"ОББ","brand:wikidata":"Q7887555"},"coordinates":[41.844214,26.078471600000057]},"tags_mismatch":false,"dist":0},{"osm":false,"atp":{"id":"CQybuW_I1T1au9xMWIdaflSodoA=","tags":{"ref":"306","amenity":"bank","full_name:bg":"Обединена българска банка","full_name:en":"United Bulgarian Bank","addr:full":"бул. „Св. Св. Кирил и Методий“ 8B","addr:country":"BG","name":"Благоевград Св.Св. Кирил и Методий","phone":"073 889 44 60;073 889 44 79","opening_hours":"Mo-Fr 08:30-17:00","brand":"ОББ","brand:wikidata":"Q7887555"},"coordinates":[42.01950629999999,23.09265759999994]},"tags_mismatch":false,"dist":0},{"osm":false,"atp":false,"tags_mismatch":false,"dist":0},{"osm":false,"atp":false,"tags_mismatch":false,"dist":0},{"osm":false,"atp":false,"tags_mismatch":false,"dist":0},{"osm":false,"atp":{"id":"y18MV5rHdkVhq9_SY7co1gQTszg=","tags":{"ref":"328","amenity":"bank","full_name:bg":"Обединена българска банка","full_name:en":"United Bulgarian Bank","addr:full":"ул. „Шейново“ 6","addr:country":"BG","name":"Разлог","phone":"+359 74 789 040;+359 74 789 043","opening_hours":"Mo-Fr 08:30-17:00","brand":"ОББ","brand:wikidata":"Q7887555"},"coordinates":[41.8850734,23.469171200000005]},"tags_mismatch":false,"dist":0},{"osm":false,"atp":false,"tags_mismatch":false,"dist":0},{"osm":false,"atp":false,"tags_mismatch":false,"dist":0},{"osm":false,"atp":{"id":"hyc4CZYQVjYETTBQcXYNYshDVTU=","tags":{"ref":"341","amenity":"bank","full_name:bg":"Обединена българска банка","full_name:en":"United Bulgarian Bank","addr:full":"бул. „Република“ 70","addr:country":"BG","name":"Вършец","phone":"+359 95 274 175","opening_hours":"Mo-Fr 08:30-13:00,13:30-17:00","brand":"ОББ","brand:wikidata":"Q7887555"},"coordinates":[43.19465657814469,23.28731417655945]},"tags_mismatch":false,"dist":0},{"osm":false,"atp":{"id":"EetOSZHlZgQETqYDCHjgomfY4ws=","tags":{"ref":"344","amenity":"bank","full_name:bg":"Обединена българска банка","full_name:en":"United Bulgarian Bank","addr:full":"бл.71 - Подблоково пространство","addr:country":"BG","name":"Козлодуй","phone":"+359 97 389 380;+359 97 389 382","opening_hours":"Mo-Fr 08:30-17:00","brand":"ОББ","brand:wikidata":"Q7887555"},"coordinates":[43.777816338539225,23.728569370422292]},"tags_mismatch":false,"dist":0},{"osm":false,"atp":false,"tags_mismatch":false,"dist":0},{"osm":false,"atp":false,"tags_mismatch":false,"dist":0},{"osm":false,"atp":false,"tags_mismatch":false,"dist":0},{"osm":false,"atp":{"id":"Ndrd4qraG7b9eTrLRGnGZtpBkZY=","tags":{"ref":"367","amenity":"bank","full_name:bg":"Обединена българска банка","full_name:en":"United Bulgarian Bank","addr:full":"ул. „Шипка“ 25","addr:country":"BG","name":"Шипка","phone":"+359 2 942 5911","opening_hours":"Mo-Fr 08:30-17:00","brand":"ОББ","brand:wikidata":"Q7887555"},"coordinates":[42.69305040462321,23.342215474694967]},"tags_mismatch":false,"dist":0},{"osm":false,"atp":false,"tags_mismatch":false,"dist":0},{"osm":false,"atp":{"id":"tGiZUGHcEfnGS-qk1alEdR7ECww=","tags":{"ref":"373","amenity":"bank","full_name:bg":"Обединена българска банка","full_name:en":"United Bulgarian Bank","addr:full":"бул. „България“ 5","addr:country":"BG","name":"Смолян","phone":"+359 30 167 087","opening_hours":"Mo-Fr 08:30-17:00","brand":"ОББ","brand:wikidata":"Q7887555"},"coordinates":[41.57503550241224,24.70928192138672]},"tags_mismatch":false,"dist":0},{"osm":false,"atp":{"id":"11Qthk5bw02qgPw_vULJH6H_UZs=","tags":{"ref":"376","amenity":"bank","full_name:bg":"Обединена българска банка","full_name:en":"United Bulgarian Bank","addr:full":"бул. „Владислав Варненчик“ 106","addr:country":"BG","name":"Варна Одесос","phone":"+359 52 685 460","opening_hours":"Mo-Fr 08:30-17:00","brand":"ОББ","brand:wikidata":"Q7887555"},"coordinates":[43.21304411710872,27.903608322012587]},"tags_mismatch":false,"dist":0},{"osm":false,"atp":{"id":"0yjEM80deHcr2n0RI2shwEU9Vrc=","tags":{"ref":"377","amenity":"bank","full_name:bg":"Обединена българска банка","full_name:en":"United Bulgarian Bank","addr:full":"ул. Цар Иван Асен II 1","addr:country":"BG","name":"Видин Център","phone":"+359 94 609 081;+359 94 609 080","opening_hours":"Mo-Fr 08:30-17:00","brand":"ОББ","brand:wikidata":"Q7887555"},"coordinates":[43.986254711818376,22.86913239821701]},"tags_mismatch":false,"dist":0},{"osm":false,"atp":false,"tags_mismatch":false,"dist":0},{"osm":false,"atp":{"id":"sdvb1nPRNJ5odchaPSh1-eknpdE=","tags":{"ref":"410","amenity":"bank","full_name:bg":"Обединена българска банка","full_name:en":"United Bulgarian Bank","addr:full":"ул. „Ленински проспект“ 6","addr:country":"BG","name":"Перник Струма","phone":"+359 76 688 551;+359 76 688 554","opening_hours":"Mo-Fr 08:30-17:00","brand":"ОББ","brand:wikidata":"Q7887555"},"coordinates":[42.609390363208426,23.098583221435547]},"tags_mismatch":false,"dist":0},{"osm":false,"atp":false,"tags_mismatch":false,"dist":0},{"osm":false,"atp":false,"tags_mismatch":false,"dist":0},{"osm":false,"atp":false,"tags_mismatch":false,"dist":0},{"osm":false,"atp":false,"tags_mismatch":false,"dist":0},{"osm":false,"atp":{"id":"nvDhc93gUeJnvNoAOk4zZVbNEqo=","tags":{"ref":"505","amenity":"bank","full_name:bg":"Обединена българска банка","full_name:en":"United Bulgarian Bank","addr:full":"ул. „Кокиче“ 1","addr:country":"BG","name":"Момчилград","phone":"+359 36 317 920;+359 36 317 924","opening_hours":"Mo-Fr 08:30-17:00","brand":"ОББ","brand:wikidata":"Q7887555"},"coordinates":[41.52796130243407,25.409982204437256]},"tags_mismatch":false,"dist":0},{"osm":false,"atp":{"id":"FvgHD4BcnyVUs0DVv2p9hhhYhl8=","tags":{"ref":"507","amenity":"bank","full_name:bg":"Обединена българска банка","full_name:en":"United Bulgarian Bank","addr:full":"бул. „Сливница“ 201, ДЗИ Бизнес център, тяло А","addr:country":"BG","name":"Варна Бриз","phone":"+359 52 572 661;+359 52 572 665","opening_hours":"Mo-Fr 08:30-17:00","brand":"ОББ","brand:wikidata":"Q7887555"},"coordinates":[43.22649059999999,27.8879137]},"tags_mismatch":false,"dist":0},{"osm":false,"atp":false,"tags_mismatch":false,"dist":0},{"osm":false,"atp":false,"tags_mismatch":false,"dist":0},{"osm":false,"atp":{"id":"txp19ooQ6wlQ_LyUpiBduvkXlO8=","tags":{"ref":"545","amenity":"bank","full_name:bg":"Обединена българска банка","full_name:en":"United Bulgarian Bank","addr:full":"бул. „Никола Габровски“ 61","addr:country":"BG","name":"Дианабад","phone":"+359 2 816 9030;+359 2 811 3031","opening_hours":"Mo-Fr 08:30-17:00","brand":"ОББ","brand:wikidata":"Q7887555"},"coordinates":[42.66036362998402,23.347268756479025]},"tags_mismatch":false,"dist":0},{"osm":false,"atp":false,"tags_mismatch":false,"dist":0},{"osm":false,"atp":{"id":"nYOMDbO3cOirlSD9RmxUsfVxZJE=","tags":{"ref":"574","amenity":"bank","full_name:bg":"Обединена българска банка","full_name:en":"United Bulgarian Bank","addr:full":"ж.к. „Владислав Варненчик“, пазар","addr:country":"BG","name":"Варна Владиславово","phone":"+359 52 595 775;+359 52 595 773","opening_hours":"Mo-Fr 08:30-17:00","brand":"ОББ","brand:wikidata":"Q7887555"},"coordinates":[43.24899297039119,27.84887194633484]},"tags_mismatch":false,"dist":0},{"osm":false,"atp":{"id":"dC-Ja56c9641CuTG3He_yY68HkQ=","tags":{"ref":"580","amenity":"bank","full_name:bg":"Обединена българска банка","full_name:en":"United Bulgarian Bank","addr:full":"бул. „Свобода“ 65А","addr:country":"BG","name":"Пловдив Смирненски","phone":"+359 32 278 813","opening_hours":"Mo-Fr 08:30-17:00","brand":"ОББ","brand:wikidata":"Q7887555"},"coordinates":[42.1425167,24.720752700000048]},"tags_mismatch":false,"dist":0},{"osm":false,"atp":false,"tags_mismatch":false,"dist":0},{"osm":false,"atp":false,"tags_mismatch":false,"dist":0},{"osm":false,"atp":false,"tags_mismatch":false,"dist":0},{"osm":false,"atp":false,"tags_mismatch":false,"dist":0},{"osm":false,"atp":false,"tags_mismatch":false,"dist":0},{"osm":false,"atp":{"id":"JYV8JyaYsk76hsaXBRoH_14KHws=","tags":{"ref":"671","amenity":"bank","full_name:bg":"Обединена българска банка","full_name:en":"United Bulgarian Bank","addr:full":"ул. „Петър Богдан“ 77","addr:country":"BG","name":"гр. Раковски","phone":"+359 31 518 440","opening_hours":"Mo-Fr 08:30-17:00","brand":"ОББ","brand:wikidata":"Q7887555"},"coordinates":[42.27181527288647,24.94422197341919]},"tags_mismatch":false,"dist":0},{"osm":false,"atp":false,"tags_mismatch":false,"dist":0},{"osm":false,"atp":{"id":"j4dk4xSnymxl1hAvGAungq56eP4=","tags":{"ref":"677","amenity":"bank","full_name:bg":"Обединена българска банка","full_name:en":"United Bulgarian Bank","addr:full":"бул. „Александър Малинов“ 40","addr:country":"BG","name":"Александър Малинов","phone":"+359 2 902 9910","opening_hours":"Mo-Fr 08:30-17:00","brand":"ОББ","brand:wikidata":"Q7887555"},"coordinates":[42.6489735,23.377074]},"tags_mismatch":false,"dist":0},{"osm":false,"atp":{"id":"g2AqnucjSOi3Fa6Ic_NNJVGvWiw=","tags":{"ref":"703","amenity":"bank","full_name:bg":"Обединена българска банка","full_name:en":"United Bulgarian Bank","addr:full":"ул. „Македония“ 55","addr:country":"BG","name":"Сандански","phone":"+359 74 634 460;+359 74 634 466","opening_hours":"Mo-Fr 08:30-17:00","brand":"ОББ","brand:wikidata":"Q7887555"},"coordinates":[41.5622853,23.2781067]},"tags_mismatch":false,"dist":0},{"osm":false,"atp":{"id":"GH-x1f-3NYfrqlOAnBqmt4JTQvM=","tags":{"ref":"704","amenity":"bank","full_name:bg":"Обединена българска банка","full_name:en":"United Bulgarian Bank","addr:full":"пл. „Войнишко въстание“","addr:country":"BG","name":"Радомир","phone":"+359 77 789 900","opening_hours":"Mo-Fr 08:30-17:00","brand":"ОББ","brand:wikidata":"Q7887555"},"coordinates":[42.5477023,22.9659071]},"tags_mismatch":false,"dist":0},{"osm":false,"atp":false,"tags_mismatch":false,"dist":0},{"osm":false,"atp":{"id":"8THJDId6w-c0tWofbtw3zzIw44g=","tags":{"ref":"737","amenity":"bank","full_name:bg":"Обединена българска банка","full_name:en":"United Bulgarian Bank","addr:full":"ул. „Борис Спиров“ 74А","addr:country":"BG","name":"Преслав","phone":"+359 53 848 361","opening_hours":"Mo-Fr 08:30-17:00","brand":"ОББ","brand:wikidata":"Q7887555"},"coordinates":[43.161313534767615,26.812080791046]},"tags_mismatch":false,"dist":0},{"osm":false,"atp":false,"tags_mismatch":false,"dist":0},{"osm":false,"atp":false,"tags_mismatch":false,"dist":0},{"osm":false,"atp":false,"tags_mismatch":false,"dist":0},{"osm":false,"atp":false,"tags_mismatch":false,"dist":0},{"osm":false,"atp":false,"tags_mismatch":false,"dist":0},{"osm":false,"atp":false,"tags_mismatch":false,"dist":0},{"osm":false,"atp":false,"tags_mismatch":false,"dist":0},{"osm":false,"atp":false,"tags_mismatch":false,"dist":0},{"osm":false,"atp":false,"tags_mismatch":false,"dist":0},{"osm":false,"atp":{"id":"W0nsKJuH5u3R98GICPjcImS6XW8=","tags":{"ref":"1075","amenity":"bank","full_name:bg":"Обединена българска банка","full_name:en":"United Bulgarian Bank","addr:full":"ул. „Черно море“ 17","addr:country":"BG","name":"Балчик","phone":"+359 57 997 922","opening_hours":"Mo-Fr 08:30-13:00,13:30-17:00","brand":"ОББ","brand:wikidata":"Q7887555"},"coordinates":[43.4063433,28.1644029]},"tags_mismatch":false,"dist":0},{"osm":false,"atp":{"id":"YMgg7U_9uMLjXAxeqcWw2fhlJcE=","tags":{"ref":"1089","amenity":"bank","full_name:bg":"Обединена българска банка","full_name:en":"United Bulgarian Bank","addr:full":"ул. „Чаталджа“ 35","addr:country":"BG","name":"Варна Чаталджа","phone":"+359 52 679 700;+359 52 679 701","opening_hours":"Mo-Fr 08:30-17:00","brand":"ОББ","brand:wikidata":"Q7887555"},"coordinates":[43.2127337,27.92369759999997]},"tags_mismatch":false,"dist":0},{"osm":false,"atp":{"id":"J8kfyQkUcSV9bI5Xw8dXnjaxun8=","tags":{"ref":"1091","amenity":"bank","full_name:bg":"Обединена българска банка","full_name:en":"United Bulgarian Bank","addr:full":"ж.к. „Чайка“ бл.187","addr:country":"BG","name":"Варна Чайка","phone":"+359 52 785 981;+359 52 785 988","opening_hours":"Mo-Fr 08:30-17:00","brand":"ОББ","brand:wikidata":"Q7887555"},"coordinates":[43.2151162,27.94297449999999]},"tags_mismatch":false,"dist":0},{"osm":false,"atp":false,"tags_mismatch":false,"dist":0},{"osm":false,"atp":{"id":"BTHLKEfDHw3RYQPb_XlMu1r8JAQ=","tags":{"ref":"1146","amenity":"bank","full_name:bg":"Обединена българска банка","full_name:en":"United Bulgarian Bank","addr:full":"ул. „Тодор Александров“ 27","addr:country":"BG","name":"Благоевград","phone":"073 8285114;073 8285106","opening_hours":"Mo-Fr 08:30-17:00","brand":"ОББ","brand:wikidata":"Q7887555"},"coordinates":[42.0190225,23.0987411]},"tags_mismatch":false,"dist":0},{"osm":false,"atp":false,"tags_mismatch":false,"dist":0},{"osm":false,"atp":false,"tags_mismatch":false,"dist":0},{"osm":false,"atp":{"id":"ZU4zN30ns5qtMhtY2L8piRO6-O0=","tags":{"ref":"1197","amenity":"bank","full_name:bg":"Обединена българска банка","full_name:en":"United Bulgarian Bank","addr:full":"ул. „Трети март“ 86","addr:country":"BG","name":"Офис Монтана","phone":"+359 96 399 630","opening_hours":"Mo-Fr 08:30-17:00","brand":"ОББ","brand:wikidata":"Q7887555"},"coordinates":[43.4063217,23.225376600000004]},"tags_mismatch":false,"dist":0},{"osm":false,"atp":false,"tags_mismatch":false,"dist":0},{"osm":false,"atp":{"id":"nJJWDm3d593R_e9sm9RVDhpUlC4=","tags":{"ref":"4302","amenity":"bank","full_name:bg":"Обединена българска банка","full_name:en":"United Bulgarian Bank","addr:full":"ул. „Околовръстен път“ 214, ет. 1","addr:country":"BG","name":"Ринг Мол","phone":"+359 2 811 3060","opening_hours":"Mo-Su 10:00-22:00","brand":"ОББ","brand:wikidata":"Q7887555"},"coordinates":[42.62499715577943,23.35246489101563]},"tags_mismatch":false,"dist":0},{"osm":false,"atp":false,"tags_mismatch":false,"dist":0},{"osm":false,"atp":{"id":"73u323EbYEu-0dBXAG0CQblViaI=","tags":{"ref":"4353","amenity":"bank","full_name:bg":"Обединена българска банка","full_name:en":"United Bulgarian Bank","addr:full":"ул. Цар Симеон I 32","addr:country":"BG","name":"Варна Колони","phone":"+359 52 688 012;+359 52 688 028","opening_hours":"Mo-Fr 08:30-17:00","brand":"ОББ","brand:wikidata":"Q7887555"},"coordinates":[43.1995805,27.9129561]},"tags_mismatch":false,"dist":0},{"osm":false,"atp":false,"tags_mismatch":false,"dist":0},{"osm":false,"atp":false,"tags_mismatch":false,"dist":0},{"osm":false,"atp":{"id":"Iv9PsslmT_2xOfpqXC6KrgS9D_U=","tags":{"ref":"4357","amenity":"bank","full_name:bg":"Обединена българска банка","full_name:en":"United Bulgarian Bank","addr:full":"ж.к. Славейков, бл. 126","addr:country":"BG","name":"Бургас 6/ Славейков","phone":"+359 56 895 811;+359 56 895 813","opening_hours":"Mo-Fr 08:30-17:00","brand":"ОББ","brand:wikidata":"Q7887555"},"coordinates":[42.52199131058548,27.455957776126855]},"tags_mismatch":false,"dist":0},{"osm":false,"atp":false,"tags_mismatch":false,"dist":0},{"osm":false,"atp":false,"tags_mismatch":false,"dist":0},{"osm":false,"atp":{"id":"EvpUNv9seihRgbQmFPex6a0Ijc8=","tags":{"ref":"4361","amenity":"bank","full_name:bg":"Обединена българска банка","full_name:en":"United Bulgarian Bank","addr:full":"ул. Цар Шишман 20","addr:country":"BG","name":"Силистра","phone":"+359 86 818 211;+359 86 818 212","opening_hours":"Mo-Fr 08:30-17:00","brand":"ОББ","brand:wikidata":"Q7887555"},"coordinates":[44.11769,27.26271]},"tags_mismatch":false,"dist":0},{"osm":false,"atp":{"id":"_KO9u4oVULz_nlUFE4g6gWbYJTQ=","tags":{"ref":"4365","amenity":"bank","full_name:bg":"Обединена българска банка","full_name:en":"United Bulgarian Bank","addr:full":"бул. Васил Левски 23","addr:country":"BG","name":"Велико Търново 1/ Васил Левски","phone":"+359 62 616 411;+359 62 616 412","opening_hours":"Mo-Fr 08:30-17:00","brand":"ОББ","brand:wikidata":"Q7887555"},"coordinates":[43.0793269,25.6289733]},"tags_mismatch":false,"dist":0},{"osm":false,"atp":{"id":"SMAueOvZ--LBbEi7fQNlxc5TNsM=","tags":{"ref":"4367","amenity":"bank","full_name:bg":"Обединена българска банка","full_name:en":"United Bulgarian Bank","addr:full":"бул. Славянски 22","addr:country":"BG","name":"Русе 1/ Славянски","phone":"+359 82 817 961;+359 82 817 981","opening_hours":"Mo-Fr 08:30-17:00","brand":"ОББ","brand:wikidata":"Q7887555"},"coordinates":[43.84641489999999,25.94927419999999]},"tags_mismatch":false,"dist":0},{"osm":false,"atp":{"id":"HYuUOcQeyOb0tREcF2zMUUBDYvI=","tags":{"ref":"4368","amenity":"bank","full_name:bg":"Обединена българска банка","full_name:en":"United Bulgarian Bank","addr:full":"бул. Липник 54","addr:country":"BG","name":"Русе 2/ Липник","phone":"+359 82 814 351;+359 82 814 352","opening_hours":"Mo-Fr 08:30-13:00,13:30-17:00","brand":"ОББ","brand:wikidata":"Q7887555"},"coordinates":[43.8501114,25.97887709999999]},"tags_mismatch":false,"dist":0},{"osm":false,"atp":false,"tags_mismatch":false,"dist":0},{"osm":false,"atp":{"id":"UmEpVZhQdc1ZUaSKIujF9islr8k=","tags":{"ref":"4376","amenity":"bank","full_name:bg":"Обединена българска банка","full_name:en":"United Bulgarian Bank","addr:full":"бул. Владислав Варненчик 186","addr:country":"BG","name":"Варна МОЛ","phone":"+359 52 575 836;+359 52 575 832","opening_hours":"Mo-Su 09:00-20:00","brand":"ОББ","brand:wikidata":"Q7887555"},"coordinates":[43.2194517,27.8894841]},"tags_mismatch":false,"dist":0},{"osm":false,"atp":false,"tags_mismatch":false,"dist":0},{"osm":false,"atp":false,"tags_mismatch":false,"dist":0},{"osm":false,"atp":false,"tags_mismatch":false,"dist":0},{"osm":false,"atp":false,"tags_mismatch":false,"dist":0},{"osm":false,"atp":false,"tags_mismatch":false,"dist":0},{"osm":false,"atp":false,"tags_mismatch":false,"dist":0},{"osm":false,"atp":false,"tags_mismatch":false,"dist":0},{"osm":false,"atp":false,"tags_mismatch":false,"dist":0},{"osm":false,"atp":false,"tags_mismatch":false,"dist":0},{"osm":false,"atp":false,"tags_mismatch":false,"dist":0},{"osm":false,"atp":false,"tags_mismatch":false,"dist":0},{"osm":false,"atp":false,"tags_mismatch":false,"dist":0},{"osm":false,"atp":false,"tags_mismatch":false,"dist":0},{"osm":false,"atp":{"id":"2DCc4hXKoaQN82rSX1i4I98Z28s=","tags":{"ref":"4404","amenity":"bank","full_name:bg":"Обединена българска банка","full_name:en":"United Bulgarian Bank","addr:full":"ул. Тодор Александров 47","addr:country":"BG","name":"Благоевград 1/ Тодор Александров","phone":"+359 73 829 175;+359 73 829 162","opening_hours":"Mo-Fr 08:30-17:00","brand":"ОББ","brand:wikidata":"Q7887555"},"coordinates":[42.017527408741046,23.096184062040717]},"tags_mismatch":false,"dist":0},{"osm":false,"atp":false,"tags_mismatch":false,"dist":0},{"osm":false,"atp":false,"tags_mismatch":false,"dist":0},{"osm":false,"atp":false,"tags_mismatch":false,"dist":0},{"osm":false,"atp":false,"tags_mismatch":false,"dist":0},{"osm":false,"atp":false,"tags_mismatch":false,"dist":0},{"osm":false,"atp":{"id":"IQY8UtMjv6Dj4rl02xmPFaL1gHU=","tags":{"ref":"4421","amenity":"bank","full_name:bg":"Обединена българска банка","full_name:en":"United Bulgarian Bank","addr:full":"ж.к. Меден рудник, бл. 187","addr:country":"BG","name":"Бургас  Меден рудник","phone":"+359 56 857 911;+359 56 857 912","opening_hours":"Mo-Fr 08:30-17:00","brand":"ОББ","brand:wikidata":"Q7887555"},"coordinates":[42.4647752,27.4211804]},"tags_mismatch":false,"dist":0},{"osm":false,"atp":{"id":"MfGSymIuW273eAs6-35XhBqD0aE=","tags":{"ref":"4422","amenity":"bank","full_name:bg":"Обединена българска банка","full_name:en":"United Bulgarian Bank","addr:full":"ул. Цар Освободител №17","addr:country":"BG","name":"Айтос","phone":"+359 55 829 511;+359 55 829 518","opening_hours":"Mo-Fr 08:30-17:00","brand":"ОББ","brand:wikidata":"Q7887555"},"coordinates":[42.70387264333918,27.252130601119234]},"tags_mismatch":false,"dist":0},{"osm":false,"atp":false,"tags_mismatch":false,"dist":0},{"osm":false,"atp":false,"tags_mismatch":false,"dist":0},{"osm":false,"atp":{"id":"5qGpb5sVfaDPjhj7onNJrcsMtgw=","tags":{"ref":"4429","amenity":"bank","full_name:bg":"Обединена българска банка","full_name:en":"United Bulgarian Bank","addr:full":"ул. Жорж Папазов 20","addr:country":"BG","name":"Ямбол","phone":"+359 46 683 462;+359 46 683 464","opening_hours":"Mo-Fr 08:30-17:00","brand":"ОББ","brand:wikidata":"Q7887555"},"coordinates":[42.4871760345963,26.505350748410013]},"tags_mismatch":false,"dist":0},{"osm":false,"atp":{"id":"2dC7qEF4W_v9MfY4dli1n9cZSCQ=","tags":{"ref":"4430","amenity":"bank","full_name:bg":"Обединена българска банка","full_name:en":"United Bulgarian Bank","addr:full":"ул. Цар Шишман 7","addr:country":"BG","name":"Пазарджик 1/ Цар Шишман","phone":"+359 34 403 010;+359 34 403 012","opening_hours":"Mo-Fr 08:30-17:00","brand":"ОББ","brand:wikidata":"Q7887555"},"coordinates":[42.1877283,24.3338634]},"tags_mismatch":false,"dist":0},{"osm":false,"atp":false,"tags_mismatch":false,"dist":0},{"osm":false,"atp":{"id":"PAD_H5lbWK7XFo_J7FqvoolXb7Y=","tags":{"ref":"4436","amenity":"bank","full_name:bg":"Обединена българска банка","full_name:en":"United Bulgarian Bank","addr:full":"пл. „20-ти юли“ 1","addr:country":"BG","name":"Карлово","phone":"+359 33 590 432","opening_hours":"Mo-Fr 08:30-13:00,13:30-17:00","brand":"ОББ","brand:wikidata":"Q7887555"},"coordinates":[42.64338124541382,24.807102179237404]},"tags_mismatch":false,"dist":0},{"osm":false,"atp":false,"tags_mismatch":false,"dist":0},{"osm":false,"atp":{"id":"oNqDR-FxxJFpdj_1lMO8ogEXwqA=","tags":{"ref":"4439","amenity":"bank","full_name:bg":"Обединена българска банка","full_name:en":"United Bulgarian Bank","addr:full":"бул. Македония 63","addr:country":"BG","name":"Пловдив 9/ Кючук Париж","phone":"+359 32 202 255;+359 32 202 254","opening_hours":"Mo-Fr 08:30-17:00","brand":"ОББ","brand:wikidata":"Q7887555"},"coordinates":[42.12626609999999,24.7421849]},"tags_mismatch":false,"dist":0},{"osm":false,"atp":false,"tags_mismatch":false,"dist":0},{"osm":false,"atp":{"id":"GAOdSzQodjtcrSZDGycGxVcVoeE=","tags":{"ref":"4446","amenity":"bank","full_name:bg":"Обединена българска банка","full_name:en":"United Bulgarian Bank","addr:full":"бул. България 1","addr:country":"BG","name":"Харманли","phone":"+359 37 380 012;+359 37 380 013","opening_hours":"Mo-Fr 08:30-13:00,13:30-17:00","brand":"ОББ","brand:wikidata":"Q7887555"},"coordinates":[41.93111420092487,25.902768540475485]},"tags_mismatch":false,"dist":0},{"osm":false,"atp":false,"tags_mismatch":false,"dist":0},{"osm":false,"atp":false,"tags_mismatch":false,"dist":0},{"osm":false,"atp":false,"tags_mismatch":false,"dist":0},{"osm":false,"atp":false,"tags_mismatch":false,"dist":0}]}