{"metadata":{"type":"brand","wikidata":"Q24315","name":"Петрол","compare_keys":false},"data":[{"osm":false,"atp":{"id":"QStZw6bWzt7IQB_fRxaFq7_RJaY=","tags":{"ref":"0107-charging-station","amenity":"charging_station","addr:street_address":"гл. път Е79</br>преди ГКПП","addr:city":"Кулата","addr:country":"BG","brand:wikidata":"Q24315"},"coordinates":[41.38417,23.36167]},"tags_mismatch":false,"dist":0},{"osm":false,"atp":{"id":"BAhglgenyCGjX4yl65aE1WC0d6k=","tags":{"ref":"2130-charging-station","amenity":"charging_station","addr:street_address":"бул. Владислав Варненчик №256","addr:city":"Варна","addr:country":"BG","brand:wikidata":"Q24315"},"coordinates":[43.22206,27.87545]},"tags_mismatch":false,"dist":0},{"osm":false,"atp":{"id":"zMpIWYEnm7ufA5xdgkpnjlT0K4k=","tags":{"ref":"5211-charging-station","amenity":"charging_station","addr:street_address":"ул. Хр. Ботев №41","addr:city":"Велинград","addr:country":"BG","brand:wikidata":"Q24315"},"coordinates":[42.0288,23.9971]},"tags_mismatch":false,"dist":0},{"osm":false,"atp":{"id":"jd-_bE7GAXMhlg8jYmE8TLwcbUU=","tags":{"ref":"5216-charging-station","amenity":"charging_station","addr:street_address":"а-м Тракия","addr:city":"Церово","addr:country":"BG","brand:wikidata":"Q24315"},"coordinates":[42.3364,24.08014]},"tags_mismatch":false,"dist":0},{"osm":false,"atp":{"id":"0DvohXcPK4fsR6WPH9_nfW8znx4=","tags":{"ref":"7116-charging-station","amenity":"charging_station","addr:street_address":"а-м Тракия, м-ст Мацаница</br>мотел Изток","addr:city":"София","addr:country":"BG","brand:wikidata":"Q24315"},"coordinates":[42.63239,23.45879]},"tags_mismatch":false,"dist":0},{"osm":false,"atp":{"id":"W01CQ11_ggp861vw_Vq7RVUJpak=","tags":{"ref":"7231-charging-station","amenity":"charging_station","addr:street_address":"а-м Хемус</br>км. 5+540, дясно","addr:city":"Гара Яна","addr:country":"BG","brand:wikidata":"Q24315"},"coordinates":[42.73435,23.61069]},"tags_mismatch":false,"dist":0},{"osm":false,"atp":{"id":"1F1dUbkDh4PbdXtdBzOD0jxypo8=","tags":{"ref":"7311-charging-station","amenity":"charging_station","addr:street_address":"гл. път Е79</br>Перник – София","addr:city":"Драгичево","addr:country":"BG","brand:wikidata":"Q24315"},"coordinates":[42.60095,23.1306]},"tags_mismatch":false,"dist":0},{"osm":false,"atp":{"id":"Ejp-VwpPYgqVKaXFfqEYQVAwppk=","tags":{"ref":"8143-charging-station","amenity":"charging_station","addr:street_address":"АМ Тракия - 162 км</br>посока Бургас","addr:city":"Оризово","addr:country":"BG","brand:wikidata":"Q24315"},"coordinates":[42.19355,25.156968]},"tags_mismatch":false,"dist":0}]}