{"metadata":{"name":"Shell","key":"amenity","value":"fuel","compare_keys":["phone","opening_hours","car_wash","vacuum_cleaner","fuel:*","atm"]},"data":[{"osm":{"type":"node","id":254476721,"tags":{"amenity":"fuel","brand":"Shell","brand:wikidata":"Q110716465","check_date":"2025-01-29","compressed_air":"yes","fuel:diesel":"yes","fuel:lpg":"yes","fuel:octane_100":"yes","fuel:octane_95":"yes","internet_access":"wlan","internet_access:fee":"customers","opening_hours":"24/7","payment:mastercard":"yes","payment:visa":"yes","source":"survey","website":"https://find.shell.com/bg/fuel/10032130-3007-sofia-boyana","wheelchair":"yes"},"wikidata":"Q110716465","coordinates":[42.6505152,23.2898567]},"atp":{"id":"Tj2jut34Hh1g2u1crWQf30Cj9sw=","tags":{"ref":"10032130","amenity":"fuel","shop":"yes","toilets":"yes","compressed_air":"yes","internet_access":"wlan","hgv":"yes","fuel:diesel":"yes","fuel:adblue":"yes","fuel:HGV_diesel":"yes","fuel:lpg":"yes","fuel:octane_95":"yes","fuel:octane_98":"yes","fuel:octane_100":"yes","@source_uri":"https://shellgsllocator.geoapp.me/api/v2/locations/nearest_to?lat=42.658676&lng=23.381674&limit=50","@spider":"shell","addr:street_address":"SOFIA RING ROAD, KM 49+650 BOYANA","addr:city":"SOFIA","addr:state":"Sofia- Grad","addr:postcode":"1616","addr:country":"BG","phone":"+359 88 244 7669","website":"https://find.shell.com/bg/fuel/10032130-3007-sofia-boyana","opening_hours":"24/7","brand":"Shell","brand:wikidata":"Q110716465","nsi_id":"shell-e657ec"},"coordinates":[42.650591,23.289859]},"dist":8.431,"tags_mismatch":true},{"osm":{"type":"node","id":254476750,"tags":{"amenity":"fuel","brand":"Shell","brand:wikidata":"Q110716465","check_date":"2024-10-20","compressed_air":"yes","opening_hours":"24/7","wheelchair":"yes"},"wikidata":"Q110716465","coordinates":[42.6600222,23.3479848]},"atp":{"id":"SNaXoWMH6PU_jZqAHBwsde8wxis=","tags":{"ref":"10032159","amenity":"fuel","shop":"yes","toilets":"yes","compressed_air":"yes","internet_access":"wlan","fuel:diesel":"yes","fuel:adblue":"yes","fuel:lpg":"yes","fuel:octane_95":"yes","fuel:octane_98":"yes","fuel:octane_100":"yes","@source_uri":"https://shellgsllocator.geoapp.me/api/v2/locations/nearest_to?lat=42.658676&lng=23.381674&limit=50","@spider":"shell","addr:street_address":"BULD GM DIMITROV","addr:city":"SOFIA","addr:state":"Sofia- Grad","addr:postcode":"1172","addr:country":"BG","phone":"+359 89 845 9442","website":"https://find.shell.com/bg/fuel/10032159-3036-sofia-dianabad","opening_hours":"24/7","brand":"Shell","brand:wikidata":"Q110716465","nsi_id":"shell-e657ec"},"coordinates":[42.660057,23.347992]},"dist":3.914,"tags_mismatch":true},{"osm":{"type":"node","id":254476758,"tags":{"amenity":"fuel","brand":"Shell","brand:wikidata":"Q110716465","fuel:diesel":"yes","fuel:lpg":"yes","fuel:octane_95":"yes","fuel:octane_98":"yes","wheelchair":"yes"},"wikidata":"Q110716465","coordinates":[42.7051361,23.3111521]},"atp":{"id":"rZz7HmMTB1TjoTUJG0r3SoHFvcg=","tags":{"ref":"12062438","amenity":"fuel","shop":"yes","toilets":"yes","compressed_air":"yes","internet_access":"wlan","fuel:diesel":"yes","fuel:adblue":"yes","fuel:lpg":"yes","fuel:octane_95":"yes","fuel:octane_98":"yes","fuel:octane_100":"yes","@source_uri":"https://shellgsllocator.geoapp.me/api/v2/locations/nearest_to?lat=42.658676&lng=23.381674&limit=50","@spider":"shell","addr:street_address":"OPALCHENSKA BLVD","addr:city":"SOFIA","addr:state":"Sofia- Grad","addr:postcode":"1303","addr:country":"BG","phone":"+359 89 268 4666","website":"https://find.shell.com/bg/fuel/12062438-5005-shell-opalchenska","opening_hours":"24/7","brand":"Shell","brand:wikidata":"Q110716465","nsi_id":"shell-e657ec"},"coordinates":[42.705161,23.311175]},"dist":3.342,"tags_mismatch":true},{"osm":{"type":"node","id":254476759,"tags":{"amenity":"fuel","brand":"Shell","brand:wikidata":"Q110716465","compressed_air":"yes","opening_hours":"24/7","toilets":"yes"},"wikidata":"Q110716465","coordinates":[42.709059,23.368417]},"atp":{"id":"V6rV7yWynnqw2JJGE45Ozo_s7hY=","tags":{"ref":"10032179","amenity":"fuel","shop":"yes","toilets":"yes","car_wash":"yes","compressed_air":"yes","internet_access":"wlan","fuel:diesel":"yes","fuel:adblue":"yes","fuel:lpg":"yes","fuel:octane_95":"yes","fuel:octane_98":"yes","fuel:octane_100":"yes","@source_uri":"https://shellgsllocator.geoapp.me/api/v2/locations/nearest_to?lat=42.658676&lng=23.381674&limit=50","@spider":"shell","addr:street_address":"VLADIMIR VAZOV BLVD 15A","addr:city":"SOFIA","addr:state":"Sofia- Grad","addr:postcode":"1517","addr:country":"BG","phone":"+359 89 349 0259","website":"https://find.shell.com/bg/fuel/10032179-6012-sofia-gerena","opening_hours":"24/7","brand":"Shell","brand:wikidata":"Q110716465","nsi_id":"shell-e657ec"},"coordinates":[42.709166,23.36829]},"dist":15.787,"tags_mismatch":true},{"osm":{"type":"node","id":254476762,"tags":{"amenity":"fuel","brand":"Shell","brand:wikidata":"Q110716465","check_date":"2022-10-23","compressed_air":"yes","opening_hours":"24/7"},"wikidata":"Q110716465","coordinates":[42.6388665,23.3208139]},"atp":{"id":"LLunjhsvS9iDQgoTvKe664PCgWk=","tags":{"ref":"10032120","amenity":"fuel","shop":"yes","toilets":"yes","car_wash":"yes","compressed_air":"yes","internet_access":"wlan","hgv":"yes","fuel:diesel":"yes","fuel:adblue":"yes","fuel:HGV_diesel":"yes","fuel:lpg":"yes","fuel:octane_95":"yes","fuel:octane_98":"yes","fuel:octane_100":"yes","@source_uri":"https://shellgsllocator.geoapp.me/api/v2/locations/nearest_to?lat=42.658676&lng=23.381674&limit=50","@spider":"shell","addr:street_address":"SOFIA RING ROAD SIMEONOVO KM46+717","addr:city":"SOFIA","addr:state":"Sofia- Grad","addr:postcode":"1434","addr:country":"BG","phone":"+359 2 962 5247","website":"https://find.shell.com/bg/fuel/10032120-2008-sofia-simeonovo","opening_hours":"24/7","brand":"Shell","brand:wikidata":"Q110716465","nsi_id":"shell-e657ec"},"coordinates":[42.638923,23.320799]},"dist":6.4,"tags_mismatch":true},{"osm":{"type":"node","id":254476851,"tags":{"addr:street":"Петър Протич","amenity":"fuel","brand":"Shell","brand:wikidata":"Q110716465","check_date":"2024-01-13","compressed_air":"yes","fuel:diesel":"yes","fuel:lpg":"yes","fuel:octane_100":"yes","fuel:octane_95":"yes","opening_hours":"24/7","payment:cash":"yes","payment:credit_cards":"yes","payment:debit_cards":"yes","self_service":"no","wheelchair":"yes"},"wikidata":"Q110716465","coordinates":[42.6619019,23.3796224]},"atp":{"id":"yHlnIf7nX7jjMNVcs1S8d2R2GTE=","tags":{"ref":"10032145","amenity":"fuel","shop":"yes","toilets":"yes","compressed_air":"yes","internet_access":"wlan","fuel:diesel":"yes","fuel:adblue":"yes","fuel:lpg":"yes","fuel:octane_95":"yes","fuel:octane_98":"yes","fuel:octane_100":"yes","@source_uri":"https://shellgsllocator.geoapp.me/api/v2/locations/nearest_to?lat=42.658676&lng=23.381674&limit=50","@spider":"shell","addr:street_address":"TZARIGRADSKO SHAUSSE, SOFIA PRE 113","addr:city":"SOFIA","addr:state":"Sofia- Grad","addr:postcode":"1750","addr:country":"BG","phone":"+359 88 456 5311","website":"https://find.shell.com/bg/fuel/10032145-3022-sofia-sredetz","opening_hours":"24/7","brand":"Shell","brand:wikidata":"Q110716465","nsi_id":"shell-e657ec"},"coordinates":[42.661906,23.379608]},"dist":1.263,"tags_mismatch":true},{"osm":{"type":"node","id":254476863,"tags":{"amenity":"fuel","brand":"Shell","brand:wikidata":"Q110716465"},"wikidata":"Q110716465","coordinates":[42.6693502,23.3924566]},"atp":{"id":"8aObju5MBDoIKXGpULTNXnIvPsI=","tags":{"ref":"10032156","amenity":"fuel","shop":"yes","toilets":"yes","car_wash":"yes","compressed_air":"yes","internet_access":"wlan","fuel:diesel":"yes","fuel:adblue":"yes","fuel:lpg":"yes","fuel:octane_95":"yes","fuel:octane_98":"yes","fuel:octane_100":"yes","@source_uri":"https://shellgsllocator.geoapp.me/api/v2/locations/nearest_to?lat=42.658676&lng=23.381674&limit=50","@spider":"shell","addr:street_address":"BLVD HRISTOFOR COLUMB","addr:city":"SOFIA","addr:state":"Sofia- Grad","addr:postcode":"1592","addr:country":"BG","phone":"+359 88 935 5340","website":"https://find.shell.com/bg/fuel/10032156-3033-sofia-drujba","opening_hours":"24/7","brand":"Shell","brand:wikidata":"Q110716465","nsi_id":"shell-e657ec"},"coordinates":[42.66934,23.392438]},"dist":1.897,"tags_mismatch":true},{"osm":{"type":"node","id":254476885,"tags":{"amenity":"fuel","brand":"Shell","brand:wikidata":"Q110716465","fuel:adblue":"yes","fuel:diesel":"yes","fuel:lpg":"yes","fuel:octane_100":"yes","fuel:octane_95":"yes","fuel:octane_98":"yes","opening_hours":"24/7","phone":"+359 88 589 9662"},"wikidata":"Q110716465","coordinates":[42.7142738,23.3279417]},"atp":{"id":"DSZ7sIMVflXSgCy-rPGjDlb4q4Y=","tags":{"ref":"10032166","amenity":"fuel","shop":"yes","toilets":"yes","compressed_air":"yes","internet_access":"wlan","fuel:diesel":"yes","fuel:adblue":"yes","fuel:lpg":"yes","fuel:octane_95":"yes","fuel:octane_98":"yes","fuel:octane_100":"yes","@source_uri":"https://shellgsllocator.geoapp.me/api/v2/locations/nearest_to?lat=42.658676&lng=23.381674&limit=50","@spider":"shell","addr:street_address":"202 STR 4","addr:city":"SOFIA","addr:state":"Sofia- Grad","addr:postcode":"1220","addr:country":"BG","phone":"+359 88 589 9662","website":"https://find.shell.com/bg/fuel/10032166-5003-sofia-nadezda","opening_hours":"24/7","brand":"Shell","brand:wikidata":"Q110716465","nsi_id":"shell-e657ec"},"coordinates":[42.714271,23.327936]},"dist":0.56,"tags_mismatch":false},{"osm":{"type":"node","id":269999179,"tags":{"amenity":"fuel","brand":"Shell","brand:wikidata":"Q110716465","check_date":"2024-12-22","internet_access":"wlan","internet_access:fee":"customers","opening_hours":"24/7","payment:cash":"yes","payment:credit_cards":"yes","payment:debit_cards":"yes","wheelchair":"yes"},"wikidata":"Q110716465","coordinates":[42.7069757,23.4573364]},"atp":{"id":"ga5DXfLwEQToQOuiluQ-zu7sims=","tags":{"ref":"10032142","amenity":"fuel","shop":"yes","toilets":"yes","compressed_air":"yes","internet_access":"wlan","hgv":"yes","fuel:diesel":"yes","fuel:adblue":"yes","fuel:HGV_diesel":"yes","fuel:lpg":"yes","fuel:octane_95":"yes","fuel:octane_98":"yes","fuel:octane_100":"yes","@source_uri":"https://shellgsllocator.geoapp.me/api/v2/locations/nearest_to?lat=42.658676&lng=23.381674&limit=50","@spider":"shell","addr:street_address":"I-1, KM 246.0 LEFT","addr:city":"SOFIA","addr:state":"Sofia- Grad","addr:postcode":"1839","addr:country":"BG","phone":"+359 87 895 1839","website":"https://find.shell.com/bg/fuel/10032142-3019-sofia-hemus","opening_hours":"24/7","brand":"Shell","brand:wikidata":"Q110716465","nsi_id":"shell-e657ec"},"coordinates":[42.707002,23.457357]},"dist":3.374,"tags_mismatch":true},{"osm":{"type":"node","id":276707213,"tags":{"amenity":"fuel","brand":"Shell","brand:wikidata":"Q110716465","fuel:adblue":"yes","fuel:diesel":"yes","fuel:lpg":"yes","fuel:octane_100":"yes","fuel:octane_95":"yes","fuel:octane_98":"yes","opening_hours":"24/7","phone":"+359 87 998 6412"},"wikidata":"Q110716465","coordinates":[43.5215274,26.5346975]},"atp":{"id":"c-HhF3slO6hzOEJTxww32ayIAjg=","tags":{"ref":"10032127","amenity":"fuel","shop":"yes","toilets":"yes","compressed_air":"yes","internet_access":"wlan","fuel:diesel":"yes","fuel:adblue":"yes","fuel:lpg":"yes","fuel:octane_95":"yes","fuel:octane_98":"yes","fuel:octane_100":"yes","@source_uri":"https://shellgsllocator.geoapp.me/api/v2/locations/nearest_to?lat=42.489464&lng=26.499871&limit=50","@spider":"shell","addr:street_address":"APRILSKO VASTANIE BLVD","addr:city":"RAZGRAD","addr:state":"Razgrad","addr:postcode":"7200","addr:country":"BG","phone":"+359 87 998 6412","website":"https://find.shell.com/bg/fuel/10032127-3004-razgrad","opening_hours":"24/7","brand":"Shell","brand:wikidata":"Q110716465","nsi_id":"shell-e657ec"},"coordinates":[43.521601,26.534543]},"dist":14.905,"tags_mismatch":false},{"osm":{"type":"node","id":276707224,"tags":{"amenity":"fuel","brand":"Shell","brand:wikidata":"Q110716465","fuel:HGV_diesel":"yes","fuel:diesel":"yes","fuel:octane_100":"yes","fuel:octane_95":"yes","fuel:octane_98":"yes","opening_hours":"24/7","phone":"+359 54 800 440"},"wikidata":"Q110716465","coordinates":[43.3149901,26.923008]},"atp":{"id":"CwECDmytIR8Iuacf0rvIP3Z7S6g=","tags":{"ref":"13050810","amenity":"fuel","shop":"yes","compressed_air":"yes","internet_access":"wlan","hgv":"yes","fuel:diesel":"yes","fuel:HGV_diesel":"yes","fuel:octane_95":"yes","fuel:octane_98":"yes","fuel:octane_100":"yes","payment:shell":"yes","@source_uri":"https://shellgsllocator.geoapp.me/api/v2/locations/nearest_to?lat=42.489464&lng=26.499871&limit=50","@spider":"shell","addr:street_address":"ROAD I 2, KM 112 737 RIGHT","addr:city":"SHUMEN","addr:state":"Shumen","addr:postcode":"9700","addr:country":"BG","phone":"+359 54 800 440","website":"https://find.shell.com/bg/fuel/13050810-1058-shell-shumen-7-km","opening_hours":"24/7","brand":"Shell","brand:wikidata":"Q110716465","nsi_id":"shell-e657ec"},"coordinates":[43.315028,26.922989]},"dist":4.486,"tags_mismatch":false},{"osm":{"type":"node","id":277313390,"tags":{"addr:city":"Ямбол","addr:postcode":"8600","addr:street":"Димитър Благоев","amenity":"fuel","brand":"Shell","brand:wikidata":"Q110716465","opening_hours":"24/7"},"wikidata":"Q110716465","coordinates":[42.4894537,26.4999443]},"atp":{"id":"OuKjL6IDfHh84F-1IReWMPLxLxE=","tags":{"ref":"10032135","amenity":"fuel","shop":"yes","toilets":"yes","compressed_air":"yes","internet_access":"wlan","fuel:diesel":"yes","fuel:adblue":"yes","fuel:lpg":"yes","fuel:octane_95":"yes","fuel:octane_98":"yes","fuel:octane_100":"yes","@source_uri":"https://shellgsllocator.geoapp.me/api/v2/locations/nearest_to?lat=42.489464&lng=26.499871&limit=50","@spider":"shell","addr:street_address":"DIMITAR BLAGOEV STR 16","addr:city":"YAMBOL","addr:state":"Yambol","addr:postcode":"8600","addr:country":"BG","phone":"+359 46 661 047","website":"https://find.shell.com/bg/fuel/10032135-3012-yambol","brand":"Shell","brand:wikidata":"Q110716465","nsi_id":"shell-e657ec"},"coordinates":[42.489464,26.499871]},"dist":6.118,"tags_mismatch":true},{"osm":{"type":"node","id":279111899,"tags":{"amenity":"fuel","brand":"Shell","brand:wikidata":"Q110716465"},"wikidata":"Q110716465","coordinates":[43.3003374,27.2265306]},"atp":{"id":"fsvC8nDa04TvMN0JVcnaVaHasgA=","tags":{"ref":"10032193","amenity":"fuel","shop":"yes","fuel:electricity":"yes","toilets":"yes","compressed_air":"yes","internet_access":"wlan","hgv":"yes","fuel:diesel":"yes","fuel:adblue":"yes","fuel:HGV_diesel":"yes","fuel:lpg":"yes","fuel:octane_95":"yes","fuel:octane_98":"yes","fuel:octane_100":"yes","@source_uri":"https://shellgsllocator.geoapp.me/api/v2/locations/nearest_to?lat=42.489464&lng=26.499871&limit=50","@spider":"shell","addr:street_address":"AM-2/KM 366+300 LEFT","addr:city":"ENEVO","addr:state":"Shumen","addr:postcode":"9919","addr:country":"BG","phone":"+359 88 522 8803","website":"https://find.shell.com/bg/fuel/10032193-9012-enevo-north","opening_hours":"24/7","brand":"Shell","brand:wikidata":"Q110716465","nsi_id":"shell-e657ec"},"coordinates":[43.300259,27.226478]},"dist":9.701,"tags_mismatch":true},{"osm":{"type":"node","id":279111903,"tags":{"amenity":"fuel","brand":"Shell","brand:wikidata":"Q110716465"},"wikidata":"Q110716465","coordinates":[43.2970781,27.2290377]},"atp":false,"tags_mismatch":false},{"osm":{"type":"node","id":293325358,"tags":{"amenity":"fuel","brand":"Shell","brand:wikidata":"Q110716465","check_date":"2024-02-25","fuel:diesel":"yes","fuel:lpg":"yes","fuel:octane_95":"yes","opening_hours":"24/7","payment:cash":"yes","payment:credit_cards":"yes","payment:debit_cards":"yes","wheelchair":"yes"},"wikidata":"Q110716465","coordinates":[42.3550046,23.5480389]},"atp":{"id":"ZsrJceY7mkEgWRl6FzWe0bTc50E=","tags":{"ref":"10051880","amenity":"fuel","shop":"yes","toilets":"yes","compressed_air":"yes","fuel:diesel":"yes","fuel:lpg":"yes","fuel:octane_95":"yes","fuel:octane_98":"yes","fuel:octane_100":"yes","@source_uri":"https://shellgsllocator.geoapp.me/api/v2/locations/nearest_to?lat=42.658676&lng=23.381674&limit=50","@spider":"shell","addr:street_address":"GLAVEN PAT SAMOKOV-SOFIA","addr:city":"SAMOKOV","addr:state":"Sofia- Oblast","addr:postcode":"2000","addr:country":"BG","phone":"+359 88 534 3212","website":"https://find.shell.com/bg/fuel/10051880-1024-samokov","opening_hours":"24/7","brand":"Shell","brand:wikidata":"Q110716465","nsi_id":"shell-e657ec"},"coordinates":[42.354972,23.548008]},"dist":4.426,"tags_mismatch":true},{"osm":{"type":"node","id":349325181,"tags":{"amenity":"fuel","brand":"Shell","brand:wikidata":"Q110716465"},"wikidata":"Q110716465","coordinates":[42.6646623,27.7014966]},"atp":{"id":"ch26u3UJpUR_QtKQQAD0pnMrATE=","tags":{"ref":"12837134","amenity":"fuel","shop":"yes","toilets":"yes","wheelchair":"yes","compressed_air":"yes","internet_access":"wlan","hgv":"yes","fuel:diesel":"yes","fuel:adblue":"yes","fuel:HGV_diesel":"yes","fuel:lpg":"yes","fuel:octane_95":"yes","fuel:octane_98":"yes","fuel:octane_100":"yes","payment:shell":"yes","payment:dkv":"yes","@source_uri":"https://shellgsllocator.geoapp.me/api/v2/locations/nearest_to?lat=42.489464&lng=26.499871&limit=50","@spider":"shell","addr:street_address":"NESSEBAR STR 1","addr:city":"NESSEBAR","addr:state":"Burgas","addr:postcode":"8230","addr:country":"BG","phone":"+359 55 719 204","website":"https://find.shell.com/bg/fuel/12837134-5009-shell-nessebar-town","opening_hours":"24/7","brand":"Shell","brand:wikidata":"Q110716465","nsi_id":"shell-e657ec"},"coordinates":[42.664641,27.701242]},"dist":20.952,"tags_mismatch":true},{"osm":{"type":"node","id":529044274,"tags":{"amenity":"fuel","brand":"Shell","brand:wikidata":"Q110716465","check_date":"2024-11-16","fuel:cng":"yes","fuel:diesel":"yes","fuel:octane_95":"yes","internet_access":"wlan","internet_access:fee":"customers","key":"Shell","opening_hours":"24/7","payment:cash":"yes","payment:credit_cards":"yes","payment:debit_cards":"yes","phone":"+359 87 916 9082","wheelchair":"yes"},"wikidata":"Q110716465","coordinates":[43.4186175,24.6092082]},"atp":{"id":"PTlEYiLqQS38H5MEyqEeo5T3OGM=","tags":{"ref":"10032148","amenity":"fuel","shop":"yes","toilets":"yes","compressed_air":"yes","internet_access":"wlan","hgv":"yes","fuel:diesel":"yes","fuel:adblue":"yes","fuel:HGV_diesel":"yes","fuel:lpg":"yes","fuel:octane_95":"yes","fuel:octane_98":"yes","fuel:octane_100":"yes","@source_uri":"https://shellgsllocator.geoapp.me/api/v2/locations/nearest_to?lat=42.633194&lng=25.192134&limit=50","@spider":"shell","addr:street_address":"ROUNDABOUT","addr:city":"PLEVEN","addr:state":"Pleven","addr:postcode":"5800","addr:country":"BG","phone":"+359 87 916 9082","website":"https://find.shell.com/bg/fuel/10032148-3025-pleven-centre","opening_hours":"24/7","brand":"Shell","brand:wikidata":"Q110716465","nsi_id":"shell-e657ec"},"coordinates":[43.418713,24.60919]},"dist":10.72,"tags_mismatch":true},{"osm":{"type":"node","id":534640757,"tags":{"amenity":"fuel","brand":"Shell","brand:wikidata":"Q110716465","compressed_air":"yes","opening_hours":"24/7"},"wikidata":"Q110716465","coordinates":[43.2275818,27.8782718]},"atp":{"id":"2j-zA67gHYWXF6N5yQQ2w24OXQw=","tags":{"ref":"10032155","amenity":"fuel","shop":"yes","toilets":"yes","compressed_air":"yes","internet_access":"wlan","fuel:diesel":"yes","fuel:adblue":"yes","fuel:lpg":"yes","fuel:octane_95":"yes","fuel:octane_98":"yes","fuel:octane_100":"yes","@source_uri":"https://shellgsllocator.geoapp.me/api/v2/locations/nearest_to?lat=43.876183&lng=26.017556&limit=50","@spider":"shell","addr:street_address":"BULD SLIVNITZA X BULD REPUBLIKA","addr:city":"VARNA","addr:state":"Varna","addr:postcode":"9009","addr:country":"BG","phone":"+359 88 932 2268","website":"https://find.shell.com/bg/fuel/10032155-3032-varna-republika","opening_hours":"24/7","brand":"Shell","brand:wikidata":"Q110716465","nsi_id":"shell-e657ec"},"coordinates":[43.227629,27.878491]},"dist":18.519,"tags_mismatch":true},{"osm":{"type":"node","id":566577338,"tags":{"amenity":"fuel","brand":"Shell","brand:wikidata":"Q110716465","name:ro":"Shell"},"wikidata":"Q110716465","coordinates":[43.5716738,27.814191]},"atp":{"id":"qVsQpKkeUQc2u_9EGmR_b3Qq6-4=","tags":{"ref":"10032134","amenity":"fuel","shop":"yes","toilets":"yes","compressed_air":"yes","internet_access":"wlan","hgv":"yes","fuel:diesel":"yes","fuel:adblue":"yes","fuel:HGV_diesel":"yes","fuel:lpg":"yes","fuel:octane_95":"yes","fuel:octane_98":"yes","fuel:octane_100":"yes","@source_uri":"https://shellgsllocator.geoapp.me/api/v2/locations/nearest_to?lat=43.876183&lng=26.017556&limit=50","@spider":"shell","addr:street_address":"KHAN TERVEL STR 92","addr:city":"DOBRICH","addr:state":"Dobrich","addr:postcode":"9300","addr:country":"BG","phone":"+359 88 710 0535","website":"https://find.shell.com/bg/fuel/10032134-3011-dobrich","opening_hours":"24/7","brand":"Shell","brand:wikidata":"Q110716465","nsi_id":"shell-e657ec"},"coordinates":[43.57172,27.81414]},"dist":6.578,"tags_mismatch":true},{"osm":{"type":"node","id":577529106,"tags":{"amenity":"fuel","brand":"Shell","brand:wikidata":"Q110716465"},"wikidata":"Q110716465","coordinates":[42.7049254,27.2343569]},"atp":{"id":"cYCDMlDhddKLqb5fgc8ReADuKoo=","tags":{"ref":"10032116","amenity":"fuel","shop":"yes","toilets":"yes","compressed_air":"yes","internet_access":"wlan","hgv":"yes","fuel:diesel":"yes","fuel:adblue":"yes","fuel:HGV_diesel":"yes","fuel:lpg":"yes","fuel:octane_95":"yes","fuel:octane_98":"yes","fuel:octane_100":"yes","@source_uri":"https://shellgsllocator.geoapp.me/api/v2/locations/nearest_to?lat=42.489464&lng=26.499871&limit=50","@spider":"shell","addr:street_address":"I-6/E773 ROAD","addr:city":"AYTOS","addr:state":"Burgas","addr:postcode":"8500","addr:country":"BG","phone":"+359 55 822 556","website":"https://find.shell.com/bg/fuel/10032116-2004-aitos","opening_hours":"24/7","brand":"Shell","brand:wikidata":"Q110716465","nsi_id":"shell-e657ec"},"coordinates":[42.705009,27.234329]},"dist":9.571,"tags_mismatch":true},{"osm":{"type":"node","id":577539486,"tags":{"addr:city":"Пловдив","addr:postcode":"4000","amenity":"fuel","brand":"Shell","brand:wikidata":"Q110716465","fuel:diesel":"yes","fuel:lpg":"yes","fuel:octane_100":"yes","fuel:octane_95":"yes","fuel:octane_98":"yes","opening_hours":"24/7","phone":"+359 88 433 1793"},"wikidata":"Q110716465","coordinates":[42.154828,24.7307164]},"atp":{"id":"mpxa5rRN_lo6iSu8H5ryGlJXtH4=","tags":{"ref":"13044077","amenity":"fuel","shop":"yes","wheelchair":"yes","compressed_air":"yes","internet_access":"wlan","fuel:diesel":"yes","fuel:lpg":"yes","fuel:octane_95":"yes","fuel:octane_98":"yes","fuel:octane_100":"yes","payment:shell":"yes","payment:dkv":"yes","@source_uri":"https://shellgsllocator.geoapp.me/api/v2/locations/nearest_to?lat=42.633194&lng=25.192134&limit=50","@spider":"shell","addr:street_address":"VASIL APRILOV BLVD. 95A","addr:city":"PLOVIDV","addr:state":"Plovdiv","addr:postcode":"4027","addr:country":"BG","phone":"+359 88 577 0887","website":"https://find.shell.com/bg/fuel/13044077-3042-shell-vasil-aprilov","opening_hours":"24/7","brand":"Shell","brand:wikidata":"Q110716465","nsi_id":"shell-e657ec"},"coordinates":[42.154828,24.730868]},"dist":12.497,"tags_mismatch":true},{"osm":{"type":"node","id":888887513,"tags":{"amenity":"fuel","brand":"Shell","brand:wikidata":"Q110716465","fuel:adblue":"yes","fuel:diesel":"yes","fuel:lpg":"yes","fuel:octane_95":"yes","fuel:octane_98":"yes","opening_hours":"24/7","phone":"+359 88 973 4822"},"wikidata":"Q110716465","coordinates":[42.6319468,24.813878]},"atp":{"id":"G0Q5wTQdsNwx5p6Acd9ylLXQCbA=","tags":{"ref":"12004209","amenity":"fuel","shop":"yes","toilets":"yes","compressed_air":"yes","fuel:diesel":"yes","fuel:adblue":"yes","fuel:lpg":"yes","fuel:octane_95":"yes","fuel:octane_98":"yes","@source_uri":"https://shellgsllocator.geoapp.me/api/v2/locations/nearest_to?lat=42.633194&lng=25.192134&limit=50","@spider":"shell","addr:street_address":"KARLOVO-PLOVDIV ROAD","addr:city":"KARLOVO","addr:state":"Plovdiv","addr:postcode":"4300","addr:country":"BG","phone":"+359 88 771 7779","website":"https://find.shell.com/bg/fuel/12004209-1033-shell-karlovo","opening_hours":"24/7","brand":"Shell","brand:wikidata":"Q110716465","nsi_id":"shell-e657ec"},"coordinates":[42.63163,24.814296]},"dist":49.095,"tags_mismatch":true},{"osm":{"type":"node","id":892738621,"tags":{"amenity":"fuel","brand":"Shell","brand:wikidata":"Q110716465"},"wikidata":"Q110716465","coordinates":[43.4038384,24.6410767]},"atp":{"id":"oepX-hFjRTd_DMt9ECEHmn3CPO4=","tags":{"ref":"10032180","amenity":"fuel","shop":"yes","toilets":"yes","compressed_air":"yes","fuel:diesel":"yes","fuel:adblue":"yes","fuel:lpg":"yes","fuel:octane_95":"yes","fuel:octane_98":"yes","@source_uri":"https://shellgsllocator.geoapp.me/api/v2/locations/nearest_to?lat=42.633194&lng=25.192134&limit=50","@spider":"shell","addr:street_address":"DRUZHBA DISTRICT.","addr:city":"PLEVEN","addr:state":"Pleven","addr:postcode":"5800","addr:country":"BG","phone":"+359 87 916 9083","website":"https://find.shell.com/bg/fuel/10032180-6013-pleven-druzba","opening_hours":"24/7","brand":"Shell","brand:wikidata":"Q110716465","nsi_id":"shell-e657ec"},"coordinates":[43.403859,24.640969]},"dist":8.997,"tags_mismatch":true},{"osm":{"type":"node","id":1082758318,"tags":{"amenity":"fuel","brand":"Shell","brand:wikidata":"Q110716465","fuel:HGV_diesel":"yes","fuel:adblue":"yes","fuel:diesel":"yes","fuel:lpg":"yes","fuel:octane_95":"yes","opening_hours":"24/7","phone":"+359 88 855 6577"},"wikidata":"Q110716465","coordinates":[43.161802,23.6401603]},"atp":{"id":"wRKjagjlmrUERS4fYlPr7UzsSAA=","tags":{"ref":"12791802","amenity":"fuel","shop":"yes","internet_access":"wlan","hgv":"yes","fuel:diesel":"yes","fuel:adblue":"yes","fuel:HGV_diesel":"yes","fuel:lpg":"yes","fuel:octane_95":"yes","payment:shell":"yes","@source_uri":"https://shellgsllocator.geoapp.me/api/v2/locations/nearest_to?lat=42.658676&lng=23.381674&limit=50","@spider":"shell","addr:street_address":"MAIN ROAD 79, VILLAGE RUSKA BELA","addr:city":"VRATSA","addr:state":"Vratza","addr:postcode":"3148","addr:country":"BG","phone":"+359 88 855 6577","website":"https://find.shell.com/bg/fuel/12791802-1053-shell-vratsa","opening_hours":"24/7","brand":"Shell","brand:wikidata":"Q110716465","nsi_id":"shell-e657ec"},"coordinates":[43.16175,23.640261]},"dist":10.007,"tags_mismatch":false},{"osm":{"type":"node","id":1092509116,"tags":{"amenity":"fuel","brand":"Shell","brand:wikidata":"Q110716465","fuel:adblue":"yes","fuel:diesel":"yes","fuel:lpg":"yes","fuel:octane_100":"yes","fuel:octane_95":"yes","fuel:octane_98":"yes","opening_hours":"24/7","phone":"+359 431 650 02"},"wikidata":"Q110716465","coordinates":[42.6184811,25.4052423]},"atp":{"id":"9Nm-ahoTo1cJZ1V9jKBuTi-XqYk=","tags":{"ref":"10032144","amenity":"fuel","shop":"yes","toilets":"yes","compressed_air":"yes","internet_access":"wlan","fuel:diesel":"yes","fuel:adblue":"yes","fuel:lpg":"yes","fuel:octane_95":"yes","fuel:octane_98":"yes","fuel:octane_100":"yes","@source_uri":"https://shellgsllocator.geoapp.me/api/v2/locations/nearest_to?lat=42.489464&lng=26.499871&limit=50","@spider":"shell","addr:street_address":"KNIAZ ALEXANDER BATEMBERG 40.","addr:city":"KAZANLAK","addr:state":"Stara Zagora","addr:postcode":"6100","addr:country":"BG","phone":"+359 431 650 02","website":"https://find.shell.com/bg/fuel/10032144-3021-kazanlak","opening_hours":"24/7","brand":"Shell","brand:wikidata":"Q110716465","nsi_id":"shell-e657ec"},"coordinates":[42.618456,25.4054]},"dist":13.202,"tags_mismatch":false},{"osm":{"type":"node","id":1297305590,"tags":{"amenity":"fuel","brand":"Shell","brand:wikidata":"Q110716465"},"wikidata":"Q110716465","coordinates":[42.9199697,23.8116156]},"atp":{"id":"jEVZloDyDRjT64gCyEsvKVq0tF8=","tags":{"ref":"10032187","amenity":"fuel","shop":"yes","toilets":"yes","compressed_air":"yes","internet_access":"wlan","hgv":"yes","fuel:diesel":"yes","fuel:adblue":"yes","fuel:HGV_diesel":"yes","fuel:octane_95":"yes","fuel:octane_98":"yes","fuel:octane_100":"yes","@source_uri":"https://shellgsllocator.geoapp.me/api/v2/locations/nearest_to?lat=42.633194&lng=25.192134&limit=50","@spider":"shell","addr:street_address":"II-17, KM 2+825 RIGHT","addr:city":"BOTEVGRAD","addr:state":"Sofia- Oblast","addr:postcode":"2140","addr:country":"BG","phone":"+359 72 366 744","website":"https://find.shell.com/bg/fuel/10032187-9006-botevgrad","opening_hours":"24/7","brand":"Shell","brand:wikidata":"Q110716465","nsi_id":"shell-e657ec"},"coordinates":[42.919985,23.811487]},"dist":10.609,"tags_mismatch":true},{"osm":{"type":"node","id":1348214991,"tags":{"amenity":"fuel","brand":"Shell","brand:wikidata":"Q110716465"},"wikidata":"Q110716465","coordinates":[42.0080239,23.0758376]},"atp":{"id":"dsLOkcAwEDs8aVHmvBrunmWATGI=","tags":{"ref":"10032117","amenity":"fuel","shop":"yes","toilets":"yes","compressed_air":"yes","internet_access":"wlan","hgv":"yes","fuel:diesel":"yes","fuel:adblue":"yes","fuel:HGV_diesel":"yes","fuel:lpg":"yes","fuel:octane_95":"yes","fuel:octane_98":"yes","fuel:octane_100":"yes","@source_uri":"https://shellgsllocator.geoapp.me/api/v2/locations/nearest_to?lat=42.658676&lng=23.381674&limit=50","@spider":"shell","addr:street_address":"I-1, KM 367 LEFT","addr:city":"BLAGOEVGRAD","addr:state":"Blagoevgrad","addr:postcode":"2700","addr:country":"BG","phone":"+359 73 880 772","website":"https://find.shell.com/bg/fuel/10032117-2005-blagoevgrad","opening_hours":"24/7","brand":"Shell","brand:wikidata":"Q110716465","nsi_id":"shell-e657ec"},"coordinates":[42.008019,23.075896]},"dist":4.856,"tags_mismatch":true},{"osm":{"type":"node","id":1348214996,"tags":{"amenity":"fuel","brand":"Shell","brand:wikidata":"Q110716465"},"wikidata":"Q110716465","coordinates":[42.5395384,23.1293251]},"atp":{"id":"q3UyDfJzXZXjiO_IpsDfOv3NGRo=","tags":{"ref":"10057123","amenity":"fuel","shop":"yes","fuel:electricity":"yes","toilets":"yes","compressed_air":"yes","internet_access":"wlan","hgv":"yes","fuel:diesel":"yes","fuel:adblue":"yes","fuel:HGV_diesel":"yes","fuel:lpg":"yes","fuel:octane_95":"yes","fuel:octane_98":"yes","fuel:octane_100":"yes","@source_uri":"https://shellgsllocator.geoapp.me/api/v2/locations/nearest_to?lat=42.658676&lng=23.381674&limit=50","@spider":"shell","addr:street_address":"I-1, MW STRUMA, KM 294 + 500","addr:city":"STUDENA","addr:state":"Pernik","addr:postcode":"2344","addr:country":"BG","phone":"+359 88 841 0741","website":"https://find.shell.com/bg/fuel/10057123-4004-studena","opening_hours":"24/7","brand":"Shell","brand:wikidata":"Q110716465","nsi_id":"shell-e657ec"},"coordinates":[42.539532,23.129447]},"dist":10.013,"tags_mismatch":true},{"osm":{"type":"node","id":1487929667,"tags":{"amenity":"fuel","brand":"Shell","brand:wikidata":"Q110716465"},"wikidata":"Q110716465","coordinates":[41.8445967,26.1199731]},"atp":{"id":"iNoxObrkKHo2xfi0A1V1YaaB-bU=","tags":{"ref":"10058075","amenity":"fuel","shop":"yes","fuel:electricity":"yes","toilets":"yes","compressed_air":"yes","internet_access":"wlan","hgv":"yes","fuel:diesel":"yes","fuel:adblue":"yes","fuel:HGV_diesel":"yes","fuel:lpg":"yes","fuel:octane_95":"yes","fuel:octane_98":"yes","fuel:octane_100":"yes","@source_uri":"https://shellgsllocator.geoapp.me/api/v2/locations/nearest_to?lat=40.84822&lng=25.888402&limit=50","@spider":"shell","addr:street_address":"MW MARITZA KM 92+300, LEFT","addr:city":"LYUBIMETZ","addr:state":"Haskovo","addr:postcode":"6550","addr:country":"BG","phone":"+359 88 573 2020","website":"https://find.shell.com/bg/fuel/10058075-4005-lyubimetz-east","opening_hours":"24/7","brand":"Shell","brand:wikidata":"Q110716465","nsi_id":"shell-e657ec"},"coordinates":[41.844595,26.119986]},"dist":1.085,"tags_mismatch":true},{"osm":{"type":"node","id":1499131437,"tags":{"amenity":"fuel","brand":"Shell","brand:wikidata":"Q110716465"},"wikidata":"Q110716465","coordinates":[41.719045,26.3423079]},"atp":false,"tags_mismatch":false},{"osm":{"type":"node","id":1837792016,"tags":{"amenity":"fuel","brand":"Shell","brand:wikidata":"Q110716465","compressed_air":"yes","opening_hours":"24/7"},"wikidata":"Q110716465","coordinates":[42.9082752,23.8797908]},"atp":{"id":"Iz1RQuriNlcku_G0fF-dQClcKtQ=","tags":{"ref":"10054857","amenity":"fuel","shop":"yes","fuel:electricity":"yes","toilets":"yes","wheelchair":"yes","compressed_air":"yes","internet_access":"wlan","hgv":"yes","fuel:diesel":"yes","fuel:adblue":"yes","fuel:HGV_diesel":"yes","fuel:lpg":"yes","fuel:octane_95":"yes","fuel:octane_98":"yes","fuel:octane_100":"yes","@source_uri":"https://shellgsllocator.geoapp.me/api/v2/locations/nearest_to?lat=42.633194&lng=25.192134&limit=50","@spider":"shell","addr:street_address":"ROAD A2, KM 43+790 LEFT","addr:city":"PRAVETS","addr:state":"Sofia- Oblast","addr:postcode":"2161","addr:country":"BG","phone":"+359 87 810 5442","website":"https://find.shell.com/bg/fuel/10054857-4003-pravets","opening_hours":"24/7","brand":"Shell","brand:wikidata":"Q110716465","nsi_id":"shell-e657ec"},"coordinates":[42.908265,23.8799]},"dist":8.966,"tags_mismatch":true},{"osm":{"type":"node","id":1837792017,"tags":{"amenity":"fuel","brand":"Shell","brand:wikidata":"Q110716465"},"wikidata":"Q110716465","coordinates":[43.3693421,24.3526577]},"atp":{"id":"im90YX4BaEE0XCHy01ZoFKhlvqI=","tags":{"ref":"10032168","amenity":"fuel","shop":"yes","toilets":"yes","compressed_air":"yes","internet_access":"wlan","fuel:diesel":"yes","fuel:adblue":"yes","fuel:octane_95":"yes","fuel:octane_98":"yes","fuel:octane_100":"yes","@source_uri":"https://shellgsllocator.geoapp.me/api/v2/locations/nearest_to?lat=42.633194&lng=25.192134&limit=50","@spider":"shell","addr:street_address":"I-3, KM 112+340 LEFT","addr:city":"GORNI DABNIK","addr:state":"Pleven","addr:postcode":"5880","addr:country":"BG","phone":"+359 88 975 5455","website":"https://find.shell.com/bg/fuel/10032168-6001-gorni-dubnik","opening_hours":"24/7","brand":"Shell","brand:wikidata":"Q110716465","nsi_id":"shell-e657ec"},"coordinates":[43.369312,24.352861]},"dist":16.771,"tags_mismatch":true},{"osm":{"type":"node","id":1837853227,"tags":{"amenity":"fuel","brand":"Shell","brand:wikidata":"Q110716465"},"wikidata":"Q110716465","coordinates":[41.6096181,23.2239481]},"atp":false,"tags_mismatch":false},{"osm":{"type":"node","id":1852621930,"tags":{"amenity":"fuel","brand":"Shell","brand:wikidata":"Q110716465"},"wikidata":"Q110716465","coordinates":[42.6382751,26.3017025]},"atp":{"id":"I0AxzKQHH5cVuguDWEES5CaBDtc=","tags":{"ref":"10032125","amenity":"fuel","shop":"yes","fuel:electricity":"yes","toilets":"yes","compressed_air":"yes","internet_access":"wlan","hgv":"yes","fuel:diesel":"yes","fuel:adblue":"yes","fuel:HGV_diesel":"yes","fuel:lpg":"yes","fuel:octane_95":"yes","fuel:octane_98":"yes","fuel:octane_100":"yes","@source_uri":"https://shellgsllocator.geoapp.me/api/v2/locations/nearest_to?lat=42.489464&lng=26.499871&limit=50","@spider":"shell","addr:street_address":"NOVOZAGORSKO SHOSE 37","addr:city":"SLIVEN","addr:state":"Sliven","addr:postcode":"8800","addr:country":"BG","phone":"+359 44 662 110","website":"https://find.shell.com/bg/fuel/10032125-3002-sliven","opening_hours":"24/7","brand":"Shell","brand:wikidata":"Q110716465","nsi_id":"shell-e657ec"},"coordinates":[42.638216,26.301547]},"dist":14.317,"tags_mismatch":true},{"osm":{"type":"node","id":1856196652,"tags":{"amenity":"fuel","brand":"Shell","brand:wikidata":"Q110716465","fuel:HGV_diesel":"yes","fuel:adblue":"yes","fuel:diesel":"yes","fuel:lpg":"yes","fuel:octane_100":"yes","fuel:octane_95":"yes","opening_hours":"24/7","phone":"+359 89 443 0543"},"wikidata":"Q110716465","coordinates":[42.234297,24.3115039]},"atp":{"id":"4NaRgQO-iyX7YSjoEq93cMb-VOo=","tags":{"ref":"12837083","amenity":"fuel","shop":"yes","toilets":"yes","compressed_air":"yes","internet_access":"wlan","hgv":"yes","fuel:diesel":"yes","fuel:adblue":"yes","fuel:HGV_diesel":"yes","fuel:lpg":"yes","fuel:octane_95":"yes","fuel:octane_100":"yes","payment:shell":"yes","payment:dkv":"yes","payment:esso_card":"yes","@source_uri":"https://shellgsllocator.geoapp.me/api/v2/locations/nearest_to?lat=42.633194&lng=25.192134&limit=50","@spider":"shell","addr:street_address":"II - 37, RING ROAD WEST","addr:city":"PAZARDJIK","addr:state":"Pazardjik","addr:postcode":"4400","addr:country":"BG","phone":"+359 89 443 0543","website":"https://find.shell.com/bg/fuel/12837083-5011-shell-pazardjik-west","opening_hours":"24/7","brand":"Shell","brand:wikidata":"Q110716465","nsi_id":"shell-e657ec"},"coordinates":[42.234127,24.311313]},"dist":24.583,"tags_mismatch":false},{"osm":{"type":"node","id":1856202112,"tags":{"amenity":"fuel","brand":"Shell","brand:wikidata":"Q110716465","fuel:adblue":"yes","fuel:diesel":"yes","fuel:lpg":"yes","fuel:octane_95":"yes","fuel:octane_98":"yes","phone":"+359 88 481 6049"},"wikidata":"Q110716465","coordinates":[42.187763,24.3618459]},"atp":{"id":"W1p3uRc4jnp_5xeamJfi67Q4QUg=","tags":{"ref":"12304255","amenity":"fuel","shop":"yes","toilets":"yes","compressed_air":"yes","fuel:diesel":"yes","fuel:adblue":"yes","fuel:lpg":"yes","fuel:octane_95":"yes","fuel:octane_98":"yes","@source_uri":"https://shellgsllocator.geoapp.me/api/v2/locations/nearest_to?lat=42.633194&lng=25.192134&limit=50","@spider":"shell","addr:street_address":"PLOVDIVSKO SHOSSE STREET","addr:city":"PAZARDJIK","addr:state":"Pazardjik","addr:postcode":"4400","addr:country":"BG","phone":"+359 88 481 6049","website":"https://find.shell.com/bg/fuel/12304255-1037-shell-pazardjik-iztok","opening_hours":"24/7","brand":"Shell","brand:wikidata":"Q110716465","nsi_id":"shell-e657ec"},"coordinates":[42.187636,24.361865]},"dist":14.209,"tags_mismatch":true},{"osm":{"type":"node","id":2292971681,"tags":{"amenity":"fuel","brand":"Shell","brand:wikidata":"Q110716465"},"wikidata":"Q110716465","coordinates":[41.8433915,26.1230098]},"atp":{"id":"NggaHFo1mWn79cSfyXoTu55X-6o=","tags":{"ref":"10058076","amenity":"fuel","shop":"yes","fuel:electricity":"yes","toilets":"yes","compressed_air":"yes","internet_access":"wlan","fuel:diesel":"yes","fuel:adblue":"yes","fuel:lpg":"yes","fuel:octane_95":"yes","fuel:octane_98":"yes","fuel:octane_100":"yes","@source_uri":"https://shellgsllocator.geoapp.me/api/v2/locations/nearest_to?lat=40.84822&lng=25.888402&limit=50","@spider":"shell","addr:street_address":"MW MARITZA KM 92+300, RIGHT","addr:city":"LYUBIMETZ","addr:state":"Haskovo","addr:postcode":"6550","addr:country":"BG","phone":"+359 88 236 8802","website":"https://find.shell.com/bg/fuel/10058076-4006-lyubimetz-west","opening_hours":"24/7","brand":"Shell","brand:wikidata":"Q110716465","nsi_id":"shell-e657ec"},"coordinates":[41.843414,26.122675]},"dist":27.846,"tags_mismatch":true},{"osm":{"type":"node","id":2346348139,"tags":{"amenity":"fuel","brand":"Shell","brand:wikidata":"Q110716465","car_wash":"separate","fuel:adblue":"yes","fuel:diesel":"yes","fuel:lpg":"yes","fuel:octane_95":"yes","fuel:octane_98":"yes","opening_hours":"24/7","phone":"+359 88 550 1170"},"wikidata":"Q110716465","coordinates":[41.5810494,23.7445984]},"atp":{"id":"09yioFIhrKysSRu1J-I8CKXiMNA=","tags":{"ref":"10048165","amenity":"fuel","shop":"yes","toilets":"yes","car_wash":"yes","compressed_air":"yes","internet_access":"wlan","fuel:diesel":"yes","fuel:adblue":"yes","fuel:lpg":"yes","fuel:octane_95":"yes","fuel:octane_98":"yes","@source_uri":"https://shellgsllocator.geoapp.me/api/v2/locations/nearest_to?lat=42.658676&lng=23.381674&limit=50","@spider":"shell","addr:street_address":"UL PANAIRSKI LIVADI NA IZHODA ZA SO","addr:city":"GOTSE DELCHEV","addr:state":"Blagoevgrad","addr:postcode":"2900","addr:country":"BG","phone":"+359 88 550 1170","website":"https://find.shell.com/bg/fuel/10048165-1011-gotse-delchev","opening_hours":"24/7","brand":"Shell","brand:wikidata":"Q110716465","nsi_id":"shell-e657ec"},"coordinates":[41.580964,23.744539]},"dist":10.704,"tags_mismatch":true},{"osm":{"type":"node","id":2346348212,"tags":{"amenity":"fuel","brand":"Shell","brand:wikidata":"Q110716465","fuel:diesel":"yes","fuel:octane_100":"yes","fuel:octane_95":"yes","fuel:octane_98":"yes","opening_hours":"24/7","phone":"+359 89 221 8346"},"wikidata":"Q110716465","coordinates":[41.8757086,23.4131817]},"atp":{"id":"Koyg8zdT20p438Nkzsgwwml4bkU=","tags":{"ref":"10058096","amenity":"fuel","shop":"yes","toilets":"yes","compressed_air":"yes","fuel:diesel":"yes","fuel:octane_95":"yes","fuel:octane_98":"yes","fuel:octane_100":"yes","@source_uri":"https://shellgsllocator.geoapp.me/api/v2/locations/nearest_to?lat=42.658676&lng=23.381674&limit=50","@spider":"shell","addr:street_address":"REDENKA 5TH KM","addr:city":"RAZLOG","addr:state":"Blagoevgrad","addr:postcode":"2760","addr:country":"BG","phone":"+359 89 221 8346","website":"https://find.shell.com/bg/fuel/10058096-1032-razlog","opening_hours":"24/7","brand":"Shell","brand:wikidata":"Q110716465","nsi_id":"shell-e657ec"},"coordinates":[41.875602,23.413463]},"dist":26.133,"tags_mismatch":false},{"osm":{"type":"node","id":2546778363,"tags":{"amenity":"fuel","brand":"Shell","brand:wikidata":"Q110716465","compressed_air":"yes","fuel:adblue":"yes","fuel:diesel":"yes","fuel:lpg":"yes","fuel:octane_100":"yes","fuel:octane_95":"yes","fuel:octane_98":"yes","opening_hours":"24/7","phone":"+359 56 801 208"},"wikidata":"Q110716465","coordinates":[42.5103,27.4633778]},"atp":{"id":"gjBD0FUp6vmizDg7XoDRf9wG2UA=","tags":{"ref":"10032138","amenity":"fuel","shop":"yes","toilets":"yes","compressed_air":"yes","internet_access":"wlan","fuel:diesel":"yes","fuel:adblue":"yes","fuel:lpg":"yes","fuel:octane_95":"yes","fuel:octane_98":"yes","fuel:octane_100":"yes","@source_uri":"https://shellgsllocator.geoapp.me/api/v2/locations/nearest_to?lat=41.713181&lng=27.212973&limit=50","@spider":"shell","addr:street_address":"STRUGA STR 8","addr:city":"BURGAS","addr:state":"Burgas","addr:postcode":"8000","addr:country":"BG","phone":"+359 56 801 208","website":"https://find.shell.com/bg/fuel/10032138-3015-burgas-kolodrum","opening_hours":"24/7","brand":"Shell","brand:wikidata":"Q110716465","nsi_id":"shell-e657ec"},"coordinates":[42.510301,27.463385]},"dist":0.601,"tags_mismatch":false},{"osm":{"type":"node","id":2573960103,"tags":{"addr:housenumber":"1","addr:street":"Княз Борис I","amenity":"fuel","brand":"Shell","brand:wikidata":"Q110716465","opening_hours":"24/7"},"wikidata":"Q110716465","coordinates":[42.5664394,27.6209268]},"atp":{"id":"CQDHMbPNMQVRRxiN_ij41R1LSwU=","tags":{"ref":"12837124","amenity":"fuel","shop":"yes","toilets":"yes","compressed_air":"yes","internet_access":"wlan","fuel:diesel":"yes","fuel:lpg":"yes","fuel:octane_95":"yes","fuel:octane_98":"yes","payment:shell":"yes","@source_uri":"https://shellgsllocator.geoapp.me/api/v2/locations/nearest_to?lat=41.713181&lng=27.212973&limit=50","@spider":"shell","addr:street_address":"STR KNYAS BORIS 104","addr:city":"POMORIE","addr:state":"Burgas","addr:postcode":"8200","addr:country":"BG","phone":"+359 59 653 342","website":"https://find.shell.com/bg/fuel/12837124-5010-shell-pomorie","opening_hours":"24/7","brand":"Shell","brand:wikidata":"Q110716465","nsi_id":"shell-e657ec"},"coordinates":[42.566461,27.620797]},"dist":10.898,"tags_mismatch":true},{"osm":{"type":"node","id":2700934140,"tags":{"amenity":"fuel","brand":"Shell","brand:wikidata":"Q110716465","compressed_air":"yes","wheelchair":"yes"},"wikidata":"Q110716465","coordinates":[42.1977204,24.6334124]},"atp":{"id":"EI619NTwn-FdhOv5RlQEPA8Rhlo=","tags":{"ref":"10032173","amenity":"fuel","shop":"yes","fuel:electricity":"yes","toilets":"yes","compressed_air":"yes","internet_access":"wlan","hgv":"yes","fuel:diesel":"yes","fuel:adblue":"yes","fuel:HGV_diesel":"yes","fuel:lpg":"yes","fuel:octane_95":"yes","fuel:octane_98":"yes","fuel:octane_100":"yes","@source_uri":"https://shellgsllocator.geoapp.me/api/v2/locations/nearest_to?lat=42.633194&lng=25.192134&limit=50","@spider":"shell","addr:street_address":"AM - 1 KM. 118+035 RIGHT","addr:city":"PLOVDIV","addr:state":"Plovdiv","addr:postcode":"4202","addr:country":"BG","phone":"+359 88 399 8852","website":"https://find.shell.com/bg/fuel/10032173-6006-trakia-south","opening_hours":"24/7","brand":"Shell","brand:wikidata":"Q110716465","nsi_id":"shell-e657ec"},"coordinates":[42.197708,24.633407]},"dist":1.449,"tags_mismatch":true},{"osm":{"type":"node","id":2867237505,"tags":{"amenity":"fuel","brand":"Shell","brand:wikidata":"Q110716465","fuel:HGV_diesel":"yes","fuel:adblue":"yes","fuel:diesel":"yes","fuel:lpg":"yes","fuel:octane_100":"yes","fuel:octane_95":"yes","phone":"+359 88 979 6666"},"wikidata":"Q110716465","coordinates":[42.3347422,24.7567528]},"atp":{"id":"OSzUC4AYANTkbw2ljssa2bwhvBQ=","tags":{"ref":"12617355","amenity":"fuel","shop":"yes","toilets":"yes","wheelchair":"yes","compressed_air":"yes","vacuum_cleaner":"yes","internet_access":"wlan","hgv":"yes","fuel:diesel":"yes","fuel:adblue":"yes","fuel:HGV_diesel":"yes","fuel:lpg":"yes","fuel:octane_95":"yes","fuel:octane_100":"yes","payment:shell":"yes","@source_uri":"https://shellgsllocator.geoapp.me/api/v2/locations/nearest_to?lat=42.633194&lng=25.192134&limit=50","@spider":"shell","addr:street_address":"NATIONAL ROAD PLOVDIV-KARLOVO","addr:city":"KALOYANOVO","addr:state":"Plovdiv","addr:postcode":"4173","addr:country":"BG","phone":"+359 88 973 4822","website":"https://find.shell.com/bg/fuel/12617355-1046-shell-kaloyanovo","brand":"Shell","brand:wikidata":"Q110716465","nsi_id":"shell-e657ec"},"coordinates":[42.33458,24.756616]},"dist":21.254,"tags_mismatch":true},{"osm":{"type":"node","id":2949130337,"tags":{"amenity":"fuel","brand":"Shell","brand:wikidata":"Q110716465","fuel:adblue":"yes","fuel:diesel":"yes","fuel:lpg":"yes","fuel:octane_100":"yes","fuel:octane_95":"yes","opening_hours":"24/7","phone":"+359 89 914 0384"},"wikidata":"Q110716465","coordinates":[42.6900632,26.3390184]},"atp":{"id":"1bs98wLu0LhST32GEyF1RkTiWUk=","tags":{"ref":"12619599","amenity":"fuel","shop":"yes","toilets":"yes","wheelchair":"yes","compressed_air":"yes","vacuum_cleaner":"yes","internet_access":"wlan","fuel:diesel":"yes","fuel:adblue":"yes","fuel:lpg":"yes","fuel:octane_95":"yes","fuel:octane_100":"yes","payment:shell":"yes","@source_uri":"https://shellgsllocator.geoapp.me/api/v2/locations/nearest_to?lat=42.489464&lng=26.499871&limit=50","@spider":"shell","addr:street_address":"BUL. PANAYOT HITOV","addr:city":"SLIVEN","addr:state":"Sliven","addr:postcode":"8800","addr:country":"BG","phone":"+359 89 914 0384","website":"https://find.shell.com/bg/fuel/12619599-1045-sliven-east","opening_hours":"24/7","brand":"Shell","brand:wikidata":"Q110716465","nsi_id":"shell-e657ec"},"coordinates":[42.690158,26.338909]},"dist":13.823,"tags_mismatch":true},{"osm":{"type":"node","id":3719152120,"tags":{"amenity":"fuel","brand":"Shell","brand:wikidata":"Q110716465","car_wash":"yes","fuel:adblue":"yes","fuel:diesel":"yes","fuel:lpg":"yes","fuel:octane_95":"yes","fuel:octane_98":"yes","phone":"+359 88 515 7528"},"wikidata":"Q110716465","coordinates":[42.7018649,24.1859982]},"atp":{"id":"kr_CD8MmtGyI82D7BFh0sWXzBRQ=","tags":{"ref":"10048169","amenity":"fuel","shop":"yes","toilets":"yes","car_wash":"yes","compressed_air":"yes","internet_access":"wlan","fuel:diesel":"yes","fuel:adblue":"yes","fuel:lpg":"yes","fuel:octane_95":"yes","fuel:octane_98":"yes","@source_uri":"https://shellgsllocator.geoapp.me/api/v2/locations/nearest_to?lat=42.633194&lng=25.192134&limit=50","@spider":"shell","addr:street_address":"BUL TSAR OSVOBODITEL 2","addr:city":"PIRDOP","addr:state":"Sofia- Oblast","addr:postcode":"2070","addr:country":"BG","phone":"+359 88 515 7528","website":"https://find.shell.com/bg/fuel/10048169-1015-pirdop","opening_hours":"24/7","brand":"Shell","brand:wikidata":"Q110716465","nsi_id":"shell-e657ec"},"coordinates":[42.701958,24.185972]},"dist":10.571,"tags_mismatch":true},{"osm":{"type":"node","id":3739678493,"tags":{"amenity":"fuel","brand":"Shell","brand:wikidata":"Q110716465","fuel:adblue":"yes","fuel:diesel":"yes","fuel:lpg":"yes","fuel:octane_100":"yes","fuel:octane_95":"yes","fuel:octane_98":"yes","opening_hours":"24/7","phone":"+359 88 701 8596"},"wikidata":"Q110716465","coordinates":[42.2850905,22.7035027]},"atp":{"id":"cDTHe202U1BTDi8DP50P4ZXa4mg=","tags":{"ref":"10032123","amenity":"fuel","shop":"yes","fuel:electricity":"yes","toilets":"yes","compressed_air":"yes","internet_access":"wlan","fuel:diesel":"yes","fuel:adblue":"yes","fuel:lpg":"yes","fuel:octane_95":"yes","fuel:octane_98":"yes","fuel:octane_100":"yes","@source_uri":"https://shellgsllocator.geoapp.me/api/v2/locations/nearest_to?lat=42.658676&lng=23.381674&limit=50","@spider":"shell","addr:street_address":"TZAR OSVOBODITEL","addr:city":"KYUSTENDIL","addr:state":"Kiustendil","addr:postcode":"2500","addr:country":"BG","phone":"+359 88 701 8596","website":"https://find.shell.com/bg/fuel/10032123-2011-kjustendil","opening_hours":"24/7","brand":"Shell","brand:wikidata":"Q110716465","nsi_id":"shell-e657ec"},"coordinates":[42.285063,22.703353]},"dist":12.689,"tags_mismatch":true},{"osm":{"type":"node","id":3812298281,"tags":{"amenity":"fuel","brand":"Shell","brand:wikidata":"Q110716465","fuel:diesel":"yes","fuel:lpg":"yes","fuel:octane_100":"yes","fuel:octane_95":"yes","opening_hours":"24/7"},"wikidata":"Q110716465","coordinates":[42.0158262,24.865916]},"atp":{"id":"IsmbMylcr735jTWnS6yslrTCeAE=","tags":{"ref":"10032124","amenity":"fuel","shop":"yes","toilets":"yes","compressed_air":"yes","internet_access":"wlan","hgv":"yes","fuel:diesel":"yes","fuel:adblue":"yes","fuel:HGV_diesel":"yes","fuel:lpg":"yes","fuel:octane_95":"yes","fuel:octane_98":"yes","fuel:octane_100":"yes","@source_uri":"https://shellgsllocator.geoapp.me/api/v2/locations/nearest_to?lat=42.633194&lng=25.192134&limit=50","@spider":"shell","addr:street_address":"BULGARIA BLVD","addr:city":"ASENOVGRAD","addr:state":"Plovdiv","addr:postcode":"4230","addr:country":"BG","phone":"+359 88 556 7640","website":"https://find.shell.com/bg/fuel/10032124-3001-assenovgrad","opening_hours":"24/7","brand":"Shell","brand:wikidata":"Q110716465","nsi_id":"shell-e657ec"},"coordinates":[42.015834,24.865914]},"dist":0.883,"tags_mismatch":true},{"osm":{"type":"node","id":4004702605,"tags":{"amenity":"fuel","brand":"Shell","brand:wikidata":"Q110716465","fuel:diesel":"yes","fuel:octane_95":"yes"},"wikidata":"Q110716465","coordinates":[42.0223407,24.8977346]},"atp":{"id":"bqZsIOzSWrB7ACbFm2Y2ScKwt6E=","tags":{"ref":"10055626","amenity":"fuel","shop":"yes","toilets":"yes","car_wash":"yes","compressed_air":"yes","fuel:diesel":"yes","fuel:lpg":"yes","fuel:octane_95":"yes","fuel:octane_98":"yes","@source_uri":"https://shellgsllocator.geoapp.me/api/v2/locations/nearest_to?lat=42.633194&lng=25.192134&limit=50","@spider":"shell","addr:street_address":"UL TSAR IVAN ASEN II 157","addr:city":"ASENOVGRAD","addr:state":"Plovdiv","addr:postcode":"4230","addr:country":"BG","phone":"+359 89 835 5960","website":"https://find.shell.com/bg/fuel/10055626-1031-tzar-ivan-asen","opening_hours":"24/7","brand":"Shell","brand:wikidata":"Q110716465","nsi_id":"shell-e657ec"},"coordinates":[42.022366,24.897811]},"dist":6.91,"tags_mismatch":true},{"osm":{"type":"node","id":4198121127,"tags":{"addr:city":"Тутракан","addr:street":"Ана Вентура","amenity":"fuel","brand":"Shell","brand:wikidata":"Q110716465","fuel:HGV_diesel":"yes","fuel:adblue":"yes","fuel:diesel":"yes","fuel:lpg":"yes","fuel:octane_100":"yes","fuel:octane_95":"yes","fuel:octane_98":"yes","internet_access":"wlan","opening_hours":"24/7","phone":"+359 89 223 1614"},"wikidata":"Q110716465","coordinates":[44.0334457,26.6317175]},"atp":{"id":"D67nkk7Fsg9vAq1IvFhDwjwYcEI=","tags":{"ref":"12494664","amenity":"fuel","shop":"yes","toilets":"yes","compressed_air":"yes","hgv":"yes","fuel:diesel":"yes","fuel:adblue":"yes","fuel:HGV_diesel":"yes","fuel:lpg":"yes","fuel:octane_95":"yes","fuel:octane_98":"yes","fuel:octane_100":"yes","@source_uri":"https://shellgsllocator.geoapp.me/api/v2/locations/nearest_to?lat=43.876183&lng=26.017556&limit=50","@spider":"shell","addr:street_address":"PI NUM.73496.14.212","addr:city":"TUTRAKAN","addr:state":"Silistra","addr:postcode":"7600","addr:country":"BG","phone":"+359 89 223 1614","website":"https://find.shell.com/bg/fuel/12494664-1042-shell-tutrakan","opening_hours":"24/7","brand":"Shell","brand:wikidata":"Q110716465","nsi_id":"shell-e657ec"},"coordinates":[44.033476,26.631405]},"dist":25.208,"tags_mismatch":false},{"osm":{"type":"node","id":4574510436,"tags":{"amenity":"fuel","brand":"Shell","brand:wikidata":"Q110716465","car_wash":"yes","fuel:HGV_diesel":"yes","fuel:adblue":"yes","fuel:diesel":"yes","fuel:lpg":"yes","fuel:octane_100":"yes","fuel:octane_95":"yes","fuel:octane_98":"yes","opening_hours":"24/7","phone":"+359 87 788 6390"},"wikidata":"Q110716465","coordinates":[42.3559667,25.6568038]},"atp":{"id":"NcACHXR7zyv58A3lVQlrBgNUFCM=","tags":{"ref":"12873288","amenity":"fuel","shop":"yes","toilets":"yes","car_wash":"yes","wheelchair":"yes","compressed_air":"yes","internet_access":"wlan","hgv":"yes","fuel:diesel":"yes","fuel:adblue":"yes","fuel:HGV_diesel":"yes","fuel:lpg":"yes","fuel:octane_95":"yes","fuel:octane_98":"yes","fuel:octane_100":"yes","payment:shell":"yes","@source_uri":"https://shellgsllocator.geoapp.me/api/v2/locations/nearest_to?lat=42.489464&lng=26.499871&limit=50","@spider":"shell","addr:street_address":"MAIN ROAD E85","addr:city":"STARA ZAGORA","addr:state":"Stara Zagora","addr:postcode":"6063","addr:country":"BG","phone":"+359 87 788 6390","website":"https://find.shell.com/bg/fuel/12873288-5013-stara-zagora-south","opening_hours":"24/7","brand":"Shell","brand:wikidata":"Q110716465","nsi_id":"shell-e657ec"},"coordinates":[42.35614,25.65684]},"dist":19.498,"tags_mismatch":false},{"osm":{"type":"node","id":4741949821,"tags":{"amenity":"fuel","brand":"Shell","brand:wikidata":"Q110716465","fuel:adblue":"yes","fuel:diesel":"yes","fuel:lpg":"yes","fuel:octane_95":"yes","fuel:octane_98":"yes","opening_hours":"24/7","phone":"+359 88 402 9005"},"wikidata":"Q110716465","coordinates":[43.2592685,26.5228166]},"atp":{"id":"y349IhMWTx6Ah8gzgLFUk9XehZY=","tags":{"ref":"12525703","amenity":"fuel","shop":"yes","toilets":"yes","compressed_air":"yes","fuel:diesel":"yes","fuel:adblue":"yes","fuel:lpg":"yes","fuel:octane_95":"yes","fuel:octane_98":"yes","@source_uri":"https://shellgsllocator.geoapp.me/api/v2/locations/nearest_to?lat=42.489464&lng=26.499871&limit=50","@spider":"shell","addr:street_address":"ALEKSANDAR STAMBOLIYSKI","addr:city":"TARGOVISHTE","addr:state":"Tyrgoviste","addr:postcode":"7700","addr:country":"BG","phone":"+359 88 402 9005","website":"https://find.shell.com/bg/fuel/12525703-1043-shell-targovishte","opening_hours":"24/7","brand":"Shell","brand:wikidata":"Q110716465","nsi_id":"shell-e657ec"},"coordinates":[43.259309,26.522554]},"dist":21.737,"tags_mismatch":false},{"osm":{"type":"node","id":4926309087,"tags":{"amenity":"fuel","brand":"Shell","brand:wikidata":"Q110716465","check_date":"2023-08-20"},"wikidata":"Q110716465","coordinates":[42.9928164,22.8463798]},"atp":{"id":"MbXEadGW8VUDZSf_Rr1qdcMyvWQ=","tags":{"ref":"10056609","amenity":"fuel","shop":"yes","toilets":"yes","wheelchair":"yes","compressed_air":"yes","internet_access":"wlan","hgv":"yes","fuel:diesel":"yes","fuel:adblue":"yes","fuel:HGV_diesel":"yes","fuel:octane_95":"yes","fuel:octane_98":"yes","fuel:octane_100":"yes","@source_uri":"https://shellgsllocator.geoapp.me/api/v2/locations/nearest_to?lat=42.658676&lng=23.381674&limit=50","@spider":"shell","addr:street_address":"ROAD I-8 E80 KM 1","addr:city":"KALOTINA","addr:state":"Sofia- Oblast","addr:postcode":"2212","addr:country":"BG","phone":"+359 88 479 7557","website":"https://find.shell.com/bg/fuel/10056609-2012-kalotina","opening_hours":"24/7","brand":"Shell","brand:wikidata":"Q110716465","nsi_id":"shell-e657ec"},"coordinates":[42.992809,22.846313]},"dist":5.495,"tags_mismatch":true},{"osm":{"type":"node","id":5128789922,"tags":{"amenity":"fuel","brand":"Shell","brand:wikidata":"Q110716465","fuel:diesel":"yes","fuel:lpg":"yes","fuel:octane_95":"yes","fuel:octane_98":"yes"},"wikidata":"Q110716465","coordinates":[43.5618561,26.4057717]},"atp":{"id":"ZLMmbnD-3oo-GnXH2czRmxqm97M=","tags":{"ref":"12596904","amenity":"fuel","toilets":"yes","wheelchair":"yes","compressed_air":"yes","internet_access":"wlan","hgv":"yes","fuel:diesel":"yes","fuel:adblue":"yes","fuel:HGV_diesel":"yes","fuel:lpg":"yes","fuel:octane_95":"yes","fuel:octane_98":"yes","payment:shell":"yes","@source_uri":"https://shellgsllocator.geoapp.me/api/v2/locations/nearest_to?lat=42.489464&lng=26.499871&limit=50","@spider":"shell","addr:street_address":"9TH SEPTEMBER STREET, 2A.","addr:city":"OSENETS","addr:state":"Razgrad","addr:postcode":"7267","addr:country":"BG","phone":"+359 88 355 5509","website":"https://find.shell.com/bg/fuel/12596904-1044-shell-osenets","opening_hours":"24/7","brand":"Shell","brand:wikidata":"Q110716465","nsi_id":"shell-e657ec"},"coordinates":[43.561906,26.40594]},"dist":14.652,"tags_mismatch":true},{"osm":{"type":"node","id":5649410423,"tags":{"amenity":"fuel","brand":"Shell","brand:wikidata":"Q110716465"},"wikidata":"Q110716465","coordinates":[42.6592326,27.6879379]},"atp":{"id":"VWFMC-Qu49M5lo37qWsIqRdVUE0=","tags":{"ref":"12837139","amenity":"fuel","shop":"yes","atm":"yes","internet_access":"wlan","hgv":"yes","fuel:diesel":"yes","fuel:adblue":"yes","fuel:HGV_diesel":"yes","fuel:lpg":"yes","fuel:octane_95":"yes","fuel:octane_98":"yes","fuel:octane_100":"yes","payment:shell":"yes","payment:dkv":"yes","@source_uri":"https://shellgsllocator.geoapp.me/api/v2/locations/nearest_to?lat=42.489464&lng=26.499871&limit=50","@spider":"shell","addr:street_address":"RAVDA MAIN ROAD I9 VARNA BURGAS 205","addr:city":"RAVDA","addr:state":"Burgas","addr:postcode":"8221","addr:country":"BG","phone":"+359 89 999 6752","website":"https://find.shell.com/bg/fuel/12837139-5007-shell-nesebar","opening_hours":"24/7","brand":"Shell","brand:wikidata":"Q110716465","nsi_id":"shell-e657ec"},"coordinates":[42.659256,27.687931]},"dist":2.662,"tags_mismatch":true},{"osm":{"type":"node","id":5678313669,"tags":{"amenity":"fuel","brand":"Shell","brand:wikidata":"Q110716465"},"wikidata":"Q110716465","coordinates":[42.9282571,24.2395585]},"atp":false,"tags_mismatch":false},{"osm":{"type":"node","id":6436480882,"tags":{"amenity":"fuel","brand":"Shell","brand:wikidata":"Q110716465"},"wikidata":"Q110716465","coordinates":[43.4070073,23.2392048]},"atp":{"id":"irltL-wC8yqI6AQwvfpKSArd0YA=","tags":{"ref":"10032114","amenity":"fuel","shop":"yes","fuel:electricity":"yes","toilets":"yes","compressed_air":"yes","internet_access":"wlan","hgv":"yes","fuel:diesel":"yes","fuel:adblue":"yes","fuel:HGV_diesel":"yes","fuel:lpg":"yes","fuel:octane_95":"yes","fuel:octane_98":"yes","fuel:octane_100":"yes","@source_uri":"https://shellgsllocator.geoapp.me/api/v2/locations/nearest_to?lat=42.658676&lng=23.381674&limit=50","@spider":"shell","addr:street_address":"MONTANA RING ROAD DIANA STR","addr:city":"MONTANA","addr:state":"Montana","addr:postcode":"3400","addr:country":"BG","phone":"+359 96 300 446","website":"https://find.shell.com/bg/fuel/10032114-2002-montana","opening_hours":"24/7","brand":"Shell","brand:wikidata":"Q110716465","nsi_id":"shell-e657ec"},"coordinates":[43.407087,23.239286]},"dist":11.026,"tags_mismatch":true},{"osm":{"type":"node","id":6651424885,"tags":{"amenity":"fuel","brand":"Shell","brand:wikidata":"Q110716465"},"wikidata":"Q110716465","coordinates":[41.4875321,23.2969686]},"atp":{"id":"J4fxXbAHH-JgYIspUWIMnpbeqtI=","tags":{"ref":"10032185","amenity":"fuel","shop":"yes","toilets":"yes","compressed_air":"yes","internet_access":"wlan","hgv":"yes","fuel:diesel":"yes","fuel:adblue":"yes","fuel:HGV_diesel":"yes","fuel:lpg":"yes","fuel:octane_95":"yes","fuel:octane_98":"yes","fuel:octane_100":"yes","@source_uri":"https://shellgsllocator.geoapp.me/api/v2/locations/nearest_to?lat=42.658676&lng=23.381674&limit=50","@spider":"shell","addr:street_address":"AM STRUMA, MESTNOST VALOGA","addr:city":"LEVUNOVO","addr:state":"Blagoevgrad","addr:postcode":"2817","addr:country":"BG","phone":"+359 88 226 4340","website":"https://find.shell.com/bg/fuel/10032185-9004-levunovo","opening_hours":"24/7","brand":"Shell","brand:wikidata":"Q110716465","nsi_id":"shell-e657ec"},"coordinates":[41.487457,23.297106]},"dist":14.168,"tags_mismatch":true},{"osm":{"type":"node","id":6885207013,"tags":{"addr:city":"Слънчев бряг","amenity":"fuel","brand":"Shell","brand:wikidata":"Q110716465","fuel:diesel":"yes","fuel:lpg":"yes","fuel:octane_95":"yes","fuel:octane_98":"yes","self_service":"no"},"wikidata":"Q110716465","coordinates":[42.688138,27.7004045]},"atp":{"id":"qCingsHQUA-W_MfPIgQxwSQ51mI=","tags":{"ref":"12727258","amenity":"fuel","shop":"yes","food":"yes","toilets":"yes","shower":"yes","wheelchair":"yes","compressed_air":"yes","internet_access":"wlan","hgv":"yes","fuel:diesel":"yes","fuel:adblue":"yes","fuel:HGV_diesel":"yes","fuel:lpg":"yes","fuel:octane_95":"yes","fuel:octane_98":"yes","fuel:octane_100":"yes","payment:shell":"yes","@source_uri":"https://shellgsllocator.geoapp.me/api/v2/locations/nearest_to?lat=42.489464&lng=26.499871&limit=50","@spider":"shell","addr:street_address":"PYASATSITE 191","addr:city":"SUNNY BEACH","addr:state":"Burgas","addr:postcode":"8240","addr:country":"BG","phone":"+359 88 592 1888","website":"https://find.shell.com/bg/fuel/12727258-1048-shell-sunny-beach","opening_hours":"24/7","brand":"Shell","brand:wikidata":"Q110716465","nsi_id":"shell-e657ec"},"coordinates":[42.688233,27.700554]},"dist":16.152,"tags_mismatch":true},{"osm":{"type":"node","id":6926372590,"tags":{"amenity":"fuel","brand":"Shell","brand:wikidata":"Q110716465","fuel:adblue":"yes","fuel:diesel":"yes","fuel:lpg":"yes","fuel:octane_100":"yes","fuel:octane_95":"yes","fuel:octane_98":"yes","opening_hours":"24/7","phone":"+359 87 699 9265"},"wikidata":"Q110716465","coordinates":[42.2045623,24.7341459]},"atp":{"id":"qW7539FPk-wQSbwBI3ifrLUB7b0=","tags":{"ref":"12651586","amenity":"fuel","shop":"yes","toilets":"yes","compressed_air":"yes","internet_access":"wlan","fuel:diesel":"yes","fuel:adblue":"yes","fuel:lpg":"yes","fuel:octane_95":"yes","fuel:octane_98":"yes","fuel:octane_100":"yes","@source_uri":"https://shellgsllocator.geoapp.me/api/v2/locations/nearest_to?lat=42.633194&lng=25.192134&limit=50","@spider":"shell","addr:street_address":"KARLOVSKO SHOSSE 28","addr:city":"PLOVDIV","addr:state":"Plovdiv","addr:postcode":"4199","addr:country":"BG","phone":"+359 87 699 9265","website":"https://find.shell.com/bg/fuel/12651586-3039-shell-plovdiv-karlovsko-shosse","opening_hours":"24/7","brand":"Shell","brand:wikidata":"Q110716465","nsi_id":"shell-e657ec"},"coordinates":[42.20567,24.734397]},"dist":124.895,"tags_mismatch":false},{"osm":{"type":"node","id":6938897951,"tags":{"amenity":"fuel","brand":"Shell","brand:wikidata":"Q110716465","fuel:HGV_diesel":"yes","fuel:diesel":"yes","fuel:lpg":"yes","fuel:octane_100":"yes","fuel:octane_95":"yes","fuel:octane_98":"yes","opening_hours":"24/7","phone":"+359 88 860 8376"},"wikidata":"Q110716465","coordinates":[42.1653339,24.7496706]},"atp":{"id":"MNmWr47TImVuFyiNwekFTyb4dds=","tags":{"ref":"13009879","amenity":"fuel","shop":"yes","wheelchair":"yes","compressed_air":"yes","internet_access":"wlan","hgv":"yes","fuel:diesel":"yes","fuel:HGV_diesel":"yes","fuel:lpg":"yes","fuel:octane_95":"yes","fuel:octane_98":"yes","fuel:octane_100":"yes","payment:shell":"yes","@source_uri":"https://shellgsllocator.geoapp.me/api/v2/locations/nearest_to?lat=42.633194&lng=25.192134&limit=50","@spider":"shell","addr:street_address":"BREZOVSKO SHOSE STREET 127","addr:city":"PLOVDIV","addr:state":"Plovdiv","addr:postcode":"4003","addr:country":"BG","phone":"+359 88 860 8376","website":"https://find.shell.com/bg/fuel/13009879-1052-brezovsko-shose","opening_hours":"24/7","brand":"Shell","brand:wikidata":"Q110716465","nsi_id":"shell-e657ec"},"coordinates":[42.165323,24.749658]},"dist":1.596,"tags_mismatch":false},{"osm":{"type":"node","id":8553276588,"tags":{"amenity":"fuel","brand":"Shell","brand:wikidata":"Q110716465"},"wikidata":"Q110716465","coordinates":[42.6113505,23.0756655]},"atp":{"id":"hxPrqDlPc758IV8IhVyXxT_QGEM=","tags":{"ref":"10032126","amenity":"fuel","shop":"yes","toilets":"yes","compressed_air":"yes","internet_access":"wlan","fuel:diesel":"yes","fuel:octane_95":"yes","fuel:octane_98":"yes","fuel:octane_100":"yes","@source_uri":"https://shellgsllocator.geoapp.me/api/v2/locations/nearest_to?lat=42.658676&lng=23.381674&limit=50","@spider":"shell","addr:street_address":"YURI GAGARIN BLVD","addr:city":"PERNIK","addr:state":"Pernik","addr:postcode":"2303","addr:country":"BG","phone":"+359 88 701 8595","website":"https://find.shell.com/bg/fuel/10032126-3003-pernik","brand":"Shell","brand:wikidata":"Q110716465","nsi_id":"shell-e657ec"},"coordinates":[42.611321,23.075738]},"dist":6.779,"tags_mismatch":true},{"osm":{"type":"node","id":9165771988,"tags":{"amenity":"fuel","brand":"Shell","brand:wikidata":"Q110716465","fuel:diesel":"yes","fuel:octane_95":"yes","fuel:octane_98":"yes","opening_hours":"24/7"},"wikidata":"Q110716465","coordinates":[42.5322376,26.3999347]},"atp":{"id":"T3dwxZdgb62tnIwHjimOyz5srK8=","tags":{"ref":"12080915","amenity":"fuel","fuel:electricity":"yes","toilets":"yes","compressed_air":"yes","fuel:diesel":"yes","fuel:adblue":"yes","fuel:lpg":"yes","fuel:octane_95":"yes","fuel:octane_98":"yes","fuel:octane_100":"yes","@source_uri":"https://shellgsllocator.geoapp.me/api/v2/locations/nearest_to?lat=42.489464&lng=26.499871&limit=50","@spider":"shell","addr:street_address":"MW TRAKIA KM 276 +150","addr:city":"HADZHI DIMITROVO","addr:state":"Yambol","addr:postcode":"8635","addr:country":"BG","phone":"+359 46 682 222","website":"https://find.shell.com/bg/fuel/12080915-4007-shell-yambol-sever","opening_hours":"24/7","brand":"Shell","brand:wikidata":"Q110716465","nsi_id":"shell-e657ec"},"coordinates":[42.532199,26.400016]},"dist":7.925,"tags_mismatch":true},{"osm":{"type":"node","id":9214736287,"tags":{"amenity":"fuel","atm":"yes","brand":"Shell","brand:wikidata":"Q110716465","car_wash":"yes","fuel:HGV_diesel":"yes","fuel:adblue":"yes","fuel:diesel":"yes","fuel:lpg":"yes","fuel:octane_100":"yes","fuel:octane_95":"yes","fuel:octane_98":"yes","opening_hours":"24/7","phone":"+359 88 399 8854"},"wikidata":"Q110716465","coordinates":[42.544694,26.4504766]},"atp":{"id":"_LwJBTPE79vEsVqu0LWQOZWRyqw=","tags":{"ref":"12837133","amenity":"fuel","shop":"yes","atm":"yes","car_wash":"yes","wheelchair":"yes","compressed_air":"yes","internet_access":"wlan","hgv":"yes","fuel:diesel":"yes","fuel:adblue":"yes","fuel:HGV_diesel":"yes","fuel:lpg":"yes","fuel:octane_95":"yes","fuel:octane_98":"yes","fuel:octane_100":"yes","payment:shell":"yes","payment:dkv":"yes","payment:esso_card":"yes","@source_uri":"https://shellgsllocator.geoapp.me/api/v2/locations/nearest_to?lat=42.489464&lng=26.499871&limit=50","@spider":"shell","addr:street_address":"TRAKIA MOTORWAY 279 150 KM RIGHT","addr:city":"YAMBOL","addr:state":"Stara Zagora","addr:postcode":"8634","addr:country":"BG","phone":"+359 88 857 8663","website":"https://find.shell.com/bg/fuel/12837133-5008-shell-yambol-south","opening_hours":"24/7","brand":"Shell","brand:wikidata":"Q110716465","nsi_id":"shell-e657ec"},"coordinates":[42.544601,26.45026]},"dist":20.538,"tags_mismatch":true},{"osm":{"type":"node","id":9342096836,"tags":{"amenity":"fuel","brand":"Shell","brand:wikidata":"Q110716465"},"wikidata":"Q110716465","coordinates":[42.1988136,24.6378077]},"atp":{"id":"KEdfafEFPdiFalW7kK5qplrXuWc=","tags":{"ref":"10032172","amenity":"fuel","shop":"yes","fuel:electricity":"yes","toilets":"yes","compressed_air":"yes","internet_access":"wlan","hgv":"yes","fuel:diesel":"yes","fuel:adblue":"yes","fuel:HGV_diesel":"yes","fuel:lpg":"yes","fuel:octane_95":"yes","fuel:octane_98":"yes","fuel:octane_100":"yes","@source_uri":"https://shellgsllocator.geoapp.me/api/v2/locations/nearest_to?lat=42.633194&lng=25.192134&limit=50","@spider":"shell","addr:street_address":"AM - 1 KM. 118+414 LEFT","addr:city":"PLOVDIV","addr:state":"Plovdiv","addr:postcode":"4202","addr:country":"BG","phone":"+359 88 399 8851","website":"https://find.shell.com/bg/fuel/10032172-6005-trakia-north","opening_hours":"24/7","brand":"Shell","brand:wikidata":"Q110716465","nsi_id":"shell-e657ec"},"coordinates":[42.198798,24.638033]},"dist":18.64,"tags_mismatch":true},{"osm":{"type":"node","id":9438795239,"tags":{"addr:street":"бул. България","amenity":"fuel","brand":"Shell","brand:wikidata":"Q110716465","building":"roof","capacity":"8","check_date":"2025-06-26","compressed_air":"yes","fuel:diesel":"yes","fuel:octane_95":"yes","fuel:octane_98":"yes","opening_hours":"24/7","wheelchair":"yes"},"wikidata":"Q110716465","coordinates":[42.6773444,23.2972488]},"atp":{"id":"JCM8GH1kt6TBixGnABx0zo9kSjw=","tags":{"ref":"10032158","amenity":"fuel","shop":"yes","toilets":"yes","compressed_air":"yes","internet_access":"wlan","fuel:diesel":"yes","fuel:adblue":"yes","fuel:octane_95":"yes","fuel:octane_98":"yes","fuel:octane_100":"yes","@source_uri":"https://shellgsllocator.geoapp.me/api/v2/locations/nearest_to?lat=42.658676&lng=23.381674&limit=50","@spider":"shell","addr:street_address":"BULD BULGARIA BELITE BREZI","addr:city":"SOFIA","addr:state":"Sofia- Grad","addr:postcode":"1680","addr:country":"BG","phone":"+359 89 861 5906","website":"https://find.shell.com/bg/fuel/10032158-3035-sofia-belite-brezi","opening_hours":"24/7","brand":"Shell","brand:wikidata":"Q110716465","nsi_id":"shell-e657ec"},"coordinates":[42.677435,23.297389]},"dist":15.259,"tags_mismatch":true},{"osm":{"type":"node","id":9510659658,"tags":{"amenity":"fuel","brand":"Shell","brand:wikidata":"Q110716465"},"wikidata":"Q110716465","coordinates":[42.0936723,24.7618809]},"atp":{"id":"aTuJ8pGlzY4UK_Ikkzk07m1_NAg=","tags":{"ref":"12793587","amenity":"fuel","shop":"yes","car_wash":"yes","internet_access":"wlan","hgv":"yes","fuel:diesel":"yes","fuel:HGV_diesel":"yes","fuel:octane_95":"yes","fuel:octane_100":"yes","payment:shell":"yes","@source_uri":"https://shellgsllocator.geoapp.me/api/v2/locations/nearest_to?lat=42.633194&lng=25.192134&limit=50","@spider":"shell","addr:street_address":"KUKLENSKO SHOSE","addr:city":"PLOVDIV","addr:state":"Plovdiv","addr:postcode":"4109","addr:country":"BG","phone":"+359 88 770 7940","website":"https://find.shell.com/bg/fuel/12793587-1055-plovdiv-kuklensko-shose","opening_hours":"24/7","brand":"Shell","brand:wikidata":"Q110716465","nsi_id":"shell-e657ec"},"coordinates":[42.09373,24.76185]},"dist":6.904,"tags_mismatch":true},{"osm":{"type":"node","id":9718423973,"tags":{"amenity":"fuel","brand":"Shell","brand:wikidata":"Q110716465","contact:phone":"+359 88 423 3005","website":"https://find.shell.com/bg/fuel/12664120-1054-shell-chirpan"},"wikidata":"Q110716465","coordinates":[42.1923436,25.3272462]},"atp":{"id":"4vMIDbkoZu0YWoAgpkIaM50MdQY=","tags":{"ref":"12664120","amenity":"fuel","shop":"yes","toilets":"yes","compressed_air":"yes","fuel:diesel":"yes","fuel:lpg":"yes","fuel:octane_95":"yes","fuel:octane_100":"yes","@source_uri":"https://shellgsllocator.geoapp.me/api/v2/locations/nearest_to?lat=42.489464&lng=26.499871&limit=50","@spider":"shell","addr:street_address":"78, VASIL LEVSKI STREET","addr:city":"CHIRPAN","addr:state":"Burgas","addr:postcode":"6200","addr:country":"BG","phone":"+359 88 423 3005","website":"https://find.shell.com/bg/fuel/12664120-1054-shell-chirpan","brand":"Shell","brand:wikidata":"Q110716465","nsi_id":"shell-e657ec"},"coordinates":[42.192633,25.327253]},"dist":32.185,"tags_mismatch":true},{"osm":{"type":"node","id":9781356641,"tags":{"addr:city":"Сливо поле","addr:housenumber":"2Б","addr:postcode":"7060","addr:street":"бул. България","amenity":"fuel","brand":"Shell","brand:wikidata":"Q110716465","building":"yes","phone":"+359 89 993 1691","website":"https://www.shell.bg/"},"wikidata":"Q110716465","coordinates":[43.9405364,26.2000405]},"atp":false,"tags_mismatch":false},{"osm":{"type":"node","id":9955014813,"tags":{"amenity":"fuel","brand":"Shell","brand:wikidata":"Q110716465","int_name":"Shell","mapillary":"517653649658467","survey:date":"2021-07-09"},"wikidata":"Q110716465","coordinates":[41.3912189,23.3594303]},"atp":{"id":"JUycsYhSH2H4VBjH48NkUCTo_wE=","tags":{"ref":"10032122","amenity":"fuel","shop":"yes","toilets":"yes","compressed_air":"yes","internet_access":"wlan","hgv":"yes","fuel:diesel":"yes","fuel:adblue":"yes","fuel:HGV_diesel":"yes","fuel:lpg":"yes","fuel:octane_95":"yes","fuel:octane_98":"yes","fuel:octane_100":"yes","@source_uri":"https://shellgsllocator.geoapp.me/api/v2/locations/nearest_to?lat=42.658676&lng=23.381674&limit=50","@spider":"shell","addr:street_address":"I-1, KM 427 LEFT","addr:city":"KULATA","addr:state":"Blagoevgrad","addr:postcode":"2868","addr:country":"BG","phone":"+359 88 488 1355","website":"https://find.shell.com/bg/fuel/10032122-2010-kulata","opening_hours":"24/7","brand":"Shell","brand:wikidata":"Q110716465","nsi_id":"shell-e657ec"},"coordinates":[41.391088,23.359503]},"dist":15.768,"tags_mismatch":true},{"osm":{"type":"node","id":10156076297,"tags":{"amenity":"fuel","brand":"Shell","brand:wikidata":"Q110716465","fuel:HGV_diesel":"yes","fuel:adblue":"yes","fuel:diesel":"yes","fuel:lpg":"yes","fuel:octane_100":"yes","fuel:octane_95":"yes","fuel:octane_98":"yes","opening_hours":"24/7","phone":"+359 88 534 3138"},"wikidata":"Q110716465","coordinates":[43.219538,27.8838978]},"atp":{"id":"eogBly0Kf8QPXBPeDl64lhplDK0=","tags":{"ref":"10032133","amenity":"fuel","shop":"yes","toilets":"yes","compressed_air":"yes","internet_access":"wlan","hgv":"yes","fuel:diesel":"yes","fuel:adblue":"yes","fuel:HGV_diesel":"yes","fuel:lpg":"yes","fuel:octane_95":"yes","fuel:octane_98":"yes","fuel:octane_100":"yes","@source_uri":"https://shellgsllocator.geoapp.me/api/v2/locations/nearest_to?lat=43.876183&lng=26.017556&limit=50","@spider":"shell","addr:street_address":"UL AKADEMIK KURCHATOV 1","addr:city":"VARNA","addr:state":"Varna","addr:postcode":"9009","addr:country":"BG","phone":"+359 88 534 3138","website":"https://find.shell.com/bg/fuel/10032133-3010-varna","opening_hours":"24/7","brand":"Shell","brand:wikidata":"Q110716465","nsi_id":"shell-e657ec"},"coordinates":[43.219549,27.883772]},"dist":10.267,"tags_mismatch":false},{"osm":{"type":"node","id":10264984672,"tags":{"amenity":"fuel","brand":"Shell","brand:wikidata":"Q110716465","fuel:adblue":"yes","fuel:diesel":"yes","fuel:lpg":"yes","fuel:octane_95":"yes","fuel:octane_98":"yes","phone":"+359 88 592 1892"},"wikidata":"Q110716465","coordinates":[42.4547399,27.4183881]},"atp":{"id":"YbmVj8TJ0gLMLCRGBvluiYL5cPc=","tags":{"ref":"12296566","amenity":"fuel","shop":"yes","toilets":"yes","compressed_air":"yes","fuel:diesel":"yes","fuel:adblue":"yes","fuel:lpg":"yes","fuel:octane_95":"yes","fuel:octane_98":"yes","@source_uri":"https://shellgsllocator.geoapp.me/api/v2/locations/nearest_to?lat=41.713181&lng=27.212973&limit=50","@spider":"shell","addr:street_address":"KVARTAL MEDEN RUDNIK BLOCK 294","addr:city":"BURGAS","addr:state":"Burgas","addr:postcode":"8112","addr:country":"BG","phone":"+359 88 592 1892","website":"https://find.shell.com/bg/fuel/12296566-1036-shell-burgas-meden-rudnik","opening_hours":"24/7","brand":"Shell","brand:wikidata":"Q110716465","nsi_id":"shell-e657ec"},"coordinates":[42.454736,27.418377]},"dist":1.009,"tags_mismatch":true},{"osm":{"type":"node","id":10291800897,"tags":{"addr:city":"Ябланица","addr:place":"М. Нановица","amenity":"fuel","atm":"yes","brand":"Shell","brand:wikidata":"Q110716465","compressed_air":"yes","fuel:HGV_diesel":"yes","fuel:adblue":"yes","fuel:diesel":"yes","fuel:lpg":"yes","fuel:octane_100":"yes","fuel:octane_95":"yes","fuel:octane_98":"yes","internet_access":"yes","internet_access:fee":"no","opening_hours":"24/7","payment:mastercard":"yes","payment:visa":"yes","payment:visa_electron":"yes","phone":"+359 87 810 5409"},"wikidata":"Q110716465","coordinates":[43.0278018,24.115843]},"atp":false,"tags_mismatch":false},{"osm":{"type":"node","id":11064708232,"tags":{"addr:city":"София","addr:street":"бул. Александър Малинов","amenity":"fuel","branch":"ТК 3020 Шел Младост","brand":"Shell","brand:wikidata":"Q110716465","check_date":"2024-08-08","compressed_air":"yes","fuel:GTL_diesel":"yes","fuel:adblue":"yes","fuel:diesel":"yes","fuel:lpg":"yes","fuel:octane_100":"yes","fuel:octane_95":"yes","fuel:octane_98":"yes","internet_access":"wlan","internet_access:fee":"customers","opening_hours":"24/7","payment:cash":"yes","payment:credit_cards":"yes","payment:debit_cards":"yes","phone":"+359 88 935 5370","wheelchair":"yes"},"wikidata":"Q110716465","coordinates":[42.6478918,23.3760449]},"atp":{"id":"Kt8IdgCz-gALYDm0AqPctO9d6Zg=","tags":{"ref":"10032143","amenity":"fuel","shop":"yes","toilets":"yes","wheelchair":"yes","compressed_air":"yes","internet_access":"wlan","fuel:diesel":"yes","fuel:adblue":"yes","fuel:lpg":"yes","fuel:octane_95":"yes","fuel:octane_98":"yes","fuel:octane_100":"yes","@source_uri":"https://shellgsllocator.geoapp.me/api/v2/locations/nearest_to?lat=42.658676&lng=23.381674&limit=50","@spider":"shell","addr:street_address":"ALEXANDER MALINOV BLVD","addr:city":"SOFIA","addr:state":"Sofia- Grad","addr:postcode":"1799","addr:country":"BG","phone":"+359 88 935 5370","website":"https://find.shell.com/bg/fuel/10032143-3020-sofia-mladost","opening_hours":"24/7","brand":"Shell","brand:wikidata":"Q110716465","nsi_id":"shell-e657ec"},"coordinates":[42.647896,23.376052]},"dist":0.745,"tags_mismatch":true},{"osm":{"type":"node","id":11215923004,"tags":{"amenity":"fuel","brand":"Shell","brand:wikidata":"Q110716465","fuel:adblue":"yes","fuel:diesel":"yes","fuel:lpg":"yes","fuel:octane_100":"yes","fuel:octane_95":"yes","opening_hours":"24/7","phone":"+359 89 872 2268","source":"knowledge, aerial photography"},"wikidata":"Q110716465","coordinates":[42.6332367,25.1921079]},"atp":{"id":"hSDvTV8j9ef6_8nmxNC0nr8Px9k=","tags":{"ref":"12659628","amenity":"fuel","shop":"yes","toilets":"yes","compressed_air":"yes","fuel:diesel":"yes","fuel:adblue":"yes","fuel:lpg":"yes","fuel:octane_95":"yes","fuel:octane_100":"yes","@source_uri":"https://shellgsllocator.geoapp.me/api/v2/locations/nearest_to?lat=42.633194&lng=25.192134&limit=50","@spider":"shell","addr:street_address":"MAIN ROAD BURGAS-SOFIA I-6","addr:city":"PAVEL BANIA","addr:state":"Stara Zagora","addr:postcode":"6155","addr:country":"BG","phone":"+359 436 133 80","website":"https://find.shell.com/bg/fuel/12659628-1051-shell-pavel-bania","opening_hours":"24/7","brand":"Shell","brand:wikidata":"Q110716465","nsi_id":"shell-e657ec"},"coordinates":[42.633194,25.192134]},"dist":5.206,"tags_mismatch":true},{"osm":{"type":"node","id":11215924046,"tags":{"amenity":"fuel","brand":"Shell","brand:wikidata":"Q110716465","fuel:HGV_diesel":"yes","fuel:adblue":"yes","fuel:diesel":"yes","fuel:lpg":"yes","fuel:octane_100":"yes","fuel:octane_95":"yes","fuel:octane_98":"yes","opening_hours":"24/7","phone":"+359 89 455 2848"},"wikidata":"Q110716465","coordinates":[42.4972015,26.5921438]},"atp":{"id":"SgPHJlskakBQaeinLsEufyTPmA4=","tags":{"ref":"12859445","amenity":"fuel","shop":"yes","shower":"yes","wheelchair":"yes","compressed_air":"yes","internet_access":"wlan","hgv":"yes","fuel:diesel":"yes","fuel:adblue":"yes","fuel:HGV_diesel":"yes","fuel:lpg":"yes","fuel:octane_95":"yes","fuel:octane_98":"yes","fuel:octane_100":"yes","payment:shell":"yes","@source_uri":"https://shellgsllocator.geoapp.me/api/v2/locations/nearest_to?lat=42.489464&lng=26.499871&limit=50","@spider":"shell","addr:street_address":"MOGILA VILLAGE, PUSTENIKA","addr:city":"MOGILA VILLAGE","addr:state":"Yambol","addr:postcode":"8627","addr:country":"BG","phone":"+359 89 455 2848","website":"https://find.shell.com/bg/fuel/12859445-1056-yambol-mogila","opening_hours":"24/7","brand":"Shell","brand:wikidata":"Q110716465","nsi_id":"shell-e657ec"},"coordinates":[42.497163,26.592071]},"dist":7.345,"tags_mismatch":false},{"osm":{"type":"node","id":11216034222,"tags":{"addr:city":"Шумен","addr:housenumber":"65","addr:postcode":"9700","addr:street":"бул. Симеон Велики","amenity":"fuel","brand":"Shell","brand:wikidata":"Q110716465","compressed_air":"yes","fuel:adblue":"yes","fuel:diesel":"yes","fuel:lpg":"yes","fuel:octane_100":"yes","fuel:octane_95":"yes","fuel:octane_98":"yes","opening_hours":"24/7","phone":"+359 54 800 053","self_service":"no"},"wikidata":"Q110716465","coordinates":[43.272645,26.925255]},"atp":{"id":"pTEu_Fh8gGk43egIVEBjZTXAlGs=","tags":{"ref":"10032147","amenity":"fuel","shop":"yes","toilets":"yes","compressed_air":"yes","internet_access":"wlan","fuel:diesel":"yes","fuel:adblue":"yes","fuel:lpg":"yes","fuel:octane_95":"yes","fuel:octane_98":"yes","fuel:octane_100":"yes","@source_uri":"https://shellgsllocator.geoapp.me/api/v2/locations/nearest_to?lat=42.489464&lng=26.499871&limit=50","@spider":"shell","addr:street_address":"SIMEON VELIKI BLVD 65","addr:city":"SHUMEN","addr:state":"Shumen","addr:postcode":"9700","addr:country":"BG","phone":"+359 87 816 8189","website":"https://find.shell.com/bg/fuel/10032147-3024-shumen-centre","opening_hours":"24/7","brand":"Shell","brand:wikidata":"Q110716465","nsi_id":"shell-e657ec"},"coordinates":[43.272762,26.925277]},"dist":13.131,"tags_mismatch":true},{"osm":{"type":"node","id":11216059215,"tags":{"amenity":"fuel","brand":"Shell","brand:wikidata":"Q110716465","fuel:diesel":"yes","fuel:lpg":"yes","fuel:octane_95":"yes","fuel:octane_98":"yes","phone":"+359 88 592 1889"},"wikidata":"Q110716465","coordinates":[42.5841152,27.5102301]},"atp":{"id":"cjbCoechq2ej3Owhc1RH2T7JY7U=","tags":{"ref":"12140715","amenity":"fuel","shop":"yes","toilets":"yes","compressed_air":"yes","fuel:diesel":"yes","fuel:lpg":"yes","fuel:octane_95":"yes","fuel:octane_98":"yes","@source_uri":"https://shellgsllocator.geoapp.me/api/v2/locations/nearest_to?lat=41.713181&lng=27.212973&limit=50","@spider":"shell","addr:street_address":"PAT BURGAS - NESEBAR DO SELO RUDNIK","addr:city":"RUDNIK","addr:state":"Burgas","addr:postcode":"8112","addr:country":"BG","phone":"+359 88 592 1889","website":"https://find.shell.com/bg/fuel/12140715-1034-shell-kableshkovo","brand":"Shell","brand:wikidata":"Q110716465","nsi_id":"shell-e657ec"},"coordinates":[42.584143,27.510178]},"dist":5.268,"tags_mismatch":false},{"osm":{"type":"node","id":11216180768,"tags":{"amenity":"fuel","brand":"Shell","brand:wikidata":"Q110716465","fuel:adblue":"yes","fuel:diesel":"yes","fuel:octane_95":"yes","fuel:octane_98":"yes","opening_hours":"24/7","phone":"+359 93 232 263"},"wikidata":"Q110716465","coordinates":[43.703968,23.0088322]},"atp":{"id":"VTMbek5uBjt88lEHYWV15f4el8I=","tags":{"ref":"10032190","amenity":"fuel","shop":"yes","toilets":"yes","compressed_air":"yes","internet_access":"wlan","fuel:diesel":"yes","fuel:adblue":"yes","fuel:octane_95":"yes","@source_uri":"https://shellgsllocator.geoapp.me/api/v2/locations/nearest_to?lat=42.658676&lng=23.381674&limit=50","@spider":"shell","addr:street_address":"III-1, KM 8+450 RIGHT","addr:city":"DRENOVETS","addr:state":"Vidin","addr:postcode":"3920","addr:country":"BG","phone":"+359 93 232 263","website":"https://find.shell.com/bg/fuel/10032190-9009-drenovets","opening_hours":"24/7","brand":"Shell","brand:wikidata":"Q110716465","nsi_id":"shell-e657ec"},"coordinates":[43.704162,23.009023]},"dist":26.468,"tags_mismatch":true},{"osm":{"type":"node","id":11216873985,"tags":{"addr:street":"Околовръстен път","amenity":"fuel","brand":"Shell","brand:wikidata":"Q110716465","fuel:HGV_diesel":"yes","fuel:adblue":"yes","fuel:diesel":"yes","fuel:lpg":"yes","fuel:octane_100":"yes","fuel:octane_95":"yes","fuel:octane_98":"yes","phone":"+359 88 589 9665"},"wikidata":"Q110716465","coordinates":[42.6613512,23.456429]},"atp":{"id":"AOW1R2yIShdLtQyPhRWlh6DZnms=","tags":{"ref":"10032164","amenity":"fuel","shop":"yes","toilets":"yes","compressed_air":"yes","internet_access":"wlan","hgv":"yes","fuel:diesel":"yes","fuel:adblue":"yes","fuel:HGV_diesel":"yes","fuel:lpg":"yes","fuel:octane_95":"yes","fuel:octane_98":"yes","fuel:octane_100":"yes","@source_uri":"https://shellgsllocator.geoapp.me/api/v2/locations/nearest_to?lat=42.658676&lng=23.381674&limit=50","@spider":"shell","addr:street_address":"II-18, KM 31+805 RIGHT","addr:city":"KAZICHENE","addr:state":"Sofia- Grad","addr:postcode":"1532","addr:country":"BG","phone":"+359 88 589 9665","website":"https://find.shell.com/bg/fuel/10032164-5001-sofia-kazichane","opening_hours":"24/7","brand":"Shell","brand:wikidata":"Q110716465","nsi_id":"shell-e657ec"},"coordinates":[42.661508,23.4565]},"dist":18.377,"tags_mismatch":true},{"osm":{"type":"node","id":11216892062,"tags":{"amenity":"fuel","brand":"Shell","brand:wikidata":"Q110716465","fuel:HGV_diesel":"yes","fuel:adblue":"yes","fuel:diesel":"yes","fuel:octane_100":"yes","fuel:octane_95":"yes","fuel:octane_98":"yes","opening_hours":"24/7","phone":"+359 88 772 7926"},"wikidata":"Q110716465","coordinates":[42.602435,23.1453908]},"atp":{"id":"dJgKpUp78GcHJRgeKQhkFMT1LNo=","tags":{"ref":"10032113","amenity":"fuel","shop":"yes","toilets":"yes","compressed_air":"yes","internet_access":"wlan","hgv":"yes","fuel:diesel":"yes","fuel:adblue":"yes","fuel:HGV_diesel":"yes","fuel:octane_95":"yes","fuel:octane_98":"yes","fuel:octane_100":"yes","@source_uri":"https://shellgsllocator.geoapp.me/api/v2/locations/nearest_to?lat=42.658676&lng=23.381674&limit=50","@spider":"shell","addr:street_address":"I-1/E79 ROAD","addr:city":"DRAGICHEVO","addr:state":"Pernik","addr:postcode":"2351","addr:country":"BG","phone":"+359 88 772 7926","website":"https://find.shell.com/bg/fuel/10032113-2001-dragichevo","opening_hours":"24/7","brand":"Shell","brand:wikidata":"Q110716465","nsi_id":"shell-e657ec"},"coordinates":[42.602421,23.145667]},"dist":22.66,"tags_mismatch":false},{"osm":{"type":"node","id":11254889605,"tags":{"amenity":"fuel","brand":"Shell","brand:wikidata":"Q110716465","fuel:diesel":"yes","fuel:lpg":"yes","fuel:octane_95":"yes","fuel:octane_98":"yes","opening_hours":"24/7","phone":"+359 87 699 9263"},"wikidata":"Q110716465","coordinates":[42.1395952,24.7256022]},"atp":{"id":"iYOJs4TNYcy33EoYw7GeRpvEEM0=","tags":{"ref":"13045655","amenity":"fuel","shop":"yes","wheelchair":"yes","compressed_air":"yes","internet_access":"wlan","fuel:diesel":"yes","fuel:lpg":"yes","fuel:octane_95":"yes","fuel:octane_98":"yes","payment:shell":"yes","payment:dkv":"yes","@source_uri":"https://shellgsllocator.geoapp.me/api/v2/locations/nearest_to?lat=42.633194&lng=25.192134&limit=50","@spider":"shell","addr:street_address":"PESHTERSKO SHOSE BLVD. 32","addr:city":"PLOVDIV","addr:state":"Plovdiv","addr:postcode":"4002","addr:country":"BG","phone":"+359 87 699 9263","website":"https://find.shell.com/bg/fuel/13045655-3043-shell-peshtersko-shose","opening_hours":"24/7","brand":"Shell","brand:wikidata":"Q110716465","nsi_id":"shell-e657ec"},"coordinates":[42.139324,24.725493]},"dist":31.472,"tags_mismatch":false},{"osm":{"type":"node","id":11254911441,"tags":{"amenity":"fuel","brand":"Shell","brand:wikidata":"Q110716465","fuel:adblue":"yes","fuel:diesel":"yes","fuel:lpg":"yes","fuel:octane_100":"yes","fuel:octane_95":"yes","fuel:octane_98":"yes","opening_hours":"24/7","phone":"+359 89 856 1912"},"wikidata":"Q110716465","coordinates":[42.1335534,24.7307202]},"atp":{"id":"9o9CzPbdsSnkq1wEp7CMlBEe_9k=","tags":{"ref":"13044054","amenity":"fuel","shop":"yes","wheelchair":"yes","compressed_air":"yes","internet_access":"wlan","fuel:diesel":"yes","fuel:lpg":"yes","fuel:octane_95":"yes","fuel:octane_98":"yes","fuel:octane_100":"yes","payment:shell":"yes","payment:dkv":"yes","@source_uri":"https://shellgsllocator.geoapp.me/api/v2/locations/nearest_to?lat=42.633194&lng=25.192134&limit=50","@spider":"shell","addr:street_address":"HRISTO BOTEV BLVD. 1B","addr:city":"PLOVDIV","addr:state":"Plovdiv","addr:postcode":"4002","addr:country":"BG","phone":"+359 88 399 8853","website":"https://find.shell.com/bg/fuel/13044054-3045-shell-hristo-botev","opening_hours":"24/7","brand":"Shell","brand:wikidata":"Q110716465","nsi_id":"shell-e657ec"},"coordinates":[42.133444,24.731083]},"dist":32.295,"tags_mismatch":true},{"osm":{"type":"node","id":11504445879,"tags":{"addr:street":"Гълъбец","amenity":"fuel","brand":"Shell","brand:wikidata":"Q110716465","compressed_air":"yes","opening_hours":"24/7"},"wikidata":"Q110716465","coordinates":[42.6962606,23.355961]},"atp":{"id":"GlBF0Rb0B-UbNRGCRG8bf7-pi9s=","tags":{"ref":"12062916","amenity":"fuel","shop":"yes","fuel:electricity":"yes","toilets":"yes","compressed_air":"yes","internet_access":"wlan","fuel:diesel":"yes","fuel:adblue":"yes","fuel:lpg":"yes","fuel:octane_95":"yes","fuel:octane_98":"yes","fuel:octane_100":"yes","@source_uri":"https://shellgsllocator.geoapp.me/api/v2/locations/nearest_to?lat=42.658676&lng=23.381674&limit=50","@spider":"shell","addr:street_address":"BOTEVGRADSKO SHOSE","addr:city":"SOFIA","addr:state":"Sofia- Grad","addr:postcode":"1505","addr:country":"BG","phone":"+359 88 504 5588","website":"https://find.shell.com/bg/fuel/12062916-5006-shell-poduene","opening_hours":"24/7","brand":"Shell","brand:wikidata":"Q110716465","nsi_id":"shell-e657ec"},"coordinates":[42.69644,23.35593]},"dist":20.109,"tags_mismatch":true},{"osm":{"type":"node","id":11537298842,"tags":{"addr:street":"Илийчо П. Илиев","amenity":"fuel","brand":"Shell","brand:wikidata":"Q110716465"},"wikidata":"Q110716465","coordinates":[42.7063592,23.3058715]},"atp":{"id":"wgImX7G1npGQt2VHTLuIpUD7a6U=","tags":{"ref":"10032165","amenity":"fuel","shop":"yes","toilets":"yes","compressed_air":"yes","internet_access":"wlan","fuel:diesel":"yes","fuel:adblue":"yes","fuel:lpg":"yes","fuel:octane_95":"yes","fuel:octane_98":"yes","fuel:octane_100":"yes","@source_uri":"https://shellgsllocator.geoapp.me/api/v2/locations/nearest_to?lat=42.658676&lng=23.381674&limit=50","@spider":"shell","addr:street_address":"SLIVNITZA BLVD","addr:city":"SOFIA","addr:state":"Sofia- Grad","addr:postcode":"1233","addr:country":"BG","phone":"+359 89 301 7127","website":"https://find.shell.com/bg/fuel/10032165-5002-sofia-slivnitsa","opening_hours":"24/7","brand":"Shell","brand:wikidata":"Q110716465","nsi_id":"shell-e657ec"},"coordinates":[42.706377,23.305977]},"dist":8.845,"tags_mismatch":true},{"osm":{"type":"node","id":11608677326,"tags":{"amenity":"fuel","brand":"Shell","brand:wikidata":"Q110716465"},"wikidata":"Q110716465","coordinates":[41.6156549,25.3759873]},"atp":{"id":"880mCF7-GNyxT4nX8Q46iamunzA=","tags":{"ref":"12862731","amenity":"fuel","shop":"yes","wheelchair":"yes","compressed_air":"yes","internet_access":"wlan","hgv":"yes","fuel:diesel":"yes","fuel:adblue":"yes","fuel:HGV_diesel":"yes","fuel:lpg":"yes","fuel:octane_95":"yes","fuel:octane_98":"yes","fuel:octane_100":"yes","payment:shell":"yes","@source_uri":"https://shellgsllocator.geoapp.me/api/v2/locations/nearest_to?lat=40.84822&lng=25.888402&limit=50","@spider":"shell","addr:street_address":"MAIN ROAD E-85, KARDJALI MAK GLEDKA","addr:city":"KARDJALI","addr:state":"Kyrdjali","addr:postcode":"6600","addr:country":"BG","phone":"+359 36 165 740","website":"https://find.shell.com/bg/fuel/12862731-1047-kardjali","opening_hours":"24/7","brand":"Shell","brand:wikidata":"Q110716465","nsi_id":"shell-e657ec"},"coordinates":[41.615656,25.37621]},"dist":18.514,"tags_mismatch":true},{"osm":{"type":"node","id":11961368424,"tags":{"amenity":"fuel","brand":"Shell","brand:wikidata":"Q110716465","compressed_air":"yes","fixme":"add roads and building","fuel:HGV_diesel":"yes","fuel:adblue":"yes","fuel:diesel":"yes","fuel:lpg":"yes","fuel:octane_100":"yes","fuel:octane_95":"yes","fuel:octane_98":"yes","internet_access":"wlan","opening_hours":"24/7","toilets":"yes","wheelchair":"yes"},"wikidata":"Q110716465","coordinates":[42.168443,24.8178344]},"atp":false,"tags_mismatch":false},{"osm":{"type":"way","id":69913674,"tags":{"amenity":"fuel","brand":"Shell","brand:wikidata":"Q110716465"},"wikidata":"Q110716465","coordinates":[42.4227656,25.6428017]},"atp":{"id":"TEG9095XzIVauSCJvfuiXU1LZDM=","tags":{"ref":"10032174","amenity":"fuel","shop":"yes","toilets":"yes","car_wash":"yes","compressed_air":"yes","internet_access":"wlan","fuel:diesel":"yes","fuel:adblue":"yes","fuel:lpg":"yes","fuel:octane_95":"yes","fuel:octane_98":"yes","fuel:octane_100":"yes","@source_uri":"https://shellgsllocator.geoapp.me/api/v2/locations/nearest_to?lat=42.489464&lng=26.499871&limit=50","@spider":"shell","addr:street_address":"ANGEL KANCHEV STR 2","addr:city":"STARA ZAGORA","addr:state":"Stara Zagora","addr:postcode":"6001","addr:country":"BG","phone":"+359 42 601 992","website":"https://find.shell.com/bg/fuel/10032174-6007-trajana","opening_hours":"24/7","brand":"Shell","brand:wikidata":"Q110716465","nsi_id":"shell-e657ec"},"coordinates":[42.422829,25.642701]},"dist":10.864,"tags_mismatch":true},{"osm":{"type":"way","id":93850946,"tags":{"addr:city":"Пловдив","addr:housenumber":"48","addr:street":"бул. Санкт Петербург","amenity":"fuel","brand":"Shell","brand:wikidata":"Q110716465","fuel:diesel":"yes","fuel:lpg":"yes","fuel:octane_95":"yes","fuel:octane_98":"yes","opening_hours":"24/7","phone":"+359 89 898 9407"},"wikidata":"Q110716465","coordinates":[42.1426243,24.7851109]},"atp":{"id":"JqqfHK_wyCnlGJOeNIgx1T3H9-k=","tags":{"ref":"13045661","amenity":"fuel","shop":"yes","wheelchair":"yes","compressed_air":"yes","internet_access":"wlan","fuel:diesel":"yes","fuel:lpg":"yes","fuel:octane_95":"yes","fuel:octane_98":"yes","payment:shell":"yes","payment:dkv":"yes","@source_uri":"https://shellgsllocator.geoapp.me/api/v2/locations/nearest_to?lat=42.633194&lng=25.192134&limit=50","@spider":"shell","addr:street_address":"SANKT PETERBURG BLVD. 48","addr:city":"PLOVIDV","addr:state":"Plovdiv","addr:postcode":"4024","addr:country":"BG","phone":"+359 88 577 5057","website":"https://find.shell.com/bg/fuel/13045661-3046-shell-sankt-peterburg","opening_hours":"24/7","brand":"Shell","brand:wikidata":"Q110716465","nsi_id":"shell-e657ec"},"coordinates":[42.142827,24.785313]},"dist":28.03,"tags_mismatch":true},{"osm":{"type":"way","id":94168099,"tags":{"amenity":"fuel","brand":"Shell","brand:wikidata":"Q110716465","building":"yes","source":"Bing"},"wikidata":"Q110716465","coordinates":[43.9751859,22.8691986]},"atp":{"id":"6j9HYuCutlWWI07qPaFH2JPmf84=","tags":{"ref":"10032128","amenity":"fuel","shop":"yes","toilets":"yes","compressed_air":"yes","internet_access":"wlan","hgv":"yes","fuel:diesel":"yes","fuel:adblue":"yes","fuel:HGV_diesel":"yes","fuel:lpg":"yes","fuel:octane_95":"yes","fuel:octane_98":"yes","@source_uri":"https://shellgsllocator.geoapp.me/api/v2/locations/nearest_to?lat=43.975206&lng=22.869203&limit=50","@spider":"shell","addr:street_address":"TZAR ALEXANDER VTORI STR","addr:city":"VIDIN","addr:state":"Vidin","addr:postcode":"3700","addr:country":"BG","phone":"+359 88 534 1690","website":"https://find.shell.com/bg/fuel/10032128-3005-vidin","opening_hours":"24/7","brand":"Shell","brand:wikidata":"Q110716465","nsi_id":"shell-e657ec"},"coordinates":[43.975206,22.869203]},"dist":2.263,"tags_mismatch":true},{"osm":{"type":"way","id":94401866,"tags":{"amenity":"fuel","brand":"Shell","brand:wikidata":"Q110716465","fuel:diesel":"yes","fuel:lpg":"yes","fuel:octane_100":"yes","fuel:octane_95":"yes","opening_hours":"24/7"},"wikidata":"Q110716465","coordinates":[42.1484208,24.7802839]},"atp":{"id":"DSsJD4ZrT3E4yG2GOFAahUZnrQo=","tags":{"ref":"10032153","amenity":"fuel","shop":"yes","toilets":"yes","compressed_air":"yes","internet_access":"wlan","fuel:diesel":"yes","fuel:adblue":"yes","fuel:lpg":"yes","fuel:octane_95":"yes","fuel:octane_98":"yes","fuel:octane_100":"yes","@source_uri":"https://shellgsllocator.geoapp.me/api/v2/locations/nearest_to?lat=42.633194&lng=25.192134&limit=50","@spider":"shell","addr:street_address":"TZARIGRADSKO SHAUSSE BLVD 90A","addr:city":"PLOVDIV","addr:state":"Plovdiv","addr:postcode":"4019","addr:country":"BG","phone":"+359 88 738 2020","website":"https://find.shell.com/bg/fuel/10032153-3030-maria-luiza","opening_hours":"24/7","brand":"Shell","brand:wikidata":"Q110716465","nsi_id":"shell-e657ec"},"coordinates":[42.148464,24.780274]},"dist":4.872,"tags_mismatch":true},{"osm":{"type":"way","id":110238286,"tags":{"amenity":"fuel","brand":"Shell","brand:wikidata":"Q110716465","fuel:diesel":"yes","fuel:lpg":"yes","fuel:octane_100":"yes","fuel:octane_95":"yes","fuel:octane_98":"yes","opening_hours":"24/7"},"wikidata":"Q110716465","coordinates":[42.4160768,25.6012973]},"atp":{"id":"j5DC6l8C1W3UaZk1pLTkhUuqoyA=","tags":{"ref":"10032132","amenity":"fuel","shop":"yes","toilets":"yes","compressed_air":"yes","internet_access":"wlan","fuel:diesel":"yes","fuel:adblue":"yes","fuel:lpg":"yes","fuel:octane_95":"yes","fuel:octane_98":"yes","fuel:octane_100":"yes","@source_uri":"https://shellgsllocator.geoapp.me/api/v2/locations/nearest_to?lat=42.489464&lng=26.499871&limit=50","@spider":"shell","addr:street_address":"ZHELEZNIK TZAR SIMEON BLVD","addr:city":"STARA ZAGORA","addr:state":"Stara Zagora","addr:postcode":"6001","addr:country":"BG","phone":"+359 42 670 340","website":"https://find.shell.com/bg/fuel/10032132-3009-stara-zagora","opening_hours":"24/7","brand":"Shell","brand:wikidata":"Q110716465","nsi_id":"shell-e657ec"},"coordinates":[42.416067,25.601183]},"dist":9.446,"tags_mismatch":true},{"osm":{"type":"way","id":160492019,"tags":{"amenity":"fuel","brand":"Shell","brand:wikidata":"Q110716465","fuel:HGV_diesel":"yes","fuel:adblue":"yes","fuel:diesel":"yes","fuel:lpg":"yes","fuel:octane_100":"yes","fuel:octane_95":"yes","opening_hours":"24/7","phone":"+359 89 443 0543"},"wikidata":"Q110716465","coordinates":[42.1860156,24.3218694]},"atp":{"id":"cMZfhTtqOQmy2j2g2YggSTdfLZI=","tags":{"ref":"10032152","amenity":"fuel","shop":"yes","toilets":"yes","compressed_air":"yes","internet_access":"wlan","fuel:diesel":"yes","fuel:adblue":"yes","fuel:lpg":"yes","fuel:octane_95":"yes","fuel:octane_98":"yes","fuel:octane_100":"yes","@source_uri":"https://shellgsllocator.geoapp.me/api/v2/locations/nearest_to?lat=42.633194&lng=25.192134&limit=50","@spider":"shell","addr:street_address":"LYUBEN BOYANOV STR","addr:city":"PAZARDZHIK","addr:state":"Pazardjik","addr:postcode":"4400","addr:country":"BG","phone":"+359 88 787 0818","website":"https://find.shell.com/bg/fuel/10032152-3029-pazarjik-hebros","opening_hours":"24/7","brand":"Shell","brand:wikidata":"Q110716465","nsi_id":"shell-e657ec"},"coordinates":[42.185929,24.32189]},"dist":9.778,"tags_mismatch":true},{"osm":{"type":"way","id":167365472,"tags":{"amenity":"fuel","brand":"Shell","brand:wikidata":"Q110716465","fuel:diesel":"yes","fuel:lpg":"yes","fuel:octane_95":"yes","fuel:octane_98":"yes","opening_hours":"24/7","phone":"+359 88 690 1401"},"wikidata":"Q110716465","coordinates":[42.1239803,24.7398605]},"atp":{"id":"-TwYK4-mFFqMne3wtf-dLqdtXtY=","tags":{"ref":"13045657","amenity":"fuel","shop":"yes","wheelchair":"yes","compressed_air":"yes","internet_access":"wlan","fuel:diesel":"yes","fuel:lpg":"yes","fuel:octane_95":"yes","fuel:octane_98":"yes","payment:shell":"yes","payment:dkv":"yes","@source_uri":"https://shellgsllocator.geoapp.me/api/v2/locations/nearest_to?lat=42.633194&lng=25.192134&limit=50","@spider":"shell","addr:street_address":"NIKOLA VAPTZAROV BLVD. 91B","addr:city":"PLOVDIV","addr:state":"Plovdiv","addr:postcode":"4004","addr:country":"BG","phone":"+359 88 690 1401","website":"https://find.shell.com/bg/fuel/13045657-3044-shell-nikola-vaptzarov","opening_hours":"24/7","brand":"Shell","brand:wikidata":"Q110716465","nsi_id":"shell-e657ec"},"coordinates":[42.124126,24.739899]},"dist":16.509,"tags_mismatch":false},{"osm":{"type":"way","id":184543920,"tags":{"amenity":"fuel","brand":"Shell","brand:wikidata":"Q110716465","building":"yes","fuel:adblue":"yes","fuel:diesel":"yes","fuel:lpg":"yes","fuel:octane_100":"yes","fuel:octane_95":"yes","fuel:octane_98":"yes","opening_hours":"24/7","payment:bancomat":"yes","payment:coins":"yes","payment:maestro":"yes","payment:mastercard":"yes","payment:notes":"yes","payment:visa":"yes","payment:visa_debit":"yes","payment:visa_electron":"yes","phone":"+359 88 820 4985","wheelchair":"yes"},"wikidata":"Q110716465","coordinates":[43.2017166,27.9029817]},"atp":{"id":"-lqfnigDvt9mBeCUtrHBHEAOl7M=","tags":{"ref":"10032139","amenity":"fuel","shop":"yes","toilets":"yes","compressed_air":"yes","internet_access":"wlan","fuel:diesel":"yes","fuel:adblue":"yes","fuel:lpg":"yes","fuel:octane_95":"yes","fuel:octane_98":"yes","fuel:octane_100":"yes","@source_uri":"https://shellgsllocator.geoapp.me/api/v2/locations/nearest_to?lat=43.876183&lng=26.017556&limit=50","@spider":"shell","addr:street_address":"DEVNIA STR 4","addr:city":"VARNA","addr:state":"Varna","addr:postcode":"9000","addr:country":"BG","phone":"+359 88 820 4985","website":"https://find.shell.com/bg/fuel/10032139-3016-varna-odessos","opening_hours":"24/7","brand":"Shell","brand:wikidata":"Q110716465","nsi_id":"shell-e657ec"},"coordinates":[43.201631,27.903119]},"dist":14.644,"tags_mismatch":false},{"osm":{"type":"way","id":212013883,"tags":{"amenity":"fuel","brand":"Shell","brand:wikidata":"Q110716465","building":"commercial"},"wikidata":"Q110716465","coordinates":[43.8763713,26.0176349]},"atp":{"id":"Fm8ufeTrYH26TRaQ3os19nS6nmk=","tags":{"ref":"12860262","amenity":"fuel","shop":"yes","shower":"yes","wheelchair":"yes","compressed_air":"yes","internet_access":"wlan","hgv":"yes","fuel:diesel":"yes","fuel:adblue":"yes","fuel:HGV_diesel":"yes","fuel:lpg":"yes","fuel:octane_95":"yes","fuel:octane_98":"yes","fuel:octane_100":"yes","payment:shell":"yes","@source_uri":"https://shellgsllocator.geoapp.me/api/v2/locations/nearest_to?lat=43.876183&lng=26.017556&limit=50","@spider":"shell","addr:street_address":"BLVD. TUTRAKAN, EASTERN IN XXII-130","addr:city":"RUSSE","addr:state":"Ruse","addr:postcode":"7000","addr:country":"BG","phone":"+359 87 605 0730","website":"https://find.shell.com/bg/fuel/12860262-5012-shell-russe-danube-bridge","opening_hours":"24/7","brand":"Shell","brand:wikidata":"Q110716465","nsi_id":"shell-e657ec"},"coordinates":[43.876183,26.017556]},"dist":21.872,"tags_mismatch":true},{"osm":{"type":"way","id":220646852,"tags":{"addr:city":"Габрово","addr:housenumber":"29A","addr:street":"бул. Брянска","amenity":"fuel","brand":"Shell","brand:wikidata":"Q110716465","building":"roof","fuel:adblue":"yes","fuel:diesel":"yes","fuel:lpg":"yes","fuel:octane_100":"yes","fuel:octane_95":"yes","fuel:octane_98":"yes","layer":"1","opening_hours":"24/7","phone":"+359 66 804 418"},"wikidata":"Q110716465","coordinates":[42.882802,25.3172012]},"atp":{"id":"f7_RR_bUEuET8FvlEQtmV1ESuSw=","tags":{"ref":"10032131","amenity":"fuel","shop":"yes","toilets":"yes","compressed_air":"yes","internet_access":"wlan","fuel:diesel":"yes","fuel:adblue":"yes","fuel:lpg":"yes","fuel:octane_95":"yes","fuel:octane_98":"yes","fuel:octane_100":"yes","@source_uri":"https://shellgsllocator.geoapp.me/api/v2/locations/nearest_to?lat=42.489464&lng=26.499871&limit=50","@spider":"shell","addr:street_address":"BRIANSKA STR 29A","addr:city":"GABROVO","addr:state":"Gabrovo","addr:postcode":"5300","addr:country":"BG","phone":"+359 66 804 418","website":"https://find.shell.com/bg/fuel/10032131-3008-gabrovo","opening_hours":"24/7","brand":"Shell","brand:wikidata":"Q110716465","nsi_id":"shell-e657ec"},"coordinates":[42.882801,25.317204]},"dist":0.254,"tags_mismatch":false},{"osm":{"type":"way","id":222944967,"tags":{"amenity":"fuel","brand":"Shell","brand:wikidata":"Q110716465","fuel:lpg":"yes"},"wikidata":"Q110716465","coordinates":[43.0734051,25.6098152]},"atp":{"id":"-wvJvv7HtPFTwQAaSbJOauHNM3s=","tags":{"ref":"10032154","amenity":"fuel","shop":"yes","fuel:electricity":"yes","toilets":"yes","compressed_air":"yes","internet_access":"wlan","hgv":"yes","fuel:diesel":"yes","fuel:adblue":"yes","fuel:HGV_diesel":"yes","fuel:lpg":"yes","fuel:octane_95":"yes","fuel:octane_98":"yes","fuel:octane_100":"yes","@source_uri":"https://shellgsllocator.geoapp.me/api/v2/locations/nearest_to?lat=42.489464&lng=26.499871&limit=50","@spider":"shell","addr:street_address":"MAGISTRALNA STR 19","addr:city":"VELIKO TARNOVO","addr:state":"Veliko Tyrnovo","addr:postcode":"5000","addr:country":"BG","phone":"+359 87 789 8318","website":"https://find.shell.com/bg/fuel/10032154-3031-veliko-tarnovo","opening_hours":"24/7","brand":"Shell","brand:wikidata":"Q110716465","nsi_id":"shell-e657ec"},"coordinates":[43.073404,25.609774]},"dist":3.349,"tags_mismatch":true},{"osm":{"type":"way","id":230416862,"tags":{"amenity":"fuel","brand":"Shell","brand:wikidata":"Q110716465","building":"yes","roof:colour":"maroon","roof:height":"3","roof:material":"roof_tiles","roof:shape":"hipped"},"wikidata":"Q110716465","coordinates":[43.8330776,25.9582656]},"atp":{"id":"8qxy5kKVhXPFBYg-rHIt09JWFD0=","tags":{"ref":"10032119","amenity":"fuel","shop":"yes","fuel:electricity":"yes","toilets":"yes","compressed_air":"yes","internet_access":"wlan","hgv":"yes","fuel:diesel":"yes","fuel:adblue":"yes","fuel:HGV_diesel":"yes","fuel:lpg":"yes","fuel:octane_95":"yes","fuel:octane_98":"yes","fuel:octane_100":"yes","@source_uri":"https://shellgsllocator.geoapp.me/api/v2/locations/nearest_to?lat=42.633194&lng=25.192134&limit=50","@spider":"shell","addr:street_address":"BULGARIA BLVD 9","addr:city":"RUSE","addr:state":"Ruse","addr:postcode":"7000","addr:country":"BG","phone":"+359 87 998 6413","website":"https://find.shell.com/bg/fuel/10032119-2007-rousse","opening_hours":"24/7","brand":"Shell","brand:wikidata":"Q110716465","nsi_id":"shell-e657ec"},"coordinates":[43.833046,25.958259]},"dist":3.553,"tags_mismatch":true},{"osm":{"type":"way","id":302245709,"tags":{"addr:street":"Освобождение","amenity":"fuel","brand":"Shell","brand:wikidata":"Q110716465","building":"yes","fuel:HGV_diesel":"yes","fuel:adblue":"yes","fuel:diesel":"yes","fuel:lpg":"yes","fuel:octane_100":"yes","fuel:octane_95":"yes","fuel:octane_98":"yes","opening_hours":"24/7","phone":"+359 38 660 314"},"wikidata":"Q110716465","coordinates":[41.9170534,25.5613662]},"atp":{"id":"MMLmkHiQDsAd9QiU--OQdo2E5nI=","tags":{"ref":"10032118","amenity":"fuel","shop":"yes","toilets":"yes","compressed_air":"yes","internet_access":"wlan","hgv":"yes","fuel:diesel":"yes","fuel:adblue":"yes","fuel:HGV_diesel":"yes","fuel:lpg":"yes","fuel:octane_95":"yes","fuel:octane_98":"yes","fuel:octane_100":"yes","@source_uri":"https://shellgsllocator.geoapp.me/api/v2/locations/nearest_to?lat=40.84822&lng=25.888402&limit=50","@spider":"shell","addr:street_address":"OSVOBOJDENIE BLVD 108","addr:city":"HASKOVO","addr:state":"Haskovo","addr:postcode":"6300","addr:country":"BG","phone":"+359 88 576 9000","website":"https://find.shell.com/bg/fuel/10032118-2006-haskovo","opening_hours":"24/7","brand":"Shell","brand:wikidata":"Q110716465","nsi_id":"shell-e657ec"},"coordinates":[41.917147,25.561397]},"dist":10.715,"tags_mismatch":true},{"osm":{"type":"way","id":329912406,"tags":{"amenity":"fuel","brand":"Shell","brand:wikidata":"Q110716465","building":"yes","fuel:HGV_diesel":"yes","fuel:adblue":"yes","fuel:diesel":"yes","fuel:lpg":"yes","fuel:octane_100":"yes","fuel:octane_95":"yes","fuel:octane_98":"yes","internet_access":"wlan","opening_hours":"24/7","phone":"+359 88 640 0870"},"wikidata":"Q110716465","coordinates":[42.4789035,27.4391062]},"atp":{"id":"fqFKRpswHYRbcSC1UEiefUw3tQE=","tags":{"ref":"12837661","amenity":"fuel","shop":"yes","toilets":"yes","wheelchair":"yes","compressed_air":"yes","internet_access":"wlan","hgv":"yes","fuel:diesel":"yes","fuel:adblue":"yes","fuel:HGV_diesel":"yes","fuel:lpg":"yes","fuel:octane_95":"yes","fuel:octane_98":"yes","fuel:octane_100":"yes","payment:shell":"yes","@source_uri":"https://shellgsllocator.geoapp.me/api/v2/locations/nearest_to?lat=41.713181&lng=27.212973&limit=50","@spider":"shell","addr:street_address":"16 TCHATALDZA STR","addr:city":"BURGAS","addr:state":"Burgas","addr:postcode":"8000","addr:country":"BG","phone":"+359 88 640 0870","website":"https://find.shell.com/bg/fuel/12837661-1057-burgas-akatzii","brand":"Shell","brand:wikidata":"Q110716465","nsi_id":"shell-e657ec"},"coordinates":[42.47887,27.439033]},"dist":7.065,"tags_mismatch":false},{"osm":{"type":"way","id":331323059,"tags":{"amenity":"fuel","brand":"Shell","brand:wikidata":"Q110716465","building":"yes","compressed_air":"yes","layer":"1"},"wikidata":"Q110716465","coordinates":[42.5149257,27.4700821]},"atp":{"id":"YLZlrvZCjYepG5HKoafZ5mXSmBA=","tags":{"ref":"10032157","amenity":"fuel","shop":"yes","toilets":"yes","compressed_air":"yes","internet_access":"wlan","fuel:diesel":"yes","fuel:adblue":"yes","fuel:lpg":"yes","fuel:octane_95":"yes","fuel:octane_98":"yes","fuel:octane_100":"yes","@source_uri":"https://shellgsllocator.geoapp.me/api/v2/locations/nearest_to?lat=41.713181&lng=27.212973&limit=50","@spider":"shell","addr:street_address":"BULD DIMITAR DIMOV ZORNITZA","addr:city":"BURGAS","addr:state":"Burgas","addr:postcode":"8000","addr:country":"BG","phone":"+359 56 830 399","website":"https://find.shell.com/bg/fuel/10032157-3034-burgas-zornica","opening_hours":"24/7","brand":"Shell","brand:wikidata":"Q110716465","nsi_id":"shell-e657ec"},"coordinates":[42.515017,27.469993]},"dist":12.506,"tags_mismatch":true},{"osm":{"type":"way","id":369167487,"tags":{"addr:housenumber":"15Б","addr:street":"Петър Бояджиев","amenity":"fuel","brand":"Shell","brand:wikidata":"Q110716465","building":"yes"},"wikidata":"Q110716465","coordinates":[44.1089071,27.265908]},"atp":{"id":"s82vklAdav7HVPdbgFcFgWfvnz4=","tags":{"ref":"10048163","amenity":"fuel","shop":"yes","toilets":"yes","car_wash":"yes","compressed_air":"yes","internet_access":"wlan","hgv":"yes","fuel:diesel":"yes","fuel:adblue":"yes","fuel:HGV_diesel":"yes","fuel:lpg":"yes","fuel:octane_95":"yes","fuel:octane_98":"yes","fuel:octane_100":"yes","@source_uri":"https://shellgsllocator.geoapp.me/api/v2/locations/nearest_to?lat=43.876183&lng=26.017556&limit=50","@spider":"shell","addr:street_address":"UL PETAR BOYADZHIEV 15B","addr:city":"SILISTRA","addr:state":"Silistra","addr:postcode":"7500","addr:country":"BG","phone":"+359 88 791 0087","website":"https://find.shell.com/bg/fuel/10048163-1009-silistra","opening_hours":"24/7","brand":"Shell","brand:wikidata":"Q110716465","nsi_id":"shell-e657ec"},"coordinates":[44.108946,27.265893]},"dist":4.488,"tags_mismatch":true},{"osm":{"type":"way","id":464062273,"tags":{"addr:city":"София","addr:street":"бул. Владимир Вазов","amenity":"fuel","brand":"Shell","brand:wikidata":"Q110716465","check_date":"2024-12-03","wheelchair":"yes"},"wikidata":"Q110716465","coordinates":[42.7026281,23.3507679]},"atp":{"id":"vjoHKBfDebVN6je1uksh4IRJK3U=","tags":{"ref":"10032149","amenity":"fuel","shop":"yes","toilets":"yes","wheelchair":"yes","compressed_air":"yes","internet_access":"wlan","fuel:diesel":"yes","fuel:adblue":"yes","fuel:lpg":"yes","fuel:octane_95":"yes","fuel:octane_98":"yes","fuel:octane_100":"yes","@source_uri":"https://shellgsllocator.geoapp.me/api/v2/locations/nearest_to?lat=42.658676&lng=23.381674&limit=50","@spider":"shell","addr:street_address":"VLADIMIR VAZOV BLVD","addr:city":"SOFIA","addr:state":"Sofia- Grad","addr:postcode":"1510","addr:country":"BG","phone":"+359 89 341 4212","website":"https://find.shell.com/bg/fuel/10032149-3026-sofia-vladimir-vazov","opening_hours":"24/7","brand":"Shell","brand:wikidata":"Q110716465","nsi_id":"shell-e657ec"},"coordinates":[42.702593,23.350705]},"dist":6.454,"tags_mismatch":true},{"osm":{"type":"way","id":498940560,"tags":{"addr:street":"бул. Никола Мушанов","amenity":"fuel","branch":"София Красна поляна","brand":"Shell","brand:wikidata":"Q110716465","wheelchair":"yes"},"wikidata":"Q110716465","coordinates":[42.6875826,23.2752804]},"atp":{"id":"2I0Vovmkv0kB4uZkET86NuDIrcE=","tags":{"ref":"10032141","amenity":"fuel","shop":"yes","toilets":"yes","compressed_air":"yes","internet_access":"wlan","fuel:diesel":"yes","fuel:adblue":"yes","fuel:lpg":"yes","fuel:octane_95":"yes","fuel:octane_98":"yes","fuel:octane_100":"yes","@source_uri":"https://shellgsllocator.geoapp.me/api/v2/locations/nearest_to?lat=42.658676&lng=23.381674&limit=50","@spider":"shell","addr:street_address":"NIKOLA MUSHANOV BLVD 120","addr:city":"SOFIA","addr:state":"Sofia- Grad","addr:postcode":"1330","addr:country":"BG","phone":"+359 89 575 5802","website":"https://find.shell.com/bg/fuel/10032141-3018-sofia-krasna-poliana","opening_hours":"24/7","brand":"Shell","brand:wikidata":"Q110716465","nsi_id":"shell-e657ec"},"coordinates":[42.687562,23.275319]},"dist":3.899,"tags_mismatch":true},{"osm":{"type":"way","id":543130676,"tags":{"amenity":"fuel","brand":"Shell","brand:wikidata":"Q110716465","car_wash":"yes","fuel:HGV_diesel":"yes","fuel:adblue":"yes","fuel:diesel":"yes","fuel:e10":"no","fuel:lpg":"yes","fuel:octane_100":"yes","fuel:octane_95":"yes","fuel:octane_98":"yes","opening_hours":"24/7","phone":"+359 88 428 8989"},"wikidata":"Q110716465","coordinates":[42.153848,24.7638444]},"atp":{"id":"9XGpiCaX2n7QuC0ywvUoK4HjDTk=","tags":{"ref":"10032136","amenity":"fuel","shop":"yes","fuel:electricity":"yes","toilets":"yes","car_wash":"yes","wheelchair":"yes","compressed_air":"yes","internet_access":"wlan","hgv":"yes","fuel:diesel":"yes","fuel:adblue":"yes","fuel:HGV_diesel":"yes","fuel:lpg":"yes","fuel:octane_95":"yes","fuel:octane_98":"yes","fuel:octane_100":"yes","@source_uri":"https://shellgsllocator.geoapp.me/api/v2/locations/nearest_to?lat=42.633194&lng=25.192134&limit=50","@spider":"shell","addr:street_address":"SHESTI SEPTEMVRI BLVD 221","addr:city":"PLOVDIV","addr:state":"Plovdiv","addr:postcode":"4000","addr:country":"BG","phone":"+359 88 428 8989","website":"https://find.shell.com/bg/fuel/10032136-3013-plovdiv-maritsa","opening_hours":"24/7","brand":"Shell","brand:wikidata":"Q110716465","nsi_id":"shell-e657ec"},"coordinates":[42.153907,24.763849]},"dist":6.571,"tags_mismatch":true},{"osm":{"type":"way","id":619201857,"tags":{"amenity":"fuel","brand":"Shell","brand:wikidata":"Q110716465","building":"roof","compressed_air":"yes"},"wikidata":"Q110716465","coordinates":[43.2155627,27.9554749]},"atp":{"id":"70FbI77xjPHqk96RbPapL1ytnbs=","tags":{"ref":"10032161","amenity":"fuel","shop":"yes","toilets":"yes","compressed_air":"yes","internet_access":"wlan","fuel:diesel":"yes","fuel:adblue":"yes","fuel:octane_95":"yes","fuel:octane_98":"yes","fuel:octane_100":"yes","@source_uri":"https://shellgsllocator.geoapp.me/api/v2/locations/nearest_to?lat=43.876183&lng=26.017556&limit=50","@spider":"shell","addr:street_address":"KNYAZ BORIS BULD 23","addr:city":"VARNA","addr:state":"Varna","addr:postcode":"9010","addr:country":"BG","phone":"+359 88 751 1236","website":"https://find.shell.com/bg/fuel/10032161-3038-varna-pochivka","opening_hours":"24/7","brand":"Shell","brand:wikidata":"Q110716465","nsi_id":"shell-e657ec"},"coordinates":[43.215554,27.95542]},"dist":4.553,"tags_mismatch":true},{"osm":{"type":"way","id":632414257,"tags":{"amenity":"fuel","brand":"Shell","brand:wikidata":"Q110716465","building":"roof","compressed_air":"yes","fuel:diesel":"yes","fuel:lpg":"yes","fuel:octane_95":"yes","opening_hours":"24/7","wheelchair":"limited"},"wikidata":"Q110716465","coordinates":[42.7314944,23.2964082]},"atp":{"id":"qwfPV45HtuQrvn7IeTIsx6vx9R0=","tags":{"ref":"10032146","amenity":"fuel","shop":"yes","toilets":"yes","car_wash":"yes","compressed_air":"yes","internet_access":"wlan","fuel:diesel":"yes","fuel:adblue":"yes","fuel:lpg":"yes","fuel:octane_95":"yes","fuel:octane_98":"yes","fuel:octane_100":"yes","@source_uri":"https://shellgsllocator.geoapp.me/api/v2/locations/nearest_to?lat=42.658676&lng=23.381674&limit=50","@spider":"shell","addr:street_address":"LOMSKO SHAUSSE BLVD","addr:city":"SOFIA","addr:state":"Sofia- Grad","addr:postcode":"1220","addr:country":"BG","phone":"+359 88 792 1445","website":"https://find.shell.com/bg/fuel/10032146-3023-sofia-lomsko-shosse","opening_hours":"24/7","brand":"Shell","brand:wikidata":"Q110716465","nsi_id":"shell-e657ec"},"coordinates":[42.731495,23.296375]},"dist":2.713,"tags_mismatch":true},{"osm":{"type":"way","id":670069484,"tags":{"amenity":"fuel","brand":"Shell","brand:wikidata":"Q110716465","opening_hours":"Mo-Su 00:00-24:00"},"wikidata":"Q110716465","coordinates":[42.7142246,23.2762908]},"atp":{"id":"DRA7jsDWIfJ4PYGGzznDpWw74L8=","tags":{"ref":"10032129","amenity":"fuel","shop":"yes","toilets":"yes","car_wash":"yes","compressed_air":"yes","internet_access":"wlan","fuel:diesel":"yes","fuel:adblue":"yes","fuel:lpg":"yes","fuel:octane_95":"yes","fuel:octane_98":"yes","fuel:octane_100":"yes","@source_uri":"https://shellgsllocator.geoapp.me/api/v2/locations/nearest_to?lat=42.658676&lng=23.381674&limit=50","@spider":"shell","addr:street_address":"DOBRINOVA SKALA STR","addr:city":"SOFIA","addr:state":"Sofia- Grad","addr:postcode":"1335","addr:country":"BG","phone":"+359 87 873 6380","website":"https://find.shell.com/bg/fuel/10032129-3006-sofia-ljulin","opening_hours":"24/7","brand":"Shell","brand:wikidata":"Q110716465","nsi_id":"shell-e657ec"},"coordinates":[42.714448,23.276472]},"dist":28.918,"tags_mismatch":true},{"osm":{"type":"way","id":724508553,"tags":{"addr:postcode":"Shell_Free_WiFi","addr:street":"бул. Цариградско шосе","amenity":"fuel","brand":"Shell","brand:wikidata":"Q110716465","check_date":"2024-08-29","compressed_air":"yes","fuel:lpg":"yes","fuel:octane_100":"yes","fuel:octane_95":"yes","internet_access":"wlan","internet_access:fee":"no","opening_hours":"24/7","payment:cash":"yes","payment:credit_cards":"yes","payment:debit_cards":"yes","wheelchair":"yes"},"wikidata":"Q110716465","coordinates":[42.6586813,23.3816568]},"atp":{"id":"HDsztVFHc8TlhKkrFFJI0VzC0bU=","tags":{"ref":"10032140","amenity":"fuel","shop":"yes","toilets":"yes","compressed_air":"yes","internet_access":"wlan","fuel:diesel":"yes","fuel:adblue":"yes","fuel:lpg":"yes","fuel:octane_95":"yes","fuel:octane_98":"yes","fuel:octane_100":"yes","@source_uri":"https://shellgsllocator.geoapp.me/api/v2/locations/nearest_to?lat=42.658676&lng=23.381674&limit=50","@spider":"shell","addr:street_address":"TZARIGRADSKO SHAUSSE","addr:city":"SOFIA","addr:state":"Sofia- Grad","addr:postcode":"1750","addr:country":"BG","phone":"+359 89 784 7466","website":"https://find.shell.com/bg/fuel/10032140-3017-sofia-iztok","opening_hours":"24/7","brand":"Shell","brand:wikidata":"Q110716465","nsi_id":"shell-e657ec"},"coordinates":[42.658676,23.381674]},"dist":1.525,"tags_mismatch":true},{"osm":{"type":"way","id":724672848,"tags":{"addr:street":"бул. Сливница","amenity":"fuel","brand":"Shell","brand:wikidata":"Q110716465","fuel:diesel":"yes","fuel:lpg":"yes","fuel:octane_95":"yes"},"wikidata":"Q110716465","coordinates":[42.7330624,23.2517389]},"atp":{"id":"lmxcxSylRJmVyaNkzZAlMlcQwI0=","tags":{"ref":"10032121","amenity":"fuel","shop":"yes","toilets":"yes","compressed_air":"yes","internet_access":"wlan","hgv":"yes","fuel:diesel":"yes","fuel:adblue":"yes","fuel:HGV_diesel":"yes","fuel:lpg":"yes","fuel:octane_95":"yes","fuel:octane_98":"yes","fuel:octane_100":"yes","@source_uri":"https://shellgsllocator.geoapp.me/api/v2/locations/nearest_to?lat=42.658676&lng=23.381674&limit=50","@spider":"shell","addr:street_address":"EVROPA BLVD 138","addr:city":"SOFIA","addr:state":"Sofia- Grad","addr:postcode":"1366","addr:country":"BG","phone":"+359 88 456 5301","website":"https://find.shell.com/bg/fuel/10032121-2009-sofia-evropa","opening_hours":"24/7","brand":"Shell","brand:wikidata":"Q110716465","nsi_id":"shell-e657ec"},"coordinates":[42.733131,23.251704]},"dist":8.143,"tags_mismatch":true},{"osm":{"type":"way","id":733808716,"tags":{"amenity":"fuel","brand":"Shell","brand:wikidata":"Q110716465"},"wikidata":"Q110716465","coordinates":[42.6938756,23.293338]},"atp":{"id":"7mkuiW276SMYhAfxgxVPnMEbqeg=","tags":{"ref":"10032160","amenity":"fuel","shop":"yes","toilets":"yes","compressed_air":"yes","internet_access":"wlan","fuel:diesel":"yes","fuel:adblue":"yes","fuel:lpg":"yes","fuel:octane_95":"yes","fuel:octane_98":"yes","fuel:octane_100":"yes","@source_uri":"https://shellgsllocator.geoapp.me/api/v2/locations/nearest_to?lat=42.658676&lng=23.381674&limit=50","@spider":"shell","addr:street_address":"VOZKRESENIE BULD 1","addr:city":"SOFIA","addr:state":"Sofia- Grad","addr:postcode":"1330","addr:country":"BG","phone":"+359 89 877 3535","website":"https://find.shell.com/bg/fuel/10032160-3037-sofia-vazkresenie","opening_hours":"24/7","brand":"Shell","brand:wikidata":"Q110716465","nsi_id":"shell-e657ec"},"coordinates":[42.693952,23.293376]},"dist":9.045,"tags_mismatch":true},{"osm":{"type":"way","id":770231556,"tags":{"addr:city":"София","addr:suburb":"ж.к. Люлин 3","amenity":"fuel","brand":"Shell","brand:wikidata":"Q110716465","fuel:cng":"no","fuel:diesel":"yes","fuel:lpg":"yes","fuel:octane_100":"yes","fuel:octane_95":"yes","opening_hours":"24/7","phone":"+359 89 788 5412","ref":"3028","website":"https://www.shell.bg/"},"wikidata":"Q110716465","coordinates":[42.7191158,23.2535614]},"atp":{"id":"bk7qKd2i-rGDVWW5_LQe67MjSg4=","tags":{"ref":"10032151","amenity":"fuel","shop":"yes","fuel:electricity":"yes","toilets":"yes","compressed_air":"yes","internet_access":"wlan","fuel:diesel":"yes","fuel:adblue":"yes","fuel:lpg":"yes","fuel:octane_95":"yes","fuel:octane_98":"yes","fuel:octane_100":"yes","@source_uri":"https://shellgsllocator.geoapp.me/api/v2/locations/nearest_to?lat=42.658676&lng=23.381674&limit=50","@spider":"shell","addr:street_address":"LIVING DISTRICT LYULIN","addr:city":"SOFIA","addr:state":"Sofia- Grad","addr:postcode":"1336","addr:country":"BG","phone":"+359 89 788 5412","website":"https://find.shell.com/bg/fuel/10032151-3028-sofia-ljulin-centre","opening_hours":"24/7","brand":"Shell","brand:wikidata":"Q110716465","nsi_id":"shell-e657ec"},"coordinates":[42.719144,23.253571]},"dist":3.232,"tags_mismatch":true},{"osm":false,"atp":false,"tags_mismatch":false,"dist":0},{"osm":false,"atp":false,"tags_mismatch":false,"dist":0},{"osm":false,"atp":false,"tags_mismatch":false,"dist":0},{"osm":false,"atp":false,"tags_mismatch":false,"dist":0},{"osm":false,"atp":false,"tags_mismatch":false,"dist":0},{"osm":false,"atp":false,"tags_mismatch":false,"dist":0},{"osm":false,"atp":false,"tags_mismatch":false,"dist":0},{"osm":false,"atp":false,"tags_mismatch":false,"dist":0},{"osm":false,"atp":false,"tags_mismatch":false,"dist":0},{"osm":false,"atp":false,"tags_mismatch":false,"dist":0},{"osm":false,"atp":false,"tags_mismatch":false,"dist":0},{"osm":false,"atp":false,"tags_mismatch":false,"dist":0},{"osm":false,"atp":false,"tags_mismatch":false,"dist":0},{"osm":false,"atp":false,"tags_mismatch":false,"dist":0},{"osm":false,"atp":false,"tags_mismatch":false,"dist":0},{"osm":false,"atp":false,"tags_mismatch":false,"dist":0},{"osm":false,"atp":false,"tags_mismatch":false,"dist":0},{"osm":false,"atp":false,"tags_mismatch":false,"dist":0},{"osm":false,"atp":false,"tags_mismatch":false,"dist":0},{"osm":false,"atp":false,"tags_mismatch":false,"dist":0},{"osm":false,"atp":false,"tags_mismatch":false,"dist":0},{"osm":false,"atp":false,"tags_mismatch":false,"dist":0},{"osm":false,"atp":false,"tags_mismatch":false,"dist":0},{"osm":false,"atp":false,"tags_mismatch":false,"dist":0},{"osm":false,"atp":false,"tags_mismatch":false,"dist":0},{"osm":false,"atp":false,"tags_mismatch":false,"dist":0},{"osm":false,"atp":false,"tags_mismatch":false,"dist":0},{"osm":false,"atp":false,"tags_mismatch":false,"dist":0},{"osm":false,"atp":false,"tags_mismatch":false,"dist":0},{"osm":false,"atp":false,"tags_mismatch":false,"dist":0},{"osm":false,"atp":false,"tags_mismatch":false,"dist":0},{"osm":false,"atp":false,"tags_mismatch":false,"dist":0},{"osm":false,"atp":false,"tags_mismatch":false,"dist":0},{"osm":false,"atp":false,"tags_mismatch":false,"dist":0},{"osm":false,"atp":false,"tags_mismatch":false,"dist":0},{"osm":false,"atp":{"id":"634dNbehV11VVfmGd04SBrH2je8=","tags":{"ref":"13160599","amenity":"fuel","shop":"yes","toilets":"yes","wheelchair":"yes","compressed_air":"yes","internet_access":"wlan","hgv":"yes","fuel:diesel":"yes","fuel:HGV_diesel":"yes","fuel:lpg":"yes","fuel:octane_95":"yes","payment:shell":"yes","addr:street_address":"ZK. LIVADETO LIVADETO","addr:city":"TROIAN","addr:state":"Lovech","addr:postcode":"5600","addr:country":"BG","name":"Shell","phone":"+359 88 980 9809","website":"https://find.shell.com/bg/fuel/13160599-1063-shell-oreshak","brand":"Shell","brand:wikidata":"Q110716465"},"coordinates":[42.89947,24.73874]},"tags_mismatch":false,"dist":0},{"osm":false,"atp":{"id":"FIrzhVlq0PLVbmWSnfDpAztws_Q=","tags":{"ref":"13160504","amenity":"fuel","shop":"yes","toilets":"yes","wheelchair":"yes","compressed_air":"yes","internet_access":"wlan","hgv":"yes","fuel:diesel":"yes","fuel:HGV_diesel":"yes","fuel:lpg":"yes","fuel:octane_95":"yes","fuel:octane_100":"yes","payment:shell":"yes","addr:street_address":"BUL. ANGEL BALEVSKI 3","addr:city":"TROIAN","addr:state":"Lovech","addr:postcode":"5600","addr:country":"BG","name":"Shell","phone":"+359 88 980 9809","website":"https://find.shell.com/bg/fuel/13160504-1062-shell-troyan","brand":"Shell","brand:wikidata":"Q110716465"},"coordinates":[42.8927,24.71455]},"tags_mismatch":false,"dist":0},{"osm":false,"atp":false,"tags_mismatch":false,"dist":0},{"osm":false,"atp":false,"tags_mismatch":false,"dist":0},{"osm":false,"atp":false,"tags_mismatch":false,"dist":0},{"osm":false,"atp":false,"tags_mismatch":false,"dist":0},{"osm":false,"atp":false,"tags_mismatch":false,"dist":0},{"osm":false,"atp":false,"tags_mismatch":false,"dist":0},{"osm":false,"atp":false,"tags_mismatch":false,"dist":0},{"osm":false,"atp":false,"tags_mismatch":false,"dist":0},{"osm":false,"atp":false,"tags_mismatch":false,"dist":0},{"osm":false,"atp":false,"tags_mismatch":false,"dist":0},{"osm":false,"atp":false,"tags_mismatch":false,"dist":0},{"osm":false,"atp":false,"tags_mismatch":false,"dist":0},{"osm":false,"atp":{"id":"n9yjxp01PMwYH4B3ZNc2AMgC6tU=","tags":{"ref":"13101431","amenity":"fuel","shop":"yes","toilets":"yes","wheelchair":"yes","compressed_air":"yes","internet_access":"wlan","fuel:diesel":"yes","fuel:lpg":"yes","fuel:octane_95":"yes","fuel:octane_100":"yes","payment:shell":"yes","addr:street_address":"WEST RING ROAD II 86","addr:city":"PLOVDIV","addr:state":"Plovdiv","addr:postcode":"4000","addr:country":"BG","name":"Shell","phone":"+359 88 258 8888","website":"https://find.shell.com/bg/fuel/13101431-1059-plovdiv-west","opening_hours":"24/7","brand":"Shell","brand:wikidata":"Q110716465"},"coordinates":[42.139406,24.674589]},"tags_mismatch":false,"dist":0},{"osm":false,"atp":false,"tags_mismatch":false,"dist":0},{"osm":false,"atp":false,"tags_mismatch":false,"dist":0},{"osm":false,"atp":false,"tags_mismatch":false,"dist":0},{"osm":false,"atp":false,"tags_mismatch":false,"dist":0},{"osm":false,"atp":false,"tags_mismatch":false,"dist":0},{"osm":false,"atp":false,"tags_mismatch":false,"dist":0},{"osm":false,"atp":false,"tags_mismatch":false,"dist":0},{"osm":false,"atp":false,"tags_mismatch":false,"dist":0},{"osm":false,"atp":{"id":"GCLzfK8TToLrivXWUoS6bkziplk=","tags":{"ref":"13009829","amenity":"fuel","shop":"yes","atm":"yes","wheelchair":"yes","compressed_air":"yes","internet_access":"wlan","hgv":"yes","fuel:diesel":"yes","fuel:adblue":"yes","fuel:HGV_diesel":"yes","fuel:lpg":"yes","fuel:octane_95":"yes","fuel:octane_98":"yes","fuel:octane_100":"yes","payment:shell":"yes","addr:street_address":"HEMUS MW 83","addr:city":"YABLANITSA","addr:state":"Lovech","addr:postcode":"5750","addr:country":"BG","name":"Shell","phone":"+359 87 810 5409","website":"https://find.shell.com/bg/fuel/13009829-3040-yablanitsa-south","opening_hours":"24/7","brand":"Shell","brand:wikidata":"Q110716465"},"coordinates":[43.024587,24.110938]},"tags_mismatch":false,"dist":0},{"osm":false,"atp":false,"tags_mismatch":false,"dist":0},{"osm":false,"atp":false,"tags_mismatch":false,"dist":0},{"osm":false,"atp":false,"tags_mismatch":false,"dist":0},{"osm":false,"atp":false,"tags_mismatch":false,"dist":0},{"osm":false,"atp":false,"tags_mismatch":false,"dist":0},{"osm":false,"atp":false,"tags_mismatch":false,"dist":0},{"osm":false,"atp":false,"tags_mismatch":false,"dist":0},{"osm":false,"atp":false,"tags_mismatch":false,"dist":0},{"osm":false,"atp":false,"tags_mismatch":false,"dist":0},{"osm":false,"atp":false,"tags_mismatch":false,"dist":0},{"osm":false,"atp":false,"tags_mismatch":false,"dist":0},{"osm":false,"atp":false,"tags_mismatch":false,"dist":0},{"osm":false,"atp":false,"tags_mismatch":false,"dist":0},{"osm":false,"atp":false,"tags_mismatch":false,"dist":0},{"osm":false,"atp":false,"tags_mismatch":false,"dist":0},{"osm":false,"atp":false,"tags_mismatch":false,"dist":0},{"osm":false,"atp":false,"tags_mismatch":false,"dist":0},{"osm":false,"atp":false,"tags_mismatch":false,"dist":0},{"osm":false,"atp":false,"tags_mismatch":false,"dist":0},{"osm":false,"atp":false,"tags_mismatch":false,"dist":0},{"osm":false,"atp":false,"tags_mismatch":false,"dist":0},{"osm":false,"atp":false,"tags_mismatch":false,"dist":0},{"osm":false,"atp":false,"tags_mismatch":false,"dist":0},{"osm":false,"atp":false,"tags_mismatch":false,"dist":0},{"osm":false,"atp":false,"tags_mismatch":false,"dist":0},{"osm":false,"atp":false,"tags_mismatch":false,"dist":0},{"osm":false,"atp":false,"tags_mismatch":false,"dist":0},{"osm":false,"atp":false,"tags_mismatch":false,"dist":0},{"osm":false,"atp":false,"tags_mismatch":false,"dist":0},{"osm":false,"atp":false,"tags_mismatch":false,"dist":0},{"osm":false,"atp":false,"tags_mismatch":false,"dist":0},{"osm":false,"atp":false,"tags_mismatch":false,"dist":0},{"osm":false,"atp":false,"tags_mismatch":false,"dist":0},{"osm":false,"atp":false,"tags_mismatch":false,"dist":0},{"osm":false,"atp":false,"tags_mismatch":false,"dist":0},{"osm":false,"atp":false,"tags_mismatch":false,"dist":0},{"osm":false,"atp":false,"tags_mismatch":false,"dist":0},{"osm":false,"atp":false,"tags_mismatch":false,"dist":0},{"osm":false,"atp":false,"tags_mismatch":false,"dist":0},{"osm":false,"atp":false,"tags_mismatch":false,"dist":0},{"osm":false,"atp":{"id":"pUbkLU8OKIqcbueZI3jSm4WG05A=","tags":{"ref":"13076369","amenity":"fuel","shop":"yes","wheelchair":"yes","compressed_air":"yes","vacuum_cleaner":"yes","internet_access":"wlan","hgv":"yes","fuel:diesel":"yes","fuel:adblue":"yes","fuel:HGV_diesel":"yes","fuel:lpg":"yes","fuel:octane_95":"yes","fuel:octane_100":"yes","payment:shell":"yes","addr:street_address":"MAIN ROAD GOTSE DELCHEV DRAMA","addr:city":"KOPRIVLEN","addr:state":"Blagoevgrad","addr:postcode":"2921","addr:country":"BG","name":"Shell","phone":"+359 88 824 4366","website":"https://find.shell.com/bg/fuel/13076369-1060-shell-ilinden","opening_hours":"24/7","brand":"Shell","brand:wikidata":"Q110716465"},"coordinates":[41.51555,23.8012]},"tags_mismatch":false,"dist":0},{"osm":false,"atp":false,"tags_mismatch":false,"dist":0},{"osm":false,"atp":false,"tags_mismatch":false,"dist":0},{"osm":false,"atp":false,"tags_mismatch":false,"dist":0},{"osm":false,"atp":false,"tags_mismatch":false,"dist":0},{"osm":false,"atp":false,"tags_mismatch":false,"dist":0},{"osm":false,"atp":false,"tags_mismatch":false,"dist":0},{"osm":false,"atp":false,"tags_mismatch":false,"dist":0},{"osm":false,"atp":false,"tags_mismatch":false,"dist":0},{"osm":false,"atp":false,"tags_mismatch":false,"dist":0},{"osm":false,"atp":false,"tags_mismatch":false,"dist":0}]}