{"metadata":{"name":"Rompetrol","key":"amenity","value":"fuel","compare_keys":["opening_hours","fuel:*","compressed_air","vacuum_cleaner"]},"data":[{"osm":{"type":"node","id":276707204,"tags":{"amenity":"fuel","brand":"Rompetrol","brand:wikidata":"Q1788862"},"wikidata":"Q1788862","coordinates":[43.5234691,26.5212598]},"atp":{"id":"4ZllkHuMfuFXijP1qMlq8zA9xEM=","tags":{"ref":"https://www.rompetrol.ro/routeplanner/stations?language_id=1:4354","amenity":"fuel","@source_uri":"https://www.rompetrol.ro/routeplanner/stations?language_id=1","@spider":"rompetrol","addr:street_address":"Razgrad, 66, Aprilsko vazstanie Blvd.","addr:city":"Razgrad","addr:state":"Razgrad","addr:country":"BG","brand":"Rompetrol","brand:wikidata":"Q1788862","nsi_id":"rompetrol-b450da"},"coordinates":[43.523472,26.521278]},"dist":1.502,"tags_mismatch":false},{"osm":{"type":"node","id":280315066,"tags":{"amenity":"fuel","brand":"Rompetrol","brand:wikidata":"Q1788862","fuel:lpg":"yes","fuel:octane_95":"yes","fuel:octane_98":"yes"},"wikidata":"Q1788862","coordinates":[43.2243021,26.553713]},"atp":{"id":"DebIQpM_-yjfWp-gyeriK_xEblU=","tags":{"ref":"https://www.rompetrol.ro/routeplanner/stations?language_id=1:4376","amenity":"fuel","@source_uri":"https://www.rompetrol.ro/routeplanner/stations?language_id=1","@spider":"rompetrol","addr:street_address":"Targovishte, Main Road Sofia-Varna, Targhovishte exit to Sofia, Parvi Dolap locality","addr:city":"Tragovishte","addr:state":"Targovishte","addr:country":"BG","brand":"Rompetrol","brand:wikidata":"Q1788862","nsi_id":"rompetrol-b450da"},"coordinates":[43.224232,26.55398]},"dist":22.995,"tags_mismatch":true},{"osm":{"type":"node","id":493577642,"tags":{"amenity":"fuel","brand":"Rompetrol","brand:wikidata":"Q1788862"},"wikidata":"Q1788862","coordinates":[42.5163421,27.4498862]},"atp":{"id":"eL5HKaL2xxcM65WPNnUxPTbounY=","tags":{"ref":"https://www.rompetrol.ro/routeplanner/stations?language_id=1:4335","amenity":"fuel","@source_uri":"https://www.rompetrol.ro/routeplanner/stations?language_id=1","@spider":"rompetrol","addr:street_address":"Burgas, Slaveykov district, near block 72","addr:city":"Burgas","addr:state":"Burgas","addr:country":"BG","brand":"Rompetrol","brand:wikidata":"Q1788862","nsi_id":"rompetrol-b450da"},"coordinates":[42.516327,27.45005]},"dist":13.53,"tags_mismatch":false},{"osm":{"type":"node","id":577529103,"tags":{"amenity":"fuel","brand":"Rompetrol","brand:wikidata":"Q1788862"},"wikidata":"Q1788862","coordinates":[42.5557003,27.4267833]},"atp":{"id":"TXzQDX8HMR1Bnh57mMndh5UR5FM=","tags":{"ref":"https://www.rompetrol.ro/routeplanner/stations?language_id=1:4334","amenity":"fuel","@source_uri":"https://www.rompetrol.ro/routeplanner/stations?language_id=1","@spider":"rompetrol","addr:street_address":"Burgas, 7-th km Main road Sofia - Burgas","addr:city":"Burgas","addr:state":"Burgas","addr:country":"BG","brand":"Rompetrol","brand:wikidata":"Q1788862","nsi_id":"rompetrol-b450da"},"coordinates":[42.555729,27.426804]},"dist":3.614,"tags_mismatch":false},{"osm":{"type":"node","id":811382533,"tags":{"amenity":"fuel","brand":"Rompetrol","brand:wikidata":"Q1788862","opening_hours":"24/7"},"wikidata":"Q1788862","coordinates":[42.7358056,23.3147183]},"atp":{"id":"T9Gsqa505kfMMaEcxSBYPtP18l0=","tags":{"ref":"https://www.rompetrol.ro/routeplanner/stations?language_id=1:4363","amenity":"fuel","@source_uri":"https://www.rompetrol.ro/routeplanner/stations?language_id=1","@spider":"rompetrol","addr:street_address":"Sofia, 23B, Rojen Blvd.","addr:city":"Sofia","addr:state":"Sofia","addr:country":"BG","brand":"Rompetrol","brand:wikidata":"Q1788862","nsi_id":"rompetrol-b450da"},"coordinates":[42.735832,23.314672]},"dist":4.787,"tags_mismatch":false},{"osm":{"type":"node","id":1314635135,"tags":{"addr:city":"Разлог","addr:housenumber":"82","addr:street":"Гоце Делчев","amenity":"fuel","brand":"Rompetrol","brand:wikidata":"Q1788862"},"wikidata":"Q1788862","coordinates":[41.8776253,23.4726956]},"atp":{"id":"pMjYZQ_5n14MEWvNmr7bjRrUrQA=","tags":{"ref":"https://www.rompetrol.ro/routeplanner/stations?language_id=1:4333","amenity":"fuel","@source_uri":"https://www.rompetrol.ro/routeplanner/stations?language_id=1","@spider":"rompetrol","addr:street_address":"Razlog, 82, Telemah Iliev Str.","addr:city":"Razlog","addr:state":"Blagoevgrad","addr:country":"BG","brand":"Rompetrol","brand:wikidata":"Q1788862","nsi_id":"rompetrol-b450da"},"coordinates":[41.877625,23.472797]},"dist":8.395,"tags_mismatch":false},{"osm":{"type":"node","id":1410374743,"tags":{"amenity":"fuel","brand":"Rompetrol","brand:wikidata":"Q1788862","fuel:diesel":"yes","fuel:octane_95":"yes","fuel:octane_98":"yes"},"wikidata":"Q1788862","coordinates":[43.8551275,25.985804]},"atp":{"id":"lVwpevYpV8cMqr8y3VttzoRWEqY=","tags":{"ref":"https://www.rompetrol.ro/routeplanner/stations?language_id=1:4357","amenity":"fuel","@source_uri":"https://www.rompetrol.ro/routeplanner/stations?language_id=1","@spider":"rompetrol","addr:street_address":"Ruse, 2, Mihail Arnaudov Str.","addr:city":"Ruse","addr:state":"Ruse","addr:country":"BG","brand":"Rompetrol","brand:wikidata":"Q1788862","nsi_id":"rompetrol-b450da"},"coordinates":[43.854977,25.985992]},"dist":22.523,"tags_mismatch":true},{"osm":{"type":"node","id":1497297549,"tags":{"amenity":"fuel","brand":"Rompetrol","brand:wikidata":"Q1788862","fuel:lpg":"yes","fuel:octane_95":"yes","fuel:octane_98":"yes","outdoor_seating":"yes"},"wikidata":"Q1788862","coordinates":[43.3376258,25.6372403]},"atp":{"id":"k_ZUApCBumQn-RTFZpGNLHDbA2s=","tags":{"ref":"https://www.rompetrol.ro/routeplanner/stations?language_id=1:4371","amenity":"fuel","@source_uri":"https://www.rompetrol.ro/routeplanner/stations?language_id=1","@spider":"rompetrol","addr:street_address":"Radanovo, Main road Ruse - Veliko Tarnovo","addr:city":"Radanovo","addr:state":"Radanovo","addr:country":"BG","brand":"Rompetrol","brand:wikidata":"Q1788862","nsi_id":"rompetrol-b450da"},"coordinates":[43.337536,25.637321]},"dist":11.929,"tags_mismatch":true},{"osm":{"type":"node","id":1630204635,"tags":{"addr:city":"Велико Търново","addr:postcode":"5000","addr:street":"Южна промишлена зона, Дълга лъка","amenity":"fuel","brand":"Rompetrol","brand:wikidata":"Q1788862","fuel:100LL":"yes","fuel:adblue":"yes","fuel:diesel":"yes","fuel:lpg":"yes","fuel:octane_95":"yes","internet_access":"wlan","opening_hours":"24/7","outdoor_seating":"yes","payment:cards":"yes","payment:cash":"yes","phone":"+359 88 508 0687","website":"https://www.rompetrol.bg/"},"wikidata":"Q1788862","coordinates":[43.0621123,25.6327425]},"atp":{"id":"UiJe6PhyxxQ5cio6a0HvSD3StrI=","tags":{"ref":"https://www.rompetrol.ro/routeplanner/stations?language_id=1:4372","amenity":"fuel","@source_uri":"https://www.rompetrol.ro/routeplanner/stations?language_id=1","@spider":"rompetrol","addr:street_address":"Veliko Tarnovo, South industrial zone - Dalga laka","addr:city":"Veliko Tarnovo","addr:state":"Veliko Tarnovo","addr:country":"BG","brand":"Rompetrol","brand:wikidata":"Q1788862","nsi_id":"rompetrol-b450da"},"coordinates":[43.061939,25.632833]},"dist":20.625,"tags_mismatch":true},{"osm":{"type":"node","id":1837853229,"tags":{"amenity":"fuel","brand":"Rompetrol","brand:wikidata":"Q1788862"},"wikidata":"Q1788862","coordinates":[41.6465538,23.1953665]},"atp":{"id":"ihEk-KUH85WF8eKUyS3448reiXM=","tags":{"ref":"https://www.rompetrol.ro/routeplanner/stations?language_id=1:4375","amenity":"fuel","@source_uri":"https://www.rompetrol.ro/routeplanner/stations?language_id=1","@spider":"rompetrol","addr:street_address":"Strumyani, Main Road E-79","addr:city":"Strumyani","addr:state":"Blagoevgrad","addr:country":"BG","brand":"Rompetrol","brand:wikidata":"Q1788862","nsi_id":"rompetrol-b450da"},"coordinates":[41.646805,23.195578]},"dist":33.001,"tags_mismatch":false},{"osm":{"type":"node","id":2158635032,"tags":{"amenity":"fuel","brand":"Rompetrol","brand:wikidata":"Q1788862"},"wikidata":"Q1788862","coordinates":[43.1740303,23.6106192]},"atp":{"id":"kNqiSgoEew-Txw2ai3FxewvqSh8=","tags":{"ref":"https://www.rompetrol.ro/routeplanner/stations?language_id=1:4373","amenity":"fuel","@source_uri":"https://www.rompetrol.ro/routeplanner/stations?language_id=1","@spider":"rompetrol","addr:street_address":"Vratsa, Main Road Sofia-Vidin, 5-th km","addr:city":"Vratsa","addr:state":"Vratsa","addr:country":"BG","brand":"Rompetrol","brand:wikidata":"Q1788862","nsi_id":"rompetrol-b450da"},"coordinates":[43.174046,23.610733]},"dist":9.392,"tags_mismatch":false},{"osm":{"type":"node","id":2158635050,"tags":{"amenity":"fuel","brand":"Rompetrol","brand:wikidata":"Q1788862"},"wikidata":"Q1788862","coordinates":[43.1740598,23.6084949]},"atp":{"id":"MFiWvVNtmlq33FIx_dbqH6NCKTQ=","tags":{"ref":"https://www.rompetrol.ro/routeplanner/stations?language_id=1:4374","amenity":"fuel","@source_uri":"https://www.rompetrol.ro/routeplanner/stations?language_id=1","@spider":"rompetrol","addr:street_address":"Vratsa, Main Road Vidin-Sofia, 5-th km","addr:city":"Vratsa","addr:state":"Vratsa","addr:country":"BG","brand":"Rompetrol","brand:wikidata":"Q1788862","nsi_id":"rompetrol-b450da"},"coordinates":[43.173927,23.608675]},"dist":20.769,"tags_mismatch":false},{"osm":{"type":"node","id":2448419615,"tags":{"amenity":"fuel","brand":"Rompetrol","brand:wikidata":"Q1788862"},"wikidata":"Q1788862","coordinates":[42.1483826,24.8274159]},"atp":false,"tags_mismatch":false},{"osm":{"type":"node","id":2547672237,"tags":{"amenity":"fuel","brand":"Rompetrol","brand:wikidata":"Q1788862"},"wikidata":"Q1788862","coordinates":[42.6331653,25.1171061]},"atp":{"id":"FBrgwyGvEzfZqwS4zisEbLxKhXA=","tags":{"ref":"https://www.rompetrol.ro/routeplanner/stations?language_id=1:4339","amenity":"fuel","@source_uri":"https://www.rompetrol.ro/routeplanner/stations?language_id=1","@spider":"rompetrol","addr:street_address":"Tarnicheni, Main road E871","addr:city":"Tarnicheni","addr:state":"Stara Zagora","addr:country":"BG","brand":"Rompetrol","brand:wikidata":"Q1788862","nsi_id":"rompetrol-b450da"},"coordinates":[42.633217,25.117294]},"dist":16.411,"tags_mismatch":false},{"osm":{"type":"node","id":2572104573,"tags":{"addr:housenumber":"132км","addr:street":"Автомагистрала Тракия","amenity":"fuel","brand":"Rompetrol","brand:wikidata":"Q1788862","check_date":"2023-02-26","compressed_air":"yes","fuel:diesel":"yes","fuel:lpg":"yes","fuel:octane_100":"yes","fuel:octane_95":"yes","internet_access":"wlan","internet_access:fee":"no","opening_hours":"24/7","payment:cash":"yes","payment:mastercard":"yes","payment:visa":"yes","phone":"+359 800 11012","self_service":"yes","source":"survey","toilets:wheelchair":"yes","website":"https://rompetrol.bg/","wheelchair":"yes"},"wikidata":"Q1788862","coordinates":[42.2116321,24.8034865]},"atp":{"id":"GmhGXTDfzBM453MjbTALLJtbiuY=","tags":{"ref":"https://www.rompetrol.ro/routeplanner/stations?language_id=1:4353","amenity":"fuel","@source_uri":"https://www.rompetrol.ro/routeplanner/stations?language_id=1","@spider":"rompetrol","addr:street_address":"Plovdiv, High road Trakia-132 km","addr:city":"Plovdiv","addr:state":"Plovdiv","addr:country":"BG","brand":"Rompetrol","brand:wikidata":"Q1788862","nsi_id":"rompetrol-b450da"},"coordinates":[42.211666,24.803612]},"dist":11.002,"tags_mismatch":true},{"osm":{"type":"node","id":2740859997,"tags":{"amenity":"fuel","brand":"Rompetrol","brand:wikidata":"Q1788862","fuel:diesel":"yes","fuel:octane_95":"yes","fuel:octane_98":"yes"},"wikidata":"Q1788862","coordinates":[43.0325022,24.4042578]},"atp":{"id":"W8MmIsMGN7-zETvrq-sQStJ7GV8=","tags":{"ref":"https://www.rompetrol.ro/routeplanner/stations?language_id=1:4345","amenity":"fuel","@source_uri":"https://www.rompetrol.ro/routeplanner/stations?language_id=1","@spider":"rompetrol","addr:street_address":"Sopot village, Main road Sofia-Varna, Sopot village","addr:city":"Sopot village","addr:state":"Lovech","addr:country":"BG","brand":"Rompetrol","brand:wikidata":"Q1788862","nsi_id":"rompetrol-b450da"},"coordinates":[43.032528,24.404266]},"dist":2.945,"tags_mismatch":true},{"osm":{"type":"node","id":3409175100,"tags":{"amenity":"fuel","brand":"Rompetrol","brand:wikidata":"Q1788862"},"wikidata":"Q1788862","coordinates":[42.4999249,27.4552064]},"atp":{"id":"iGCVQZopUBZN5SzVA_nheoZgVwo=","tags":{"ref":"https://www.rompetrol.ro/routeplanner/stations?language_id=1:4379","amenity":"fuel","@source_uri":"https://www.rompetrol.ro/routeplanner/stations?language_id=1","@spider":"rompetrol","addr:street_address":"Burgas, 17, Krayezerna Str.","addr:city":"Burgas","addr:state":"Burgas","addr:country":"BG","brand":"Rompetrol","brand:wikidata":"Q1788862","nsi_id":"rompetrol-b450da"},"coordinates":[42.499947,27.455162]},"dist":4.392,"tags_mismatch":false},{"osm":{"type":"node","id":3534151018,"tags":{"amenity":"fuel","brand":"Rompetrol","brand:wikidata":"Q1788862","compressed_air":"yes","fuel:diesel":"yes","fuel:octane_95":"yes","fuel:octane_98":"yes"},"wikidata":"Q1788862","coordinates":[43.2343802,27.8602649]},"atp":{"id":"B0a5xtFFtfgHcDk96Qgr_Q8b15U=","tags":{"ref":"https://www.rompetrol.ro/routeplanner/stations?language_id=1:4370","amenity":"fuel","@source_uri":"https://www.rompetrol.ro/routeplanner/stations?language_id=1","@spider":"rompetrol","addr:street_address":"Varna, 182 B, Tsar Osvoboditel Blvd.","addr:city":"Varna","addr:state":"Varna","addr:country":"BG","brand":"Rompetrol","brand:wikidata":"Q1788862","nsi_id":"rompetrol-b450da"},"coordinates":[43.234211,27.860483]},"dist":25.81,"tags_mismatch":true},{"osm":{"type":"node","id":3662520331,"tags":{"amenity":"fuel","brand":"Rompetrol","brand:wikidata":"Q1788862"},"wikidata":"Q1788862","coordinates":[42.9968717,27.7271302]},"atp":false,"tags_mismatch":false},{"osm":{"type":"node","id":3812759712,"tags":{"amenity":"fuel","brand":"Rompetrol","brand:wikidata":"Q1788862"},"wikidata":"Q1788862","coordinates":[42.1905023,24.7369657]},"atp":{"id":"yY0vCG_cCdAS-DY5DV752pR3HHg=","tags":{"ref":"https://www.rompetrol.ro/routeplanner/stations?language_id=1:4351","amenity":"fuel","@source_uri":"https://www.rompetrol.ro/routeplanner/stations?language_id=1","@spider":"rompetrol","addr:street_address":"Plovdiv, Karlovsko shose, Str., exit to Trakya high road","addr:city":"Plovdiv","addr:state":"Plovdiv","addr:country":"BG","brand":"Rompetrol","brand:wikidata":"Q1788862","nsi_id":"rompetrol-b450da"},"coordinates":[42.190556,24.736944]},"dist":6.233,"tags_mismatch":false},{"osm":{"type":"node","id":4395950396,"tags":{"amenity":"fuel","brand":"Rompetrol","brand:wikidata":"Q1788862"},"wikidata":"Q1788862","coordinates":[43.5688345,27.8481844]},"atp":{"id":"txsSM87lwkkK3YAL3zGv6iQjLHY=","tags":{"ref":"https://www.rompetrol.ro/routeplanner/stations?language_id=1:4338","amenity":"fuel","@source_uri":"https://www.rompetrol.ro/routeplanner/stations?language_id=1","@spider":"rompetrol","addr:street_address":"Dobrich, 4, Dimitar Kovachev Str.","addr:city":"Dobrich","addr:state":"Dobrich","addr:country":"BG","brand":"Rompetrol","brand:wikidata":"Q1788862","nsi_id":"rompetrol-b450da"},"coordinates":[43.56889,27.848333]},"dist":13.469,"tags_mismatch":false},{"osm":{"type":"node","id":5628436276,"tags":{"amenity":"fuel","brand":"Rompetrol","brand:wikidata":"Q1788862","check_date":"2024-10-04","opening_hours":"24/7","payment:cash":"yes","payment:credit_cards":"yes","payment:debit_cards":"yes","wheelchair":"yes"},"wikidata":"Q1788862","coordinates":[42.8970269,23.8551453]},"atp":{"id":"hsUV-sbNElg5yq4RUwSfDKFjCtA=","tags":{"ref":"https://www.rompetrol.ro/routeplanner/stations?language_id=1:4471","amenity":"fuel","@source_uri":"https://www.rompetrol.ro/routeplanner/stations?language_id=1","@spider":"rompetrol","addr:street_address":"Hemus Highway, Km 49; direction Sofia - Varna, next to Trudovets village","addr:city":"Pravets","addr:state":"Sofia","addr:country":"BG","brand":"Rompetrol","brand:wikidata":"Q1788862","nsi_id":"rompetrol-b450da"},"coordinates":[42.897026,23.855114]},"dist":2.552,"tags_mismatch":false},{"osm":{"type":"node","id":5648342705,"tags":{"addr:city":"Асеновград","amenity":"fuel","brand":"Rompetrol","brand:wikidata":"Q1788862","fuel:diesel":"yes","fuel:octane_95":"yes","fuel:octane_98":"yes","payment:cash":"yes","payment:debit_cards":"yes","payment:mastercard":"yes","payment:visa":"yes"},"wikidata":"Q1788862","coordinates":[42.0194209,24.8630567]},"atp":{"id":"1OVPOoRZmjMqXFXp9z5dMlbTsjk=","tags":{"ref":"https://www.rompetrol.ro/routeplanner/stations?language_id=1:4383","amenity":"fuel","@source_uri":"https://www.rompetrol.ro/routeplanner/stations?language_id=1","@spider":"rompetrol","addr:street_address":"Asenovgrad, 68, Bulgaria Blvd","addr:city":"Asenovgrad","addr:state":"Plovdiv","addr:country":"BG","brand":"Rompetrol","brand:wikidata":"Q1788862","nsi_id":"rompetrol-b450da"},"coordinates":[42.019325,24.863165]},"dist":13.92,"tags_mismatch":true},{"osm":{"type":"node","id":6407302385,"tags":{"amenity":"fuel","brand":"Rompetrol","brand:wikidata":"Q1788862"},"wikidata":"Q1788862","coordinates":[43.2611322,26.9445318]},"atp":false,"tags_mismatch":false},{"osm":{"type":"node","id":7802956308,"tags":{"amenity":"fuel","brand":"Rompetrol","brand:wikidata":"Q1788862","fuel:diesel":"yes","fuel:octane_95":"yes","fuel:octane_98":"yes","opening_hours":"24/7"},"wikidata":"Q1788862","coordinates":[42.4538987,26.0514635]},"atp":false,"tags_mismatch":false},{"osm":{"type":"node","id":8945813298,"tags":{"amenity":"fuel","brand":"Rompetrol","brand:wikidata":"Q1788862"},"wikidata":"Q1788862","coordinates":[43.4217797,28.2598615]},"atp":{"id":"FVBoqXQKK-09DMU0dJ5JJx7gC9I=","tags":{"ref":"https://www.rompetrol.ro/routeplanner/stations?language_id=1:4369","amenity":"fuel","@source_uri":"https://www.rompetrol.ro/routeplanner/stations?language_id=1","@spider":"rompetrol","addr:street_address":"Topola village, main road E87","addr:city":"Topola village","addr:state":"Varna","addr:country":"BG","brand":"Rompetrol","brand:wikidata":"Q1788862","nsi_id":"rompetrol-b450da"},"coordinates":[43.421883,28.259825]},"dist":11.859,"tags_mismatch":false},{"osm":{"type":"node","id":9041550151,"tags":{"amenity":"fuel","brand":"Rompetrol","brand:wikidata":"Q1788862"},"wikidata":"Q1788862","coordinates":[43.1044346,26.4271143]},"atp":{"id":"IuQ8MzItCm_-UoWYRwP5WtJZGQU=","tags":{"ref":"https://www.rompetrol.ro/routeplanner/stations?language_id=1:4367","amenity":"fuel","@source_uri":"https://www.rompetrol.ro/routeplanner/stations?language_id=1","@spider":"rompetrol","addr:street_address":"Omurtag, 23, Rakovska Str.","addr:city":"Omurtag","addr:state":"Targovishte","addr:country":"BG","brand":"Rompetrol","brand:wikidata":"Q1788862","nsi_id":"rompetrol-b450da"},"coordinates":[43.104454,26.427202]},"dist":7.439,"tags_mismatch":false},{"osm":{"type":"node","id":9576457905,"tags":{"addr:city":"София","addr:housenumber":"231","addr:street":"бул. Ботевградско шосе","amenity":"fuel","brand":"Rompetrol","brand:wikidata":"Q1788862"},"wikidata":"Q1788862","coordinates":[42.7027142,23.383177]},"atp":{"id":"CaZijMFCYnOkUaSc21_MTgjNnUw=","tags":{"ref":"https://www.rompetrol.ro/routeplanner/stations?language_id=1:4378","amenity":"fuel","@source_uri":"https://www.rompetrol.ro/routeplanner/stations?language_id=1","@spider":"rompetrol","addr:street_address":"Sofia, 231, Botevgradsko shose Blvd.","addr:city":"Plovdiv","addr:state":"Sofia","addr:country":"BG","brand":"Rompetrol","brand:wikidata":"Q1788862","nsi_id":"rompetrol-b450da"},"coordinates":[42.702728,23.383148]},"dist":2.823,"tags_mismatch":false},{"osm":{"type":"node","id":9631555398,"tags":{"amenity":"fuel","brand":"Rompetrol","brand:wikidata":"Q1788862"},"wikidata":"Q1788862","coordinates":[42.4627717,26.0673515]},"atp":{"id":"WhUwwhTOFL0UBILnb-yYQD59XUg=","tags":{"ref":"https://www.rompetrol.ro/routeplanner/stations?language_id=1:4366","amenity":"fuel","@source_uri":"https://www.rompetrol.ro/routeplanner/stations?language_id=1","@spider":"rompetrol","addr:street_address":"Trakia Highway Sofia-Burgas, km. 244+730 right","addr:city":"Polsko Padarevo","addr:state":"Pamukluka","addr:country":"BG","brand":"Rompetrol","brand:wikidata":"Q1788862","nsi_id":"rompetrol-b450da"},"coordinates":[42.462929,26.066769]},"dist":50.883,"tags_mismatch":false},{"osm":{"type":"node","id":9641616943,"tags":{"addr:city":"София","addr:street":"Александър Екзарх","amenity":"fuel","brand":"Rompetrol","brand:wikidata":"Q1788862","int_name":"Rompetrol"},"wikidata":"Q1788862","coordinates":[42.6991509,23.3605535]},"atp":{"id":"_lXh22nwKP8sKsdeJBf67_DgOYc=","tags":{"ref":"https://www.rompetrol.ro/routeplanner/stations?language_id=1:4365","amenity":"fuel","@source_uri":"https://www.rompetrol.ro/routeplanner/stations?language_id=1","@spider":"rompetrol","addr:street_address":"Sofia, 11 Alexander Ekzarh Str.","addr:city":"Sofia","addr:state":"Sofia","addr:country":"BG","brand":"Rompetrol","brand:wikidata":"Q1788862","nsi_id":"rompetrol-b450da"},"coordinates":[42.699184,23.3605]},"dist":5.715,"tags_mismatch":false},{"osm":{"type":"node","id":9788822646,"tags":{"addr:city":"Пловдив","addr:housenumber":"94","addr:street":"бул. Коматевско шосе","amenity":"fuel","brand":"Rompetrol","brand:wikidata":"Q1788862","fuel:diesel":"yes","fuel:lpg":"yes","fuel:octane_100":"yes","fuel:octane_95":"yes","opening_hours":"24/7","self_service":"no"},"wikidata":"Q1788862","coordinates":[42.1203677,24.7155358]},"atp":{"id":"TbxGNlCNiW-mygREZ1AsWh9DsZA=","tags":{"ref":"https://www.rompetrol.ro/routeplanner/stations?language_id=1:4352","amenity":"fuel","@source_uri":"https://www.rompetrol.ro/routeplanner/stations?language_id=1","@spider":"rompetrol","addr:street_address":"Plovdiv, 94, Komatevsko shose Str.","addr:city":"Plovdiv","addr:state":"Plovdiv","addr:country":"BG","brand":"Rompetrol","brand:wikidata":"Q1788862","nsi_id":"rompetrol-b450da"},"coordinates":[42.120556,24.715555]},"dist":20.998,"tags_mismatch":true},{"osm":{"type":"node","id":9975270598,"tags":{"amenity":"fuel","brand":"Rompetrol","brand:wikidata":"Q1788862","fuel:diesel":"yes","fuel:octane_95":"yes","opening_hours":"24/7"},"wikidata":"Q1788862","coordinates":[41.4948538,25.3019701]},"atp":{"id":"eAqUZpPv81Ct--7r_oSoMhv6X_I=","tags":{"ref":"https://www.rompetrol.ro/routeplanner/stations?language_id=1:4336","amenity":"fuel","@source_uri":"https://www.rompetrol.ro/routeplanner/stations?language_id=1","@spider":"rompetrol","addr:street_address":"Djebel, main road Kardjali - Zlatograd","addr:city":"Djebel","addr:state":"Kardjali","addr:country":"BG","brand":"Rompetrol","brand:wikidata":"Q1788862","nsi_id":"rompetrol-b450da"},"coordinates":[41.494843,25.301971]},"dist":1.203,"tags_mismatch":true},{"osm":{"type":"node","id":9994743113,"tags":{"amenity":"fuel","brand":"Rompetrol","brand:wikidata":"Q1788862"},"wikidata":"Q1788862","coordinates":[43.4319644,24.5816941]},"atp":{"id":"kZD3YpN4vvTIlgM3xwuCRKqO37A=","tags":{"ref":"https://www.rompetrol.ro/routeplanner/stations?language_id=1:4385","amenity":"fuel","@source_uri":"https://www.rompetrol.ro/routeplanner/stations?language_id=1","@spider":"rompetrol","addr:street_address":"Pleven, 197, Storgozia","addr:city":"Pleven","addr:state":"Pleven","addr:country":"BG","brand":"Rompetrol","brand:wikidata":"Q1788862","nsi_id":"rompetrol-b450da"},"coordinates":[43.432022,24.581469]},"dist":19.272,"tags_mismatch":false},{"osm":{"type":"node","id":10720115576,"tags":{"amenity":"fuel","brand":"Rompetrol","brand:wikidata":"Q1788862","fuel:adblue:canister":"yes","fuel:diesel":"yes","fuel:octane_95":"yes","fuel:octane_98":"yes","fuel:propane":"yes","opening_hours":"24/7","phone":"+359893097505"},"wikidata":"Q1788862","coordinates":[42.6615436,26.3349097]},"atp":{"id":"-JELoQbnBNI-fwzbSLIpC0TH2Kg=","tags":{"ref":"https://www.rompetrol.ro/routeplanner/stations?language_id=1:4380","amenity":"fuel","@source_uri":"https://www.rompetrol.ro/routeplanner/stations?language_id=1","@spider":"rompetrol","addr:street_address":"Sliven, 51, Tsar Simeon Str. (Southern Industrial Zone)","addr:city":"Sliven","addr:state":"Sliven","addr:country":"BG","brand":"Rompetrol","brand:wikidata":"Q1788862","nsi_id":"rompetrol-b450da"},"coordinates":[42.661587,26.334648]},"dist":21.936,"tags_mismatch":true},{"osm":{"type":"node","id":11178452973,"tags":{"amenity":"fuel","brand":"Rompetrol","brand:wikidata":"Q1788862"},"wikidata":"Q1788862","coordinates":[43.5198926,25.7963224]},"atp":{"id":"WEvHD4mzwjgPTdfsDkh7fhm0Lus=","tags":{"ref":"https://www.rompetrol.ro/routeplanner/stations?language_id=1:4387","amenity":"fuel","@source_uri":"https://www.rompetrol.ro/routeplanner/stations?language_id=1","@spider":"rompetrol","addr:street_address":"Volovo, main road E85","addr:city":"Volovo","addr:state":"Ruse","addr:country":"BG","brand":"Rompetrol","brand:wikidata":"Q1788862","nsi_id":"rompetrol-b450da"},"coordinates":[43.519817,25.796379]},"dist":9.565,"tags_mismatch":false},{"osm":{"type":"node","id":11184053016,"tags":{"amenity":"fuel","brand":"Rompetrol","brand:wikidata":"Q1788862"},"wikidata":"Q1788862","coordinates":[43.8357654,27.1383779]},"atp":{"id":"ZV-BaJilUJUs5GeRAyoQovlEctQ=","tags":{"ref":"https://www.rompetrol.ro/routeplanner/stations?language_id=1:4359","amenity":"fuel","@source_uri":"https://www.rompetrol.ro/routeplanner/stations?language_id=1","@spider":"rompetrol","addr:street_address":"Dulovo, 50, Stefan Stambolov Str.","addr:city":"Dulovo","addr:state":"Silistra","addr:country":"BG","brand":"Rompetrol","brand:wikidata":"Q1788862","nsi_id":"rompetrol-b450da"},"coordinates":[43.83556,27.138474]},"dist":24.105,"tags_mismatch":false},{"osm":{"type":"node","id":11184055097,"tags":{"amenity":"fuel","brand":"Rompetrol","brand:wikidata":"Q1788862"},"wikidata":"Q1788862","coordinates":[42.4134193,25.6217624]},"atp":false,"tags_mismatch":false},{"osm":{"type":"node","id":11184076744,"tags":{"amenity":"fuel","brand":"Rompetrol","brand:wikidata":"Q1788862"},"wikidata":"Q1788862","coordinates":[43.0177466,25.0981221]},"atp":{"id":"oKVv-hV9ckSmXxPFCR1yWmY6Gl0=","tags":{"ref":"https://www.rompetrol.ro/routeplanner/stations?language_id=1:4386","amenity":"fuel","@source_uri":"https://www.rompetrol.ro/routeplanner/stations?language_id=1","@spider":"rompetrol","addr:street_address":"Sevlievo, 61A, Nikola Petkov Str.","addr:city":"Sevlievo","addr:state":"Gabrovo","addr:country":"BG","brand":"Rompetrol","brand:wikidata":"Q1788862","nsi_id":"rompetrol-b450da"},"coordinates":[43.01775,25.098171]},"dist":3.993,"tags_mismatch":false},{"osm":{"type":"node","id":11184078945,"tags":{"amenity":"fuel","brand":"Rompetrol","brand:wikidata":"Q1788862"},"wikidata":"Q1788862","coordinates":[43.2568063,26.9507382]},"atp":{"id":"cC00u5JwV6iuQ16JKzya9_NaCOk=","tags":{"ref":"https://www.rompetrol.ro/routeplanner/stations?language_id=1:4358","amenity":"fuel","@source_uri":"https://www.rompetrol.ro/routeplanner/stations?language_id=1","@spider":"rompetrol","addr:street_address":"Shumen, 76, Rishki prohod Blvd.","addr:city":"Shumen","addr:state":"Shumen","addr:country":"BG","brand":"Rompetrol","brand:wikidata":"Q1788862","nsi_id":"rompetrol-b450da"},"coordinates":[43.256836,26.950544]},"dist":16.07,"tags_mismatch":false},{"osm":{"type":"node","id":11217729504,"tags":{"amenity":"fuel","brand":"Rompetrol","brand:wikidata":"Q1788862"},"wikidata":"Q1788862","coordinates":[43.8320191,25.9390697]},"atp":{"id":"PHx6ZQa02AXpj1BXF4BKjDeewgY=","tags":{"ref":"https://www.rompetrol.ro/routeplanner/stations?language_id=1:4356","amenity":"fuel","@source_uri":"https://www.rompetrol.ro/routeplanner/stations?language_id=1","@spider":"rompetrol","addr:street_address":"Ruse, 30, Treti Mart Str.","addr:city":"Ruse","addr:state":"Ruse","addr:country":"BG","brand":"Rompetrol","brand:wikidata":"Q1788862","nsi_id":"rompetrol-b450da"},"coordinates":[43.831982,25.939272]},"dist":16.743,"tags_mismatch":false},{"osm":{"type":"node","id":11217729596,"tags":{"amenity":"fuel","brand":"Rompetrol","brand:wikidata":"Q1788862"},"wikidata":"Q1788862","coordinates":[43.8036862,26.4881449]},"atp":{"id":"0cltCmz7XoRirSe0UOBr9OjQ9k4=","tags":{"ref":"https://www.rompetrol.ro/routeplanner/stations?language_id=1:4355","amenity":"fuel","@source_uri":"https://www.rompetrol.ro/routeplanner/stations?language_id=1","@spider":"rompetrol","addr:street_address":"Kubrat, 72, Tsar Osvoboditel Str.","addr:city":"Kubrat","addr:state":"Razgrad","addr:country":"BG","brand":"Rompetrol","brand:wikidata":"Q1788862","nsi_id":"rompetrol-b450da"},"coordinates":[43.803631,26.488094]},"dist":7.373,"tags_mismatch":false},{"osm":{"type":"node","id":11217775122,"tags":{"amenity":"fuel","brand":"Rompetrol","brand:wikidata":"Q1788862"},"wikidata":"Q1788862","coordinates":[42.2010382,24.3412419]},"atp":{"id":"jS6sA8wOjjVhUihDOi_1umq04_w=","tags":{"ref":"https://www.rompetrol.ro/routeplanner/stations?language_id=1:4347","amenity":"fuel","@source_uri":"https://www.rompetrol.ro/routeplanner/stations?language_id=1","@spider":"rompetrol","addr:street_address":"Pazarajik, Mladost DStr, Svoboda Str.","addr:city":"Pazarajik","addr:state":"Pazarajik","addr:country":"BG","brand":"Rompetrol","brand:wikidata":"Q1788862","nsi_id":"rompetrol-b450da"},"coordinates":[42.201019,24.34111]},"dist":11.073,"tags_mismatch":false},{"osm":{"type":"node","id":11217778041,"tags":{"amenity":"fuel","brand":"Rompetrol","brand:wikidata":"Q1788862"},"wikidata":"Q1788862","coordinates":[42.9088183,24.7133067]},"atp":{"id":"ICtppng0hcC-oiYOcs7vioq4p10=","tags":{"ref":"https://www.rompetrol.ro/routeplanner/stations?language_id=1:4346","amenity":"fuel","@source_uri":"https://www.rompetrol.ro/routeplanner/stations?language_id=1","@spider":"rompetrol","addr:street_address":"Troyan, Velchevski district, 358, Vasil Levski Str.","addr:city":"Troyan","addr:state":"Lovech","addr:country":"BG","brand":"Rompetrol","brand:wikidata":"Q1788862","nsi_id":"rompetrol-b450da"},"coordinates":[42.908653,24.713385]},"dist":19.455,"tags_mismatch":false},{"osm":{"type":"node","id":11217782275,"tags":{"amenity":"fuel","brand":"Rompetrol","brand:wikidata":"Q1788862"},"wikidata":"Q1788862","coordinates":[43.3542611,24.6158122]},"atp":{"id":"wm51QM0OXYZtWCQQE0emZX18Uwc=","tags":{"ref":"https://www.rompetrol.ro/routeplanner/stations?language_id=1:4348","amenity":"fuel","@source_uri":"https://www.rompetrol.ro/routeplanner/stations?language_id=1","@spider":"rompetrol","addr:street_address":"Brestovets, Main road Pleven-Lovech, Brestovets village","addr:city":"Brestovets","addr:state":"Pleven","addr:country":"BG","brand":"Rompetrol","brand:wikidata":"Q1788862","nsi_id":"rompetrol-b450da"},"coordinates":[43.354118,24.615669]},"dist":19.679,"tags_mismatch":false},{"osm":{"type":"node","id":11239959156,"tags":{"amenity":"fuel","brand":"Rompetrol","brand:wikidata":"Q1788862"},"wikidata":"Q1788862","coordinates":[43.2224916,23.5597212]},"atp":{"id":"S0JaMK6J5DDYdbdwJ4W3kkpwzzg=","tags":{"ref":"https://www.rompetrol.ro/routeplanner/stations?language_id=1:4388","amenity":"fuel","@source_uri":"https://www.rompetrol.ro/routeplanner/stations?language_id=1","@spider":"rompetrol","addr:street_address":"Vratsa, 34, Mito Orozov Blvd.","addr:city":"Vratsa","addr:state":"Vratsa","addr:country":"BG","brand":"Rompetrol","brand:wikidata":"Q1788862","nsi_id":"rompetrol-b450da"},"coordinates":[43.222382,23.559616]},"dist":14.872,"tags_mismatch":false},{"osm":{"type":"node","id":11239984651,"tags":{"amenity":"fuel","brand":"Rompetrol","brand:wikidata":"Q1788862","compressed_air":"yes","opening_hours":"24/7"},"wikidata":"Q1788862","coordinates":[43.2119335,27.877923]},"atp":{"id":"Vm9b5QL2EQMybgnBnTFdp3aMaBM=","tags":{"ref":"https://www.rompetrol.ro/routeplanner/stations?language_id=1:4382","amenity":"fuel","@source_uri":"https://www.rompetrol.ro/routeplanner/stations?language_id=1","@spider":"rompetrol","addr:street_address":"Varna, 104 Devnya Str.","addr:city":"Varna","addr:state":"Varna","addr:country":"BG","brand":"Rompetrol","brand:wikidata":"Q1788862","nsi_id":"rompetrol-b450da"},"coordinates":[43.211857,27.877939]},"dist":8.605,"tags_mismatch":false},{"osm":{"type":"node","id":11733918263,"tags":{"amenity":"fuel","brand":"Rompetrol","brand:wikidata":"Q1788862"},"wikidata":"Q1788862","coordinates":[42.0979403,24.6964915]},"atp":{"id":"Kl2LuCF2ar-9pnjH-ODhhydI5Ig=","tags":{"ref":"https://www.rompetrol.ro/routeplanner/stations?language_id=1:4377","amenity":"fuel","@source_uri":"https://www.rompetrol.ro/routeplanner/stations?language_id=1","@spider":"rompetrol","addr:street_address":"Plovdiv, Ring-Road, Komatevo","addr:city":"Plovdiv","addr:state":"Plovdiv","addr:country":"BG","brand":"Rompetrol","brand:wikidata":"Q1788862","nsi_id":"rompetrol-b450da"},"coordinates":[42.097775,24.696533]},"dist":18.697,"tags_mismatch":false},{"osm":{"type":"node","id":12119016756,"tags":{"amenity":"fuel","brand":"Rompetrol","brand:wikidata":"Q1788862","opening_hours":"24/7"},"wikidata":"Q1788862","coordinates":[44.1159086,27.2497765]},"atp":{"id":"NyInVX9bQ4eED8a2HFYWlo4dMAI=","tags":{"ref":"https://www.rompetrol.ro/routeplanner/stations?language_id=1:4360","amenity":"fuel","@source_uri":"https://www.rompetrol.ro/routeplanner/stations?language_id=1","@spider":"rompetrol","addr:street_address":"SiliStra, 12, Lom Str.","addr:city":"Silistra","addr:state":"Silistra","addr:country":"BG","brand":"Rompetrol","brand:wikidata":"Q1788862","nsi_id":"rompetrol-b450da"},"coordinates":[44.115917,27.250151]},"dist":29.911,"tags_mismatch":false},{"osm":{"type":"way","id":185604179,"tags":{"amenity":"fuel","brand":"Rompetrol","brand:wikidata":"Q1788862","fuel:lpg":"yes","fuel:octane_95":"yes","fuel:octane_98":"yes"},"wikidata":"Q1788862","coordinates":[42.1273827,24.757904]},"atp":{"id":"XjcuJO2PQn3ZZkM5KX72AFUmuXQ=","tags":{"ref":"https://www.rompetrol.ro/routeplanner/stations?language_id=1:4350","amenity":"fuel","@source_uri":"https://www.rompetrol.ro/routeplanner/stations?language_id=1","@spider":"rompetrol","addr:street_address":"Plovdiv, 13A, Kuklensko shose, Southern Industrial Zone","addr:city":"Plovdiv","addr:state":"Plovdiv","addr:country":"BG","brand":"Rompetrol","brand:wikidata":"Q1788862","nsi_id":"rompetrol-b450da"},"coordinates":[42.127361,24.757723]},"dist":15.121,"tags_mismatch":true},{"osm":{"type":"way","id":216248412,"tags":{"amenity":"fuel","brand":"Rompetrol","brand:wikidata":"Q1788862","fuel:diesel":"yes","fuel:octane_95":"yes"},"wikidata":"Q1788862","coordinates":[42.2525924,23.0963026]},"atp":{"id":"nYU3TuNKVaGcPSSLmqv08oSPmNA=","tags":{"ref":"https://www.rompetrol.ro/routeplanner/stations?language_id=1:4470","amenity":"fuel","@source_uri":"https://www.rompetrol.ro/routeplanner/stations?language_id=1","@spider":"rompetrol","addr:street_address":"Dupnitsa, 5, Arakchiyski most","addr:city":"Dupnitsa","addr:state":"Dupnitsa","addr:country":"BG","brand":"Rompetrol","brand:wikidata":"Q1788862","nsi_id":"rompetrol-b450da"},"coordinates":[42.252647,23.096119]},"dist":16.285,"tags_mismatch":true},{"osm":{"type":"way","id":251357002,"tags":{"amenity":"fuel","brand":"Rompetrol","brand:wikidata":"Q1788862","building":"yes","fuel:diesel":"yes","fuel:lpg":"yes","fuel:octane_95":"yes","fuel:octane_98":"yes"},"wikidata":"Q1788862","coordinates":[43.5793088,27.8249247]},"atp":false,"tags_mismatch":false},{"osm":{"type":"way","id":297144429,"tags":{"addr:city":"Хасково","addr:housenumber":"51","addr:postcode":"6300","addr:street":"Дунав","amenity":"fuel","brand":"Rompetrol","brand:wikidata":"Q1788862","building":"yes","note:cadastre:id":"710.178.1"},"wikidata":"Q1788862","coordinates":[41.9397967,25.5587368]},"atp":{"id":"4afIHMkmJpIU_s9jGF7m8ATbP4I=","tags":{"ref":"https://www.rompetrol.ro/routeplanner/stations?language_id=1:4341","amenity":"fuel","@source_uri":"https://www.rompetrol.ro/routeplanner/stations?language_id=1","@spider":"rompetrol","addr:street_address":"Haskovo, 17B, Dunav Str.","addr:city":"Haskovo","addr:state":"Haskovo","addr:country":"BG","brand":"Rompetrol","brand:wikidata":"Q1788862","nsi_id":"rompetrol-b450da"},"coordinates":[41.939533,25.558987]},"dist":35.889,"tags_mismatch":false},{"osm":{"type":"way","id":379857089,"tags":{"amenity":"fuel","brand":"Rompetrol","brand:wikidata":"Q1788862","building":"yes"},"wikidata":"Q1788862","coordinates":[42.688397,26.3341698]},"atp":{"id":"psEGsMPjKf7wFB6FEmVyd3CJkPQ=","tags":{"ref":"https://www.rompetrol.ro/routeplanner/stations?language_id=1:4361","amenity":"fuel","@source_uri":"https://www.rompetrol.ro/routeplanner/stations?language_id=1","@spider":"rompetrol","addr:street_address":"Sliven, 67A, Panayot Hitov Str.","addr:city":"Sliven","addr:state":"Sliven","addr:country":"BG","brand":"Rompetrol","brand:wikidata":"Q1788862","nsi_id":"rompetrol-b450da"},"coordinates":[42.68845,26.334175]},"dist":5.909,"tags_mismatch":false},{"osm":{"type":"way","id":424882590,"tags":{"addr:city":"Кърджали","addr:postcode":"6600","amenity":"fuel","brand":"Rompetrol","brand:wikidata":"Q1788862","building":"roof"},"wikidata":"Q1788862","coordinates":[41.6523923,25.3680136]},"atp":{"id":"C5PFJiWAg_Kd4kjSH4kylIgbmfA=","tags":{"ref":"https://www.rompetrol.ro/routeplanner/stations?language_id=1:4342","amenity":"fuel","@source_uri":"https://www.rompetrol.ro/routeplanner/stations?language_id=1","@spider":"rompetrol","addr:street_address":"Kardjali, Borovets Dstr - Exit","addr:city":"Kardjali","addr:state":"Kardjali","addr:country":"BG","brand":"Rompetrol","brand:wikidata":"Q1788862","nsi_id":"rompetrol-b450da"},"coordinates":[41.6525,25.368055]},"dist":12.46,"tags_mismatch":false},{"osm":{"type":"way","id":427604703,"tags":{"addr:city":"Кърджали","addr:postcode":"6600","amenity":"fuel","brand":"Rompetrol","brand:wikidata":"Q1788862"},"wikidata":"Q1788862","coordinates":[41.627707,25.3658496]},"atp":{"id":"4YGszZsozYSkoB5E50JBPwzYjcg=","tags":{"ref":"https://www.rompetrol.ro/routeplanner/stations?language_id=1:4343","amenity":"fuel","@source_uri":"https://www.rompetrol.ro/routeplanner/stations?language_id=1","@spider":"rompetrol","addr:street_address":"Kardjali, Vazrojdenci Dstr, 1 Hr. Botev Blvd.","addr:city":"Kardjali","addr:state":"Kardjali","addr:country":"BG","brand":"Rompetrol","brand:wikidata":"Q1788862","nsi_id":"rompetrol-b450da"},"coordinates":[41.627777,25.365833]},"dist":7.905,"tags_mismatch":false},{"osm":{"type":"way","id":451691206,"tags":{"addr:street":"бул. Ломско шосе","amenity":"fuel","brand":"Rompetrol","brand:wikidata":"Q1788862","building":"roof","fuel:diesel":"yes","fuel:lpg":"yes","fuel:octane_95":"yes","fuel:octane_98":"yes"},"wikidata":"Q1788862","coordinates":[42.7383612,23.2890759]},"atp":{"id":"RcloHFmQbHwm3HiusDF3ZgbHW9w=","tags":{"ref":"https://www.rompetrol.ro/routeplanner/stations?language_id=1:4362","amenity":"fuel","@source_uri":"https://www.rompetrol.ro/routeplanner/stations?language_id=1","@spider":"rompetrol","addr:street_address":"Sofia, 175, Lomsko Shose Blvd.","addr:city":"Sofia","addr:state":"Sofia","addr:country":"BG","brand":"Rompetrol","brand:wikidata":"Q1788862","nsi_id":"rompetrol-b450da"},"coordinates":[42.738426,23.289009]},"dist":9.043,"tags_mismatch":true},{"osm":{"type":"way","id":458868194,"tags":{"addr:housenumber":"43","addr:postcode":"5302","addr:street":"Христо Смирненски","addr:street:en":"Hristo Smirnenski","addr:suburb":"Промишлена зона","addr:suburb:en":"Promishlena Zona","amenity":"fuel","brand":"Rompetrol","brand:wikidata":"Q1788862","building":"retail","building:levels":"1","note:cadastre:building_use":"Сграда за тьрговия"},"wikidata":"Q1788862","coordinates":[42.8904483,25.3236239]},"atp":{"id":"ss3mnhQ1YdxezLz0_GByi6UvnmA=","tags":{"ref":"https://www.rompetrol.ro/routeplanner/stations?language_id=1:4340","amenity":"fuel","@source_uri":"https://www.rompetrol.ro/routeplanner/stations?language_id=1","@spider":"rompetrol","addr:street_address":"Gabrovo, 39, Hristo Smirnenski Str.","addr:city":"Gabrovo","addr:state":"Gabrovo","addr:country":"BG","brand":"Rompetrol","brand:wikidata":"Q1788862","nsi_id":"rompetrol-b450da"},"coordinates":[42.890537,25.323826]},"dist":19.193,"tags_mismatch":false},{"osm":{"type":"way","id":494914274,"tags":{"amenity":"fuel","brand":"Rompetrol","brand:wikidata":"Q1788862","building":"yes"},"wikidata":"Q1788862","coordinates":[41.8305161,25.4633185]},"atp":{"id":"jiO5wFGhNVsml_PovnGXnjHgtrM=","tags":{"ref":"https://www.rompetrol.ro/routeplanner/stations?language_id=1:4472","amenity":"fuel","@source_uri":"https://www.rompetrol.ro/routeplanner/stations?language_id=1","@spider":"rompetrol","addr:street_address":"Kozlets village, Main Road I-5, Makaza direction","addr:city":"Kozlets","addr:state":"Haskovo","addr:country":"BG","brand":"Rompetrol","brand:wikidata":"Q1788862","nsi_id":"rompetrol-b450da"},"coordinates":[41.830593,25.463743]},"dist":36.196,"tags_mismatch":false},{"osm":{"type":"way","id":524076191,"tags":{"amenity":"fuel","brand":"Rompetrol","brand:wikidata":"Q1788862","building":"yes","fuel:diesel":"yes","fuel:lpg":"yes","fuel:octane_92":"yes","fuel:octane_98":"yes"},"wikidata":"Q1788862","coordinates":[43.5333506,27.843305]},"atp":false,"tags_mismatch":false},{"osm":{"type":"way","id":590780931,"tags":{"amenity":"fuel","brand":"Rompetrol","brand:wikidata":"Q1788862","building":"yes"},"wikidata":"Q1788862","coordinates":[43.1348755,24.7084885]},"atp":{"id":"IdAOKR7VG-MEilJHY6HFXqE3u9E=","tags":{"ref":"https://www.rompetrol.ro/routeplanner/stations?language_id=1:4344","amenity":"fuel","@source_uri":"https://www.rompetrol.ro/routeplanner/stations?language_id=1","@spider":"rompetrol","addr:street_address":"Lovech, 6, Stara Planina Str.","addr:city":"Lovech","addr:state":"Lovech","addr:country":"BG","brand":"Rompetrol","brand:wikidata":"Q1788862","nsi_id":"rompetrol-b450da"},"coordinates":[43.134808,24.708504]},"dist":7.61,"tags_mismatch":false},{"osm":{"type":"way","id":666436867,"tags":{"addr:housenumber":"34","addr:street":"бул. Професор Цветан Лазаров","amenity":"fuel","brand":"Rompetrol","brand:wikidata":"Q1788862"},"wikidata":"Q1788862","coordinates":[42.6678872,23.3848294]},"atp":{"id":"6P4AQROHGh2BKyXI-Od1UdGxRRA=","tags":{"ref":"https://www.rompetrol.ro/routeplanner/stations?language_id=1:4364","amenity":"fuel","@source_uri":"https://www.rompetrol.ro/routeplanner/stations?language_id=1","@spider":"rompetrol","addr:street_address":"Sofia, Drujba 1 Dstr., 34 Tsvetan Lazarov Blvd.","addr:city":"Sofia","addr:state":"Sofia","addr:country":"BG","brand":"Rompetrol","brand:wikidata":"Q1788862","nsi_id":"rompetrol-b450da"},"coordinates":[42.667931,23.384829]},"dist":4.87,"tags_mismatch":false},{"osm":{"type":"way","id":700629898,"tags":{"addr:city":"София","addr:housenumber":"74","addr:postcode":"1404","addr:street":"Тодор Каблешков","amenity":"fuel","brand":"Rompetrol","brand:wikidata":"Q1788862","check_date":"2024-09-12","compressed_air":"yes","fuel:diesel":"yes","fuel:octane_100":"yes","fuel:octane_95":"yes","opening_hours":"24/7","payment:cash":"yes","payment:credit_cards":"yes","payment:debit_cards":"yes","phone":"+359 2 859 6908","wheelchair":"yes"},"wikidata":"Q1788862","coordinates":[42.6631564,23.291375]},"atp":false,"tags_mismatch":false},{"osm":{"type":"way","id":722329710,"tags":{"addr:street":"бул. Президент Линкълн","amenity":"fuel","brand":"Rompetrol","brand:wikidata":"Q1788862"},"wikidata":"Q1788862","coordinates":[42.6902254,23.2509917]},"atp":{"id":"SL5q0FNrKVwf_uoVGZpeZZY0MnE=","tags":{"ref":"https://www.rompetrol.ro/routeplanner/stations?language_id=1:4384","amenity":"fuel","@source_uri":"https://www.rompetrol.ro/routeplanner/stations?language_id=1","@spider":"rompetrol","addr:street_address":"Sofia, 68A, President Lincoln Blvd","addr:city":"Sofia","addr:state":"Sofia","addr:country":"BG","brand":"Rompetrol","brand:wikidata":"Q1788862","nsi_id":"rompetrol-b450da"},"coordinates":[42.69017,23.251097]},"dist":10.584,"tags_mismatch":false},{"osm":{"type":"way","id":1028683138,"tags":{"amenity":"fuel","brand":"Rompetrol","brand:wikidata":"Q1788862"},"wikidata":"Q1788862","coordinates":[43.415299,24.4689951]},"atp":{"id":"L6rMpUkyeNRWxkZsNTz5L3szmhY=","tags":{"ref":"https://www.rompetrol.ro/routeplanner/stations?language_id=1:4349","amenity":"fuel","@source_uri":"https://www.rompetrol.ro/routeplanner/stations?language_id=1","@spider":"rompetrol","addr:street_address":"Dolni Dabnik, Main road Ruse - Sofia, near Dolni Dabnik town","addr:city":"Dolni Dabnik","addr:state":"Pleven","addr:country":"BG","brand":"Rompetrol","brand:wikidata":"Q1788862","nsi_id":"rompetrol-b450da"},"coordinates":[43.415146,24.4688]},"dist":23.19,"tags_mismatch":false},{"osm":false,"atp":false,"tags_mismatch":false,"dist":0},{"osm":false,"atp":false,"tags_mismatch":false,"dist":0},{"osm":false,"atp":false,"tags_mismatch":false,"dist":0},{"osm":false,"atp":false,"tags_mismatch":false,"dist":0},{"osm":false,"atp":false,"tags_mismatch":false,"dist":0},{"osm":false,"atp":false,"tags_mismatch":false,"dist":0},{"osm":false,"atp":false,"tags_mismatch":false,"dist":0},{"osm":false,"atp":false,"tags_mismatch":false,"dist":0},{"osm":false,"atp":false,"tags_mismatch":false,"dist":0},{"osm":false,"atp":false,"tags_mismatch":false,"dist":0},{"osm":false,"atp":false,"tags_mismatch":false,"dist":0},{"osm":false,"atp":false,"tags_mismatch":false,"dist":0},{"osm":false,"atp":false,"tags_mismatch":false,"dist":0},{"osm":false,"atp":false,"tags_mismatch":false,"dist":0},{"osm":false,"atp":false,"tags_mismatch":false,"dist":0},{"osm":false,"atp":false,"tags_mismatch":false,"dist":0},{"osm":false,"atp":false,"tags_mismatch":false,"dist":0},{"osm":false,"atp":false,"tags_mismatch":false,"dist":0},{"osm":false,"atp":false,"tags_mismatch":false,"dist":0},{"osm":false,"atp":false,"tags_mismatch":false,"dist":0},{"osm":false,"atp":false,"tags_mismatch":false,"dist":0},{"osm":false,"atp":false,"tags_mismatch":false,"dist":0},{"osm":false,"atp":false,"tags_mismatch":false,"dist":0},{"osm":false,"atp":false,"tags_mismatch":false,"dist":0},{"osm":false,"atp":false,"tags_mismatch":false,"dist":0},{"osm":false,"atp":false,"tags_mismatch":false,"dist":0},{"osm":false,"atp":false,"tags_mismatch":false,"dist":0},{"osm":false,"atp":false,"tags_mismatch":false,"dist":0},{"osm":false,"atp":false,"tags_mismatch":false,"dist":0},{"osm":false,"atp":false,"tags_mismatch":false,"dist":0},{"osm":false,"atp":false,"tags_mismatch":false,"dist":0},{"osm":false,"atp":false,"tags_mismatch":false,"dist":0},{"osm":false,"atp":false,"tags_mismatch":false,"dist":0},{"osm":false,"atp":false,"tags_mismatch":false,"dist":0},{"osm":false,"atp":false,"tags_mismatch":false,"dist":0},{"osm":false,"atp":false,"tags_mismatch":false,"dist":0},{"osm":false,"atp":false,"tags_mismatch":false,"dist":0},{"osm":false,"atp":false,"tags_mismatch":false,"dist":0},{"osm":false,"atp":false,"tags_mismatch":false,"dist":0},{"osm":false,"atp":false,"tags_mismatch":false,"dist":0},{"osm":false,"atp":false,"tags_mismatch":false,"dist":0},{"osm":false,"atp":false,"tags_mismatch":false,"dist":0},{"osm":false,"atp":false,"tags_mismatch":false,"dist":0},{"osm":false,"atp":false,"tags_mismatch":false,"dist":0},{"osm":false,"atp":false,"tags_mismatch":false,"dist":0},{"osm":false,"atp":false,"tags_mismatch":false,"dist":0},{"osm":false,"atp":false,"tags_mismatch":false,"dist":0},{"osm":false,"atp":false,"tags_mismatch":false,"dist":0},{"osm":false,"atp":false,"tags_mismatch":false,"dist":0},{"osm":false,"atp":false,"tags_mismatch":false,"dist":0},{"osm":false,"atp":false,"tags_mismatch":false,"dist":0},{"osm":false,"atp":false,"tags_mismatch":false,"dist":0},{"osm":false,"atp":false,"tags_mismatch":false,"dist":0},{"osm":false,"atp":false,"tags_mismatch":false,"dist":0},{"osm":false,"atp":false,"tags_mismatch":false,"dist":0},{"osm":false,"atp":false,"tags_mismatch":false,"dist":0}]}