{"metadata":{"type":"brand","wikidata":"Q7234083","name":"Пощенска банка","compare_keys":["cash_in","authentication:contactless"]},"data":[{"osm":{"type":"node","id":871908856,"tags":{"amenity":"atm","brand":"Пощенска банка","brand:wikidata":"Q7234083","check_date":"2021-03-08","operator:wikidata":"Q7234083"},"wikidata":"Q7234083","coordinates":[42.7123188,23.2676813]},"atp":{"id":"W-UiGU_ldy0w83Qg5LNozrg50x8=","tags":{"amenity":"atm","cash_in":"yes","addr:full":"Бул. Царица Йоанна №29","addr:country":"BG","name":"София Люлин Царица Йоанна","opening_hours":"24/7","brand":"Postbank","brand:wikidata":"Q7234083","operator:wikidata":"Q7234083"},"coordinates":[42.712403,23.267901]},"dist":20.245,"tags_mismatch":true},{"osm":{"type":"node","id":3128294098,"tags":{"amenity":"atm","brand":"Пощенска банка","brand:wikidata":"Q7234083","operator:wikidata":"Q7234083"},"wikidata":"Q7234083","coordinates":[41.742622,24.398569]},"atp":false,"tags_mismatch":false},{"osm":{"type":"node","id":3327155048,"tags":{"amenity":"atm","brand":"Пощенска банка","brand:wikidata":"Q7234083","operator:wikidata":"Q7234083"},"wikidata":"Q7234083","coordinates":[42.4927039,27.4676616]},"atp":{"id":"aUr3AUIaUMgWmU9yiAlJ9sTLKvs=","tags":{"amenity":"atm","cash_in":"yes","addr:full":"ул. Конт Андрованти №9","addr:country":"BG","name":"Бургас Конт Андрованти","opening_hours":"24/7","brand":"Postbank","brand:wikidata":"Q7234083","operator:wikidata":"Q7234083"},"coordinates":[42.49275460072627,27.471616584751267]},"dist":324.322,"tags_mismatch":true},{"osm":{"type":"node","id":3840789393,"tags":{"amenity":"atm","brand":"Пощенска банка","brand:wikidata":"Q7234083","check_date":"2022-11-04","covered":"yes","indoor":"no","opening_hours":"24/7","operator:wikidata":"Q7234083"},"wikidata":"Q7234083","coordinates":[42.495172,27.4716906]},"atp":{"id":"azwUX98bX3RnlygfpEwSIEoN66Q=","tags":{"amenity":"atm","cash_in":"yes","addr:full":"Ул. Васил Априлов №2","addr:country":"BG","name":"Бургас Васил Априлов","opening_hours":"24/7","brand":"Postbank","brand:wikidata":"Q7234083","operator:wikidata":"Q7234083"},"coordinates":[42.495066,27.471468]},"dist":21.726,"tags_mismatch":true},{"osm":{"type":"node","id":4263026390,"tags":{"amenity":"atm","brand":"Пощенска банка","brand:wikidata":"Q7234083","operator:wikidata":"Q7234083"},"wikidata":"Q7234083","coordinates":[43.4056201,28.1473932]},"atp":false,"tags_mismatch":false},{"osm":{"type":"node","id":5318791331,"tags":{"amenity":"atm","brand":"Пощенска банка","brand:wikidata":"Q7234083","check_date":"2021-01-02","currency:BGN":"yes","indoor":"yes","operator:wikidata":"Q7234083"},"wikidata":"Q7234083","coordinates":[42.6697983,23.3532937]},"atp":{"id":"Kn6XhGTxQgXOnwvGiL0OLE4rxFY=","tags":{"amenity":"atm","cash_in":"yes","addr:full":"Ул. Николай Хайтов №3 А","addr:country":"BG","name":"София Атанас Далчев","opening_hours":"24/7","brand":"Postbank","brand:wikidata":"Q7234083","operator:wikidata":"Q7234083"},"coordinates":[42.671651,23.352949]},"dist":207.929,"tags_mismatch":true},{"osm":{"type":"node","id":5533034056,"tags":{"amenity":"atm","brand":"Пощенска банка","brand:wikidata":"Q7234083","operator:wikidata":"Q7234083"},"wikidata":"Q7234083","coordinates":[42.6777888,26.3163079]},"atp":{"id":"CPVTIlURhljOurzMrt02QCWWgHE=","tags":{"amenity":"atm","cash_in":"yes","addr:full":"Бул. Цар Симеон №27","addr:country":"BG","name":"Сливен Хаджи Димитър ","opening_hours":"24/7","brand":"Postbank","brand:wikidata":"Q7234083","operator:wikidata":"Q7234083"},"coordinates":[42.677620256303086,26.31732281234111]},"dist":85.058,"tags_mismatch":true},{"osm":{"type":"node","id":5541827921,"tags":{"amenity":"atm","brand":"Пощенска банка","brand:wikidata":"Q7234083","operator:wikidata":"Q7234083"},"wikidata":"Q7234083","coordinates":[42.1989081,24.6409774]},"atp":false,"tags_mismatch":false},{"osm":{"type":"node","id":5693305171,"tags":{"amenity":"atm","brand":"Пощенска банка","brand:wikidata":"Q7234083","operator:wikidata":"Q7234083"},"wikidata":"Q7234083","coordinates":[42.557431,27.6399322]},"atp":{"id":"iOD030UFmsjVOHQnvXr-5YuByLk=","tags":{"amenity":"atm","cash_in":"yes","addr:full":"ул. Княз Борис I №64","addr:country":"BG","name":"Поморие","opening_hours":"24/7","brand":"Postbank","brand:wikidata":"Q7234083","operator:wikidata":"Q7234083"},"coordinates":[42.55757368254359,27.639790396615464]},"dist":19.663,"tags_mismatch":true},{"osm":{"type":"node","id":5801633253,"tags":{"amenity":"atm","brand":"Пощенска банка","brand:wikidata":"Q7234083","check_date":"2023-08-17","operator:wikidata":"Q7234083"},"wikidata":"Q7234083","coordinates":[41.8395773,23.4873331]},"atp":{"id":"_rR0sMva6xE64bwbf-ldszcsSp4=","tags":{"amenity":"atm","cash_in":"yes","addr:full":"Ул. Цар Симеон №43","addr:country":"BG","name":"Банско","opening_hours":"24/7","brand":"Postbank","brand:wikidata":"Q7234083","operator:wikidata":"Q7234083"},"coordinates":[41.83964385066969,23.48730833888297]},"dist":7.679,"tags_mismatch":true},{"osm":{"type":"node","id":5864138076,"tags":{"amenity":"atm","brand":"Пощенска банка","brand:wikidata":"Q7234083","operator:wikidata":"Q7234083"},"wikidata":"Q7234083","coordinates":[42.6950631,23.3155616]},"atp":{"id":"ixA3Cyjb_gJ_Rvypmc4MAB7ELtc=","tags":{"amenity":"atm","cash_in":"yes","addr:full":"Ул. Алабин №1","addr:country":"BG","name":"Моменто Telus Tower","opening_hours":"24/7","brand":"Postbank","brand:wikidata":"Q7234083","operator:wikidata":"Q7234083"},"coordinates":[42.694789,23.315608]},"dist":30.714,"tags_mismatch":true},{"osm":{"type":"node","id":9092283838,"tags":{"amenity":"atm","brand":"Пощенска банка","brand:wikidata":"Q7234083","operator:wikidata":"Q7234083"},"wikidata":"Q7234083","coordinates":[42.6482137,23.4099376]},"atp":false,"tags_mismatch":false},{"osm":{"type":"node","id":9092283839,"tags":{"amenity":"atm","brand":"Пощенска банка","brand:wikidata":"Q7234083","operator:wikidata":"Q7234083"},"wikidata":"Q7234083","coordinates":[42.6553784,23.398829]},"atp":{"id":"62vZ0EweSXHQHykvmO7GdUMtfNc=","tags":{"amenity":"atm","cash_in":"yes","addr:full":"Бул. Цветан Лазаров №114","addr:country":"BG","name":"София Цветан Лазаров","opening_hours":"24/7","brand":"Postbank","brand:wikidata":"Q7234083","operator:wikidata":"Q7234083"},"coordinates":[42.65546034981955,23.398644927063664]},"dist":17.596,"tags_mismatch":true},{"osm":{"type":"node","id":9133072992,"tags":{"amenity":"atm","brand":"Пощенска банка","brand:wikidata":"Q7234083","indoor":"yes","opening_hours":"24/7","operator:wikidata":"Q7234083"},"wikidata":"Q7234083","coordinates":[42.6846748,23.3046929]},"atp":{"id":"7lXHzekFy8uUc-waCi7s0xYncJw=","tags":{"amenity":"atm","cash_in":"yes","addr:full":"Ул. Георги Софийски №3","addr:country":"BG","name":"ВМА София","opening_hours":"24/7","brand":"Postbank","brand:wikidata":"Q7234083","operator:wikidata":"Q7234083"},"coordinates":[42.68422143966017,23.304479170979516]},"dist":53.353,"tags_mismatch":true},{"osm":{"type":"node","id":9752208274,"tags":{"amenity":"atm","brand":"Пощенска банка","brand:wikidata":"Q7234083","indoor":"no","operator:wikidata":"Q7234083"},"wikidata":"Q7234083","coordinates":[42.6602121,23.347593]},"atp":{"id":"EN87Od8iKLoeScW7G4-QqfZ4AWo=","tags":{"amenity":"atm","cash_in":"yes","addr:full":"Бул. Никола Габровски №61","addr:country":"BG","name":"София Дианабад","opening_hours":"24/7","brand":"Postbank","brand:wikidata":"Q7234083","operator:wikidata":"Q7234083"},"coordinates":[42.6608706,23.3468637]},"dist":94.434,"tags_mismatch":true},{"osm":{"type":"node","id":10157404262,"tags":{"amenity":"atm","brand":"Пощенска банка","brand:wikidata":"Q7234083","cash_in":"yes","int_name":"Postbank","operator:wikidata":"Q7234083"},"wikidata":"Q7234083","coordinates":[42.6717969,23.3630472]},"atp":false,"tags_mismatch":false},{"osm":{"type":"node","id":10276759658,"tags":{"amenity":"atm","brand":"Пощенска банка","brand:wikidata":"Q7234083","indoor":"no","operator:wikidata":"Q7234083"},"wikidata":"Q7234083","coordinates":[42.6983943,23.3297476]},"atp":{"id":"dVjXa74zMdWvAbQCPCfm_u35a0c=","tags":{"amenity":"atm","cash_in":"yes","addr:full":"Ул. Г.С.Раковски № 82","addr:country":"BG","name":"Моменто Раковски","opening_hours":"24/7","brand":"Postbank","brand:wikidata":"Q7234083","operator:wikidata":"Q7234083"},"coordinates":[42.69856,23.32972]},"dist":18.563,"tags_mismatch":true},{"osm":{"type":"node","id":10284476211,"tags":{"amenity":"atm","brand":"Пощенска банка","brand:wikidata":"Q7234083","covered":"yes","opening_hours":"24/7","operator:wikidata":"Q7234083"},"wikidata":"Q7234083","coordinates":[42.648992,23.3936919]},"atp":false,"tags_mismatch":false},{"osm":{"type":"node","id":10695206443,"tags":{"amenity":"atm","brand":"Пощенска банка","brand:wikidata":"Q7234083","operator:wikidata":"Q7234083"},"wikidata":"Q7234083","coordinates":[42.6727562,23.2848682]},"atp":{"id":"GYHy08BRh0dABgF_HWfRKK_eR0o=","tags":{"amenity":"atm","cash_in":"yes","addr:full":"Ул. Стефан Тошев №1","addr:country":"BG","name":"София Стефан Тошев","opening_hours":"24/7","brand":"Postbank","brand:wikidata":"Q7234083","operator:wikidata":"Q7234083"},"coordinates":[42.6731399,23.285315]},"dist":56.166,"tags_mismatch":true},{"osm":{"type":"node","id":10776569217,"tags":{"amenity":"atm","brand":"Пощенска банка","brand:wikidata":"Q7234083","operator:wikidata":"Q7234083"},"wikidata":"Q7234083","coordinates":[42.0168202,23.0947188]},"atp":{"id":"-vHRdy18bZN60W5Y_HwMFWZ3s9g=","tags":{"amenity":"atm","cash_in":"yes","addr:full":"Ул. Васил Левски №1","addr:country":"BG","name":"Благоевград Васил Левски","opening_hours":"24/7","brand":"Postbank","brand:wikidata":"Q7234083","operator:wikidata":"Q7234083"},"coordinates":[42.01685087776115,23.094628637841424]},"dist":8.192,"tags_mismatch":true},{"osm":{"type":"node","id":10922220571,"tags":{"amenity":"atm","brand":"Пощенска банка","brand:wikidata":"Q7234083","check_date":"2023-05-23","currency:BGN":"yes","indoor":"yes","operator:wikidata":"Q7234083"},"wikidata":"Q7234083","coordinates":[42.6421558,23.3362721]},"atp":{"id":"WKY6gUW5SO7julUNFAuLCJkfPIw=","tags":{"amenity":"atm","cash_in":"yes","addr:full":"ул. ‘‘ Проф. д-р Иван Странски‘‘ 20","addr:country":"BG","name":"Кауфланд Малинова долина","opening_hours":"Mo-Su 07:00-22:00","brand":"Postbank","brand:wikidata":"Q7234083","operator:wikidata":"Q7234083"},"coordinates":[42.64191877,23.33619204]},"dist":27.158,"tags_mismatch":true},{"osm":{"type":"node","id":11528433470,"tags":{"amenity":"atm","brand":"Пощенска банка","brand:wikidata":"Q7234083","indoor":"no","operator:wikidata":"Q7234083"},"wikidata":"Q7234083","coordinates":[42.683976,23.3311845]},"atp":{"id":"ZX2NY2JWNqYZf5m3ez4i47sogac=","tags":{"amenity":"atm","cash_in":"yes","addr:full":"Бул. Христо Смирненски №1","addr:country":"BG","name":"София УАСГ","opening_hours":"24/7","brand":"Postbank","brand:wikidata":"Q7234083","operator:wikidata":"Q7234083"},"coordinates":[42.6834084,23.3314263]},"dist":66.137,"tags_mismatch":true},{"osm":{"type":"node","id":12101332792,"tags":{"amenity":"atm","brand":"Пощенска банка","brand:wikidata":"Q7234083","operator:wikidata":"Q7234083"},"wikidata":"Q7234083","coordinates":[42.6745481,23.2594252]},"atp":false,"tags_mismatch":false},{"osm":{"type":"node","id":12101847342,"tags":{"amenity":"atm","brand":"Пощенска банка","brand:wikidata":"Q7234083","indoor":"yes","operator:wikidata":"Q7234083"},"wikidata":"Q7234083","coordinates":[42.6786362,23.3208499]},"atp":{"id":"y9-G2cthxk6H2Q5kf0lgvIaIfI4=","tags":{"amenity":"atm","cash_in":"yes","addr:full":"Бул. Арсеналски №2","addr:country":"BG","name":"София Парк център","opening_hours":"Mo-Fr 09:00-21:00; Sa 11:00-21:00","brand":"Postbank","brand:wikidata":"Q7234083","operator:wikidata":"Q7234083"},"coordinates":[42.6783288,23.3200037]},"dist":77.159,"tags_mismatch":true},{"osm":{"type":"node","id":12161912496,"tags":{"amenity":"atm","brand":"Пощенска банка","brand:wikidata":"Q7234083","operator:wikidata":"Q7234083"},"wikidata":"Q7234083","coordinates":[42.6837061,23.3160221]},"atp":{"id":"r7FbXCL20w9cXMwl5i8tJ6maTIU=","tags":{"amenity":"atm","cash_in":"yes","addr:full":"Пл. България №1","addr:country":"BG","name":"София НДК II","opening_hours":"24/7","brand":"Postbank","brand:wikidata":"Q7234083","operator:wikidata":"Q7234083"},"coordinates":[42.683656,23.315975]},"dist":6.772,"tags_mismatch":true},{"osm":{"type":"node","id":351121460,"tags":{"amenity":"atm","note":"Autogenerated by atm=yes of nearby bank","wikidata":"Q7234083"},"wikidata":"Q7234083","coordinates":[42.7162594,23.2510059]},"atp":{"id":"MQlv4Uo1vwhjIhxduqTO5rH7aV0=","tags":{"amenity":"atm","cash_in":"yes","addr:full":"Ж.к. Люлин 3, Базар Искра 2000 ЮГ","addr:country":"BG","name":"София Люлин Център","opening_hours":"Mo-Sa 00:00-24:00","brand":"Postbank","brand:wikidata":"Q7234083","operator:wikidata":"Q7234083"},"coordinates":[42.716252,23.250971]},"dist":2.968,"tags_mismatch":true},{"osm":{"type":"node","id":640011061,"tags":{"amenity":"atm","note":"Autogenerated by atm=yes of nearby bank","wikidata":"Q7234083"},"wikidata":"Q7234083","coordinates":[42.6569853,23.3556216]},"atp":false,"tags_mismatch":false},{"osm":{"type":"node","id":640011063,"tags":{"amenity":"atm","note":"Autogenerated by atm=yes of nearby bank","wikidata":"Q7234083"},"wikidata":"Q7234083","coordinates":[42.660254,23.347614]},"atp":false,"tags_mismatch":false},{"osm":{"type":"node","id":1168653493,"tags":{"amenity":"atm","note":"Autogenerated by atm=yes of nearby bank","wikidata":"Q7234083"},"wikidata":"Q7234083","coordinates":[42.2902107,25.9339115]},"atp":false,"tags_mismatch":false},{"osm":{"type":"node","id":1347020618,"tags":{"amenity":"atm","note":"Autogenerated by atm=yes of nearby bank","wikidata":"Q7234083"},"wikidata":"Q7234083","coordinates":[42.4261486,25.6256688]},"atp":{"id":"elWu5iSF2XgJhI_uMy5zigj30JY=","tags":{"amenity":"atm","cash_in":"yes","addr:full":"Ул. Методи Кусев №31","addr:country":"BG","name":"Стара Загора Театър","opening_hours":"24/7","brand":"Postbank","brand:wikidata":"Q7234083","operator:wikidata":"Q7234083"},"coordinates":[42.4260542,25.6256476]},"dist":10.64,"tags_mismatch":true},{"osm":{"type":"node","id":1700083362,"tags":{"amenity":"atm","note":"Autogenerated by atm=yes of nearby bank","wikidata":"Q7234083"},"wikidata":"Q7234083","coordinates":[42.6658902,23.2610493]},"atp":{"id":"sXMzO5dBTGjMTo-MnkAVMPvOCT8=","tags":{"amenity":"atm","cash_in":"yes","addr:full":"Бул. Цар Борис III №168","addr:country":"BG","name":"София Цар Борис","opening_hours":"24/7","brand":"Postbank","brand:wikidata":"Q7234083","operator:wikidata":"Q7234083"},"coordinates":[42.6660991,23.2607925]},"dist":31.312,"tags_mismatch":true},{"osm":{"type":"node","id":1977585841,"tags":{"amenity":"atm","note":"Autogenerated by atm=yes of nearby bank","wikidata":"Q7234083"},"wikidata":"Q7234083","coordinates":[43.0814362,25.6325383]},"atp":{"id":"rrfVxQ3RYccfLomuYJJgpl4xepw=","tags":{"amenity":"atm","cash_in":"yes","addr:full":"пл. Майка България №5","addr:country":"BG","name":"Велико Търново Майка България","opening_hours":"24/7","brand":"Postbank","brand:wikidata":"Q7234083","operator:wikidata":"Q7234083"},"coordinates":[43.081460024299886,25.63250841011315]},"dist":3.593,"tags_mismatch":true},{"osm":{"type":"node","id":2061149428,"tags":{"amenity":"atm","note":"Autogenerated by atm=yes of nearby bank","wikidata":"Q7234083"},"wikidata":"Q7234083","coordinates":[42.8734422,25.3193524]},"atp":false,"tags_mismatch":false},{"osm":{"type":"node","id":2061149471,"tags":{"amenity":"atm","note":"Autogenerated by atm=yes of nearby bank","wikidata":"Q7234083"},"wikidata":"Q7234083","coordinates":[42.8711069,25.3191646]},"atp":{"id":"Bc0qRSfOQYUrwqiPArtOEhwon38=","tags":{"amenity":"atm","cash_in":"yes","addr:full":"Ул. Априловска №1","addr:country":"BG","name":"Габрово","opening_hours":"24/7","brand":"Postbank","brand:wikidata":"Q7234083","operator:wikidata":"Q7234083"},"coordinates":[42.8711732,25.3192884]},"dist":12.495,"tags_mismatch":true},{"osm":{"type":"node","id":2574520777,"tags":{"amenity":"atm","note":"Autogenerated by atm=yes of nearby bank","wikidata":"Q7234083"},"wikidata":"Q7234083","coordinates":[43.5678431,27.8306907]},"atp":{"id":"wtd6nusO4PY57s9irn8xYWejn68=","tags":{"amenity":"atm","cash_in":"yes","addr:full":"Бул. 25-ти Септември №42","addr:country":"BG","name":"Добрич Йордан Йовков","opening_hours":"24/7","brand":"Postbank","brand:wikidata":"Q7234083","operator:wikidata":"Q7234083"},"coordinates":[43.5678398,27.8307426]},"dist":4.198,"tags_mismatch":true},{"osm":{"type":"node","id":2712815125,"tags":{"amenity":"atm","note":"Autogenerated by atm=yes of nearby bank","wikidata":"Q7234083"},"wikidata":"Q7234083","coordinates":[43.2115506,27.9234412]},"atp":{"id":"V7_JtIeuXvErsLTSsNU51bDA6Pw=","tags":{"amenity":"atm","cash_in":"yes","addr:full":"Ул. Осми Приморски Полк №100","addr:country":"BG","name":"Варна Чаталджа","opening_hours":"24/7","brand":"Postbank","brand:wikidata":"Q7234083","operator:wikidata":"Q7234083"},"coordinates":[43.21178666629794,27.92359134056919]},"dist":28.932,"tags_mismatch":true},{"osm":{"type":"node","id":2912776183,"tags":{"amenity":"atm","note":"Autogenerated by atm=yes of nearby bank","wikidata":"Q7234083"},"wikidata":"Q7234083","coordinates":[42.692482,23.3209832]},"atp":{"id":"-3xC6H1Jkcyq1Ajb8t-_OdOFECg=","tags":{"amenity":"atm","cash_in":"yes","addr:full":"Ул. Солунска №15","addr:country":"BG","name":"София Солунска II","opening_hours":"24/7","brand":"Postbank","brand:wikidata":"Q7234083","operator:wikidata":"Q7234083"},"coordinates":[42.69253,23.320998]},"dist":5.473,"tags_mismatch":true},{"osm":{"type":"node","id":2994713832,"tags":{"amenity":"atm","note":"Autogenerated by atm=yes of nearby bank","wikidata":"Q7234083"},"wikidata":"Q7234083","coordinates":[42.1320763,24.7162563]},"atp":false,"tags_mismatch":false},{"osm":{"type":"node","id":3035700908,"tags":{"amenity":"atm","note":"Autogenerated by atm=yes of nearby bank","wikidata":"Q7234083"},"wikidata":"Q7234083","coordinates":[42.685811,23.3215697]},"atp":{"id":"7MTVr3fxywaXsyNpmg7CYn25_fA=","tags":{"amenity":"atm","cash_in":"yes","addr:full":"Бул. Васил Левски №2","addr:country":"BG","name":"София Васил Левски","opening_hours":"24/7","brand":"Postbank","brand:wikidata":"Q7234083","operator:wikidata":"Q7234083"},"coordinates":[42.68593249723867,23.321504855900137]},"dist":14.512,"tags_mismatch":true},{"osm":{"type":"node","id":3040135647,"tags":{"amenity":"atm","note":"Autogenerated by atm=yes of nearby bank","wikidata":"Q7234083"},"wikidata":"Q7234083","coordinates":[42.6901807,23.3283521]},"atp":{"id":"3yz89eifHZzSXXaaFZvobtdKzO8=","tags":{"amenity":"atm","cash_in":"yes","addr:full":"Ул. Шишман №30","addr:country":"BG","name":"София Шишман","opening_hours":"24/7","brand":"Postbank","brand:wikidata":"Q7234083","operator:wikidata":"Q7234083"},"coordinates":[42.6901218,23.3283892]},"dist":7.217,"tags_mismatch":true},{"osm":{"type":"node","id":3098090153,"tags":{"amenity":"atm","note":"Autogenerated by atm=yes of nearby bank","wikidata":"Q7234083"},"wikidata":"Q7234083","coordinates":[42.7005488,23.3183761]},"atp":{"id":"-4rrIHaVqJu7yPrEjbC3TrMS-wU=","tags":{"amenity":"atm","cash_in":"yes","addr:full":"Ул. Стефан Стамболов №30","addr:country":"BG","name":"Стефан Стамболов","opening_hours":"24/7","brand":"Postbank","brand:wikidata":"Q7234083","operator:wikidata":"Q7234083"},"coordinates":[42.7005959,23.3183731]},"dist":5.243,"tags_mismatch":true},{"osm":{"type":"node","id":3284857458,"tags":{"amenity":"atm","note":"Autogenerated by atm=yes of nearby bank","wikidata":"Q7234083"},"wikidata":"Q7234083","coordinates":[42.7261017,23.3022757]},"atp":{"id":"9KPmTQ1AXcnU4sIUYG7cl1KCBjg=","tags":{"amenity":"atm","cash_in":"yes","addr:full":"Бул. Ломско шосе, блок 171","addr:country":"BG","name":"София Надежда","opening_hours":"24/7","brand":"Postbank","brand:wikidata":"Q7234083","operator:wikidata":"Q7234083"},"coordinates":[42.725936,23.302235]},"dist":18.723,"tags_mismatch":true},{"osm":{"type":"node","id":3327150514,"tags":{"amenity":"atm","note":"Autogenerated by atm=yes of nearby bank","wikidata":"Q7234083"},"wikidata":"Q7234083","coordinates":[42.4925498,27.4715083]},"atp":false,"tags_mismatch":false},{"osm":{"type":"node","id":3357610679,"tags":{"amenity":"atm","note":"Autogenerated by atm=yes of nearby bank","wikidata":"Q7234083"},"wikidata":"Q7234083","coordinates":[43.4177413,24.6144514]},"atp":{"id":"rzVT8bwWIjcJxCZuFCSXg3WCDyM=","tags":{"amenity":"atm","cash_in":"yes","addr:full":"ул. Гренадерска № 3","addr:country":"BG","name":"Плевен Дойран","opening_hours":"24/7","brand":"Postbank","brand:wikidata":"Q7234083","operator:wikidata":"Q7234083"},"coordinates":[43.41794994510692,24.614528411018572]},"dist":24.02,"tags_mismatch":true},{"osm":{"type":"node","id":3511072793,"tags":{"amenity":"atm","note":"Autogenerated by atm=yes of nearby bank","wikidata":"Q7234083"},"wikidata":"Q7234083","coordinates":[42.6506098,23.3792717]},"atp":{"id":"he_QyyGaWyZtbXGJ0tvXWuD2UkY=","tags":{"amenity":"atm","cash_in":"yes","addr:full":"Ж.к. Младост, Бул. Ал. Малинов №33","addr:country":"BG","name":"София Младост Малинов","opening_hours":"24/7","brand":"Postbank","brand:wikidata":"Q7234083","operator:wikidata":"Q7234083"},"coordinates":[42.6506169,23.3791812]},"dist":7.443,"tags_mismatch":true},{"osm":{"type":"node","id":3516169139,"tags":{"amenity":"atm","note":"Autogenerated by atm=yes of nearby bank","wikidata":"Q7234083"},"wikidata":"Q7234083","coordinates":[42.6961666,23.3443824]},"atp":{"id":"gg_YQpG3J17X2ByBpbAn0-Zbj58=","tags":{"amenity":"atm","cash_in":"yes","addr:full":"Бул. Янко Сакъзов №68-70","addr:country":"BG","name":"София Янко Сакъзов","opening_hours":"24/7","brand":"Postbank","brand:wikidata":"Q7234083","operator:wikidata":"Q7234083"},"coordinates":[42.6961579,23.343926]},"dist":37.311,"tags_mismatch":true},{"osm":{"type":"node","id":3583347946,"tags":{"amenity":"atm","note":"Autogenerated by atm=yes of nearby bank","wikidata":"Q7234083"},"wikidata":"Q7234083","coordinates":[42.6779206,23.2863877]},"atp":{"id":"GkpGfHJgR_EXZHrzm-8xwqpy9QA=","tags":{"amenity":"atm","cash_in":"yes","addr:full":"Бул. Гоце Делчев №7","addr:country":"BG","name":"София Красно село","opening_hours":"24/7","brand":"Postbank","brand:wikidata":"Q7234083","operator:wikidata":"Q7234083"},"coordinates":[42.6777478,23.2865792]},"dist":24.784,"tags_mismatch":true},{"osm":{"type":"node","id":3674484551,"tags":{"amenity":"atm","note":"Autogenerated by atm=yes of nearby bank","wikidata":"Q7234083"},"wikidata":"Q7234083","coordinates":[42.7358396,23.3057443]},"atp":{"id":"ZpZO_a4dVCr6wbEXiK8bxQ6XFtI=","tags":{"amenity":"atm","cash_in":"yes","addr:full":"Ж.к. Свобода, Ул. Генерал Никола Жеков, бл. 4А","addr:country":"BG","name":"София Свобода","opening_hours":"24/7","brand":"Postbank","brand:wikidata":"Q7234083","operator:wikidata":"Q7234083"},"coordinates":[42.735789,23.30575]},"dist":5.646,"tags_mismatch":true},{"osm":{"type":"node","id":3816609197,"tags":{"amenity":"atm","note":"Autogenerated by atm=yes of nearby bank","wikidata":"Q7234083"},"wikidata":"Q7234083","coordinates":[42.1452614,24.7572775]},"atp":{"id":"rTbCVIaSEMYgQ7yO8ea89X-APNQ=","tags":{"amenity":"atm","cash_in":"yes","addr:full":"Бул. Мария Луиза №20","addr:country":"BG","name":"Пловдив Мария Луиза","opening_hours":"24/7","brand":"Postbank","brand:wikidata":"Q7234083","operator:wikidata":"Q7234083"},"coordinates":[42.1451741,24.7571538]},"dist":14.08,"tags_mismatch":true},{"osm":{"type":"node","id":3846563105,"tags":{"amenity":"atm","note":"Autogenerated by atm=yes of nearby bank","wikidata":"Q7234083"},"wikidata":"Q7234083","coordinates":[42.1437299,24.745865]},"atp":{"id":"ti7WYaUN10pVA-pRabCDAHVS9WI=","tags":{"amenity":"atm","cash_in":"yes","addr:full":"Ул. Йосиф Шнитер №3","addr:country":"BG","name":"Пловдив Шнитер","opening_hours":"24/7","brand":"Postbank","brand:wikidata":"Q7234083","operator:wikidata":"Q7234083"},"coordinates":[42.1437275,24.7459165]},"dist":4.254,"tags_mismatch":true},{"osm":{"type":"node","id":3857076972,"tags":{"amenity":"atm","note":"Autogenerated by atm=yes of nearby bank","wikidata":"Q7234083"},"wikidata":"Q7234083","coordinates":[42.1492962,24.7440901]},"atp":{"id":"7aYNWyf4T4HsTByfKC_kfa-22rQ=","tags":{"amenity":"atm","cash_in":"yes","addr:full":"Ул. Бетовен №9","addr:country":"BG","name":"Пловдив Бетовен","opening_hours":"24/7","brand":"Postbank","brand:wikidata":"Q7234083","operator:wikidata":"Q7234083"},"coordinates":[42.1492866,24.7441298]},"dist":3.443,"tags_mismatch":true},{"osm":{"type":"node","id":3904005434,"tags":{"amenity":"atm","note":"Autogenerated by atm=yes of nearby bank","wikidata":"Q7234083"},"wikidata":"Q7234083","coordinates":[42.6804605,26.3168914]},"atp":false,"tags_mismatch":false},{"osm":{"type":"node","id":3986318503,"tags":{"amenity":"atm","note":"Autogenerated by atm=yes of nearby bank","wikidata":"Q7234083"},"wikidata":"Q7234083","coordinates":[42.668621,23.3969982]},"atp":{"id":"wg350ovniRTpT7EgyFYnT1KTSdY=","tags":{"amenity":"atm","cash_in":"yes","addr:full":"Ж.к. Дружба 1, ул. Туше Делииванов №9","addr:country":"BG","name":"София Дружба","opening_hours":"24/7","brand":"Postbank","brand:wikidata":"Q7234083","operator:wikidata":"Q7234083"},"coordinates":[42.6689436,23.3966422]},"dist":46.195,"tags_mismatch":true},{"osm":{"type":"node","id":4152341692,"tags":{"amenity":"atm","note":"Autogenerated by atm=yes of nearby bank","wikidata":"Q7234083"},"wikidata":"Q7234083","coordinates":[42.6727903,23.28485]},"atp":false,"tags_mismatch":false},{"osm":{"type":"node","id":4193047012,"tags":{"amenity":"atm","note":"Autogenerated by atm=yes of nearby bank","wikidata":"Q7234083"},"wikidata":"Q7234083","coordinates":[42.6669569,23.2818871]},"atp":{"id":"Z68bX19n3GZW96V0Bdz8wGJ3dzo=","tags":{"amenity":"atm","cash_in":"yes","addr:full":"Бул. Тодор Каблешков №53","addr:country":"BG","name":"София Тодор Каблешков","opening_hours":"Mo-Fr 00:00-24:00; Su 00:00-24:00","brand":"Postbank","brand:wikidata":"Q7234083","operator:wikidata":"Q7234083"},"coordinates":[42.6660891,23.2855248]},"dist":312.69,"tags_mismatch":true},{"osm":{"type":"node","id":4319784353,"tags":{"amenity":"atm","note":"Autogenerated by atm=yes of nearby bank","wikidata":"Q7234083"},"wikidata":"Q7234083","coordinates":[42.6952637,23.3211374]},"atp":{"id":"YpZnkP9-FF28yn3X3nVAOGe9uEM=","tags":{"amenity":"atm","cash_in":"yes","addr:full":"Бул. Витоша №3","addr:country":"BG","name":"София Съдебна палата","opening_hours":"24/7","brand":"Postbank","brand:wikidata":"Q7234083","operator:wikidata":"Q7234083"},"coordinates":[42.695288,23.3212363]},"dist":8.522,"tags_mismatch":true},{"osm":{"type":"node","id":4418983943,"tags":{"amenity":"atm","note":"Autogenerated by atm=yes of nearby bank","wikidata":"Q7234083"},"wikidata":"Q7234083","coordinates":[43.5701906,27.8293479]},"atp":{"id":"PiMLsll7CLV94W2MY6zpaumUp98=","tags":{"amenity":"atm","cash_in":"yes","addr:full":"Пл. Свобода №1","addr:country":"BG","name":"Добрич Свобода II","opening_hours":"Mo-Fr 08:30-17:00","brand":"Postbank","brand:wikidata":"Q7234083","operator:wikidata":"Q7234083"},"coordinates":[43.57028608735131,27.829223075465038]},"dist":14.624,"tags_mismatch":true},{"osm":{"type":"node","id":4859061926,"tags":{"amenity":"atm","note":"Autogenerated by atm=yes of nearby bank","wikidata":"Q7234083"},"wikidata":"Q7234083","coordinates":[42.6654061,23.356324]},"atp":{"id":"i4yKoka0njB1me_iQDnyPlZbPm4=","tags":{"amenity":"atm","cash_in":"yes","addr:full":"Ул. Лъчезар Станчев 5, Софарма Бизнес Тауърс","addr:country":"BG","name":"София Софарма Тауърс","opening_hours":"24/7","brand":"Postbank","brand:wikidata":"Q7234083","operator:wikidata":"Q7234083"},"coordinates":[42.665358,23.355635]},"dist":56.589,"tags_mismatch":true},{"osm":{"type":"node","id":4947500435,"tags":{"amenity":"atm","note":"Autogenerated by atm=yes of nearby bank","wikidata":"Q7234083"},"wikidata":"Q7234083","coordinates":[42.7076035,23.3226884]},"atp":{"id":"jKEA6iLyRWStaUzx88GVhWngXgk=","tags":{"amenity":"atm","cash_in":"yes","addr:full":"Бул. Мария Луиза №125","addr:country":"BG","name":"София Банишора","opening_hours":"24/7","brand":"Postbank","brand:wikidata":"Q7234083","operator:wikidata":"Q7234083"},"coordinates":[42.7076942,23.3230789]},"dist":33.463,"tags_mismatch":true},{"osm":{"type":"node","id":4980907524,"tags":{"amenity":"atm","note":"Autogenerated by atm=yes of nearby bank","wikidata":"Q7234083"},"wikidata":"Q7234083","coordinates":[42.6715605,23.2952841]},"atp":{"id":"PraLlVaK73dLZ3w2mUSgbjYTKQA=","tags":{"amenity":"atm","cash_in":"yes","addr:full":"Бул. Витоша №115-117","addr:country":"BG","name":"София Витоша","opening_hours":"24/7","brand":"Postbank","brand:wikidata":"Q7234083","operator:wikidata":"Q7234083"},"coordinates":[42.67129,23.294865]},"dist":45.593,"tags_mismatch":true},{"osm":{"type":"node","id":5015468346,"tags":{"amenity":"atm","note":"Autogenerated by atm=yes of nearby bank","wikidata":"Q7234083"},"wikidata":"Q7234083","coordinates":[43.2030747,27.9147568]},"atp":{"id":"KVkmR0DrsFYAnYSOQnhbXDEsjfk=","tags":{"amenity":"atm","cash_in":"yes","addr:full":"ул. Мусала 3","addr:country":"BG","name":"Варна Княз Борис I","opening_hours":"24/7","brand":"Postbank","brand:wikidata":"Q7234083","operator:wikidata":"Q7234083"},"coordinates":[43.2030933780322,27.914820442248978]},"dist":5.561,"tags_mismatch":true},{"osm":{"type":"node","id":5115594916,"tags":{"amenity":"atm","note":"Autogenerated by atm=yes of nearby bank","wikidata":"Q7234083"},"wikidata":"Q7234083","coordinates":[42.1563779,24.7445409]},"atp":{"id":"2b0WjQyuXSSAtMEFeq88NNtf2y4=","tags":{"amenity":"atm","cash_in":"yes","addr:full":"Ул. Брезовска №1","addr:country":"BG","name":"Пловдив Марица","opening_hours":"24/7","brand":"Postbank","brand:wikidata":"Q7234083","operator:wikidata":"Q7234083"},"coordinates":[42.1564422,24.7443643]},"dist":16.218,"tags_mismatch":true},{"osm":{"type":"node","id":5351076365,"tags":{"amenity":"atm","note":"Autogenerated by atm=yes of nearby bank","wikidata":"Q7234083"},"wikidata":"Q7234083","coordinates":[42.1721275,26.5668272]},"atp":{"id":"jtCEWk_AUlEOsmKDf4chAyXuI_k=","tags":{"amenity":"atm","cash_in":"yes","addr:full":"Ул. Славянска №3","addr:country":"BG","name":"Елхово","opening_hours":"24/7","brand":"Postbank","brand:wikidata":"Q7234083","operator:wikidata":"Q7234083"},"coordinates":[42.172027,26.56932]},"dist":205.736,"tags_mismatch":true},{"osm":{"type":"node","id":5593270763,"tags":{"amenity":"atm","note":"Autogenerated by atm=yes of nearby bank","wikidata":"Q7234083"},"wikidata":"Q7234083","coordinates":[43.1988215,27.9146679]},"atp":{"id":"1pEkE6PxPyJS0_ltJx89Eb2l7ms=","tags":{"amenity":"atm","cash_in":"yes","addr:full":"Ул. Дръзки №1-5","addr:country":"BG","name":"Варна Дръзки","opening_hours":"24/7","brand":"Postbank","brand:wikidata":"Q7234083","operator:wikidata":"Q7234083"},"coordinates":[43.1990697,27.9143487]},"dist":37.831,"tags_mismatch":true},{"osm":{"type":"node","id":6416381058,"tags":{"amenity":"atm","note":"Autogenerated by atm=yes of nearby bank","wikidata":"Q7234083"},"wikidata":"Q7234083","coordinates":[42.6636918,23.31707]},"atp":{"id":"F2j6AXFBLu3QC81eOi3Np7pbRQ8=","tags":{"amenity":"atm","cash_in":"yes","addr:full":"Бул. Черни връх №54-56","addr:country":"BG","name":"София Черни връх - Лозенец","opening_hours":"24/7","brand":"Postbank","brand:wikidata":"Q7234083","operator:wikidata":"Q7234083"},"coordinates":[42.663521,23.317004]},"dist":19.744,"tags_mismatch":true},{"osm":{"type":"node","id":6906505585,"tags":{"amenity":"atm","note":"Autogenerated by atm=yes of nearby bank","wikidata":"Q7234083"},"wikidata":"Q7234083","coordinates":[42.6994157,23.3404385]},"atp":{"id":"lZJ0rLmB8hhf0TDhyJuvjjsanC4=","tags":{"amenity":"atm","cash_in":"yes","addr:full":"Бул. Дондуков №113","addr:country":"BG","name":"София Мост Чавдар","opening_hours":"24/7","brand":"Postbank","brand:wikidata":"Q7234083","operator:wikidata":"Q7234083"},"coordinates":[42.699454,23.340414]},"dist":4.706,"tags_mismatch":true},{"osm":{"type":"node","id":7283424193,"tags":{"amenity":"atm","note":"Autogenerated by atm=yes of nearby bank","wikidata":"Q7234083"},"wikidata":"Q7234083","coordinates":[42.7350086,23.2918538]},"atp":{"id":"A6OdOiJsYQuEPyec8_3TdFdtlpk=","tags":{"amenity":"atm","cash_in":"yes","addr:full":"Бул. Бели Дунав № 5","addr:country":"BG","name":"София Бели Дунав","opening_hours":"24/7","brand":"Postbank","brand:wikidata":"Q7234083","operator:wikidata":"Q7234083"},"coordinates":[42.734996,23.29156]},"dist":24.036,"tags_mismatch":true},{"osm":{"type":"node","id":8557053718,"tags":{"amenity":"atm","note":"Autogenerated by atm=yes of nearby bank","wikidata":"Q7234083"},"wikidata":"Q7234083","coordinates":[43.2070891,27.9178879]},"atp":false,"tags_mismatch":false},{"osm":{"type":"node","id":9210297174,"tags":{"amenity":"atm","note":"Autogenerated by atm=yes of nearby bank","wikidata":"Q7234083"},"wikidata":"Q7234083","coordinates":[41.9363613,25.5555672]},"atp":{"id":"KrgJ7lgmJ4MYcb2NFwb49Xo3Fiw=","tags":{"amenity":"atm","cash_in":"yes","addr:full":"ул. Раковски 24","addr:country":"BG","name":"Хасково Раковски","opening_hours":"24/7","brand":"Postbank","brand:wikidata":"Q7234083","operator:wikidata":"Q7234083"},"coordinates":[41.93820298664929,25.555981474582442]},"dist":207.633,"tags_mismatch":true},{"osm":{"type":"node","id":9464207461,"tags":{"amenity":"atm","note":"Autogenerated by atm=yes of nearby bank","wikidata":"Q7234083"},"wikidata":"Q7234083","coordinates":[43.220318,27.9306096]},"atp":{"id":"J2iVMr4BnysIDzHWBFjKvgnmglw=","tags":{"amenity":"atm","cash_in":"yes","addr:full":"район Приморски, ул. Мадара №2, ет.1","addr:country":"BG","name":"Варна Левски","opening_hours":"24/7","brand":"Postbank","brand:wikidata":"Q7234083","operator:wikidata":"Q7234083"},"coordinates":[43.22041279513634,27.930553871081408]},"dist":11.467,"tags_mismatch":true},{"osm":{"type":"node","id":10289151162,"tags":{"amenity":"atm","note":"Autogenerated by atm=yes of nearby bank","wikidata":"Q7234083"},"wikidata":"Q7234083","coordinates":[43.2707868,26.9361047]},"atp":{"id":"hW8VO1IPE-o8Z283JZgcsLJJXas=","tags":{"amenity":"atm","cash_in":"yes","addr:full":"Пл. България №1","addr:country":"BG","name":"Шумен България II","opening_hours":"Mo-Fr 00:00-17:00","brand":"Postbank","brand:wikidata":"Q7234083","operator:wikidata":"Q7234083"},"coordinates":[43.27097062,26.93597863]},"dist":22.847,"tags_mismatch":true},{"osm":{"type":"node","id":10592585910,"tags":{"amenity":"atm","note":"Autogenerated by atm=yes of nearby bank","wikidata":"Q7234083"},"wikidata":"Q7234083","coordinates":[42.4821688,26.5111514]},"atp":{"id":"BycTgNA7_aLghCe9_zi23kKzQTs=","tags":{"amenity":"atm","cash_in":"yes","addr:full":"Ул. Търговска № 29","addr:country":"BG","name":"Ямбол","opening_hours":"24/7","brand":"Postbank","brand:wikidata":"Q7234083","operator:wikidata":"Q7234083"},"coordinates":[42.48235414072377,26.51124194232869]},"dist":21.906,"tags_mismatch":true},{"osm":{"type":"node","id":12100562315,"tags":{"amenity":"atm","note":"Autogenerated by atm=yes of nearby bank","wikidata":"Q7234083"},"wikidata":"Q7234083","coordinates":[43.2119908,27.9066438]},"atp":{"id":"VGO60qy9da7MwVn-e32Drhw8huo=","tags":{"amenity":"atm","cash_in":"yes","addr:full":"Бул. Владислав Варненчик №76-82","addr:country":"BG","name":"Варна - Тракия","opening_hours":"24/7","brand":"Postbank","brand:wikidata":"Q7234083","operator:wikidata":"Q7234083"},"coordinates":[43.2120005,27.9067708]},"dist":10.349,"tags_mismatch":true},{"osm":{"type":"node","id":12121641245,"tags":{"amenity":"atm","note":"Autogenerated by atm=yes of nearby bank","wikidata":"Q7234083"},"wikidata":"Q7234083","coordinates":[42.147918,24.7467922]},"atp":{"id":"k5NFarIrQlULVRi7yePAXB2Aw8I=","tags":{"amenity":"atm","cash_in":"yes","addr:full":"Ул. Антим I №2B","addr:country":"BG","name":"Пловдив","opening_hours":"24/7","brand":"Postbank","brand:wikidata":"Q7234083","operator:wikidata":"Q7234083"},"coordinates":[42.147863,24.7460942]},"dist":57.868,"tags_mismatch":true},{"osm":false,"atp":{"id":"w2rL33S5MZZ0cTUvzq2GVgTD_e4=","tags":{"amenity":"atm","addr:full":"Ж.к. Люлин, ул. ген. Асен Николов, ул. Търново","addr:country":"BG","name":"Non-stop Bulsatkom","opening_hours":"24/7","brand":"Postbank","brand:wikidata":"Q7234083","operator:wikidata":"Q7234083"},"coordinates":[42.7210435,23.2648389]},"tags_mismatch":false,"dist":0},{"osm":false,"atp":{"id":"y4jExXmAHTPIrsCoCfDHtYNExw0=","tags":{"amenity":"atm","addr:full":"ж.к. Люлин 7, ул. \"Ганчо Георгиев\"","addr:country":"BG","name":"S-mart Market Люлин","opening_hours":"24/7","brand":"Postbank","brand:wikidata":"Q7234083","operator:wikidata":"Q7234083"},"coordinates":[42.711658,23.266221]},"tags_mismatch":false,"dist":0},{"osm":false,"atp":{"id":"Qh_WMbNIxYGQ_s5Geq0nEuUwZG8=","tags":{"amenity":"atm","addr:full":"Ж.к. Надежда 1, ул. Кирил Дрангов № 46","addr:country":"BG","name":"S-mart Market Надежда","opening_hours":"24/7","brand":"Postbank","brand:wikidata":"Q7234083","operator:wikidata":"Q7234083"},"coordinates":[42.7258189,23.2971397]},"tags_mismatch":false,"dist":0},{"osm":false,"atp":{"id":"uuOxZ5CWqfYZ4Am4Wa-b8H8bcd8=","tags":{"amenity":"atm","addr:full":"Бул. Симеоновско шосе №130","addr:country":"BG","name":"Адифарм","opening_hours":"24/7","brand":"Postbank","brand:wikidata":"Q7234083","operator:wikidata":"Q7234083"},"coordinates":[42.6351636046462,23.333522382736767]},"tags_mismatch":false,"dist":0},{"osm":false,"atp":{"id":"6J-zrOxYUBx3U_Co3inp0ywb0ho=","tags":{"amenity":"atm","addr:full":"Бул. Христо Ботев №120","addr:country":"BG","name":"Втора МБАЛ София","opening_hours":"24/7","brand":"Postbank","brand:wikidata":"Q7234083","operator:wikidata":"Q7234083"},"coordinates":[42.706227,23.318259]},"tags_mismatch":false,"dist":0},{"osm":false,"atp":{"id":"JDIzXwrV47Z46kh4oK0RruGtYXU=","tags":{"amenity":"atm","cash_in":"yes","addr:full":"Бул. Дондуков №52","addr:country":"BG","name":"Главна Данъчна Дирекция","opening_hours":"Mo-Fr 08:30-17:00","brand":"Postbank","brand:wikidata":"Q7234083","operator:wikidata":"Q7234083"},"coordinates":[42.69854797861787,23.333804082738236]},"tags_mismatch":false,"dist":0},{"osm":false,"atp":{"id":"dFozBdRvL-FACfOtSvJi7v-qEmM=","tags":{"amenity":"atm","addr:full":"Бул. Ситняково №23","addr:country":"BG","name":"Дарик имоти","opening_hours":"24/7","brand":"Postbank","brand:wikidata":"Q7234083","operator:wikidata":"Q7234083"},"coordinates":[42.69649,23.32601]},"tags_mismatch":false,"dist":0},{"osm":false,"atp":{"id":"sYBHcJPEKP4R_jOGbPED4LNcP_Q=","tags":{"amenity":"atm","addr:full":"Бул. Мария Луиза №131","addr:country":"BG","name":"Дедеман Принцес Хотел София","opening_hours":"24/7","brand":"Postbank","brand:wikidata":"Q7234083","operator:wikidata":"Q7234083"},"coordinates":[42.708372,23.322455]},"tags_mismatch":false,"dist":0},{"osm":false,"atp":{"id":"AUuaaAocTHi6Wj44AUn2oX9y3F8=","tags":{"amenity":"atm","addr:full":"ул. Царица Йоанна 49","addr:country":"BG","name":"Дженеръс Ауто","opening_hours":"Mo-Fr 09:00-18:00; Sa 09:00-15:00","brand":"Postbank","brand:wikidata":"Q7234083","operator:wikidata":"Q7234083"},"coordinates":[42.7145632,23.26387348]},"tags_mismatch":false,"dist":0},{"osm":false,"atp":{"id":"h8o9ygQ4r1_NEgMnb12qBKQbo1g=","tags":{"amenity":"atm","addr:full":"Бул. Ботевградско шосе №525","addr:country":"BG","name":"Джъмбо София Блек Голд","opening_hours":"Mo-Sa 10:00-21:00; Su 10:00-20:00","brand":"Postbank","brand:wikidata":"Q7234083","operator:wikidata":"Q7234083"},"coordinates":[42.709209,23.417752]},"tags_mismatch":false,"dist":0},{"osm":false,"atp":{"id":"3afulOvklhlv_qnThC96x3KxfrI=","tags":{"amenity":"atm","addr:full":"Бул. Сливница №542В","addr:country":"BG","name":"Джъмбо София Европа","opening_hours":"Mo-Sa 10:00-21:00; Su 10:00-20:00","brand":"Postbank","brand:wikidata":"Q7234083","operator:wikidata":"Q7234083"},"coordinates":[42.740891,23.236719]},"tags_mismatch":false,"dist":0},{"osm":false,"atp":{"id":"vjNMNvu6NgCJycgNLSyTNTY3VSs=","tags":{"amenity":"atm","addr:full":"Ж.к. Мотописта, бул. България №51","addr:country":"BG","name":"Джъмбо София Мотописта","opening_hours":"Mo-Sa 10:00-21:00; Su 10:00-20:00","brand":"Postbank","brand:wikidata":"Q7234083","operator:wikidata":"Q7234083"},"coordinates":[42.666241,23.289499]},"tags_mismatch":false,"dist":0},{"osm":false,"atp":{"id":"WaAx52xIEzHJ5vW0f_hTQ8sMLtU=","tags":{"amenity":"atm","addr:full":"Ж.к. Дружба 2, ул. Обиколна №11","addr:country":"BG","name":"Джъмбо София Цариградско","opening_hours":"Mo-Sa 10:00-21:00; Su 10:00-20:00","brand":"Postbank","brand:wikidata":"Q7234083","operator:wikidata":"Q7234083"},"coordinates":[42.648295,23.403912]},"tags_mismatch":false,"dist":0},{"osm":false,"atp":{"id":"ECGWWxb-0cpqp00oblOnJrEPbdU=","tags":{"amenity":"atm","addr:full":"бул.Цариградско шосе, 4-ти км","addr:country":"BG","name":"ЕКО 4-ти км","opening_hours":"24/7","brand":"Postbank","brand:wikidata":"Q7234083","operator:wikidata":"Q7234083"},"coordinates":[42.668199056802564,23.3679692982481]},"tags_mismatch":false,"dist":0},{"osm":false,"atp":{"id":"VBZ-3UKRG74-tni9RcIcqR-g0hM=","tags":{"amenity":"atm","addr:full":"Ж.к. Модерно предградие, Ул. Адам Мицкевич №1","addr:country":"BG","name":"ЕКО Адам Мицкевич","opening_hours":"24/7","brand":"Postbank","brand:wikidata":"Q7234083","operator:wikidata":"Q7234083"},"coordinates":[42.719922,23.279258]},"tags_mismatch":false,"dist":0},{"osm":false,"atp":{"id":"QcP575XiKZODyR9UcsSqGB7hb74=","tags":{"amenity":"atm","addr:full":"Околовръстен път, местност Манастирски ливади","addr:country":"BG","name":"ЕКО Бояна","opening_hours":"24/7","brand":"Postbank","brand:wikidata":"Q7234083","operator:wikidata":"Q7234083"},"coordinates":[42.65214222739629,23.293047653273348]},"tags_mismatch":false,"dist":0},{"osm":false,"atp":{"id":"ebDJx1Z8TbNKymwEZGiFNUEMJ_4=","tags":{"amenity":"atm","addr:full":"Дружба 2, ул. Димитър Пешев","addr:country":"BG","name":"ЕКО Дружба","opening_hours":"24/7","brand":"Postbank","brand:wikidata":"Q7234083","operator:wikidata":"Q7234083"},"coordinates":[42.645806,23.412477]},"tags_mismatch":false,"dist":0},{"osm":false,"atp":{"id":"hvXMLiPDIMuy90eWvazVifgYAVU=","tags":{"amenity":"atm","addr:full":"Ул. Околовръстен път, Южна дъга, с/у магазин ИКЕА","addr:country":"BG","name":"ЕКО Малинова долина","opening_hours":"24/7","brand":"Postbank","brand:wikidata":"Q7234083","operator:wikidata":"Q7234083"},"coordinates":[42.62906871831214,23.34618329937462]},"tags_mismatch":false,"dist":0},{"osm":false,"atp":{"id":"CX22edErq-ttoN33DoewwVk_38w=","tags":{"amenity":"atm","addr:full":"бул. Никола Й. Вапцаров 5","addr:country":"BG","name":"ЕКО Никола Й. Вапцаров","opening_hours":"24/7","brand":"Postbank","brand:wikidata":"Q7234083","operator:wikidata":"Q7234083"},"coordinates":[42.66721054,23.32535873]},"tags_mismatch":false,"dist":0},{"osm":false,"atp":{"id":"WuHp7JSthNt6AaJlUWrkxONrDcI=","tags":{"amenity":"atm","addr:full":"бул. Сливница №8А","addr:country":"BG","name":"ЕКО Сливница","opening_hours":"24/7","brand":"Postbank","brand:wikidata":"Q7234083","operator:wikidata":"Q7234083"},"coordinates":[42.720152,23.274305]},"tags_mismatch":false,"dist":0},{"osm":false,"atp":{"id":"95sg8DMFV9Pz559wL1Fc_9Pt344=","tags":{"amenity":"atm","addr:full":"ул. Околовръстен път – Царско село","addr:country":"BG","name":"ЕКО Царско село","opening_hours":"24/7","brand":"Postbank","brand:wikidata":"Q7234083","operator:wikidata":"Q7234083"},"coordinates":[42.63867627868147,23.31927476941173]},"tags_mismatch":false,"dist":0},{"osm":false,"atp":{"id":"lP-z-A_fMMT35BQWlKCT9yVCflA=","tags":{"amenity":"atm","addr:full":"кв. Лозенец, бул. Черни връх преди Околовръстен път","addr:country":"BG","name":"ЕКО Черни връх","opening_hours":"24/7","brand":"Postbank","brand:wikidata":"Q7234083","operator:wikidata":"Q7234083"},"coordinates":[42.650809,23.315982]},"tags_mismatch":false,"dist":0},{"osm":false,"atp":{"id":"U9gfh3-cgjxwc3_YnY3liJnZSWM=","tags":{"amenity":"atm","addr:full":"Ул. Рачо Петков Казанджията №6","addr:country":"BG","name":"ЕОС Матрикс","brand":"Postbank","brand:wikidata":"Q7234083","operator:wikidata":"Q7234083"},"coordinates":[42.622058,23.369549]},"tags_mismatch":false,"dist":0},{"osm":false,"atp":{"id":"1xYzrbRLCsboujWsxO7VQUCqRZw=","tags":{"amenity":"atm","addr:full":"Ул. Илиянци №119А","addr:country":"BG","name":"ЕТЕМ","opening_hours":"24/7","brand":"Postbank","brand:wikidata":"Q7234083","operator:wikidata":"Q7234083"},"coordinates":[42.737136,23.325645]},"tags_mismatch":false,"dist":0},{"osm":false,"atp":{"id":"LJ9IKqgr7ViGiuY6xk78e5AwGVg=","tags":{"amenity":"atm","addr:full":"Ул. Лунна папрат №3","addr:country":"BG","name":"Евросервиз Тандер","opening_hours":"24/7","brand":"Postbank","brand:wikidata":"Q7234083","operator:wikidata":"Q7234083"},"coordinates":[42.6600828,23.260135]},"tags_mismatch":false,"dist":0},{"osm":false,"atp":{"id":"uVUvO0sY8gq6MR31NKTlMBXWC04=","tags":{"amenity":"atm","addr:full":"Ул. Николай Хайтов №3 Б","addr:country":"BG","name":"Есте Пропъртис","opening_hours":"Mo-Sa 07:00-22:00; Su 08:00-21:00","brand":"Postbank","brand:wikidata":"Q7234083","operator:wikidata":"Q7234083"},"coordinates":[42.69649,23.32601]},"tags_mismatch":false,"dist":0},{"osm":false,"atp":{"id":"zDGLsXJb_PMNdFUwi9R1VjtG0TE=","tags":{"amenity":"atm","addr:full":"Бул. Околовръстен път №216","addr:country":"BG","name":"ИКЕА","opening_hours":"Mo-Sa 10:00-21:00; Su 10:00-20:00","brand":"Postbank","brand:wikidata":"Q7234083","operator:wikidata":"Q7234083"},"coordinates":[42.623723,23.355219]},"tags_mismatch":false,"dist":0},{"osm":false,"atp":{"id":"CFZtgqo4tYNt4jF_Dctr5qaRj34=","tags":{"amenity":"atm","addr:full":"Ул. Атанас Дуков №32","addr:country":"BG","name":"ИНТКО","opening_hours":"24/7","brand":"Postbank","brand:wikidata":"Q7234083","operator:wikidata":"Q7234083"},"coordinates":[42.665768,23.326225]},"tags_mismatch":false,"dist":0},{"osm":false,"atp":{"id":"4KxSumMvxtJh0BYwk-gDyi1e5ng=","tags":{"amenity":"atm","cash_in":"yes","addr:full":"ул. ‘‘Aсен Йорданов‘‘ 7","addr:country":"BG","name":"Кауфланд Слатина","opening_hours":"Mo-Su 07:00-22:00","brand":"Postbank","brand:wikidata":"Q7234083","operator:wikidata":"Q7234083"},"coordinates":[42.6742855,23.38280297]},"tags_mismatch":false,"dist":0},{"osm":false,"atp":{"id":"j6uML_IGKUMPcnlaso7byqRdTU8=","tags":{"amenity":"atm","addr:full":"Бул. Ломско шосе №207","addr:country":"BG","name":"Комплекс Кристал","opening_hours":"24/7","brand":"Postbank","brand:wikidata":"Q7234083","operator:wikidata":"Q7234083"},"coordinates":[42.743535,23.283052]},"tags_mismatch":false,"dist":0},{"osm":false,"atp":{"id":"sxmu5PBxVmcThu_Li0fVMkHnkA0=","tags":{"amenity":"atm","addr:full":"Бул. Христофор Колумб №1, Терминал 2","addr:country":"BG","name":"Летище София - Терминал 2","opening_hours":"24/7","brand":"Postbank","brand:wikidata":"Q7234083","operator:wikidata":"Q7234083"},"coordinates":[42.68238286353034,23.402468467763008]},"tags_mismatch":false,"dist":0},{"osm":false,"atp":{"id":"Svp3JVnulW0SXr3wE_zYbYn8y7A=","tags":{"amenity":"atm","addr:full":"Бул. Христофор Колумб №1, Терминал 1","addr:country":"BG","name":"Летище София Терминал 1 – пристигащи","opening_hours":"24/7","brand":"Postbank","brand:wikidata":"Q7234083","operator:wikidata":"Q7234083"},"coordinates":[42.682430214436614,23.402457741959036]},"tags_mismatch":false,"dist":0},{"osm":false,"atp":{"id":"WjFkYm2I5IJcBEFm1ZJX8759bZY=","tags":{"amenity":"atm","addr:full":"Ул. Д-Р Петър Дертлиев №81","addr:country":"BG","name":"МБАЛ Люлин","opening_hours":"24/7","brand":"Postbank","brand:wikidata":"Q7234083","operator:wikidata":"Q7234083"},"coordinates":[42.708423,23.249351]},"tags_mismatch":false,"dist":0},{"osm":false,"atp":{"id":"3b51ZdwbZK47zsu9FYusoTua5Dw=","tags":{"amenity":"atm","addr:full":"жк. Света Троица, ул. Цар Симеон до бл.310","addr:country":"BG","name":"Магазин 345 - Света Троица","opening_hours":"24/7","brand":"Postbank","brand:wikidata":"Q7234083","operator:wikidata":"Q7234083"},"coordinates":[42.70917403559914,23.28954329808788]},"tags_mismatch":false,"dist":0},{"osm":false,"atp":{"id":"W29Fjcbab6tYDxXHqqt8LDKzVLg=","tags":{"amenity":"atm","addr:full":"Ж.к. Люлин, бул. Захари Стоянов №31","addr:country":"BG","name":"Магазин Виера","opening_hours":"24/7","brand":"Postbank","brand:wikidata":"Q7234083","operator:wikidata":"Q7234083"},"coordinates":[42.7181729,23.2470465]},"tags_mismatch":false,"dist":0},{"osm":false,"atp":{"id":"4X1hxtDHmcH0Ev0QYKk1ugZjVYM=","tags":{"amenity":"atm","addr:full":"Бул. Цар Борис III 280","addr:country":"BG","name":"Магазин Княжево","opening_hours":"24/7","brand":"Postbank","brand:wikidata":"Q7234083","operator:wikidata":"Q7234083"},"coordinates":[42.65938096800974,23.241795454049946]},"tags_mismatch":false,"dist":0},{"osm":false,"atp":{"id":"jcvFdgwEQ0he-XDHzAjnBfnes_M=","tags":{"amenity":"atm","addr:full":"Ж.к. Люлин, бул. Ген. Асен Николов, до м-н Европа","addr:country":"BG","name":"Малкият принц","opening_hours":"24/7","brand":"Postbank","brand:wikidata":"Q7234083","operator:wikidata":"Q7234083"},"coordinates":[42.720334,23.26397]},"tags_mismatch":false,"dist":0},{"osm":false,"atp":{"id":"81vi0mNUefNSFLGBFvaSFgxTn3U=","tags":{"amenity":"atm","cash_in":"yes","addr:full":"бул. Царица Йоанна № 15; Ниво 0","addr:country":"BG","name":"Мега Мол София","opening_hours":"Mo-Su 09:00-21:00","brand":"Postbank","brand:wikidata":"Q7234083","operator:wikidata":"Q7234083"},"coordinates":[42.7107482085765,23.271274763887]},"tags_mismatch":false,"dist":0},{"osm":false,"atp":{"id":"3pBKQuHhnLNSNV3kzyu0Okg0wdM=","tags":{"amenity":"atm","addr:full":"Бул. Цариградско шосе №115Г","addr:country":"BG","name":"Мегапарк","opening_hours":"24/7","brand":"Postbank","brand:wikidata":"Q7234083","operator:wikidata":"Q7234083"},"coordinates":[42.69649,23.32601]},"tags_mismatch":false,"dist":0},{"osm":false,"atp":{"id":"6T1qduuTkI2_veZV1xRStPrFYM0=","tags":{"amenity":"atm","addr:full":"Ж.к. Овча Купел 2, Ул. Фридрих Грюнангер №2","addr:country":"BG","name":"Медицински център Доверие","opening_hours":"24/7","brand":"Postbank","brand:wikidata":"Q7234083","operator:wikidata":"Q7234083"},"coordinates":[42.684771,23.246255]},"tags_mismatch":false,"dist":0},{"osm":false,"atp":{"id":"eVnuNTX5I3DAr5p-tNnHbuiM4aw=","tags":{"amenity":"atm","cash_in":"yes","addr:full":"кв. Хладилника, бул. Черни връх 100","addr:country":"BG","name":"Мол Парадайз вход- Сребърна","opening_hours":"Mo-Su 08:00-22:00","brand":"Postbank","brand:wikidata":"Q7234083","operator:wikidata":"Q7234083"},"coordinates":[42.657674139779175,23.314995582596385]},"tags_mismatch":false,"dist":0},{"osm":false,"atp":{"id":"GAjRRQrs2ZeSQZjcuaM4O0nbais=","tags":{"amenity":"atm","cash_in":"yes","addr:full":"Ул. Алабин №1","addr:country":"BG","name":"Моменто Telus Tower 2","opening_hours":"Sa 10:00-14:00","brand":"Postbank","brand:wikidata":"Q7234083","operator:wikidata":"Q7234083"},"coordinates":[42.694789,23.315608]},"tags_mismatch":false,"dist":0},{"osm":false,"atp":{"id":"QpQXTs0Rnx5FttZ5_kogYuuJtaE=","tags":{"amenity":"atm","cash_in":"yes","addr:full":"Бул. Ал. Стамболийски №101","addr:country":"BG","name":"Моменто Мол София","opening_hours":"Mo-Su 10:00-19:00","brand":"Postbank","brand:wikidata":"Q7234083","operator:wikidata":"Q7234083"},"coordinates":[42.698459925862785,23.309022201864195]},"tags_mismatch":false,"dist":0},{"osm":false,"atp":{"id":"3misV21ygmsAtZf-d7v6Y_V4-7Y=","tags":{"amenity":"atm","cash_in":"yes","addr:full":"Ул. Г.С.Раковски № 82","addr:country":"BG","name":"Моменто Раковски 2","opening_hours":"Sa 10:00-14:00","brand":"Postbank","brand:wikidata":"Q7234083","operator:wikidata":"Q7234083"},"coordinates":[42.69856,23.32972]},"tags_mismatch":false,"dist":0},{"osm":false,"atp":{"id":"m2n7RKcSY5LKJruNf0MM4vazjXU=","tags":{"amenity":"atm","cash_in":"yes","addr:full":"Пл. Петко Р. Славейков №1","addr:country":"BG","name":"Моменто Славейков 2","opening_hours":"Sa 10:00-14:00","brand":"Postbank","brand:wikidata":"Q7234083","operator:wikidata":"Q7234083"},"coordinates":[42.692602,23.323906]},"tags_mismatch":false,"dist":0},{"osm":false,"atp":{"id":"pe_7ckv1ULKvsGDNoEQq0KLIB90=","tags":{"amenity":"atm","addr:full":"Ж.к. Овча Купел, бул. Монтевидео №21","addr:country":"BG","name":"НБУ","opening_hours":"Mo-Fr 08:00-21:00; Sa-Su 09:00-17:30","brand":"Postbank","brand:wikidata":"Q7234083","operator:wikidata":"Q7234083"},"coordinates":[42.6783219,23.2510075]},"tags_mismatch":false,"dist":0},{"osm":false,"atp":{"id":"cMylxWGKoPTi0v__LyaPM4hhgww=","tags":{"amenity":"atm","addr:full":"ул.“Челопешко шосе“ №24","addr:country":"BG","name":"Орбико България","brand":"Postbank","brand:wikidata":"Q7234083","operator:wikidata":"Q7234083"},"coordinates":[42.71476619369477,23.436130710842022]},"tags_mismatch":false,"dist":0},{"osm":false,"atp":{"id":"zwTvthv--YpdGBoEkyK6FCLKyHc=","tags":{"amenity":"atm","cash_in":"yes","addr:full":"ул. \"Тинтява\" 13Б, вх. А","addr:country":"BG","name":"ПОК Доверие","opening_hours":"Mo-Fr 08:00-22:00","brand":"Postbank","brand:wikidata":"Q7234083","operator:wikidata":"Q7234083"},"coordinates":[42.66729081917973,23.35347245576103]},"tags_mismatch":false,"dist":0},{"osm":false,"atp":{"id":"GvsTQkWyN8wv7y66KfIbVB_17S0=","tags":{"amenity":"atm","addr:full":"бул. „Арсеналски“ 2, ниво 0","addr:country":"BG","name":"Парк Център Мол, ниво 0","opening_hours":"Mo-Su 08:00-22:00","brand":"Postbank","brand:wikidata":"Q7234083","operator:wikidata":"Q7234083"},"coordinates":[42.67818381691868,23.319624169104625]},"tags_mismatch":false,"dist":0},{"osm":false,"atp":{"id":"3rIODPDcs3LCQ7YYlqvhHkaWFC0=","tags":{"amenity":"atm","cash_in":"yes","addr:full":"Бул. Околовръстен път №260, сграда Б","addr:country":"BG","name":"Пощенска банка Офис парк - Б","opening_hours":"Mo-Fr 08:30-18:00","brand":"Postbank","brand:wikidata":"Q7234083","operator:wikidata":"Q7234083"},"coordinates":[42.622455,23.380158]},"tags_mismatch":false,"dist":0},{"osm":false,"atp":{"id":"RtaktO7wQCtiOoCsKtR-3gXweuc=","tags":{"amenity":"atm","addr:full":"ул. Здраве 2","addr:country":"BG","name":"САГБАЛ Майчин дом","opening_hours":"24/7","brand":"Postbank","brand:wikidata":"Q7234083","operator:wikidata":"Q7234083"},"coordinates":[42.68380442125118,23.313166826776495]},"tags_mismatch":false,"dist":0},{"osm":false,"atp":{"id":"BPMJWrHz7_IfIh9Fn2Mx2_oTUxw=","tags":{"amenity":"atm","addr:full":"Ул. 5004 №2","addr:country":"BG","name":"СОТ","opening_hours":"Mo-Fr 00:00-24:00","brand":"Postbank","brand:wikidata":"Q7234083","operator:wikidata":"Q7234083"},"coordinates":[42.661276,23.4179435]},"tags_mismatch":false,"dist":0},{"osm":false,"atp":{"id":"YT2SAA9_kq9TFcdEoPg6P9d5dJI=","tags":{"amenity":"atm","addr:full":"ул. „Кукуш“ 2, София","addr:country":"BG","name":"Сименс ","opening_hours":"Mo-Fr 09:00-17:00","brand":"Postbank","brand:wikidata":"Q7234083","operator:wikidata":"Q7234083"},"coordinates":[42.715926679167616,23.28572222708489]},"tags_mismatch":false,"dist":0},{"osm":false,"atp":{"id":"nw7ThKg2MU8pMwKY48BQT1Fy1o8=","tags":{"amenity":"atm","cash_in":"yes","addr:full":"ул. Коста Лулчев 52","addr:country":"BG","name":"Скай Сити Мол","opening_hours":"Mo-Su 10:00-22:00","brand":"Postbank","brand:wikidata":"Q7234083","operator:wikidata":"Q7234083"},"coordinates":[42.67986220077809,23.36717548898071]},"tags_mismatch":false,"dist":0},{"osm":false,"atp":{"id":"YUd0sUqXv4sisyU722WJZ_3FPMU=","tags":{"amenity":"atm","cash_in":"yes","addr:full":"Бул. Ал. Стамболийски №55А","addr:country":"BG","name":"София - Стамболийски","opening_hours":"24/7","brand":"Postbank","brand:wikidata":"Q7234083","operator:wikidata":"Q7234083"},"coordinates":[42.697461,23.315442]},"tags_mismatch":false,"dist":0},{"osm":false,"atp":{"id":"us-7KPuJ8SkboZxOhp3TWSNo4_c=","tags":{"amenity":"atm","cash_in":"yes","addr:full":"Ж.к. Младост 4, Бизнес парк София, сграда 10","addr:country":"BG","name":"София Бизнес парк","opening_hours":"24/7","brand":"Postbank","brand:wikidata":"Q7234083","operator:wikidata":"Q7234083"},"coordinates":[42.62602731876352,23.376854695337865]},"tags_mismatch":false,"dist":0},{"osm":false,"atp":{"id":"uPWbRiZvkwEwXu5Uylq06rf9GNE=","tags":{"amenity":"atm","cash_in":"yes","addr:full":"Ж.к. Младост 4, Бизнес парк София, сграда 10","addr:country":"BG","name":"София Бизнес парк 2","opening_hours":"Mo-Fr 08:30-17:00","brand":"Postbank","brand:wikidata":"Q7234083","operator:wikidata":"Q7234083"},"coordinates":[42.62602731876352,23.376854695337865]},"tags_mismatch":false,"dist":0},{"osm":false,"atp":{"id":"SXsSfc_Xf1LjtOQoyK3hiJM1Oxw=","tags":{"amenity":"atm","cash_in":"yes","addr:full":"Ул. Николай Коперник № 21","addr:country":"BG","name":"София Гео Милев","opening_hours":"24/7","brand":"Postbank","brand:wikidata":"Q7234083","operator:wikidata":"Q7234083"},"coordinates":[42.6798159,23.361026]},"tags_mismatch":false,"dist":0},{"osm":false,"atp":{"id":"-TMH4RvTj3qs3AXsPiGOV592NZE=","tags":{"amenity":"atm","addr:full":"Ул. Раковски №137","addr:country":"BG","name":"София Гурко","opening_hours":"24/7","brand":"Postbank","brand:wikidata":"Q7234083","operator:wikidata":"Q7234083"},"coordinates":[42.693631882061474,23.326291728104223]},"tags_mismatch":false,"dist":0},{"osm":false,"atp":{"id":"3ijE2UdTKTj9T2zb1lYeE8U0VCo=","tags":{"amenity":"atm","cash_in":"yes","addr:full":"Ул. Раковски №137","addr:country":"BG","name":"София Гурко II","opening_hours":"24/7","brand":"Postbank","brand:wikidata":"Q7234083","operator:wikidata":"Q7234083"},"coordinates":[42.694136557558444,23.325948405362816]},"tags_mismatch":false,"dist":0},{"osm":false,"atp":{"id":"YXnd-f8u_RXy51ptqJpUDL8FSaw=","tags":{"amenity":"atm","cash_in":"yes","addr:full":"Бул. Дондуков №4-6","addr:country":"BG","name":"София Дондуков","opening_hours":"24/7","brand":"Postbank","brand:wikidata":"Q7234083","operator:wikidata":"Q7234083"},"coordinates":[42.6976718,23.3264022]},"tags_mismatch":false,"dist":0},{"osm":false,"atp":{"id":"wWGmxWQz5wSpdq-aiYOCv2SwgPI=","tags":{"amenity":"atm","cash_in":"yes","addr:full":"Бул. Христофор Колумб №43","addr:country":"BG","name":"София Евроинс","opening_hours":"24/7","brand":"Postbank","brand:wikidata":"Q7234083","operator:wikidata":"Q7234083"},"coordinates":[42.6806292,23.3996635]},"tags_mismatch":false,"dist":0},{"osm":false,"atp":{"id":"BV2b_rmFes-_2ICQP9j8tXB6Ztk=","tags":{"amenity":"atm","cash_in":"yes","addr:full":"бул. Цариградско шосе №96","addr:country":"BG","name":"София Елипс Център","opening_hours":"Mo-Fr 08:30-17:00","brand":"Postbank","brand:wikidata":"Q7234083","operator:wikidata":"Q7234083"},"coordinates":[42.64594137056758,23.39712665591895]},"tags_mismatch":false,"dist":0},{"osm":false,"atp":{"id":"RHgq-CbXSsM-drudiNjt8uA-hPo=","tags":{"amenity":"atm","cash_in":"yes","addr:full":"Бул. Цариградско шосе, блок 22","addr:country":"BG","name":"София Изток","opening_hours":"24/7","brand":"Postbank","brand:wikidata":"Q7234083","operator:wikidata":"Q7234083"},"coordinates":[42.6885494,23.3406613]},"tags_mismatch":false,"dist":0},{"osm":false,"atp":{"id":"9c7S2BLBMRJ_Gedp7FqUAl2Pqsw=","tags":{"amenity":"atm","cash_in":"yes","addr:full":"Бул. Никола Мушанов, бл.31","addr:country":"BG","name":"София Красна Поляна","opening_hours":"24/7","brand":"Postbank","brand:wikidata":"Q7234083","operator:wikidata":"Q7234083"},"coordinates":[42.6910058,23.2785609]},"tags_mismatch":false,"dist":0},{"osm":false,"atp":{"id":"Fowih_1qXwYy2Gg_uCVu_BezplY=","tags":{"amenity":"atm","cash_in":"yes","addr:full":"Ул. Луи Пастьор №30","addr:country":"BG","name":"София Люлин Луи Пастьор","opening_hours":"24/7","brand":"Postbank","brand:wikidata":"Q7234083","operator:wikidata":"Q7234083"},"coordinates":[42.7136401,23.2652657]},"tags_mismatch":false,"dist":0},{"osm":false,"atp":{"id":"oJGApgOyjcFQbtT3j88yxie7On4=","tags":{"amenity":"atm","cash_in":"yes","addr:full":"Ул. Луи Пастьор №30","addr:country":"BG","name":"София Люлин Луи Пастьор II","opening_hours":"Mo-Fr 08:30-17:00","brand":"Postbank","brand:wikidata":"Q7234083","operator:wikidata":"Q7234083"},"coordinates":[42.71376312678783,23.265477995690393]},"tags_mismatch":false,"dist":0},{"osm":false,"atp":{"id":"AUaoHZHO7pvubX-xOfgwrBIEOoE=","tags":{"amenity":"atm","addr:full":"Ул. Здраве №2","addr:country":"BG","name":"София Медицинска Академия","opening_hours":"24/7","brand":"Postbank","brand:wikidata":"Q7234083","operator:wikidata":"Q7234083"},"coordinates":[42.6834424,23.3116593]},"tags_mismatch":false,"dist":0},{"osm":false,"atp":{"id":"758QsCDIR6MHEuK3kgIW0jNtjss=","tags":{"amenity":"atm","cash_in":"yes","addr:full":"ул. Андрей Сахаров 16","addr:country":"BG","name":"София Младост Сахаров","opening_hours":"24/7","brand":"Postbank","brand:wikidata":"Q7234083","operator:wikidata":"Q7234083"},"coordinates":[42.6536868,23.3730849]},"tags_mismatch":false,"dist":0},{"osm":false,"atp":{"id":"3kLZgBfAVJWoIy1zZ6PmBm_9Vqs=","tags":{"amenity":"atm","cash_in":"yes","addr:full":"Бул. Цариградско шосе 115","addr:country":"BG","name":"София Мол Цариградско шосе","opening_hours":"Mo-Su 10:00-22:00","brand":"Postbank","brand:wikidata":"Q7234083","operator:wikidata":"Q7234083"},"coordinates":[42.660518,23.382169]},"tags_mismatch":false,"dist":0},{"osm":false,"atp":{"id":"2uFTQAEkm8-vyxqXWNbOxWGLomk=","tags":{"amenity":"atm","cash_in":"yes","addr:full":"Бул. Ломско шосе, бл. 171","addr:country":"BG","name":"София Надежда II","opening_hours":"Mo-Fr 08:30-17:00","brand":"Postbank","brand:wikidata":"Q7234083","operator:wikidata":"Q7234083"},"coordinates":[42.725936,23.302235]},"tags_mismatch":false,"dist":0},{"osm":false,"atp":{"id":"KZpTc8I92j4gosIn3fQVB1Waarg=","tags":{"amenity":"atm","cash_in":"yes","addr:full":"Бул. Монтевидео №51","addr:country":"BG","name":"София Овча купел","opening_hours":"24/7","brand":"Postbank","brand:wikidata":"Q7234083","operator:wikidata":"Q7234083"},"coordinates":[42.687299,23.2549932]},"tags_mismatch":false,"dist":0},{"osm":false,"atp":{"id":"VldnzSjVD1DxriD2l72hOFFM8d4=","tags":{"amenity":"atm","cash_in":"yes","addr:full":"Ул. Опълченска №117, бл. 41","addr:country":"BG","name":"София Опълченска","opening_hours":"24/7","brand":"Postbank","brand:wikidata":"Q7234083","operator:wikidata":"Q7234083"},"coordinates":[42.709356,23.31366]},"tags_mismatch":false,"dist":0},{"osm":false,"atp":{"id":"0RjdnRerfVQ_1YXX9urRTdzb-2k=","tags":{"amenity":"atm","cash_in":"yes","addr:full":"Бул. Черни връх №100","addr:country":"BG","name":"София Парадайс","opening_hours":"Mo-Su 10:00-22:00","brand":"Postbank","brand:wikidata":"Q7234083","operator:wikidata":"Q7234083"},"coordinates":[42.657666,23.315049]},"tags_mismatch":false,"dist":0},{"osm":false,"atp":{"id":"7gYtsOUGt5IrUY1zX9toMVFFr8Q=","tags":{"amenity":"atm","cash_in":"yes","addr:full":"Бул. Околовръстен път №260, сграда A","addr:country":"BG","name":"София Пощенска банка ЦУ","opening_hours":"24/7","brand":"Postbank","brand:wikidata":"Q7234083","operator:wikidata":"Q7234083"},"coordinates":[42.622392,23.380937]},"tags_mismatch":false,"dist":0},{"osm":false,"atp":{"id":"xAPndJLq39lAQms7dvHJ9UsPMLY=","tags":{"amenity":"atm","cash_in":"yes","addr:full":"ул. Околовръстен път 214","addr:country":"BG","name":"София Ринг Мол","opening_hours":"Mo-Su 10:00-22:00","brand":"Postbank","brand:wikidata":"Q7234083","operator:wikidata":"Q7234083"},"coordinates":[42.62486852785199,23.352566217542165]},"tags_mismatch":false,"dist":0},{"osm":false,"atp":{"id":"NECaSSxsdzIIXnls5tMDzfTsfdo=","tags":{"amenity":"atm","cash_in":"yes","addr:full":"бул. „Ситняково“ 48","addr:country":"BG","name":"София Сердика Център","opening_hours":"Mo-Su 10:00-22:00","brand":"Postbank","brand:wikidata":"Q7234083","operator:wikidata":"Q7234083"},"coordinates":[42.69199348039295,23.353552555920004]},"tags_mismatch":false,"dist":0},{"osm":false,"atp":{"id":"6baWJPsg-UODakmbxUnsNdlx8RQ=","tags":{"amenity":"atm","cash_in":"yes","addr:full":"ул. Генерал Скобелев №65","addr:country":"BG","name":"София Скобелев","opening_hours":"24/7","brand":"Postbank","brand:wikidata":"Q7234083","operator:wikidata":"Q7234083"},"coordinates":[42.69093012895773,23.31175696776361]},"tags_mismatch":false,"dist":0},{"osm":false,"atp":{"id":"SvUk5_0r23AkoiLTifsJCEz6cA8=","tags":{"amenity":"atm","cash_in":"yes","addr:full":"Ул. Гео Милев №128","addr:country":"BG","name":"София Слатина","opening_hours":"24/7","brand":"Postbank","brand:wikidata":"Q7234083","operator:wikidata":"Q7234083"},"coordinates":[42.680163820202715,23.37242223245293]},"tags_mismatch":false,"dist":0},{"osm":false,"atp":{"id":"s2KWMJ6YYNQV8mVPXhSXgrazt8I=","tags":{"amenity":"atm","cash_in":"yes","addr:full":"Бул. Сливница №127, Търговски Комплекс Западен Парк","addr:country":"BG","name":"София Сливница","opening_hours":"24/7","brand":"Postbank","brand:wikidata":"Q7234083","operator:wikidata":"Q7234083"},"coordinates":[42.709513,23.293827]},"tags_mismatch":false,"dist":0},{"osm":false,"atp":{"id":"CSt02lPtV16JHF8AlZ4L2Y9xGoU=","tags":{"amenity":"atm","cash_in":"yes","addr:full":"бул. Академик Стефанов №20","addr:country":"BG","name":"София Студентски град","brand":"Postbank","brand:wikidata":"Q7234083","operator:wikidata":"Q7234083"},"coordinates":[42.64833738392263,23.341544282004737]},"tags_mismatch":false,"dist":0},{"osm":false,"atp":{"id":"LXs3rZ0RvIHHdAw9R_n5J1rdwgo=","tags":{"amenity":"atm","cash_in":"yes","addr:full":"Ул. Ал. Екзарх, №34 бл. 224, вх. А","addr:country":"BG","name":"София Суха река","opening_hours":"24/7","brand":"Postbank","brand:wikidata":"Q7234083","operator:wikidata":"Q7234083"},"coordinates":[42.700116,23.359916]},"tags_mismatch":false,"dist":0},{"osm":false,"atp":{"id":"9t8Sv8GnC8s-aMCYnAPuWDSJtIM=","tags":{"amenity":"atm","cash_in":"yes","addr:full":"Ул. Ал. Екзарх 34, бл. 224, вх. А","addr:country":"BG","name":"София Суха река II","opening_hours":"Mo-Fr 00:00-17:00","brand":"Postbank","brand:wikidata":"Q7234083","operator:wikidata":"Q7234083"},"coordinates":[42.700116,23.359916]},"tags_mismatch":false,"dist":0},{"osm":false,"atp":{"id":"2s8EqQ24Z8xOAeiXYE7TsW629EY=","tags":{"amenity":"atm","addr:full":"Бул. Витоша №3","addr:country":"BG","name":"София Съдебна палата II","opening_hours":"24/7","brand":"Postbank","brand:wikidata":"Q7234083","operator:wikidata":"Q7234083"},"coordinates":[42.695301935297024,23.321302069412944]},"tags_mismatch":false,"dist":0},{"osm":false,"atp":{"id":"-PZmEvqAmF2LT8X0C4ejpO42mDg=","tags":{"amenity":"atm","cash_in":"yes","addr:full":"Хиподрума, блок 24","addr:country":"BG","name":"София Хиподрума","opening_hours":"24/7","brand":"Postbank","brand:wikidata":"Q7234083","operator:wikidata":"Q7234083"},"coordinates":[42.6846387,23.2968368]},"tags_mismatch":false,"dist":0},{"osm":false,"atp":{"id":"z86ZLiAK9nwtIFe9L6wuw6GYyl8=","tags":{"amenity":"atm","addr:full":"Бул. Черни връх №43","addr:country":"BG","name":"София Черни връх","opening_hours":"24/7","brand":"Postbank","brand:wikidata":"Q7234083","operator:wikidata":"Q7234083"},"coordinates":[42.66597663982624,23.31827943462983]},"tags_mismatch":false,"dist":0},{"osm":false,"atp":{"id":"09mENhc_4JV22CH8JuZd5fkCfJM=","tags":{"amenity":"atm","addr:full":"Ул. Шишман №30","addr:country":"BG","name":"София Шишман II","opening_hours":"24/7","brand":"Postbank","brand:wikidata":"Q7234083","operator:wikidata":"Q7234083"},"coordinates":[42.6901218,23.3283892]},"tags_mismatch":false,"dist":0},{"osm":false,"atp":{"id":"rJVpxuXCGAHJa3zopj_xswag9sQ=","tags":{"amenity":"atm","addr:full":"Бул. Цариградско шосе №86","addr:country":"BG","name":"Спейс Тауър София","opening_hours":"24/7","brand":"Postbank","brand:wikidata":"Q7234083","operator:wikidata":"Q7234083"},"coordinates":[42.657549253268044,23.38649532708356]},"tags_mismatch":false,"dist":0},{"osm":false,"atp":{"id":"BcnIPyvZWY893aj3nSYKwk3EnCw=","tags":{"amenity":"atm","addr:full":"ул. Миле Попйорданов №51","addr:country":"BG","name":"Супермаркет Карпузица","opening_hours":"24/7","brand":"Postbank","brand:wikidata":"Q7234083","operator:wikidata":"Q7234083"},"coordinates":[42.669143,23.245338]},"tags_mismatch":false,"dist":0},{"osm":false,"atp":{"id":"NC2Yu2w4Y2vQp1q7V8lJ69LT4IM=","tags":{"amenity":"atm","addr:full":"Ж.к. Горна Баня, ул. Планиница №17","addr:country":"BG","name":"Супермаркет Оги ","opening_hours":"24/7","brand":"Postbank","brand:wikidata":"Q7234083","operator:wikidata":"Q7234083"},"coordinates":[42.6779212,23.2392156]},"tags_mismatch":false,"dist":0},{"osm":false,"atp":{"id":"0otGFzEVgM3VX_IlSqlwVl9BBQY=","tags":{"amenity":"atm","addr:full":"Ул. Аксаков №21","addr:country":"BG","name":"ТДД София","opening_hours":"24/7","brand":"Postbank","brand:wikidata":"Q7234083","operator:wikidata":"Q7234083"},"coordinates":[42.6928428,23.3329734]},"tags_mismatch":false,"dist":0},{"osm":false,"atp":{"id":"nDE-eSyUJaqp7hcvlui0VqdhhgI=","tags":{"amenity":"atm","addr:full":"Ул.202 №6 ТЕЦ София","addr:country":"BG","name":"ТЕЦ София","opening_hours":"24/7","brand":"Postbank","brand:wikidata":"Q7234083","operator:wikidata":"Q7234083"},"coordinates":[42.718066,23.321311]},"tags_mismatch":false,"dist":0},{"osm":false,"atp":{"id":"VABSrBpD9zjPf3geQIdIVMUGPJM=","tags":{"amenity":"atm","addr:full":"Ул. „Йордан Йосифов“ №7, магазин 3","addr:country":"BG","name":"Торос Трейд ","opening_hours":"24/7","brand":"Postbank","brand:wikidata":"Q7234083","operator:wikidata":"Q7234083"},"coordinates":[42.653489,23.3451]},"tags_mismatch":false,"dist":0},{"osm":false,"atp":{"id":"Jg5g0D_lRokSJORRIb_5llE8pm4=","tags":{"amenity":"atm","addr:full":"Бул. Пенчо Славейков №52А","addr:country":"BG","name":"УМБАЛ Света Екатерина","opening_hours":"24/7","brand":"Postbank","brand:wikidata":"Q7234083","operator:wikidata":"Q7234083"},"coordinates":[42.684983,23.312464]},"tags_mismatch":false,"dist":0},{"osm":false,"atp":{"id":"Dm1_alEJijXNh98uOxidhZZbVn4=","tags":{"amenity":"atm","addr:full":"Бул. Георги Софийски №1","addr:country":"BG","name":"Факултет по Дентална медицина","opening_hours":"24/7","brand":"Postbank","brand:wikidata":"Q7234083","operator:wikidata":"Q7234083"},"coordinates":[42.6853054,23.3081521]},"tags_mismatch":false,"dist":0},{"osm":false,"atp":{"id":"otPT655J0tL0SN-0OMLHYurMkrg=","tags":{"amenity":"atm","addr:full":"Ул. Дунав №2","addr:country":"BG","name":"Фармацевтичен факултет","opening_hours":"24/7","brand":"Postbank","brand:wikidata":"Q7234083","operator:wikidata":"Q7234083"},"coordinates":[42.6979807,23.333452]},"tags_mismatch":false,"dist":0},{"osm":false,"atp":{"id":"DAoxLUsZz6WZsfIY01gpvpF2zk0=","tags":{"amenity":"atm","addr:full":"Ул. Солунска №22","addr:country":"BG","name":"Финансов Супермаркет","opening_hours":"24/7","brand":"Postbank","brand:wikidata":"Q7234083","operator:wikidata":"Q7234083"},"coordinates":[42.69649,23.32601]},"tags_mismatch":false,"dist":0},{"osm":false,"atp":{"id":"sapsbb7Amq1pVlehtheZv3zW8tY=","tags":{"amenity":"atm","addr:full":"Пл. Света Неделя №5","addr:country":"BG","name":"Хотел Балкан ","opening_hours":"24/7","brand":"Postbank","brand:wikidata":"Q7234083","operator:wikidata":"Q7234083"},"coordinates":[42.697016,23.322244]},"tags_mismatch":false,"dist":0},{"osm":false,"atp":{"id":"lFMl-fSdmwIpidDg7s8zu_z3Y00=","tags":{"amenity":"atm","addr:full":"Бул. Мария Луиза №20","addr:country":"BG","name":"Хотел Глория Палас","opening_hours":"24/7","brand":"Postbank","brand:wikidata":"Q7234083","operator:wikidata":"Q7234083"},"coordinates":[42.700776,23.3228]},"tags_mismatch":false,"dist":0},{"osm":false,"atp":{"id":"lK7ovnmzyxVQm-dKh8h2lQuOorQ=","tags":{"amenity":"atm","addr:full":"Пл. Народно събрание №4","addr:country":"BG","name":"Хотел ИнтерКонтинентал София 2","opening_hours":"24/7","brand":"Postbank","brand:wikidata":"Q7234083","operator:wikidata":"Q7234083"},"coordinates":[42.693382,23.332299]},"tags_mismatch":false,"dist":0},{"osm":false,"atp":{"id":"4W3wtF-_wFKwPEw9T-YcMPKA-kg=","tags":{"amenity":"atm","addr:full":"Бул. България №1","addr:country":"BG","name":"Хотел Хилтън София","opening_hours":"24/7","brand":"Postbank","brand:wikidata":"Q7234083","operator:wikidata":"Q7234083"},"coordinates":[42.681453,23.319732]},"tags_mismatch":false,"dist":0},{"osm":false,"atp":{"id":"JLthYhHvqE-me6LV_vLMqHnNt5Y=","tags":{"amenity":"atm","addr:full":"Бул. Мария Луиза №100","addr:country":"BG","name":"Централна Автогара София 3","opening_hours":"24/7","brand":"Postbank","brand:wikidata":"Q7234083","operator:wikidata":"Q7234083"},"coordinates":[42.710183,23.323228]},"tags_mismatch":false,"dist":0},{"osm":false,"atp":{"id":"v9lwQh5hHzb-sp79CHBZr3vtKQw=","tags":{"amenity":"atm","addr:full":"Бул. Мария Луиза №100","addr:country":"BG","name":"Централна автогара София 2","opening_hours":"24/7","brand":"Postbank","brand:wikidata":"Q7234083","operator:wikidata":"Q7234083"},"coordinates":[42.710033,23.3232452]},"tags_mismatch":false,"dist":0},{"osm":false,"atp":{"id":"v1jlGPnAPAwVa86K-CytA3cm5v4=","tags":{"amenity":"atm","addr:full":"Бул. Черни връх №43","addr:country":"BG","name":"Черни връх","opening_hours":"24/7","brand":"Postbank","brand:wikidata":"Q7234083","operator:wikidata":"Q7234083"},"coordinates":[42.665986,23.318237]},"tags_mismatch":false,"dist":0},{"osm":false,"atp":{"id":"JqWiZYwZDOhwFIi8amB7v2oUO6A=","tags":{"amenity":"atm","addr:full":"Бул. Черни връх №47","addr:country":"BG","name":"магазин ЛИДЛ","opening_hours":"Mo-Sa 07:00-22:00; Su 08:00-21:00","brand":"Postbank","brand:wikidata":"Q7234083","operator:wikidata":"Q7234083"},"coordinates":[42.662616,23.317784]},"tags_mismatch":false,"dist":0},{"osm":false,"atp":{"id":"nJo4tasT35xq-_OVbLywDSayq48=","tags":{"amenity":"atm","addr:full":"бул. В. Априлов 156Б","addr:country":"BG","name":"EKO Пловдив EMKO","opening_hours":"24/7","brand":"Postbank","brand:wikidata":"Q7234083","operator:wikidata":"Q7234083"},"coordinates":[42.16915674703488,24.722849389498016]},"tags_mismatch":false,"dist":0},{"osm":false,"atp":{"id":"I8x4W96U5c7iiSEotl8qeE249Q4=","tags":{"amenity":"atm","addr:full":"36 Knyaz Aleksandar I Str","addr:country":"BG","name":"Grand Perfumery ","opening_hours":"24/7","brand":"Postbank","brand:wikidata":"Q7234083","operator:wikidata":"Q7234083"},"coordinates":[42.145279682613634,24.749064769087443]},"tags_mismatch":false,"dist":0},{"osm":false,"atp":{"id":"8nbxrEc0p3KK5k6wzWhCV8RkHDs=","tags":{"amenity":"atm","cash_in":"yes","addr:full":"ул. „Перущица“ 8","addr:country":"BG","name":"Moменнто Мол Пловдив","opening_hours":"Mo-Su 10:00-21:00","brand":"Postbank","brand:wikidata":"Q7234083","operator:wikidata":"Q7234083"},"coordinates":[42.1418566426397,24.71923679823663]},"tags_mismatch":false,"dist":0},{"osm":false,"atp":{"id":"uoW2KcU6ft4YLV0OTd6tX8EANjE=","tags":{"amenity":"atm","addr:full":"ул. Васил Априлов 86","addr:country":"BG","name":"Non Stop Васил Априлов","opening_hours":"24/7","brand":"Postbank","brand:wikidata":"Q7234083","operator:wikidata":"Q7234083"},"coordinates":[42.14586988180095,24.731442840565265]},"tags_mismatch":false,"dist":0},{"osm":false,"atp":{"id":"FN_axwnAk7AROlKazQV50PyAOsE=","tags":{"amenity":"atm","addr:full":"ул. “Димитър Талев“ 64","addr:country":"BG","name":"АРТ ФАРМА 1 ","opening_hours":"24/7","brand":"Postbank","brand:wikidata":"Q7234083","operator:wikidata":"Q7234083"},"coordinates":[42.12444923886875,24.73857528260314]},"tags_mismatch":false,"dist":0},{"osm":false,"atp":{"id":"peDb-gtrP-yZpperr8VG5LidL_k=","tags":{"amenity":"atm","addr:full":"Бул. Шести септември №110","addr:country":"BG","name":"ДКЦ 2 Пловдив","opening_hours":"24/7","brand":"Postbank","brand:wikidata":"Q7234083","operator:wikidata":"Q7234083"},"coordinates":[42.1476,24.732719]},"tags_mismatch":false,"dist":0},{"osm":false,"atp":{"id":"mcLg-UD_Hk6IHVuyS9gHdjJiiGE=","tags":{"amenity":"atm","addr:full":"Околовръстно шосе, срещу Метро 2","addr:country":"BG","name":"Джъмбо Пловдив","opening_hours":"Mo-Sa 10:00-21:00; Su 10:00-20:00","brand":"Postbank","brand:wikidata":"Q7234083","operator:wikidata":"Q7234083"},"coordinates":[42.744932,23.229907]},"tags_mismatch":false,"dist":0},{"osm":false,"atp":{"id":"H5c4RkF5iAX_tISvgTnq6PyQoqc=","tags":{"amenity":"atm","addr:full":"бул. Сергей Румянцев №8","addr:country":"BG","name":"ЕКО Пловдив","opening_hours":"24/7","brand":"Postbank","brand:wikidata":"Q7234083","operator:wikidata":"Q7234083"},"coordinates":[42.132848,24.731796]},"tags_mismatch":false,"dist":0},{"osm":false,"atp":{"id":"ia30frZkxijjohZGUBh55gv4_Wc=","tags":{"amenity":"atm","addr:full":"Бул. Кукленско шосе (посока Пловдив-Куклен)","addr:country":"BG","name":"ЕКО Пловдив Кукленско шосе ","opening_hours":"24/7","brand":"Postbank","brand:wikidata":"Q7234083","operator:wikidata":"Q7234083"},"coordinates":[42.112385,24.759356]},"tags_mismatch":false,"dist":0},{"osm":false,"atp":{"id":"lPmVBzMkplQ9DeOcyBrmffOlf7A=","tags":{"amenity":"atm","addr:full":"бул. Пещерско шосе 156","addr:country":"BG","name":"ЕКО Пловдив Пещерско шосе","opening_hours":"24/7","brand":"Postbank","brand:wikidata":"Q7234083","operator:wikidata":"Q7234083"},"coordinates":[42.13175678,24.69605093]},"tags_mismatch":false,"dist":0},{"osm":false,"atp":{"id":"YnQBRHx-11pLZ_YIy1d58r86qxA=","tags":{"amenity":"atm","addr:full":"Бул. Ал. Стамболийски и ул. Д. Талев","addr:country":"BG","name":"ЕКО Пловдив Стамболийски","opening_hours":"24/7","brand":"Postbank","brand:wikidata":"Q7234083","operator:wikidata":"Q7234083"},"coordinates":[42.119454,24.735785]},"tags_mismatch":false,"dist":0},{"osm":false,"atp":{"id":"8A1F5rIMfENiIksnW8l9Ii_UsyU=","tags":{"amenity":"atm","addr:full":"Кръстовището на бул. Мария Луиза и бул. Източен","addr:country":"BG","name":"ИнсаОйл Арена","opening_hours":"24/7","brand":"Postbank","brand:wikidata":"Q7234083","operator:wikidata":"Q7234083"},"coordinates":[42.146864,24.763174]},"tags_mismatch":false,"dist":0},{"osm":false,"atp":{"id":"GPw_t0BZfNbfQlJLdJIclqqqsAQ=","tags":{"amenity":"atm","addr:full":"Бул. Освобождение №63","addr:country":"BG","name":"Кметство Тракия","opening_hours":"24/7","brand":"Postbank","brand:wikidata":"Q7234083","operator:wikidata":"Q7234083"},"coordinates":[42.1442831,24.7852024]},"tags_mismatch":false,"dist":0},{"osm":false,"atp":{"id":"mFXtZzPDHWWFvztNOdBetIR9HXU=","tags":{"amenity":"atm","addr:full":"Ул. Никола Мушанов №1","addr:country":"BG","name":"Областна управа Пловдив","opening_hours":"24/7","brand":"Postbank","brand:wikidata":"Q7234083","operator:wikidata":"Q7234083"},"coordinates":[42.14808,24.72953]},"tags_mismatch":false,"dist":0},{"osm":false,"atp":{"id":"HrfeWSTtyzvepRuT1VhNEfkWGrE=","tags":{"amenity":"atm","cash_in":"yes","addr:full":"Ул. Антим I №2B","addr:country":"BG","name":"Пловдив II","brand":"Postbank","brand:wikidata":"Q7234083","operator:wikidata":"Q7234083"},"coordinates":[42.147863,24.7460942]},"tags_mismatch":false,"dist":0},{"osm":false,"atp":{"id":"KBkYHDI0jVJPN83uypw8gaAgEzA=","tags":{"amenity":"atm","cash_in":"yes","addr:full":"ул. Д-р Георги Странски №3, Пловдив Плаза МОЛ, партер","addr:country":"BG","name":"Пловдив Plaza Mall","opening_hours":"Mo-Su 10:00-21:00","brand":"Postbank","brand:wikidata":"Q7234083","operator:wikidata":"Q7234083"},"coordinates":[42.14474159,24.78201724]},"tags_mismatch":false,"dist":0},{"osm":false,"atp":{"id":"L8QEzMyrG3nZLvoAWp7kHDYNA9E=","tags":{"amenity":"atm","addr:full":"Ул. Кукленско шосе №13","addr:country":"BG","name":"Пловдив Колеж по икономика и администрация","opening_hours":"24/7","brand":"Postbank","brand:wikidata":"Q7234083","operator:wikidata":"Q7234083"},"coordinates":[42.1215254253726,24.75899999821624]},"tags_mismatch":false,"dist":0},{"osm":false,"atp":{"id":"TVX7xGYnS3trlB5y4yHpq1ihiYI=","tags":{"amenity":"atm","addr:full":"Ул. Брезовска №1","addr:country":"BG","name":"Пловдив Марица II","opening_hours":"24/7","brand":"Postbank","brand:wikidata":"Q7234083","operator:wikidata":"Q7234083"},"coordinates":[42.1564422,24.7443643]},"tags_mismatch":false,"dist":0},{"osm":false,"atp":{"id":"rTZlfXZ_3u25DuEhbn0vNWgReZ4=","tags":{"amenity":"atm","cash_in":"yes","addr:full":"Бул. Цар Борис III №20А","addr:country":"BG","name":"Пловдив Межд. панаир","opening_hours":"24/7","brand":"Postbank","brand:wikidata":"Q7234083","operator:wikidata":"Q7234083"},"coordinates":[42.160437,24.747981]},"tags_mismatch":false,"dist":0},{"osm":false,"atp":{"id":"9SSqmKUGlV2gb931FtlWDqBkL4Y=","tags":{"amenity":"atm","cash_in":"yes","addr:full":"92 Hristo Botev Str.","addr:country":"BG","name":"Пловдив Рилон Център","opening_hours":"24/7","brand":"Postbank","brand:wikidata":"Q7234083","operator:wikidata":"Q7234083"},"coordinates":[42.13606911,24.75424924]},"tags_mismatch":false,"dist":0},{"osm":false,"atp":{"id":"T2ZeeOG4eqMS1LU5pPXPcHOoi_s=","tags":{"amenity":"atm","addr:full":"Ул. Свобода №7","addr:country":"BG","name":"Пловдив Свобода","opening_hours":"24/7","brand":"Postbank","brand:wikidata":"Q7234083","operator:wikidata":"Q7234083"},"coordinates":[42.143086,24.731073]},"tags_mismatch":false,"dist":0},{"osm":false,"atp":{"id":"NFCkGY4MGF3lz2_-fbbO8hB-iZQ=","tags":{"amenity":"atm","cash_in":"yes","addr:full":"Тракия, Комплекс Фрапе, до блок 100","addr:country":"BG","name":"Пловдив Тракия","opening_hours":"24/7","brand":"Postbank","brand:wikidata":"Q7234083","operator:wikidata":"Q7234083"},"coordinates":[42.131840032379266,24.794579139697]},"tags_mismatch":false,"dist":0},{"osm":false,"atp":{"id":"WSScskFGv94lHYXgOrur0OHVkRw=","tags":{"amenity":"atm","cash_in":"yes","addr:full":"Бул. Александър Стамболийски №33","addr:country":"BG","name":"Пловдив Христо Ботев","opening_hours":"24/7","brand":"Postbank","brand:wikidata":"Q7234083","operator:wikidata":"Q7234083"},"coordinates":[42.120025,24.732781]},"tags_mismatch":false,"dist":0},{"osm":false,"atp":{"id":"E9V85LTqY0s04WkocEFRFsYqP0Q=","tags":{"amenity":"atm","addr:full":"Ул. Христо Г. Данов №4","addr:country":"BG","name":"Пловдив Център","opening_hours":"24/7","brand":"Postbank","brand:wikidata":"Q7234083","operator:wikidata":"Q7234083"},"coordinates":[42.1480968,24.7475007]},"tags_mismatch":false,"dist":0},{"osm":false,"atp":{"id":"mEUP9DawhB9Zy0qWKrX4P5G9qK4=","tags":{"amenity":"atm","addr:full":"Бул. Освобождение №36","addr:country":"BG","name":"Текрида","opening_hours":"24/7","brand":"Postbank","brand:wikidata":"Q7234083","operator:wikidata":"Q7234083"},"coordinates":[42.13688,24.791178]},"tags_mismatch":false,"dist":0},{"osm":false,"atp":{"id":"aVuj0xhiNjB8-GLU6n45QLbTCYQ=","tags":{"amenity":"atm","cash_in":"yes","addr:full":"бул. „Сливница“ 185","addr:country":"BG","name":" Делта Планет Мол Варна","opening_hours":"Mo-Su 10:00-21:00","brand":"Postbank","brand:wikidata":"Q7234083","operator:wikidata":"Q7234083"},"coordinates":[43.2269910368983,27.875800027096265]},"tags_mismatch":false,"dist":0},{"osm":false,"atp":{"id":"AQ6Big8HXzaalGK8XioTaj3AT4M=","tags":{"amenity":"atm","addr:full":"Кв. Виница, ул. Цар Борис III №1А","addr:country":"BG","name":"My Market Виница","opening_hours":"24/7","brand":"Postbank","brand:wikidata":"Q7234083","operator:wikidata":"Q7234083"},"coordinates":[43.2407159,27.9757549]},"tags_mismatch":false,"dist":0},{"osm":false,"atp":{"id":"-eXEV2HBX9nyPgHcVm94I7l429g=","tags":{"amenity":"atm","addr:full":"бул. „Владислав Варненчик“ 158","addr:country":"BG","name":"Автогара Варна  ","opening_hours":"24/7","brand":"Postbank","brand:wikidata":"Q7234083","operator:wikidata":"Q7234083"},"coordinates":[43.21601560899119,27.896660625486593]},"tags_mismatch":false,"dist":0},{"osm":false,"atp":{"id":"MDUi6xy10toIF0yT62TLSGO6z6c=","tags":{"amenity":"atm","cash_in":"yes","addr:full":"Ул. Осми Приморски Полк 100","addr:country":"BG","name":"Варна - Чаталджа II","opening_hours":"24/7","brand":"Postbank","brand:wikidata":"Q7234083","operator:wikidata":"Q7234083"},"coordinates":[43.211727,27.9231378]},"tags_mismatch":false,"dist":0},{"osm":false,"atp":{"id":"vMZdR1wqJjS6ipWC3MV6CrdOcC4=","tags":{"amenity":"atm","cash_in":"yes","addr:full":"Бул. Цар Освободител №162","addr:country":"BG","name":"Варна Възраждане ","opening_hours":"24/7","brand":"Postbank","brand:wikidata":"Q7234083","operator:wikidata":"Q7234083"},"coordinates":[43.23443952730556,27.873247184748035]},"tags_mismatch":false,"dist":0},{"osm":false,"atp":{"id":"J0ggQQxcfr_tJldJRhGn7ygZwzo=","tags":{"amenity":"atm","cash_in":"yes","addr:full":"Ул. Пирин №41","addr:country":"BG","name":"Варна Пирин","opening_hours":"24/7","brand":"Postbank","brand:wikidata":"Q7234083","operator:wikidata":"Q7234083"},"coordinates":[43.21234,27.912379]},"tags_mismatch":false,"dist":0},{"osm":false,"atp":{"id":"Ah3Bg_ET7kNNPqNthi11FuVp_no=","tags":{"amenity":"atm","cash_in":"yes","addr:full":"Бул. Владислав Варненчик №20-22","addr:country":"BG","name":"Варна Рощок","opening_hours":"24/7","brand":"Postbank","brand:wikidata":"Q7234083","operator:wikidata":"Q7234083"},"coordinates":[43.2073143,27.9103462]},"tags_mismatch":false,"dist":0},{"osm":false,"atp":{"id":"FvVVgXbWlHndL1rsD_GFmJxgU1I=","tags":{"amenity":"atm","addr:full":"ул. „КНЯЗ БОРИС I“ №53","addr:country":"BG","name":"Варна Черно море ","opening_hours":"24/7","brand":"Postbank","brand:wikidata":"Q7234083","operator:wikidata":"Q7234083"},"coordinates":[43.2096151371911,27.929237140588768]},"tags_mismatch":false,"dist":0},{"osm":false,"atp":{"id":"54RbNjIlbiT1JhLQ9Yob3dkze-o=","tags":{"amenity":"atm","cash_in":"yes","addr:full":"ул. „КНЯЗ БОРИС I“ №53","addr:country":"BG","name":"Варна Черно море II","opening_hours":"24/7","brand":"Postbank","brand:wikidata":"Q7234083","operator:wikidata":"Q7234083"},"coordinates":[43.20967769517606,27.929269327095774]},"tags_mismatch":false,"dist":0},{"osm":false,"atp":{"id":"618DdROfh7cKRdRSzmof80c155U=","tags":{"amenity":"atm","cash_in":"yes","addr:full":"Ул. „Андрей Сахаров” №2","addr:country":"BG","name":"Гранд Мол","opening_hours":"Mo-Su 10:00-22:00","brand":"Postbank","brand:wikidata":"Q7234083","operator:wikidata":"Q7234083"},"coordinates":[43.21730431178798,27.897025140569287]},"tags_mismatch":false,"dist":0},{"osm":false,"atp":{"id":"kE8tAhOtZTKmETFLsfc_NFe-gJ8=","tags":{"amenity":"atm","addr:full":"Ж.к. Владислав Варненчик, бул. Константин и Фружин №18","addr:country":"BG","name":"Джъмбо Варна ","opening_hours":"Mo-Sa 10:00-21:00; Su 10:00-20:00","brand":"Postbank","brand:wikidata":"Q7234083","operator:wikidata":"Q7234083"},"coordinates":[43.245518,27.848278]},"tags_mismatch":false,"dist":0},{"osm":false,"atp":{"id":"9pMharDa3xT5rgTYozNQt0OhLd0=","tags":{"amenity":"atm","addr:full":"бул. Вл. Варненчик 310","addr:country":"BG","name":"ЕКО Варна Варненчик ","opening_hours":"24/7","brand":"Postbank","brand:wikidata":"Q7234083","operator:wikidata":"Q7234083"},"coordinates":[43.21413537,27.89808694]},"tags_mismatch":false,"dist":0},{"osm":false,"atp":{"id":"OQO-XFV7qv2uhblGVdvhZN2BPm8=","tags":{"amenity":"atm","addr:full":"бул. Сливница 189","addr:country":"BG","name":"ЕКО Варна Сливница","opening_hours":"24/7","brand":"Postbank","brand:wikidata":"Q7234083","operator:wikidata":"Q7234083"},"coordinates":[43.22086361,27.89746996]},"tags_mismatch":false,"dist":0},{"osm":false,"atp":{"id":"bXxHUKQRRKeHHrpgug02YfFupL0=","tags":{"amenity":"atm","addr:full":"ул. „Първа“ 87","addr:country":"BG","name":"ЕКО Евксиноград","opening_hours":"24/7","brand":"Postbank","brand:wikidata":"Q7234083","operator:wikidata":"Q7234083"},"coordinates":[43.2245303888966,27.994000797519213]},"tags_mismatch":false,"dist":0},{"osm":false,"atp":{"id":"htnEXN__fOOi_yM2krrxZi7dMX0=","tags":{"amenity":"atm","addr:full":"Бул. Владислав Варненчик №275","addr:country":"BG","name":"Елдоминвест","opening_hours":"24/7","brand":"Postbank","brand:wikidata":"Q7234083","operator:wikidata":"Q7234083"},"coordinates":[43.221999,27.876067]},"tags_mismatch":false,"dist":0},{"osm":false,"atp":{"id":"BPBy6pixC-pet10e0IolCg5UkP0=","tags":{"amenity":"atm","addr:full":"Ул. Девня №2","addr:country":"BG","name":"Енерго Про Варна","opening_hours":"24/7","brand":"Postbank","brand:wikidata":"Q7234083","operator:wikidata":"Q7234083"},"coordinates":[43.201264560409555,27.903876623416433]},"tags_mismatch":false,"dist":0},{"osm":false,"atp":{"id":"oJugWoPz-EuSeityXhWkxDLj28M=","tags":{"amenity":"atm","addr:full":"бул. Владислав Варненчик №258","addr:country":"BG","name":"Енерго про Тауърс","opening_hours":"24/7","brand":"Postbank","brand:wikidata":"Q7234083","operator:wikidata":"Q7234083"},"coordinates":[43.222150660403365,27.875913542418978]},"tags_mismatch":false,"dist":0},{"osm":false,"atp":{"id":"61Km22AYx6JifN4EMfuFybZCpZo=","tags":{"amenity":"atm","addr:full":"Бул. Сливница №33","addr:country":"BG","name":"Казино Ларис Вега","opening_hours":"24/7","brand":"Postbank","brand:wikidata":"Q7234083","operator:wikidata":"Q7234083"},"coordinates":[43.21665,27.91181]},"tags_mismatch":false,"dist":0},{"osm":false,"atp":{"id":"ruWNxw3SaAO9a4E3o_sDaHDcPkg=","tags":{"amenity":"atm","addr:full":"Бул. Цар Освободител №150","addr:country":"BG","name":"СБАГАЛ Проф. Димитър Стаматов","opening_hours":"24/7","brand":"Postbank","brand:wikidata":"Q7234083","operator:wikidata":"Q7234083"},"coordinates":[42.796528,27.253118]},"tags_mismatch":false,"dist":0},{"osm":false,"atp":{"id":"gfoVdrk-KFYCIDD8RVlMaveVVIk=","tags":{"amenity":"atm","addr:full":"Ул. Дубровник, бл.18","addr:country":"BG","name":"Студентско общежитие ТУ","opening_hours":"24/7","brand":"Postbank","brand:wikidata":"Q7234083","operator:wikidata":"Q7234083"},"coordinates":[43.2247444,27.9245086]},"tags_mismatch":false,"dist":0},{"osm":false,"atp":{"id":"2CfWtVbiRVx0pggxoSjm_ks-74Q=","tags":{"amenity":"atm","addr:full":"бул. Княз Борис I 111","addr:country":"BG","name":"Суйс- Белхотел Варна","brand":"Postbank","brand:wikidata":"Q7234083","operator:wikidata":"Q7234083"},"coordinates":[43.209908,27.9287]},"tags_mismatch":false,"dist":0},{"osm":false,"atp":{"id":"5tNH-YK7VMWnBKoO7iuRJtBZeJQ=","tags":{"amenity":"atm","addr:full":"Ж.к. Владислав Варненчик","addr:country":"BG","name":"Супермаркет Бурлекс","opening_hours":"24/7","brand":"Postbank","brand:wikidata":"Q7234083","operator:wikidata":"Q7234083"},"coordinates":[43.21665,27.91181]},"tags_mismatch":false,"dist":0},{"osm":false,"atp":{"id":"N7mo2L1qnvk36xF9a8fyq-0ghHI=","tags":{"amenity":"atm","addr:full":"кв. Мина Черно море, ул. Дунав 41","addr:country":"BG","name":"Бензиностанция Мина Черно Море","opening_hours":"24/7","brand":"Postbank","brand:wikidata":"Q7234083","operator:wikidata":"Q7234083"},"coordinates":[42.612098904802565,27.493019846355313]},"tags_mismatch":false,"dist":0},{"osm":false,"atp":{"id":"zBaSetSeTAlWVauBBlaQMrQDFT4=","tags":{"amenity":"atm","cash_in":"yes","addr:full":"Бул. Демокрация №104","addr:country":"BG","name":"Бургас Демокрация","opening_hours":"24/7","brand":"Postbank","brand:wikidata":"Q7234083","operator:wikidata":"Q7234083"},"coordinates":[42.5029446,27.4750002]},"tags_mismatch":false,"dist":0},{"osm":false,"atp":{"id":"woLth4TBY-Bv-AbCGcPaLcZHk1M=","tags":{"amenity":"atm","addr:full":"Комплекс Изгрев, блок 53, Вход 12","addr:country":"BG","name":"Бургас Изгрев","opening_hours":"24/7","brand":"Postbank","brand:wikidata":"Q7234083","operator:wikidata":"Q7234083"},"coordinates":[42.5187124,27.4610266]},"tags_mismatch":false,"dist":0},{"osm":false,"atp":{"id":"JQSLbYzElKBbzZpiLfDR77OF8ZE=","tags":{"amenity":"atm","addr:full":"Ул. Св. Св. Кирил и Методий №10","addr:country":"BG","name":"Бургас Кирил и Методий","opening_hours":"24/7","brand":"Postbank","brand:wikidata":"Q7234083","operator:wikidata":"Q7234083"},"coordinates":[42.49597,27.474023]},"tags_mismatch":false,"dist":0},{"osm":false,"atp":{"id":"4d-OzKAOQKyZD8-ug3dmjwkd0yM=","tags":{"amenity":"atm","cash_in":"yes","addr:full":"Ж.к. Меден Рудник, бл.452","addr:country":"BG","name":"Бургас Меден Рудник","opening_hours":"24/7","brand":"Postbank","brand:wikidata":"Q7234083","operator:wikidata":"Q7234083"},"coordinates":[42.455434,27.418731]},"tags_mismatch":false,"dist":0},{"osm":false,"atp":{"id":"zMIcbR5AJuAYmcb_u8nehCKZvts=","tags":{"amenity":"atm","cash_in":"yes","addr:full":"Ул. Транспортна №9","addr:country":"BG","name":"Бургас Плаза","brand":"Postbank","brand:wikidata":"Q7234083","operator:wikidata":"Q7234083"},"coordinates":[42.530677,27.458011]},"tags_mismatch":false,"dist":0},{"osm":false,"atp":{"id":"qnDffJvQ0dnt4uQCH4WUDWAjmw4=","tags":{"amenity":"atm","cash_in":"yes","addr:full":"Ул. Александровска №135","addr:country":"BG","name":"Бургас – Александровска","opening_hours":"24/7","brand":"Postbank","brand:wikidata":"Q7234083","operator:wikidata":"Q7234083"},"coordinates":[42.5012319,27.469463]},"tags_mismatch":false,"dist":0},{"osm":false,"atp":{"id":"2jUylWtCI2vDU5j5d3Rdt3pdQ-o=","tags":{"amenity":"atm","addr:full":"Пристанищен комплекс гр. Бургас","addr:country":"BG","name":"ДАС Марина","opening_hours":"24/7","brand":"Postbank","brand:wikidata":"Q7234083","operator:wikidata":"Q7234083"},"coordinates":[42.489149,27.479569]},"tags_mismatch":false,"dist":0},{"osm":false,"atp":{"id":"v9H3Xd3aVfcW-N7kwvUrrNSY4w0=","tags":{"amenity":"atm","addr:full":"Пътен възел Нефтохим Бургас","addr:country":"BG","name":"Джъмбо Бургас ","opening_hours":"Mo-Sa 10:00-21:00; Su 10:00-20:00","brand":"Postbank","brand:wikidata":"Q7234083","operator:wikidata":"Q7234083"},"coordinates":[42.572341,27.41014]},"tags_mismatch":false,"dist":0},{"osm":false,"atp":{"id":"lfV2bRS0uaSEhTmnhzhBcLXtDGE=","tags":{"amenity":"atm","addr:full":"Ж.к. Долно езерово, ул. Захари Зограф №80 А","addr:country":"BG","name":"Долно Езерово","opening_hours":"24/7","brand":"Postbank","brand:wikidata":"Q7234083","operator:wikidata":"Q7234083"},"coordinates":[42.5175661,27.3739409]},"tags_mismatch":false,"dist":0},{"osm":false,"atp":{"id":"idPsvHuyppZex96C8VJpuKqVTgU=","tags":{"amenity":"atm","addr:full":"Ж.к. Крайморие, ул. Христо Арнаудов №21","addr:country":"BG","name":"Колеж по Туризъм","opening_hours":"24/7","brand":"Postbank","brand:wikidata":"Q7234083","operator:wikidata":"Q7234083"},"coordinates":[42.4459026,27.4885544]},"tags_mismatch":false,"dist":0},{"osm":false,"atp":{"id":"JOMaAAxfvNaUTf8vFA0tt-BA0jU=","tags":{"amenity":"atm","addr:full":"кв. Лазур, ул. Велико Търново № 11","addr:country":"BG","name":"Магазин Флора Болеро","opening_hours":"24/7","brand":"Postbank","brand:wikidata":"Q7234083","operator:wikidata":"Q7234083"},"coordinates":[42.50348167510013,27.480382772272034]},"tags_mismatch":false,"dist":0},{"osm":false,"atp":{"id":"H2UiAAkSVAldNCSWdzsEoi6Qw-Q=","tags":{"amenity":"atm","cash_in":"yes","addr:full":"ул. „Янко Комитов” № 6","addr:country":"BG","name":"Мол Бургас Галерия ","opening_hours":"Mo-Su 09:00-21:00","brand":"Postbank","brand:wikidata":"Q7234083","operator:wikidata":"Q7234083"},"coordinates":[42.51284323717053,27.45520844954904]},"tags_mismatch":false,"dist":0},{"osm":false,"atp":{"id":"h4DzK3fv2xaoATJ5lsmGAkMz6PU=","tags":{"amenity":"atm","addr:full":"бул. „Захари Стоянов“ 1","addr:country":"BG","name":"Мосю Бриколаж Бургас","opening_hours":"24/7","brand":"Postbank","brand:wikidata":"Q7234083","operator:wikidata":"Q7234083"},"coordinates":[42.47192404908599,27.43203582632442]},"tags_mismatch":false,"dist":0},{"osm":false,"atp":{"id":"abd_ciH-vegmwPamCEw7_iaK5YM=","tags":{"amenity":"atm","addr:full":"ул Николаевска 50","addr:country":"BG","name":" Магазин Левент","opening_hours":"24/7","brand":"Postbank","brand:wikidata":"Q7234083","operator:wikidata":"Q7234083"},"coordinates":[43.838526993792065,25.94998199666096]},"tags_mismatch":false,"dist":0},{"osm":false,"atp":{"id":"lBeDVITNnLXRO0QFwBJ1VNRIQ7E=","tags":{"amenity":"atm","addr:full":"39 Kniyazhevska Str.","addr:country":"BG","name":"Ruse Baba Tonka","opening_hours":"24/7","brand":"Postbank","brand:wikidata":"Q7234083","operator:wikidata":"Q7234083"},"coordinates":[43.84931670265024,25.952384898274595]},"tags_mismatch":false,"dist":0},{"osm":false,"atp":{"id":"fwmT2HMdV0xhlypgFjdJWG3_0Mc=","tags":{"amenity":"atm","addr:full":"Местност Караач","addr:country":"BG","name":"Джъмбо Русе","opening_hours":"Mo-Sa 10:00-21:00; Su 10:00-20:00","brand":"Postbank","brand:wikidata":"Q7234083","operator:wikidata":"Q7234083"},"coordinates":[43.77946,25.998951]},"tags_mismatch":false,"dist":0},{"osm":false,"atp":{"id":"lsk_xK3usBRwxtd00Pha3r1aXb0=","tags":{"amenity":"atm","addr:full":"бул. Трети март №46","addr:country":"BG","name":"Приста Ойл","brand":"Postbank","brand:wikidata":"Q7234083","operator:wikidata":"Q7234083"},"coordinates":[43.8266241,25.9337695]},"tags_mismatch":false,"dist":0},{"osm":false,"atp":{"id":"WO49tt5rg6dHmzIO7r_Wq8p8Nls=","tags":{"amenity":"atm","cash_in":"yes","addr:full":"Ул. Александровска №1-3","addr:country":"BG","name":"Русе II","opening_hours":"24/7","brand":"Postbank","brand:wikidata":"Q7234083","operator:wikidata":"Q7234083"},"coordinates":[43.845064,25.948737]},"tags_mismatch":false,"dist":0},{"osm":false,"atp":{"id":"Yil2tVmTHK91k-6QGdlPed4knzk=","tags":{"amenity":"atm","cash_in":"yes","addr:full":"Ул. Александровска №86","addr:country":"BG","name":"Русе Александровска","opening_hours":"24/7","brand":"Postbank","brand:wikidata":"Q7234083","operator:wikidata":"Q7234083"},"coordinates":[43.8525953,25.9580374]},"tags_mismatch":false,"dist":0},{"osm":false,"atp":{"id":"AT1FPSlkuwuRjmnPLXrlURB9UhU=","tags":{"amenity":"atm","cash_in":"yes","addr:full":"Ул. Плиска №5","addr:country":"BG","name":"Русе Възраждане","opening_hours":"24/7","brand":"Postbank","brand:wikidata":"Q7234083","operator:wikidata":"Q7234083"},"coordinates":[43.855097,25.965942]},"tags_mismatch":false,"dist":0},{"osm":false,"atp":{"id":"1p0_SXMzNeJ-4bIaeTnzYwp8acQ=","tags":{"amenity":"atm","cash_in":"yes","addr:full":"Ул. Николаевска №52","addr:country":"BG","name":"Русе Николаевска","opening_hours":"24/7","brand":"Postbank","brand:wikidata":"Q7234083","operator:wikidata":"Q7234083"},"coordinates":[43.8391889,25.9495271]},"tags_mismatch":false,"dist":0},{"osm":false,"atp":{"id":"ormLX16tfz2xPg4C8VehOjvoaQU=","tags":{"amenity":"atm","addr:full":"Ул. Симеон Велики №2","addr:country":"BG","name":"Сладкарница Неделя ","opening_hours":"24/7","brand":"Postbank","brand:wikidata":"Q7234083","operator:wikidata":"Q7234083"},"coordinates":[43.847039,25.954059]},"tags_mismatch":false,"dist":0},{"osm":false,"atp":{"id":"5bcN8VabdOqr5NKNXH8fLmoHGhI=","tags":{"amenity":"atm","addr:full":"ул. Плиска №94","addr:country":"BG","name":"Тото Русе Плиска","brand":"Postbank","brand:wikidata":"Q7234083","operator:wikidata":"Q7234083"},"coordinates":[43.858267,25.973843]},"tags_mismatch":false,"dist":0},{"osm":false,"atp":{"id":"D9cL9EbnauNOuc8IBRmGIWzqtDU=","tags":{"amenity":"atm","addr:full":"Ул. Гео Милев №1","addr:country":"BG","name":"Училище","opening_hours":"Mo-Fr 08:00-16:00","brand":"Postbank","brand:wikidata":"Q7234083","operator:wikidata":"Q7234083"},"coordinates":[43.8310363,25.9669119]},"tags_mismatch":false,"dist":0},{"osm":false,"atp":{"id":"ulKrlEwgm6KNElzJ-jOg_rHic6M=","tags":{"amenity":"atm","cash_in":"yes","addr:full":"ул. Ал. Стамболийски №2","addr:country":"BG","name":"Айтос","opening_hours":"24/7","brand":"Postbank","brand:wikidata":"Q7234083","operator:wikidata":"Q7234083"},"coordinates":[42.70336009908854,27.25559296866158]},"tags_mismatch":false,"dist":0},{"osm":false,"atp":{"id":"1LUWzLRiSRC9nx-aTr83eUbYDqg=","tags":{"amenity":"atm","addr:full":"М. Могилата, УПИ I-22, Масив 177","addr:country":"BG","name":"ВМ Петролиум","opening_hours":"24/7","brand":"Postbank","brand:wikidata":"Q7234083","operator:wikidata":"Q7234083"},"coordinates":[42.71094,27.255383]},"tags_mismatch":false,"dist":0},{"osm":false,"atp":{"id":"VkI8OqmFZ0rDtzWC4ctcwmbWVPU=","tags":{"amenity":"atm","addr:full":"Административна сграда 235 resort BG","addr:country":"BG","name":"Resort BG","opening_hours":"24/7","brand":"Postbank","brand:wikidata":"Q7234083","operator:wikidata":"Q7234083"},"coordinates":[43.3663457700086,28.081826667823023]},"tags_mismatch":false,"dist":0},{"osm":false,"atp":{"id":"7zxqg5KyLiQu-avRPpZsJ1ZP8-0=","tags":{"amenity":"atm","cash_in":"yes","addr:full":"Ул. Републиканска №3","addr:country":"BG","name":"Ардино","opening_hours":"24/7","brand":"Postbank","brand:wikidata":"Q7234083","operator:wikidata":"Q7234083"},"coordinates":[41.583389,25.1336814]},"tags_mismatch":false,"dist":0},{"osm":false,"atp":{"id":"Ol-m7tMqa8cqVtf1IWzdPmGO-tg=","tags":{"amenity":"atm","cash_in":"yes","addr:full":"ул. Иларион Макариополски 10","addr:country":"BG","name":"Асеновград","opening_hours":"24/7","brand":"Postbank","brand:wikidata":"Q7234083","operator:wikidata":"Q7234083"},"coordinates":[42.00910763455067,24.876296383978154]},"tags_mismatch":false,"dist":0},{"osm":false,"atp":{"id":"n_gMrHW7A6NRu_05RC2hoRpnHVI=","tags":{"amenity":"atm","addr:full":"Балчик Палас","addr:country":"BG","name":"Балчик Палас","opening_hours":"24/7","brand":"Postbank","brand:wikidata":"Q7234083","operator:wikidata":"Q7234083"},"coordinates":[43.403168,28.145758]},"tags_mismatch":false,"dist":0},{"osm":false,"atp":{"id":"k9RzjMoHjcWKIKmMmVqTIs-S1OI=","tags":{"amenity":"atm","addr:full":"5 км след Балчик по път Е87","addr:country":"BG","name":"Лайтхаус Голф & Спа Ризорт","opening_hours":"24/7","brand":"Postbank","brand:wikidata":"Q7234083","operator:wikidata":"Q7234083"},"coordinates":[43.410353,28.204635]},"tags_mismatch":false,"dist":0},{"osm":false,"atp":{"id":"-tMtUi33ywdjTnmY-DUmhcoE5cw=","tags":{"amenity":"atm","addr:full":"Курортен комплекс Карвуна; Апартхотел Роял Бей","addr:country":"BG","name":"Роял Бей Каварна","brand":"Postbank","brand:wikidata":"Q7234083","operator:wikidata":"Q7234083"},"coordinates":[43.403796,28.244702]},"tags_mismatch":false,"dist":0},{"osm":false,"atp":{"id":"JFzrk1vRrFf3YiwKccJeQu5FCTg=","tags":{"amenity":"atm","addr:full":"ул. Никола Голев 3-7","addr:country":"BG","name":"EKO Банско","opening_hours":"24/7","brand":"Postbank","brand:wikidata":"Q7234083","operator:wikidata":"Q7234083"},"coordinates":[41.84430127124549,23.48559069664066]},"tags_mismatch":false,"dist":0},{"osm":false,"atp":{"id":"oRR1FhjhRDbkCFniGU8PEKPyu2k=","tags":{"amenity":"atm","addr:full":"Ул. Георги Настев №2","addr:country":"BG","name":"Хотел Перун Платинум казино","opening_hours":"24/7","brand":"Postbank","brand:wikidata":"Q7234083","operator:wikidata":"Q7234083"},"coordinates":[41.825959,23.482763]},"tags_mismatch":false,"dist":0},{"osm":false,"atp":{"id":"wu5j-JhUxKOt6GRkGlE4fV55nHs=","tags":{"amenity":"atm","addr:full":"Ул. Караманица №11","addr:country":"BG","name":"Хотел Премиер","opening_hours":"24/7","brand":"Postbank","brand:wikidata":"Q7234083","operator:wikidata":"Q7234083"},"coordinates":[41.83802,23.48903]},"tags_mismatch":false,"dist":0},{"osm":false,"atp":{"id":"anPV5gs9jnEwmbkN8pej5oFHB4c=","tags":{"amenity":"atm","addr:full":"ул. „Липите“ 26","addr:country":"BG","name":"СПА Хотел Царска Баня","opening_hours":"24/7","brand":"Postbank","brand:wikidata":"Q7234083","operator:wikidata":"Q7234083"},"coordinates":[42.540405741470245,24.838163225450423]},"tags_mismatch":false,"dist":0},{"osm":false,"atp":{"id":"CWXNsuOyBeYXdBU7jcKHC5RIE4A=","tags":{"amenity":"atm","addr:full":"Бул. Освобождение №45","addr:country":"BG","name":"Магазин Пейчеви ООД","opening_hours":"24/7","brand":"Postbank","brand:wikidata":"Q7234083","operator:wikidata":"Q7234083"},"coordinates":[42.21402,24.01737]},"tags_mismatch":false,"dist":0},{"osm":false,"atp":{"id":"J059h0FmumcCXA3anVrKioMhGfg=","tags":{"amenity":"atm","cash_in":"yes","addr:full":"ул. Мрамор 2 бл. Бор","addr:country":"BG","name":"Берковица SSZ","opening_hours":"24/7","brand":"Postbank","brand:wikidata":"Q7234083","operator:wikidata":"Q7234083"},"coordinates":[43.2385724235288,23.12458339826089]},"tags_mismatch":false,"dist":0},{"osm":false,"atp":{"id":"1aEhyLgHPITnmFEN-blQLfyMf4s=","tags":{"amenity":"atm","addr:full":"Ул. Никола Крушкин - Чолака №48","addr:country":"BG","name":"Казино","opening_hours":"24/7","brand":"Postbank","brand:wikidata":"Q7234083","operator:wikidata":"Q7234083"},"coordinates":[42.5834669,23.3591716]},"tags_mismatch":false,"dist":0},{"osm":false,"atp":{"id":"3r2Fz3tV-ncdpmseM2a_1MrQqiM=","tags":{"amenity":"atm","addr:full":"Ул. Славянска №79","addr:country":"BG","name":"БГ Маркет Славянска","opening_hours":"24/7","brand":"Postbank","brand:wikidata":"Q7234083","operator:wikidata":"Q7234083"},"coordinates":[42.021518,23.085483]},"tags_mismatch":false,"dist":0},{"osm":false,"atp":{"id":"8FE-582YslWYoa1g5ftZ6pHby5s=","tags":{"amenity":"atm","cash_in":"yes","addr:full":"Ул. Свети Иван Рилски №17","addr:country":"BG","name":"Благоевград - Св.Иван Рилски","opening_hours":"24/7","brand":"Postbank","brand:wikidata":"Q7234083","operator:wikidata":"Q7234083"},"coordinates":[42.024528471545295,23.10196038915373]},"tags_mismatch":false,"dist":0},{"osm":false,"atp":{"id":"DeNDJpkUPEl0g5_lUXeRCuor3S4=","tags":{"amenity":"atm","cash_in":"yes","addr:full":"Бул. Св. Св. Кирил и Методий №4","addr:country":"BG","name":"Благоевград Кирил и Методий","opening_hours":"24/7","brand":"Postbank","brand:wikidata":"Q7234083","operator:wikidata":"Q7234083"},"coordinates":[42.019855,23.093153]},"tags_mismatch":false,"dist":0},{"osm":false,"atp":{"id":"W8Nbf7UAFzSDH8eWwpzI4nTW15A=","tags":{"amenity":"atm","addr:full":"Бул. Св. Св. Кирил и Методий №27","addr:country":"BG","name":"Корпоративен център Благоевград","opening_hours":"24/7","brand":"Postbank","brand:wikidata":"Q7234083","operator:wikidata":"Q7234083"},"coordinates":[42.01473834080134,23.085904018389808]},"tags_mismatch":false,"dist":0},{"osm":false,"atp":{"id":"imp48D8kJ6xWcMH0LIv7dIXbH20=","tags":{"amenity":"atm","addr:full":"Ул. Иван Гарванов №26","addr:country":"BG","name":"М и К Геймс","opening_hours":"24/7","brand":"Postbank","brand:wikidata":"Q7234083","operator:wikidata":"Q7234083"},"coordinates":[42.014674,23.07871]},"tags_mismatch":false,"dist":0},{"osm":false,"atp":{"id":"iHJcrbtJIEzTebkktdVv8UOZgUc=","tags":{"amenity":"atm","addr:full":"Ж.к. Струмско, ул. Огражден №8","addr:country":"BG","name":"Офис - магазин","opening_hours":"24/7","brand":"Postbank","brand:wikidata":"Q7234083","operator:wikidata":"Q7234083"},"coordinates":[41.9933448,23.0876661]},"tags_mismatch":false,"dist":0},{"osm":false,"atp":{"id":"xFO3Rga506u3pomkbgHgbj2iZ0k=","tags":{"amenity":"atm","addr:full":"Ул. Скаптопара №54","addr:country":"BG","name":"Студентски център Скаптопара","opening_hours":"24/7","brand":"Postbank","brand:wikidata":"Q7234083","operator:wikidata":"Q7234083"},"coordinates":[42.0171646,23.0869601]},"tags_mismatch":false,"dist":0},{"osm":false,"atp":{"id":"PIk32x9wVMEk4TzNTY7OuDmEd2Q=","tags":{"amenity":"atm","addr:full":"ул. Яне Сандански №1","addr:country":"BG","name":"Супермаркет Стоми","opening_hours":"24/7","brand":"Postbank","brand:wikidata":"Q7234083","operator:wikidata":"Q7234083"},"coordinates":[41.996645,23.090003]},"tags_mismatch":false,"dist":0},{"osm":false,"atp":{"id":"HNJA391-ZJThy6Ts1qbdFTIut6Y=","tags":{"amenity":"atm","addr:full":"Ж.к. Еленово, ул. Пейо Яворов №35","addr:country":"BG","name":"Супермаркет Чавикс","opening_hours":"24/7","brand":"Postbank","brand:wikidata":"Q7234083","operator:wikidata":"Q7234083"},"coordinates":[41.9981975,23.0994109]},"tags_mismatch":false,"dist":0},{"osm":false,"atp":{"id":"sbpQd8Qe824tuBFFfQzsmvWowGg=","tags":{"amenity":"atm","addr:full":"Ул. 27-ми Октомври №2","addr:country":"BG","name":"Бобов дол","opening_hours":"24/7","brand":"Postbank","brand:wikidata":"Q7234083","operator:wikidata":"Q7234083"},"coordinates":[42.3663864,23.0051872]},"tags_mismatch":false,"dist":0},{"osm":false,"atp":{"id":"aAnxr_zlovFYSkyELsC8FRlwtKs=","tags":{"amenity":"atm","addr:country":"BG","name":"Роял Плаза Боровец","opening_hours":"24/7","brand":"Postbank","brand:wikidata":"Q7234083","operator:wikidata":"Q7234083"},"coordinates":[42.26577942698506,23.60571852543577]},"tags_mismatch":false,"dist":0},{"osm":false,"atp":{"id":"JrCHWmOSyc5ZcdEGF7FCcwrfq6k=","tags":{"amenity":"atm","cash_in":"yes","addr:full":"Бул. България №6","addr:country":"BG","name":"Ботевград","opening_hours":"24/7","brand":"Postbank","brand:wikidata":"Q7234083","operator:wikidata":"Q7234083"},"coordinates":[42.909576668559495,23.789284497506266]},"tags_mismatch":false,"dist":0},{"osm":false,"atp":{"id":"94TcDwYTz8VtFDfob5S1-IInafg=","tags":{"amenity":"atm","addr:full":"Ул. Арда №4","addr:country":"BG","name":"Мини маркет","brand":"Postbank","brand:wikidata":"Q7234083","operator:wikidata":"Q7234083"},"coordinates":[42.0845262,24.758245]},"tags_mismatch":false,"dist":0},{"osm":false,"atp":{"id":"mqSkFwEO6m_pWoT-iM1mENKqgYY=","tags":{"amenity":"atm","cash_in":"yes","addr:full":"Ул. Васил Левски №14","addr:country":"BG","name":"Велико Търново Левски","opening_hours":"24/7","brand":"Postbank","brand:wikidata":"Q7234083","operator:wikidata":"Q7234083"},"coordinates":[43.079515,25.628704]},"tags_mismatch":false,"dist":0},{"osm":false,"atp":{"id":"RyRYAQC2I65aucItCsyVakf-L9c=","tags":{"amenity":"atm","addr:full":"ул. Магистрала, път I-4","addr:country":"BG","name":"ЕКО В. Търново","opening_hours":"24/7","brand":"Postbank","brand:wikidata":"Q7234083","operator:wikidata":"Q7234083"},"coordinates":[43.072202,25.624006]},"tags_mismatch":false,"dist":0},{"osm":false,"atp":{"id":"wqTRhRf1wx9JJYZ5mF-mtCAZmH0=","tags":{"amenity":"atm","addr:full":"ул. Никола Габровски 2","addr:country":"BG","name":"На чисто ","opening_hours":"24/7","brand":"Postbank","brand:wikidata":"Q7234083","operator:wikidata":"Q7234083"},"coordinates":[43.07771638322105,25.625644986464227]},"tags_mismatch":false,"dist":0},{"osm":false,"atp":{"id":"1tKHIS9pTo66q9gpi6OrSYg9vwU=","tags":{"amenity":"atm","cash_in":"yes","addr:full":"Бул. Съединение №218","addr:country":"BG","name":"Велинград","opening_hours":"24/7","brand":"Postbank","brand:wikidata":"Q7234083","operator:wikidata":"Q7234083"},"coordinates":[42.0420853,23.9877273]},"tags_mismatch":false,"dist":0},{"osm":false,"atp":{"id":"wuAm1TF625rFt3YnvS-A36Eyb08=","tags":{"amenity":"atm","addr:full":"ул. Надежда 1","addr:country":"BG","name":"Фреш маркет ","opening_hours":"24/7","brand":"Postbank","brand:wikidata":"Q7234083","operator:wikidata":"Q7234083"},"coordinates":[42.01368516381699,23.986201018778424]},"tags_mismatch":false,"dist":0},{"osm":false,"atp":{"id":"ZpdB8_7kbzHpcLrDS5tXJ84hdq4=","tags":{"amenity":"atm","cash_in":"yes","addr:full":"Ул. Цар Александър II, №19-21","addr:country":"BG","name":"Видин","opening_hours":"24/7","brand":"Postbank","brand:wikidata":"Q7234083","operator:wikidata":"Q7234083"},"coordinates":[43.9833073,22.8763757]},"tags_mismatch":false,"dist":0},{"osm":false,"atp":{"id":"Ms8MtTBO_9D-bY1afpcQcH5YQxs=","tags":{"amenity":"atm","addr:full":"Ул. Железничарска №2","addr:country":"BG","name":"УАНДА","opening_hours":"24/7","brand":"Postbank","brand:wikidata":"Q7234083","operator:wikidata":"Q7234083"},"coordinates":[43.98526,22.875675]},"tags_mismatch":false,"dist":0},{"osm":false,"atp":{"id":"Dgep12lJ3l7mZysEcYEy2NEQ0gY=","tags":{"amenity":"atm","addr:full":"Пл. Червен площад","addr:country":"BG","name":"Аптека Червен площад","opening_hours":"24/7","brand":"Postbank","brand:wikidata":"Q7234083","operator:wikidata":"Q7234083"},"coordinates":[43.2048225,23.5643113]},"tags_mismatch":false,"dist":0},{"osm":false,"atp":{"id":"M0S8-1OomBElLCYoisO9EZZrx6U=","tags":{"amenity":"atm","addr:full":"Бул. Васил Кънчов №86","addr:country":"BG","name":"Васил Кънчов","opening_hours":"24/7","brand":"Postbank","brand:wikidata":"Q7234083","operator:wikidata":"Q7234083"},"coordinates":[43.2067359,23.5617752]},"tags_mismatch":false,"dist":0},{"osm":false,"atp":{"id":"i7-J7CavvbWjgOL47mF9zhxzIlI=","tags":{"amenity":"atm","cash_in":"yes","addr:full":"Ул. Лукашов №1","addr:country":"BG","name":"Враца","opening_hours":"24/7","brand":"Postbank","brand:wikidata":"Q7234083","operator:wikidata":"Q7234083"},"coordinates":[43.2036906,23.5490725]},"tags_mismatch":false,"dist":0},{"osm":false,"atp":{"id":"0Jyk1xWkqs7YfPrvjjmdJRXMilw=","tags":{"amenity":"atm","cash_in":"yes","addr:full":"Ул. Лукашов №1","addr:country":"BG","name":"Враца II","opening_hours":"24/7","brand":"Postbank","brand:wikidata":"Q7234083","operator:wikidata":"Q7234083"},"coordinates":[43.2036906,23.5490725]},"tags_mismatch":false,"dist":0},{"osm":false,"atp":{"id":"FSU6WvCMjcxJ4mchVycU8DaPl-k=","tags":{"amenity":"atm","addr:full":"Ж.к. Дъбника, срещу бл.10 пазара","addr:country":"BG","name":"Търговски център Мистър Блек","opening_hours":"24/7","brand":"Postbank","brand:wikidata":"Q7234083","operator:wikidata":"Q7234083"},"coordinates":[43.2225232,23.5469922]},"tags_mismatch":false,"dist":0},{"osm":false,"atp":{"id":"mZ_GY2RAFvxM2szTKPVYSBwgrek=","tags":{"amenity":"atm","addr:full":"ул. Свищовска 91","addr:country":"BG","name":"Булсатком Габрово","opening_hours":"24/7","brand":"Postbank","brand:wikidata":"Q7234083","operator:wikidata":"Q7234083"},"coordinates":[42.8959839499354,25.309058081267526]},"tags_mismatch":false,"dist":0},{"osm":false,"atp":{"id":"0OPkcDmUVyBkoGYmpFhSm_unizY=","tags":{"amenity":"atm","addr:full":"Бул. Трети Март №6","addr:country":"BG","name":"ВИК Габрово ООД","opening_hours":"24/7","brand":"Postbank","brand:wikidata":"Q7234083","operator:wikidata":"Q7234083"},"coordinates":[42.858348,25.321529]},"tags_mismatch":false,"dist":0},{"osm":false,"atp":{"id":"aoxcucXO5WvX8C8eYkGIBbA3kUY=","tags":{"amenity":"atm","addr:full":"ул. „Патриарх Герман“ 69","addr:country":"BG","name":"ИзиПей Герман","opening_hours":"24/7","brand":"Postbank","brand:wikidata":"Q7234083","operator:wikidata":"Q7234083"},"coordinates":[42.61410283599435,23.41483019824693]},"tags_mismatch":false,"dist":0},{"osm":false,"atp":{"id":"8QIkSOmcFoWHbEFgFlaHXFRDxbE=","tags":{"amenity":"atm","cash_in":"yes","addr:full":"ул. Иван Вазов 2","addr:country":"BG","name":"Горна Оряховица","opening_hours":"24/7","brand":"Postbank","brand:wikidata":"Q7234083","operator:wikidata":"Q7234083"},"coordinates":[43.122825889423886,25.69051051173166]},"tags_mismatch":false,"dist":0},{"osm":false,"atp":{"id":"FRcUJ29rh3QK9fjUvJNKJf88Emk=","tags":{"amenity":"atm","addr:full":"Ул. Свети Княз Борис I № 29","addr:country":"BG","name":"Захарни заводи","opening_hours":"24/7","brand":"Postbank","brand:wikidata":"Q7234083","operator:wikidata":"Q7234083"},"coordinates":[43.137863,25.713239]},"tags_mismatch":false,"dist":0},{"osm":false,"atp":{"id":"ELJaZv5IP_yOIA28ELjTPZOEnzo=","tags":{"amenity":"atm","cash_in":"yes","addr:full":"ул. Сестри Дукови №2","addr:country":"BG","name":"Гоце Делчев","opening_hours":"24/7","brand":"Postbank","brand:wikidata":"Q7234083","operator:wikidata":"Q7234083"},"coordinates":[41.57259763493609,23.726533506159043]},"tags_mismatch":false,"dist":0},{"osm":false,"atp":{"id":"7LmyBK9ngLNw46q4h-gmvVVdl0A=","tags":{"amenity":"atm","cash_in":"yes","addr:full":"ул. Сестри Дукови №2","addr:country":"BG","name":"Гоце Делчев II","opening_hours":"Mo-Fr 08:30-17:00","brand":"Postbank","brand:wikidata":"Q7234083","operator:wikidata":"Q7234083"},"coordinates":[41.57258960852682,23.726512048487198]},"tags_mismatch":false,"dist":0},{"osm":false,"atp":{"id":"DT29krOLABbo80cMNWHfPpirB2k=","tags":{"amenity":"atm","addr:full":"Гоце Делчев","addr:country":"BG","name":"ЕКО гр. Гоце Делчев","opening_hours":"24/7","brand":"Postbank","brand:wikidata":"Q7234083","operator:wikidata":"Q7234083"},"coordinates":[41.57365088437016,23.74761106938863]},"tags_mismatch":false,"dist":0},{"osm":false,"atp":{"id":"HPUhTtpq8qwyZgSX1yE2ORs4BVI=","tags":{"amenity":"atm","addr:full":"Ул.Тодор Александров №38","addr:country":"BG","name":"МОЛ-А Гоце Делчев","opening_hours":"24/7","brand":"Postbank","brand:wikidata":"Q7234083","operator:wikidata":"Q7234083"},"coordinates":[41.5689875,23.7281039]},"tags_mismatch":false,"dist":0},{"osm":false,"atp":{"id":"Tz-Rm4ofSMJA_77TqmBWldj_msI=","tags":{"amenity":"atm","addr:full":"Ул. Дунав №26","addr:country":"BG","name":"Новатерм ДП ООД","opening_hours":"24/7","brand":"Postbank","brand:wikidata":"Q7234083","operator:wikidata":"Q7234083"},"coordinates":[41.57081,23.72281]},"tags_mismatch":false,"dist":0},{"osm":false,"atp":{"id":"VahYfJwTEOVIYaDvySY_twvpkvQ=","tags":{"amenity":"atm","addr:full":"Ул. Дунав №10","addr:country":"BG","name":"ТПК Атанас Тешов","opening_hours":"24/7","brand":"Postbank","brand:wikidata":"Q7234083","operator:wikidata":"Q7234083"},"coordinates":[41.5717703,23.7404579]},"tags_mismatch":false,"dist":0},{"osm":false,"atp":{"id":"7Y-20H2kfgpDTErXl1nwe8wnroY=","tags":{"amenity":"atm","addr:full":"ул. Христо Ботев 80","addr:country":"BG","name":"Магазин Градина","opening_hours":"24/7","brand":"Postbank","brand:wikidata":"Q7234083","operator:wikidata":"Q7234083"},"coordinates":[42.151161877398124,25.207357746532818]},"tags_mismatch":false,"dist":0},{"osm":false,"atp":{"id":"cLJ4bDvzo9zGHK67TzHknoLckG0=","tags":{"amenity":"atm","cash_in":"yes","addr:full":"Бул. Република №1","addr:country":"BG","name":"Гълъбово","opening_hours":"24/7","brand":"Postbank","brand:wikidata":"Q7234083","operator:wikidata":"Q7234083"},"coordinates":[42.1374511,25.863621]},"tags_mismatch":false,"dist":0},{"osm":false,"atp":{"id":"Q9GiPiwK2LC4z6cHjT2NfhJdm5s=","tags":{"amenity":"atm","addr:full":"Ул. Освобождение 23","addr:country":"BG","name":"Девин","opening_hours":"24/7","brand":"Postbank","brand:wikidata":"Q7234083","operator:wikidata":"Q7234083"},"coordinates":[41.7429109,24.3915387]},"tags_mismatch":false,"dist":0},{"osm":false,"atp":{"id":"TMAFMhc9gXB03hUGuEumAzapljg=","tags":{"amenity":"atm","cash_in":"yes","addr:full":"Бул. Съединение №78","addr:country":"BG","name":"Девня","opening_hours":"24/7","brand":"Postbank","brand:wikidata":"Q7234083","operator:wikidata":"Q7234083"},"coordinates":[43.226285,27.586576]},"tags_mismatch":false,"dist":0},{"osm":false,"atp":{"id":"XmPSDa1uzUIM6ESQHMslE0LymEA=","tags":{"amenity":"atm","addr:full":"Бул. България №10","addr:country":"BG","name":"България","opening_hours":"24/7","brand":"Postbank","brand:wikidata":"Q7234083","operator:wikidata":"Q7234083"},"coordinates":[42.0592821,25.5914629]},"tags_mismatch":false,"dist":0},{"osm":false,"atp":{"id":"T_D9aUcUby0PR6kMeqHYJPV6YK8=","tags":{"amenity":"atm","cash_in":"yes","addr:full":"Бул. България №1","addr:country":"BG","name":"Димитровград","opening_hours":"24/7","brand":"Postbank","brand:wikidata":"Q7234083","operator:wikidata":"Q7234083"},"coordinates":[42.0569617,25.5915179]},"tags_mismatch":false,"dist":0},{"osm":false,"atp":{"id":"LXMRjccsNGm-2MvmhEnYi40PxqM=","tags":{"amenity":"atm","cash_in":"yes","addr:full":"ул Цар Освободител 2","addr:country":"BG","name":"МикроКредит Свищов","opening_hours":"24/7","brand":"Postbank","brand:wikidata":"Q7234083","operator:wikidata":"Q7234083"},"coordinates":[43.61742934569813,25.346562267813248]},"tags_mismatch":false,"dist":0},{"osm":false,"atp":{"id":"8DengKqYF1YGSQasSRO0eZEOT5M=","tags":{"amenity":"atm","addr:full":"Бул. 25-ти Септември №25","addr:country":"BG","name":"Добрич Добруджа","opening_hours":"24/7","brand":"Postbank","brand:wikidata":"Q7234083","operator:wikidata":"Q7234083"},"coordinates":[43.5721915,27.8271608]},"tags_mismatch":false,"dist":0},{"osm":false,"atp":{"id":"i8MHovNZvw_8ZyhsgzhqVTSP0-4=","tags":{"amenity":"atm","cash_in":"yes","addr:full":"Бул. 25-ти Септември 42","addr:country":"BG","name":"Добрич Йордан Йовков II","opening_hours":"Mo-Fr 08:30-17:00","brand":"Postbank","brand:wikidata":"Q7234083","operator:wikidata":"Q7234083"},"coordinates":[43.5678398,27.8307426]},"tags_mismatch":false,"dist":0},{"osm":false,"atp":{"id":"rhiHxpPijEfEBFr05blw0FZ_opU=","tags":{"amenity":"atm","cash_in":"yes","addr:full":"Пл. Свобода №1","addr:country":"BG","name":"Добрич Свобода","opening_hours":"24/7","brand":"Postbank","brand:wikidata":"Q7234083","operator:wikidata":"Q7234083"},"coordinates":[43.5692668,27.8303672]},"tags_mismatch":false,"dist":0},{"osm":false,"atp":{"id":"LjAMEjmB2b4txs1kCPIA7LHX0kY=","tags":{"amenity":"atm","cash_in":"yes","addr:full":"Пл. Свобода №1","addr:country":"BG","name":"Добрич Свобода 2","opening_hours":"24/7","brand":"Postbank","brand:wikidata":"Q7234083","operator:wikidata":"Q7234083"},"coordinates":[43.569275,27.830374]},"tags_mismatch":false,"dist":0},{"osm":false,"atp":{"id":"hn-qF5lnsCFuZ4c6WVngg1CGBLI=","tags":{"amenity":"atm","addr:full":"бул. „25-ти Септември“ 70","addr:country":"BG","name":"Добрич – Изи Пей","opening_hours":"24/7","brand":"Postbank","brand:wikidata":"Q7234083","operator:wikidata":"Q7234083"},"coordinates":[43.57803647368867,27.829991538975477]},"tags_mismatch":false,"dist":0},{"osm":false,"atp":{"id":"zaSoi1HHRgtMomX5M_aLkeM1pS8=","tags":{"amenity":"atm","cash_in":"yes","addr:full":"Ул. Христо Ботев №17","addr:country":"BG","name":"Дупница","opening_hours":"24/7","brand":"Postbank","brand:wikidata":"Q7234083","operator:wikidata":"Q7234083"},"coordinates":[42.2611226,23.1215062]},"tags_mismatch":false,"dist":0},{"osm":false,"atp":{"id":"gD3ZfBcztW92GYiuU2smgc8dGWg=","tags":{"amenity":"atm","addr:full":"Ул. Никола Малашевски №20","addr:country":"BG","name":"Ресторант, промишлена зона","opening_hours":"24/7","brand":"Postbank","brand:wikidata":"Q7234083","operator:wikidata":"Q7234083"},"coordinates":[42.2613275,23.1124424]},"tags_mismatch":false,"dist":0},{"osm":false,"atp":{"id":"yU65Suy6UGf_VdhtKxFEz1mfDHs=","tags":{"amenity":"atm","cash_in":"yes","addr:full":"бул. „Руски“ № 92","addr:country":"BG","name":"хотел Етрополия","opening_hours":"24/7","brand":"Postbank","brand:wikidata":"Q7234083","operator:wikidata":"Q7234083"},"coordinates":[42.833468388382926,23.99546683893549]},"tags_mismatch":false,"dist":0},{"osm":false,"atp":{"id":"84-G7FgMPvC3syArAbdMPLpbpI8=","tags":{"amenity":"atm","addr:full":"Ул. Шипка №2 - Циментов Завод","addr:country":"BG","name":"Златна Панега","opening_hours":"Mo-Sa 08:30-17:00","brand":"Postbank","brand:wikidata":"Q7234083","operator:wikidata":"Q7234083"},"coordinates":[43.0856386,24.1813915]},"tags_mismatch":false,"dist":0},{"osm":false,"atp":{"id":"dvXQC2lC1wRxTi6y6MyT8Ev3yXY=","tags":{"amenity":"atm","cash_in":"yes","addr:full":"Бул. България №122, блок 194","addr:country":"BG","name":"Златоград","opening_hours":"24/7","brand":"Postbank","brand:wikidata":"Q7234083","operator:wikidata":"Q7234083"},"coordinates":[41.3798446,25.096521]},"tags_mismatch":false,"dist":0},{"osm":false,"atp":{"id":"cvlqLylV_xM_fSUy23XcZSuYsg8=","tags":{"amenity":"atm","addr:full":"Ул. Лудогорие №28","addr:country":"BG","name":"Исперих","opening_hours":"24/7","brand":"Postbank","brand:wikidata":"Q7234083","operator:wikidata":"Q7234083"},"coordinates":[43.7162095,26.8307163]},"tags_mismatch":false,"dist":0},{"osm":false,"atp":{"id":"_wpxdptSNNU_6K2zOgwpnxCKZNY=","tags":{"amenity":"atm","cash_in":"yes","addr:full":"ул. „Цар Калоян“ №3","addr:country":"BG","name":"Каварна","opening_hours":"24/7","brand":"Postbank","brand:wikidata":"Q7234083","operator:wikidata":"Q7234083"},"coordinates":[43.43304377872901,28.337673725455495]},"tags_mismatch":false,"dist":0},{"osm":false,"atp":{"id":"ecy56_Q9a3G_RhOB5wGUcEUXOqc=","tags":{"amenity":"atm","addr:full":"Курортен комплекс Карвуна; Апартхотел Роял Бей","addr:country":"BG","name":"Роял Бей Каварна","opening_hours":"24/7","brand":"Postbank","brand:wikidata":"Q7234083","operator:wikidata":"Q7234083"},"coordinates":[43.40393233989977,28.244565096637384]},"tags_mismatch":false,"dist":0},{"osm":false,"atp":{"id":"QXNuihYTPHu0D8aB6EWaSwW4sAM=","tags":{"amenity":"atm","addr:full":"Ул. Бачо Киро, до Била","addr:country":"BG","name":"ЕКО Казанлък","opening_hours":"24/7","brand":"Postbank","brand:wikidata":"Q7234083","operator:wikidata":"Q7234083"},"coordinates":[42.6155758,25.3902328]},"tags_mismatch":false,"dist":0},{"osm":false,"atp":{"id":"xsEdbhRPRei37gxlWg3Z97DJc68=","tags":{"amenity":"atm","cash_in":"yes","addr:full":"Пл. Севтополис №15А","addr:country":"BG","name":"Казанлък","opening_hours":"24/7","brand":"Postbank","brand:wikidata":"Q7234083","operator:wikidata":"Q7234083"},"coordinates":[42.618545,25.391667]},"tags_mismatch":false,"dist":0},{"osm":false,"atp":{"id":"LfR8UKuvKkD-miH8Ljr3eXercqU=","tags":{"amenity":"atm","cash_in":"yes","addr:full":"Ул. Освобождение №84","addr:country":"BG","name":"Камено","opening_hours":"24/7","brand":"Postbank","brand:wikidata":"Q7234083","operator:wikidata":"Q7234083"},"coordinates":[43.5204613,26.526353]},"tags_mismatch":false,"dist":0},{"osm":false,"atp":{"id":"m7TxBJPryBaNUXXtMBfjhrJ6Zqc=","tags":{"amenity":"atm","cash_in":"yes","addr:full":"Ул. Петко Събев №2","addr:country":"BG","name":"Карлово","opening_hours":"24/7","brand":"Postbank","brand:wikidata":"Q7234083","operator:wikidata":"Q7234083"},"coordinates":[42.64350837461568,24.804979797495413]},"tags_mismatch":false,"dist":0},{"osm":false,"atp":{"id":"u-HMwKx4ffhArm-GNmG-hURELFw=","tags":{"amenity":"atm","addr:full":"Бул. България №5","addr:country":"BG","name":"Карнобат","opening_hours":"24/7","brand":"Postbank","brand:wikidata":"Q7234083","operator:wikidata":"Q7234083"},"coordinates":[42.647213,26.984719]},"tags_mismatch":false,"dist":0},{"osm":false,"atp":{"id":"wdKeeMcKExXbJLTwM4_kDAUPxtw=","tags":{"amenity":"atm","addr:full":"Ул. Хан Аспарух №5","addr:country":"BG","name":"Хотел Карнобат","opening_hours":"24/7","brand":"Postbank","brand:wikidata":"Q7234083","operator:wikidata":"Q7234083"},"coordinates":[42.65055,26.985664]},"tags_mismatch":false,"dist":0},{"osm":false,"atp":{"id":"6TAyVMURtOs0u1P_naRFhNCWYPc=","tags":{"amenity":"atm","addr:full":"Ул. Христо Ботев, блок Витоша","addr:country":"BG","name":"Кнежа","opening_hours":"24/7","brand":"Postbank","brand:wikidata":"Q7234083","operator:wikidata":"Q7234083"},"coordinates":[43.4927972,24.0807647]},"tags_mismatch":false,"dist":0},{"osm":false,"atp":{"id":"BlsyZNH1B9F1D3z6G4--4wCTlKk=","tags":{"amenity":"atm","cash_in":"yes","addr:full":"ул Васил Коларов 1","addr:country":"BG","name":"Козлодуй","opening_hours":"24/7","brand":"Postbank","brand:wikidata":"Q7234083","operator:wikidata":"Q7234083"},"coordinates":[43.77752397797957,23.72837249665762]},"tags_mismatch":false,"dist":0},{"osm":false,"atp":{"id":"laVy8kfZ0fzSlak2XuEQAd8XTHc=","tags":{"amenity":"atm","addr:full":"Ул. Асен Златаров №1","addr:country":"BG","name":"Коларово","opening_hours":"24/7","brand":"Postbank","brand:wikidata":"Q7234083","operator:wikidata":"Q7234083"},"coordinates":[41.3632611,23.1085501]},"tags_mismatch":false,"dist":0},{"osm":false,"atp":{"id":"oD3QJFlYh0WRj4wnmfj3xXSB5z8=","tags":{"amenity":"atm","addr:full":"ул. '' Черноморска'' 45","addr:country":"BG","name":"Кранево Алгара","opening_hours":"24/7","brand":"Postbank","brand:wikidata":"Q7234083","operator:wikidata":"Q7234083"},"coordinates":[42.822218502681125,27.8831707693961]},"tags_mismatch":false,"dist":0},{"osm":false,"atp":{"id":"i5-cG_dlpIZkekogKKT5peG8paY=","tags":{"amenity":"atm","addr:full":"път Е-79, посока София - Кулата","addr:country":"BG","name":"ЕКО Кресна","opening_hours":"24/7","brand":"Postbank","brand:wikidata":"Q7234083","operator:wikidata":"Q7234083"},"coordinates":[41.732573037537584,23.166207334486504]},"tags_mismatch":false,"dist":0},{"osm":false,"atp":{"id":"OmdNEJER09Vzm4-9Qs-ruP8V4Ag=","tags":{"amenity":"atm","cash_in":"yes","addr:full":"Ул. Македония №96","addr:country":"BG","name":"Кресна","opening_hours":"24/7","brand":"Postbank","brand:wikidata":"Q7234083","operator:wikidata":"Q7234083"},"coordinates":[41.7204847,23.1664374]},"tags_mismatch":false,"dist":0},{"osm":false,"atp":{"id":"eTVuAoBElxoBL7gUzy0cYQM3z3I=","tags":{"amenity":"atm","addr:full":"Ул. Княз Бориз I №3","addr:country":"BG","name":"Кубрат","opening_hours":"24/7","brand":"Postbank","brand:wikidata":"Q7234083","operator:wikidata":"Q7234083"},"coordinates":[43.7961375,26.5005343]},"tags_mismatch":false,"dist":0},{"osm":false,"atp":{"id":"P7P6uVgnmkNLf7qAdSKRufAcstY=","tags":{"amenity":"atm","addr:full":"Автомагистрала Струма 438км.","addr:country":"BG","name":"EKO Kулата","opening_hours":"24/7","brand":"Postbank","brand:wikidata":"Q7234083","operator:wikidata":"Q7234083"},"coordinates":[41.543506751324806,23.16547467694845]},"tags_mismatch":false,"dist":0},{"osm":false,"atp":{"id":"GBe-Jdc498C8BH1z08_guWIyi-c=","tags":{"amenity":"atm","addr:full":"Ул.Тракия №19","addr:country":"BG","name":"ДКЦ 1","opening_hours":"24/7","brand":"Postbank","brand:wikidata":"Q7234083","operator:wikidata":"Q7234083"},"coordinates":[41.6454751,25.3719369]},"tags_mismatch":false,"dist":0},{"osm":false,"atp":{"id":"n3JO0BiAjvxeJZRuuiV9Iw7fKjw=","tags":{"amenity":"atm","cash_in":"yes","addr:full":"Бул. България №33A","addr:country":"BG","name":"Кърджали","opening_hours":"24/7","brand":"Postbank","brand:wikidata":"Q7234083","operator:wikidata":"Q7234083"},"coordinates":[41.64318766737858,25.368973027061475]},"tags_mismatch":false,"dist":0},{"osm":false,"atp":{"id":"AChXrVkYNC90vLiLgttl8sWgvmY=","tags":{"amenity":"atm","addr:full":"Ж.к. Възрожденци, бул. Христо Ботев","addr:country":"BG","name":"Ресторант Меаца","opening_hours":"24/7","brand":"Postbank","brand:wikidata":"Q7234083","operator:wikidata":"Q7234083"},"coordinates":[41.6345358,25.3560493]},"tags_mismatch":false,"dist":0},{"osm":false,"atp":{"id":"xLEBGW44X68JvYMrTQmRM4J1kZg=","tags":{"amenity":"atm","cash_in":"yes","addr:full":"ул. Демокрация 1","addr:country":"BG","name":"Кюстендил","opening_hours":"24/7","brand":"Postbank","brand:wikidata":"Q7234083","operator:wikidata":"Q7234083"},"coordinates":[42.27869669960723,22.68396152543654]},"tags_mismatch":false,"dist":0},{"osm":false,"atp":{"id":"lJ6NNa63o_UG-h2M1zBDhF5CWRk=","tags":{"amenity":"atm","addr:full":"Ул. Васил Априлов №2","addr:country":"BG","name":"Левски","opening_hours":"24/7","brand":"Postbank","brand:wikidata":"Q7234083","operator:wikidata":"Q7234083"},"coordinates":[43.359004,25.141751]},"tags_mismatch":false,"dist":0},{"osm":false,"atp":{"id":"5HfH7Ub5b65tleJzCITZ-FxIr5s=","tags":{"amenity":"atm","addr:full":"Ул. Бяло море №12","addr:country":"BG","name":"Бони Ловеч","opening_hours":"24/7","brand":"Postbank","brand:wikidata":"Q7234083","operator:wikidata":"Q7234083"},"coordinates":[43.147896,24.717241]},"tags_mismatch":false,"dist":0},{"osm":false,"atp":{"id":"_cJX4SOCsxxzpy1mnzfwW_q3ZA4=","tags":{"amenity":"atm","cash_in":"yes","addr:full":"Ул. Търговска 38","addr:country":"BG","name":"Ловеч","opening_hours":"24/7","brand":"Postbank","brand:wikidata":"Q7234083","operator:wikidata":"Q7234083"},"coordinates":[43.1375279,24.7178352]},"tags_mismatch":false,"dist":0},{"osm":false,"atp":{"id":"WxDmo93GkyUFMst6r5eLAJt1KD0=","tags":{"amenity":"atm","addr:full":"Ул.Търговска №183","addr:country":"BG","name":"Ловеч Запад","opening_hours":"24/7","brand":"Postbank","brand:wikidata":"Q7234083","operator:wikidata":"Q7234083"},"coordinates":[43.1472094,24.7159604]},"tags_mismatch":false,"dist":0},{"osm":false,"atp":{"id":"rBZYzPmkFaMWATvaPMLCxv3pT5g=","tags":{"amenity":"atm","cash_in":"yes","addr:full":"ул. „Търговска“ № 29","addr:country":"BG","name":"Нотариална кантора ","opening_hours":"24/7","brand":"Postbank","brand:wikidata":"Q7234083","operator:wikidata":"Q7234083"},"coordinates":[43.13378963246125,24.716057849042574]},"tags_mismatch":false,"dist":0},{"osm":false,"atp":{"id":"8ldhEvZqUYp0iDg7u5fe4re8hC0=","tags":{"amenity":"atm","addr:full":"Кв. Здравец, ТК Славимес","addr:country":"BG","name":"Славимекс Ловеч","opening_hours":"24/7","brand":"Postbank","brand:wikidata":"Q7234083","operator:wikidata":"Q7234083"},"coordinates":[43.157719,24.716418]},"tags_mismatch":false,"dist":0},{"osm":false,"atp":{"id":"IgcCjCO4Fgz2JKUwoYG2ItxaZfM=","tags":{"amenity":"atm","addr:full":"Ул. Хан Крум №41","addr:country":"BG","name":"Факира Ловеч","opening_hours":"24/7","brand":"Postbank","brand:wikidata":"Q7234083","operator:wikidata":"Q7234083"},"coordinates":[43.137022,24.709819]},"tags_mismatch":false,"dist":0},{"osm":false,"atp":{"id":"pNSTzgtsNIba3POpBxpeU8jOtvE=","tags":{"amenity":"atm","cash_in":"yes","addr:full":"Ул. Дунавска №10","addr:country":"BG","name":"Лом","opening_hours":"24/7","brand":"Postbank","brand:wikidata":"Q7234083","operator:wikidata":"Q7234083"},"coordinates":[43.82736799707119,23.236086177880185]},"tags_mismatch":false,"dist":0},{"osm":false,"atp":{"id":"g1y0EjuhcH6WnlVMB0Ht-YlOxcc=","tags":{"amenity":"atm","addr:full":"С. Марикостиново, Път Е79","addr:country":"BG","name":"Бензиностанция Круиз","opening_hours":"24/7","brand":"Postbank","brand:wikidata":"Q7234083","operator:wikidata":"Q7234083"},"coordinates":[41.435151,23.334114]},"tags_mismatch":false,"dist":0},{"osm":false,"atp":{"id":"IjW7vy8XmZgnEGCR5KBwLmVshjg=","tags":{"amenity":"atm","addr:full":"ул.България №65","addr:country":"BG","name":"ЕТ ОКСА","opening_hours":"24/7","brand":"Postbank","brand:wikidata":"Q7234083","operator:wikidata":"Q7234083"},"coordinates":[43.84958,25.95523]},"tags_mismatch":false,"dist":0},{"osm":false,"atp":{"id":"ipce25JAjZgxd6J8GtsUnytgyJE=","tags":{"amenity":"atm","cash_in":"yes","addr:full":"Ул. Христо Ботев №27А","addr:country":"BG","name":"Мездра","opening_hours":"24/7","brand":"Postbank","brand:wikidata":"Q7234083","operator:wikidata":"Q7234083"},"coordinates":[43.1591605,23.6945058]},"tags_mismatch":false,"dist":0},{"osm":false,"atp":{"id":"YbF5Pt1Ty0byNQcIY8gI_yj26cg=","tags":{"amenity":"atm","addr:full":"Ул. Индустриална №6","addr:country":"BG","name":"МАЙ 04 Холдинг","opening_hours":"24/7","brand":"Postbank","brand:wikidata":"Q7234083","operator:wikidata":"Q7234083"},"coordinates":[43.407222,23.231437]},"tags_mismatch":false,"dist":0},{"osm":false,"atp":{"id":"zpdPnheDcV_UxoAIa_cqW_aUy7U=","tags":{"amenity":"atm","cash_in":"yes","addr:full":"Бул. Трети Март №63","addr:country":"BG","name":"Монтана","opening_hours":"24/7","brand":"Postbank","brand:wikidata":"Q7234083","operator:wikidata":"Q7234083"},"coordinates":[43.410184,23.225731]},"tags_mismatch":false,"dist":0},{"osm":false,"atp":{"id":"DY-am4yWuDi9rGS2q-UiiRVJghs=","tags":{"amenity":"atm","addr:full":"Бул. Трети март №98","addr:country":"BG","name":"Монтана II","opening_hours":"24/7","brand":"Postbank","brand:wikidata":"Q7234083","operator:wikidata":"Q7234083"},"coordinates":[43.412530720650594,23.226361354309105]},"tags_mismatch":false,"dist":0},{"osm":false,"atp":{"id":"pK5VgVhKkhtDYxnjhsObx37fIdw=","tags":{"amenity":"atm","cash_in":"yes","addr:full":"бул. Трети март №98","addr:country":"BG","name":"Монтана нов","opening_hours":"24/7","brand":"Postbank","brand:wikidata":"Q7234083","operator:wikidata":"Q7234083"},"coordinates":[43.41255410171006,23.22633989663782]},"tags_mismatch":false,"dist":0},{"osm":false,"atp":{"id":"BU7V8-smDKmbDfde76ooFzUq25s=","tags":{"amenity":"atm","cash_in":"yes","addr:full":"Ул. Хан Крум № 11","addr:country":"BG","name":"Несебър","opening_hours":"24/7","brand":"Postbank","brand:wikidata":"Q7234083","operator:wikidata":"Q7234083"},"coordinates":[42.66150934823682,27.722288318919166]},"tags_mismatch":false,"dist":0},{"osm":false,"atp":{"id":"heVn8XjkheRwRG0VDKm8N59-UiA=","tags":{"amenity":"atm","addr:full":"ул. Месамбрия 16","addr:country":"BG","name":"Старата котва","opening_hours":"24/7","brand":"Postbank","brand:wikidata":"Q7234083","operator:wikidata":"Q7234083"},"coordinates":[42.65833798180619,27.73443455426865]},"tags_mismatch":false,"dist":0},{"osm":false,"atp":{"id":"6M6Lq7Hs5S9vfuvGMoceaNt12Qg=","tags":{"amenity":"atm","addr:full":"Кв. Черно море, ул. Несебър №8","addr:country":"BG","name":"Супермаркет Кабана","opening_hours":"24/7","brand":"Postbank","brand:wikidata":"Q7234083","operator:wikidata":"Q7234083"},"coordinates":[42.653089,27.705394]},"tags_mismatch":false,"dist":0},{"osm":false,"atp":{"id":"HOtfuGLTh3racu--HT7JXHKbM3k=","tags":{"amenity":"atm","cash_in":"yes","addr:full":"Ул. Васил Левски №1","addr:country":"BG","name":"Никопол","opening_hours":"24/7","brand":"Postbank","brand:wikidata":"Q7234083","operator:wikidata":"Q7234083"},"coordinates":[43.70522,24.895449]},"tags_mismatch":false,"dist":0},{"osm":false,"atp":{"id":"AHVeV-5qQTbqZmsXwoo73Y74IRo=","tags":{"amenity":"atm","cash_in":"yes","addr:full":"ул Ал. Стамболийски 12","addr:country":"BG","name":"МикроКредит Нова Загора","opening_hours":"24/7","brand":"Postbank","brand:wikidata":"Q7234083","operator:wikidata":"Q7234083"},"coordinates":[42.49227976004583,26.00990399658861]},"tags_mismatch":false,"dist":0},{"osm":false,"atp":{"id":"kidJy3HhzmthiZwjH9za-YT8zhM=","tags":{"amenity":"atm","cash_in":"yes","addr:full":"ул. \"Св.Св. Кирил и Методий\" 40","addr:country":"BG","name":"Нова Загора","opening_hours":"24/7","brand":"Postbank","brand:wikidata":"Q7234083","operator:wikidata":"Q7234083"},"coordinates":[42.494578941492875,26.012046940572933]},"tags_mismatch":false,"dist":0},{"osm":false,"atp":{"id":"dpCKTUTR0w7RPVBXxFpSfZ19ZoQ=","tags":{"amenity":"atm","cash_in":"yes","addr:full":"Пл. Раковски №2","addr:country":"BG","name":"Нови Пазар","opening_hours":"24/7","brand":"Postbank","brand:wikidata":"Q7234083","operator:wikidata":"Q7234083"},"coordinates":[43.34448717,27.1921301]},"tags_mismatch":false,"dist":0},{"osm":false,"atp":{"id":"XTpZvZMw0wOOSWRzGvj9NAzL110=","tags":{"amenity":"atm","addr:full":"Ул. Цар Освободител №36","addr:country":"BG","name":"Фабрика Ново Стъкло","opening_hours":"24/7","brand":"Postbank","brand:wikidata":"Q7234083","operator:wikidata":"Q7234083"},"coordinates":[43.3448719,27.192713]},"tags_mismatch":false,"dist":0},{"osm":false,"atp":{"id":"w8g6FMiad_KmxfRd1L3tlqUrczM=","tags":{"amenity":"atm","addr:full":"ул. Стара Планина №138","addr:country":"BG","name":"Магазин Слънце","opening_hours":"24/7","brand":"Postbank","brand:wikidata":"Q7234083","operator:wikidata":"Q7234083"},"coordinates":[43.30152,27.91349]},"tags_mismatch":false,"dist":0},{"osm":false,"atp":{"id":"uVtZFSRHSnFKLiei_P54QvHnnb8=","tags":{"amenity":"atm","addr:full":"Бул. Ал. Стамболийски №53","addr:country":"BG","name":"WU Пазарджик","opening_hours":"24/7","brand":"Postbank","brand:wikidata":"Q7234083","operator:wikidata":"Q7234083"},"coordinates":[42.195,24.328954]},"tags_mismatch":false,"dist":0},{"osm":false,"atp":{"id":"Oa9WVac30DvvSIeCuznisJxoIgg=","tags":{"amenity":"atm","addr:full":"Ул. Константин Величков №37","addr:country":"BG","name":"Магазин","opening_hours":"24/7","brand":"Postbank","brand:wikidata":"Q7234083","operator:wikidata":"Q7234083"},"coordinates":[42.19098,24.328531]},"tags_mismatch":false,"dist":0},{"osm":false,"atp":{"id":"yt3r5IsWScIcL8b466SY5HQ4VU4=","tags":{"amenity":"atm","cash_in":"yes","addr:full":"Бул. България №5","addr:country":"BG","name":"Пазарджик","opening_hours":"24/7","brand":"Postbank","brand:wikidata":"Q7234083","operator:wikidata":"Q7234083"},"coordinates":[42.187832849994685,24.329996626622712]},"tags_mismatch":false,"dist":0},{"osm":false,"atp":{"id":"UKjpVF_gOIbBLuXnGG3_DHbtmtI=","tags":{"amenity":"atm","cash_in":"yes","addr:full":"Ул. Пловдивска №20","addr:country":"BG","name":"Пазарджик Пловдивска","opening_hours":"Mo-Fr 08:30-17:00","brand":"Postbank","brand:wikidata":"Q7234083","operator:wikidata":"Q7234083"},"coordinates":[42.1888023,24.3401154]},"tags_mismatch":false,"dist":0},{"osm":false,"atp":{"id":"60H5Y08aDjtOgg6pnxFd-4wSc18=","tags":{"amenity":"atm","addr:full":"ул. Христо Касабвелев","addr:country":"BG","name":"хипермаркет КРЕЗ","opening_hours":"Mo-Sa 08:00-20:00; Su 00:00-20:00","brand":"Postbank","brand:wikidata":"Q7234083","operator:wikidata":"Q7234083"},"coordinates":[42.18296282954726,24.31626254056611]},"tags_mismatch":false,"dist":0},{"osm":false,"atp":{"id":"u7qDqR2dgdR2_BrXDDqPLKX9LCE=","tags":{"amenity":"atm","cash_in":"yes","addr:full":"Ул. Търговска №15","addr:country":"BG","name":"Перник","opening_hours":"24/7","brand":"Postbank","brand:wikidata":"Q7234083","operator:wikidata":"Q7234083"},"coordinates":[42.6040611,23.0303297]},"tags_mismatch":false,"dist":0},{"osm":false,"atp":{"id":"6KgpNgXj6Rr2oUv9qBFYhNGwR5s=","tags":{"amenity":"atm","addr:full":"Ул. Търговска №15","addr:country":"BG","name":"Перник II","opening_hours":"24/7","brand":"Postbank","brand:wikidata":"Q7234083","operator:wikidata":"Q7234083"},"coordinates":[42.6040611,23.0303297]},"tags_mismatch":false,"dist":0},{"osm":false,"atp":{"id":"vAaSHZEXFR1gjct7MJiNWAUXRgg=","tags":{"amenity":"atm","addr:full":"Ул. Минск №15","addr:country":"BG","name":"Перник Изток","opening_hours":"24/7","brand":"Postbank","brand:wikidata":"Q7234083","operator:wikidata":"Q7234083"},"coordinates":[42.6083472,23.0990667]},"tags_mismatch":false,"dist":0},{"osm":false,"atp":{"id":"8hr302S5Aa_y4bRp-EtHvkJyzVk=","tags":{"amenity":"atm","cash_in":"yes","addr:full":"Ул. Минск №15","addr:country":"BG","name":"Перник Изток II","opening_hours":"24/7","brand":"Postbank","brand:wikidata":"Q7234083","operator:wikidata":"Q7234083"},"coordinates":[42.6083472,23.0990667]},"tags_mismatch":false,"dist":0},{"osm":false,"atp":{"id":"J4WqZWMS1tXM1h0xsJM2G1dNONY=","tags":{"amenity":"atm","addr:full":"Ул. Кракра №30","addr:country":"BG","name":"Перник Кракра","opening_hours":"24/7","brand":"Postbank","brand:wikidata":"Q7234083","operator:wikidata":"Q7234083"},"coordinates":[42.6032793,23.0278928]},"tags_mismatch":false,"dist":0},{"osm":false,"atp":{"id":"XBivgCmj3hF_wTRdj4ozwoCQy4M=","tags":{"amenity":"atm","addr:full":"Ул. Димитър Благоев № 35","addr:country":"BG","name":"Супермаркет Гризли","opening_hours":"24/7","brand":"Postbank","brand:wikidata":"Q7234083","operator:wikidata":"Q7234083"},"coordinates":[42.5924541,23.1125815]},"tags_mismatch":false,"dist":0},{"osm":false,"atp":{"id":"eU-xTISgih5K-BdnrNPLOuHNYxk=","tags":{"amenity":"atm","addr:full":"ул. Никола Парапанов №2","addr:country":"BG","name":"КООП Петрич","opening_hours":"24/7","brand":"Postbank","brand:wikidata":"Q7234083","operator:wikidata":"Q7234083"},"coordinates":[41.39843,23.206452]},"tags_mismatch":false,"dist":0},{"osm":false,"atp":{"id":"D6giSE1V15SHY2Ld16oJMzl6RVo=","tags":{"amenity":"atm","addr:full":"Кулата, Автомагистрала Струма","addr:country":"BG","name":"Казино Феликс","opening_hours":"24/7","brand":"Postbank","brand:wikidata":"Q7234083","operator:wikidata":"Q7234083"},"coordinates":[41.382637,23.362083]},"tags_mismatch":false,"dist":0},{"osm":false,"atp":{"id":"umBbArMmZqAePy_ybXAr0mvesAw=","tags":{"amenity":"atm","cash_in":"yes","addr:full":"ул. Гоце Делчев 12","addr:country":"BG","name":"Петрич","opening_hours":"24/7","brand":"Postbank","brand:wikidata":"Q7234083","operator:wikidata":"Q7234083"},"coordinates":[41.39292430959158,23.207633968608846]},"tags_mismatch":false,"dist":0},{"osm":false,"atp":{"id":"gq7ItwbcTR08Q8iqmFU9b_nQ_QI=","tags":{"amenity":"atm","addr:full":"ул Стою Хаджиев 1","addr:country":"BG","name":"Супермаркет Рай","opening_hours":"24/7","brand":"Postbank","brand:wikidata":"Q7234083","operator:wikidata":"Q7234083"},"coordinates":[41.39684462807767,23.214182585027558]},"tags_mismatch":false,"dist":0},{"osm":false,"atp":{"id":"ZJemSlxaxx4fEiB5UpnOLkxTn4E=","tags":{"amenity":"atm","cash_in":"yes","addr:full":"Ул. Дойранска епопея №19А","addr:country":"BG","name":"Пещера","opening_hours":"24/7","brand":"Postbank","brand:wikidata":"Q7234083","operator:wikidata":"Q7234083"},"coordinates":[42.0298857,24.2987265]},"tags_mismatch":false,"dist":0},{"osm":false,"atp":{"id":"lsB37PS8o9FDHzz1wEa9b5xtRPo=","tags":{"amenity":"atm","cash_in":"yes","addr:full":"ул. Васил Левски 139","addr:country":"BG","name":"МикроКредит Плевен","opening_hours":"24/7","brand":"Postbank","brand:wikidata":"Q7234083","operator:wikidata":"Q7234083"},"coordinates":[43.413470919682624,24.614383596637843]},"tags_mismatch":false,"dist":0},{"osm":false,"atp":{"id":"Ci41MvCbBzZd_KxkB0nYuqz0rNQ=","tags":{"amenity":"atm","cash_in":"yes","addr:full":"Бул. Данаил Попов №18","addr:country":"BG","name":"Плевен","opening_hours":"24/7","brand":"Postbank","brand:wikidata":"Q7234083","operator:wikidata":"Q7234083"},"coordinates":[43.4142466,24.6165006]},"tags_mismatch":false,"dist":0},{"osm":false,"atp":{"id":"EelT-uPDu4p5q6wXmV7ztZ569a8=","tags":{"amenity":"atm","addr:full":"Бул. Данаил Попов №18","addr:country":"BG","name":"Плевен II","opening_hours":"24/7","brand":"Postbank","brand:wikidata":"Q7234083","operator:wikidata":"Q7234083"},"coordinates":[43.4142466,24.6165006]},"tags_mismatch":false,"dist":0},{"osm":false,"atp":{"id":"WRLMlOGvsKv6yHEFjEU_GL9xt20=","tags":{"amenity":"atm","addr:full":"Ул. Асен Халачев №11","addr:country":"BG","name":"Плевен Асен Халачев","opening_hours":"24/7","brand":"Postbank","brand:wikidata":"Q7234083","operator:wikidata":"Q7234083"},"coordinates":[43.418211,24.613938]},"tags_mismatch":false,"dist":0},{"osm":false,"atp":{"id":"xxqSlHd_MgI-zP5qxx0hnRMECfw=","tags":{"amenity":"atm","cash_in":"yes","addr:full":"Ул. Дойран 136","addr:country":"BG","name":"Плевен Освобожение","opening_hours":"Mo-Fr 08:30-19:00; Sa-Su 00:00-24:00","brand":"Postbank","brand:wikidata":"Q7234083","operator:wikidata":"Q7234083"},"coordinates":[43.40913910654438,24.616412753345937]},"tags_mismatch":false,"dist":0},{"osm":false,"atp":{"id":"ykIk2r5p98_JpriqIb8NNca-4hg=","tags":{"amenity":"atm","cash_in":"yes","addr:full":"Ул. Св. Св. Кирил и Методий № 11","addr:country":"BG","name":"Плевен Център","opening_hours":"24/7","brand":"Postbank","brand:wikidata":"Q7234083","operator:wikidata":"Q7234083"},"coordinates":[43.4094152,24.6245901]},"tags_mismatch":false,"dist":0},{"osm":false,"atp":{"id":"Bg9Z_iCJD-HMGrlYhErwoi9bG0c=","tags":{"amenity":"atm","cash_in":"yes","addr:full":"Ул. Св. Св. Кирил и Методий №11","addr:country":"BG","name":"Плевен Център II","brand":"Postbank","brand:wikidata":"Q7234083","operator:wikidata":"Q7234083"},"coordinates":[43.4094152,24.6245901]},"tags_mismatch":false,"dist":0},{"osm":false,"atp":{"id":"EE1cOXFQCqgc8HdOMTAPGwsYIPA=","tags":{"amenity":"atm","addr:full":"Ул. Княз Борис I №189","addr:country":"BG","name":"Заложна къща Поморие","opening_hours":"24/7","brand":"Postbank","brand:wikidata":"Q7234083","operator:wikidata":"Q7234083"},"coordinates":[42.5548176,27.6455124]},"tags_mismatch":false,"dist":0},{"osm":false,"atp":{"id":"bvub7c8qumdVIxoFQkw3y_3W6As=","tags":{"amenity":"atm","addr:full":"ул. „Крайбрежна“ 27","addr:country":"BG","name":"хотел Sunny Bay","opening_hours":"24/7","brand":"Postbank","brand:wikidata":"Q7234083","operator:wikidata":"Q7234083"},"coordinates":[42.55934359213447,27.64537146784229]},"tags_mismatch":false,"dist":0},{"osm":false,"atp":{"id":"kvtGN6swYrtGXDwX-9E-ppMHE1U=","tags":{"amenity":"atm","addr:full":"ул. Гоце Гелчев 4","addr:country":"BG","name":"Попово","opening_hours":"Mo-Fr 08:30-17:00","brand":"Postbank","brand:wikidata":"Q7234083","operator:wikidata":"Q7234083"},"coordinates":[43.34814550076253,26.225620167822093]},"tags_mismatch":false,"dist":0},{"osm":false,"atp":{"id":"okjyyfbf9F6Io-4a5qbbyq8eMwk=","tags":{"amenity":"atm","addr:full":"Ул. Иглика №38","addr:country":"BG","name":"Приморско дел Сол","opening_hours":"24/7","brand":"Postbank","brand:wikidata":"Q7234083","operator:wikidata":"Q7234083"},"coordinates":[42.272466,27.751191]},"tags_mismatch":false,"dist":0},{"osm":false,"atp":{"id":"k2zOqYQ8EBaR3cHyAO67W-gLI6A=","tags":{"amenity":"atm","addr:full":"Хипермаркет Мастерхаус","addr:country":"BG","name":"Хипермаркет Мастерхаус","opening_hours":"Mo-Sa 08:30-19:45; Su 09:00-19:00","brand":"Postbank","brand:wikidata":"Q7234083","operator:wikidata":"Q7234083"},"coordinates":[42.2683746,27.753286]},"tags_mismatch":false,"dist":0},{"osm":false,"atp":{"id":"AE-cfR5HGDrwx66x8I9pqHTUvLs=","tags":{"amenity":"atm","cash_in":"yes","addr:full":"Ул. Орфей №14","addr:country":"BG","name":"Първомай","opening_hours":"24/7","brand":"Postbank","brand:wikidata":"Q7234083","operator:wikidata":"Q7234083"},"coordinates":[42.0969057,25.2204628]},"tags_mismatch":false,"dist":0},{"osm":false,"atp":{"id":"pJ-p2oOK0exgPZPfCC_Fc3vHhPc=","tags":{"amenity":"atm","addr:full":"Бул. Георги Димитров №5","addr:country":"BG","name":"Раднево","opening_hours":"24/7","brand":"Postbank","brand:wikidata":"Q7234083","operator:wikidata":"Q7234083"},"coordinates":[42.2924467,25.9410602]},"tags_mismatch":false,"dist":0},{"osm":false,"atp":{"id":"sHYrc8k3xsQx-3T2L9xyZyc04Kc=","tags":{"amenity":"atm","addr:full":"Ул. Дупнишка №18","addr:country":"BG","name":"Строителен хипермаркет","opening_hours":"24/7","brand":"Postbank","brand:wikidata":"Q7234083","operator:wikidata":"Q7234083"},"coordinates":[42.5442629,22.9615802]},"tags_mismatch":false,"dist":0},{"osm":false,"atp":{"id":"iVqIpl40D577Bx3YnCqJEgqPAQs=","tags":{"amenity":"atm","cash_in":"yes","addr:full":"Бул. България №34","addr:country":"BG","name":"Разград","opening_hours":"24/7","brand":"Postbank","brand:wikidata":"Q7234083","operator:wikidata":"Q7234083"},"coordinates":[43.5252417,26.5263861]},"tags_mismatch":false,"dist":0},{"osm":false,"atp":{"id":"3XIXPCXumj7gqo3wVeXTG0WU50E=","tags":{"amenity":"atm","addr:full":"Кв. Освобождение, блок 67","addr:country":"BG","name":"Разград Север","opening_hours":"24/7","brand":"Postbank","brand:wikidata":"Q7234083","operator:wikidata":"Q7234083"},"coordinates":[43.5302792,26.5203593]},"tags_mismatch":false,"dist":0},{"osm":false,"atp":{"id":"tgdFJ8ANh2dXKeJjhEAKMLayvUQ=","tags":{"amenity":"atm","addr:country":"BG","name":"Тера Маркет","opening_hours":"24/7","brand":"Postbank","brand:wikidata":"Q7234083","operator:wikidata":"Q7234083"},"coordinates":[43.431631,26.525581]},"tags_mismatch":false,"dist":0},{"osm":false,"atp":{"id":"s_hzkQG601aWyspZrTnbdh8Ixvg=","tags":{"amenity":"atm","cash_in":"yes","addr:full":"Пл. Преображение №1","addr:country":"BG","name":"Разлог","opening_hours":"24/7","brand":"Postbank","brand:wikidata":"Q7234083","operator:wikidata":"Q7234083"},"coordinates":[41.88575,23.466174]},"tags_mismatch":false,"dist":0},{"osm":false,"atp":{"id":"rK0jq73cyP9Rx_jULxmaUBoP-Hw=","tags":{"amenity":"atm","addr:full":"Ул. Македония №49","addr:country":"BG","name":"МБАЛ Самоков","opening_hours":"24/7","brand":"Postbank","brand:wikidata":"Q7234083","operator:wikidata":"Q7234083"},"coordinates":[42.337124,23.555915]},"tags_mismatch":false,"dist":0},{"osm":false,"atp":{"id":"Tc_RCcfXyKDXJBERJEWWR0kXNcU=","tags":{"amenity":"atm","cash_in":"yes","addr:full":"ул. Търговска №35","addr:country":"BG","name":"Самоков","opening_hours":"24/7","brand":"Postbank","brand:wikidata":"Q7234083","operator:wikidata":"Q7234083"},"coordinates":[42.33766453027357,23.55743875786778]},"tags_mismatch":false,"dist":0},{"osm":false,"atp":{"id":"oQW62-6ITMlYZgHDWN7qBuLx3PQ=","tags":{"amenity":"atm","addr:full":"Ж.к. Самоково, до бл.30","addr:country":"BG","name":"Супермаркет CBA ","opening_hours":"24/7","brand":"Postbank","brand:wikidata":"Q7234083","operator:wikidata":"Q7234083"},"coordinates":[42.332627,23.552793]},"tags_mismatch":false,"dist":0},{"osm":false,"atp":{"id":"T2d_jDDak_Wpox1cOe3zo9_x1cQ=","tags":{"amenity":"atm","cash_in":"yes","addr:full":"Пл. България №2","addr:country":"BG","name":"Сандански","opening_hours":"24/7","brand":"Postbank","brand:wikidata":"Q7234083","operator:wikidata":"Q7234083"},"coordinates":[41.56193,23.277293]},"tags_mismatch":false,"dist":0},{"osm":false,"atp":{"id":"EmnpQ_r-EF_lHek4HgFKzoEnWVU=","tags":{"amenity":"atm","addr:full":"Ул. Ясен №48","addr:country":"BG","name":"Свети Влас Лазур 2","opening_hours":"24/7","brand":"Postbank","brand:wikidata":"Q7234083","operator:wikidata":"Q7234083"},"coordinates":[42.7103776,27.7605643]},"tags_mismatch":false,"dist":0},{"osm":false,"atp":{"id":"EgB6VeZMKEB20ydjAyUew9qCY38=","tags":{"amenity":"atm","addr:full":"Яхтено пристанище Марина Диневи","addr:country":"BG","name":"Хотел Палас","opening_hours":"24/7","brand":"Postbank","brand:wikidata":"Q7234083","operator:wikidata":"Q7234083"},"coordinates":[42.7134032,27.7587542]},"tags_mismatch":false,"dist":0},{"osm":false,"atp":{"id":"Ds23T_fiwvhgyLqo-8MUBcjJ39s=","tags":{"amenity":"atm","cash_in":"yes","addr:full":"Бул. България №58","addr:country":"BG","name":"Свиленград","opening_hours":"24/7","brand":"Postbank","brand:wikidata":"Q7234083","operator:wikidata":"Q7234083"},"coordinates":[41.7693242,26.1892844]},"tags_mismatch":false,"dist":0},{"osm":false,"atp":{"id":"Tr6ZeFcYzowWJu6AW09U5FoW4fo=","tags":{"amenity":"atm","addr:full":"Ул.Патриарх Евтимий №103а","addr:country":"BG","name":"БМБ ООД","opening_hours":"24/7","brand":"Postbank","brand:wikidata":"Q7234083","operator:wikidata":"Q7234083"},"coordinates":[43.62012,25.34604]},"tags_mismatch":false,"dist":0},{"osm":false,"atp":{"id":"kLN5-Vyv6Bzzwp9HzMm8-0ptVDI=","tags":{"amenity":"atm","cash_in":"yes","addr:full":"Ул. Хаджи Димитър №1","addr:country":"BG","name":"Свищов","opening_hours":"24/7","brand":"Postbank","brand:wikidata":"Q7234083","operator:wikidata":"Q7234083"},"coordinates":[43.616759681196456,25.34840602680708]},"tags_mismatch":false,"dist":0},{"osm":false,"atp":{"id":"eqp50X7Do05mrGp1JRHYHAFDLq8=","tags":{"amenity":"atm","addr:full":"Бул. Искър №6Б","addr:country":"BG","name":"ЕКО Своге ","opening_hours":"24/7","brand":"Postbank","brand:wikidata":"Q7234083","operator:wikidata":"Q7234083"},"coordinates":[42.961587,23.34718]},"tags_mismatch":false,"dist":0},{"osm":false,"atp":{"id":"LYjP5K9zO_VgDZJyCaNn7ZqWe_o=","tags":{"amenity":"atm","addr:full":"ул Бял бряг 2, път София Варна, до завод Идеал Стандарт","addr:country":"BG","name":"ЕКО Севлиево","opening_hours":"24/7","brand":"Postbank","brand:wikidata":"Q7234083","operator:wikidata":"Q7234083"},"coordinates":[43.034894234476276,25.097576438969487]},"tags_mismatch":false,"dist":0},{"osm":false,"atp":{"id":"szudaMryvH6A0qL28rcLZtGj_kQ=","tags":{"amenity":"atm","cash_in":"yes","addr:full":"Пл. Свобода, бл. 22","addr:country":"BG","name":"Севлиево","opening_hours":"24/7","brand":"Postbank","brand:wikidata":"Q7234083","operator:wikidata":"Q7234083"},"coordinates":[43.02697831619182,25.103612796617146]},"tags_mismatch":false,"dist":0},{"osm":false,"atp":{"id":"V0qxrkMvFvOCm-axqvsbjul96WQ=","tags":{"amenity":"atm","addr:full":"Ул. Любен Каравелов №2В","addr:country":"BG","name":"Коловаг","opening_hours":"24/7","brand":"Postbank","brand:wikidata":"Q7234083","operator:wikidata":"Q7234083"},"coordinates":[42.20686,24.13291]},"tags_mismatch":false,"dist":0},{"osm":false,"atp":{"id":"aeCpSMrKiJAlfFbsMYu32FO43cc=","tags":{"amenity":"atm","addr:full":"Ул. Княз Борис I №11","addr:country":"BG","name":"Супермаркет","opening_hours":"24/7","brand":"Postbank","brand:wikidata":"Q7234083","operator:wikidata":"Q7234083"},"coordinates":[42.209675,24.128523]},"tags_mismatch":false,"dist":0},{"osm":false,"atp":{"id":"OHHeLThKr8qtNQvzM2jv0_-Bl9k=","tags":{"amenity":"atm","addr:full":"Бул. България №67","addr:country":"BG","name":"Супермаркет Септември","opening_hours":"24/7","brand":"Postbank","brand:wikidata":"Q7234083","operator:wikidata":"Q7234083"},"coordinates":[42.216408,24.125278]},"tags_mismatch":false,"dist":0},{"osm":false,"atp":{"id":"9Pax_bcYndmpr8VxVDvvN2bhEeo=","tags":{"amenity":"atm","addr:full":"бул Велико Търново 56","addr:country":"BG","name":"Енерго - Про Силистра","opening_hours":"24/7","brand":"Postbank","brand:wikidata":"Q7234083","operator:wikidata":"Q7234083"},"coordinates":[44.10838468624335,27.25184681148004]},"tags_mismatch":false,"dist":0},{"osm":false,"atp":{"id":"Yy9OpGTbXFAfcWZcm9bxH2vh2cc=","tags":{"amenity":"atm","cash_in":"yes","addr:full":"Ул. Симеон Велики №24","addr:country":"BG","name":"Силистра","opening_hours":"24/7","brand":"Postbank","brand:wikidata":"Q7234083","operator:wikidata":"Q7234083"},"coordinates":[44.116832,27.260293]},"tags_mismatch":false,"dist":0},{"osm":false,"atp":{"id":"RbSbwSe4nY_den_Y7c5mgf-2hyo=","tags":{"amenity":"atm","cash_in":"yes","addr:full":"УЛ.\"КОНСТАНТИН СТОИЛОВ\" 30","addr:country":"BG","name":"Сливен Пазара","opening_hours":"24/7","brand":"Postbank","brand:wikidata":"Q7234083","operator:wikidata":"Q7234083"},"coordinates":[42.67894540389502,26.322000584755447]},"tags_mismatch":false,"dist":0},{"osm":false,"atp":{"id":"92T-8EKQfpcB8jbU7eSB3SPEVRs=","tags":{"amenity":"atm","addr:full":"Бул. Панайот Хитов №18","addr:country":"BG","name":"Супермаркет Сливен","opening_hours":"24/7","brand":"Postbank","brand:wikidata":"Q7234083","operator:wikidata":"Q7234083"},"coordinates":[42.6872342,26.331513]},"tags_mismatch":false,"dist":0},{"osm":false,"atp":{"id":"7NV9rv_vzKLQaLtyhzy2ECOo9Hs=","tags":{"amenity":"atm","addr:full":"Автогара","addr:country":"BG","name":"Автогара","opening_hours":"24/7","brand":"Postbank","brand:wikidata":"Q7234083","operator:wikidata":"Q7234083"},"coordinates":[42.6951525,27.7104213]},"tags_mismatch":false,"dist":0},{"osm":false,"atp":{"id":"scRPRIQI7-EllfDy8NiUEf-zCqc=","tags":{"amenity":"atm","addr:full":"Слънчев Бряг, х-л Гранд Виктория","addr:country":"BG","name":"Гранд Виктория","opening_hours":"24/7","brand":"Postbank","brand:wikidata":"Q7234083","operator:wikidata":"Q7234083"},"coordinates":[42.69988805743347,27.717544997965984]},"tags_mismatch":false,"dist":0},{"osm":false,"atp":{"id":"wXyaqmvBNlET4WvDZ2kt4-9MhCA=","tags":{"amenity":"atm","addr:full":"КК Слънчев бряг, хотел „Авеню“","addr:country":"BG","name":"Изипей Слънчев бряг","opening_hours":"24/7","brand":"Postbank","brand:wikidata":"Q7234083","operator:wikidata":"Q7234083"},"coordinates":[42.69717621972322,27.71160449824876]},"tags_mismatch":false,"dist":0},{"osm":false,"atp":{"id":"mNldRgQhLpgtyNzBayDTn7SVzqo=","tags":{"amenity":"atm","addr:full":"kk Слънчев бряг - Platinum Casino & Hotel до хотел Еврика пешеходна алея","addr:country":"BG","name":"Платинум Казино и Хотел","brand":"Postbank","brand:wikidata":"Q7234083","operator:wikidata":"Q7234083"},"coordinates":[42.703893,27.721105]},"tags_mismatch":false,"dist":0},{"osm":false,"atp":{"id":"x6e39nCkiWDCFqXDR9OrY77xLRA=","tags":{"amenity":"atm","addr:full":"kk Слънчев бряг - Platinum Casino & Hotel до хотел Еврика пешеходна алея","addr:country":"BG","name":"Платинум Казино и хотел 2","opening_hours":"24/7","brand":"Postbank","brand:wikidata":"Q7234083","operator:wikidata":"Q7234083"},"coordinates":[42.704672,27.721979]},"tags_mismatch":false,"dist":0},{"osm":false,"atp":{"id":"FN_KNtW5WqGDJ-dp4nWdxtDMZpk=","tags":{"amenity":"atm","addr:full":"Слънчев Бряг, 8240 Несебър","addr:country":"BG","name":"Хотел Tia Maria","opening_hours":"24/7","brand":"Postbank","brand:wikidata":"Q7234083","operator:wikidata":"Q7234083"},"coordinates":[42.6868371815537,27.705203929223753]},"tags_mismatch":false,"dist":0},{"osm":false,"atp":{"id":"VwyIUghHuEgPLutVGiWWItychOU=","tags":{"amenity":"atm","addr:full":"Слънчев бряг","addr:country":"BG","name":"хотел Кубан","opening_hours":"24/7","brand":"Postbank","brand:wikidata":"Q7234083","operator:wikidata":"Q7234083"},"coordinates":[42.69465352407665,27.711459596622745]},"tags_mismatch":false,"dist":0},{"osm":false,"atp":{"id":"5PnSRVN6mSh3B4ZJzKFjZ3LC7Pg=","tags":{"amenity":"atm","addr:full":"Базар Лотус, ул. Осма","addr:country":"BG","name":"хотел Лотос ","opening_hours":"24/7","brand":"Postbank","brand:wikidata":"Q7234083","operator:wikidata":"Q7234083"},"coordinates":[42.68469360478451,27.70910439659885]},"tags_mismatch":false,"dist":0},{"osm":false,"atp":{"id":"xUHl3A7SmLSUwliINH8dhH5w5xo=","tags":{"amenity":"atm","addr:full":"кв. Устово, ул. „Ат. Шпарданов“21","addr:country":"BG","name":"Магазин за цветя ","opening_hours":"24/7","brand":"Postbank","brand:wikidata":"Q7234083","operator:wikidata":"Q7234083"},"coordinates":[41.57259757538985,24.78331541142141]},"tags_mismatch":false,"dist":0},{"osm":false,"atp":{"id":"U-5KkeKBOounDHSVep1DZzmdf7U=","tags":{"amenity":"atm","cash_in":"yes","addr:full":"Бул. България № 42","addr:country":"BG","name":"Смолян","opening_hours":"24/7","brand":"Postbank","brand:wikidata":"Q7234083","operator:wikidata":"Q7234083"},"coordinates":[41.5773692,24.6992441]},"tags_mismatch":false,"dist":0},{"osm":false,"atp":{"id":"m52BzjSpeTOLYGMXMY7Kp_8UlMM=","tags":{"amenity":"atm","addr:full":"Грийн лайф Созопол","addr:country":"BG","name":"Грийн лайф Созопол","opening_hours":"24/7","brand":"Postbank","brand:wikidata":"Q7234083","operator:wikidata":"Q7234083"},"coordinates":[42.41737,27.69636]},"tags_mismatch":false,"dist":0},{"osm":false,"atp":{"id":"adDk7GXp-ohgVkJOw95GBivg-KU=","tags":{"amenity":"atm","cash_in":"yes","addr:full":"ул. „Черно море“ 2","addr:country":"BG","name":"Созопол","opening_hours":"24/7","brand":"Postbank","brand:wikidata":"Q7234083","operator:wikidata":"Q7234083"},"coordinates":[42.41925404893389,27.6943498397153]},"tags_mismatch":false,"dist":0},{"osm":false,"atp":{"id":"xGvWmagxTWKp3Fv2sifi2ba3Fsw=","tags":{"amenity":"atm","addr:full":"бул. „Иван Вазов“ 53","addr:country":"BG","name":"Народно читалище","opening_hours":"24/7","brand":"Postbank","brand:wikidata":"Q7234083","operator:wikidata":"Q7234083"},"coordinates":[42.654310792320715,24.7572675947477]},"tags_mismatch":false,"dist":0},{"osm":false,"atp":{"id":"pB_z4qTQMese-8_iTgMXOGw-qhE=","tags":{"amenity":"atm","addr:full":"Ул. Васил Коларов №73","addr:country":"BG","name":"Заложна къща Средец","opening_hours":"24/7","brand":"Postbank","brand:wikidata":"Q7234083","operator:wikidata":"Q7234083"},"coordinates":[42.344856,27.18162]},"tags_mismatch":false,"dist":0},{"osm":false,"atp":{"id":"5bkj0zEEWaofHwrZtSXGCSha-M0=","tags":{"amenity":"atm","cash_in":"yes","addr:full":"Пл. България № 5","addr:country":"BG","name":"Средец","opening_hours":"24/7","brand":"Postbank","brand:wikidata":"Q7234083","operator:wikidata":"Q7234083"},"coordinates":[42.34695928373138,27.181544083991778]},"tags_mismatch":false,"dist":0},{"osm":false,"atp":{"id":"8fobY8Gb2FsGSApsR8I3NmTNkII=","tags":{"amenity":"atm","addr:full":"бул. Руски 75","addr:country":"BG","name":"Easy Pay Стара Загора","opening_hours":"24/7","brand":"Postbank","brand:wikidata":"Q7234083","operator:wikidata":"Q7234083"},"coordinates":[42.43170144166294,25.62574262707873]},"tags_mismatch":false,"dist":0},{"osm":false,"atp":{"id":"ZsOzXHbA1xvOIeJi_GBcRklmPVI=","tags":{"amenity":"atm","cash_in":"yes","addr:full":"Бул. Цар Симеон Велики №107А","addr:country":"BG","name":"Стара Загора Верея ","opening_hours":"24/7","brand":"Postbank","brand:wikidata":"Q7234083","operator:wikidata":"Q7234083"},"coordinates":[42.42432339918611,25.62532642890832]},"tags_mismatch":false,"dist":0},{"osm":false,"atp":{"id":"TwNqcmCcoxbj016EOGMq-tNCUUA=","tags":{"amenity":"atm","cash_in":"yes","addr:full":"Бул. Цар Симеон Велики №107А","addr:country":"BG","name":"Стара Загора Верея II","opening_hours":"Mo-Fr 08:30-17:00","brand":"Postbank","brand:wikidata":"Q7234083","operator:wikidata":"Q7234083"},"coordinates":[42.42431547949139,25.625347886580403]},"tags_mismatch":false,"dist":0},{"osm":false,"atp":{"id":"en9Lx4Ri3cgrW_6HJiEHVeYQZME=","tags":{"amenity":"atm","cash_in":"yes","addr:full":"бул. Св. Патриарх Евтимий №130","addr:country":"BG","name":"Стара Загора Север","opening_hours":"24/7","brand":"Postbank","brand:wikidata":"Q7234083","operator:wikidata":"Q7234083"},"coordinates":[42.428347582242274,25.63392448304908]},"tags_mismatch":false,"dist":0},{"osm":false,"atp":{"id":"dqW0I_znpH321os4AhcE0OUTeyw=","tags":{"amenity":"atm","cash_in":"yes","addr:full":"Ул. Любен Каравелов №65","addr:country":"BG","name":"Стара Загора Цар Симеон","opening_hours":"24/7","brand":"Postbank","brand:wikidata":"Q7234083","operator:wikidata":"Q7234083"},"coordinates":[42.426015,25.63773]},"tags_mismatch":false,"dist":0},{"osm":false,"atp":{"id":"hmfjHFmuIgkXcb2_UuW7u98HCwc=","tags":{"amenity":"atm","addr:full":"с. Стряма, местност Преселник, бензиностанция ИнсаОйл","addr:country":"BG","name":"ИнсаОйл Стряма","opening_hours":"24/7","brand":"Postbank","brand:wikidata":"Q7234083","operator:wikidata":"Q7234083"},"coordinates":[42.26634770001907,24.892009933392366]},"tags_mismatch":false,"dist":0},{"osm":false,"atp":{"id":"SFuFmpazB2paeCbw0XmnIRQ5Dto=","tags":{"amenity":"atm","addr:full":"Ул. Шипка №8","addr:country":"BG","name":"Супермаркет ЕТ Шени","opening_hours":"24/7","brand":"Postbank","brand:wikidata":"Q7234083","operator:wikidata":"Q7234083"},"coordinates":[43.328889,27.589448]},"tags_mismatch":false,"dist":0},{"osm":false,"atp":{"id":"baoVuHKlW_UAGq71_h1j709bTRs=","tags":{"amenity":"atm","cash_in":"yes","addr:full":"бул. „6-ти Септември“ 13","addr:country":"BG","name":"Община Съединение","opening_hours":"24/7","brand":"Postbank","brand:wikidata":"Q7234083","operator:wikidata":"Q7234083"},"coordinates":[42.27470758266782,24.543383298151557]},"tags_mismatch":false,"dist":0},{"osm":false,"atp":{"id":"1dCBEMco_qwrT6D6Nt7AYx4Gr0Q=","tags":{"amenity":"atm","addr:full":"ул. Хан Аспарух №37","addr:country":"BG","name":"Тервел","opening_hours":"24/7","brand":"Postbank","brand:wikidata":"Q7234083","operator:wikidata":"Q7234083"},"coordinates":[43.74896147266896,27.407970596679647]},"tags_mismatch":false,"dist":0},{"osm":false,"atp":{"id":"wGRJ5pkSDKri73KotuvwyD6ZoOE=","tags":{"amenity":"atm","cash_in":"yes","addr:full":"Ул. Иван Вазов №39","addr:country":"BG","name":"NEW Тетевен","opening_hours":"24/7","brand":"Postbank","brand:wikidata":"Q7234083","operator:wikidata":"Q7234083"},"coordinates":[42.9180056,24.266375]},"tags_mismatch":false,"dist":0},{"osm":false,"atp":{"id":"natDBgbY7Ohs8eBULPwV8eh3IWM=","tags":{"amenity":"atm","cash_in":"yes","addr:full":"ул. Васил Левски 76","addr:country":"BG","name":"Троян","opening_hours":"24/7","brand":"Postbank","brand:wikidata":"Q7234083","operator:wikidata":"Q7234083"},"coordinates":[42.8905487,24.715165]},"tags_mismatch":false,"dist":0},{"osm":false,"atp":{"id":"Mozn47IVQ1vJ46oLOLcCxtKae5M=","tags":{"amenity":"atm","addr:full":"Рудник Трояново","addr:country":"BG","name":"Рудник Трояново","opening_hours":"24/7","brand":"Postbank","brand:wikidata":"Q7234083","operator:wikidata":"Q7234083"},"coordinates":[42.195842,25.957947]},"tags_mismatch":false,"dist":0},{"osm":false,"atp":{"id":"MQVAr_u4SIiHHhj9UGDZ-I8MWF8=","tags":{"amenity":"atm","addr:full":"гр. Трявна; ул. Ангел Кънчев 22","addr:country":"BG","name":"Български пощи Трявна ","opening_hours":"24/7","brand":"Postbank","brand:wikidata":"Q7234083","operator:wikidata":"Q7234083"},"coordinates":[42.86622,25.49051]},"tags_mismatch":false,"dist":0},{"osm":false,"atp":{"id":"0Fhe67GO6R0HTVmRGEvUIdMvX4E=","tags":{"amenity":"atm","addr:full":"кв. Въбел, ул. Ал. Стамболийски","addr:country":"BG","name":"Shell Търговище","opening_hours":"24/7","brand":"Postbank","brand:wikidata":"Q7234083","operator:wikidata":"Q7234083"},"coordinates":[43.25718,26.531627]},"tags_mismatch":false,"dist":0},{"osm":false,"atp":{"id":"tropDBYVMUDfkUf_jhyCQP8ooq4=","tags":{"amenity":"atm","addr:full":"Бул. Сюрен 1","addr:country":"BG","name":"Аптека Панацея","brand":"Postbank","brand:wikidata":"Q7234083","operator:wikidata":"Q7234083"},"coordinates":[43.243088,26.56247]},"tags_mismatch":false,"dist":0},{"osm":false,"atp":{"id":"DEzMs5Atm6lZQBOwK-VJ4t75PQc=","tags":{"amenity":"atm","cash_in":"yes","addr:full":"ул. Цар Иван Асен №1","addr:country":"BG","name":"Търговище","opening_hours":"24/7","brand":"Postbank","brand:wikidata":"Q7234083","operator:wikidata":"Q7234083"},"coordinates":[43.24953782214386,26.57222396911503]},"tags_mismatch":false,"dist":0},{"osm":false,"atp":{"id":"_-2a3DTVw50IXOt0uOOb16Y31KQ=","tags":{"amenity":"atm","addr:full":"Пл. Независимост №1","addr:country":"BG","name":"Търговище II","opening_hours":"24/7","brand":"Postbank","brand:wikidata":"Q7234083","operator:wikidata":"Q7234083"},"coordinates":[43.2493556,26.5727357]},"tags_mismatch":false,"dist":0},{"osm":false,"atp":{"id":"vEtfcc8-svkQZ4l7re5rATsB5mI=","tags":{"amenity":"atm","cash_in":"yes","addr:full":"Ул. Ханска №2","addr:country":"BG","name":"Харманли","opening_hours":"24/7","brand":"Postbank","brand:wikidata":"Q7234083","operator:wikidata":"Q7234083"},"coordinates":[41.930404089217284,25.902484696559046]},"tags_mismatch":false,"dist":0},{"osm":false,"atp":{"id":"bzUSVeNva44_ZeZE4ZP8OO9Ol5k=","tags":{"amenity":"atm","addr:full":"бул. Съединение 22А","addr:country":"BG","name":"Братя Дочеви ООД","opening_hours":"24/7","brand":"Postbank","brand:wikidata":"Q7234083","operator:wikidata":"Q7234083"},"coordinates":[41.93128,25.55721]},"tags_mismatch":false,"dist":0},{"osm":false,"atp":{"id":"Moqh3PnNv94WR4zQoDrVyWvARd8=","tags":{"amenity":"atm","addr:full":"Ул. Сакар №2","addr:country":"BG","name":"ВИК","opening_hours":"24/7","brand":"Postbank","brand:wikidata":"Q7234083","operator:wikidata":"Q7234083"},"coordinates":[41.93128,25.55721]},"tags_mismatch":false,"dist":0},{"osm":false,"atp":{"id":"HwRlrYLHsLrrzGUw4t53EOV314w=","tags":{"amenity":"atm","addr:full":"Ул. Омуртаг №2","addr:country":"BG","name":"РУМИС АБАГАР ЕООД","opening_hours":"24/7","brand":"Postbank","brand:wikidata":"Q7234083","operator:wikidata":"Q7234083"},"coordinates":[41.93128,25.55721]},"tags_mismatch":false,"dist":0},{"osm":false,"atp":{"id":"BXm1y_LetWpGr0C7IUtDM_HolUc=","tags":{"amenity":"atm","cash_in":"yes","addr:full":"пл. Свобода 7","addr:country":"BG","name":"Хасково Свобода","opening_hours":"24/7","brand":"Postbank","brand:wikidata":"Q7234083","operator:wikidata":"Q7234083"},"coordinates":[41.933455153448776,25.557666686885124]},"tags_mismatch":false,"dist":0},{"osm":false,"atp":{"id":"OMheZSBwawe01yY1326JVhEA10U=","tags":{"amenity":"atm","addr:full":"пл. „Градска Болница“ 1","addr:country":"BG","name":"площад Градска болница","opening_hours":"24/7","brand":"Postbank","brand:wikidata":"Q7234083","operator:wikidata":"Q7234083"},"coordinates":[41.93041939828889,25.556615667816594]},"tags_mismatch":false,"dist":0},{"osm":false,"atp":{"id":"Ko4z3ivihtPclrZyUZtdFlGuVxs=","tags":{"amenity":"atm","addr:full":"Ул. Генерал Гурко №25","addr:country":"BG","name":"Хисаря","opening_hours":"24/7","brand":"Postbank","brand:wikidata":"Q7234083","operator:wikidata":"Q7234083"},"coordinates":[42.505975,24.708278]},"tags_mismatch":false,"dist":0},{"osm":false,"atp":{"id":"N57Z-FZySYaNQA_b0p-glWlYG1w=","tags":{"amenity":"atm","cash_in":"yes","addr:full":"Ул. Търговска №12А","addr:country":"BG","name":"Червен бряг","opening_hours":"24/7","brand":"Postbank","brand:wikidata":"Q7234083","operator:wikidata":"Q7234083"},"coordinates":[43.1327945,24.7161057]},"tags_mismatch":false,"dist":0},{"osm":false,"atp":{"id":"Of6p1ZpQ8Ou8Y1BcFGeHpAMPPEc=","tags":{"amenity":"atm","addr:full":"път Е-79, посока Кулата","addr:country":"BG","name":"EKO с. Чучилигово","opening_hours":"24/7","brand":"Postbank","brand:wikidata":"Q7234083","operator:wikidata":"Q7234083"},"coordinates":[41.46787593242015,23.32861332216375]},"tags_mismatch":false,"dist":0},{"osm":false,"atp":{"id":"Evw3wbWr0WPeEzlMhEaoanyusks=","tags":{"amenity":"atm","addr:full":"М. Капсиди №22, землище на с.Чучулигово, Автомагистрала Струма (Гърция - София)","addr:country":"BG","name":"Казино FBET","opening_hours":"24/7","brand":"Postbank","brand:wikidata":"Q7234083","operator:wikidata":"Q7234083"},"coordinates":[41.3932538,23.3588494]},"tags_mismatch":false,"dist":0},{"osm":false,"atp":{"id":"fjl3YoBAEp93UmdHn35n8w6Enqw=","tags":{"amenity":"atm","addr:full":"бул. Плиска 1","addr:country":"BG","name":"Енерго-про Шумен","opening_hours":"Mo-Su 00:24-00:24","brand":"Postbank","brand:wikidata":"Q7234083","operator:wikidata":"Q7234083"},"coordinates":[43.272296254922956,26.93904639736631]},"tags_mismatch":false,"dist":0},{"osm":false,"atp":{"id":"ESrC3xF8bMrHy2aZ0UK-8IHa2jk=","tags":{"amenity":"atm","addr:full":"Бул. Мадара №31","addr:country":"BG","name":"Магазин РИНО","opening_hours":"24/7","brand":"Postbank","brand:wikidata":"Q7234083","operator:wikidata":"Q7234083"},"coordinates":[43.2696814,26.9425307]},"tags_mismatch":false,"dist":0},{"osm":false,"atp":{"id":"7zCyyxW10aEE3ayr4hK60A_kIvQ=","tags":{"amenity":"atm","addr:full":"Бул. Симеон Велики №41","addr:country":"BG","name":"Супермаркет Ешрефоглу","opening_hours":"Mo-Sa 07:30-21:00; Su 08:30-21:00","brand":"Postbank","brand:wikidata":"Q7234083","operator:wikidata":"Q7234083"},"coordinates":[43.276667,26.950712]},"tags_mismatch":false,"dist":0},{"osm":false,"atp":{"id":"QkKZs4SH0ZCBiPyUtPajDkxFP1A=","tags":{"amenity":"atm","addr:full":"Кв. Боян Българанов, ул. Ген. Драгомиров","addr:country":"BG","name":"Супермаркет Юнион 2","opening_hours":"24/7","brand":"Postbank","brand:wikidata":"Q7234083","operator:wikidata":"Q7234083"},"coordinates":[43.2712398,26.9361286]},"tags_mismatch":false,"dist":0},{"osm":false,"atp":{"id":"pIbfq7N2IIRMdabzidfCFLPpQv0=","tags":{"amenity":"atm","addr:full":"бул. „Славянски“ 88","addr:country":"BG","name":"Хранителни добавки","opening_hours":"24/7","brand":"Postbank","brand:wikidata":"Q7234083","operator:wikidata":"Q7234083"},"coordinates":[43.27101928866693,26.924223257651455]},"tags_mismatch":false,"dist":0},{"osm":false,"atp":{"id":"4HChaBVTNIMxLJ1bZBE3aBijAyc=","tags":{"amenity":"atm","cash_in":"yes","addr:full":"Пл. България №1","addr:country":"BG","name":"Шумен България","opening_hours":"24/7","brand":"Postbank","brand:wikidata":"Q7234083","operator:wikidata":"Q7234083"},"coordinates":[43.2719086,26.935131]},"tags_mismatch":false,"dist":0},{"osm":false,"atp":{"id":"LXwBNgMwv4ylhzX6d-lnW3wWeF0=","tags":{"amenity":"atm","cash_in":"yes","addr:full":"ул. Цар Освободител №103","addr:country":"BG","name":"Шумен Цар Освободител","opening_hours":"24/7","brand":"Postbank","brand:wikidata":"Q7234083","operator:wikidata":"Q7234083"},"coordinates":[43.27240178445954,26.92644496942581]},"tags_mismatch":false,"dist":0},{"osm":false,"atp":{"id":"bAGjN_SCHd5i1lTNUmiTIyD7dZc=","tags":{"amenity":"atm","addr:full":"Ул. Преслав №82","addr:country":"BG","name":" Бърз Кредит ЕООД","opening_hours":"24/7","brand":"Postbank","brand:wikidata":"Q7234083","operator:wikidata":"Q7234083"},"coordinates":[42.48377,26.51077]},"tags_mismatch":false,"dist":0},{"osm":false,"atp":{"id":"igdznRcPfJ7Q08lGe5PiVnnfIP4=","tags":{"amenity":"atm","addr:full":"ТЦ Ямбол парк","addr:country":"BG","name":"Диана кабел ","opening_hours":"24/7","brand":"Postbank","brand:wikidata":"Q7234083","operator:wikidata":"Q7234083"},"coordinates":[42.4786694528685,26.518249259241237]},"tags_mismatch":false,"dist":0},{"osm":false,"atp":{"id":"hQv8tGu_CkbjxOI0Yhw3HiDWvn0=","tags":{"amenity":"atm","cash_in":"yes","addr:full":"Ул. Георги Дражев №5","addr:country":"BG","name":"Ямбол Георги Дражев","opening_hours":"24/7","brand":"Postbank","brand:wikidata":"Q7234083","operator:wikidata":"Q7234083"},"coordinates":[42.4840948,26.5041614]},"tags_mismatch":false,"dist":0},{"osm":false,"atp":{"id":"SF81wtvBE2NUGuWwbBbg2Qkww44=","tags":{"amenity":"atm","addr:full":"Ул. Георги Димитров №17","addr:country":"BG","name":"Супермаркет Джими","opening_hours":"24/7","brand":"Postbank","brand:wikidata":"Q7234083","operator:wikidata":"Q7234083"},"coordinates":[43.429407,24.522653]},"tags_mismatch":false,"dist":0},{"osm":false,"atp":{"id":"md1sjh0B2A0ZYJIFjs-HI781JpE=","tags":{"amenity":"atm","addr:full":"Ул. Георги Димитров №2","addr:country":"BG","name":"Супермаркет Десиан","opening_hours":"24/7","brand":"Postbank","brand:wikidata":"Q7234083","operator:wikidata":"Q7234083"},"coordinates":[41.461755,23.221999]},"tags_mismatch":false,"dist":0},{"osm":false,"atp":{"id":"gHXBZRHFwIQNvPkVA4oN6kT20sY=","tags":{"amenity":"atm","addr:full":"Ул. Мануш Войвода №2","addr:country":"BG","name":"Оки Консулт","opening_hours":"24/7","brand":"Postbank","brand:wikidata":"Q7234083","operator:wikidata":"Q7234083"},"coordinates":[41.401244,23.13821]},"tags_mismatch":false,"dist":0}]}