{"metadata":{"type":"brand","wikidata":"Q12279603","name":"Еконт","compare_keys":["opening_hours"],"key":"amenity","value":"parcel_locker"},"data":[{"osm":{"type":"node","id":5018753083,"tags":{"alt_name":"Еконтомат","alt_name:bg":"Еконтомат","alt_name:en":"Econtomat","amenity":"parcel_locker","brand":"Еконт","brand:wikidata":"Q12279603","check_date":"2021-08-25","indoor":"no","int_name":"Econtomat","opening_hours":"24/7","parcel_mail_in":"yes","parcel_pickup":"yes"},"wikidata":"Q12279603","coordinates":[42.6676077,23.2909828]},"atp":{"id":"mps2BwsJTGjsXakid-ZgTIG1Gmk=","tags":{"ref":"39826","amenity":"parcel_locker","@source_uri":"https://ee.econt.com/services/Nomenclatures/NomenclaturesService.getOffices.json","@spider":"econt_bg","alt_name":"Еконтомат","alt_name:bg":"Еконтомат","alt_name:en":"Econtomat","parcel_mail_in":"yes","parcel_pickup":"yes","addr:full":"София бул. България №49В","addr:housenumber":"49В","addr:street":"бул. България","addr:city":"София","addr:country":"BG","email":"econtomat_sofia@econt.com","opening_hours":"24/7","brand":"Еконт","brand:wikidata":"Q12279603","nsi_id":"econt-8234c4"},"coordinates":[42.6676346,23.290914]},"dist":6.371,"tags_mismatch":false},{"osm":{"type":"node","id":5390122373,"tags":{"alt_name":"Еконтомат","alt_name:bg":"Еконтомат","alt_name:en":"Econtomat","amenity":"parcel_locker","brand":"Еконт","brand:wikidata":"Q12279603","parcel_mail_in":"yes"},"wikidata":"Q12279603","coordinates":[42.7105058,23.3083411]},"atp":{"id":"X_BWsXIhJBrOnjew8_hNTxawLaM=","tags":{"ref":"41507","amenity":"parcel_locker","@source_uri":"https://ee.econt.com/services/Nomenclatures/NomenclaturesService.getOffices.json","@spider":"econt_bg","alt_name":"Еконтомат","alt_name:bg":"Еконтомат","alt_name:en":"Econtomat","parcel_mail_in":"yes","parcel_pickup":"yes","addr:full":"София бул. Ген. Николай Г. Столетов №33","addr:housenumber":"33","addr:street":"бул. Ген. Николай Г. Столетов","addr:city":"София","addr:country":"BG","email":"angel_angelov@econt.com","opening_hours":"24/7","brand":"Еконт","brand:wikidata":"Q12279603","nsi_id":"econt-8234c4"},"coordinates":[42.710624,23.3086501]},"dist":28.463,"tags_mismatch":true},{"osm":{"type":"node","id":6399356894,"tags":{"alt_name":"Еконтомат","alt_name:bg":"Еконтомат","alt_name:en":"Econtomat","amenity":"parcel_locker","brand":"Еконт","brand:wikidata":"Q12279603","collection_times":"Mo-Fr 18:00; Sa 13:10","description":"Час на поставяне на пратките: 09:10","opening_hours":"Mo-Su 10:00-22:00","parcel_mail_in":"yes","ref":"9036","website":"https://www.econt.com/services/econtomat"},"wikidata":"Q12279603","coordinates":[43.2201269,27.8893593]},"atp":{"id":"476prdybZUrqemXsVacGdjm-C9A=","tags":{"ref":"33994","amenity":"parcel_locker","@source_uri":"https://ee.econt.com/services/Nomenclatures/NomenclaturesService.getOffices.json","@spider":"econt_bg","alt_name":"Еконтомат","alt_name:bg":"Еконтомат","alt_name:en":"Econtomat","parcel_mail_in":"yes","parcel_pickup":"yes","addr:full":"Варна бул. Владислав Варненчик №186","addr:housenumber":"186","addr:street":"бул. Владислав Варненчик","addr:city":"Варна","addr:country":"BG","phone":"+359 87 992 2533","email":"dimitar_dimitrov_vn@econt.com","opening_hours":"24/7","brand":"Еконт","brand:wikidata":"Q12279603","nsi_id":"econt-8234c4"},"coordinates":[43.220109472449245,27.889346093254062]},"dist":2.214,"tags_mismatch":true},{"osm":{"type":"node","id":6399356895,"tags":{"alt_name":"Еконтомат","alt_name:bg":"Еконтомат","alt_name:en":"Econtomat","amenity":"parcel_locker","brand":"Еконт","brand:wikidata":"Q12279603","collection_times":"Mo-Fr 17:45; Sa 13:00","colour":"blue","description":"Час на поставяне на пратките: 09:30 пон-съб","opening_hours":"24/7","parcel_locker:type":"cabinet","parcel_mail_in":"yes","parcel_pickup":"yes","ref":"9043","surveillance":"outdoor","website":"https://www.econt.com/services/econtomat","wheelchair":"yes"},"wikidata":"Q12279603","coordinates":[43.2195208,27.9271804]},"atp":{"id":"VnaB13cmwVWBotAcf4Z59Q9g828=","tags":{"ref":"39852","amenity":"parcel_locker","@source_uri":"https://ee.econt.com/services/Nomenclatures/NomenclaturesService.getOffices.json","@spider":"econt_bg","alt_name":"Еконтомат","alt_name:bg":"Еконтомат","alt_name:en":"Econtomat","parcel_mail_in":"yes","parcel_pickup":"yes","addr:full":"Варна ул. Мир №1","addr:housenumber":"1","addr:street":"ул. Мир","addr:city":"Варна","addr:country":"BG","phone":"+359 87 992 2337","email":"desislava_ignatova@econt.com","opening_hours":"24/7","brand":"Еконт","brand:wikidata":"Q12279603","nsi_id":"econt-8234c4"},"coordinates":[43.2202291,27.9264908]},"dist":96.569,"tags_mismatch":false},{"osm":{"type":"node","id":6399392724,"tags":{"alt_name":"Еконтомат","alt_name:bg":"Еконтомат","alt_name:en":"Econtomat","amenity":"parcel_locker","brand":"Еконт","brand:wikidata":"Q12279603","collection_times":"Mo-Fr 18:00; Sa 13:10","description":"Час на поставяне на пратките: 09:15 пон-съб","fixme":"Place the point / node in the right place, add working hours.","parcel_mail_in":"yes","ref":"8029","website":"https://www.econt.com/services/econtomat"},"wikidata":"Q12279603","coordinates":[42.5306454,27.4575946]},"atp":false,"tags_mismatch":false},{"osm":{"type":"node","id":6399392725,"tags":{"alt_name":"Еконтомат","alt_name:bg":"Еконтомат","alt_name:en":"Econtomat","amenity":"parcel_locker","brand":"Еконт","brand:wikidata":"Q12279603","collection_times":"Mo-Fr 17:45; Sa 12:45","description":"Час на поставяне на пратките: 09:15 пон-съб","parcel_mail_in":"yes","ref":"8015","website":"https://www.econt.com/services/econtomat"},"wikidata":"Q12279603","coordinates":[42.502912,27.4580667]},"atp":{"id":"NM5tm-RXM5agGxe8oIEWI_dZocs=","tags":{"ref":"34024","amenity":"parcel_locker","@source_uri":"https://ee.econt.com/services/Nomenclatures/NomenclaturesService.getOffices.json","@spider":"econt_bg","alt_name":"Еконтомат","alt_name:bg":"Еконтомат","alt_name:en":"Econtomat","parcel_mail_in":"yes","parcel_pickup":"yes","addr:full":"Бургас ул. Марица №2","addr:housenumber":"2","addr:street":"ул. Марица","addr:city":"Бургас","addr:country":"BG","phone":"+359 700 17 300","email":"bourgas_lazur@econt.com","opening_hours":"24/7","brand":"Еконт","brand:wikidata":"Q12279603","nsi_id":"econt-8234c4"},"coordinates":[42.50332609958528,27.458139855155963]},"dist":46.435,"tags_mismatch":true},{"osm":{"type":"node","id":6399416504,"tags":{"alt_name":"Еконтомат","alt_name:bg":"Еконтомат","alt_name:en":"Econtomat","amenity":"parcel_locker","brand":"Еконт","brand:wikidata":"Q12279603","collection_times":"Mo-Fr 17:55; Sa 13:00","description":"Час на поставяне на пратките: 09:20 пон-съб","parcel_mail_in":"yes","ref":"9313","website":"https://www.econt.com/services/econtomat"},"wikidata":"Q12279603","coordinates":[43.5713571,27.832833]},"atp":false,"tags_mismatch":false},{"osm":{"type":"node","id":6399435068,"tags":{"alt_name":"Еконтомат","alt_name:bg":"Еконтомат","alt_name:en":"Econtomat","amenity":"parcel_locker","brand":"Еконт","brand:wikidata":"Q12279603","collection_times":"Mo-Fr 18:20; Sa 13:30","description":"Час на поставяне на пратките: 08:50 пон-съб","parcel_mail_in":"yes","ref":"9712","website":"https://www.econt.com/services/econtomat"},"wikidata":"Q12279603","coordinates":[43.2700759,26.9362885]},"atp":false,"tags_mismatch":false},{"osm":{"type":"node","id":6399446970,"tags":{"alt_name":"Еконтомат","alt_name:bg":"Еконтомат","alt_name:en":"Econtomat","amenity":"parcel_locker","brand":"Еконт","brand:wikidata":"Q12279603","collection_times":"Mo-Fr 18:00; Sa 13:00","description":"Час на поставяне на пратките: 09:30 пон-съб","opening_hours":"Mo-Su 10:00-21:00","parcel_mail_in":"yes","ref":"5020","website":"https://www.econt.com/services/econtomat"},"wikidata":"Q12279603","coordinates":[43.0791922,25.5997599]},"atp":false,"tags_mismatch":false},{"osm":{"type":"node","id":6399466408,"tags":{"alt_name":"Еконтомат","alt_name:bg":"Еконтомат","alt_name:en":"Econtomat","amenity":"parcel_locker","brand":"Еконт","brand:wikidata":"Q12279603","collection_times":"Mo-Fr 17:30; Sa 13:00","description":"Час на поставяне на пратките: 09:30 пон-съб","fixme":"I am not sure of the exact location. Please someone local fix it.","opening_hours":"24/7","parcel_mail_in":"yes","ref":"5225","website":"https://www.econt.com/services/econtomat"},"wikidata":"Q12279603","coordinates":[43.2386239,25.3068036]},"atp":false,"tags_mismatch":false},{"osm":{"type":"node","id":6399481143,"tags":{"alt_name":"Еконтомат","alt_name:bg":"Еконтомат","alt_name:en":"Econtomat","amenity":"parcel_locker","brand":"Еконт","brand:wikidata":"Q12279603","collection_times":"Mo-Fr 18:25; Sa 13:30","description":"Час на поставяне на пратките: 09:10 пон-съб","opening_hours":"24/7","parcel_mail_in":"yes","ref":"5816","website":"https://www.econt.com/services/econtomat"},"wikidata":"Q12279603","coordinates":[43.4196128,24.615703]},"atp":false,"tags_mismatch":false},{"osm":{"type":"node","id":6399495596,"tags":{"alt_name":"Еконтомат","alt_name:bg":"Еконтомат","alt_name:en":"Econtomat","amenity":"parcel_locker","brand":"Еконт","brand:wikidata":"Q12279603","collection_times":"Mo-Fr 18:00; Sa 13:00","description":"Час на поставяне на пратките: 08:45 пон-съб","opening_hours":"24/7","parcel_mail_in":"yes","ref":"3009","website":"https://www.econt.com/services/econtomat"},"wikidata":"Q12279603","coordinates":[43.2050687,23.5556242]},"atp":false,"tags_mismatch":false},{"osm":{"type":"node","id":6399505064,"tags":{"alt_name":"Еконтомат","alt_name:bg":"Еконтомат","alt_name:en":"Econtomat","amenity":"parcel_locker","brand":"Еконт","brand:wikidata":"Q12279603","collection_times":"Mo-Fr 18:15, Sa 13:10","description":"Час на поставяне на пратките: 08:45 пон-съб","opening_hours":"24/7","parcel_mail_in":"yes","ref":"2308","website":"https://www.econt.com/services/econtomat"},"wikidata":"Q12279603","coordinates":[42.602183,23.0305134]},"atp":false,"tags_mismatch":false},{"osm":{"type":"node","id":6399515446,"tags":{"alt_name":"Еконтомат","alt_name:bg":"Еконтомат","alt_name:en":"Econtomat","amenity":"parcel_locker","brand":"Еконт","brand:wikidata":"Q12279603","collection_times":"Mo-Fr 17:50; Sa 12:40","description":"Час на поставяне на пратките: 09:40 пон-съб","opening_hours":"24/7","parcel_mail_in":"yes","ref":"5982","website":"https://www.econt.com/services/econtomat"},"wikidata":"Q12279603","coordinates":[43.2805357,24.0814029]},"atp":false,"tags_mismatch":false},{"osm":{"type":"node","id":6399520641,"tags":{"alt_name":"Еконтомат","alt_name:bg":"Еконтомат","alt_name:en":"Econtomat","amenity":"parcel_locker","brand":"Еконт","brand:wikidata":"Q12279603","collection_times":"Mo-Fr 17:55; Sa 13:00","description":"Час на поставяне на пратките: 08:55 пон-съб","opening_hours":"24/7","parcel_mail_in":"yes","ref":"5403","website":"https://www.econt.com/services/econtomat"},"wikidata":"Q12279603","coordinates":[43.0254937,25.1046121]},"atp":false,"tags_mismatch":false},{"osm":{"type":"node","id":6399528439,"tags":{"alt_name":"Еконтомат","alt_name:bg":"Еконтомат","alt_name:en":"Econtomat","amenity":"parcel_locker","brand":"Еконт","brand:wikidata":"Q12279603","collection_times":"Mo-Fr 19:00; Sa 13:00","description":"Час на поставяне на пратките: 08:53 пон-съб","opening_hours":"24/7","parcel_mail_in":"yes","ref":"8805","website":"https://www.econt.com/services/econtomat"},"wikidata":"Q12279603","coordinates":[42.6757814,26.3244485]},"atp":false,"tags_mismatch":false},{"osm":{"type":"node","id":6399540307,"tags":{"alt_name":"Еконтомат","alt_name:bg":"Еконтомат","alt_name:en":"Econtomat","amenity":"parcel_locker","brand":"Еконт","brand:wikidata":"Q12279603","collection_times":"Mo-Fr 19:00; Sa 13:00","description":"Час на поставяне на пратките: 10:00 пон-съб","opening_hours":"24/7","parcel_mail_in":"yes","ref":"1704","website":"https://www.econt.com/services/econtomat"},"wikidata":"Q12279603","coordinates":[42.7107906,23.2718669]},"atp":{"id":"Se1JGObqsHO_gPOfVsJNmJvI7z0=","tags":{"ref":"41504","amenity":"parcel_locker","@source_uri":"https://ee.econt.com/services/Nomenclatures/NomenclaturesService.getOffices.json","@spider":"econt_bg","alt_name":"Еконтомат","alt_name:bg":"Еконтомат","alt_name:en":"Econtomat","parcel_mail_in":"yes","parcel_pickup":"yes","addr:full":"София бул. Царица Йоанна №10 до магазин Лабиринт","addr:housenumber":"10","addr:street":"бул. Царица Йоанна","addr:city":"София","addr:country":"BG","email":"angel_angelov@econt.com","opening_hours":"24/7","brand":"Еконт","brand:wikidata":"Q12279603","nsi_id":"econt-8234c4"},"coordinates":[42.71112,23.27159]},"dist":43.051,"tags_mismatch":false},{"osm":{"type":"node","id":6695265980,"tags":{"addr:place":"OMV Опълченска","alt_name":"Еконтомат","alt_name:bg":"Еконтомат","alt_name:en":"Econtomat","amenity":"parcel_locker","brand":"Еконт","brand:wikidata":"Q12279603","indoor":"no","opening_hours":"24/7","parcel_mail_in":"yes","parcel_pickup":"yes"},"wikidata":"Q12279603","coordinates":[42.703297,23.3107236]},"atp":{"id":"-LDq18sBCGhgb74hnWbY-B65qeg=","tags":{"ref":"41505","amenity":"parcel_locker","@source_uri":"https://ee.econt.com/services/Nomenclatures/NomenclaturesService.getOffices.json","@spider":"econt_bg","alt_name":"Еконтомат","alt_name:bg":"Еконтомат","alt_name:en":"Econtomat","parcel_mail_in":"yes","parcel_pickup":"yes","addr:full":"София ул. Опълченска №35","addr:housenumber":"35","addr:street":"ул. Опълченска","addr:city":"София","addr:country":"BG","email":"angel_angelov@econt.com","opening_hours":"24/7","brand":"Еконт","brand:wikidata":"Q12279603","nsi_id":"econt-8234c4"},"coordinates":[42.703403,23.310764]},"dist":12.24,"tags_mismatch":false},{"osm":{"type":"node","id":9692822902,"tags":{"alt_name":"Еконтомат","alt_name:bg":"Еконтомат","alt_name:en":"Econtomat","amenity":"parcel_locker","brand":"Еконт","brand:wikidata":"Q12279603","parcel_mail_in":"yes"},"wikidata":"Q12279603","coordinates":[42.9210499,22.9288117]},"atp":false,"tags_mismatch":false},{"osm":{"type":"node","id":10264904408,"tags":{"alt_name":"Еконтомат","alt_name:bg":"Еконтомат","alt_name:en":"Econtomat","amenity":"parcel_locker","brand":"Еконт","brand:wikidata":"Q12279603","parcel_mail_in":"yes"},"wikidata":"Q12279603","coordinates":[42.7077639,23.3416722]},"atp":{"id":"rUtYvp9CQ9OCP7mq2dvh708koYQ=","tags":{"ref":"41508","amenity":"parcel_locker","@source_uri":"https://ee.econt.com/services/Nomenclatures/NomenclaturesService.getOffices.json","@spider":"econt_bg","alt_name":"Еконтомат","alt_name:bg":"Еконтомат","alt_name:en":"Econtomat","parcel_mail_in":"yes","parcel_pickup":"yes","addr:full":"София ул. Резбарска №4","addr:housenumber":"4","addr:street":"ул. Резбарска","addr:city":"София","addr:country":"BG","email":"angel_angelov@econt.com","opening_hours":"24/7","brand":"Еконт","brand:wikidata":"Q12279603","nsi_id":"econt-8234c4"},"coordinates":[42.707959,23.3419013]},"dist":28.654,"tags_mismatch":true},{"osm":{"type":"node","id":10652745711,"tags":{"addr:city":"София","addr:postcode":"1113","addr:street":"бул. Цариградско шосе","addr:streetnumber":"56","alt_name":"Еконтомат","alt_name:bg":"Еконтомат","alt_name:en":"Econtomat","amenity":"parcel_locker","brand":"Еконт","brand:wikidata":"Q12279603","email":"econtomat_sofia@econt.com","indoor":"no","opening_hours":"24/7","parcel_mail_in":"yes","parcel_pickup":"yes","phone":"+359 7001 7300"},"wikidata":"Q12279603","coordinates":[42.6615568,23.3776628]},"atp":{"id":"em9752LXGfgV8TvirVQCyeZt-MA=","tags":{"ref":"39830","amenity":"parcel_locker","@source_uri":"https://ee.econt.com/services/Nomenclatures/NomenclaturesService.getOffices.json","@spider":"econt_bg","alt_name":"Еконтомат","alt_name:bg":"Еконтомат","alt_name:en":"Econtomat","parcel_mail_in":"yes","parcel_pickup":"yes","addr:full":"София кв. Младост-1 бул. Цариградско шосе №56","addr:housenumber":"56","addr:street":"бул. Цариградско шосе","addr:city":"София","addr:country":"BG","phone":"+359 700 17 300","email":"econtomat_sofia@econt.com","opening_hours":"24/7","brand":"Еконт","brand:wikidata":"Q12279603","nsi_id":"econt-8234c4"},"coordinates":[42.6635214,23.3745525]},"dist":335.264,"tags_mismatch":false},{"osm":{"type":"node","id":11128941162,"tags":{"alt_name":"Еконтомат","alt_name:bg":"Еконтомат","alt_name:en":"Econtomat","amenity":"parcel_locker","brand":"Еконт","brand:wikidata":"Q12279603","parcel_mail_in":"yes"},"wikidata":"Q12279603","coordinates":[42.7328454,23.3143777]},"atp":false,"tags_mismatch":false},{"osm":{"type":"node","id":11329351526,"tags":{"alt_name":"Еконтомат","alt_name:bg":"Еконтомат","alt_name:en":"Econtomat","amenity":"parcel_locker","brand":"Еконт","brand:wikidata":"Q12279603","parcel_mail_in":"yes","parcel_pickup":"yes"},"wikidata":"Q12279603","coordinates":[42.6509641,23.3574804]},"atp":{"id":"vGTFU27p4H1idLCi9mHbhTQhroo=","tags":{"ref":"39828","amenity":"parcel_locker","@source_uri":"https://ee.econt.com/services/Nomenclatures/NomenclaturesService.getOffices.json","@spider":"econt_bg","alt_name":"Еконтомат","alt_name:bg":"Еконтомат","alt_name:en":"Econtomat","parcel_mail_in":"yes","parcel_pickup":"yes","addr:full":"София ул. 8-ми декември №1","addr:housenumber":"1","addr:street":"ул. 8-ми декември","addr:city":"София","addr:country":"BG","email":"econtomat_sofia@econt.com","opening_hours":"24/7","brand":"Еконт","brand:wikidata":"Q12279603","nsi_id":"econt-8234c4"},"coordinates":[42.6510103,23.3576023]},"dist":11.215,"tags_mismatch":true},{"osm":{"type":"node","id":11750599141,"tags":{"alt_name":"Еконтомат","alt_name:bg":"Еконтомат","alt_name:en":"Econtomat","amenity":"parcel_locker","brand":"Еконт","brand:wikidata":"Q12279603","parcel_mail_in":"yes","parcel_pickup":"yes"},"wikidata":"Q12279603","coordinates":[42.6587915,23.347658]},"atp":{"id":"3F4-YSFG5xJP-vyQK_moLpI27r0=","tags":{"ref":"41511","amenity":"parcel_locker","@source_uri":"https://ee.econt.com/services/Nomenclatures/NomenclaturesService.getOffices.json","@spider":"econt_bg","alt_name":"Еконтомат","alt_name:bg":"Еконтомат","alt_name:en":"Econtomat","parcel_mail_in":"yes","parcel_pickup":"yes","addr:full":"София бул. Д-р Г. М. Димитров №77","addr:housenumber":"77","addr:street":"бул. Д-р Г. М. Димитров","addr:city":"София","addr:country":"BG","email":"angel_angelov@econt.com","opening_hours":"24/7","brand":"Еконт","brand:wikidata":"Q12279603","nsi_id":"econt-8234c4"},"coordinates":[42.658956,23.34701]},"dist":56.057,"tags_mismatch":true},{"osm":{"type":"node","id":11850655234,"tags":{"alt_name":"Еконтомат","alt_name:bg":"Еконтомат","alt_name:en":"Econtomat","amenity":"parcel_locker","brand":"Еконт","brand:wikidata":"Q12279603","parcel_mail_in":"yes","parcel_pickup":"yes"},"wikidata":"Q12279603","coordinates":[42.6513319,23.3797979]},"atp":{"id":"AFWuY2rBdpsHLG_KRw0srec_1js=","tags":{"ref":"39831","amenity":"parcel_locker","@source_uri":"https://ee.econt.com/services/Nomenclatures/NomenclaturesService.getOffices.json","@spider":"econt_bg","alt_name":"Еконтомат","alt_name:bg":"Еконтомат","alt_name:en":"Econtomat","parcel_mail_in":"yes","parcel_pickup":"yes","addr:full":"София бул. Александър Малинов №27","addr:housenumber":"27","addr:street":"бул. Александър Малинов","addr:city":"София","addr:country":"BG","email":"econtomat_sofia@econt.com","opening_hours":"24/7","brand":"Еконт","brand:wikidata":"Q12279603","nsi_id":"econt-8234c4"},"coordinates":[42.6516167,23.3800359]},"dist":37.172,"tags_mismatch":true},{"osm":{"type":"node","id":11929022991,"tags":{"alt_name":"Еконтомат","alt_name:bg":"Еконтомат","alt_name:en":"Econtomat","amenity":"parcel_locker","brand":"Еконт","brand:wikidata":"Q12279603","location":"outdoor","opening_hours":"24/7","parcel_mail_in":"yes","parcel_pickup":"yes"},"wikidata":"Q12279603","coordinates":[42.6591181,23.3008043]},"atp":false,"tags_mismatch":false},{"osm":{"type":"node","id":12080634644,"tags":{"alt_name":"Еконтомат","alt_name:bg":"Еконтомат","alt_name:en":"Econtomat","amenity":"parcel_locker","brand":"Еконт","brand:wikidata":"Q12279603","location":"outdoor","opening_hours":"24/7","parcel_mail_in":"yes","parcel_pickup":"yes"},"wikidata":"Q12279603","coordinates":[42.1579476,24.7343352]},"atp":{"id":"K1dduzsjUS9Hf8vVMdiawkz28BI=","tags":{"ref":"38372","amenity":"parcel_locker","@source_uri":"https://ee.econt.com/services/Nomenclatures/NomenclaturesService.getOffices.json","@spider":"econt_bg","alt_name":"Еконтомат","alt_name:bg":"Еконтомат","alt_name:en":"Econtomat","parcel_mail_in":"yes","parcel_pickup":"yes","addr:full":"Пловдив бул. България №97","addr:housenumber":"97","addr:street":"бул. България","addr:city":"Пловдив","addr:country":"BG","phone":"+359 87 530 6675","email":"plovdiv_kuklensko@econt.com","opening_hours":"24/7","brand":"Еконт","brand:wikidata":"Q12279603","nsi_id":"econt-8234c4"},"coordinates":[42.15801,24.73552]},"dist":97.907,"tags_mismatch":false},{"osm":{"type":"node","id":12080647066,"tags":{"alt_name":"Еконтомат","alt_name:bg":"Еконтомат","alt_name:en":"Econtomat","amenity":"parcel_locker","brand":"Еконт","brand:wikidata":"Q12279603","location":"outdoor","opening_hours":"24/7","parcel_mail_in":"yes","parcel_pickup":"yes"},"wikidata":"Q12279603","coordinates":[42.6631746,23.35857]},"atp":{"id":"5m0gKRAQJhV6Bs3ouR6PID9Qkso=","tags":{"ref":"39829","amenity":"parcel_locker","@source_uri":"https://ee.econt.com/services/Nomenclatures/NomenclaturesService.getOffices.json","@spider":"econt_bg","alt_name":"Еконтомат","alt_name:bg":"Еконтомат","alt_name:en":"Econtomat","parcel_mail_in":"yes","parcel_pickup":"yes","addr:full":"София бул. Д-р Г. М. Димитров №55","addr:housenumber":"55","addr:street":"бул. Д-р Г. М. Димитров","addr:city":"София","addr:country":"BG","email":"econtomat_sofia@econt.com","opening_hours":"24/7","brand":"Еконт","brand:wikidata":"Q12279603","nsi_id":"econt-8234c4"},"coordinates":[42.6632623,23.3584603]},"dist":13.25,"tags_mismatch":false},{"osm":{"type":"node","id":12080661965,"tags":{"alt_name":"Еконтомат","alt_name:bg":"Еконтомат","alt_name:en":"Econtomat","amenity":"parcel_locker","brand":"Еконт","brand:wikidata":"Q12279603","location":"outdoor","opening_hours":"24/7","parcel_mail_in":"yes","parcel_pickup":"yes"},"wikidata":"Q12279603","coordinates":[42.6909762,23.2958882]},"atp":{"id":"_Ky4zJmPnMxhAZQt1I9r5uontKc=","tags":{"ref":"41509","amenity":"parcel_locker","@source_uri":"https://ee.econt.com/services/Nomenclatures/NomenclaturesService.getOffices.json","@spider":"econt_bg","alt_name":"Еконтомат","alt_name:bg":"Еконтомат","alt_name:en":"Econtomat","parcel_mail_in":"yes","parcel_pickup":"yes","addr:full":"София жк Сердика бул. Акад. Иван Гешов №2д","addr:housenumber":"2д","addr:street":"бул. Акад. Иван Гешов","addr:city":"София","addr:country":"BG","email":"angel_angelov@econt.com","opening_hours":"24/7","brand":"Еконт","brand:wikidata":"Q12279603","nsi_id":"econt-8234c4"},"coordinates":[42.6911223,23.2955593]},"dist":31.409,"tags_mismatch":false},{"osm":{"type":"node","id":12080789768,"tags":{"alt_name":"Еконтомат","alt_name:bg":"Еконтомат","alt_name:en":"Econtomat","amenity":"parcel_locker","brand":"Еконт","brand:wikidata":"Q12279603","location":"outdoor","opening_hours":"24/7","parcel_mail_in":"yes","parcel_pickup":"yes"},"wikidata":"Q12279603","coordinates":[42.6617424,23.3915584]},"atp":{"id":"K55uuQEH4fdcA0-XB5D4L3KclMg=","tags":{"ref":"39832","amenity":"parcel_locker","@source_uri":"https://ee.econt.com/services/Nomenclatures/NomenclaturesService.getOffices.json","@spider":"econt_bg","alt_name":"Еконтомат","alt_name:bg":"Еконтомат","alt_name:en":"Econtomat","parcel_mail_in":"yes","parcel_pickup":"yes","addr:full":"София бул. Проф. Цветан Лазаров №1","addr:housenumber":"1","addr:street":"бул. Проф. Цветан Лазаров","addr:city":"София","addr:country":"BG","email":"econtomat_sofia@econt.com","opening_hours":"24/7","brand":"Еконт","brand:wikidata":"Q12279603","nsi_id":"econt-8234c4"},"coordinates":[42.6615578,23.3917517]},"dist":25.907,"tags_mismatch":false},{"osm":{"type":"node","id":12080829386,"tags":{"alt_name":"Еконтомат","alt_name:bg":"Еконтомат","alt_name:en":"Econtomat","amenity":"parcel_locker","brand":"Еконт","brand:wikidata":"Q12279603","location":"outdoor","opening_hours":"24/7","parcel_mail_in":"yes","parcel_pickup":"yes"},"wikidata":"Q12279603","coordinates":[42.7017323,23.3514562]},"atp":{"id":"1xEJY13foqW01_6pjGeaK5QrFHs=","tags":{"ref":"41506","amenity":"parcel_locker","@source_uri":"https://ee.econt.com/services/Nomenclatures/NomenclaturesService.getOffices.json","@spider":"econt_bg","alt_name":"Еконтомат","alt_name:bg":"Еконтомат","alt_name:en":"Econtomat","parcel_mail_in":"yes","parcel_pickup":"yes","addr:full":"София бул. Владимир Вазов №1","addr:housenumber":"1","addr:street":"бул. Владимир Вазов","addr:city":"София","addr:country":"BG","email":"angel_angelov@econt.com","opening_hours":"24/7","brand":"Еконт","brand:wikidata":"Q12279603","nsi_id":"econt-8234c4"},"coordinates":[42.7023895,23.3504883]},"dist":107.685,"tags_mismatch":false},{"osm":{"type":"node","id":12080910578,"tags":{"alt_name":"Еконтомат","alt_name:bg":"Еконтомат","alt_name:en":"Econtomat","amenity":"parcel_locker","brand":"Еконт","brand:wikidata":"Q12279603","location":"outdoor","opening_hours":"24/7","parcel_mail_in":"yes","parcel_pickup":"yes"},"wikidata":"Q12279603","coordinates":[43.2161396,27.896562]},"atp":{"id":"dB3q12TmOuPu7TpIs3qGCCSgJI4=","tags":{"ref":"34483","amenity":"parcel_locker","@source_uri":"https://ee.econt.com/services/Nomenclatures/NomenclaturesService.getOffices.json","@spider":"econt_bg","alt_name":"Еконтомат","alt_name:bg":"Еконтомат","alt_name:en":"Econtomat","parcel_mail_in":"yes","parcel_pickup":"yes","addr:full":"Варна бул. Владислав Варненчик №158","addr:housenumber":"158","addr:street":"бул. Владислав Варненчик","addr:city":"Варна","addr:country":"BG","phone":"+359 87 992 2533","email":"dimitar_dimitrov_vn@econt.com","opening_hours":"24/7","brand":"Еконт","brand:wikidata":"Q12279603","nsi_id":"econt-8234c4"},"coordinates":[43.2159339094712,27.896582829360952]},"dist":22.934,"tags_mismatch":false},{"osm":{"type":"node","id":12323863220,"tags":{"alt_name":"Еконтомат","alt_name:bg":"Еконтомат","alt_name:en":"Econtomat","amenity":"parcel_locker","brand":"Еконт","brand:wikidata":"Q12279603","collection_times":"Mo-Fr 17:45; Sa 13:00","colour":"gray","description":"Час на поставяне на пратките: 09:30 пон-съб","mapillary":"1062697138976772","opening_hours":"24/7","parcel_locker:type":"cabinet","parcel_mail_in":"yes","parcel_pickup":"yes","surveillance":"outdoor","website":"https://www.econt.com/services/econtomat","wheelchair":"yes"},"wikidata":"Q12279603","coordinates":[43.1994718,27.9110945]},"atp":{"id":"mPLuTaaK5jHCi2gmA6nyAHXbrMw=","tags":{"ref":"39929","amenity":"parcel_locker","@source_uri":"https://ee.econt.com/services/Nomenclatures/NomenclaturesService.getOffices.json","@spider":"econt_bg","alt_name":"Еконтомат","alt_name:bg":"Еконтомат","alt_name:en":"Econtomat","parcel_mail_in":"yes","parcel_pickup":"yes","addr:full":"Варна ул. Дунав №1","addr:housenumber":"1","addr:street":"ул. Дунав","addr:city":"Варна","addr:country":"BG","phone":"+359 87 992 2637","email":"vn_jpgara@econt.com","opening_hours":"24/7","brand":"Еконт","brand:wikidata":"Q12279603","nsi_id":"econt-8234c4"},"coordinates":[43.19932552557484,27.911267724808038]},"dist":21.487,"tags_mismatch":false},{"osm":false,"atp":false,"tags_mismatch":false,"dist":0},{"osm":false,"atp":false,"tags_mismatch":false,"dist":0},{"osm":false,"atp":false,"tags_mismatch":false,"dist":0},{"osm":false,"atp":false,"tags_mismatch":false,"dist":0},{"osm":false,"atp":false,"tags_mismatch":false,"dist":0},{"osm":false,"atp":{"id":"mBSs-yUJ-vmBYQHmOHvfxNJj4yM=","tags":{"ref":"34329","amenity":"parcel_locker","alt_name":"Еконтомат","alt_name:bg":"Еконтомат","alt_name:en":"Econtomat","parcel_mail_in":"yes","parcel_pickup":"yes","addr:full":"Варна кв. Чайка блок.68е .","addr:city":"Варна","addr:country":"BG","name":"Варна Чайка Експресна станция","phone":"+359 700 17 300","email":"varna_chaika@econt.com","opening_hours":"Mo-Fr 09:00-19:00; Sa 09:00-15:00","brand":"Еконт","brand:wikidata":"Q12279603"},"coordinates":[43.215521628916356,27.944470160424764]},"tags_mismatch":false,"dist":0},{"osm":false,"atp":{"id":"ARSkFjTCbx_8VKpVvcBW2hRR08k=","tags":{"ref":"39561","amenity":"parcel_locker","alt_name":"Еконтомат","alt_name:bg":"Еконтомат","alt_name:en":"Econtomat","parcel_mail_in":"yes","parcel_pickup":"yes","addr:full":"Видин ж.к. Бонония ул. Вела Пеева №2","addr:housenumber":"2","addr:street":"ул. Вела Пеева","addr:city":"Видин","addr:country":"BG","name":"Видин 24/7 Еконтомат","phone":"+359 87 534 7213","email":"vidin_drive@econt.com","opening_hours":"24/7","brand":"Еконт","brand:wikidata":"Q12279603"},"coordinates":[43.99626793533466,22.879103441629425]},"tags_mismatch":false,"dist":0},{"osm":false,"atp":{"id":"xLetgdOQN0SiCuck3Ewm1DxY6_k=","tags":{"ref":"45928","amenity":"parcel_locker","alt_name":"Еконтомат","alt_name:bg":"Еконтомат","alt_name:en":"Econtomat","parcel_mail_in":"yes","parcel_pickup":"yes","addr:full":"Китен ул. Странджа №4 пред кафе \"Алекс\"","addr:housenumber":"4","addr:street":"ул. Странджа","addr:city":"Китен","addr:country":"BG","name":"Китен 24/7 Еконтомат","phone":"+359 87 799 9807","email":"econtomat_sofia@econt.com","opening_hours":"24/7","brand":"Еконт","brand:wikidata":"Q12279603"},"coordinates":[42.2344672,27.7704898]},"tags_mismatch":false,"dist":0},{"osm":false,"atp":{"id":"Jb7iC2K1ng05aNWy1L4IDiLisyk=","tags":{"ref":"38370","amenity":"parcel_locker","alt_name":"Еконтомат","alt_name:bg":"Еконтомат","alt_name:en":"Econtomat","parcel_mail_in":"yes","parcel_pickup":"yes","addr:full":"Пловдив ж.к. Тракия бул. Съединение №43","addr:housenumber":"43","addr:street":"бул. Съединение","addr:city":"Пловдив","addr:country":"BG","name":"Пловдив 24/7 Еконтомат - Тракия","phone":"+359 87 530 6675","email":"plovdiv_kuklensko@econt.com","opening_hours":"24/7","brand":"Еконт","brand:wikidata":"Q12279603"},"coordinates":[42.13232,24.79506]},"tags_mismatch":false,"dist":0},{"osm":false,"atp":false,"tags_mismatch":false,"dist":0},{"osm":false,"atp":{"id":"Wepsww0ViVCKPFBcmGh5zAJwLsM=","tags":{"ref":"45927","amenity":"parcel_locker","alt_name":"Еконтомат","alt_name:bg":"Еконтомат","alt_name:en":"Econtomat","parcel_mail_in":"yes","parcel_pickup":"yes","addr:full":"Приморско ул. Трети март №80а","addr:housenumber":"80а","addr:street":"ул. Трети март","addr:city":"Приморско","addr:country":"BG","name":"Приморско 24/7 Еконтомат","phone":"+359 87 799 9807","email":"econtomat_sofia@econt.com","opening_hours":"24/7","brand":"Еконт","brand:wikidata":"Q12279603"},"coordinates":[42.2664618,27.7485394]},"tags_mismatch":false,"dist":0},{"osm":false,"atp":{"id":"k367vvHZNj5ncxE1VfTQjKz-OG4=","tags":{"ref":"38432","amenity":"parcel_locker","alt_name":"Еконтомат","alt_name:bg":"Еконтомат","alt_name:en":"Econtomat","parcel_mail_in":"yes","parcel_pickup":"yes","addr:full":"Сливен ул. Индустриална №1","addr:housenumber":"1","addr:street":"ул. Индустриална","addr:city":"Сливен","addr:country":"BG","name":"Сливен 24/7 Еконтомат - Индустриална","phone":"+359 87 534 7279","email":"sliven_pz@econt.com","opening_hours":"24/7","brand":"Еконт","brand:wikidata":"Q12279603"},"coordinates":[42.649183759283254,26.325981919326765]},"tags_mismatch":false,"dist":0},{"osm":false,"atp":{"id":"AMzNPGlfBk2Ym5bBYrDbRw_KnKo=","tags":{"ref":"34766","amenity":"parcel_locker","alt_name":"Еконтомат","alt_name:bg":"Еконтомат","alt_name:en":"Econtomat","parcel_mail_in":"yes","parcel_pickup":"yes","addr:full":"Слънчев бряг кв. Камелия до Автогарата 1","addr:city":"Слънчев бряг","addr:country":"BG","name":"Слънчев бряг24/7 Еконтомат","phone":"+359 87 532 9663","email":"slanchevbriag_avtogara@econt.com","opening_hours":"24/7","brand":"Еконт","brand:wikidata":"Q12279603"},"coordinates":[42.692619925846586,27.705599358634927]},"tags_mismatch":false,"dist":0},{"osm":false,"atp":{"id":"Ezb8Vn9A-ZxHxS2hJVmER8z4Qlc=","tags":{"ref":"46017","amenity":"parcel_locker","alt_name":"Еконтомат","alt_name:bg":"Еконтомат","alt_name:en":"Econtomat","parcel_mail_in":"yes","parcel_pickup":"yes","addr:full":"Созопол ул. Републиканска №47","addr:housenumber":"47","addr:street":"ул. Републиканска","addr:city":"Созопол","addr:country":"BG","name":"Созопол 24/7 Еконтомат Републиканска","phone":"+359 87 799 9807","email":"econtomat_sofia@econt.com","opening_hours":"24/7","brand":"Еконт","brand:wikidata":"Q12279603"},"coordinates":[42.41228,27.69901]},"tags_mismatch":false,"dist":0},{"osm":false,"atp":{"id":"sRElOl5GkkdyJKG4-jEEheV8t50=","tags":{"ref":"46016","amenity":"parcel_locker","alt_name":"Еконтомат","alt_name:bg":"Еконтомат","alt_name:en":"Econtomat","parcel_mail_in":"yes","parcel_pickup":"yes","addr:full":"Созопол ул. Републиканска №16 на ъгъла с ул. Стара Планина","addr:housenumber":"16","addr:street":"ул. Републиканска","addr:city":"Созопол","addr:country":"BG","name":"Созопол 24/7 Еконтомат Черно море","phone":"+359 87 799 9807","email":"econtomat_sofia@econt.com","opening_hours":"24/7","brand":"Еконт","brand:wikidata":"Q12279603"},"coordinates":[42.41474,27.69719]},"tags_mismatch":false,"dist":0},{"osm":false,"atp":false,"tags_mismatch":false,"dist":0},{"osm":false,"atp":false,"tags_mismatch":false,"dist":0},{"osm":false,"atp":false,"tags_mismatch":false,"dist":0},{"osm":false,"atp":false,"tags_mismatch":false,"dist":0},{"osm":false,"atp":false,"tags_mismatch":false,"dist":0},{"osm":false,"atp":false,"tags_mismatch":false,"dist":0},{"osm":false,"atp":false,"tags_mismatch":false,"dist":0},{"osm":false,"atp":false,"tags_mismatch":false,"dist":0},{"osm":false,"atp":false,"tags_mismatch":false,"dist":0},{"osm":false,"atp":false,"tags_mismatch":false,"dist":0},{"osm":false,"atp":false,"tags_mismatch":false,"dist":0},{"osm":false,"atp":false,"tags_mismatch":false,"dist":0},{"osm":false,"atp":{"id":"hiF6Dy_gD2UWH_yHr7jF9nNWsik=","tags":{"ref":"39827","amenity":"parcel_locker","alt_name":"Еконтомат","alt_name:bg":"Еконтомат","alt_name:en":"Econtomat","parcel_mail_in":"yes","parcel_pickup":"yes","addr:full":"София кв. Хладилника бул. Черни връх №100 ниво -2","addr:housenumber":"100","addr:street":"бул. Черни връх","addr:city":"София","addr:country":"BG","name":"София 24/7 Еконтомат - Парадайс Център","phone":"+359 87 534 7216","email":"econtomat_sofia@econt.com","opening_hours":"24/7","brand":"Еконт","brand:wikidata":"Q12279603"},"coordinates":[42.65701311325114,23.31469043190954]},"tags_mismatch":false,"dist":0},{"osm":false,"atp":{"id":"Y_ICnuj1U_2aO6_8zCTpVHIybag=","tags":{"ref":"34359","amenity":"parcel_locker","alt_name":"Еконтомат","alt_name:bg":"Еконтомат","alt_name:en":"Econtomat","parcel_mail_in":"yes","parcel_pickup":"yes","addr:full":"София жк Студентски град ул. Акад.Борис Стефанов №22","addr:housenumber":"22","addr:street":"ул. Акад.Борис Стефанов","addr:city":"София","addr:country":"BG","name":"София 24/7 Еконтомат - Фантастико Борис Стефанов","phone":"+359 82 526 985","email":"sf_bstefanov@econt.com","opening_hours":"24/7","brand":"Еконт","brand:wikidata":"Q12279603"},"coordinates":[42.65341394534586,23.342326122684458]},"tags_mismatch":false,"dist":0},{"osm":false,"atp":false,"tags_mismatch":false,"dist":0},{"osm":false,"atp":{"id":"IcLUbafiRyTh6CCrVTrq0_7shwo=","tags":{"ref":"42985","amenity":"parcel_locker","alt_name":"Еконтомат","alt_name:bg":"Еконтомат","alt_name:en":"Econtomat","parcel_mail_in":"yes","parcel_pickup":"yes","addr:full":"София бул. Шипченски проход №18 партер","addr:housenumber":"18","addr:street":"бул. Шипченски проход","addr:city":"София","addr:country":"BG","name":"София Еконтомат - Галакси Център","email":"econtomat_sofia@econt.com","opening_hours":"Mo-Fr 08:00-23:00; Sa 09:00-23:00","brand":"Еконт","brand:wikidata":"Q12279603"},"coordinates":[42.6791116,23.3604778]},"tags_mismatch":false,"dist":0},{"osm":false,"atp":{"id":"6QQ5M-0HP0vxSOsV38snucb_vuY=","tags":{"ref":"46163","amenity":"parcel_locker","alt_name":"Еконтомат","alt_name:bg":"Еконтомат","alt_name:en":"Econtomat","parcel_mail_in":"yes","parcel_pickup":"yes","addr:full":"София кв. Орландовци ул. Малашевска №1","addr:housenumber":"1","addr:street":"ул. Малашевска","addr:city":"София","addr:country":"BG","name":"София Еконтомат - Фантастико Орландовци","email":"econtomat_sofiq@econt.com","opening_hours":"Mo-Sa 00:00-24:00","brand":"Еконт","brand:wikidata":"Q12279603"},"coordinates":[42.7120257,23.3404221]},"tags_mismatch":false,"dist":0},{"osm":false,"atp":{"id":"zx0d2xkpa8q6ffcGUqm5Epx4a1o=","tags":{"ref":"40991","amenity":"parcel_locker","alt_name":"Еконтомат","alt_name:bg":"Еконтомат","alt_name:en":"Econtomat","parcel_mail_in":"yes","parcel_pickup":"yes","addr:full":"София бул. Симеоновско шосе №87А","addr:housenumber":"87А","addr:street":"бул. Симеоновско шосе","addr:city":"София","addr:country":"BG","name":"София Еконтомат - Фантастико Симеоновско шосе","email":"borislav_rodopski@econt.com","opening_hours":"Mo-Sa 07:30-23:00","brand":"Еконт","brand:wikidata":"Q12279603"},"coordinates":[42.6408195,23.3349285]},"tags_mismatch":false,"dist":0},{"osm":false,"atp":{"id":"UghaXGxeDJHlAt_toYWZ1bMGfjA=","tags":{"ref":"41510","amenity":"parcel_locker","alt_name":"Еконтомат","alt_name:bg":"Еконтомат","alt_name:en":"Econtomat","parcel_mail_in":"yes","parcel_pickup":"yes","addr:full":"София бул. Черни връх №204","addr:housenumber":"204","addr:street":"бул. Черни връх","addr:city":"София","addr:country":"BG","name":"София Еконтомат - Фантастико Черни връх","email":"angel_angelov@econt.com","opening_hours":"Mo-Sa 07:30-23:00","brand":"Еконт","brand:wikidata":"Q12279603"},"coordinates":[42.64031,23.311553]},"tags_mismatch":false,"dist":0},{"osm":false,"atp":{"id":"mPosg_TzwkHENgtuptDIFAlUK5k=","tags":{"ref":"45929","amenity":"parcel_locker","alt_name":"Еконтомат","alt_name:bg":"Еконтомат","alt_name:en":"Econtomat","parcel_mail_in":"yes","parcel_pickup":"yes","addr:full":"Черноморец ул. Свети Никола №1","addr:housenumber":"1","addr:street":"ул. Свети Никола","addr:city":"Черноморец","addr:country":"BG","name":"Черноморец 24/7 Еконтомат","phone":"+359 87 799 9807","email":"econtomat_sofia@econt.com","opening_hours":"24/7","brand":"Еконт","brand:wikidata":"Q12279603"},"coordinates":[42.442063593189346,27.632455518798807]},"tags_mismatch":false,"dist":0}]}