{"metadata":{"type":"brand","wikidata":"Q110583289","name":"EasyPay","compare_keys":["ref"]},"data":[{"osm":{"type":"node","id":1699465334,"tags":{"alt_name":"Easy Pay","amenity":"payment_centre","brand":"EasyPay","brand:wikidata":"Q110583289","check_date":"2024-09-05","opening_hours":"Mo-Sa 10:00-19:00"},"wikidata":"Q110583289","coordinates":[42.6708066,23.30189]},"atp":false,"tags_mismatch":false},{"osm":{"type":"node","id":2575617900,"tags":{"alt_name":"Easy Pay","amenity":"payment_centre","brand":"EasyPay","brand:wikidata":"Q110583289","opening_hours":"Mo-Fr 09:30-13:30,14:30-18:30; Sa 10:00-14:00"},"wikidata":"Q110583289","coordinates":[42.6892523,23.3635424]},"atp":false,"tags_mismatch":false},{"osm":{"type":"node","id":3358995467,"tags":{"alt_name":"Easy Pay","amenity":"payment_centre","brand":"EasyPay","brand:wikidata":"Q110583289","check_date":"2015-02-19"},"wikidata":"Q110583289","coordinates":[43.4016384,24.6220661]},"atp":false,"tags_mismatch":false},{"osm":{"type":"node","id":3524236654,"tags":{"addr:housenumber":"2","addr:street":"Христо Белчев","alt_name":"Easy Pay","amenity":"payment_centre","brand":"EasyPay","brand:wikidata":"Q110583289","opening_hours":"Mo-Fr 08:30-11:00,11:30-15:00,15:30-19:00; Sa 09:00-12:00,12:30-16:00"},"wikidata":"Q110583289","coordinates":[42.6946759,23.3216895]},"atp":false,"tags_mismatch":false},{"osm":{"type":"node","id":3868822745,"tags":{"alt_name":"Easy Pay","amenity":"payment_centre","brand":"EasyPay","brand:wikidata":"Q110583289"},"wikidata":"Q110583289","coordinates":[42.0756332,24.6643791]},"atp":false,"tags_mismatch":false},{"osm":{"type":"node","id":4485755404,"tags":{"alt_name":"Easy Pay","amenity":"payment_centre","brand":"EasyPay","brand:wikidata":"Q110583289","opening_hours":"Mo-Fr 08:00-14:00,15:00-19:00"},"wikidata":"Q110583289","coordinates":[42.6901805,23.339918]},"atp":false,"tags_mismatch":false},{"osm":{"type":"node","id":4486789510,"tags":{"alt_name":"Easy Pay","amenity":"payment_centre","brand":"EasyPay","brand:wikidata":"Q110583289","opening_hours":"Mo-Fr 08:00-11:30,12:00-15:30,16:00-19:00; Sa 09:00-11:30,12:00-15:30,16:00-18:00"},"wikidata":"Q110583289","coordinates":[42.6933094,23.3526348]},"atp":false,"tags_mismatch":false},{"osm":{"type":"node","id":4486789564,"tags":{"addr:street":"Оборище","alt_name":"Easy Pay","amenity":"payment_centre","brand":"EasyPay","brand:wikidata":"Q110583289","opening_hours":"Mo-Fr 09:00-17:00"},"wikidata":"Q110583289","coordinates":[42.6936324,23.3498404]},"atp":false,"tags_mismatch":false},{"osm":{"type":"node","id":4527155780,"tags":{"alt_name":"Easy Pay","amenity":"payment_centre","brand":"EasyPay","brand:wikidata":"Q110583289","opening_hours":"Mo-Fr 08:30-10:00,10:20-14:30,15:10-19:00"},"wikidata":"Q110583289","coordinates":[42.6915168,23.3253467]},"atp":false,"tags_mismatch":false},{"osm":{"type":"node","id":4548587223,"tags":{"addr:housenumber":"132","addr:street":"Георги С. Раковски","alt_name":"Easy Pay","amenity":"payment_centre","brand":"EasyPay","brand:wikidata":"Q110583289","opening_hours":"Mo-Fr 08:00-12:30,13:00-16:00,16:30-19:00; Sa 10:00-12:30,13:00-17:00"},"wikidata":"Q110583289","coordinates":[42.6900414,23.3232372]},"atp":false,"tags_mismatch":false},{"osm":{"type":"node","id":4978230191,"tags":{"alt_name":"Easy Pay","amenity":"payment_centre","brand":"EasyPay","brand:wikidata":"Q110583289","check_date":"2025-02-04","opening_hours":"07:00-20:00"},"wikidata":"Q110583289","coordinates":[42.6717954,23.2900245]},"atp":false,"tags_mismatch":false},{"osm":{"type":"node","id":5035511377,"tags":{"alt_name":"Easy Pay","amenity":"payment_centre","brand":"EasyPay","brand:wikidata":"Q110583289","check_date":"2024-11-04","opening_hours":"Mo-Fr 08:30-14:00,15:00-19:30; Sa-Su off","wheelchair":"limited"},"wikidata":"Q110583289","coordinates":[42.6640021,23.2849327]},"atp":false,"tags_mismatch":false},{"osm":{"type":"node","id":5081222957,"tags":{"addr:city":"Стара Загора","addr:housenumber":"161","addr:street":"бул. Цар Симеон Велики","alt_name":"Easy Pay","amenity":"payment_centre","brand":"EasyPay","brand:wikidata":"Q110583289"},"wikidata":"Q110583289","coordinates":[42.4279687,25.6465892]},"atp":false,"tags_mismatch":false},{"osm":{"type":"node","id":5392273821,"tags":{"alt_name":"Easy Pay","amenity":"payment_centre","brand":"EasyPay","brand:wikidata":"Q110583289","opening_hours":"Mo-Sa 09:00-13:00,13:30-16:00,16:30-21:00; Su 10:00-13:00,13:30-16:00,16:30-19:00"},"wikidata":"Q110583289","coordinates":[42.7098413,23.3100297]},"atp":false,"tags_mismatch":false},{"osm":{"type":"node","id":5522093321,"tags":{"alt_name":"Easy Pay","amenity":"payment_centre","brand":"EasyPay","brand:wikidata":"Q110583289","opening_hours":"Mo-Fr 08:30-19:30; Sa 09:00-18:00"},"wikidata":"Q110583289","coordinates":[42.7057914,23.3171625]},"atp":false,"tags_mismatch":false},{"osm":{"type":"node","id":5759276067,"tags":{"alt_name":"Easy Pay","amenity":"payment_centre","brand":"EasyPay","brand:wikidata":"Q110583289","opening_hours":"Mo-Fr 08:00-19:00; Sa 10:00-14:00"},"wikidata":"Q110583289","coordinates":[42.7136608,23.2695407]},"atp":false,"tags_mismatch":false},{"osm":{"type":"node","id":5918710023,"tags":{"alt_name":"Easy Pay","amenity":"payment_centre","brand":"EasyPay","brand:wikidata":"Q110583289","opening_hours":"Mo-Sa 09:00-12:00, 13:00-19:00","website":"https://www.easypay.bg/"},"wikidata":"Q110583289","coordinates":[42.704666,23.3176198]},"atp":false,"tags_mismatch":false},{"osm":{"type":"node","id":6338016672,"tags":{"addr:city":"Годеч","alt_name":"Easy Pay","amenity":"payment_centre","brand":"EasyPay","brand:wikidata":"Q110583289"},"wikidata":"Q110583289","coordinates":[43.0141556,23.0457226]},"atp":false,"tags_mismatch":false},{"osm":{"type":"node","id":6402810720,"tags":{"alt_name":"Easy Pay","amenity":"payment_centre","brand":"EasyPay","brand:wikidata":"Q110583289","check_date":"2024-04-25","internet_access":"no","opening_hours":"Mo-Sa 09:00-13:00,13:30-16:30,17:00-21:00; Su 10:00-13:00,13:30-16:00,16:30-19:00","payment:cash":"yes","payment:credit_cards":"yes","payment:debit_cards":"yes","payment:mastercard":"yes","payment:visa":"yes","website":"https://www.easypay.bg/","wheelchair":"yes"},"wikidata":"Q110583289","coordinates":[42.6833983,23.2973023]},"atp":false,"tags_mismatch":false},{"osm":{"type":"node","id":6422462176,"tags":{"alt_name":"Easy Pay","amenity":"payment_centre","brand":"EasyPay","brand:wikidata":"Q110583289","opening_hours":"Mo-Fr 09:00-11:30,12:00-15:30,16:00-18:00"},"wikidata":"Q110583289","coordinates":[42.6937519,23.3139055]},"atp":false,"tags_mismatch":false},{"osm":{"type":"node","id":6433633911,"tags":{"alt_name":"Easy Pay","amenity":"payment_centre","branch":"Раковски","brand":"EasyPay","brand:wikidata":"Q110583289","check_date":"2024-11-01","opening_hours":"Mo-Fr 09:00-12:30,13:00-15:00,16:00-18:00","website":"https://www.easypay.bg/"},"wikidata":"Q110583289","coordinates":[42.6907192,23.3126745]},"atp":false,"tags_mismatch":false},{"osm":{"type":"node","id":6439692693,"tags":{"alt_name":"Easy Pay","amenity":"payment_centre","brand":"EasyPay","brand:wikidata":"Q110583289","opening_hours":"24/7"},"wikidata":"Q110583289","coordinates":[42.6901107,23.3139561]},"atp":false,"tags_mismatch":false},{"osm":{"type":"node","id":6443975049,"tags":{"alt_name":"Easy Pay","amenity":"payment_centre","brand":"EasyPay","brand:wikidata":"Q110583289","check_date":"2025-02-24"},"wikidata":"Q110583289","coordinates":[42.6892872,23.3134538]},"atp":false,"tags_mismatch":false},{"osm":{"type":"node","id":6462906670,"tags":{"addr:city":"София","addr:country":"BG","addr:housenumber":"19А","addr:street":"бул. Патриарх Евтимий","alt_name":"Easy Pay","amenity":"payment_centre","brand":"EasyPay","brand:wikidata":"Q110583289","check_date:opening_hours":"2024-04-07","opening_hours":"Mo-Fr 10:00-19:00","website":"https://www.easypay.bg/"},"wikidata":"Q110583289","coordinates":[42.6882395,23.3253847]},"atp":false,"tags_mismatch":false},{"osm":{"type":"node","id":6469209319,"tags":{"alt_name":"Easy Pay","amenity":"payment_centre","brand":"EasyPay","brand:wikidata":"Q110583289","check_date":"2024-11-01","opening_hours":"Mo-Sa 09:00-13:00,13:30-16:00,16:30-21:00; Su 10:00-13:00,13:30-17:00","website":"https://www.easypay.bg/"},"wikidata":"Q110583289","coordinates":[42.6870787,23.3150187]},"atp":false,"tags_mismatch":false},{"osm":{"type":"node","id":6479104882,"tags":{"alt_name":"Easy Pay","amenity":"payment_centre","brand":"EasyPay","brand:wikidata":"Q110583289","opening_hours":"Mo-Fr 09:30-13:30,14:30-18:30","website":"https://www.easypay.bg/"},"wikidata":"Q110583289","coordinates":[42.687668,23.3317206]},"atp":false,"tags_mismatch":false},{"osm":{"type":"node","id":6486620959,"tags":{"addr:city":"София","addr:housenumber":"73","addr:street":"бул. Евлоги и Христо Георгиеви","alt_name":"Easy Pay","amenity":"payment_centre","brand":"EasyPay","brand:wikidata":"Q110583289","opening_hours":"Mo-Fr 10:00-13:00,14:00-18:00","website":"https://www.easypay.bg/"},"wikidata":"Q110583289","coordinates":[42.6863693,23.3295731]},"atp":false,"tags_mismatch":false},{"osm":{"type":"node","id":6504688855,"tags":{"addr:housenumber":"33","addr:street":"проф. Фритьоф Нансен","alt_name":"Easy Pay","amenity":"payment_centre","brand":"EasyPay","brand:wikidata":"Q110583289","opening_hours":"Mo-Fr 08:30-13:00,13:30-19:30; Sa,Su 10:30-13:00,13:30-19:30"},"wikidata":"Q110583289","coordinates":[42.6851194,23.3213072]},"atp":false,"tags_mismatch":false},{"osm":{"type":"node","id":6515541691,"tags":{"alt_name":"Easy Pay","amenity":"payment_centre","brand":"EasyPay","brand:wikidata":"Q110583289","opening_hours":"Mo-Fr 09:00-18:00","website":"https://www.easypay.bg/"},"wikidata":"Q110583289","coordinates":[42.6966122,23.3193654]},"atp":false,"tags_mismatch":false},{"osm":{"type":"node","id":6520423456,"tags":{"addr:city":"София","addr:housenumber":"56А","addr:postcode":"1504","addr:street":"бул. Янко Сакъзов","alt_name":"Easy Pay","amenity":"payment_centre","brand":"EasyPay","brand:wikidata":"Q110583289","opening_hours":"Mo-Fr 09:00-12:00,12:30-15:00,15:30-19:00; Sa 10:00-12:00,12:30-15:00,15:30-18:00"},"wikidata":"Q110583289","coordinates":[42.6962244,23.3429992]},"atp":false,"tags_mismatch":false},{"osm":{"type":"node","id":6536410453,"tags":{"alt_name":"Easy Pay","amenity":"payment_centre","brand":"EasyPay","brand:wikidata":"Q110583289","opening_hours":"Mo-Fr 08:30-10:00,10:20-14:30,15:10-18:00"},"wikidata":"Q110583289","coordinates":[42.6959374,23.3464837]},"atp":false,"tags_mismatch":false},{"osm":{"type":"node","id":6561681751,"tags":{"addr:city":"София","addr:housenumber":"13Б","addr:postcode":"1504","addr:street":"Шейново","alt_name":"Easy Pay","amenity":"payment_centre","brand":"EasyPay","brand:wikidata":"Q110583289","opening_hours":"Mo-Fr 08:00-18:30; Sa,Su 08:00-17:30","website":"https://www.easypay.bg/"},"wikidata":"Q110583289","coordinates":[42.6922672,23.3385936]},"atp":false,"tags_mismatch":false},{"osm":{"type":"node","id":6567060807,"tags":{"addr:city":"София","addr:housenumber":"141","addr:street":"Първа българска армия","alt_name":"Easy Pay","amenity":"payment_centre","brand":"EasyPay","brand:wikidata":"Q110583289","opening_hours":"Mo-Fr 08:00-13:30, 14:00-15:30, 16:00-19:00; Sa 9:00-16:00","website":"https://www.easypay.bg/"},"wikidata":"Q110583289","coordinates":[42.7165406,23.3402411]},"atp":false,"tags_mismatch":false},{"osm":{"type":"node","id":6609197881,"tags":{"alt_name":"Easy Pay","amenity":"payment_centre","brand":"EasyPay","brand:wikidata":"Q110583289","opening_hours":"Mo-Fr 09:00-12:30,13:30-19:00; Sa 10:00-14:00"},"wikidata":"Q110583289","coordinates":[42.6706603,23.3208894]},"atp":false,"tags_mismatch":false},{"osm":{"type":"node","id":6618229977,"tags":{"alt_name":"Easy Pay","amenity":"payment_centre","brand":"EasyPay","brand:wikidata":"Q110583289","level":"-1","opening_hours":"Mo-Fr 08:00-13:00,13:30-16:30,17:00-20:00; Sa 09:00-11:00,11:30-15:00,15:30-18:00"},"wikidata":"Q110583289","coordinates":[42.6715203,23.3505723]},"atp":false,"tags_mismatch":false},{"osm":{"type":"node","id":6678653493,"tags":{"alt_name":"Easy Pay","amenity":"payment_centre","brand":"EasyPay","brand:wikidata":"Q110583289"},"wikidata":"Q110583289","coordinates":[43.2373298,23.1254406]},"atp":false,"tags_mismatch":false},{"osm":{"type":"node","id":6906159372,"tags":{"addr:city":"Враца","addr:country":"BG","addr:housenumber":"12","addr:neighbourhood":"ж.к. Младост","addr:postcode":"3000","addr:street":"Кръстьо Бързаков","alt_name":"Easy Pay","amenity":"payment_centre","brand":"EasyPay","brand:wikidata":"Q110583289","currency:BGN":"yes","currency:EUR":"yes","opening_hours":"Mo-Sa 08:00-19:00","payment:WU_Money_Transfer":"yes","payment:account_cards":"yes","payment:cash":"yes","payment:contactless":"yes","payment:credit_cards":"yes","payment:electronic_purses":"yes"},"wikidata":"Q110583289","coordinates":[43.1951294,23.5676031]},"atp":false,"tags_mismatch":false},{"osm":{"type":"node","id":6983040770,"tags":{"addr:city":"Враца","addr:country":"BG","addr:housenumber":"104A","addr:postcode":"3000","addr:street":"бул. Втори юни","alt_name":"Easy Pay","amenity":"payment_centre","brand":"EasyPay","brand:wikidata":"Q110583289","currency:BGN":"yes","opening_hours":"Mo-Su 09:00-19:00","payment:cash":"yes","payment:contactless":"yes","payment:credit_cards":"yes","phone":"+359 87 853 2183","wheelchair":"yes"},"wikidata":"Q110583289","coordinates":[43.1930237,23.5721391]},"atp":false,"tags_mismatch":false},{"osm":{"type":"node","id":7015592946,"tags":{"addr:city":"София","addr:housenumber":"221","addr:street":"Цар Симеон","alt_name":"Easy Pay","amenity":"payment_centre","brand":"EasyPay","brand:wikidata":"Q110583289","opening_hours":"Mo-Fr 09:00-12:00, 13:00-19:00","website":"https://www.easypay.bg/"},"wikidata":"Q110583289","coordinates":[42.7049714,23.2989684]},"atp":false,"tags_mismatch":false},{"osm":{"type":"node","id":7134046910,"tags":{"alt_name":"Easy Pay","amenity":"payment_centre","brand":"EasyPay","brand:wikidata":"Q110583289","opening_hours":"Mo-Sa 08:00-21:00; Su 08:00-20:00"},"wikidata":"Q110583289","coordinates":[42.7113659,23.3026686]},"atp":false,"tags_mismatch":false},{"osm":{"type":"node","id":7162413713,"tags":{"alt_name":"Easy Pay","amenity":"payment_centre","brand":"EasyPay","brand:wikidata":"Q110583289","opening_hours":"Mo-Fr 09:00-19:00; Sa 10:00-17:00","website":"https://www.easypay.bg/"},"wikidata":"Q110583289","coordinates":[42.725389,23.2556078]},"atp":false,"tags_mismatch":false},{"osm":{"type":"node","id":7176832346,"tags":{"addr:city":"София","addr:housenumber":"бл.240","addr:place":"ж.к. Люлин 2","alt_name":"Easy Pay","amenity":"payment_centre","brand":"EasyPay","brand:wikidata":"Q110583289","opening_hours":"Mo-Fr 08:30-18:30","website":"https://www.easypay.bg/"},"wikidata":"Q110583289","coordinates":[42.724224,23.253]},"atp":false,"tags_mismatch":false},{"osm":{"type":"node","id":7207713972,"tags":{"alt_name":"Easy Pay","amenity":"payment_centre","brand":"EasyPay","brand:wikidata":"Q110583289","website":"https://www.easypay.bg/"},"wikidata":"Q110583289","coordinates":[42.7203286,23.2434366]},"atp":false,"tags_mismatch":false},{"osm":{"type":"node","id":7243597657,"tags":{"addr:suburb":"ж.к. Люлин 3","alt_name":"Easy Pay","amenity":"payment_centre","brand":"EasyPay","brand:wikidata":"Q110583289","opening_hours":"Mo-Fr 07:30-19:30; Sa 10:00-14:00","website":"http://www.easypay.bg/"},"wikidata":"Q110583289","coordinates":[42.718644,23.2504848]},"atp":false,"tags_mismatch":false},{"osm":{"type":"node","id":7281713938,"tags":{"alt_name":"Easy Pay","amenity":"payment_centre","brand":"EasyPay","brand:wikidata":"Q110583289"},"wikidata":"Q110583289","coordinates":[42.9113375,23.8039011]},"atp":false,"tags_mismatch":false},{"osm":{"type":"node","id":7453567001,"tags":{"alt_name":"Easy Pay","amenity":"payment_centre","brand":"EasyPay","brand:wikidata":"Q110583289"},"wikidata":"Q110583289","coordinates":[42.7123142,23.2995002]},"atp":false,"tags_mismatch":false},{"osm":{"type":"node","id":8173094966,"tags":{"addr:city":"София","addr:housenumber":"15","addr:postcode":"1324","addr:street":"бул. Царица Йоанна","alt_name":"Easy Pay","amenity":"payment_centre","branch":"Mega Mall","brand":"EasyPay","brand:wikidata":"Q110583289","level":"0","opening_hours":"Mo-Sa 10:00-20:30; Su 10:00-17:00","phone":"+359 700 20787","website":"https://www.easypay.bg"},"wikidata":"Q110583289","coordinates":[42.7102441,23.2709808]},"atp":false,"tags_mismatch":false},{"osm":{"type":"node","id":8201942320,"tags":{"alt_name":"Easy Pay","amenity":"payment_centre","brand":"EasyPay","brand:wikidata":"Q110583289","level":"-1","opening_hours":"Mo-Fr 07:30-11:00,11:30-15:00,15:30-19:30; Sa 10:00-13:00,13:30-17:00"},"wikidata":"Q110583289","coordinates":[42.678653,23.3217648]},"atp":false,"tags_mismatch":false},{"osm":{"type":"node","id":8228252019,"tags":{"alt_name":"Easy Pay","amenity":"payment_centre","brand":"EasyPay","brand:wikidata":"Q110583289","level":"-1","opening_hours":"Mo-Fr 07:00-11:30,12:00-15:30,15:30-19:00"},"wikidata":"Q110583289","coordinates":[42.6694568,23.3197086]},"atp":false,"tags_mismatch":false},{"osm":{"type":"node","id":8455335981,"tags":{"alt_name":"Easy Pay","amenity":"payment_centre","brand":"EasyPay","brand:wikidata":"Q110583289"},"wikidata":"Q110583289","coordinates":[42.7125535,23.3007513]},"atp":false,"tags_mismatch":false},{"osm":{"type":"node","id":8524454689,"tags":{"addr:city":"Варна","addr:housenumber":"43","addr:postcode":"9002","addr:street":"бул. Цар Освободител","alt_name":"Easy Pay","amenity":"payment_centre","brand":"EasyPay","brand:wikidata":"Q110583289","currency:BGN":"yes","opening_hours":"Mo-Fr 08:00-20:00; Sa-Su 10:00-18:00","payment:cash":"yes"},"wikidata":"Q110583289","coordinates":[43.2111403,27.9186066]},"atp":false,"tags_mismatch":false},{"osm":{"type":"node","id":8599385259,"tags":{"alt_name":"Easy Pay","amenity":"payment_centre","brand":"EasyPay","brand:wikidata":"Q110583289","check_date":"2025-03-07","opening_hours":"Mo-Fr 08:30-19:30; Sa 09:00-17:30"},"wikidata":"Q110583289","coordinates":[42.6781842,23.2912072]},"atp":false,"tags_mismatch":false},{"osm":{"type":"node","id":8700162082,"tags":{"alt_name":"Easy Pay","amenity":"payment_centre","brand":"EasyPay","brand:wikidata":"Q110583289"},"wikidata":"Q110583289","coordinates":[41.9317528,25.9033249]},"atp":false,"tags_mismatch":false},{"osm":{"type":"node","id":8846370964,"tags":{"alt_name":"Easy Pay","amenity":"payment_centre","brand":"EasyPay","brand:wikidata":"Q110583289"},"wikidata":"Q110583289","coordinates":[42.7136271,27.7575544]},"atp":false,"tags_mismatch":false},{"osm":{"type":"node","id":9091442771,"tags":{"alt_name":"Easy Pay","amenity":"payment_centre","brand":"EasyPay","brand:wikidata":"Q110583289","opening_hours":"Mo-Sa 09:00-21:00; Su 09:00-20:00"},"wikidata":"Q110583289","coordinates":[42.6589189,23.347185]},"atp":false,"tags_mismatch":false},{"osm":{"type":"node","id":9103150713,"tags":{"alt_name":"Easy Pay","amenity":"payment_centre","brand":"EasyPay","brand:wikidata":"Q110583289"},"wikidata":"Q110583289","coordinates":[42.6546826,27.7036863]},"atp":false,"tags_mismatch":false},{"osm":{"type":"node","id":9206443075,"tags":{"alt_name":"Easy Pay","amenity":"payment_centre","brand":"EasyPay","brand:wikidata":"Q110583289"},"wikidata":"Q110583289","coordinates":[41.9375911,25.5345315]},"atp":false,"tags_mismatch":false},{"osm":{"type":"node","id":9363597498,"tags":{"alt_name":"Easy Pay","amenity":"payment_centre","brand":"EasyPay","brand:wikidata":"Q110583289","opening_hours":"Mo-Sa 08:00-21:00; Su 09:00-20:00"},"wikidata":"Q110583289","coordinates":[42.6898361,23.3022723]},"atp":false,"tags_mismatch":false},{"osm":{"type":"node","id":9383218521,"tags":{"alt_name":"Easy Pay","amenity":"payment_centre","brand":"EasyPay","brand:wikidata":"Q110583289","check_date":"2025-02-14","level":"0","opening_hours":"Mo-Sa 09:00-13:00, 13:30-16:30, 17:00-21:00; Su 09:00-13:00, 13:30-16:30, 17:00-20:00"},"wikidata":"Q110583289","coordinates":[42.6706036,23.2737034]},"atp":false,"tags_mismatch":false},{"osm":{"type":"node","id":9430979804,"tags":{"alt_name":"Easy Pay","amenity":"payment_centre","brand":"EasyPay","brand:wikidata":"Q110583289"},"wikidata":"Q110583289","coordinates":[42.7105122,23.2581001]},"atp":false,"tags_mismatch":false},{"osm":{"type":"node","id":9505679983,"tags":{"alt_name":"Easy Pay","amenity":"payment_centre","brand":"EasyPay","brand:wikidata":"Q110583289","opening_hours":"Mo-Fr 08:00-12:00,12:30-16:00,16:30-19:00"},"wikidata":"Q110583289","coordinates":[42.6790224,23.2859207]},"atp":false,"tags_mismatch":false},{"osm":{"type":"node","id":9527155505,"tags":{"alt_name":"Easy Pay","amenity":"payment_centre","brand":"EasyPay","brand:wikidata":"Q110583289"},"wikidata":"Q110583289","coordinates":[42.7464402,23.2316985]},"atp":false,"tags_mismatch":false},{"osm":{"type":"node","id":9552182103,"tags":{"alt_name":"Easy Pay","amenity":"payment_centre","brand":"EasyPay","brand:wikidata":"Q110583289","opening_hours":"Mo-Fr 09:00-19:00; Sa 10:00-17:00"},"wikidata":"Q110583289","coordinates":[42.6697936,23.2559781]},"atp":false,"tags_mismatch":false},{"osm":{"type":"node","id":9574583790,"tags":{"alt_name":"Easy Pay","amenity":"payment_centre","brand":"EasyPay","brand:wikidata":"Q110583289"},"wikidata":"Q110583289","coordinates":[42.7283421,23.2862734]},"atp":false,"tags_mismatch":false},{"osm":{"type":"node","id":9574600676,"tags":{"alt_name":"Easy Pay","amenity":"payment_centre","brand":"EasyPay","brand:wikidata":"Q110583289"},"wikidata":"Q110583289","coordinates":[42.8214505,23.3546323]},"atp":false,"tags_mismatch":false},{"osm":{"type":"node","id":9610404369,"tags":{"alt_name":"Easy Pay","amenity":"payment_centre","brand":"EasyPay","brand:wikidata":"Q110583289","level":"-1","opening_hours":"Mo-Fr 08:00-12:00,12:30-15:30,16:00-19:00"},"wikidata":"Q110583289","coordinates":[42.6635033,23.3571265]},"atp":false,"tags_mismatch":false},{"osm":{"type":"node","id":9641664504,"tags":{"alt_name":"Easy Pay","amenity":"payment_centre","brand":"EasyPay","brand:wikidata":"Q110583289"},"wikidata":"Q110583289","coordinates":[42.7245019,23.3050606]},"atp":false,"tags_mismatch":false},{"osm":{"type":"node","id":9655840451,"tags":{"alt_name":"Easy Pay","amenity":"payment_centre","brand":"EasyPay","brand:wikidata":"Q110583289"},"wikidata":"Q110583289","coordinates":[41.3982299,23.2051971]},"atp":false,"tags_mismatch":false},{"osm":{"type":"node","id":9658424915,"tags":{"alt_name":"Easy Pay","amenity":"payment_centre","brand":"EasyPay","brand:wikidata":"Q110583289","opening_hours":"Mo-Fr 08:00-11:30,12:00-15:30,16:00-20:00; Sa 09:00-18:00; Su 09:00-15:30"},"wikidata":"Q110583289","coordinates":[42.6771073,23.2860988]},"atp":false,"tags_mismatch":false},{"osm":{"type":"node","id":9669548518,"tags":{"alt_name":"Easy Pay","amenity":"payment_centre","brand":"EasyPay","brand:wikidata":"Q110583289"},"wikidata":"Q110583289","coordinates":[42.1983894,24.7910123]},"atp":false,"tags_mismatch":false},{"osm":{"type":"node","id":9671557381,"tags":{"addr:housenumber":"бл. 51","alt_name":"Easy Pay","amenity":"payment_centre","brand":"EasyPay","brand:wikidata":"Q110583289"},"wikidata":"Q110583289","coordinates":[43.2163898,27.9430712]},"atp":false,"tags_mismatch":false},{"osm":{"type":"node","id":9671557385,"tags":{"alt_name":"Easy Pay","amenity":"payment_centre","brand":"EasyPay","brand:wikidata":"Q110583289"},"wikidata":"Q110583289","coordinates":[43.2134631,27.934616]},"atp":false,"tags_mismatch":false},{"osm":{"type":"node","id":9690685581,"tags":{"alt_name":"Easy Pay","amenity":"payment_centre","brand":"EasyPay","brand:wikidata":"Q110583289"},"wikidata":"Q110583289","coordinates":[42.7134617,23.2394407]},"atp":false,"tags_mismatch":false},{"osm":{"type":"node","id":9696105128,"tags":{"alt_name":"Easy Pay","amenity":"payment_centre","brand":"EasyPay","brand:wikidata":"Q110583289","level":"-1","opening_hours":"Mo-Fr 08:30-19:30"},"wikidata":"Q110583289","coordinates":[42.6793442,23.3013727]},"atp":false,"tags_mismatch":false},{"osm":{"type":"node","id":9721558669,"tags":{"alt_name":"Easy Pay","amenity":"payment_centre","brand":"EasyPay","brand:wikidata":"Q110583289"},"wikidata":"Q110583289","coordinates":[42.7360193,23.3055679]},"atp":false,"tags_mismatch":false},{"osm":{"type":"node","id":9721558671,"tags":{"alt_name":"Easy Pay","amenity":"payment_centre","brand":"EasyPay","brand:wikidata":"Q110583289"},"wikidata":"Q110583289","coordinates":[42.7366036,23.3086767]},"atp":false,"tags_mismatch":false},{"osm":{"type":"node","id":9721558672,"tags":{"alt_name":"Easy Pay","amenity":"payment_centre","brand":"EasyPay","brand:wikidata":"Q110583289","opening_hours":"Mo-Fr 09:00-19:00; Sa 09:30-17:00; Su 10:00-16:00"},"wikidata":"Q110583289","coordinates":[42.7394901,23.3090298]},"atp":false,"tags_mismatch":false},{"osm":{"type":"node","id":9725199789,"tags":{"alt_name":"Easy Pay","amenity":"payment_centre","brand":"EasyPay","brand:wikidata":"Q110583289"},"wikidata":"Q110583289","coordinates":[42.7193435,23.2678789]},"atp":false,"tags_mismatch":false},{"osm":{"type":"node","id":9954720209,"tags":{"alt_name":"Easy Pay","amenity":"payment_centre","brand":"EasyPay","brand:wikidata":"Q110583289"},"wikidata":"Q110583289","coordinates":[42.7116089,23.3150313]},"atp":false,"tags_mismatch":false},{"osm":{"type":"node","id":9995138944,"tags":{"alt_name":"Easy Pay","amenity":"payment_centre","brand":"EasyPay","brand:wikidata":"Q110583289"},"wikidata":"Q110583289","coordinates":[43.2042392,27.9183028]},"atp":false,"tags_mismatch":false},{"osm":{"type":"node","id":10054534507,"tags":{"alt_name":"Easy Pay","amenity":"payment_centre","brand":"EasyPay","brand:wikidata":"Q110583289"},"wikidata":"Q110583289","coordinates":[42.6429014,23.6399527]},"atp":false,"tags_mismatch":false},{"osm":{"type":"node","id":10072687633,"tags":{"alt_name":"Easy Pay","amenity":"payment_centre","brand":"EasyPay","brand:wikidata":"Q110583289"},"wikidata":"Q110583289","coordinates":[42.2882627,24.1292427]},"atp":false,"tags_mismatch":false},{"osm":{"type":"node","id":10075448137,"tags":{"alt_name":"Easy Pay","amenity":"payment_centre","brand":"EasyPay","brand:wikidata":"Q110583289"},"wikidata":"Q110583289","coordinates":[42.7508247,23.3179888]},"atp":false,"tags_mismatch":false},{"osm":{"type":"node","id":10116667799,"tags":{"alt_name":"Easy Pay","amenity":"payment_centre","brand":"EasyPay","brand:wikidata":"Q110583289","check_date":"2025-02-04","opening_hours":"Mo-Fr 08:00-12:00,12:30-16:00,16:30-19:00; Sa 09:00-12:00,12:30-16:00,16:30-18:00; Su off"},"wikidata":"Q110583289","coordinates":[42.6715183,23.283796]},"atp":false,"tags_mismatch":false},{"osm":{"type":"node","id":10131691510,"tags":{"alt_name":"Easy Pay","amenity":"payment_centre","brand":"EasyPay","brand:wikidata":"Q110583289"},"wikidata":"Q110583289","coordinates":[43.2116715,27.9226428]},"atp":false,"tags_mismatch":false},{"osm":{"type":"node","id":10136136198,"tags":{"alt_name":"Easy Pay","amenity":"payment_centre","brand":"EasyPay","brand:wikidata":"Q110583289"},"wikidata":"Q110583289","coordinates":[42.7449967,23.2797787]},"atp":false,"tags_mismatch":false},{"osm":{"type":"node","id":10157390177,"tags":{"alt_name":"Easy Pay","amenity":"payment_centre","brand":"EasyPay","brand:wikidata":"Q110583289","check_date":"2022-11-04"},"wikidata":"Q110583289","coordinates":[42.4944313,27.4719721]},"atp":false,"tags_mismatch":false},{"osm":{"type":"node","id":10180750420,"tags":{"alt_name":"Easy Pay","amenity":"payment_centre","brand":"EasyPay","brand:wikidata":"Q110583289"},"wikidata":"Q110583289","coordinates":[43.272475,24.14469]},"atp":false,"tags_mismatch":false},{"osm":{"type":"node","id":10212445509,"tags":{"alt_name":"Easy Pay","amenity":"payment_centre","brand":"EasyPay","brand:wikidata":"Q110583289"},"wikidata":"Q110583289","coordinates":[42.614817,23.338925]},"atp":false,"tags_mismatch":false},{"osm":{"type":"node","id":10227911345,"tags":{"addr:housenumber":"5","addr:postcode":"1164","addr:street":"Златовръх","alt_name":"Easy Pay","amenity":"payment_centre","brand":"EasyPay","brand:wikidata":"Q110583289","check_date:opening_hours":"2024-05-13","opening_hours":"Mo-Fr 10:00-13:30,14:00-16:30,17:00-19:00; Sa 10:00-13:30,14:00-16:30,17:00-18:00","wheelchair":"yes"},"wikidata":"Q110583289","coordinates":[42.6737725,23.3334967]},"atp":false,"tags_mismatch":false},{"osm":{"type":"node","id":10233103442,"tags":{"alt_name":"Easy Pay","amenity":"payment_centre","brand":"EasyPay","brand:wikidata":"Q110583289","opening_hours":"Mo-Fr 08:15-11:30,12:00-16:00,16:30-19:00"},"wikidata":"Q110583289","coordinates":[42.694977,23.317016]},"atp":false,"tags_mismatch":false},{"osm":{"type":"node","id":10245075681,"tags":{"alt_name":"Easy Pay","amenity":"payment_centre","brand":"EasyPay","brand:wikidata":"Q110583289","opening_hours":"Mo-Fr 09:00-18:00; Sa 09:00-14:00; Su off"},"wikidata":"Q110583289","coordinates":[42.5424279,25.5744175]},"atp":false,"tags_mismatch":false},{"osm":{"type":"node","id":10252910931,"tags":{"addr:housenumber":"204","addr:street":"бул. Черни връх","alt_name":"Easy Pay","amenity":"payment_centre","brand":"EasyPay","brand:wikidata":"Q110583289","check_date":"2022-12-11","opening_hours":"Mo-Sa 09:00-21:00; Su 09:00-20:00","website":"https://easypay.bg"},"wikidata":"Q110583289","coordinates":[42.6405432,23.3116453]},"atp":false,"tags_mismatch":false},{"osm":{"type":"node","id":10252938242,"tags":{"alt_name":"Easy Pay","amenity":"payment_centre","brand":"EasyPay","brand:wikidata":"Q110583289","check_date":"2024-11-10","opening_hours":"Mo-Sa 09:00-13:00,13:30-16:30,17:00-21:00; Su 10:00-13:00,13:30-16:00,16:30-19:00"},"wikidata":"Q110583289","coordinates":[42.6653851,23.289372]},"atp":false,"tags_mismatch":false},{"osm":{"type":"node","id":10264911943,"tags":{"alt_name":"Easy Pay","amenity":"payment_centre","brand":"EasyPay","brand:wikidata":"Q110583289","check_date":"2024-11-18","opening_hours":"Mo-Fr 08:00-11:00,11:30-15:00,15:30-19:00; Sa 09:00-11:00,11:30-15:00,15:30-18:00; Su off"},"wikidata":"Q110583289","coordinates":[42.6697853,23.2772025]},"atp":false,"tags_mismatch":false},{"osm":{"type":"node","id":10556630449,"tags":{"alt_name":"Easy Pay","amenity":"payment_centre","brand":"EasyPay","brand:wikidata":"Q110583289","level":"-1","opening_hours":"Mo-Fr 07:00-11:00,11:30-15:00,15:30-19:00"},"wikidata":"Q110583289","coordinates":[42.6589818,23.3164718]},"atp":false,"tags_mismatch":false},{"osm":{"type":"node","id":10561843177,"tags":{"alt_name":"Easy Pay","amenity":"payment_centre","brand":"EasyPay","brand:wikidata":"Q110583289","level":"1","level:ref":"2","opening_hours":"Mo-Sa 09:00-21:00; Su 09:00-20:00","payment:cash":"yes","payment:contactless":"yes","payment:credit_cards":"yes","wheelchair":"yes"},"wikidata":"Q110583289","coordinates":[42.6409423,23.3350389]},"atp":false,"tags_mismatch":false},{"osm":{"type":"node","id":10598963752,"tags":{"alt_name":"Easy Pay","amenity":"payment_centre","brand":"EasyPay","brand:wikidata":"Q110583289","opening_hours":"Mo-Fr 07:00-19:00; Sa 09:00-18:00"},"wikidata":"Q110583289","coordinates":[42.6863224,23.3322736]},"atp":false,"tags_mismatch":false},{"osm":{"type":"node","id":10605512481,"tags":{"alt_name":"Easy Pay","amenity":"payment_centre","brand":"EasyPay","brand:wikidata":"Q110583289"},"wikidata":"Q110583289","coordinates":[42.3401409,24.8115471]},"atp":false,"tags_mismatch":false},{"osm":{"type":"node","id":10655366319,"tags":{"alt_name":"Easy Pay","amenity":"payment_centre","brand":"EasyPay","brand:wikidata":"Q110583289"},"wikidata":"Q110583289","coordinates":[42.9208776,22.9293346]},"atp":false,"tags_mismatch":false},{"osm":{"type":"node","id":10671541120,"tags":{"alt_name":"Easy Pay","amenity":"payment_centre","brand":"EasyPay","brand:wikidata":"Q110583289","opening_hours":"Mo-Fr 08:30-19:00; Sa-Su 09:00-12:30, 13:00-18:00","wheelchair":"yes"},"wikidata":"Q110583289","coordinates":[42.7107836,23.3164388]},"atp":false,"tags_mismatch":false},{"osm":{"type":"node","id":10697274715,"tags":{"addr:city":"Стара Загора","addr:housenumber":"2","addr:street":"Иван Вазов","alt_name":"Easy Pay","amenity":"payment_centre","brand":"EasyPay","brand:wikidata":"Q110583289"},"wikidata":"Q110583289","coordinates":[42.4330163,25.6385161]},"atp":false,"tags_mismatch":false},{"osm":{"type":"node","id":10719271035,"tags":{"alt_name":"Easy Pay","amenity":"payment_centre","brand":"EasyPay","brand:wikidata":"Q110583289","check_date":"2025-03-17","opening_hours":"Mo-Fr 08:00-19:00; Sa 09:00-13:00"},"wikidata":"Q110583289","coordinates":[42.6869311,23.3009093]},"atp":false,"tags_mismatch":false},{"osm":{"type":"node","id":10749326411,"tags":{"alt_name":"Easy Pay","amenity":"payment_centre","brand":"EasyPay","brand:wikidata":"Q110583289","check_date":"2024-10-07","opening_hours":"Mo-Fr 08:30-17:30"},"wikidata":"Q110583289","coordinates":[42.6485642,23.270557]},"atp":false,"tags_mismatch":false},{"osm":{"type":"node","id":10807309508,"tags":{"alt_name":"Easy Pay","amenity":"payment_centre","brand":"EasyPay","brand:wikidata":"Q110583289","check_date:opening_hours":"2023-05-30","opening_hours":"Mo-Fr 09:00-13:00,14:00-18:00; Sa 10:00-14:00"},"wikidata":"Q110583289","coordinates":[42.6706889,23.3164619]},"atp":false,"tags_mismatch":false},{"osm":{"type":"node","id":10807895845,"tags":{"alt_name":"Easy Pay","amenity":"payment_centre","brand":"EasyPay","brand:wikidata":"Q110583289","check_date":"2024-11-07","contact:phone":"+359 88 346 0824","note":"Това е в самия магазин за дрехи","opening_hours":"Mo-Fr 10:00-19:00","payment:coins":"yes","payment:mastercard":"yes","payment:notes":"yes","payment:visa":"yes"},"wikidata":"Q110583289","coordinates":[42.677575,23.3007905]},"atp":false,"tags_mismatch":false},{"osm":{"type":"node","id":10846441996,"tags":{"alt_name":"Easy Pay","amenity":"payment_centre","brand":"EasyPay","brand:wikidata":"Q110583289","opening_hours":"Mo-Fr 07:00-11:30,12:00-15:30,16:00-19:00"},"wikidata":"Q110583289","coordinates":[42.6916151,23.335234]},"atp":false,"tags_mismatch":false},{"osm":{"type":"node","id":10874268917,"tags":{"alt_name":"Easy Pay","amenity":"payment_centre","brand":"EasyPay","brand:wikidata":"Q110583289"},"wikidata":"Q110583289","coordinates":[42.2707435,23.1983287]},"atp":false,"tags_mismatch":false},{"osm":{"type":"node","id":10887028070,"tags":{"alt_name":"Easy Pay","amenity":"payment_centre","brand":"EasyPay","brand:wikidata":"Q110583289","check_date":"2024-11-08","check_date:opening_hours":"2024-11-08","opening_hours":"Mo-Fr 08:30-18:00"},"wikidata":"Q110583289","coordinates":[42.6660471,23.3023965]},"atp":false,"tags_mismatch":false},{"osm":{"type":"node","id":10917976188,"tags":{"alt_name":"Easy Pay","amenity":"payment_centre","brand":"EasyPay","brand:wikidata":"Q110583289","opening_hours":"Mo-Sa 08:30-19:30; Su 09:00-18:00"},"wikidata":"Q110583289","coordinates":[42.709647,23.3182135]},"atp":false,"tags_mismatch":false},{"osm":{"type":"node","id":10925889679,"tags":{"addr:city":"Враца","addr:housenumber":"2","addr:postcode":"3000","addr:street":"Славянска","alt_name":"Easy Pay","amenity":"payment_centre","brand":"EasyPay","brand:wikidata":"Q110583289","currency:BGN":"yes","currency:EUR":"yes","currency:GBP":"yes","currency:USD":"yes","opening_hours":"Mo-Sa 09:00-19:00","payment:cash":"yes","payment:contactless":"yes","payment:credit_cards":"yes","payment:debit_cards":"yes","payment:mastercard":"yes","payment:visa":"yes"},"wikidata":"Q110583289","coordinates":[43.2197872,23.5473575]},"atp":false,"tags_mismatch":false},{"osm":{"type":"node","id":10925924678,"tags":{"alt_name":"Easy Pay","amenity":"payment_centre","brand":"EasyPay","brand:wikidata":"Q110583289"},"wikidata":"Q110583289","coordinates":[43.2243638,23.5456506]},"atp":false,"tags_mismatch":false},{"osm":{"type":"node","id":10942384327,"tags":{"alt_name":"Easy Pay","amenity":"payment_centre","brand":"EasyPay","brand:wikidata":"Q110583289","check_date":"2023-05-31","payment:mastercard":"yes","payment:visa":"yes"},"wikidata":"Q110583289","coordinates":[42.661617,23.3975939]},"atp":false,"tags_mismatch":false},{"osm":{"type":"node","id":10966070166,"tags":{"alt_name":"Easy Pay","amenity":"payment_centre","brand":"EasyPay","brand:wikidata":"Q110583289"},"wikidata":"Q110583289","coordinates":[42.254198,22.8487672]},"atp":false,"tags_mismatch":false},{"osm":{"type":"node","id":11024168728,"tags":{"alt_name":"Easy Pay","amenity":"payment_centre","branch":"Брестовица","brand":"EasyPay","brand:wikidata":"Q110583289"},"wikidata":"Q110583289","coordinates":[42.0769636,24.5965325]},"atp":false,"tags_mismatch":false},{"osm":{"type":"node","id":11025963401,"tags":{"alt_name":"Easy Pay","amenity":"payment_centre","brand":"EasyPay","brand:wikidata":"Q110583289","opening_hours":"Mo-Fr 08:30-19:30"},"wikidata":"Q110583289","coordinates":[42.6683641,23.2858908]},"atp":false,"tags_mismatch":false},{"osm":{"type":"node","id":11050555573,"tags":{"alt_name":"Easy Pay","amenity":"payment_centre","brand":"EasyPay","brand:wikidata":"Q110583289"},"wikidata":"Q110583289","coordinates":[42.7184156,23.2781406]},"atp":false,"tags_mismatch":false},{"osm":{"type":"node","id":11061418642,"tags":{"alt_name":"Easy Pay","amenity":"payment_centre","brand":"EasyPay","brand:wikidata":"Q110583289","opening_hours":"Mo-Fr 09:00-18:00; Sa 09:00-14:00"},"wikidata":"Q110583289","coordinates":[42.897933,23.9111406]},"atp":false,"tags_mismatch":false},{"osm":{"type":"node","id":11081327062,"tags":{"alt_name":"Easy Pay","amenity":"payment_centre","brand":"EasyPay","brand:wikidata":"Q110583289","opening_hours":"Mo-Sa 09:00-12:30,13:00-16:00,16:30-20:00; Su 10:00-12:30,13:00-17:00"},"wikidata":"Q110583289","coordinates":[42.6615928,23.3464833]},"atp":false,"tags_mismatch":false},{"osm":{"type":"node","id":11099079059,"tags":{"alt_name":"Easy Pay","amenity":"payment_centre","brand":"EasyPay","brand:wikidata":"Q110583289","opening_hours":"Mo-Fr 08:30-19:00; Sa,Su 09:00-17:00"},"wikidata":"Q110583289","coordinates":[42.741163,23.276193]},"atp":false,"tags_mismatch":false},{"osm":{"type":"node","id":11128464088,"tags":{"alt_name":"Easy Pay","amenity":"payment_centre","brand":"EasyPay","brand:wikidata":"Q110583289","check_date":"2024-10-25","opening_hours":"Mo-Fr 09:00-18:30; Sa,Su off"},"wikidata":"Q110583289","coordinates":[42.6632164,23.2740134]},"atp":false,"tags_mismatch":false},{"osm":{"type":"node","id":11136988024,"tags":{"alt_name":"Easy Pay","amenity":"payment_centre","brand":"EasyPay","brand:wikidata":"Q110583289","opening_hours":"Mo-Fr 08:30-19:00; Sa 09:00-18:00"},"wikidata":"Q110583289","coordinates":[42.6659124,23.2722709]},"atp":false,"tags_mismatch":false},{"osm":{"type":"node","id":11137017748,"tags":{"alt_name":"Easy Pay","amenity":"payment_centre","brand":"EasyPay","brand:wikidata":"Q110583289","check_date":"2024-12-14","note":"Май работи и в събота от 9 до 17 ч.","opening_hours":"Mo-Fr 08:30-19:00","payment:cards":"no","payment:cash":"yes","payment:credit_cards":"no","payment:debit_cards":"no","wheelchair":"limited"},"wikidata":"Q110583289","coordinates":[42.6671369,23.267909]},"atp":false,"tags_mismatch":false},{"osm":{"type":"node","id":11141064014,"tags":{"addr:city":"Перник","addr:housenumber":"23","addr:postcode":"2300","addr:street":"Св. Св. Кирил и Методий","alt_name":"Easy Pay","amenity":"payment_centre","brand":"EasyPay","brand:wikidata":"Q110583289"},"wikidata":"Q110583289","coordinates":[42.6108416,23.0400984]},"atp":false,"tags_mismatch":false},{"osm":{"type":"node","id":11193554559,"tags":{"alt_name":"Easy Pay","amenity":"payment_centre","brand":"EasyPay","brand:wikidata":"Q110583289"},"wikidata":"Q110583289","coordinates":[42.6986557,23.3066429]},"atp":false,"tags_mismatch":false},{"osm":{"type":"node","id":11212816913,"tags":{"alt_name":"Easy Pay","amenity":"payment_centre","brand":"EasyPay","brand:wikidata":"Q110583289"},"wikidata":"Q110583289","coordinates":[42.710713,23.3220471]},"atp":false,"tags_mismatch":false},{"osm":{"type":"node","id":11227860144,"tags":{"alt_name":"Easy Pay","amenity":"payment_centre","brand":"EasyPay","brand:wikidata":"Q110583289"},"wikidata":"Q110583289","coordinates":[42.744029,23.2829849]},"atp":false,"tags_mismatch":false},{"osm":{"type":"node","id":11290580119,"tags":{"alt_name":"Easy Pay","amenity":"payment_centre","brand":"EasyPay","brand:wikidata":"Q110583289"},"wikidata":"Q110583289","coordinates":[42.7256635,23.2419756]},"atp":false,"tags_mismatch":false},{"osm":{"type":"node","id":11380234579,"tags":{"alt_name":"Easy Pay","amenity":"payment_centre","brand":"EasyPay","brand:wikidata":"Q110583289","level":"-1","wheelchair":"no"},"wikidata":"Q110583289","coordinates":[42.1517976,24.7932297]},"atp":false,"tags_mismatch":false},{"osm":{"type":"node","id":11391693287,"tags":{"alt_name":"Easy Pay","amenity":"payment_centre","brand":"EasyPay","brand:wikidata":"Q110583289"},"wikidata":"Q110583289","coordinates":[42.6474354,23.3929434]},"atp":false,"tags_mismatch":false},{"osm":{"type":"node","id":11519818928,"tags":{"alt_name":"Easy Pay","amenity":"payment_centre","brand":"EasyPay","brand:wikidata":"Q110583289"},"wikidata":"Q110583289","coordinates":[42.6706734,23.2578672]},"atp":false,"tags_mismatch":false},{"osm":{"type":"node","id":11559586846,"tags":{"alt_name":"Easy Pay","amenity":"payment_centre","brand":"EasyPay","brand:wikidata":"Q110583289","level":"0","opening_hours":"Mo-Sa 09:00-21:00; Su 09:00-20:00","wheelchair":"yes"},"wikidata":"Q110583289","coordinates":[42.665691,23.2800182]},"atp":false,"tags_mismatch":false},{"osm":{"type":"node","id":11672618191,"tags":{"alt_name":"Easy Pay","amenity":"payment_centre","brand":"EasyPay","brand:wikidata":"Q110583289","opening_hours":"Mo-Fr 08:30-14:00,15:00-18:00; Sa 10:00-14:00"},"wikidata":"Q110583289","coordinates":[42.6640888,23.3556812]},"atp":false,"tags_mismatch":false},{"osm":{"type":"node","id":11717041672,"tags":{"alt_name":"Easy Pay","amenity":"payment_centre","brand":"EasyPay","brand:wikidata":"Q110583289"},"wikidata":"Q110583289","coordinates":[42.6616165,23.3746677]},"atp":false,"tags_mismatch":false},{"osm":{"type":"node","id":11723449713,"tags":{"alt_name":"Easy Pay","amenity":"payment_centre","brand":"EasyPay","brand:wikidata":"Q110583289"},"wikidata":"Q110583289","coordinates":[42.6575933,23.5913374]},"atp":false,"tags_mismatch":false},{"osm":{"type":"node","id":11748894953,"tags":{"alt_name":"Easy Pay","amenity":"payment_centre","brand":"EasyPay","brand:wikidata":"Q110583289","opening_hours":"Mo-Fr 09:30-19:00; Sa 10:00-14:00"},"wikidata":"Q110583289","coordinates":[42.6808486,23.2879273]},"atp":false,"tags_mismatch":false},{"osm":{"type":"node","id":11762251572,"tags":{"alt_name":"Easy Pay","amenity":"payment_centre","brand":"EasyPay","brand:wikidata":"Q110583289","opening_hours":"09:00-18:30"},"wikidata":"Q110583289","coordinates":[42.668457,23.2689839]},"atp":false,"tags_mismatch":false},{"osm":{"type":"node","id":11768378467,"tags":{"addr:housenumber":"15","addr:street":"Д-р Атанас Москов","alt_name":"Easy Pay","amenity":"payment_centre","brand":"EasyPay","brand:wikidata":"Q110583289","check_date":"2024-08-28","internet_access":"no","opening_hours":"Mo-Sa 09:00-21:00; Su 09:00-20:00","payment:cash":"yes","payment:credit_cards":"yes","payment:debit_cards":"yes","wheelchair":"yes"},"wikidata":"Q110583289","coordinates":[42.6273037,23.3789741]},"atp":false,"tags_mismatch":false},{"osm":{"type":"node","id":11809212344,"tags":{"alt_name":"Easy Pay","amenity":"payment_centre","brand":"EasyPay","brand:wikidata":"Q110583289","opening_hours":"Mo-Fr 09:00-18:30; Sa 09:00-15:00"},"wikidata":"Q110583289","coordinates":[42.7396638,23.2742134]},"atp":false,"tags_mismatch":false},{"osm":{"type":"node","id":11816574352,"tags":{"alt_name":"Easy Pay","amenity":"payment_centre","brand":"EasyPay","brand:wikidata":"Q110583289"},"wikidata":"Q110583289","coordinates":[42.7473969,23.2746563]},"atp":false,"tags_mismatch":false},{"osm":{"type":"node","id":11845441169,"tags":{"alt_name":"Easy Pay","amenity":"payment_centre","brand":"EasyPay","brand:wikidata":"Q110583289"},"wikidata":"Q110583289","coordinates":[42.7028145,23.3133234]},"atp":false,"tags_mismatch":false},{"osm":{"type":"node","id":11849547487,"tags":{"alt_name":"Easy Pay","amenity":"payment_centre","brand":"EasyPay","brand:wikidata":"Q110583289","level":"0","opening_hours":"Mo-Sa 09:00-21:00"},"wikidata":"Q110583289","coordinates":[42.6538881,23.3601607]},"atp":false,"tags_mismatch":false},{"osm":{"type":"node","id":11850655159,"tags":{"alt_name":"Easy Pay","amenity":"payment_centre","brand":"EasyPay","brand:wikidata":"Q110583289","opening_hours":"Mo-Fr 08:00-20:00; Sa 09:00-18:00"},"wikidata":"Q110583289","coordinates":[42.6529912,23.3735148]},"atp":false,"tags_mismatch":false},{"osm":{"type":"node","id":11890000982,"tags":{"alt_name":"Easy Pay","amenity":"payment_centre","brand":"EasyPay","brand:wikidata":"Q110583289","mapillary":"1125144378538149"},"wikidata":"Q110583289","coordinates":[42.2379149,24.8248328]},"atp":false,"tags_mismatch":false},{"osm":{"type":"node","id":11901106454,"tags":{"alt_name":"Easy Pay","amenity":"payment_centre","brand":"EasyPay","brand:wikidata":"Q110583289","opening_hours":"Mo-Sa 09:00-20:00; Su 10:00-17:00"},"wikidata":"Q110583289","coordinates":[42.6420761,23.33619]},"atp":false,"tags_mismatch":false},{"osm":{"type":"node","id":11933527556,"tags":{"alt_name":"Easy Pay","amenity":"payment_centre","brand":"EasyPay","brand:wikidata":"Q110583289","check_date":"2024-11-17","internet_access":"no","opening_hours":"Mo-Fr 08:00-19:30; Sa 08:00-17:00; Su 09:00-17:00","wheelchair":"yes"},"wikidata":"Q110583289","coordinates":[43.4226797,24.5966237]},"atp":false,"tags_mismatch":false},{"osm":{"type":"node","id":11936906852,"tags":{"alt_name":"Easy Pay","amenity":"payment_centre","brand":"EasyPay","brand:wikidata":"Q110583289"},"wikidata":"Q110583289","coordinates":[42.6629376,27.6941398]},"atp":false,"tags_mismatch":false},{"osm":{"type":"node","id":11938894756,"tags":{"alt_name":"Easy Pay","amenity":"payment_centre","brand":"EasyPay","brand:wikidata":"Q110583289","check_date:opening_hours":"2025-03-18","level":"-1","opening_hours:signed":"no"},"wikidata":"Q110583289","coordinates":[42.6999657,23.321606]},"atp":false,"tags_mismatch":false},{"osm":{"type":"node","id":11940447569,"tags":{"alt_name":"Easy Pay","amenity":"payment_centre","brand":"EasyPay","brand:wikidata":"Q110583289","check_date":"2025-02-13","opening_hours":"Mo-Fr 10:00-22:00"},"wikidata":"Q110583289","coordinates":[42.705062,23.3178262]},"atp":false,"tags_mismatch":false},{"osm":{"type":"node","id":11956537643,"tags":{"alt_name":"Easy Pay","amenity":"payment_centre","brand":"EasyPay","brand:wikidata":"Q110583289"},"wikidata":"Q110583289","coordinates":[42.02094,23.1006931]},"atp":false,"tags_mismatch":false},{"osm":{"type":"node","id":11961104576,"tags":{"alt_name":"Easy Pay","amenity":"payment_centre","brand":"EasyPay","brand:wikidata":"Q110583289","opening_hours":"Mo-Fr 08:00-18:00; Sa 08:00-13:00"},"wikidata":"Q110583289","coordinates":[43.2072725,24.1635323]},"atp":false,"tags_mismatch":false},{"osm":{"type":"node","id":11966503730,"tags":{"addr:city":"София","addr:housenumber":"186","addr:street":"бул. Ломско шосе","alt_name":"Easy Pay","amenity":"payment_centre","brand":"EasyPay","brand:wikidata":"Q110583289","opening_hours":"Пон-Пет:08:00-11:00  11:30-15:00  15:30-19:00"},"wikidata":"Q110583289","coordinates":[42.7354442,23.2935243]},"atp":false,"tags_mismatch":false},{"osm":{"type":"node","id":11966503738,"tags":{"alt_name":"Easy Pay","amenity":"payment_centre","brand":"EasyPay","brand:wikidata":"Q110583289"},"wikidata":"Q110583289","coordinates":[42.7380802,23.2973196]},"atp":false,"tags_mismatch":false},{"osm":{"type":"node","id":11981068109,"tags":{"alt_name":"Easy Pay","amenity":"payment_centre","brand":"EasyPay","brand:wikidata":"Q110583289","opening_hours":"Mo-Fr 09:00-14:00,15:00-19:00; Sa 10:00-17:00"},"wikidata":"Q110583289","coordinates":[42.6479815,23.3790781]},"atp":false,"tags_mismatch":false},{"osm":{"type":"node","id":11981095879,"tags":{"alt_name":"Easy Pay","amenity":"payment_centre","brand":"EasyPay","brand:wikidata":"Q110583289","level":"-1","opening_hours":"Mo-Fr 07:00-11:30,12:00-15:30,16:00-19:00"},"wikidata":"Q110583289","coordinates":[42.6479234,23.3767162]},"atp":false,"tags_mismatch":false},{"osm":{"type":"node","id":11994927010,"tags":{"alt_name":"Easy Pay","amenity":"payment_centre","brand":"EasyPay","brand:wikidata":"Q110583289","opening_hours":"Mo-Su 09:00-21:00"},"wikidata":"Q110583289","coordinates":[42.7038406,27.7159286]},"atp":false,"tags_mismatch":false},{"osm":{"type":"node","id":12031763792,"tags":{"alt_name":"Easy Pay","amenity":"payment_centre","brand":"EasyPay","brand:wikidata":"Q110583289"},"wikidata":"Q110583289","coordinates":[42.1474904,24.7781792]},"atp":false,"tags_mismatch":false},{"osm":{"type":"node","id":12037493643,"tags":{"alt_name":"Easy Pay","amenity":"payment_centre","brand":"EasyPay","brand:wikidata":"Q110583289"},"wikidata":"Q110583289","coordinates":[42.1277477,24.7945402]},"atp":false,"tags_mismatch":false},{"osm":{"type":"node","id":12045370116,"tags":{"alt_name":"Easy Pay","amenity":"payment_centre","brand":"EasyPay","brand:wikidata":"Q110583289","opening_hours":"Mo-Fr 09:00-12:00,12:30-15:30,16:00-18:00; Sa 10:00-13:00,13:30-17:00"},"wikidata":"Q110583289","coordinates":[42.6867378,23.3229506]},"atp":false,"tags_mismatch":false},{"osm":{"type":"node","id":12054490244,"tags":{"alt_name":"Easy Pay","amenity":"payment_centre","brand":"EasyPay","brand:wikidata":"Q110583289","opening_hours":"Mo-Sa 09:00-13:00,13:30-16:30,17:00-21:00; Su 09:00-13:00,13:30-16:00,16:30-20:00"},"wikidata":"Q110583289","coordinates":[42.671988,23.2997253]},"atp":false,"tags_mismatch":false},{"osm":{"type":"node","id":12069373042,"tags":{"alt_name":"Easy Pay","amenity":"payment_centre","brand":"EasyPay","brand:wikidata":"Q110583289","opening_hours":"Mo-Su 08:00-12:00,12:30-16:00,16:30-20:00"},"wikidata":"Q110583289","coordinates":[42.689083,23.3199696]},"atp":false,"tags_mismatch":false},{"osm":{"type":"node","id":12069377378,"tags":{"alt_name":"Easy Pay","amenity":"payment_centre","brand":"EasyPay","brand:wikidata":"Q110583289","opening_hours":"Mo-Fr 10:00-19:00"},"wikidata":"Q110583289","coordinates":[42.6897885,23.3177616]},"atp":false,"tags_mismatch":false},{"osm":{"type":"node","id":12073982241,"tags":{"alt_name":"Easy Pay","amenity":"payment_centre","brand":"EasyPay","brand:wikidata":"Q110583289"},"wikidata":"Q110583289","coordinates":[42.8093343,23.2125302]},"atp":false,"tags_mismatch":false},{"osm":{"type":"node","id":12078866585,"tags":{"alt_name":"Easy Pay","amenity":"payment_centre","brand":"EasyPay","brand:wikidata":"Q110583289","opening_hours":"Mo-Sa 09:00-21:00; Su 09:00-20:00"},"wikidata":"Q110583289","coordinates":[42.6756108,23.3089864]},"atp":false,"tags_mismatch":false},{"osm":{"type":"node","id":12088857314,"tags":{"alt_name":"Easy Pay","amenity":"payment_centre","brand":"EasyPay","brand:wikidata":"Q110583289","note":"There is a car insurance broker too"},"wikidata":"Q110583289","coordinates":[43.371501,25.6337501]},"atp":false,"tags_mismatch":false},{"osm":{"type":"node","id":12101332793,"tags":{"alt_name":"Easy Pay","amenity":"payment_centre","brand":"EasyPay","brand:wikidata":"Q110583289","indoor":"yes","opening_hours":"08:30-19:00"},"wikidata":"Q110583289","coordinates":[42.6745814,23.2594648]},"atp":false,"tags_mismatch":false},{"osm":{"type":"node","id":12105857223,"tags":{"alt_name":"Easy Pay","amenity":"payment_centre","brand":"EasyPay","brand:wikidata":"Q110583289","opening_hours":"Mo-Fr 09:00-14:00,15:00-18:00"},"wikidata":"Q110583289","coordinates":[42.6910421,23.3176371]},"atp":false,"tags_mismatch":false},{"osm":{"type":"node","id":12134463618,"tags":{"alt_name":"Easy Pay","amenity":"payment_centre","brand":"EasyPay","brand:wikidata":"Q110583289"},"wikidata":"Q110583289","coordinates":[42.6487487,23.2624077]},"atp":false,"tags_mismatch":false},{"osm":{"type":"node","id":12141775102,"tags":{"addr:housenumber":"14","addr:place":"ж.к. Младост 4","addr:street":"406-та","alt_name":"Easy Pay","amenity":"payment_centre","brand":"EasyPay","brand:wikidata":"Q110583289","check_date":"2024-08-28","internet_access":"no","opening_hours":"Mo-Sa 09:00-21:00; Su 10:00-19:00","payment:cards":"no","payment:cash":"yes","payment:credit_cards":"no","payment:debit_cards":"no","wheelchair":"yes"},"wikidata":"Q110583289","coordinates":[42.629601,23.3810125]},"atp":false,"tags_mismatch":false},{"osm":{"type":"node","id":12152420885,"tags":{"alt_name":"Easy Pay","amenity":"payment_centre","brand":"EasyPay","brand:wikidata":"Q110583289","opening_hours":"09:00-19:00"},"wikidata":"Q110583289","coordinates":[42.7004001,23.3261875]},"atp":false,"tags_mismatch":false},{"osm":{"type":"node","id":12165544884,"tags":{"alt_name":"Easy Pay","amenity":"payment_centre","brand":"EasyPay","brand:wikidata":"Q110583289","opening_hours":"Mo-Su 09:00-19:00"},"wikidata":"Q110583289","coordinates":[42.6901783,23.3312847]},"atp":false,"tags_mismatch":false},{"osm":{"type":"node","id":12213544993,"tags":{"alt_name":"Easy Pay","amenity":"payment_centre","brand":"EasyPay","brand:wikidata":"Q110583289"},"wikidata":"Q110583289","coordinates":[42.1414076,24.7395403]},"atp":false,"tags_mismatch":false},{"osm":{"type":"node","id":12222913376,"tags":{"alt_name":"Easy Pay","amenity":"payment_centre","brand":"EasyPay","brand:wikidata":"Q110583289","opening_hours":"Mo-Fr 08:00-19:00"},"wikidata":"Q110583289","coordinates":[42.6886131,23.3050188]},"atp":false,"tags_mismatch":false},{"osm":{"type":"node","id":12228136474,"tags":{"alt_name":"Easy Pay","amenity":"payment_centre","brand":"EasyPay","brand:wikidata":"Q110583289","check_date":"2024-10-05","internet_access":"no","opening_hours":"Mo-Sa 09:00-20:00","payment:cards":"no","payment:cash":"yes","payment:credit_cards":"no","payment:debit_cards":"no","wheelchair":"yes"},"wikidata":"Q110583289","coordinates":[43.4241428,24.5986826]},"atp":false,"tags_mismatch":false},{"osm":{"type":"node","id":12234889537,"tags":{"alt_name":"Easy Pay","amenity":"payment_centre","brand":"EasyPay","brand:wikidata":"Q110583289","opening_hours":"Mo-Sa 09:00-13:00,13:30-16:00,16:30-21:00; Su 10:00-13:00,13:30-16:00,16:30-19:00"},"wikidata":"Q110583289","coordinates":[42.6680767,23.3194807]},"atp":false,"tags_mismatch":false},{"osm":{"type":"node","id":12250502921,"tags":{"alt_name":"Easy Pay","amenity":"payment_centre","brand":"EasyPay","brand:wikidata":"Q110583289","opening_hours":"Mo-Fr 09:00-13:30,14:00-16:00,16:30-19:00; Sa 10:00-14:00,14:30-18:00"},"wikidata":"Q110583289","coordinates":[42.6892314,23.344158]},"atp":false,"tags_mismatch":false},{"osm":{"type":"node","id":12278594843,"tags":{"alt_name":"Easy Pay","amenity":"payment_centre","brand":"EasyPay","brand:wikidata":"Q110583289"},"wikidata":"Q110583289","coordinates":[42.6281536,23.1968067]},"atp":false,"tags_mismatch":false},{"osm":{"type":"node","id":12297376386,"tags":{"alt_name":"Easy Pay","amenity":"payment_centre","brand":"EasyPay","brand:wikidata":"Q110583289"},"wikidata":"Q110583289","coordinates":[42.6782196,23.2888182]},"atp":false,"tags_mismatch":false},{"osm":{"type":"node","id":12297717285,"tags":{"alt_name":"Easy Pay","amenity":"payment_centre","brand":"EasyPay","brand:wikidata":"Q110583289","check_date:opening_hours":"2024-11-08","opening_hours:signed":"no"},"wikidata":"Q110583289","coordinates":[42.6758282,23.2990246]},"atp":false,"tags_mismatch":false},{"osm":{"type":"node","id":12325348345,"tags":{"alt_name":"Easy Pay","amenity":"payment_centre","brand":"EasyPay","brand:wikidata":"Q110583289"},"wikidata":"Q110583289","coordinates":[43.2252009,27.9240717]},"atp":false,"tags_mismatch":false},{"osm":{"type":"node","id":12334950174,"tags":{"alt_name":"Easy Pay","amenity":"payment_centre","brand":"EasyPay","brand:wikidata":"Q110583289"},"wikidata":"Q110583289","coordinates":[42.4242727,25.6015578]},"atp":false,"tags_mismatch":false},{"osm":{"type":"node","id":12365342834,"tags":{"alt_name":"Easy Pay","amenity":"payment_centre","brand":"EasyPay","brand:wikidata":"Q110583289"},"wikidata":"Q110583289","coordinates":[42.6799333,23.3677279]},"atp":false,"tags_mismatch":false},{"osm":{"type":"node","id":12371668506,"tags":{"alt_name":"Easy Pay","amenity":"payment_centre","brand":"EasyPay","brand:wikidata":"Q110583289"},"wikidata":"Q110583289","coordinates":[42.6874614,23.3100925]},"atp":false,"tags_mismatch":false},{"osm":{"type":"node","id":12397909093,"tags":{"alt_name":"Easy Pay","amenity":"payment_centre","brand":"EasyPay","brand:wikidata":"Q110583289","opening_hours":"Mo-Fr 09:00-12:00,12:30-15:00,15:30-19:00"},"wikidata":"Q110583289","coordinates":[42.698004,23.3294039]},"atp":false,"tags_mismatch":false},{"osm":{"type":"node","id":12400244427,"tags":{"alt_name":"Easy Pay","amenity":"payment_centre","brand":"EasyPay","brand:wikidata":"Q110583289","opening_hours":"Mo-Sa 08:30-19:00"},"wikidata":"Q110583289","coordinates":[42.7017795,23.3339864]},"atp":false,"tags_mismatch":false},{"osm":{"type":"node","id":12400244434,"tags":{"alt_name":"Easy Pay","amenity":"payment_centre","brand":"EasyPay","brand:wikidata":"Q110583289","opening_hours":"Mo-Fr 08:30-13:00,13:30-16:00,16:30-18:30"},"wikidata":"Q110583289","coordinates":[42.6991295,23.3377239]},"atp":false,"tags_mismatch":false},{"osm":{"type":"node","id":12400814483,"tags":{"alt_name":"Easy Pay","amenity":"payment_centre","brand":"EasyPay","brand:wikidata":"Q110583289","opening_hours":"Mo-Fr 09:00-18:00"},"wikidata":"Q110583289","coordinates":[42.7041446,23.3214891]},"atp":false,"tags_mismatch":false},{"osm":{"type":"node","id":12402082801,"tags":{"alt_name":"Easy Pay","amenity":"payment_centre","brand":"EasyPay","brand:wikidata":"Q110583289","check_date":"2024-12-07"},"wikidata":"Q110583289","coordinates":[43.6425248,24.591056]},"atp":false,"tags_mismatch":false},{"osm":{"type":"node","id":12409645526,"tags":{"alt_name":"Easy Pay","amenity":"payment_centre","brand":"EasyPay","brand:wikidata":"Q110583289","opening_hours":"Mo-Sa 08:30-13:00,13:30-20:00; Su 09:00-13:00,13:30-18:00"},"wikidata":"Q110583289","coordinates":[42.7044128,23.3308821]},"atp":false,"tags_mismatch":false},{"osm":{"type":"node","id":12417035977,"tags":{"alt_name":"Easy Pay","amenity":"payment_centre","brand":"EasyPay","brand:wikidata":"Q110583289","opening_hours":"09:00-18:00"},"wikidata":"Q110583289","coordinates":[42.7033309,23.3172354]},"atp":false,"tags_mismatch":false},{"osm":{"type":"node","id":12433466398,"tags":{"amenity":"payment_centre","brand":"EasyPay","brand:wikidata":"Q110583289"},"wikidata":"Q110583289","coordinates":[43.223629,27.913941]},"atp":false,"tags_mismatch":false},{"osm":{"type":"node","id":12438544342,"tags":{"alt_name":"Easy Pay","amenity":"payment_centre","brand":"EasyPay","brand:wikidata":"Q110583289"},"wikidata":"Q110583289","coordinates":[42.6676469,23.3650259]},"atp":false,"tags_mismatch":false},{"osm":{"type":"node","id":12459634449,"tags":{"alt_name":"Easy Pay","amenity":"payment_centre","brand":"EasyPay","brand:wikidata":"Q110583289"},"wikidata":"Q110583289","coordinates":[42.6712182,23.279309]},"atp":false,"tags_mismatch":false},{"osm":{"type":"node","id":12488598558,"tags":{"alt_name":"Easy Pay","amenity":"payment_centre","brand":"EasyPay","brand:wikidata":"Q110583289","opening_hours":"Mo-Fr 09:00-13:00,14:00-18:00"},"wikidata":"Q110583289","coordinates":[42.7027336,23.323611]},"atp":false,"tags_mismatch":false},{"osm":{"type":"node","id":12539231696,"tags":{"alt_name":"Easy Pay","amenity":"payment_centre","brand":"EasyPay","brand:wikidata":"Q110583289","opening_hours":"Mo-Fr 09:00-18:00"},"wikidata":"Q110583289","coordinates":[42.6982765,23.3257345]},"atp":false,"tags_mismatch":false},{"osm":{"type":"node","id":12543927437,"tags":{"alt_name":"Easy Pay","amenity":"payment_centre","brand":"EasyPay","brand:wikidata":"Q110583289","level":"-1","opening_hours":"Mo-Fr 09:00-13:00,13:30-18:30"},"wikidata":"Q110583289","coordinates":[42.6979157,23.3216545]},"atp":false,"tags_mismatch":false},{"osm":{"type":"node","id":12607596196,"tags":{"alt_name":"Easy Pay","amenity":"payment_centre","brand":"EasyPay","brand:wikidata":"Q110583289","check_date":"2025-02-21","payment:cards":"no","payment:cash":"yes","payment:credit_cards":"no","payment:debit_cards":"no","wheelchair":"yes"},"wikidata":"Q110583289","coordinates":[43.4193271,24.6270393]},"atp":false,"tags_mismatch":false},{"osm":{"type":"node","id":12609722007,"tags":{"alt_name":"Easy Pay","amenity":"payment_centre","brand":"EasyPay","brand:wikidata":"Q110583289","opening_hours":"Mo-Fr 08:00-19:30; Sa 09:00-14:00"},"wikidata":"Q110583289","coordinates":[42.6848304,23.3220148]},"atp":false,"tags_mismatch":false},{"osm":{"type":"node","id":12641299534,"tags":{"alt_name":"Easy Pay","amenity":"payment_centre","brand":"EasyPay","brand:wikidata":"Q110583289","fixme":"assumed location"},"wikidata":"Q110583289","coordinates":[42.7122348,23.3381729]},"atp":false,"tags_mismatch":false},{"osm":{"type":"node","id":12652444142,"tags":{"alt_name":"Easy Pay","amenity":"payment_centre","brand":"EasyPay","brand:wikidata":"Q110583289","opening_hours":"Mo-Fr 07:00-11:00,11:30-15:00,15:30-19:00; Sa 09:00-11:00,11:30-15:00,15:30-18:00"},"wikidata":"Q110583289","coordinates":[42.6981943,23.3195433]},"atp":false,"tags_mismatch":false},{"osm":{"type":"way","id":1079417181,"tags":{"alt_name":"Easy Pay","amenity":"payment_centre","brand":"EasyPay","brand:wikidata":"Q110583289","building":"yes"},"wikidata":"Q110583289","coordinates":[43.1918496,27.7071689]},"atp":false,"tags_mismatch":false},{"osm":{"type":"way","id":1348381731,"tags":{"alt_name":"Easy Pay","amenity":"payment_centre","brand":"EasyPay","brand:wikidata":"Q110583289","building":"yes"},"wikidata":"Q110583289","coordinates":[42.7088795,23.4581747]},"atp":false,"tags_mismatch":false}]}