{"metadata":{"name":"M-texx","key":"amenity","value":"recycling","compare_keys":false},"data":[{"osm":{"type":"node","id":11094268002,"tags":{"amenity":"recycling","operator:wikidata":"Q122947768","recycling:clothes":"yes","recycling:shoes":"yes","recycling_type":"container"},"wikidata":"Q122947768","coordinates":[42.6662013,23.281821]},"atp":{"id":"XngNtdPmRLmmrzfiE5Nxh872Otc=","tags":{"@source_uri":"https://m-texx.com/_next/static/chunks/app/(website)/locations/page-b979786c94e55244.js","@spider":"mtexx_bg","amenity":"recycling","recycling:clothes":"yes","recycling:shoes":"yes","addr:full":"кв. Манастирски ливади, ул. Казбек 57","addr:city":"София","addr:country":"BG","operator:wikidata":"Q122947768","nsi_id":"mtexx-f11175"},"coordinates":[42.666198,23.281811]},"dist":0.896,"tags_mismatch":true},{"osm":{"type":"node","id":11144034545,"tags":{"amenity":"recycling","operator:wikidata":"Q122947768","recycling:clothes":"yes","recycling:shoes":"yes","recycling_type":"container"},"wikidata":"Q122947768","coordinates":[42.6616285,23.2893645]},"atp":{"id":"B2Zp74dWpW81KMgy30mMxfxnUB4=","tags":{"@source_uri":"https://m-texx.com/_next/static/chunks/app/(website)/locations/page-b979786c94e55244.js","@spider":"mtexx_bg","amenity":"recycling","recycling:clothes":"yes","recycling:shoes":"yes","addr:full":"кв. Манастирски ливади, ул. „Иван Киров\" до City Home Park","addr:city":"София","addr:country":"BG","operator:wikidata":"Q122947768","nsi_id":"mtexx-f11175"},"coordinates":[42.661611,23.289139]},"dist":18.541,"tags_mismatch":true},{"osm":{"type":"node","id":11235987058,"tags":{"amenity":"recycling","operator:wikidata":"Q122947768","recycling:clothes":"yes","recycling:shoes":"yes","recycling_type":"container"},"wikidata":"Q122947768","coordinates":[42.6735744,23.2697386]},"atp":{"id":"sqYqmUPBBMJN6ahVOleMZfrEt0E=","tags":{"@source_uri":"https://m-texx.com/_next/static/chunks/app/(website)/locations/page-b979786c94e55244.js","@spider":"mtexx_bg","amenity":"recycling","recycling:clothes":"yes","recycling:shoes":"yes","addr:full":"ж.к. Славия, бул. „Овча купел“ №11","addr:city":"София","addr:country":"BG","operator:wikidata":"Q122947768","nsi_id":"mtexx-f11175"},"coordinates":[42.67355,23.269804]},"dist":5.996,"tags_mismatch":true},{"osm":{"type":"node","id":11241777335,"tags":{"amenity":"recycling","operator:wikidata":"Q122947768","recycling:clothes":"yes","recycling:shoes":"yes","recycling_type":"container"},"wikidata":"Q122947768","coordinates":[42.6792598,23.2843372]},"atp":{"id":"gti0jO4rKGml0nyYpSw5W73CHd0=","tags":{"@source_uri":"https://m-texx.com/_next/static/chunks/app/(website)/locations/page-b979786c94e55244.js","@spider":"mtexx_bg","amenity":"recycling","recycling:clothes":"yes","recycling:shoes":"yes","addr:full":"ж.к. Лагера, ул. Хризантема 4","addr:city":"София","addr:country":"BG","operator:wikidata":"Q122947768","nsi_id":"mtexx-f11175"},"coordinates":[42.679349,23.284073]},"dist":23.766,"tags_mismatch":true},{"osm":{"type":"node","id":11244148088,"tags":{"amenity":"recycling","operator:wikidata":"Q122947768","recycling:clothes":"yes","recycling:shoes":"yes","recycling_type":"container"},"wikidata":"Q122947768","coordinates":[42.6872401,23.3295792]},"atp":{"id":"loVyCToIeLTPhEO9_Xo-vBW6EIU=","tags":{"@source_uri":"https://m-texx.com/_next/static/chunks/app/(website)/locations/page-b979786c94e55244.js","@spider":"mtexx_bg","amenity":"recycling","recycling:clothes":"yes","recycling:shoes":"yes","addr:full":"София Център ул.Любен Каравелов 25","addr:city":"София","addr:country":"BG","operator:wikidata":"Q122947768","nsi_id":"mtexx-f11175"},"coordinates":[42.687156,23.329683]},"dist":12.627,"tags_mismatch":true},{"osm":{"type":"node","id":11257224878,"tags":{"amenity":"recycling","operator:wikidata":"Q122947768","recycling:clothes":"yes","recycling:shoes":"yes","recycling_type":"container"},"wikidata":"Q122947768","coordinates":[42.6632899,23.3445007]},"atp":{"id":"Twwxg9Fdy3gbhs78sJu1a1GHm1w=","tags":{"@source_uri":"https://m-texx.com/_next/static/chunks/app/(website)/locations/page-b979786c94e55244.js","@spider":"mtexx_bg","amenity":"recycling","recycling:clothes":"yes","recycling:shoes":"yes","addr:full":"Ж.К. Дианабад ул.Никола Габровски 20-22","addr:city":"София","addr:country":"BG","operator:wikidata":"Q122947768","nsi_id":"mtexx-f11175"},"coordinates":[42.663269,23.34453]},"dist":3.338,"tags_mismatch":true},{"osm":{"type":"node","id":11258115769,"tags":{"amenity":"recycling","operator:wikidata":"Q122947768","recycling:clothes":"yes","recycling:shoes":"yes","recycling_type":"container"},"wikidata":"Q122947768","coordinates":[42.660418,23.3006808]},"atp":{"id":"qirPKuRJm23jnEc4bcE1ImQKv88=","tags":{"@source_uri":"https://m-texx.com/_next/static/chunks/app/(website)/locations/page-b979786c94e55244.js","@spider":"mtexx_bg","amenity":"recycling","recycling:clothes":"yes","recycling:shoes":"yes","addr:full":"ж.к. Гоце Делчев, ул 406-та №5","addr:city":"София","addr:country":"BG","operator:wikidata":"Q122947768","nsi_id":"mtexx-f11175"},"coordinates":[42.660407,23.300684]},"dist":1.251,"tags_mismatch":true},{"osm":{"type":"node","id":11332600888,"tags":{"amenity":"recycling","location":"overground","operator:wikidata":"Q122947768","recycling:clothes":"yes","recycling:shoes":"yes","recycling_type":"container"},"wikidata":"Q122947768","coordinates":[42.6150567,23.3387112]},"atp":{"id":"ouIuWjwGx7Sa82uspZr-oEN43T4=","tags":{"@source_uri":"https://m-texx.com/_next/static/chunks/app/(website)/locations/page-b979786c94e55244.js","@spider":"mtexx_bg","amenity":"recycling","recycling:clothes":"yes","recycling:shoes":"yes","addr:full":"Бул Симеоновско шосе - до била","addr:city":"София","addr:country":"BG","operator:wikidata":"Q122947768","nsi_id":"mtexx-f11175"},"coordinates":[42.615156,23.338593]},"dist":14.679,"tags_mismatch":true},{"osm":{"type":"node","id":11346901034,"tags":{"amenity":"recycling","operator:wikidata":"Q122947768","recycling:clothes":"yes","recycling:shoes":"yes","recycling_type":"container"},"wikidata":"Q122947768","coordinates":[42.6649857,23.2819978]},"atp":{"id":"GfkqpqYEHK8xM_WOTnmnZtrdZoE=","tags":{"@source_uri":"https://m-texx.com/_next/static/chunks/app/(website)/locations/page-b979786c94e55244.js","@spider":"mtexx_bg","amenity":"recycling","recycling:clothes":"yes","recycling:shoes":"yes","addr:full":"кв. Манастирски ливади, ул. „Пирин“ 61-75","addr:city":"София","addr:country":"BG","operator:wikidata":"Q122947768","nsi_id":"mtexx-f11175"},"coordinates":[42.665007,23.281986]},"dist":2.557,"tags_mismatch":true},{"osm":{"type":"node","id":11399765825,"tags":{"amenity":"recycling","operator:wikidata":"Q122947768","recycling:clothes":"yes","recycling:shoes":"yes"},"wikidata":"Q122947768","coordinates":[42.6554868,23.2881947]},"atp":{"id":"5fIp7eP9hTqWv5J5VcjJbCLB9u8=","tags":{"@source_uri":"https://m-texx.com/_next/static/chunks/app/(website)/locations/page-b979786c94e55244.js","@spider":"mtexx_bg","amenity":"recycling","recycling:clothes":"yes","recycling:shoes":"yes","addr:full":"кв. Манастирски ливади, ул. \" Васил Стефанов\" 158","addr:city":"София","addr:country":"BG","operator:wikidata":"Q122947768","nsi_id":"mtexx-f11175"},"coordinates":[42.655422,23.288426]},"dist":20.241,"tags_mismatch":true},{"osm":{"type":"node","id":12033744290,"tags":{"amenity":"recycling","mapillary":"1663118901191512","operator:wikidata":"Q122947768","recycling:clothes":"yes","recycling:shoes":"yes","recycling_type":"container"},"wikidata":"Q122947768","coordinates":[42.1477546,24.7780122]},"atp":{"id":"fOt3NEjKTr976-bHsI1rhyrsgc8=","tags":{"@source_uri":"https://m-texx.com/_next/static/chunks/app/(website)/locations/page-b979786c94e55244.js","@spider":"mtexx_bg","amenity":"recycling","recycling:clothes":"yes","recycling:shoes":"yes","addr:full":"ул. „Полковник Владимир Серафимов“ 124-125, 4006 Гладно Поле","addr:city":"Пловдив","addr:country":"BG","operator:wikidata":"Q122947768","nsi_id":"mtexx-f11175"},"coordinates":[42.147713,24.777783]},"dist":19.454,"tags_mismatch":true},{"osm":{"type":"node","id":12040015253,"tags":{"amenity":"recycling","mapillary":"2240553569621587","operator:wikidata":"Q122947768","recycling:clothes":"yes","recycling:shoes":"yes","recycling_type":"container"},"wikidata":"Q122947768","coordinates":[42.1279757,24.7776028]},"atp":{"id":"0z254Jz9a-ZDoGnTJqHTHvu233k=","tags":{"@source_uri":"https://m-texx.com/_next/static/chunks/app/(website)/locations/page-b979786c94e55244.js","@spider":"mtexx_bg","amenity":"recycling","recycling:clothes":"yes","recycling:shoes":"yes","addr:full":"ул. „Димитър Ризов“ 199, 4023 Тракия, Пловдив","addr:city":"Пловдив","addr:country":"BG","operator:wikidata":"Q122947768","nsi_id":"mtexx-f11175"},"coordinates":[42.128295,24.777676]},"dist":36.014,"tags_mismatch":true},{"osm":{"type":"node","id":12040015254,"tags":{"amenity":"recycling","mapillary":"2240553569621587","operator:wikidata":"Q122947768","recycling:clothes":"yes","recycling:shoes":"yes","recycling_type":"container"},"wikidata":"Q122947768","coordinates":[42.1279693,24.7775901]},"atp":false,"tags_mismatch":false},{"osm":{"type":"node","id":12182744449,"tags":{"amenity":"recycling","operator:wikidata":"Q122947768","recycling:clothes":"yes","recycling:shoes":"yes","recycling_type":"container"},"wikidata":"Q122947768","coordinates":[42.6584079,23.3780355]},"atp":{"id":"Yzn09XqmpFaqnKBXVPS3n7T__o0=","tags":{"@source_uri":"https://m-texx.com/_next/static/chunks/app/(website)/locations/page-b979786c94e55244.js","@spider":"mtexx_bg","amenity":"recycling","recycling:clothes":"yes","recycling:shoes":"yes","addr:full":"Ж.К. Младост 1 ул.Йерусалим 12","addr:city":"София","addr:country":"BG","operator:wikidata":"Q122947768","nsi_id":"mtexx-f11175"},"coordinates":[42.658404,23.378058]},"dist":1.89,"tags_mismatch":true},{"osm":{"type":"node","id":12752691940,"tags":{"amenity":"recycling","operator:wikidata":"Q122947768","recycling:clothes":"yes","recycling:shoes":"yes","recycling_type":"container"},"wikidata":"Q122947768","coordinates":[42.6587057,23.2804906]},"atp":{"id":"Q8Mp8TNMOVKSP22zKCD4ijPXNhs=","tags":{"@source_uri":"https://m-texx.com/_next/static/chunks/app/(website)/locations/page-b979786c94e55244.js","@spider":"mtexx_bg","amenity":"recycling","recycling:clothes":"yes","recycling:shoes":"yes","addr:full":"кв. Манастирски ливади, ул. „Ралевица“ 75","addr:city":"София","addr:country":"BG","operator:wikidata":"Q122947768","nsi_id":"mtexx-f11175"},"coordinates":[42.658684,23.280501]},"dist":2.558,"tags_mismatch":true},{"osm":false,"atp":{"id":"Szzops23B7dBYEQXIxMDoUDW-Mg=","tags":{"amenity":"recycling","recycling:clothes":"yes","recycling:shoes":"yes","addr:full":"ул.Драгни Стойчев, 5641 гр.Априлци","addr:city":"Априлци","addr:country":"BG","operator:wikidata":"Q122947768"},"coordinates":[42.841756,24.917709]},"tags_mismatch":false,"dist":0},{"osm":false,"atp":{"id":"SDHRRPZihsbMQtzmLCoAwS33nes=","tags":{"amenity":"recycling","recycling:clothes":"yes","recycling:shoes":"yes","addr:full":"ул. Пирин, 6750 Ардино","addr:city":"Ардино","addr:country":"BG","operator:wikidata":"Q122947768"},"coordinates":[41.583561,25.135276]},"tags_mismatch":false,"dist":0},{"osm":false,"atp":{"id":"ooPHbrTCw5dC-dGJMOVduATp-RI=","tags":{"amenity":"recycling","recycling:clothes":"yes","recycling:shoes":"yes","addr:full":"улица Републиканска, 6750 Ардино","addr:city":"Ардино","addr:country":"BG","operator:wikidata":"Q122947768"},"coordinates":[41.583061,25.134152]},"tags_mismatch":false,"dist":0},{"osm":false,"atp":{"id":"4ZKfpU7sXFflD_7bQkxCoh-fRKE=","tags":{"amenity":"recycling","recycling:clothes":"yes","recycling:shoes":"yes","addr:full":"Ардино","addr:city":"Ардино","addr:country":"BG","operator:wikidata":"Q122947768"},"coordinates":[41.580028,25.133278]},"tags_mismatch":false,"dist":0},{"osm":false,"atp":{"id":"w8WlSDo2KXUJgDdD_la_s_75iV8=","tags":{"amenity":"recycling","recycling:clothes":"yes","recycling:shoes":"yes","addr:full":"ул. България, 2089 Антон","addr:city":"Антон","addr:country":"BG","operator:wikidata":"Q122947768"},"coordinates":[42.735078,24.260305]},"tags_mismatch":false,"dist":0},{"osm":false,"atp":{"id":"0ggWK0nECKYT_1xn05PAkaQB7Wk=","tags":{"amenity":"recycling","recycling:clothes":"yes","recycling:shoes":"yes","addr:full":"ул. „Карловска\" 24-26, 4360 Баня","addr:city":"Баня /Карлово/","addr:country":"BG","operator:wikidata":"Q122947768"},"coordinates":[42.54565,24.829924]},"tags_mismatch":false,"dist":0},{"osm":false,"atp":{"id":"VjcO2D2Q7Atjjk6dGHeTGnUqYQM=","tags":{"amenity":"recycling","recycling:clothes":"yes","recycling:shoes":"yes","addr:full":"8632 2-1, 4940 Баните","addr:city":"Баните /Смолян/","addr:country":"BG","operator:wikidata":"Q122947768"},"coordinates":[41.613912,25.006642]},"tags_mismatch":false,"dist":0},{"osm":false,"atp":{"id":"HWphJTCZgN-KVRhHwk5yGxWYR0o=","tags":{"amenity":"recycling","recycling:clothes":"yes","recycling:shoes":"yes","addr:full":"ул. Димитър Благоев, 8720 Болярово","addr:city":"Болярово","addr:country":"BG","operator:wikidata":"Q122947768"},"coordinates":[42.148889,26.809884]},"tags_mismatch":false,"dist":0},{"osm":false,"atp":{"id":"QmWfpVSIO9quAWx7wSKJQFe50MM=","tags":{"amenity":"recycling","recycling:clothes":"yes","recycling:shoes":"yes","addr:full":"А, 7174, ж.к. Красно село - кв. Борово, бул. „Никола Й. Вапцаров“ 1","addr:city":"Борово","addr:country":"BG","operator:wikidata":"Q122947768"},"coordinates":[43.488523,25.810327]},"tags_mismatch":false,"dist":0},{"osm":false,"atp":{"id":"9tn-Guo68ir7GvIDD7CmpZBwBK0=","tags":{"amenity":"recycling","recycling:clothes":"yes","recycling:shoes":"yes","addr:full":"197, 4824 Борино","addr:city":"Борино","addr:country":"BG","operator:wikidata":"Q122947768"},"coordinates":[41.683749,24.292708]},"tags_mismatch":false,"dist":0},{"osm":false,"atp":{"id":"RRJeJM5p-pAs7saCyBbse1WRYSA=","tags":{"amenity":"recycling","recycling:clothes":"yes","recycling:shoes":"yes","addr:full":"ул. Цар Освободител 41, 7100 Бяла","addr:city":"Бяла","addr:country":"BG","operator:wikidata":"Q122947768"},"coordinates":[43.465115,25.731369]},"tags_mismatch":false,"dist":0},{"osm":false,"atp":{"id":"-4uiArvi4qIcp0SwCC34rsj368c=","tags":{"amenity":"recycling","recycling:clothes":"yes","recycling:shoes":"yes","addr:full":"ул. Цар Освободител 113-101, 7100 Бяла","addr:city":"Бяла","addr:country":"BG","operator:wikidata":"Q122947768"},"coordinates":[43.461486,25.739285]},"tags_mismatch":false,"dist":0},{"osm":false,"atp":{"id":"SyywwxjG1BHJ9_WRCbFLPduEy9I=","tags":{"amenity":"recycling","recycling:clothes":"yes","recycling:shoes":"yes","addr:full":"Георги Бенковски 31, 7100 Бяла","addr:city":"Бяла","addr:country":"BG","operator:wikidata":"Q122947768"},"coordinates":[43.45438,25.738575]},"tags_mismatch":false,"dist":0},{"osm":false,"atp":{"id":"cEjWcOTnjX60OXl_vgE0Y8rYheQ=","tags":{"amenity":"recycling","recycling:clothes":"yes","recycling:shoes":"yes","addr:full":"ул. Васил Априлов 26, 7101 Гара Бяла","addr:city":"Бяла","addr:country":"BG","operator:wikidata":"Q122947768"},"coordinates":[43.468083,25.67575]},"tags_mismatch":false,"dist":0},{"osm":false,"atp":{"id":"9Oikh2R5Y59b2M_PoYG53rEfb90=","tags":{"amenity":"recycling","recycling:clothes":"yes","recycling:shoes":"yes","addr:full":"ул. „Неофит Рилски“ 65949, 9850 Велики Преслав","addr:city":"Велики Преслав","addr:country":"BG","operator:wikidata":"Q122947768"},"coordinates":[43.16214,26.801611]},"tags_mismatch":false,"dist":0},{"osm":false,"atp":{"id":"cCYMm-u8llQcALaPgm--3fMpIMM=","tags":{"amenity":"recycling","recycling:clothes":"yes","recycling:shoes":"yes","addr:full":"ул. „Борис Спиров“ 92, 9850 Велики Преслав","addr:city":"Велики Преслав","addr:country":"BG","operator:wikidata":"Q122947768"},"coordinates":[43.162844,26.807639]},"tags_mismatch":false,"dist":0},{"osm":false,"atp":{"id":"yCjPof5QA53uK0DY2VTht_LcRAo=","tags":{"amenity":"recycling","recycling:clothes":"yes","recycling:shoes":"yes","addr:full":"ул. „Панайот Волов“, 9850 Велики Преслав","addr:city":"Велики Преслав","addr:country":"BG","operator:wikidata":"Q122947768"},"coordinates":[43.159336,26.809585]},"tags_mismatch":false,"dist":0},{"osm":false,"atp":{"id":"DjPZA428_-MezVe7S8ESbiHrW4g=","tags":{"amenity":"recycling","recycling:clothes":"yes","recycling:shoes":"yes","addr:full":"9850 Велики Преслав","addr:city":"Велики Преслав","addr:country":"BG","operator:wikidata":"Q122947768"},"coordinates":[43.16188,26.815496]},"tags_mismatch":false,"dist":0},{"osm":false,"atp":{"id":"sD0n9acYWK7H7BxiyFD9ipgHCXA=","tags":{"amenity":"recycling","recycling:clothes":"yes","recycling:shoes":"yes","addr:full":"ул. „Филип Тотю“ 17-15, 5002 Район Западен, - ОУ Бачо Киро","addr:city":"Велико Търново","addr:country":"BG","operator:wikidata":"Q122947768"},"coordinates":[43.076289,25.616931]},"tags_mismatch":false,"dist":0},{"osm":false,"atp":{"id":"tvHXxJDjOy9KLvQYvVzhzveYDFs=","tags":{"amenity":"recycling","recycling:clothes":"yes","recycling:shoes":"yes","addr:full":"5000 ж.к. Акация, Велико Търново","addr:city":"Велико Търново","addr:country":"BG","operator:wikidata":"Q122947768"},"coordinates":[43.080386,25.614729]},"tags_mismatch":false,"dist":0},{"osm":false,"atp":{"id":"6ARrSqeNt7tUUAE6dSZ5l1oQ6aA=","tags":{"amenity":"recycling","recycling:clothes":"yes","recycling:shoes":"yes","addr:full":"ул „Полтава\" 5, 5005 ж.к. Колю Фичето, Велико Търново","addr:city":"Велико Търново","addr:country":"BG","operator:wikidata":"Q122947768"},"coordinates":[43.080727,25.604889]},"tags_mismatch":false,"dist":0},{"osm":false,"atp":{"id":"xMcyiXrJ_KGbM-TiW2JmzH0tECg=","tags":{"amenity":"recycling","recycling:clothes":"yes","recycling:shoes":"yes","addr:full":"ул. „Лазурна“ 1, 5008 ж.к. Зона Б, Велико Търново","addr:city":"Велико Търново","addr:country":"BG","operator:wikidata":"Q122947768"},"coordinates":[43.068667,25.618111]},"tags_mismatch":false,"dist":0},{"osm":false,"atp":{"id":"oD1Bi3dKAjjtRc67qmHlHmexWqo=","tags":{"amenity":"recycling","recycling:clothes":"yes","recycling:shoes":"yes","addr:full":"ул. „Иларион Драгостинов“, 5008 ж.к. Бузлуджа, Велико Търново","addr:city":"Велико Търново","addr:country":"BG","operator:wikidata":"Q122947768"},"coordinates":[43.066747,25.611738]},"tags_mismatch":false,"dist":0},{"osm":false,"atp":{"id":"y2gbYLWcXjnJj5kb3ARjDoeBtfA=","tags":{"amenity":"recycling","recycling:clothes":"yes","recycling:shoes":"yes","addr:full":"ул. „Райна Княгиня“ 5В, 5004 ж.к. Чолаковци, Велико Търново","addr:city":"Велико Търново","addr:country":"BG","operator:wikidata":"Q122947768"},"coordinates":[43.061876,25.600139]},"tags_mismatch":false,"dist":0},{"osm":false,"atp":{"id":"2XlpxAUkf0cwagIlJ3DVtiY_BIE=","tags":{"amenity":"recycling","recycling:clothes":"yes","recycling:shoes":"yes","addr:full":"5008 Велико Търново","addr:city":"Велико Търново","addr:country":"BG","operator:wikidata":"Q122947768"},"coordinates":[43.061833,25.605428]},"tags_mismatch":false,"dist":0},{"osm":false,"atp":{"id":"6NCTOilxYQ5P_a448PTHbafQxGk=","tags":{"amenity":"recycling","recycling:clothes":"yes","recycling:shoes":"yes","addr:full":"ул. Велико Търново, 7080 Ветово","addr:city":"Ветово","addr:country":"BG","operator:wikidata":"Q122947768"},"coordinates":[43.70424,26.26489]},"tags_mismatch":false,"dist":0},{"osm":false,"atp":{"id":"YUFKFEOEOj9_NwvVU_kQtNAGru8=","tags":{"amenity":"recycling","recycling:clothes":"yes","recycling:shoes":"yes","addr:full":"бул. „2-ри юни“ 161-149, 3001 Медковец, Враца - 2 бр.","addr:city":"Враца","addr:country":"BG","operator:wikidata":"Q122947768"},"coordinates":[43.195376,23.566735]},"tags_mismatch":false,"dist":0},{"osm":false,"atp":{"id":"-Nf-YVMVXUEQ4ZyDd7Ur7rzNE_0=","tags":{"amenity":"recycling","recycling:clothes":"yes","recycling:shoes":"yes","addr:full":"ул. „Козлодуйски бряг“ 34, 3002 ж.к. Самуил, Враца - 2 бр.","addr:city":"Враца","addr:country":"BG","operator:wikidata":"Q122947768"},"coordinates":[43.204746,23.562778]},"tags_mismatch":false,"dist":0},{"osm":false,"atp":{"id":"wdijUTjKOylRUSH4jtV3MEacOyM=","tags":{"amenity":"recycling","recycling:clothes":"yes","recycling:shoes":"yes","addr:full":"ул. „Климент Охридски“, 3000 Враца Център, Враца","addr:city":"Враца","addr:country":"BG","operator:wikidata":"Q122947768"},"coordinates":[43.208576,23.553164]},"tags_mismatch":false,"dist":0},{"osm":false,"atp":{"id":"IHTIVgo6ODIQASLkQbIjz4REqvY=","tags":{"amenity":"recycling","recycling:clothes":"yes","recycling:shoes":"yes","addr:full":"ул. „Георги С. Раковски“ 28-30, 3000 Враца Център, Враца","addr:city":"Враца","addr:country":"BG","operator:wikidata":"Q122947768"},"coordinates":[43.207079,23.550581]},"tags_mismatch":false,"dist":0},{"osm":false,"atp":{"id":"ZgSumTJWz4Oy3ms5JzPNBf3ozAo=","tags":{"amenity":"recycling","recycling:clothes":"yes","recycling:shoes":"yes","addr:full":"ул. „Сестри Хаджикръстеви“ 7, 3000 ж.к. Металург, Враца","addr:city":"Враца","addr:country":"BG","operator:wikidata":"Q122947768"},"coordinates":[43.213968,23.55162]},"tags_mismatch":false,"dist":0},{"osm":false,"atp":{"id":"pcXtFQwpXOZcxu8Is2bR1V8Fkt0=","tags":{"amenity":"recycling","recycling:clothes":"yes","recycling:shoes":"yes","addr:full":"Стоян Ц. Даскалов, 3005 ж.к. Дъбника, Враца","addr:city":"Враца","addr:country":"BG","operator:wikidata":"Q122947768"},"coordinates":[43.223719,23.552615]},"tags_mismatch":false,"dist":0},{"osm":false,"atp":{"id":"-Rrr6d6B88T36FpaTq7gygaHdC0=","tags":{"amenity":"recycling","recycling:clothes":"yes","recycling:shoes":"yes","addr:full":"3005 ж.к. Дъбника, Враца","addr:city":"Враца","addr:country":"BG","operator:wikidata":"Q122947768"},"coordinates":[43.222264,23.544641]},"tags_mismatch":false,"dist":0},{"osm":false,"atp":{"id":"fJk75rPquKFz5tygJFexc2rpV2k=","tags":{"amenity":"recycling","recycling:clothes":"yes","recycling:shoes":"yes","addr:full":"3005 ж.к. Сениче, Враца","addr:city":"Враца","addr:country":"BG","operator:wikidata":"Q122947768"},"coordinates":[43.220804,23.54128]},"tags_mismatch":false,"dist":0},{"osm":false,"atp":{"id":"ehMAAEVluheKoWQtj9pCz4b7q4o=","tags":{"amenity":"recycling","recycling:clothes":"yes","recycling:shoes":"yes","addr:full":"бул. „Христо Ботев“ 140А, 3000 72, Враца","addr:city":"Враца","addr:country":"BG","operator:wikidata":"Q122947768"},"coordinates":[43.215058,23.545027]},"tags_mismatch":false,"dist":0},{"osm":false,"atp":{"id":"FdFkiSOLjg-dwT48MLy6_JvauVg=","tags":{"amenity":"recycling","recycling:clothes":"yes","recycling:shoes":"yes","addr:full":"бул. „2-ри юни“ 47-45, 3001 Враца Център, Враца - 2 бр.","addr:city":"Враца","addr:country":"BG","operator:wikidata":"Q122947768"},"coordinates":[43.200343,23.554309]},"tags_mismatch":false,"dist":0},{"osm":false,"atp":{"id":"JKylH_oZeWXx8wy6K1gF3veFne8=","tags":{"amenity":"recycling","recycling:clothes":"yes","recycling:shoes":"yes","addr:full":"ул. „Генерал Леонов“ 14А, 3000 Враца Център, Враца","addr:city":"Враца","addr:country":"BG","operator:wikidata":"Q122947768"},"coordinates":[43.201511,23.55109]},"tags_mismatch":false,"dist":0},{"osm":false,"atp":{"id":"1HiaGpLqWFmUaRPZAKqJUcYEKzs=","tags":{"amenity":"recycling","recycling:clothes":"yes","recycling:shoes":"yes","addr:full":"ул. Оборище 7, 3000 Враца","addr:city":"Враца","addr:country":"BG","operator:wikidata":"Q122947768"},"coordinates":[43.207745,23.544704]},"tags_mismatch":false,"dist":0},{"osm":false,"atp":{"id":"HjpfjskwcOihykOw7_jPdLGjLpM=","tags":{"amenity":"recycling","recycling:clothes":"yes","recycling:shoes":"yes","addr:full":"ул. „Пирот“ 45, 5100 Горна Оряховица","addr:city":"Горна Оряховица","addr:country":"BG","operator:wikidata":"Q122947768"},"coordinates":[43.118561,25.689403]},"tags_mismatch":false,"dist":0},{"osm":false,"atp":{"id":"LzWjLTNbQrO9sAZ_lCWueB_efjM=","tags":{"amenity":"recycling","recycling:clothes":"yes","recycling:shoes":"yes","addr:full":"53 23, 5101 Горна Оряховица","addr:city":"Горна Оряховица","addr:country":"BG","operator:wikidata":"Q122947768"},"coordinates":[43.128493,25.681802]},"tags_mismatch":false,"dist":0},{"osm":false,"atp":{"id":"nckWZolSaeIIHJkCd3vdU-Ic4gM=","tags":{"amenity":"recycling","recycling:clothes":"yes","recycling:shoes":"yes","addr:full":"ул. Васил Левски 10-8, 5101 Пролет, Горна Оряховица","addr:city":"Горна Оряховица","addr:country":"BG","operator:wikidata":"Q122947768"},"coordinates":[43.13258,25.684167]},"tags_mismatch":false,"dist":0},{"osm":false,"atp":{"id":"42JzjWNvX2ejHgBFNAVCWPEb7X4=","tags":{"amenity":"recycling","recycling:clothes":"yes","recycling:shoes":"yes","addr:full":"5101 Горна Оряховица","addr:city":"Горна Оряховица","addr:country":"BG","operator:wikidata":"Q122947768"},"coordinates":[43.133609,25.679852]},"tags_mismatch":false,"dist":0},{"osm":false,"atp":{"id":"8txqRuPh_by9k0N4ro-TVRMeqpk=","tags":{"amenity":"recycling","recycling:clothes":"yes","recycling:shoes":"yes","addr:full":"ул. „Мусала“, 5102 Горна Оряховица","addr:city":"Горна Оряховица","addr:country":"BG","operator:wikidata":"Q122947768"},"coordinates":[43.139128,25.681556]},"tags_mismatch":false,"dist":0},{"osm":false,"atp":{"id":"0MG7XgfSPS9aJix_MIyJOpYOr1A=","tags":{"amenity":"recycling","recycling:clothes":"yes","recycling:shoes":"yes","addr:full":"ул. Васил Левски 4-8, 5101 Горна Оряховица","addr:city":"Горна Оряховица","addr:country":"BG","operator:wikidata":"Q122947768"},"coordinates":[43.131262,25.680751]},"tags_mismatch":false,"dist":0},{"osm":false,"atp":{"id":"Q5QjSEnknBdua1g5aIKg1kHrKd0=","tags":{"amenity":"recycling","recycling:clothes":"yes","recycling:shoes":"yes","addr:full":"5100 Горна Оряховица","addr:city":"Горна Оряховица","addr:country":"BG","operator:wikidata":"Q122947768"},"coordinates":[43.123234,25.680615]},"tags_mismatch":false,"dist":0},{"osm":false,"atp":{"id":"SDPx7G6E7FdbzjUsQQzGWwiPl1c=","tags":{"amenity":"recycling","recycling:clothes":"yes","recycling:shoes":"yes","addr:full":"бул. „Македония“, 5100 Център, Горна Оряховица","addr:city":"Горна Оряховица","addr:country":"BG","operator:wikidata":"Q122947768"},"coordinates":[43.119545,25.687766]},"tags_mismatch":false,"dist":0},{"osm":false,"atp":{"id":"-Nbd8-wpU-K_Zjq0N9JkWXc957A=","tags":{"amenity":"recycling","recycling:clothes":"yes","recycling:shoes":"yes","addr:full":"2001, 7040 Глоджево","addr:city":"Гложево","addr:country":"BG","operator:wikidata":"Q122947768"},"coordinates":[43.733477,26.388391]},"tags_mismatch":false,"dist":0},{"osm":false,"atp":{"id":"jEdNsg9R_AwAk-J63Ne0LqYBBHI=","tags":{"amenity":"recycling","recycling:clothes":"yes","recycling:shoes":"yes","addr:full":"ул. Александър Стамболийски, 6199 Гурково","addr:city":"Гурково","addr:country":"BG","operator:wikidata":"Q122947768"},"coordinates":[42.65923,25.79228]},"tags_mismatch":false,"dist":0},{"osm":false,"atp":{"id":"MqiziWc0GV9KtvG0YaTKd2-EHdo=","tags":{"amenity":"recycling","recycling:clothes":"yes","recycling:shoes":"yes","addr:full":"ул. Христо Смирненски 1, 7150 Две могили - 2 бр.","addr:city":"Две Могили","addr:country":"BG","operator:wikidata":"Q122947768"},"coordinates":[43.590957,25.874943]},"tags_mismatch":false,"dist":0},{"osm":false,"atp":{"id":"2Z9E_Qk_cumWxX0zEDrt999QodQ=","tags":{"amenity":"recycling","recycling:clothes":"yes","recycling:shoes":"yes","addr:full":"ул. Патриарх Евтимий Търновски 50, 5030 Дебелец","addr:city":"Дебелец","addr:country":"BG","operator:wikidata":"Q122947768"},"coordinates":[43.042971,25.62099]},"tags_mismatch":false,"dist":0},{"osm":false,"atp":{"id":"IQUx6HGZqnPO6Q47TAHEYMpEsys=","tags":{"amenity":"recycling","recycling:clothes":"yes","recycling:shoes":"yes","addr:full":"ул. „Емилиян Станев“ 8-6, 6404 Димитровград","addr:city":"Димитровград","addr:country":"BG","operator:wikidata":"Q122947768"},"coordinates":[42.055583,25.584083]},"tags_mismatch":false,"dist":0},{"osm":false,"atp":{"id":"ccXTNOaPlsNKfP4kj2zVXLk7uVo=","tags":{"amenity":"recycling","recycling:clothes":"yes","recycling:shoes":"yes","addr:full":"бул. Димитър Благоев 19Е, 6400 кв. Димитър Благоев, Димитровград","addr:city":"Димитровград","addr:country":"BG","operator:wikidata":"Q122947768"},"coordinates":[42.055222,25.597306]},"tags_mismatch":false,"dist":0},{"osm":false,"atp":{"id":"9odmAXPMLt7CrauUbmHIlMAAero=","tags":{"amenity":"recycling","recycling:clothes":"yes","recycling:shoes":"yes","addr:full":"ул. „Христо Г. Данов“ 8, 6404 Димитровград","addr:city":"Димитровград","addr:country":"BG","operator:wikidata":"Q122947768"},"coordinates":[42.054333,25.581611]},"tags_mismatch":false,"dist":0},{"osm":false,"atp":{"id":"CQcm0uO9tEG2R5vg5BOqGZjv6d4=","tags":{"amenity":"recycling","recycling:clothes":"yes","recycling:shoes":"yes","addr:full":"бул. „Христо Ботев“ 37-35, 6404 Димитровград","addr:city":"Димитровград","addr:country":"BG","operator:wikidata":"Q122947768"},"coordinates":[42.052028,25.583972]},"tags_mismatch":false,"dist":0},{"osm":false,"atp":{"id":"BKIF5pDq7Zq3nskZXUwvCgP1tLA=","tags":{"amenity":"recycling","recycling:clothes":"yes","recycling:shoes":"yes","addr:full":"6400 жк. Дружба, Димитровград","addr:city":"Димитровград","addr:country":"BG","operator:wikidata":"Q122947768"},"coordinates":[42.058044,25.585143]},"tags_mismatch":false,"dist":0},{"osm":false,"atp":{"id":"byNik5ry069Yvx3w-LR1t2gmXKg=","tags":{"amenity":"recycling","recycling:clothes":"yes","recycling:shoes":"yes","addr:full":"ул. „Св. Климент Охридски“ 12-6, 6400 кв. Димитър Благоев","addr:city":"Димитровград","addr:country":"BG","operator:wikidata":"Q122947768"},"coordinates":[42.057778,25.595806]},"tags_mismatch":false,"dist":0},{"osm":false,"atp":{"id":"nmJRRvCMjn-l3GtgsoATIZAHepA=","tags":{"amenity":"recycling","recycling:clothes":"yes","recycling:shoes":"yes","addr:full":"ул. „Иван Вазов“, 6400 Димитровград","addr:city":"Димитровград","addr:country":"BG","operator:wikidata":"Q122947768"},"coordinates":[42.058,25.60025]},"tags_mismatch":false,"dist":0},{"osm":false,"atp":{"id":"QWYtWDQzvOBjtTRD0Pimf9rYvOk=","tags":{"amenity":"recycling","recycling:clothes":"yes","recycling:shoes":"yes","addr:full":"Блок 3, ул. „Простор“, 6400 кв. Раковски, Димитровград","addr:city":"Димитровград","addr:country":"BG","operator:wikidata":"Q122947768"},"coordinates":[42.0615,25.601389]},"tags_mismatch":false,"dist":0},{"osm":false,"atp":{"id":"HSkd0S2_xkI0wt0eQNbtoHQfZ-c=","tags":{"amenity":"recycling","recycling:clothes":"yes","recycling:shoes":"yes","addr:full":"ул. „Христо Смирненски“, 6400 жк. Дружба, Димитровград","addr:city":"Димитровград","addr:country":"BG","operator:wikidata":"Q122947768"},"coordinates":[42.061371,25.587563]},"tags_mismatch":false,"dist":0},{"osm":false,"atp":{"id":"77aiVct1_jMsQ4epI0RyUX_9Ndc=","tags":{"amenity":"recycling","recycling:clothes":"yes","recycling:shoes":"yes","addr:full":"ул. Пенчо Славейков, 2040 Долна баня","addr:city":"Долна Баня","addr:country":"BG","operator:wikidata":"Q122947768"},"coordinates":[42.311279,23.765469]},"tags_mismatch":false,"dist":0},{"osm":false,"atp":{"id":"GfU-CepXzpAipG5FNDmgwD3EDtM=","tags":{"amenity":"recycling","recycling:clothes":"yes","recycling:shoes":"yes","addr:full":"ул.Стефан Стамболов 43, 5370 Дряново","addr:city":"Дряново","addr:country":"BG","operator:wikidata":"Q122947768"},"coordinates":[42.975347,25.475372]},"tags_mismatch":false,"dist":0},{"osm":false,"atp":{"id":"0_xEl6KHyuy4AiFb0izuYOZXbcA=","tags":{"amenity":"recycling","recycling:clothes":"yes","recycling:shoes":"yes","addr:full":"ул. Шипка 164, 5370 Дряново","addr:city":"Дряново","addr:country":"BG","operator:wikidata":"Q122947768"},"coordinates":[42.97377,25.470752]},"tags_mismatch":false,"dist":0},{"osm":false,"atp":{"id":"HJgJOaKm7WiwzGmA_9KqLA0dX2c=","tags":{"amenity":"recycling","recycling:clothes":"yes","recycling:shoes":"yes","addr:full":"6850 Джебел","addr:city":"Джебел","addr:country":"BG","operator:wikidata":"Q122947768"},"coordinates":[41.496099,25.299611]},"tags_mismatch":false,"dist":0},{"osm":false,"atp":{"id":"OSzTcXyUYu1kUGsgzdTMryOfLQM=","tags":{"amenity":"recycling","recycling:clothes":"yes","recycling:shoes":"yes","addr:full":"Йълдъръм 6, 6850 Джебел","addr:city":"Джебел","addr:country":"BG","operator:wikidata":"Q122947768"},"coordinates":[41.495816,25.303458]},"tags_mismatch":false,"dist":0},{"osm":false,"atp":{"id":"pohAMtejknZWIlfzk7JtqeGoDMI=","tags":{"amenity":"recycling","recycling:clothes":"yes","recycling:shoes":"yes","addr:full":"2180 Осем, Етрополе","addr:city":"Етрополе","addr:country":"BG","operator:wikidata":"Q122947768"},"coordinates":[42.843362,24.005762]},"tags_mismatch":false,"dist":0},{"osm":false,"atp":{"id":"XdgFIE-kBDwggIJ8bZGC7EuMcFo=","tags":{"amenity":"recycling","recycling:clothes":"yes","recycling:shoes":"yes","addr:full":"37 30-38, 2180 Етрополе","addr:city":"Етрополе","addr:country":"BG","operator:wikidata":"Q122947768"},"coordinates":[42.830544,23.998563]},"tags_mismatch":false,"dist":0},{"osm":false,"atp":{"id":"Trh1udec6QmIglIIzZ3baTDow4g=","tags":{"amenity":"recycling","recycling:clothes":"yes","recycling:shoes":"yes","addr:full":"ul. Belovidovo, 4980 Златоград","addr:city":"Златоград","addr:country":"BG","operator:wikidata":"Q122947768"},"coordinates":[41.379188,25.097731]},"tags_mismatch":false,"dist":0},{"osm":false,"atp":{"id":"OXq1Oh0yKZ19r_qMef7Qi85Yo2I=","tags":{"amenity":"recycling","recycling:clothes":"yes","recycling:shoes":"yes","addr:full":"ул. Освобождение, 4980 Златоград","addr:city":"Златоград","addr:country":"BG","operator:wikidata":"Q122947768"},"coordinates":[41.380158,25.096032]},"tags_mismatch":false,"dist":0},{"osm":false,"atp":{"id":"QXsTo_OH4uG22Pqr6yhUkwXlDRo=","tags":{"amenity":"recycling","recycling:clothes":"yes","recycling:shoes":"yes","addr:full":"4980 Златоград","addr:city":"Златоград","addr:country":"BG","operator:wikidata":"Q122947768"},"coordinates":[41.383676,25.09121]},"tags_mismatch":false,"dist":0},{"osm":false,"atp":{"id":"Kx5GE-e779GfHUcJZRG_HvRtQn0=","tags":{"amenity":"recycling","recycling:clothes":"yes","recycling:shoes":"yes","addr:full":"4980 Стадион Златоград","addr:city":"Златоград","addr:country":"BG","operator:wikidata":"Q122947768"},"coordinates":[41.379998,25.08529]},"tags_mismatch":false,"dist":0},{"osm":false,"atp":{"id":"sBK3OqbTz9JoY9orguBNAK4x8Lw=","tags":{"amenity":"recycling","recycling:clothes":"yes","recycling:shoes":"yes","addr:full":"ул. Владислав Варненчик 10, 2080 Златица-2бр.","addr:city":"Златица","addr:country":"BG","operator:wikidata":"Q122947768"},"coordinates":[42.712036,24.140551]},"tags_mismatch":false,"dist":0},{"osm":false,"atp":{"id":"CAXfuwq7nzvUiWbmvUcq82bHuz8=","tags":{"amenity":"recycling","recycling:clothes":"yes","recycling:shoes":"yes","addr:full":"ул. Гълъбец, 2080 Златица","addr:city":"Златица","addr:country":"BG","operator:wikidata":"Q122947768"},"coordinates":[42.719303,24.134066]},"tags_mismatch":false,"dist":0},{"osm":false,"atp":{"id":"6n2INd8sO3pGe9zoODWK84Z0pj8=","tags":{"amenity":"recycling","recycling:clothes":"yes","recycling:shoes":"yes","addr:full":"ул.Спартак 4-10, 8629 Кабиле","addr:city":"Кабиле","addr:country":"BG","operator:wikidata":"Q122947768"},"coordinates":[42.529316,26.478958]},"tags_mismatch":false,"dist":0},{"osm":false,"atp":{"id":"pBxkTroY8ALW7D282fcjbt5CIsA=","tags":{"amenity":"recycling","recycling:clothes":"yes","recycling:shoes":"yes","addr:full":"ул. Ненко Балкански 2А, кв. \"Кулата\", Казанлък","addr:city":"Казанлък","addr:country":"BG","operator:wikidata":"Q122947768"},"coordinates":[42.621946,25.403176]},"tags_mismatch":false,"dist":0},{"osm":false,"atp":{"id":"QlVsVG7gf35ruf8VyjF7TpiUzHc=","tags":{"amenity":"recycling","recycling:clothes":"yes","recycling:shoes":"yes","addr:full":"ул. „Доктор Стамболски 1, 6100 кв. Родина, Казанлък","addr:city":"Казанлък","addr:country":"BG","operator:wikidata":"Q122947768"},"coordinates":[42.618325,25.396236]},"tags_mismatch":false,"dist":0},{"osm":false,"atp":{"id":"ffgBv_KipQ0sD9uzmzvMM_lwSXA=","tags":{"amenity":"recycling","recycling:clothes":"yes","recycling:shoes":"yes","addr:full":"бул. „23-ти пехотен Шипченски полк“ 27-85, 6100 кв. Къренски, Казанлък","addr:city":"Казанлък","addr:country":"BG","operator:wikidata":"Q122947768"},"coordinates":[42.618177,25.384387]},"tags_mismatch":false,"dist":0},{"osm":false,"atp":{"id":"pN4bL_hvYIwd1wKu3FWY3l0DgyY=","tags":{"amenity":"recycling","recycling:clothes":"yes","recycling:shoes":"yes","addr:full":"бул. „23-ти пехотен Шипченски полк“147, 6103 Казанлък","addr:city":"Казанлък","addr:country":"BG","operator:wikidata":"Q122947768"},"coordinates":[42.617924,25.369985]},"tags_mismatch":false,"dist":0},{"osm":false,"atp":{"id":"SKKdDFAkGaqehPUZeqj20FNCl5k=","tags":{"amenity":"recycling","recycling:clothes":"yes","recycling:shoes":"yes","addr:full":"ж.к. Васил Левски 45 Д, Казанлък","addr:city":"Казанлък","addr:country":"BG","operator:wikidata":"Q122947768"},"coordinates":[42.622067,25.376723]},"tags_mismatch":false,"dist":0},{"osm":false,"atp":{"id":"R6n343u-q59aavKzbINmVBl6TSM=","tags":{"amenity":"recycling","recycling:clothes":"yes","recycling:shoes":"yes","addr:full":"ул. „Генерал Столетов“ 22-16, 6100 Розариум, Казанлък","addr:city":"Казанлък","addr:country":"BG","operator:wikidata":"Q122947768"},"coordinates":[42.623637,25.385928]},"tags_mismatch":false,"dist":0},{"osm":false,"atp":{"id":"TaWcnZjZf4SkzSNPjxkB3Yw_FaM=","tags":{"amenity":"recycling","recycling:clothes":"yes","recycling:shoes":"yes","addr:full":"бул. „Освобождение“, 6100 Стадиона, Казанлък","addr:city":"Казанлък","addr:country":"BG","operator:wikidata":"Q122947768"},"coordinates":[42.627781,25.388449]},"tags_mismatch":false,"dist":0},{"osm":false,"atp":{"id":"uuBvHvXfCpaONUNI-IL5wdntrrU=","tags":{"amenity":"recycling","recycling:clothes":"yes","recycling:shoes":"yes","addr:full":"Депо Казанлък","addr:city":"Казанлък","addr:country":"BG","operator:wikidata":"Q122947768"},"coordinates":[42.609209,25.396414]},"tags_mismatch":false,"dist":0},{"osm":false,"atp":{"id":"HR0LKstNxTBMiBMYSl3sUqwGdOg=","tags":{"amenity":"recycling","recycling:clothes":"yes","recycling:shoes":"yes","addr:full":"ул. 9-ти септември 5, 4370 Калофер","addr:city":"Калофер","addr:country":"BG","operator:wikidata":"Q122947768"},"coordinates":[42.610825,24.975372]},"tags_mismatch":false,"dist":0},{"osm":false,"atp":{"id":"ItxqzOdoSd8e4QXCkOgn0g-6op0=","tags":{"amenity":"recycling","recycling:clothes":"yes","recycling:shoes":"yes","addr:full":"ул. Димчо Дебеляанов, 4173 Калояново","addr:city":"Калояново","addr:country":"BG","operator:wikidata":"Q122947768"},"coordinates":[42.356841,24.731222]},"tags_mismatch":false,"dist":0},{"osm":false,"atp":{"id":"ieh2oU87QT2JfiuWNA25ngywgng=","tags":{"amenity":"recycling","recycling:clothes":"yes","recycling:shoes":"yes","addr:full":"ул. Цанко Церковски, 4302 Карлово","addr:city":"Карлово","addr:country":"BG","operator:wikidata":"Q122947768"},"coordinates":[42.645194,24.803179]},"tags_mismatch":false,"dist":0},{"osm":false,"atp":{"id":"Uni0p6mbUFo8xB4Ivorf2Ws-TYY=","tags":{"amenity":"recycling","recycling:clothes":"yes","recycling:shoes":"yes","addr:full":"Водопад 1, 4300 Център, Карлово","addr:city":"Карлово","addr:country":"BG","operator:wikidata":"Q122947768"},"coordinates":[42.64448,24.807014]},"tags_mismatch":false,"dist":0},{"osm":false,"atp":{"id":"LofRSyOllaZECSQwgW_g0rBzx4Y=","tags":{"amenity":"recycling","recycling:clothes":"yes","recycling:shoes":"yes","addr:full":"ул. Генерал Заимов No 8, 4300 Карлово","addr:city":"Карлово","addr:country":"BG","operator:wikidata":"Q122947768"},"coordinates":[42.639562,24.800176]},"tags_mismatch":false,"dist":0},{"osm":false,"atp":{"id":"aK63tepVhoW5uLlPFBD1dWZ-N1E=","tags":{"amenity":"recycling","recycling:clothes":"yes","recycling:shoes":"yes","addr:full":"ул. „Александър Стамболийски“ 44-46, 4300 кв. Васил Левски, Карлово","addr:city":"Карлово","addr:country":"BG","operator:wikidata":"Q122947768"},"coordinates":[42.636756,24.807565]},"tags_mismatch":false,"dist":0},{"osm":false,"atp":{"id":"k6ajJaz9NBBu5gt2bSOTqQjYWhM=","tags":{"amenity":"recycling","recycling:clothes":"yes","recycling:shoes":"yes","addr:full":"ул. Димитър Събев 2-6, 4300 кв. Васил Левски, Карлово","addr:city":"Карлово","addr:country":"BG","operator:wikidata":"Q122947768"},"coordinates":[42.640992,24.807323]},"tags_mismatch":false,"dist":0},{"osm":false,"atp":{"id":"iXspo9bMph6wzSafnheGaN4CN0c=","tags":{"amenity":"recycling","recycling:clothes":"yes","recycling:shoes":"yes","addr:full":"ул. „Македония“, 9930 Каспичан","addr:city":"Каспичан","addr:country":"BG","operator:wikidata":"Q122947768"},"coordinates":[43.316299,27.159186]},"tags_mismatch":false,"dist":0},{"osm":false,"atp":{"id":"CPyb_n8zbyb4O7yh2rlmYEtqo5c=","tags":{"amenity":"recycling","recycling:clothes":"yes","recycling:shoes":"yes","addr:full":"ул. „Симеон Велики“ 1a, 9930 Каспичан","addr:city":"Каспичан","addr:country":"BG","operator:wikidata":"Q122947768"},"coordinates":[43.313224,27.159422]},"tags_mismatch":false,"dist":0},{"osm":false,"atp":{"id":"IgE6TyKnDkZ7JvdNCqqHrTaccC8=","tags":{"amenity":"recycling","recycling:clothes":"yes","recycling:shoes":"yes","addr:full":"ул. „В. Михалев“, 8400 Център, Карнобат","addr:city":"Карнобат","addr:country":"BG","operator:wikidata":"Q122947768"},"coordinates":[42.648279,26.990038]},"tags_mismatch":false,"dist":0},{"osm":false,"atp":{"id":"xP_4CwVyw4Sg7g_Ukuc2OlJvnVU=","tags":{"amenity":"recycling","recycling:clothes":"yes","recycling:shoes":"yes","addr:full":"ул. „Съби Димитров“ №21, 8400 Център, Карнобат","addr:city":"Карнобат","addr:country":"BG","operator:wikidata":"Q122947768"},"coordinates":[42.643837,26.98464]},"tags_mismatch":false,"dist":0},{"osm":false,"atp":{"id":"IISsPZTZmVwz58Ih3xtW_haAZkY=","tags":{"amenity":"recycling","recycling:clothes":"yes","recycling:shoes":"yes","addr:full":"ул. Възраждане, 8400 Карнобат","addr:city":"Карнобат","addr:country":"BG","operator:wikidata":"Q122947768"},"coordinates":[42.649317,26.968938]},"tags_mismatch":false,"dist":0},{"osm":false,"atp":{"id":"o4b5ZapRM2kOzGwnihuSrnphVSo=","tags":{"amenity":"recycling","recycling:clothes":"yes","recycling:shoes":"yes","addr:full":"5391 50, 8400 Център, Карнобат","addr:city":"Карнобат","addr:country":"BG","operator:wikidata":"Q122947768"},"coordinates":[42.648089,26.978402]},"tags_mismatch":false,"dist":0},{"osm":false,"atp":{"id":"YwXhFwGXTSVZElU6FAtaPacIvNY=","tags":{"amenity":"recycling","recycling:clothes":"yes","recycling:shoes":"yes","addr:full":"8400 Карнобат","addr:city":"Карнобат","addr:country":"BG","operator:wikidata":"Q122947768"},"coordinates":[42.652151,26.982803]},"tags_mismatch":false,"dist":0},{"osm":false,"atp":{"id":"gu33HRIlpQberd4wZDufgP1zQOI=","tags":{"amenity":"recycling","recycling:clothes":"yes","recycling:shoes":"yes","addr:full":"улица Александър Стамболийски 10, 5050 Килифарево","addr:city":"Килифарево","addr:country":"BG","operator:wikidata":"Q122947768"},"coordinates":[42.994182,25.621557]},"tags_mismatch":false,"dist":0},{"osm":false,"atp":{"id":"AD_DRHnj_cYVsAm_g5SD4SS3GM4=","tags":{"amenity":"recycling","recycling:clothes":"yes","recycling:shoes":"yes","addr:full":"Кърджали Център, ул. „Отец Паисий“, 6600 Кърджали","addr:city":"Кърджали","addr:country":"BG","operator:wikidata":"Q122947768"},"coordinates":[41.6429,25.369521]},"tags_mismatch":false,"dist":0},{"osm":false,"atp":{"id":"CWYB58X6wXxcKTCP7oklCll9vp8=","tags":{"amenity":"recycling","recycling:clothes":"yes","recycling:shoes":"yes","addr:full":"Кърджали Център, ул. „Македония“, 6600 Кърджали","addr:city":"Кърджали","addr:country":"BG","operator:wikidata":"Q122947768"},"coordinates":[41.643471,25.365227]},"tags_mismatch":false,"dist":0},{"osm":false,"atp":{"id":"64_Tr0SGBKDU57UvbDMn3ZJNMeY=","tags":{"amenity":"recycling","recycling:clothes":"yes","recycling:shoes":"yes","addr:full":"Кърджали Център, ул. „Екзарх Йосиф“, 6600 Кърджали","addr:city":"Кърджали","addr:country":"BG","operator:wikidata":"Q122947768"},"coordinates":[41.64522,25.3715]},"tags_mismatch":false,"dist":0},{"osm":false,"atp":{"id":"pq9VVucEVJ0YmJ4Ex8UyF179_74=","tags":{"amenity":"recycling","recycling:clothes":"yes","recycling:shoes":"yes","addr:full":"ул. „Стефан Караджа“, 6600 Кърджали","addr:city":"Кърджали","addr:country":"BG","operator:wikidata":"Q122947768"},"coordinates":[41.641045,25.372789]},"tags_mismatch":false,"dist":0},{"osm":false,"atp":{"id":"OFgeda-4nvgOZcYQrgR2H042CYQ=","tags":{"amenity":"recycling","recycling:clothes":"yes","recycling:shoes":"yes","addr:full":"Кърджали Център, 6600 Кърджали","addr:city":"Кърджали","addr:country":"BG","operator:wikidata":"Q122947768"},"coordinates":[41.63865,25.375544]},"tags_mismatch":false,"dist":0},{"osm":false,"atp":{"id":"2u0erL517wNyHWwO7LFzZmPlIiM=","tags":{"amenity":"recycling","recycling:clothes":"yes","recycling:shoes":"yes","addr:full":"Кърджали Център, бул. „България“ 63В, 6600 Кърджали","addr:city":"Кърджали","addr:country":"BG","operator:wikidata":"Q122947768"},"coordinates":[41.636077,25.373276]},"tags_mismatch":false,"dist":0},{"osm":false,"atp":{"id":"eZLgLQQVQX9_TeUeIe5hSe3Xx9E=","tags":{"amenity":"recycling","recycling:clothes":"yes","recycling:shoes":"yes","addr:full":"Кърджали Център, бул. „България“, 6600 Кърджали","addr:city":"Кърджали","addr:country":"BG","operator:wikidata":"Q122947768"},"coordinates":[41.634454,25.376907]},"tags_mismatch":false,"dist":0},{"osm":false,"atp":{"id":"w8u0yXRzkb0YWeLzZdyrl-V7OxM=","tags":{"amenity":"recycling","recycling:clothes":"yes","recycling:shoes":"yes","addr:full":"Веселчане, ул. „8-ми март“ 1, А, 6602 Кърджали","addr:city":"Кърджали","addr:country":"BG","operator:wikidata":"Q122947768"},"coordinates":[41.623045,25.377033]},"tags_mismatch":false,"dist":0},{"osm":false,"atp":{"id":"LSLDrtXxmsWVzQ9MHAL9rF-jXKE=","tags":{"amenity":"recycling","recycling:clothes":"yes","recycling:shoes":"yes","addr:full":"кв. Възрожденци, Стълби пред 15 Блок, 6609 Кърджали","addr:city":"Кърджали","addr:country":"BG","operator:wikidata":"Q122947768"},"coordinates":[41.630476,25.359286]},"tags_mismatch":false,"dist":0},{"osm":false,"atp":{"id":"7Ak0gblAArdq79YQ98Xg8Hsr358=","tags":{"amenity":"recycling","recycling:clothes":"yes","recycling:shoes":"yes","addr:full":"кв. Възрожденци, бул. „Христо Ботев“, 6609","addr:city":"Кърджали","addr:country":"BG","operator:wikidata":"Q122947768"},"coordinates":[41.636722,25.355539]},"tags_mismatch":false,"dist":0},{"osm":false,"atp":{"id":"4APkPDx49wuxIvSFxgzkhJu3C0U=","tags":{"amenity":"recycling","recycling:clothes":"yes","recycling:shoes":"yes","addr:full":"606, 2077 Копривщица","addr:city":"Копривщица","addr:country":"BG","operator:wikidata":"Q122947768"},"coordinates":[42.636065,24.360544]},"tags_mismatch":false,"dist":0},{"osm":false,"atp":{"id":"khiP9oqxPejlPon2YwGbgDuvAo4=","tags":{"amenity":"recycling","recycling:clothes":"yes","recycling:shoes":"yes","addr:full":"Център, ул. Търговска 4-10, 2030 гр. Костенец","addr:city":"Костенец","addr:country":"BG","operator:wikidata":"Q122947768"},"coordinates":[42.3087,23.858515]},"tags_mismatch":false,"dist":0},{"osm":false,"atp":{"id":"guQp8L8AqflEs47t7SATwS7HqS4=","tags":{"amenity":"recycling","recycling:clothes":"yes","recycling:shoes":"yes","addr:full":"Център, ул. „Белмекен“, 2030 Костенец","addr:city":"Костенец","addr:country":"BG","operator:wikidata":"Q122947768"},"coordinates":[42.307505,23.857618]},"tags_mismatch":false,"dist":0},{"osm":false,"atp":{"id":"Q1Ry0Lse-ZnyAujtZ7KVza6SA74=","tags":{"amenity":"recycling","recycling:clothes":"yes","recycling:shoes":"yes","addr:full":"ул. „Толбухин“ 4, 5835 Център, Кнежа","addr:city":"Кнежа","addr:country":"BG","operator:wikidata":"Q122947768"},"coordinates":[43.494373,24.079062]},"tags_mismatch":false,"dist":0},{"osm":false,"atp":{"id":"r2Sq45NBiWRegCAFfH6yFbGNuXI=","tags":{"amenity":"recycling","recycling:clothes":"yes","recycling:shoes":"yes","addr:full":"ул. Марин Боев 70, 5835 Център, Кнежа","addr:city":"Кнежа","addr:country":"BG","operator:wikidata":"Q122947768"},"coordinates":[43.497405,24.080664]},"tags_mismatch":false,"dist":0},{"osm":false,"atp":{"id":"oYZpUyPphELULlQFgUaXVybfBgY=","tags":{"amenity":"recycling","recycling:clothes":"yes","recycling:shoes":"yes","addr:full":"улица Димитър Благоев 1, 6900 Крумовград","addr:city":"Крумовград","addr:country":"BG","operator:wikidata":"Q122947768"},"coordinates":[41.474152,25.652264]},"tags_mismatch":false,"dist":0},{"osm":false,"atp":{"id":"xV0F4ucwZxfh9fgSzucAp8cYep4=","tags":{"amenity":"recycling","recycling:clothes":"yes","recycling:shoes":"yes","addr:full":"ул. „Христо Ботев“ 1, 6900 Крумовград","addr:city":"Крумовград","addr:country":"BG","operator:wikidata":"Q122947768"},"coordinates":[41.470428,25.652394]},"tags_mismatch":false,"dist":0},{"osm":false,"atp":{"id":"4sm4riNdiwZlBl42Z-pR7JxO9No=","tags":{"amenity":"recycling","recycling:clothes":"yes","recycling:shoes":"yes","addr:full":"5304 10-12, 8673 Кукорево","addr:city":"Кукорево/ Общ.Тунджа","addr:country":"BG","operator:wikidata":"Q122947768"},"coordinates":[42.447169,26.533329]},"tags_mismatch":false,"dist":0},{"osm":false,"atp":{"id":"ZcA118tHMfW4jbrxIt3-Pr3m_5E=","tags":{"amenity":"recycling","recycling:clothes":"yes","recycling:shoes":"yes","addr:full":"ул. „Осъмска“, 5500 Ловеч Център, Ловеч","addr:city":"Ловеч","addr:country":"BG","operator:wikidata":"Q122947768"},"coordinates":[43.140063,24.719992]},"tags_mismatch":false,"dist":0},{"osm":false,"atp":{"id":"rmskI-6aH8MUUJzZghU7sObb7Ng=","tags":{"amenity":"recycling","recycling:clothes":"yes","recycling:shoes":"yes","addr:full":"ул. „Осъмска“, 5500 Ловеч Център, Ловеч","addr:city":"Ловеч","addr:country":"BG","operator:wikidata":"Q122947768"},"coordinates":[43.137632,24.720171]},"tags_mismatch":false,"dist":0},{"osm":false,"atp":{"id":"JXpsIkRFg70fzRusPNVkmOoEQWA=","tags":{"amenity":"recycling","recycling:clothes":"yes","recycling:shoes":"yes","addr:full":"5507 ж.к. Червен бряг, Ловеч","addr:city":"Ловеч","addr:country":"BG","operator:wikidata":"Q122947768"},"coordinates":[43.143333,24.705417]},"tags_mismatch":false,"dist":0},{"osm":false,"atp":{"id":"wiXU1th82jdva20A9K2lLe6jsvE=","tags":{"amenity":"recycling","recycling:clothes":"yes","recycling:shoes":"yes","addr:full":"ж.к. Червен бряг, 5507 ж.к. Червен бряг, Ловеч","addr:city":"Ловеч","addr:country":"BG","operator:wikidata":"Q122947768"},"coordinates":[43.143949,24.709334]},"tags_mismatch":false,"dist":0},{"osm":false,"atp":{"id":"5Y7aSXuaTHG3VaKFIDdNSeX0Geo=","tags":{"amenity":"recycling","recycling:clothes":"yes","recycling:shoes":"yes","addr:full":"ул. „Търговска“ 60, 5500 Ловеч Център, Ловеч","addr:city":"Ловеч","addr:country":"BG","operator:wikidata":"Q122947768"},"coordinates":[43.142257210454666,24.7184808]},"tags_mismatch":false,"dist":0},{"osm":false,"atp":{"id":"D8ELUBKP67vxElR11TgAjHzk-tQ=","tags":{"amenity":"recycling","recycling:clothes":"yes","recycling:shoes":"yes","addr:full":"ул. „Търговска“ 70, 5502 Ловеч Център, Ловеч","addr:city":"Ловеч","addr:country":"BG","operator:wikidata":"Q122947768"},"coordinates":[43.144222,24.717389]},"tags_mismatch":false,"dist":0},{"osm":false,"atp":{"id":"buZVvw1QwjTXCvpypFgkXCDJTX4=","tags":{"amenity":"recycling","recycling:clothes":"yes","recycling:shoes":"yes","addr:full":"ул. „Ж. Терпешев“, 6550 Любимец","addr:city":"Любимец","addr:country":"BG","operator:wikidata":"Q122947768"},"coordinates":[41.844297,26.082242]},"tags_mismatch":false,"dist":0},{"osm":false,"atp":{"id":"xEgSAbMtmd0i8mjOU83A6mPqqlw=","tags":{"amenity":"recycling","recycling:clothes":"yes","recycling:shoes":"yes","addr:full":"ул. „Църковна“ 6, 6550 Любимец","addr:city":"Любимец","addr:country":"BG","operator:wikidata":"Q122947768"},"coordinates":[41.842714,26.080652]},"tags_mismatch":false,"dist":0},{"osm":false,"atp":{"id":"BoK_X_k4Qt-8zS_XVYenlBhdVD8=","tags":{"amenity":"recycling","recycling:clothes":"yes","recycling:shoes":"yes","addr:full":"Лъки, кв. Лъкавица","addr:city":"Лъки","addr:country":"BG","operator:wikidata":"Q122947768"},"coordinates":[41.829517,24.830349]},"tags_mismatch":false,"dist":0},{"osm":false,"atp":{"id":"EkxAfogP4fa97XGGsJVIZI66fs0=","tags":{"amenity":"recycling","recycling:clothes":"yes","recycling:shoes":"yes","addr:full":"ул. „Георги Бенковски“, 6800 Момчилград","addr:city":"Момчилград","addr:country":"BG","operator:wikidata":"Q122947768"},"coordinates":[41.523493,25.411973]},"tags_mismatch":false,"dist":0},{"osm":false,"atp":{"id":"Xkmv-J8-yAjTEX1wzmLu6YgDbn0=","tags":{"amenity":"recycling","recycling:clothes":"yes","recycling:shoes":"yes","addr:full":"ул. Максим Горки, 6800 Момчилград","addr:city":"Момчилград","addr:country":"BG","operator:wikidata":"Q122947768"},"coordinates":[41.525329,25.4138]},"tags_mismatch":false,"dist":0},{"osm":false,"atp":{"id":"Olarkga_6-OOn6rr7VrvjaiJX5s=","tags":{"amenity":"recycling","recycling:clothes":"yes","recycling:shoes":"yes","addr:full":"ул. „Гюмюрджинса“, 6800 Момчилград","addr:city":"Момчилград","addr:country":"BG","operator:wikidata":"Q122947768"},"coordinates":[41.527816,25.408754]},"tags_mismatch":false,"dist":0},{"osm":false,"atp":{"id":"vHsL60AYm6yG6zszRtRgC18G8xY=","tags":{"amenity":"recycling","recycling:clothes":"yes","recycling:shoes":"yes","addr:full":"ул. Стефан Караджа, 6800 Момчилград","addr:city":"Момчилград","addr:country":"BG","operator:wikidata":"Q122947768"},"coordinates":[41.531677,25.410343]},"tags_mismatch":false,"dist":0},{"osm":false,"atp":{"id":"lS9_Iurjpfw7mtTiNSaXdDH-JrA=","tags":{"amenity":"recycling","recycling:clothes":"yes","recycling:shoes":"yes","addr:full":"4900 Мадан","addr:city":"Мадан","addr:country":"BG","operator:wikidata":"Q122947768"},"coordinates":[41.503093,24.938064]},"tags_mismatch":false,"dist":0},{"osm":false,"atp":{"id":"eGxtYt-xrwcBocPPuJuNBr2vXLA=","tags":{"amenity":"recycling","recycling:clothes":"yes","recycling:shoes":"yes","addr:full":"ул. „Обединение“ 24, 4900 Мадан","addr:city":"Мадан","addr:country":"BG","operator:wikidata":"Q122947768"},"coordinates":[41.498385,24.939248]},"tags_mismatch":false,"dist":0},{"osm":false,"atp":{"id":"acKUhEWB3WBjwLbCXLPdOEfwYR8=","tags":{"amenity":"recycling","recycling:clothes":"yes","recycling:shoes":"yes","addr:full":"с. Средногорци","addr:city":"с. Средногорци","addr:country":"BG","operator:wikidata":"Q122947768"},"coordinates":[41.534519,24.91924]},"tags_mismatch":false,"dist":0},{"osm":false,"atp":{"id":"pEOD49V4vsWYypb8wj95aIuiQfQ=","tags":{"amenity":"recycling","recycling:clothes":"yes","recycling:shoes":"yes","addr:full":"7058 Мартен","addr:city":"Мартен /Русе/","addr:country":"BG","operator:wikidata":"Q122947768"},"coordinates":[43.913837,26.091037]},"tags_mismatch":false,"dist":0},{"osm":false,"atp":{"id":"1zSQD11-40JJ5loA1Q4La9DM-Lk=","tags":{"amenity":"recycling","recycling:clothes":"yes","recycling:shoes":"yes","addr:full":"8230 Черно море, Несебър","addr:city":"Несебър","addr:country":"BG","operator:wikidata":"Q122947768"},"coordinates":[42.658962,27.703574]},"tags_mismatch":false,"dist":0},{"osm":false,"atp":{"id":"HetVEn14fvOoWRLgzizTl87Q0QQ=","tags":{"amenity":"recycling","recycling:clothes":"yes","recycling:shoes":"yes","addr:full":"ул. „Дюни“ 21, 8230 ж.к. Младост, Несебър","addr:city":"Несебър","addr:country":"BG","operator:wikidata":"Q122947768"},"coordinates":[42.659732,27.71502]},"tags_mismatch":false,"dist":0},{"osm":false,"atp":{"id":"K5ZQbaC9p5FewXYSmdHk82p3QEc=","tags":{"amenity":"recycling","recycling:clothes":"yes","recycling:shoes":"yes","addr:full":"8900 Център, Нова Загора","addr:city":"Нова Загора","addr:country":"BG","operator:wikidata":"Q122947768"},"coordinates":[42.492218,26.011413]},"tags_mismatch":false,"dist":0},{"osm":false,"atp":{"id":"xEvJWSNQOMeS9OZe2Ge8XEkY0jk=","tags":{"amenity":"recycling","recycling:clothes":"yes","recycling:shoes":"yes","addr:full":"ул. „Г.С. Раковски“ 28, 8900 Център, Нова Загора","addr:city":"Нова Загора","addr:country":"BG","operator:wikidata":"Q122947768"},"coordinates":[42.487534,26.01541]},"tags_mismatch":false,"dist":0},{"osm":false,"atp":{"id":"DdJbmoqV5TXDkkDg0dfIMycKm84=","tags":{"amenity":"recycling","recycling:clothes":"yes","recycling:shoes":"yes","addr:full":"8900 Загоре, Нова Загора","addr:city":"Нова Загора","addr:country":"BG","operator:wikidata":"Q122947768"},"coordinates":[42.501895,26.009083]},"tags_mismatch":false,"dist":0},{"osm":false,"atp":{"id":"-pP2FBxKXUPYXEYNArQLhy6bK8o=","tags":{"amenity":"recycling","recycling:clothes":"yes","recycling:shoes":"yes","addr:full":"ул. „Христо Ботев“, 8900 Център, Нова Загора","addr:city":"Нова Загора","addr:country":"BG","operator:wikidata":"Q122947768"},"coordinates":[42.491295,26.023641]},"tags_mismatch":false,"dist":0},{"osm":false,"atp":{"id":"4qtetSa_y8B2vWI6Af2Zz2l39Do=","tags":{"amenity":"recycling","recycling:clothes":"yes","recycling:shoes":"yes","addr:full":"E87 30, 8250 Бургас, Обзор","addr:city":"Обзор","addr:country":"BG","operator:wikidata":"Q122947768"},"coordinates":[42.820221,27.880289]},"tags_mismatch":false,"dist":0},{"osm":false,"atp":{"id":"51kzfIb9SLmCaAVw21EsNQE_SSA=","tags":{"amenity":"recycling","recycling:clothes":"yes","recycling:shoes":"yes","addr:full":"ул. Трети март 2, 6155 Павел баня","addr:city":"Павел баня","addr:country":"BG","operator:wikidata":"Q122947768"},"coordinates":[42.595964,25.208878]},"tags_mismatch":false,"dist":0},{"osm":false,"atp":{"id":"cKz_riuz2BvOHWBZ3ypa6xRk_Hw=","tags":{"amenity":"recycling","recycling:clothes":"yes","recycling:shoes":"yes","addr:full":"ул. Освобождение 31, 6155 Павел баня","addr:city":"Павел баня","addr:country":"BG","operator:wikidata":"Q122947768"},"coordinates":[42.596778,25.203893]},"tags_mismatch":false,"dist":0},{"osm":false,"atp":{"id":"V9XyyX2rQkWSk3lKjdJuI0cHsOQ=","tags":{"amenity":"recycling","recycling:clothes":"yes","recycling:shoes":"yes","addr:full":"5200 Павликени ул. Филип Тотьо 13","addr:city":"Павликени","addr:country":"BG","operator:wikidata":"Q122947768"},"coordinates":[43.233629,25.317458]},"tags_mismatch":false,"dist":0},{"osm":false,"atp":{"id":"okmP4jEwuWOj9aAvUb3zeQbMbyg=","tags":{"amenity":"recycling","recycling:clothes":"yes","recycling:shoes":"yes","addr:full":"5200 Център, Павликени ул. Поп Богомил 15","addr:city":"Павликени","addr:country":"BG","operator:wikidata":"Q122947768"},"coordinates":[43.237615,25.310324]},"tags_mismatch":false,"dist":0},{"osm":false,"atp":{"id":"npYYdewO6jKVrtxQe54PsHv1nQ4=","tags":{"amenity":"recycling","recycling:clothes":"yes","recycling:shoes":"yes","addr:full":"пл. „Стефан Караджа\", 5200 Център, Павликени","addr:city":"Павликени","addr:country":"BG","operator:wikidata":"Q122947768"},"coordinates":[43.236398,25.30099]},"tags_mismatch":false,"dist":0},{"osm":false,"atp":{"id":"3zdposB7jYFOvigTnczRm46VTd0=","tags":{"amenity":"recycling","recycling:clothes":"yes","recycling:shoes":"yes","addr:full":"ул. „Георги Бенковски“ 32, 4500 Панагюрище","addr:city":"Панагюрище","addr:country":"BG","operator:wikidata":"Q122947768"},"coordinates":[42.500519,24.187835]},"tags_mismatch":false,"dist":0},{"osm":false,"atp":{"id":"1txDcRu-8jWlnecTN9cLX5iF7_M=","tags":{"amenity":"recycling","recycling:clothes":"yes","recycling:shoes":"yes","addr:full":"ул. „Петко Мачев“ 59-53, 4500 Център, Панагюрище","addr:city":"Панагюрище","addr:country":"BG","operator:wikidata":"Q122947768"},"coordinates":[42.496707,24.186261]},"tags_mismatch":false,"dist":0},{"osm":false,"atp":{"id":"6-G-LldpTLP0ZnP_2xKwblaEcfs=","tags":{"amenity":"recycling","recycling:clothes":"yes","recycling:shoes":"yes","addr:full":"ул. „Петко Мачев“ 51, 4500 Център, Панагюрище","addr:city":"Панагюрище","addr:country":"BG","operator:wikidata":"Q122947768"},"coordinates":[42.496958,24.185845]},"tags_mismatch":false,"dist":0},{"osm":false,"atp":{"id":"Nur2VcIL2g4EL5ZB9FnxNF3jZnk=","tags":{"amenity":"recycling","recycling:clothes":"yes","recycling:shoes":"yes","addr:full":"4500 Център, Панагюрище","addr:city":"Панагюрище","addr:country":"BG","operator:wikidata":"Q122947768"},"coordinates":[42.505351,24.177397]},"tags_mismatch":false,"dist":0},{"osm":false,"atp":{"id":"0XDLh5R8NpASqbQwssQzUenHPNA=","tags":{"amenity":"recycling","recycling:clothes":"yes","recycling:shoes":"yes","addr:full":"ул. „Нистор Ружеков“, 4500 Център, Панагюрище","addr:city":"Панагюрище","addr:country":"BG","operator:wikidata":"Q122947768"},"coordinates":[42.505547,24.177381]},"tags_mismatch":false,"dist":0},{"osm":false,"atp":{"id":"-MQ2JVssRk8szD5MO-ZCrpCEKuo=","tags":{"amenity":"recycling","recycling:clothes":"yes","recycling:shoes":"yes","addr:full":"ул. Княз Борис І, 2070 Център, Пирдоп","addr:city":"Пирдоп","addr:country":"BG","operator:wikidata":"Q122947768"},"coordinates":[42.702719,24.17259]},"tags_mismatch":false,"dist":0},{"osm":false,"atp":{"id":"I_guzRxU4cQ499pUB3kFB97M6Xw=","tags":{"amenity":"recycling","recycling:clothes":"yes","recycling:shoes":"yes","addr:full":"ул. Княз Александър Батенберг, 2070 Център, Пирдоп","addr:city":"Пирдоп","addr:country":"BG","operator:wikidata":"Q122947768"},"coordinates":[42.701035,24.179363]},"tags_mismatch":false,"dist":0},{"osm":false,"atp":{"id":"z8WbQsfc-0Uoz6wC0R4gbxHDUfQ=","tags":{"amenity":"recycling","recycling:clothes":"yes","recycling:shoes":"yes","addr:full":"ул. Капитан Петко войвода, 2070 Център, Пирдоп","addr:city":"Пирдоп","addr:country":"BG","operator:wikidata":"Q122947768"},"coordinates":[42.702669,24.168801]},"tags_mismatch":false,"dist":0},{"osm":false,"atp":{"id":"MbE881hZMkjnFWCtyoYIUC6ziGk=","tags":{"amenity":"recycling","recycling:clothes":"yes","recycling:shoes":"yes","addr:full":"609 4-26, 5360 ул. Стара планина, Плачковци","addr:city":"Плачковци","addr:country":"BG","operator:wikidata":"Q122947768"},"coordinates":[42.826329,25.482866]},"tags_mismatch":false,"dist":0},{"osm":false,"atp":{"id":"aTpIWQ69kujvJGmneZEPp-CeYAU=","tags":{"amenity":"recycling","recycling:clothes":"yes","recycling:shoes":"yes","addr:full":"ул. „Лозенград“ 10-18, 5804 Плевен Център, Плевен","addr:city":"Плевен","addr:country":"BG","operator:wikidata":"Q122947768"},"coordinates":[43.403056,24.609583]},"tags_mismatch":false,"dist":0},{"osm":false,"atp":{"id":"IsQPYA9xgDt8wuxcNNmf1xTcvD8=","tags":{"amenity":"recycling","recycling:clothes":"yes","recycling:shoes":"yes","addr:full":"ул. „Марин Дринов“ 2, 5804 Плевен Център, Плевен","addr:city":"Плевен","addr:country":"BG","operator:wikidata":"Q122947768"},"coordinates":[43.402333,24.614222]},"tags_mismatch":false,"dist":0},{"osm":false,"atp":{"id":"pBBPShY9DicY7U31A_mhOJTKO3Q=","tags":{"amenity":"recycling","recycling:clothes":"yes","recycling:shoes":"yes","addr:full":"ул. „Бяло море“ 2, 5801 Плевен Център, Плевен","addr:city":"Плевен","addr:country":"BG","operator:wikidata":"Q122947768"},"coordinates":[43.411417,24.614583]},"tags_mismatch":false,"dist":0},{"osm":false,"atp":{"id":"Wc2zAyrBAS20TkJM3aMfnlDxG6o=","tags":{"amenity":"recycling","recycling:clothes":"yes","recycling:shoes":"yes","addr:full":"ул. „Синчец“, 5802 ж.к. Сторгозия, Плевен","addr:city":"Плевен","addr:country":"BG","operator:wikidata":"Q122947768"},"coordinates":[43.425111,24.596278]},"tags_mismatch":false,"dist":0},{"osm":false,"atp":{"id":"w3MkiqxjlQfwwvFGrfnqtQYbC2o=","tags":{"amenity":"recycling","recycling:clothes":"yes","recycling:shoes":"yes","addr:full":"5802 ж.к. Сторгозия, Плевен","addr:city":"Плевен","addr:country":"BG","operator:wikidata":"Q122947768"},"coordinates":[43.420378,24.597734]},"tags_mismatch":false,"dist":0},{"osm":false,"atp":{"id":"kAmG9OinAy9QWWmk0nL3UsISyd4=","tags":{"amenity":"recycling","recycling:clothes":"yes","recycling:shoes":"yes","addr:full":"ул. „Еделвайс“, 5802 ж.к. Сторгозия, Плевен","addr:city":"Плевен","addr:country":"BG","operator:wikidata":"Q122947768"},"coordinates":[43.423167,24.596306]},"tags_mismatch":false,"dist":0},{"osm":false,"atp":{"id":"mVbACgVdkxTxvRWXf1JYNjjIxjg=","tags":{"amenity":"recycling","recycling:clothes":"yes","recycling:shoes":"yes","addr:full":"5806 ж.к. Дружба III, Плевен","addr:city":"Плевен","addr:country":"BG","operator:wikidata":"Q122947768"},"coordinates":[43.408111,24.644167]},"tags_mismatch":false,"dist":0},{"osm":false,"atp":{"id":"RMCS5u2c2OGAmyWB7Dbi-Xr3b0A=","tags":{"amenity":"recycling","recycling:clothes":"yes","recycling:shoes":"yes","addr:full":"ул. „Петко Р. Славейков“ 30, Плевен Център","addr:city":"Плевен","addr:country":"BG","operator:wikidata":"Q122947768"},"coordinates":[43.41475,24.619111]},"tags_mismatch":false,"dist":0},{"osm":false,"atp":{"id":"ZvF86-H6WkJAE3YFlgPcdDk5hZA=","tags":{"amenity":"recycling","recycling:clothes":"yes","recycling:shoes":"yes","addr:full":"ж.к. Дружба I, 5806 ж.к. Дружба I, Плевен","addr:city":"Плевен","addr:country":"BG","operator:wikidata":"Q122947768"},"coordinates":[43.403083,24.631778]},"tags_mismatch":false,"dist":0},{"osm":false,"atp":{"id":"8helCAQcCOPXIZUuMaQA93OWqYM=","tags":{"amenity":"recycling","recycling:clothes":"yes","recycling:shoes":"yes","addr:full":"5806 ж.к. Дружба I, Плевен","addr:city":"Плевен","addr:country":"BG","operator:wikidata":"Q122947768"},"coordinates":[43.404,24.633972]},"tags_mismatch":false,"dist":0},{"osm":false,"atp":{"id":"w4m_uwDnxLWTMfRR8BIvkhec2CE=","tags":{"amenity":"recycling","recycling:clothes":"yes","recycling:shoes":"yes","addr:full":"5806 ж.к. Дружба II, Плевен","addr:city":"Плевен","addr:country":"BG","operator:wikidata":"Q122947768"},"coordinates":[43.401583,24.636861]},"tags_mismatch":false,"dist":0},{"osm":false,"atp":{"id":"3I2gzaO_qNDCjwyHbsyk7kEjxnA=","tags":{"amenity":"recycling","recycling:clothes":"yes","recycling:shoes":"yes","addr:full":"ул. „Уилям Гладстон“ 13-9, 5803 Плевен Център, Плевен","addr:city":"Плевен","addr:country":"BG","operator:wikidata":"Q122947768"},"coordinates":[43.409278,24.624389]},"tags_mismatch":false,"dist":0},{"osm":false,"atp":{"id":"n-Jd_69M7d8Ya317tAmj-pfv2KQ=","tags":{"amenity":"recycling","recycling:clothes":"yes","recycling:shoes":"yes","addr:full":"ул. „Петко Каравелов“, 5800 Плевен","addr:city":"Плевен","addr:country":"BG","operator:wikidata":"Q122947768"},"coordinates":[43.398056,24.622194]},"tags_mismatch":false,"dist":0},{"osm":false,"atp":{"id":"rS78yamKc3STiQgFl-HwCGPJAUQ=","tags":{"amenity":"recycling","recycling:clothes":"yes","recycling:shoes":"yes","addr:full":"ул. „Мануш Войвода“, 5800 Мара Денчева, Плевен","addr:city":"Плевен","addr:country":"BG","operator:wikidata":"Q122947768"},"coordinates":[43.397722,24.62625]},"tags_mismatch":false,"dist":0},{"osm":false,"atp":{"id":"65ht_Bo8nm7oOPJCqmC8IxEXhAA=","tags":{"amenity":"recycling","recycling:clothes":"yes","recycling:shoes":"yes","addr:full":"ул. „Гургулят“ 21, 5804 Плевен Център, Плевен","addr:city":"Плевен","addr:country":"BG","operator:wikidata":"Q122947768"},"coordinates":[43.402265,24.617297]},"tags_mismatch":false,"dist":0},{"osm":false,"atp":{"id":"CgFVd3f4oZ2jFBDl03Yxppnkh_0=","tags":{"amenity":"recycling","recycling:clothes":"yes","recycling:shoes":"yes","addr:full":"ул. „Генерал Колев“ 21-11, 5800 Плевен Център, Плевен","addr:city":"Плевен","addr:country":"BG","operator:wikidata":"Q122947768"},"coordinates":[43.400829,24.622145]},"tags_mismatch":false,"dist":0},{"osm":false,"atp":{"id":"4VjBI8UPRNbgUcQOA7OpEEVivBY=","tags":{"amenity":"recycling","recycling:clothes":"yes","recycling:shoes":"yes","addr:full":"5806 Дружба 4, Плевен","addr:city":"Плевен","addr:country":"BG","operator:wikidata":"Q122947768"},"coordinates":[43.408595,24.648723]},"tags_mismatch":false,"dist":0},{"osm":false,"atp":{"id":"mnK8snHwJyyq7me6uQOT8lp-2Mk=","tags":{"amenity":"recycling","recycling:clothes":"yes","recycling:shoes":"yes","addr:full":"ул. „Свети Климент Охридски“, 5803 Плевен Център, Плевен","addr:city":"Плевен","addr:country":"BG","operator:wikidata":"Q122947768"},"coordinates":[43.409716,24.627308]},"tags_mismatch":false,"dist":0},{"osm":false,"atp":{"id":"VMBGcVolwUiQL4p8LFrqyap3WFY=","tags":{"amenity":"recycling","recycling:clothes":"yes","recycling:shoes":"yes","addr:full":"ул. „Георги Кочев“ 23-15, 5803 Плевен Център, Плевен","addr:city":"Плевен","addr:country":"BG","operator:wikidata":"Q122947768"},"coordinates":[43.413781,24.631873]},"tags_mismatch":false,"dist":0},{"osm":false,"atp":{"id":"K7R71AeCPVTW0kWzIF5mnDT4Smg=","tags":{"amenity":"recycling","recycling:clothes":"yes","recycling:shoes":"yes","addr:full":"ул. „Цар Самуил“, 5802 Северна промишлена зона, Плевен","addr:city":"Плевен","addr:country":"BG","operator:wikidata":"Q122947768"},"coordinates":[43.429554,24.5861]},"tags_mismatch":false,"dist":0},{"osm":false,"atp":{"id":"TQfCv7ZTrU1HymlxM1eDcAPjAx8=","tags":{"amenity":"recycling","recycling:clothes":"yes","recycling:shoes":"yes","addr:full":"2007 7, 9920 Плиска","addr:city":"Плиска","addr:country":"BG","operator:wikidata":"Q122947768"},"coordinates":[43.360957,27.124063]},"tags_mismatch":false,"dist":0},{"osm":false,"atp":{"id":"SuZniig_gOqup9jd8uwFfUgYJ6M=","tags":{"amenity":"recycling","recycling:clothes":"yes","recycling:shoes":"yes","addr:full":"бул. „Пещерско шосе“ 30, 4000 ж.к. Младежки хълм, Пловдив","addr:city":"Пловдив","addr:country":"BG","operator:wikidata":"Q122947768"},"coordinates":[42.139764,24.728705]},"tags_mismatch":false,"dist":0},{"osm":false,"atp":{"id":"ofNpBMTLa_nklcZIxpCG06j9GM8=","tags":{"amenity":"recycling","recycling:clothes":"yes","recycling:shoes":"yes","addr:full":"ул. „Янко Сакъзов“, 4002 Мараша, Пловдив","addr:city":"Пловдив","addr:country":"BG","operator:wikidata":"Q122947768"},"coordinates":[42.151472,24.7335]},"tags_mismatch":false,"dist":0},{"osm":false,"atp":{"id":"QSf-EkWEOFdLau1b7O_NnmXDKtk=","tags":{"amenity":"recycling","recycling:clothes":"yes","recycling:shoes":"yes","addr:full":"Мараша, Пловдив","addr:city":"Пловдив","addr:country":"BG","operator:wikidata":"Q122947768"},"coordinates":[42.148557,24.732043]},"tags_mismatch":false,"dist":0},{"osm":false,"atp":{"id":"ERaLNxCrKwl43hvBUr4OikMdpr8=","tags":{"amenity":"recycling","recycling:clothes":"yes","recycling:shoes":"yes","addr:full":"ул. „Прогрес“ 4002, 4002 Център, Пловдив","addr:city":"Пловдив","addr:country":"BG","operator:wikidata":"Q122947768"},"coordinates":[42.148144,24.726623]},"tags_mismatch":false,"dist":0},{"osm":false,"atp":{"id":"e2iLLy7yLLjKQBIwBdtn7RBOJ9M=","tags":{"amenity":"recycling","recycling:clothes":"yes","recycling:shoes":"yes","addr:full":"4002 ж.к. Младежки хълм, Пловдив","addr:city":"Пловдив","addr:country":"BG","operator:wikidata":"Q122947768"},"coordinates":[42.140729,24.726658]},"tags_mismatch":false,"dist":0},{"osm":false,"atp":{"id":"2O8RAaFSMQR3KuHa1yqQtlCCguI=","tags":{"amenity":"recycling","recycling:clothes":"yes","recycling:shoes":"yes","addr:full":"ул. „Ян Хус“ 7, 4027 ж.к. Захарна фабрика, Пловдив","addr:city":"Пловдив","addr:country":"BG","operator:wikidata":"Q122947768"},"coordinates":[42.160315,24.729712]},"tags_mismatch":false,"dist":0},{"osm":false,"atp":{"id":"IJKcCKZBLmaFNlH4fakoouv1W4Q=","tags":{"amenity":"recycling","recycling:clothes":"yes","recycling:shoes":"yes","addr:full":"ул. „Гонда вода“, 4021 Гагарин, Пловдив","addr:city":"Пловдив","addr:country":"BG","operator:wikidata":"Q122947768"},"coordinates":[42.161408,24.757139]},"tags_mismatch":false,"dist":0},{"osm":false,"atp":false,"tags_mismatch":false,"dist":0},{"osm":false,"atp":{"id":"U1QPKkKu8S1sYdabnXIkvBxAfSY=","tags":{"amenity":"recycling","recycling:clothes":"yes","recycling:shoes":"yes","addr:full":"4023 Тракия, Пловдив","addr:city":"Пловдив","addr:country":"BG","operator:wikidata":"Q122947768"},"coordinates":[42.131283,24.791734]},"tags_mismatch":false,"dist":0},{"osm":false,"atp":{"id":"qmICciUcbsS8YNfi7Vip5fwTLho=","tags":{"amenity":"recycling","recycling:clothes":"yes","recycling:shoes":"yes","addr:full":"ул. „Съединение“ 45-43, 4023 Тракия, Пловдив","addr:city":"Пловдив","addr:country":"BG","operator:wikidata":"Q122947768"},"coordinates":[42.131902,24.794659]},"tags_mismatch":false,"dist":0},{"osm":false,"atp":{"id":"mzO-qxSwc2x2_zwVP8C_G1EShn0=","tags":{"amenity":"recycling","recycling:clothes":"yes","recycling:shoes":"yes","addr:full":"жк. Тракия 96Е, 4023 кв. Капитан Бураго - А7, Пловдив","addr:city":"Пловдив","addr:country":"BG","operator:wikidata":"Q122947768"},"coordinates":[42.137435,24.796935]},"tags_mismatch":false,"dist":0},{"osm":false,"atp":{"id":"TyyYEQ-Q943a9LIm2tZUCHp93x4=","tags":{"amenity":"recycling","recycling:clothes":"yes","recycling:shoes":"yes","addr:full":"Блок 14, 4023 кв. Хан Аспарух - А9, Пловдив","addr:city":"Пловдив","addr:country":"BG","operator:wikidata":"Q122947768"},"coordinates":[42.140689,24.79451]},"tags_mismatch":false,"dist":0},{"osm":false,"atp":{"id":"wES53-eQFvRgwOwpL8xtqxhkZMo=","tags":{"amenity":"recycling","recycling:clothes":"yes","recycling:shoes":"yes","addr:full":"бул. „Освобождение“, 4023 кв. Захари Зограф - А11, Пловдив","addr:city":"Пловдив","addr:country":"BG","operator:wikidata":"Q122947768"},"coordinates":[42.136382,24.790941]},"tags_mismatch":false,"dist":0},{"osm":false,"atp":{"id":"Ox3P1T9_Vb2C7omPszmYOqE_IPc=","tags":{"amenity":"recycling","recycling:clothes":"yes","recycling:shoes":"yes","addr:full":"4023 кв. Търговски - А5, Пловдив","addr:city":"Пловдив","addr:country":"BG","operator:wikidata":"Q122947768"},"coordinates":[42.133329,24.788513]},"tags_mismatch":false,"dist":0},{"osm":false,"atp":{"id":"GVhIoEkXmDWkkLydVhs1M6cSmlY=","tags":{"amenity":"recycling","recycling:clothes":"yes","recycling:shoes":"yes","addr:full":"4002 Южна промишлена зона, Пловдив","addr:city":"Пловдив","addr:country":"BG","operator:wikidata":"Q122947768"},"coordinates":[42.134585,24.74065]},"tags_mismatch":false,"dist":0},{"osm":false,"atp":{"id":"ff9gv-t_BIfEPO2cxJhBiiXMcqA=","tags":{"amenity":"recycling","recycling:clothes":"yes","recycling:shoes":"yes","addr:full":"4000 Център, Пловдив","addr:city":"Пловдив","addr:country":"BG","operator:wikidata":"Q122947768"},"coordinates":[42.152033,24.761521]},"tags_mismatch":false,"dist":0},{"osm":false,"atp":{"id":"iIOp1OINt9tqrdnq94StnRA5p9E=","tags":{"amenity":"recycling","recycling:clothes":"yes","recycling:shoes":"yes","addr:full":"ул. „Капитан Георги Мамарчев“ 31, 4000 Център, Пловдив","addr:city":"Пловдив","addr:country":"BG","operator:wikidata":"Q122947768"},"coordinates":[42.149303,24.762397]},"tags_mismatch":false,"dist":0},{"osm":false,"atp":{"id":"eUfL2uvtgQKje_j4_sBUDdVwSc4=","tags":{"amenity":"recycling","recycling:clothes":"yes","recycling:shoes":"yes","addr:full":"ул. „Стойчо Мушанов“ 50, 4000 Пловдив","addr:city":"Пловдив","addr:country":"BG","operator:wikidata":"Q122947768"},"coordinates":[42.148026,24.761793]},"tags_mismatch":false,"dist":0},{"osm":false,"atp":{"id":"oOjZZS4Ug7UAOU3L3R5NnELomlU=","tags":{"amenity":"recycling","recycling:clothes":"yes","recycling:shoes":"yes","addr:full":"ул. „Родопи“, 4000 Пловдив","addr:city":"Пловдив","addr:country":"BG","operator:wikidata":"Q122947768"},"coordinates":[42.145563,24.758573]},"tags_mismatch":false,"dist":0},{"osm":false,"atp":{"id":"VxWZNP6kK_rbo4JED1l5KP_s6Wc=","tags":{"amenity":"recycling","recycling:clothes":"yes","recycling:shoes":"yes","addr:full":"ул. „Родопи“, 4000 Пловдив","addr:city":"Пловдив","addr:country":"BG","operator:wikidata":"Q122947768"},"coordinates":[42.145563,24.758573]},"tags_mismatch":false,"dist":0},{"osm":false,"atp":{"id":"gnHFtD159PNEJxsqgTu8ccSPKs8=","tags":{"amenity":"recycling","recycling:clothes":"yes","recycling:shoes":"yes","addr:full":"4019 бул. Цариградско шосе 15, Пловдив","addr:city":"Пловдив","addr:country":"BG","operator:wikidata":"Q122947768"},"coordinates":[42.149,24.782847]},"tags_mismatch":false,"dist":0},{"osm":false,"atp":{"id":"VqMcy-ZBJlx0sJQPDEL3uTFvMMU=","tags":{"amenity":"recycling","recycling:clothes":"yes","recycling:shoes":"yes","addr:full":"4006 Столипиново, Пловдив","addr:city":"Пловдив","addr:country":"BG","operator:wikidata":"Q122947768"},"coordinates":[42.156297,24.783706]},"tags_mismatch":false,"dist":0},{"osm":false,"atp":{"id":"CMSPsOMvxHO81IiTUzPoG2C42Bo=","tags":{"amenity":"recycling","recycling:clothes":"yes","recycling:shoes":"yes","addr:full":"ул. „Ландос“, 4006 Столипиново, Пловдив","addr:city":"Пловдив","addr:country":"BG","operator:wikidata":"Q122947768"},"coordinates":[42.149964,24.786161]},"tags_mismatch":false,"dist":0},{"osm":false,"atp":{"id":"NqlY7r5OQAh0UwRSIzpHaYyH5qs=","tags":{"amenity":"recycling","recycling:clothes":"yes","recycling:shoes":"yes","addr:full":"ул. „Буная“ 1, 4006 Изгрев, Пловдив","addr:city":"Пловдив","addr:country":"BG","operator:wikidata":"Q122947768"},"coordinates":[42.149819,24.788045]},"tags_mismatch":false,"dist":0},{"osm":false,"atp":{"id":"07aropUjCuxyr2EbwQks-1gnzvo=","tags":{"amenity":"recycling","recycling:clothes":"yes","recycling:shoes":"yes","addr:full":"ул. „Златорог“, 4006 Изгрев, Пловдив","addr:city":"Пловдив","addr:country":"BG","operator:wikidata":"Q122947768"},"coordinates":[42.150698,24.788878]},"tags_mismatch":false,"dist":0},{"osm":false,"atp":false,"tags_mismatch":false,"dist":0},{"osm":false,"atp":{"id":"gDnlBnKKjQ73wJkUhPR2WRtBCho=","tags":{"amenity":"recycling","recycling:clothes":"yes","recycling:shoes":"yes","addr:full":"ул. „Богомил“ 89, 4017 Казарми, Пловдив","addr:city":"Пловдив","addr:country":"BG","operator:wikidata":"Q122947768"},"coordinates":[42.141266,24.771914]},"tags_mismatch":false,"dist":0},{"osm":false,"atp":{"id":"q61MfJRfal--lvM1YvECros0mtE=","tags":{"amenity":"recycling","recycling:clothes":"yes","recycling:shoes":"yes","addr:full":"4004 Южна промишлена зона, Пловдив","addr:city":"Пловдив","addr:country":"BG","operator:wikidata":"Q122947768"},"coordinates":[42.123687,24.759897]},"tags_mismatch":false,"dist":0},{"osm":false,"atp":{"id":"-X75DOoTs28XnoDW7FPqauBV3YY=","tags":{"amenity":"recycling","recycling:clothes":"yes","recycling:shoes":"yes","addr:full":"бул. „Цариградско шосе“, 4019 Гладно Поле, Пловдив","addr:city":"Пловдив","addr:country":"BG","operator:wikidata":"Q122947768"},"coordinates":[42.148057,24.775839]},"tags_mismatch":false,"dist":0},{"osm":false,"atp":{"id":"dfLaXWnZtOJ9XvtNCnPSsOygWgE=","tags":{"amenity":"recycling","recycling:clothes":"yes","recycling:shoes":"yes","addr:full":"ул. „Лев Толстой“ 1, 4017 Каменица 2, Пловдив","addr:city":"Пловдив","addr:country":"BG","operator:wikidata":"Q122947768"},"coordinates":[42.141009,24.768455]},"tags_mismatch":false,"dist":0},{"osm":false,"atp":{"id":"b5e2pnK-NdylX2skmmdX0f4_rGU=","tags":{"amenity":"recycling","recycling:clothes":"yes","recycling:shoes":"yes","addr:full":"ул. „Богомил“ 34, 4000 Каменица 1, Пловдив","addr:city":"Пловдив","addr:country":"BG","operator:wikidata":"Q122947768"},"coordinates":[42.138923,24.756441]},"tags_mismatch":false,"dist":0},{"osm":false,"atp":{"id":"2D0sENwNysyayBNpOkwU8oWUyr8=","tags":{"amenity":"recycling","recycling:clothes":"yes","recycling:shoes":"yes","addr:full":"ул. „Ралица“ 2, 4017 Каменица 2, Пловдив","addr:city":"Пловдив","addr:country":"BG","operator:wikidata":"Q122947768"},"coordinates":[42.142059,24.765438]},"tags_mismatch":false,"dist":0},{"osm":false,"atp":{"id":"ZjmdWQkao1IPWCHeG3Dn1Ip_EZo=","tags":{"amenity":"recycling","recycling:clothes":"yes","recycling:shoes":"yes","addr:full":"Северен, 4003 Пловдив","addr:city":"Пловдив","addr:country":"BG","operator:wikidata":"Q122947768"},"coordinates":[42.155399,24.717789]},"tags_mismatch":false,"dist":0},{"osm":false,"atp":{"id":"v2imCQec6tPluP5faNfFEKW5Fjo=","tags":{"amenity":"recycling","recycling:clothes":"yes","recycling:shoes":"yes","addr:full":"бул. Васил Априлов 146, Северен, 4027 Пловдив","addr:city":"Пловдив","addr:country":"BG","operator:wikidata":"Q122947768"},"coordinates":[42.159938,24.731152]},"tags_mismatch":false,"dist":0},{"osm":false,"atp":{"id":"U7XAxjjTVHJixEFckT4eOMSlcTM=","tags":{"amenity":"recycling","recycling:clothes":"yes","recycling:shoes":"yes","addr:full":"ул. „Полковник Сава Муткуров“ 93, 4003 Пловдив","addr:city":"Пловдив","addr:country":"BG","operator:wikidata":"Q122947768"},"coordinates":[42.155782,24.732499]},"tags_mismatch":false,"dist":0},{"osm":false,"atp":{"id":"y82be5b1AhB9zC8schm2WmlwwOo=","tags":{"amenity":"recycling","recycling:clothes":"yes","recycling:shoes":"yes","addr:full":"ул. „Цар Иван Александър“ 1, 4000 Център, Пловдив","addr:city":"Пловдив","addr:country":"BG","operator:wikidata":"Q122947768"},"coordinates":[42.143594,24.743194]},"tags_mismatch":false,"dist":0},{"osm":false,"atp":{"id":"4tenN1FoVF5m9bsnFBhxL6AhUbA=","tags":{"amenity":"recycling","recycling:clothes":"yes","recycling:shoes":"yes","addr:full":"ул. „Генерал Данаил Николаев“ 22-28, 4020 Център, Пловдив","addr:city":"Пловдив","addr:country":"BG","operator:wikidata":"Q122947768"},"coordinates":[42.148096,24.738282]},"tags_mismatch":false,"dist":0},{"osm":false,"atp":{"id":"YG8LzecZoDosAk_cteuCBlZGgsQ=","tags":{"amenity":"recycling","recycling:clothes":"yes","recycling:shoes":"yes","addr:full":"ул. „Хан Аспарух“ 141-137, 4000 Съдийски, Пловдив","addr:city":"Пловдив","addr:country":"BG","operator:wikidata":"Q122947768"},"coordinates":[42.134665,24.757262]},"tags_mismatch":false,"dist":0},{"osm":false,"atp":{"id":"vzjYe_0VjJlU-3Vn10pPreX2FYM=","tags":{"amenity":"recycling","recycling:clothes":"yes","recycling:shoes":"yes","addr:full":"4016 Коматево, Пловдив","addr:city":"Пловдив","addr:country":"BG","operator:wikidata":"Q122947768"},"coordinates":[42.100357,24.70239]},"tags_mismatch":false,"dist":0},{"osm":false,"atp":{"id":"Zu9zHlb4AZF0LwW_MWMzrcXmZ7A=","tags":{"amenity":"recycling","recycling:clothes":"yes","recycling:shoes":"yes","addr:full":"ул. „Константин Геров“, 4004 ж.к. Христо Ботев - Юг, Пловдив","addr:city":"Пловдив","addr:country":"BG","operator:wikidata":"Q122947768"},"coordinates":[42.126011,24.724392]},"tags_mismatch":false,"dist":0},{"osm":false,"atp":{"id":"aU3BlnQgOz_plqQ0r8DvHH6rKnI=","tags":{"amenity":"recycling","recycling:clothes":"yes","recycling:shoes":"yes","addr:full":"ул. „Пере Тошев“ 83-81, 4004 ж.к. Христо Ботев - Юг, Пловдив","addr:city":"Пловдив","addr:country":"BG","operator:wikidata":"Q122947768"},"coordinates":[42.12224,24.747679]},"tags_mismatch":false,"dist":0},{"osm":false,"atp":{"id":"kxayUStihYClApzb2mnJngz_nUE=","tags":{"amenity":"recycling","recycling:clothes":"yes","recycling:shoes":"yes","addr:full":"ул. „Иван Гарванов“, 4030 ж.к. Христо Ботев - Север, Пловдив","addr:city":"Пловдив","addr:country":"BG","operator:wikidata":"Q122947768"},"coordinates":[42.126071,24.74958]},"tags_mismatch":false,"dist":0},{"osm":false,"atp":{"id":"epsUsqvi2DY_z5hqwH1ET6bYMCo=","tags":{"amenity":"recycling","recycling:clothes":"yes","recycling:shoes":"yes","addr:full":"4004 ж.к. Христо Ботев - Юг, Пловдив","addr:city":"Пловдив","addr:country":"BG","operator:wikidata":"Q122947768"},"coordinates":[42.120976,24.746962]},"tags_mismatch":false,"dist":0},{"osm":false,"atp":{"id":"yPmimNumS77wYc_mso4td4bh5gQ=","tags":{"amenity":"recycling","recycling:clothes":"yes","recycling:shoes":"yes","addr:full":"4004 ж.к. Христо Ботев - Север, Пловдив","addr:city":"Пловдив","addr:country":"BG","operator:wikidata":"Q122947768"},"coordinates":[42.123523,24.752668]},"tags_mismatch":false,"dist":0},{"osm":false,"atp":{"id":"KadSbGVNmQ9iZnGOYLVjzPIoy00=","tags":{"amenity":"recycling","recycling:clothes":"yes","recycling:shoes":"yes","addr:full":"4004 ж.к. Христо Ботев - Юг, Пловдив","addr:city":"Пловдив","addr:country":"BG","operator:wikidata":"Q122947768"},"coordinates":[42.123658,24.738564]},"tags_mismatch":false,"dist":0},{"osm":false,"atp":{"id":"berx8gH6zq_JvF-rcaBP9hLz-AI=","tags":{"amenity":"recycling","recycling:clothes":"yes","recycling:shoes":"yes","addr:full":"ул. „Македония“ 9, 4013 ж.к. Христо Ботев - Север, Пловдив","addr:city":"Пловдив","addr:country":"BG","operator:wikidata":"Q122947768"},"coordinates":[42.133037,24.746162]},"tags_mismatch":false,"dist":0},{"osm":false,"atp":{"id":"jYUk0YbUJbFFn7aq5lbObwwv6rI=","tags":{"amenity":"recycling","recycling:clothes":"yes","recycling:shoes":"yes","addr:full":"Прослав, Западен, 8602 43-41, 4015 Пловдив","addr:city":"Пловдив","addr:country":"BG","operator:wikidata":"Q122947768"},"coordinates":[42.12328,24.687861]},"tags_mismatch":false,"dist":0},{"osm":false,"atp":{"id":"t7pmOfeX0d0MQhnC7qk3st1tFck=","tags":{"amenity":"recycling","recycling:clothes":"yes","recycling:shoes":"yes","addr:full":"ж.к. Христо Смирненски, Западен, ул. „Звезда“, 4001 Пловдив","addr:city":"Пловдив","addr:country":"BG","operator:wikidata":"Q122947768"},"coordinates":[42.131443,24.703766]},"tags_mismatch":false,"dist":0},{"osm":false,"atp":{"id":"avKyduI_vMnaIJbE6YqWBFEghw4=","tags":{"amenity":"recycling","recycling:clothes":"yes","recycling:shoes":"yes","addr:full":"Пловдив, ул. „Чешмир“ 11","addr:city":"Пловдив","addr:country":"BG","operator:wikidata":"Q122947768"},"coordinates":[42.130112,24.705413]},"tags_mismatch":false,"dist":0},{"osm":false,"atp":{"id":"bZbh_LfrNwuwgbd18es5j8-G87s=","tags":{"amenity":"recycling","recycling:clothes":"yes","recycling:shoes":"yes","addr:full":"Център, Западен, бул. „Свобода“ 58, 4000 Пловдив","addr:city":"Пловдив","addr:country":"BG","operator:wikidata":"Q122947768"},"coordinates":[42.143582,24.721019]},"tags_mismatch":false,"dist":0},{"osm":false,"atp":{"id":"FTRYWoNotY4HXT4uF0_lcq169es=","tags":{"amenity":"recycling","recycling:clothes":"yes","recycling:shoes":"yes","addr:full":"ж.к. Захарна фабрика, Северен, ул. „Пантелей Генов“, 4027 Пловдив","addr:city":"Пловдив","addr:country":"BG","operator:wikidata":"Q122947768"},"coordinates":[42.159504,24.728907]},"tags_mismatch":false,"dist":0},{"osm":false,"atp":{"id":"joLXFBHSfecfmsG-TCKM5kqcPQQ=","tags":{"amenity":"recycling","recycling:clothes":"yes","recycling:shoes":"yes","addr:full":"Кършияка, Пловдив Център, бул. „Марица“ 97-89, 4003 Пловдив","addr:city":"Пловдив","addr:country":"BG","operator:wikidata":"Q122947768"},"coordinates":[42.155459,24.747655]},"tags_mismatch":false,"dist":0},{"osm":false,"atp":{"id":"5PENIAvusY06FpFte-r5TdurQSA=","tags":{"amenity":"recycling","recycling:clothes":"yes","recycling:shoes":"yes","addr:full":"Гагарин, Северен, ул. „Ален мак“ 1, 4018 Пловдив","addr:city":"Пловдив","addr:country":"BG","operator:wikidata":"Q122947768"},"coordinates":[42.1611,24.751086]},"tags_mismatch":false,"dist":0},{"osm":false,"atp":{"id":"r8y1KIkNwKylkaRyYw0JmfWZzQQ=","tags":{"amenity":"recycling","recycling:clothes":"yes","recycling:shoes":"yes","addr:full":"Рибница, Северен, ул. „Васил Левски“ 96-98, 4003 Пловдив","addr:city":"Пловдив","addr:country":"BG","operator:wikidata":"Q122947768"},"coordinates":[42.164129,24.742994]},"tags_mismatch":false,"dist":0},{"osm":false,"atp":{"id":"-_3I1PE5epNZY74coR4HmfZWL3o=","tags":{"amenity":"recycling","recycling:clothes":"yes","recycling:shoes":"yes","addr:full":"ул. Солунска 1, Западен, Пловдив","addr:city":"Пловдив","addr:country":"BG","operator:wikidata":"Q122947768"},"coordinates":[42.132116,24.715911]},"tags_mismatch":false,"dist":0},{"osm":false,"atp":{"id":"OBWLgfJuMbV8ifZTKcCaoTYWhgI=","tags":{"amenity":"recycling","recycling:clothes":"yes","recycling:shoes":"yes","addr:full":"ул.Марко Николов 5, 7800 Попово","addr:city":"Попово","addr:country":"BG","operator:wikidata":"Q122947768"},"coordinates":[43.35186,26.227054]},"tags_mismatch":false,"dist":0},{"osm":false,"atp":{"id":"B9QyzIiyVk1rY7lr9g6TudUkZf0=","tags":{"amenity":"recycling","recycling:clothes":"yes","recycling:shoes":"yes","addr:full":"ж.к. Русаля МБАЛ вход, 7800 Попово","addr:city":"Попово","addr:country":"BG","operator:wikidata":"Q122947768"},"coordinates":[43.341838,26.217689]},"tags_mismatch":false,"dist":0},{"osm":false,"atp":{"id":"m5-4pylvwBXDFaCxFJgBva8r1ns=","tags":{"amenity":"recycling","recycling:clothes":"yes","recycling:shoes":"yes","addr:full":"ул.Юрий А.Гагарин 17, 7800 Попово","addr:city":"Попово","addr:country":"BG","operator:wikidata":"Q122947768"},"coordinates":[43.348704,26.23022]},"tags_mismatch":false,"dist":0},{"osm":false,"atp":{"id":"DTYsXhqpyhO1bc5Kjm1gR1ezkZ4=","tags":{"amenity":"recycling","recycling:clothes":"yes","recycling:shoes":"yes","addr:full":"бул.\"България\"170, 7800 Попово","addr:city":"Попово","addr:country":"BG","operator:wikidata":"Q122947768"},"coordinates":[43.348289,26.214075]},"tags_mismatch":false,"dist":0},{"osm":false,"atp":{"id":"falDQqwmAXmocG2LPS4XNGTv_Xw=","tags":{"amenity":"recycling","recycling:clothes":"yes","recycling:shoes":"yes","addr:full":"2161 кв. Север, Правец","addr:city":"Правец","addr:country":"BG","operator:wikidata":"Q122947768"},"coordinates":[42.897726,23.911944]},"tags_mismatch":false,"dist":0},{"osm":false,"atp":{"id":"ccdwumo8goBarwF7VCemwcyTUWo=","tags":{"amenity":"recycling","recycling:clothes":"yes","recycling:shoes":"yes","addr:full":"ул. „Стара река“ 3, 2161 Център, Правец","addr:city":"Правец","addr:country":"BG","operator:wikidata":"Q122947768"},"coordinates":[42.893184,23.916548]},"tags_mismatch":false,"dist":0},{"osm":false,"atp":{"id":"TBR7QhpTgYrmSp4knbyVSDM5KlY=","tags":{"amenity":"recycling","recycling:clothes":"yes","recycling:shoes":"yes","addr:full":"ул. Клокотница, 5180 Център, Полски Тръмбеш","addr:city":"Полски Тръмбеш","addr:country":"BG","operator:wikidata":"Q122947768"},"coordinates":[43.372312,25.638195]},"tags_mismatch":false,"dist":0},{"osm":false,"atp":{"id":"kb0vGE0V8XmPrRi5vdeR-JYC0AQ=","tags":{"amenity":"recycling","recycling:clothes":"yes","recycling:shoes":"yes","addr:full":"ул. Търговска 45-53, 5180 Център, Полски Тръмбеш","addr:city":"Полски Тръмбеш","addr:country":"BG","operator:wikidata":"Q122947768"},"coordinates":[43.368896,25.636062]},"tags_mismatch":false,"dist":0},{"osm":false,"atp":{"id":"ygzs3f0d8p10mwkE-5owG-qTwCc=","tags":{"amenity":"recycling","recycling:clothes":"yes","recycling:shoes":"yes","addr:full":"6273 Център, Раднево","addr:city":"Раднево","addr:country":"BG","operator:wikidata":"Q122947768"},"coordinates":[42.292612,25.936842]},"tags_mismatch":false,"dist":0},{"osm":false,"atp":{"id":"3hvXUYiK--aFPri1-86kgwaZF5E=","tags":{"amenity":"recycling","recycling:clothes":"yes","recycling:shoes":"yes","addr:full":"6260 Раднево","addr:city":"Раднево","addr:country":"BG","operator:wikidata":"Q122947768"},"coordinates":[42.288772,25.932747]},"tags_mismatch":false,"dist":0},{"osm":false,"atp":{"id":"F8IvOBQrDdQIZziu16wKXwqLuIw=","tags":{"amenity":"recycling","recycling:clothes":"yes","recycling:shoes":"yes","addr:full":"ул. „Несебър“ 15, 8238 Равда","addr:city":"Равда","addr:country":"BG","operator:wikidata":"Q122947768"},"coordinates":[42.644567,27.679052]},"tags_mismatch":false,"dist":0},{"osm":false,"atp":{"id":"PnXvjaJH7fD2wIsfkP4ZM9dJ0N4=","tags":{"amenity":"recycling","recycling:clothes":"yes","recycling:shoes":"yes","addr:full":"ул. „Свети Климент“ 102, 7200 АБРИТУС, Разград","addr:city":"Разград","addr:country":"BG","operator:wikidata":"Q122947768"},"coordinates":[43.524472,26.54095]},"tags_mismatch":false,"dist":0},{"osm":false,"atp":{"id":"f0u7MhjwRslnD3NwkhBWG6YWqhU=","tags":{"amenity":"recycling","recycling:clothes":"yes","recycling:shoes":"yes","addr:full":"ул. „Гаврил Кръстевич“ 1, 7200 ж.к. Васил Левски, Разград","addr:city":"Разград","addr:country":"BG","operator:wikidata":"Q122947768"},"coordinates":[43.534643,26.524851]},"tags_mismatch":false,"dist":0},{"osm":false,"atp":{"id":"mawjQ75AIyRvV8abI9q3ucjE7IA=","tags":{"amenity":"recycling","recycling:clothes":"yes","recycling:shoes":"yes","addr:full":"7200 ж.к. Лудогорие, Разград","addr:city":"Разград","addr:country":"BG","operator:wikidata":"Q122947768"},"coordinates":[43.531461,26.51791]},"tags_mismatch":false,"dist":0},{"osm":false,"atp":{"id":"oXjtkR-B0c5SwxyM2PjoinbLNlY=","tags":{"amenity":"recycling","recycling:clothes":"yes","recycling:shoes":"yes","addr:full":"7200 ж.к. Освобождение, Разград","addr:city":"Разград","addr:country":"BG","operator:wikidata":"Q122947768"},"coordinates":[43.532898,26.521951]},"tags_mismatch":false,"dist":0},{"osm":false,"atp":{"id":"YdIJ3ShxiNdB4AIPOvwuAqXyV60=","tags":{"amenity":"recycling","recycling:clothes":"yes","recycling:shoes":"yes","addr:full":"ул. „Борис Йончев“ 23, 7205 Оборище, Разград","addr:city":"Разград","addr:country":"BG","operator:wikidata":"Q122947768"},"coordinates":[43.518946,26.520507]},"tags_mismatch":false,"dist":0},{"osm":false,"atp":{"id":"qbTKa1JNTo6hRzutMhE3qSoZNCs=","tags":{"amenity":"recycling","recycling:clothes":"yes","recycling:shoes":"yes","addr:full":"ул. „Преслав“, 7200 Бели Лом, Разград","addr:city":"Разград","addr:country":"BG","operator:wikidata":"Q122947768"},"coordinates":[43.52908,26.512092]},"tags_mismatch":false,"dist":0},{"osm":false,"atp":{"id":"500utsamvKeradV9vF1SneojUPw=","tags":{"amenity":"recycling","recycling:clothes":"yes","recycling:shoes":"yes","addr:full":"ул. „Тополница“ 5, 7200 ж.к. Освобождение, Разград","addr:city":"Разград","addr:country":"BG","operator:wikidata":"Q122947768"},"coordinates":[43.529312,26.521158]},"tags_mismatch":false,"dist":0},{"osm":false,"atp":{"id":"rTGtIw9fEqmE9FAFXAIrelOmSHw=","tags":{"amenity":"recycling","recycling:clothes":"yes","recycling:shoes":"yes","addr:full":"7200 Разград Център, Разград","addr:city":"Разград","addr:country":"BG","operator:wikidata":"Q122947768"},"coordinates":[43.525057,26.520571]},"tags_mismatch":false,"dist":0},{"osm":false,"atp":{"id":"LZyEGkRKOaPO93OInkhzCORannY=","tags":{"amenity":"recycling","recycling:clothes":"yes","recycling:shoes":"yes","addr:full":"7200 Стефан Караджа, Разград","addr:city":"Разград","addr:country":"BG","operator:wikidata":"Q122947768"},"coordinates":[43.524199,26.536214]},"tags_mismatch":false,"dist":0},{"osm":false,"atp":{"id":"29KaEscjn3RiSF2saNW82k2ZtXU=","tags":{"amenity":"recycling","recycling:clothes":"yes","recycling:shoes":"yes","addr:full":"7205 ж.к. Орел, Разград","addr:city":"Разград","addr:country":"BG","operator:wikidata":"Q122947768"},"coordinates":[43.516946,26.517153]},"tags_mismatch":false,"dist":0},{"osm":false,"atp":{"id":"bn-nXIFB34E5MvNCT0Nh6hONzrw=","tags":{"amenity":"recycling","recycling:clothes":"yes","recycling:shoes":"yes","addr:full":"5060 Ресен","addr:city":"Ресен","addr:country":"BG","operator:wikidata":"Q122947768"},"coordinates":[43.201038,25.544551]},"tags_mismatch":false,"dist":0},{"osm":false,"atp":{"id":"efvIEgasV062F5FUhZgrkEaWsWI=","tags":{"amenity":"recycling","recycling:clothes":"yes","recycling:shoes":"yes","addr:full":"бул. „Мидия-енос“ 2, 7001 ж.к. Мидия-Енос, Русе","addr:city":"Русе","addr:country":"BG","operator:wikidata":"Q122947768"},"coordinates":[43.83352,25.95413]},"tags_mismatch":false,"dist":0},{"osm":false,"atp":{"id":"x5tq30KG3hx86RplqCtnN5ncUxs=","tags":{"amenity":"recycling","recycling:clothes":"yes","recycling:shoes":"yes","addr:full":"ул. „Никола Й. Вапцаров“ 191-193, 7015 ж.к. Дружба 3, Русе","addr:city":"Русе","addr:country":"BG","operator:wikidata":"Q122947768"},"coordinates":[43.828139,25.976306]},"tags_mismatch":false,"dist":0},{"osm":false,"atp":{"id":"ySDIFEsVhpW1DXzK83ABkcHq0L8=","tags":{"amenity":"recycling","recycling:clothes":"yes","recycling:shoes":"yes","addr:full":"ул. „Опълченска“, 7018 ж.к. Чародейка - север, Русе","addr:city":"Русе","addr:country":"BG","operator:wikidata":"Q122947768"},"coordinates":[43.838417,25.969528]},"tags_mismatch":false,"dist":0},{"osm":false,"atp":{"id":"vdTJN03mQW6mvGEHQLM-buth1P8=","tags":{"amenity":"recycling","recycling:clothes":"yes","recycling:shoes":"yes","addr:full":"ул. „Тодор Икономов“ 1-6, 7019 ж.к. Чародейка - юг, Русе","addr:city":"Русе","addr:country":"BG","operator:wikidata":"Q122947768"},"coordinates":[43.832333,25.976417]},"tags_mismatch":false,"dist":0},{"osm":false,"atp":{"id":"JYbddR3y9wP0vqyNT6twkceQLjo=","tags":{"amenity":"recycling","recycling:clothes":"yes","recycling:shoes":"yes","addr:full":"ул. „Стоян Михайловски“ 94, 7015 ж.к. Дружба 3, Русе","addr:city":"Русе","addr:country":"BG","operator:wikidata":"Q122947768"},"coordinates":[43.823389,25.973833]},"tags_mismatch":false,"dist":0},{"osm":false,"atp":{"id":"an7CshIbZDKD3GBUMhicqV-4tzk=","tags":{"amenity":"recycling","recycling:clothes":"yes","recycling:shoes":"yes","addr:full":"ул. „Даме Груев“ 44, 7015 ж.к. Дружба 3, Русе","addr:city":"Русе","addr:country":"BG","operator:wikidata":"Q122947768"},"coordinates":[43.825889,25.971389]},"tags_mismatch":false,"dist":0},{"osm":false,"atp":{"id":"sB_ICn-Ifg_3NZjSvSuqN5rPxcM=","tags":{"amenity":"recycling","recycling:clothes":"yes","recycling:shoes":"yes","addr:full":"ул. „Луи Айер“, Русе","addr:city":"Русе","addr:country":"BG","operator:wikidata":"Q122947768"},"coordinates":[43.831028,25.959278]},"tags_mismatch":false,"dist":0},{"osm":false,"atp":{"id":"6KuHp8imF_2PpCtH2GPCasgunz0=","tags":{"amenity":"recycling","recycling:clothes":"yes","recycling:shoes":"yes","addr:full":"ул. „Антим I-ви“ 10, 7001 Веждата, Русе","addr:city":"Русе","addr:country":"BG","operator:wikidata":"Q122947768"},"coordinates":[43.834778,25.950528]},"tags_mismatch":false,"dist":0},{"osm":false,"atp":{"id":"zzR3UE6df2AaoCeCY65aXuH7i1s=","tags":{"amenity":"recycling","recycling:clothes":"yes","recycling:shoes":"yes","addr:full":"7000 Русе Център, Русе","addr:city":"Русе","addr:country":"BG","operator:wikidata":"Q122947768"},"coordinates":[43.844361,25.946361]},"tags_mismatch":false,"dist":0},{"osm":false,"atp":{"id":"_XvGNmwaGEWgHFaBJKbd9NfH-cE=","tags":{"amenity":"recycling","recycling:clothes":"yes","recycling:shoes":"yes","addr:full":"ул. „Нови Сад“, 7013 Здравец Изток, Русе","addr:city":"Русе","addr:country":"BG","operator:wikidata":"Q122947768"},"coordinates":[43.848472,25.990722]},"tags_mismatch":false,"dist":0},{"osm":false,"atp":{"id":"2S5Sb0hYveobZTpe1Ap7q7hW3PY=","tags":{"amenity":"recycling","recycling:clothes":"yes","recycling:shoes":"yes","addr:full":"ул. „Райна Княгиня“, 7013 Здравец Изток, Русе","addr:city":"Русе","addr:country":"BG","operator:wikidata":"Q122947768"},"coordinates":[43.852222,25.998111]},"tags_mismatch":false,"dist":0},{"osm":false,"atp":{"id":"AD1jQ1TNtIVhOuktbAHqdm4VUQo=","tags":{"amenity":"recycling","recycling:clothes":"yes","recycling:shoes":"yes","addr:full":"ул. „Родопи“ 3, 7005 ж.к. Здравец - Север 1, Русе","addr:city":"Русе","addr:country":"BG","operator:wikidata":"Q122947768"},"coordinates":[43.851611,25.975806]},"tags_mismatch":false,"dist":0},{"osm":false,"atp":{"id":"1KMA5QVeeMfQNqJP96ElwV0zU7U=","tags":{"amenity":"recycling","recycling:clothes":"yes","recycling:shoes":"yes","addr:full":"ул. „Княз Ал. Дондуков-Корсаков“ 19-15, 7012 Русе Център, Русе","addr:city":"Русе","addr:country":"BG","operator:wikidata":"Q122947768"},"coordinates":[43.842056,25.950083]},"tags_mismatch":false,"dist":0},{"osm":false,"atp":{"id":"N6S2fLHfybjS6rZTIkPfnOcE4Pg=","tags":{"amenity":"recycling","recycling:clothes":"yes","recycling:shoes":"yes","addr:full":"ул. „Велико Търново“ 3, 7000 Русе Център, Русе","addr:city":"Русе","addr:country":"BG","operator:wikidata":"Q122947768"},"coordinates":[43.849194,25.949806]},"tags_mismatch":false,"dist":0},{"osm":false,"atp":{"id":"PRvuBjf7loeIeEjCVf-bCPzB7nM=","tags":{"amenity":"recycling","recycling:clothes":"yes","recycling:shoes":"yes","addr:full":"ул. „Гургулят“ 7002, 7002 Русе Център, Русе","addr:city":"Русе","addr:country":"BG","operator:wikidata":"Q122947768"},"coordinates":[43.853111,25.960833]},"tags_mismatch":false,"dist":0},{"osm":false,"atp":{"id":"PxxiCra8tjzaZXqDvP_YlsIrqbI=","tags":{"amenity":"recycling","recycling:clothes":"yes","recycling:shoes":"yes","addr:full":"ул. „Капитан Маринов“ 46-41, 7020 ж.к. Възраждане - юг, Русе","addr:city":"Русе","addr:country":"BG","operator:wikidata":"Q122947768"},"coordinates":[43.851083,25.967806]},"tags_mismatch":false,"dist":0},{"osm":false,"atp":{"id":"9R26tepcIm00rxJr9SFXr_wFTIo=","tags":{"amenity":"recycling","recycling:clothes":"yes","recycling:shoes":"yes","addr:full":"ул. „Щип“ 2-6, 7002 Ялта, Русе","addr:city":"Русе","addr:country":"BG","operator:wikidata":"Q122947768"},"coordinates":[43.849306,25.962]},"tags_mismatch":false,"dist":0},{"osm":false,"atp":{"id":"l9kubjtzE9C5kH-bpaRdbi8H0Xw=","tags":{"amenity":"recycling","recycling:clothes":"yes","recycling:shoes":"yes","addr:full":"Алеи Възраждане 16, 7002 ж.к. Възраждане, Русе","addr:city":"Русе","addr:country":"BG","operator:wikidata":"Q122947768"},"coordinates":[43.857333,25.966611]},"tags_mismatch":false,"dist":0},{"osm":false,"atp":{"id":"8I3V5YGAoYunUg32nNnLliXiYsg=","tags":{"amenity":"recycling","recycling:clothes":"yes","recycling:shoes":"yes","addr:full":"ул. „Битоля“, 7004 ж.к. Възраждане Североизток, Русе","addr:city":"Русе","addr:country":"BG","operator:wikidata":"Q122947768"},"coordinates":[43.860667,25.976417]},"tags_mismatch":false,"dist":0},{"osm":false,"atp":{"id":"voPEI3-PMR8nY2Tu4zkdvxCUPBk=","tags":{"amenity":"recycling","recycling:clothes":"yes","recycling:shoes":"yes","addr:full":"7001 ж.к. Дружба 1, Русе","addr:city":"Русе","addr:country":"BG","operator:wikidata":"Q122947768"},"coordinates":[43.832278,25.969111]},"tags_mismatch":false,"dist":0},{"osm":false,"atp":{"id":"10_Anppj02du8XfOKXmfvT1SKow=","tags":{"amenity":"recycling","recycling:clothes":"yes","recycling:shoes":"yes","addr:full":"бул. „Цар Освободител“, 7012 ж.к. Централен южен район, Русе","addr:city":"Русе","addr:country":"BG","operator:wikidata":"Q122947768"},"coordinates":[43.838806,25.959194]},"tags_mismatch":false,"dist":0},{"osm":false,"atp":{"id":"_qRreRxFnCyb5YS9iD_nRhUOL7Y=","tags":{"amenity":"recycling","recycling:clothes":"yes","recycling:shoes":"yes","addr:full":"ул. „Чипровци“, 7006 Русе","addr:city":"Русе","addr:country":"BG","operator:wikidata":"Q122947768"},"coordinates":[43.844222,25.970667]},"tags_mismatch":false,"dist":0},{"osm":false,"atp":{"id":"nfRGdW87DL2RaVTlAkqaSsHHPA0=","tags":{"amenity":"recycling","recycling:clothes":"yes","recycling:shoes":"yes","addr:full":"7020 ж.к. Възраждане - юг, Русе","addr:city":"Русе","addr:country":"BG","operator:wikidata":"Q122947768"},"coordinates":[43.851556,25.966]},"tags_mismatch":false,"dist":0},{"osm":false,"atp":{"id":"ATRZygAiWM6TcGHyGVwUPvwFHaE=","tags":{"amenity":"recycling","recycling:clothes":"yes","recycling:shoes":"yes","addr:full":"7013 Здравец Изток, Русе","addr:city":"Русе","addr:country":"BG","operator:wikidata":"Q122947768"},"coordinates":[43.85125,25.985861]},"tags_mismatch":false,"dist":0},{"osm":false,"atp":{"id":"k2Um4ddHL4Mmr2XpZpRo-Gfa3Po=","tags":{"amenity":"recycling","recycling:clothes":"yes","recycling:shoes":"yes","addr:full":"ул. „Тулча“, Жп Гара Товарна, Рус","addr:city":"Русе","addr:country":"BG","operator:wikidata":"Q122947768"},"coordinates":[43.857194,25.9755]},"tags_mismatch":false,"dist":0},{"osm":false,"atp":{"id":"L6mjecXMZr405fgtL4k2yQLim84=","tags":{"amenity":"recycling","recycling:clothes":"yes","recycling:shoes":"yes","addr:full":"ул. „Тулча“, Жп Гара Товарна, Русе","addr:city":"Русе","addr:country":"BG","operator:wikidata":"Q122947768"},"coordinates":[43.857194,25.9755]},"tags_mismatch":false,"dist":0},{"osm":false,"atp":{"id":"4XC9I4vKxPTrExsjDSRyjv_kFF8=","tags":{"amenity":"recycling","recycling:clothes":"yes","recycling:shoes":"yes","addr:full":"7000 Пазара, Русе","addr:city":"Русе","addr:country":"BG","operator:wikidata":"Q122947768"},"coordinates":[43.842806,25.961861]},"tags_mismatch":false,"dist":0},{"osm":false,"atp":{"id":"4zaGNa54Oxl4q_0aazQFKgbAYx0=","tags":{"amenity":"recycling","recycling:clothes":"yes","recycling:shoes":"yes","addr:full":"ул. „Професор Асен Златаров“ 24, 7000 Русе Център, Русе","addr:city":"Русе","addr:country":"BG","operator:wikidata":"Q122947768"},"coordinates":[43.847306,25.956361]},"tags_mismatch":false,"dist":0},{"osm":false,"atp":{"id":"fzSo7nNcVaE1A0VZY8yCHijW9yA=","tags":{"amenity":"recycling","recycling:clothes":"yes","recycling:shoes":"yes","addr:full":"ул. „Иван Вазов“, 7000 Русе Център, Русе","addr:city":"Русе","addr:country":"BG","operator:wikidata":"Q122947768"},"coordinates":[43.845361,25.952194]},"tags_mismatch":false,"dist":0},{"osm":false,"atp":{"id":"xJgfrhKr4wYPMjwg2Veajck7Tws=","tags":{"amenity":"recycling","recycling:clothes":"yes","recycling:shoes":"yes","addr:full":"7000 Западна промишлена зона METRO, Русе","addr:city":"Русе","addr:country":"BG","operator:wikidata":"Q122947768"},"coordinates":[43.814528,25.926778]},"tags_mismatch":false,"dist":0},{"osm":false,"atp":{"id":"JRTQZDPDx6iSlOBrNmoyoxm0AzY=","tags":{"amenity":"recycling","recycling:clothes":"yes","recycling:shoes":"yes","addr:full":"ул. „Майор Атанас Узунов“ 10-12, 7002 Русе Център, Русе","addr:city":"Русе","addr:country":"BG","operator:wikidata":"Q122947768"},"coordinates":[43.855583,25.959111]},"tags_mismatch":false,"dist":0},{"osm":false,"atp":{"id":"WvBbdQF_a2CxfJ-wF_Qen85JYY0=","tags":{"amenity":"recycling","recycling:clothes":"yes","recycling:shoes":"yes","addr:full":"ул. „Еленин връх“, 7001 ж.к. Дружба 1, Русе","addr:city":"Русе","addr:country":"BG","operator:wikidata":"Q122947768"},"coordinates":[43.831481,25.96778]},"tags_mismatch":false,"dist":0},{"osm":false,"atp":{"id":"beA3wVA5VaT8NLRxZc-Mya-jkRs=","tags":{"amenity":"recycling","recycling:clothes":"yes","recycling:shoes":"yes","addr:full":"Лилд, ул. „Околчица“, 7005 Дунав, Русе -2 бр","addr:city":"Русе","addr:country":"BG","operator:wikidata":"Q122947768"},"coordinates":[43.846694,25.976611]},"tags_mismatch":false,"dist":0},{"osm":false,"atp":{"id":"W2A2zzQp5Vjd_rAmGmub9rdrMu4=","tags":{"amenity":"recycling","recycling:clothes":"yes","recycling:shoes":"yes","addr:full":"ж.к. Родина 3, ул. „Ибър“, 7006 Русе","addr:city":"Русе","addr:country":"BG","operator:wikidata":"Q122947768"},"coordinates":[43.839836,25.967668]},"tags_mismatch":false,"dist":0},{"osm":false,"atp":{"id":"KnrAi1Hw4WoKIrZOJgAWvKevusA=","tags":{"amenity":"recycling","recycling:clothes":"yes","recycling:shoes":"yes","addr:full":"52, 5250 Център, Свищов","addr:city":"Свищов","addr:country":"BG","operator:wikidata":"Q122947768"},"coordinates":[43.619019,25.350296]},"tags_mismatch":false,"dist":0},{"osm":false,"atp":{"id":"lQLInuSfhfFV1vaqiMICpsoKOqI=","tags":{"amenity":"recycling","recycling:clothes":"yes","recycling:shoes":"yes","addr:full":"ул. Академик Александър Божинов, 5250 жк. Химик, Свищов","addr:city":"Свищов","addr:country":"BG","operator:wikidata":"Q122947768"},"coordinates":[43.614123,25.344555]},"tags_mismatch":false,"dist":0},{"osm":false,"atp":{"id":"6XYp1BiNnAGzr4aFP0NSUmQnn4o=","tags":{"amenity":"recycling","recycling:clothes":"yes","recycling:shoes":"yes","addr:full":"5252 Младост, Свищов","addr:city":"Свищов","addr:country":"BG","operator:wikidata":"Q122947768"},"coordinates":[43.60918,25.363867]},"tags_mismatch":false,"dist":0},{"osm":false,"atp":{"id":"YkEP4UZYhJgPiqxtgn_8l7ifDt4=","tags":{"amenity":"recycling","recycling:clothes":"yes","recycling:shoes":"yes","addr:full":"ж.к. Младост 3, 5252 Младост, Свищов","addr:city":"Свищов","addr:country":"BG","operator:wikidata":"Q122947768"},"coordinates":[43.611194,25.358049]},"tags_mismatch":false,"dist":0},{"osm":false,"atp":{"id":"6v8zTSSRMhYn9PAAZly6PEfxwes=","tags":{"amenity":"recycling","recycling:clothes":"yes","recycling:shoes":"yes","addr:full":"ул. 33-ти Свищовски полк 104, Свищов","addr:city":"Свищов","addr:country":"BG","operator:wikidata":"Q122947768"},"coordinates":[43.615633,25.362262]},"tags_mismatch":false,"dist":0},{"osm":false,"atp":{"id":"wrFXz47klCPXp1CE0ZGMu1R3IDM=","tags":{"amenity":"recycling","recycling:clothes":"yes","recycling:shoes":"yes","addr:full":"Гебран, ул. „Радул Милков“ 19, 6500 Свиленград","addr:city":"Свиленград","addr:country":"BG","operator:wikidata":"Q122947768"},"coordinates":[41.767162,26.188887]},"tags_mismatch":false,"dist":0},{"osm":false,"atp":{"id":"cj74_w8ODrPeme9Qi_-CyF3eniw=","tags":{"amenity":"recycling","recycling:clothes":"yes","recycling:shoes":"yes","addr:full":"Център, ул. Княз Борис I 29, 6500 Свиленград","addr:city":"Свиленград","addr:country":"BG","operator:wikidata":"Q122947768"},"coordinates":[41.771187,26.20365]},"tags_mismatch":false,"dist":0},{"osm":false,"atp":{"id":"6F4cAMUS7mO1l4o7j1QMpnEbouQ=","tags":{"amenity":"recycling","recycling:clothes":"yes","recycling:shoes":"yes","addr:full":"5403 Севлиево","addr:city":"Севлиево","addr:country":"BG","operator:wikidata":"Q122947768"},"coordinates":[43.015471,25.098914]},"tags_mismatch":false,"dist":0},{"osm":false,"atp":{"id":"Ph-PQ_Uu8LFtaUzQxN9E-95GuM8=","tags":{"amenity":"recycling","recycling:clothes":"yes","recycling:shoes":"yes","addr:full":"5403 Севлиево","addr:city":"Севлиево","addr:country":"BG","operator:wikidata":"Q122947768"},"coordinates":[43.019491,25.093206]},"tags_mismatch":false,"dist":0},{"osm":false,"atp":{"id":"kAV6LbiVBssyjhleSlCsYHIrGQo=","tags":{"amenity":"recycling","recycling:clothes":"yes","recycling:shoes":"yes","addr:full":"5400 д-р Атанас Москов, Севлиево","addr:city":"Севлиево","addr:country":"BG","operator:wikidata":"Q122947768"},"coordinates":[43.030416,25.089017]},"tags_mismatch":false,"dist":0},{"osm":false,"atp":{"id":"Pwk43CCPW-w40eF3QTUWy8SREUo=","tags":{"amenity":"recycling","recycling:clothes":"yes","recycling:shoes":"yes","addr:full":"Генeрал Никола Генев, 5400 Център, Севлиево","addr:city":"Севлиево","addr:country":"BG","operator:wikidata":"Q122947768"},"coordinates":[43.025465,25.105113]},"tags_mismatch":false,"dist":0},{"osm":false,"atp":{"id":"MopZroV3ov1-IQYoRbuM-jRADP0=","tags":{"amenity":"recycling","recycling:clothes":"yes","recycling:shoes":"yes","addr:full":"Център, ул. „Александър Стамболийски“ 2-10, Севлиево","addr:city":"Севлиево","addr:country":"BG","operator:wikidata":"Q122947768"},"coordinates":[43.021685,25.097507]},"tags_mismatch":false,"dist":0},{"osm":false,"atp":{"id":"SKNvqIl5SyKMsGfLMs11sX2v1Lo=","tags":{"amenity":"recycling","recycling:clothes":"yes","recycling:shoes":"yes","addr:full":"8801 Сливен Център, Сливен","addr:city":"Сливен","addr:country":"BG","operator:wikidata":"Q122947768"},"coordinates":[42.678041,26.324479]},"tags_mismatch":false,"dist":0},{"osm":false,"atp":{"id":"QATwYQAEpQV4qNPyzq18a_xsIBE=","tags":{"amenity":"recycling","recycling:clothes":"yes","recycling:shoes":"yes","addr:full":"бул. „Хаджи Димитър“ 3, 8800 Сливен Център, Сливен","addr:city":"Сливен","addr:country":"BG","operator:wikidata":"Q122947768"},"coordinates":[42.680314,26.316682]},"tags_mismatch":false,"dist":0},{"osm":false,"atp":{"id":"JzMvAoIOybTDDaSNt9pXNtrMdbI=","tags":{"amenity":"recycling","recycling:clothes":"yes","recycling:shoes":"yes","addr:full":"ул. „Георги Икономов“ 58-60, 8800 Клуцохор, Сливен","addr:city":"Сливен","addr:country":"BG","operator:wikidata":"Q122947768"},"coordinates":[42.677338,26.305914]},"tags_mismatch":false,"dist":0},{"osm":false,"atp":{"id":"31oFU7PGirCkU8A3a1sfHPeuL7I=","tags":{"amenity":"recycling","recycling:clothes":"yes","recycling:shoes":"yes","addr:full":"8801 Сливен Център, Сливен","addr:city":"Сливен","addr:country":"BG","operator:wikidata":"Q122947768"},"coordinates":[42.681819,26.325397]},"tags_mismatch":false,"dist":0},{"osm":false,"atp":{"id":"Rf3Iluo-sJUTfORNXY2fM-sum3Q=","tags":{"amenity":"recycling","recycling:clothes":"yes","recycling:shoes":"yes","addr:full":"ул. „Добри Димитров“ 1, 8802 Сливен","addr:city":"Сливен","addr:country":"BG","operator:wikidata":"Q122947768"},"coordinates":[42.687655,26.326506]},"tags_mismatch":false,"dist":0},{"osm":false,"atp":{"id":"EC1RXNGDy9mvJzHn3-jojRkmv3g=","tags":{"amenity":"recycling","recycling:clothes":"yes","recycling:shoes":"yes","addr:full":"ул. „Добри Димитров“, 8802 Сливен","addr:city":"Сливен","addr:country":"BG","operator:wikidata":"Q122947768"},"coordinates":[42.6908,26.329682]},"tags_mismatch":false,"dist":0},{"osm":false,"atp":{"id":"8sEv4kBCrEIicLA6mVhJ7VuLIOg=","tags":{"amenity":"recycling","recycling:clothes":"yes","recycling:shoes":"yes","addr:full":"488 20, 8802 Ново село, Сливен","addr:city":"Сливен","addr:country":"BG","operator:wikidata":"Q122947768"},"coordinates":[42.687742,26.332641]},"tags_mismatch":false,"dist":0},{"osm":false,"atp":{"id":"v5gysSRa41TeRDq978QjXdGH_u4=","tags":{"amenity":"recycling","recycling:clothes":"yes","recycling:shoes":"yes","addr:full":"8808 ж.к. Сините камъни, Сливен","addr:city":"Сливен","addr:country":"BG","operator:wikidata":"Q122947768"},"coordinates":[42.690506,26.343259]},"tags_mismatch":false,"dist":0},{"osm":false,"atp":{"id":"4nnwxX_8SpDp1qP0jDkvO0xfGwU=","tags":{"amenity":"recycling","recycling:clothes":"yes","recycling:shoes":"yes","addr:full":"8808 ж.к. Сините камъни, Сливен","addr:city":"Сливен","addr:country":"BG","operator:wikidata":"Q122947768"},"coordinates":[42.685909,26.342598]},"tags_mismatch":false,"dist":0},{"osm":false,"atp":{"id":"gsVCngxj7IMftCpsbj1N3fc97yM=","tags":{"amenity":"recycling","recycling:clothes":"yes","recycling:shoes":"yes","addr:full":"8808 ж.к. Българка, Сливен","addr:city":"Сливен","addr:country":"BG","operator:wikidata":"Q122947768"},"coordinates":[42.684823,26.341928]},"tags_mismatch":false,"dist":0},{"osm":false,"atp":{"id":"9MOndS6ObhueAZ1YcoVkBBTwqhk=","tags":{"amenity":"recycling","recycling:clothes":"yes","recycling:shoes":"yes","addr:full":"ж.к. Стоян Заимов 62, 8804 Стоян Заимов, Сливен","addr:city":"Сливен","addr:country":"BG","operator:wikidata":"Q122947768"},"coordinates":[42.674075,26.334841]},"tags_mismatch":false,"dist":0},{"osm":false,"atp":{"id":"NseB1aUS2-VhoIIfkMQ6ANftF4M=","tags":{"amenity":"recycling","recycling:clothes":"yes","recycling:shoes":"yes","addr:full":"ул. Мандикарска 4702 Устово, Смолян","addr:city":"Смолян","addr:country":"BG","operator:wikidata":"Q122947768"},"coordinates":[41.573437,24.781063]},"tags_mismatch":false,"dist":0},{"osm":false,"atp":{"id":"4iV5kk1TvYwyFsspw4aNeBTmBAc=","tags":{"amenity":"recycling","recycling:clothes":"yes","recycling:shoes":"yes","addr:full":"ул. „Хан Пресиян“ 19, 4703 Стар център, Смолян","addr:city":"Смолян","addr:country":"BG","operator:wikidata":"Q122947768"},"coordinates":[41.579255,24.693702]},"tags_mismatch":false,"dist":0},{"osm":false,"atp":{"id":"uA3KvtaDewV7l4O_DjSFw_UnHe0=","tags":{"amenity":"recycling","recycling:clothes":"yes","recycling:shoes":"yes","addr:full":"ул. „Невястата“ 16-18, 4703 Стар център, Смолян","addr:city":"Смолян","addr:country":"BG","operator:wikidata":"Q122947768"},"coordinates":[41.587284,24.683293]},"tags_mismatch":false,"dist":0},{"osm":false,"atp":{"id":"umz7Sh3fGK3IWBCTYcnpiOmmsSs=","tags":{"amenity":"recycling","recycling:clothes":"yes","recycling:shoes":"yes","addr:full":"ул. „Баба Тонка“ 9-1, 4701 Райково, Смолян","addr:city":"Смолян","addr:country":"BG","operator:wikidata":"Q122947768"},"coordinates":[41.569819,24.728469]},"tags_mismatch":false,"dist":0},{"osm":false,"atp":{"id":"9KBfyrn7W4vENTJAo0XaIxCdm40=","tags":{"amenity":"recycling","recycling:clothes":"yes","recycling:shoes":"yes","addr:full":"ул. „Хан Аспарух“, 4700 ж.к. Нов център, Смолян","addr:city":"Смолян","addr:country":"BG","operator:wikidata":"Q122947768"},"coordinates":[41.575725,24.712767]},"tags_mismatch":false,"dist":0},{"osm":false,"atp":{"id":"_R7N6OMfxD7O0RyJLmU97t9RRwU=","tags":{"amenity":"recycling","recycling:clothes":"yes","recycling:shoes":"yes","addr:full":"ул. Никола Вапцаров 8-16, 9820 Смядово","addr:city":"Смядово","addr:country":"BG","operator:wikidata":"Q122947768"},"coordinates":[43.063254,27.020055]},"tags_mismatch":false,"dist":0},{"osm":false,"atp":{"id":"8B2FuKspLEwAIRdBVle5YOLz2zI=","tags":{"amenity":"recycling","recycling:clothes":"yes","recycling:shoes":"yes","addr:full":"ул. Черноризец Храбър 27, 9820 Смядово","addr:city":"Смядово","addr:country":"BG","operator:wikidata":"Q122947768"},"coordinates":[43.067841,27.014215]},"tags_mismatch":false,"dist":0},{"osm":false,"atp":{"id":"fU351Ah6uYiXmzer1k_tcpx43-8=","tags":{"amenity":"recycling","recycling:clothes":"yes","recycling:shoes":"yes","addr:full":"ул. Георги Бенковски, 9820 Смядово","addr:city":"Смядово","addr:country":"BG","operator:wikidata":"Q122947768"},"coordinates":[43.067221,27.00735]},"tags_mismatch":false,"dist":0},{"osm":false,"atp":{"id":"gt8xCqDbs1cdH8VixbzqpwnVPq4=","tags":{"amenity":"recycling","recycling:clothes":"yes","recycling:shoes":"yes","addr:full":"9820 Смядово","addr:city":"Смядово","addr:country":"BG","operator:wikidata":"Q122947768"},"coordinates":[43.063216,27.014623]},"tags_mismatch":false,"dist":0},{"osm":false,"atp":{"id":"2kEhFRnabJsh16dIIDXijnwgaTg=","tags":{"amenity":"recycling","recycling:clothes":"yes","recycling:shoes":"yes","addr:full":"ул. „Христо Ботев“ 2, 4330 Сопот","addr:city":"Сопот","addr:country":"BG","operator:wikidata":"Q122947768"},"coordinates":[42.653584,24.754764]},"tags_mismatch":false,"dist":0},{"osm":false,"atp":{"id":"PCadKCGqMv5kgywOrPdMIhKNe3A=","tags":{"amenity":"recycling","recycling:clothes":"yes","recycling:shoes":"yes","addr:full":"4330 жк. Сарая, Сопот","addr:city":"Сопот","addr:country":"BG","operator:wikidata":"Q122947768"},"coordinates":[42.656608,24.763827]},"tags_mismatch":false,"dist":0},{"osm":false,"atp":{"id":"xabN0dnPGHLRB47LeQmY4OwCJP4=","tags":{"amenity":"recycling","recycling:clothes":"yes","recycling:shoes":"yes","addr:full":"кв. Требич, ул. „Леденика“ 12","addr:city":"София","addr:country":"BG","operator:wikidata":"Q122947768"},"coordinates":[42.774756,23.313113]},"tags_mismatch":false,"dist":0},{"osm":false,"atp":{"id":"_hhKYoPz7k29yeBZiFk5AJP8ygg=","tags":{"amenity":"recycling","recycling:clothes":"yes","recycling:shoes":"yes","addr:full":"кв. Орландовци, ул. „Капиновски манастир“ 2-10","addr:city":"София","addr:country":"BG","operator:wikidata":"Q122947768"},"coordinates":[42.720712,23.333605]},"tags_mismatch":false,"dist":0},{"osm":false,"atp":{"id":"p3iNcC1oF9_dkCJ2d5oNYPdhczY=","tags":{"amenity":"recycling","recycling:clothes":"yes","recycling:shoes":"yes","addr:full":"ж.к. Надежда 1 на ъгъла на ул. Никола Котков и ул. Княз Иван Кулин","addr:city":"София","addr:country":"BG","operator:wikidata":"Q122947768"},"coordinates":[42.726935,23.30001]},"tags_mismatch":false,"dist":0},{"osm":false,"atp":{"id":"ORmHkEhY3uLhPkqgJ_UEMfmWk2w=","tags":{"amenity":"recycling","recycling:clothes":"yes","recycling:shoes":"yes","addr:full":"ж.к. Надежда 1, ул. „Село Кръвеник“ 15-17","addr:city":"София","addr:country":"BG","operator:wikidata":"Q122947768"},"coordinates":[42.727908,23.299456]},"tags_mismatch":false,"dist":0},{"osm":false,"atp":{"id":"e1E4V7016-0h5uKFxzOsK_k3yF0=","tags":{"amenity":"recycling","recycling:clothes":"yes","recycling:shoes":"yes","addr:full":"ж.к. Надежда 1, ул. „Възрожденска“ 71","addr:city":"София","addr:country":"BG","operator:wikidata":"Q122947768"},"coordinates":[42.729103,23.29515]},"tags_mismatch":false,"dist":0},{"osm":false,"atp":{"id":"B4zMwsa8jSil6dU_OIMekow_PgE=","tags":{"amenity":"recycling","recycling:clothes":"yes","recycling:shoes":"yes","addr:full":"Метростанция Люлин, ул. Д-р Стефан Черкезов","addr:city":"София","addr:country":"BG","operator:wikidata":"Q122947768"},"coordinates":[42.71796,23.257545]},"tags_mismatch":false,"dist":0},{"osm":false,"atp":{"id":"lnypHRNWDow4fIYUCwwJVl30gy8=","tags":{"amenity":"recycling","recycling:clothes":"yes","recycling:shoes":"yes","addr:full":"ж.к. Люлин 8, ул. „Златопласт“ 810","addr:city":"София","addr:country":"BG","operator:wikidata":"Q122947768"},"coordinates":[42.721668,23.260897]},"tags_mismatch":false,"dist":0},{"osm":false,"atp":{"id":"tdxzmiF-DYoAIV5ZjWRsQ7aUiwY=","tags":{"amenity":"recycling","recycling:clothes":"yes","recycling:shoes":"yes","addr:full":"ж.к. Люлин 9, ул. „ген. Никола Генев“","addr:city":"София","addr:country":"BG","operator:wikidata":"Q122947768"},"coordinates":[42.71798,23.26517]},"tags_mismatch":false,"dist":0},{"osm":false,"atp":{"id":"FsTA4k0cslHPnoBMXgCm4_uJJ3w=","tags":{"amenity":"recycling","recycling:clothes":"yes","recycling:shoes":"yes","addr:full":"СУ Лиу Пастьор, ул. Никола Генев","addr:city":"София","addr:country":"BG","operator:wikidata":"Q122947768"},"coordinates":[42.710762,23.263103]},"tags_mismatch":false,"dist":0},{"osm":false,"atp":{"id":"0GP31M8tJOBXhfHTIdQKzpC25L0=","tags":{"amenity":"recycling","recycling:clothes":"yes","recycling:shoes":"yes","addr:full":"ж.к. Люлин 7, ул. „полк. Стоян Топузов“ 722-718","addr:city":"София","addr:country":"BG","operator:wikidata":"Q122947768"},"coordinates":[42.710718,23.263037]},"tags_mismatch":false,"dist":0},{"osm":false,"atp":{"id":"zy67UrDxBFSeksbA7lLryeVESSQ=","tags":{"amenity":"recycling","recycling:clothes":"yes","recycling:shoes":"yes","addr:full":"ж.к. Илинден, бул. Вардар","addr:city":"София","addr:country":"BG","operator:wikidata":"Q122947768"},"coordinates":[42.702981,23.285755]},"tags_mismatch":false,"dist":0},{"osm":false,"atp":{"id":"ta0k24y7GWyqY950Ls8oyuz3cH4=","tags":{"amenity":"recycling","recycling:clothes":"yes","recycling:shoes":"yes","addr:full":"София център, бул. „Константин Величков“ 61","addr:city":"София","addr:country":"BG","operator:wikidata":"Q122947768"},"coordinates":[42.702344,23.297987]},"tags_mismatch":false,"dist":0},{"osm":false,"atp":false,"tags_mismatch":false,"dist":0},{"osm":false,"atp":{"id":"t-v_1ZENIcQYq_-IOuNs9uu2h8M=","tags":{"amenity":"recycling","recycling:clothes":"yes","recycling:shoes":"yes","addr:full":"кв. Овча купел, ул. „Буземска“2 парк Овча купел","addr:city":"София","addr:country":"BG","operator:wikidata":"Q122947768"},"coordinates":[42.678639,23.267639]},"tags_mismatch":false,"dist":0},{"osm":false,"atp":{"id":"FMOz10muGgoM5WprS-OqFF3ggb0=","tags":{"amenity":"recycling","recycling:clothes":"yes","recycling:shoes":"yes","addr:full":"кв. Овча купел, ул. „Промишлена“ срещу бл.402","addr:city":"София","addr:country":"BG","operator:wikidata":"Q122947768"},"coordinates":[42.685001,23.250618]},"tags_mismatch":false,"dist":0},{"osm":false,"atp":{"id":"bh7q5rovFLhAoI5x3EM54r3hNb0=","tags":{"amenity":"recycling","recycling:clothes":"yes","recycling:shoes":"yes","addr:full":"Метростанция Овча купел 2, ул. Братя Прошек","addr:city":"София","addr:country":"BG","operator:wikidata":"Q122947768"},"coordinates":[42.683969,23.256667]},"tags_mismatch":false,"dist":0},{"osm":false,"atp":{"id":"O88v8ZZveywmUdAAfiIOvm1oyps=","tags":{"amenity":"recycling","recycling:clothes":"yes","recycling:shoes":"yes","addr:full":"Паркинг, ж.к. Овча купел 1, ул. „Орчо Войвода“ 7","addr:city":"София","addr:country":"BG","operator:wikidata":"Q122947768"},"coordinates":[42.683071,23.270644]},"tags_mismatch":false,"dist":0},{"osm":false,"atp":false,"tags_mismatch":false,"dist":0},{"osm":false,"atp":{"id":"hURDOgGhA1WwNB0yM_vgJcAAD58=","tags":{"amenity":"recycling","recycling:clothes":"yes","recycling:shoes":"yes","addr:full":"Водолей-1 Витоша, ул. „Витошка зорница“3","addr:city":"София","addr:country":"BG","operator:wikidata":"Q122947768"},"coordinates":[42.639582,23.312751]},"tags_mismatch":false,"dist":0},{"osm":false,"atp":false,"tags_mismatch":false,"dist":0},{"osm":false,"atp":false,"tags_mismatch":false,"dist":0},{"osm":false,"atp":{"id":"Vxzio-RR_on5llRIYiBSoJd6bQA=","tags":{"amenity":"recycling","recycling:clothes":"yes","recycling:shoes":"yes","addr:full":"кв. Манастирски ливади, ул. „Ралевица“ 84","addr:city":"София","addr:country":"BG","operator:wikidata":"Q122947768"},"coordinates":[42.665007,23.281986]},"tags_mismatch":false,"dist":0},{"osm":false,"atp":false,"tags_mismatch":false,"dist":0},{"osm":false,"atp":false,"tags_mismatch":false,"dist":0},{"osm":false,"atp":false,"tags_mismatch":false,"dist":0},{"osm":false,"atp":false,"tags_mismatch":false,"dist":0},{"osm":false,"atp":{"id":"uwitpd8FLToRe1JojJ5KT7wpidE=","tags":{"amenity":"recycling","recycling:clothes":"yes","recycling:shoes":"yes","addr:full":"ж.к. Иван Вазов, бул. „Петко Каравелов“ 3","addr:city":"София","addr:country":"BG","operator:wikidata":"Q122947768"},"coordinates":[42.678912,23.31341]},"tags_mismatch":false,"dist":0},{"osm":false,"atp":{"id":"GYAHfHCVRMa3EdirHA7KGRzRYw4=","tags":{"amenity":"recycling","recycling:clothes":"yes","recycling:shoes":"yes","addr:full":"Улица Гео Милев 18","addr:city":"София","addr:country":"BG","operator:wikidata":"Q122947768"},"coordinates":[42.684978,23.357179]},"tags_mismatch":false,"dist":0},{"osm":false,"atp":{"id":"d_w3kFxhQB1YuFz2iyrDbDrAI9E=","tags":{"amenity":"recycling","recycling:clothes":"yes","recycling:shoes":"yes","addr:full":"Ж.К Дружба 2 ул.Садина бл 507","addr:city":"София","addr:country":"BG","operator:wikidata":"Q122947768"},"coordinates":[42.642215,23.414677]},"tags_mismatch":false,"dist":0},{"osm":false,"atp":{"id":"ZbwXFgsug6w6uiIVCyVwGXrfVCM=","tags":{"amenity":"recycling","recycling:clothes":"yes","recycling:shoes":"yes","addr:full":"Ж.К. Дружба 2 ул. Делийска Воденица","addr:city":"София","addr:country":"BG","operator:wikidata":"Q122947768"},"coordinates":[42.646734,23.409202]},"tags_mismatch":false,"dist":0},{"osm":false,"atp":{"id":"1tJqdnz5H37rSidxpY3jfv7PMeI=","tags":{"amenity":"recycling","recycling:clothes":"yes","recycling:shoes":"yes","addr:full":"Ж.К. Дружба 2 - Жилищен комплекс Дружба 2","addr:city":"София","addr:country":"BG","operator:wikidata":"Q122947768"},"coordinates":[42.648199,23.407602]},"tags_mismatch":false,"dist":0},{"osm":false,"atp":{"id":"Fr0sMTADGSr8kypDoAQtsSK4Dmc=","tags":{"amenity":"recycling","recycling:clothes":"yes","recycling:shoes":"yes","addr:full":"Ж.К. Дружба 2 бл.254","addr:city":"София","addr:country":"BG","operator:wikidata":"Q122947768"},"coordinates":[42.65177,23.402427]},"tags_mismatch":false,"dist":0},{"osm":false,"atp":{"id":"kNlhl74xeUok-zSDTWLRjQZVuUk=","tags":{"amenity":"recycling","recycling:clothes":"yes","recycling:shoes":"yes","addr:full":"Ж.К. Дружба 1 ул.Тирана 122 - 2 бр","addr:city":"София","addr:country":"BG","operator:wikidata":"Q122947768"},"coordinates":[42.660432,23.399986]},"tags_mismatch":false,"dist":0},{"osm":false,"atp":{"id":"Rqeu02y4JUiwXVQy6I30oWvmIek=","tags":{"amenity":"recycling","recycling:clothes":"yes","recycling:shoes":"yes","addr:full":"Ж.К. Дружба 1 ул.5019","addr:city":"София","addr:country":"BG","operator:wikidata":"Q122947768"},"coordinates":[42.666122,23.397157]},"tags_mismatch":false,"dist":0},{"osm":false,"atp":{"id":"RGC3YZvqhgDbyBRlGHHJahLmrdI=","tags":{"amenity":"recycling","recycling:clothes":"yes","recycling:shoes":"yes","addr:full":"Ж.К. Дружба 1 зад бл.59","addr:city":"София","addr:country":"BG","operator:wikidata":"Q122947768"},"coordinates":[42.660381,23.394546]},"tags_mismatch":false,"dist":0},{"osm":false,"atp":false,"tags_mismatch":false,"dist":0},{"osm":false,"atp":{"id":"q-WKLxui3KwmTrUQ447U9ABW1FU=","tags":{"amenity":"recycling","recycling:clothes":"yes","recycling:shoes":"yes","addr:full":"Ж.К. Младост 1 ул.Йерусалим 22 - до Фантастико","addr:city":"София","addr:country":"BG","operator:wikidata":"Q122947768"},"coordinates":[42.655467,23.374179]},"tags_mismatch":false,"dist":0},{"osm":false,"atp":{"id":"SxRw4fZarqVFvwx47zkms7wRNsc=","tags":{"amenity":"recycling","recycling:clothes":"yes","recycling:shoes":"yes","addr:full":"Ж.К. Младост 1 ул.Методи Андонов 74","addr:city":"София","addr:country":"BG","operator:wikidata":"Q122947768"},"coordinates":[42.652838,23.372801]},"tags_mismatch":false,"dist":0},{"osm":false,"atp":{"id":"0chjaXHSt5N1kjkHzlvNtDTnSYI=","tags":{"amenity":"recycling","recycling:clothes":"yes","recycling:shoes":"yes","addr:full":"Ж.К. Младост 1 пицария Прадо","addr:city":"София","addr:country":"BG","operator:wikidata":"Q122947768"},"coordinates":[42.653171,23.372122]},"tags_mismatch":false,"dist":0},{"osm":false,"atp":{"id":"k44hl7RwXALOdUOPz5ncAOWam_o=","tags":{"amenity":"recycling","recycling:clothes":"yes","recycling:shoes":"yes","addr:full":"Ж.К. Младост 1 бул. Андрей Сахаров 4","addr:city":"София","addr:country":"BG","operator:wikidata":"Q122947768"},"coordinates":[42.651026,23.37682]},"tags_mismatch":false,"dist":0},{"osm":false,"atp":{"id":"DRQQD2r0fnYHHwjENAkUbn54DOE=","tags":{"amenity":"recycling","recycling:clothes":"yes","recycling:shoes":"yes","addr:full":"Ж.К. Младост 1 ул. Ана Ахматова 520","addr:city":"София","addr:country":"BG","operator:wikidata":"Q122947768"},"coordinates":[42.650906,23.384639]},"tags_mismatch":false,"dist":0},{"osm":false,"atp":{"id":"BqqnccV9MfRPjg9PJd2evm0oloY=","tags":{"amenity":"recycling","recycling:clothes":"yes","recycling:shoes":"yes","addr:full":"Ж.К. Младост 3 ул.Генерал Радко Димитриев бл.372","addr:city":"София","addr:country":"BG","operator:wikidata":"Q122947768"},"coordinates":[42.645478,23.383176]},"tags_mismatch":false,"dist":0},{"osm":false,"atp":{"id":"oUfJste45gIxKIopLS98zhZQO0o=","tags":{"amenity":"recycling","recycling:clothes":"yes","recycling:shoes":"yes","addr:full":"Ж.К. Младост 3 ул.Бъднина 304 - до Кауфланд","addr:city":"София","addr:country":"BG","operator:wikidata":"Q122947768"},"coordinates":[42.645279,23.379575]},"tags_mismatch":false,"dist":0},{"osm":false,"atp":{"id":"rhVkef6LFDO-cI1F224No2Xq1KA=","tags":{"amenity":"recycling","recycling:clothes":"yes","recycling:shoes":"yes","addr:full":"Ж.К. Младост 4 ул.Александър Паскалев бл.415","addr:city":"София","addr:country":"BG","operator:wikidata":"Q122947768"},"coordinates":[42.635247,23.379993]},"tags_mismatch":false,"dist":0},{"osm":false,"atp":{"id":"kH6vgAw-Ul6V8kgfTcRkzG-BVJs=","tags":{"amenity":"recycling","recycling:clothes":"yes","recycling:shoes":"yes","addr:full":"Ж.К. Младост 4 ул.Божан Ангелов бл.422А","addr:city":"София","addr:country":"BG","operator:wikidata":"Q122947768"},"coordinates":[42.633333,23.378099]},"tags_mismatch":false,"dist":0},{"osm":false,"atp":{"id":"AMbDmP738y9MKDdWpjlXQQ8F8M4=","tags":{"amenity":"recycling","recycling:clothes":"yes","recycling:shoes":"yes","addr:full":"Ж.К. Младост 4 ул.Божан Англеов 426","addr:city":"София","addr:country":"BG","operator:wikidata":"Q122947768"},"coordinates":[42.633176,23.375416]},"tags_mismatch":false,"dist":0},{"osm":false,"atp":{"id":"DTGSLFAroHuef89Kr0DC7LX43EU=","tags":{"amenity":"recycling","recycling:clothes":"yes","recycling:shoes":"yes","addr:full":"Ж.К. Младост 4 ул. Проф.Александър Танев 469","addr:city":"София","addr:country":"BG","operator:wikidata":"Q122947768"},"coordinates":[42.627173,23.383914]},"tags_mismatch":false,"dist":0},{"osm":false,"atp":{"id":"vJLT4nIDVkD5SQn6CAlK4rByB9w=","tags":{"amenity":"recycling","recycling:clothes":"yes","recycling:shoes":"yes","addr:full":"Ж.К. Витоша бул. Черни Връх 189","addr:city":"София","addr:country":"BG","operator:wikidata":"Q122947768"},"coordinates":[42.636599,23.310911]},"tags_mismatch":false,"dist":0},{"osm":false,"atp":{"id":"BYeXIT6GrwwNMBVaNlmKrd8JsyY=","tags":{"amenity":"recycling","recycling:clothes":"yes","recycling:shoes":"yes","addr:full":"Ж.К. Витоша ул.Витошка Зорница - до Фантастико","addr:city":"София","addr:country":"BG","operator:wikidata":"Q122947768"},"coordinates":[42.639582,23.312751]},"tags_mismatch":false,"dist":0},{"osm":false,"atp":false,"tags_mismatch":false,"dist":0},{"osm":false,"atp":{"id":"JrbM6xyNfxXZunvHR5z1w8cgARE=","tags":{"amenity":"recycling","recycling:clothes":"yes","recycling:shoes":"yes","addr:full":"Ж.К. Студентски град ул.Акад. Борис Стефанов 58","addr:city":"София","addr:country":"BG","operator:wikidata":"Q122947768"},"coordinates":[42.644056,23.342008]},"tags_mismatch":false,"dist":0},{"osm":false,"atp":{"id":"mt_mSfzvFkWoEGOkMkG9mC6rZk4=","tags":{"amenity":"recycling","recycling:clothes":"yes","recycling:shoes":"yes","addr:full":"Ж.К. Студентски град ул.Акад. Стефан Младенов 80","addr:city":"София","addr:country":"BG","operator:wikidata":"Q122947768"},"coordinates":[42.644931,23.345101]},"tags_mismatch":false,"dist":0},{"osm":false,"atp":{"id":"lALHODGFIo-q56BvZIQ3zFtPvsk=","tags":{"amenity":"recycling","recycling:clothes":"yes","recycling:shoes":"yes","addr:full":"Ж.К. Студентски град ул. Проф д-р Иван Странски до бл.61","addr:city":"София","addr:country":"BG","operator:wikidata":"Q122947768"},"coordinates":[42.642932,23.343674]},"tags_mismatch":false,"dist":0},{"osm":false,"atp":false,"tags_mismatch":false,"dist":0},{"osm":false,"atp":false,"tags_mismatch":false,"dist":0},{"osm":false,"atp":{"id":"WS5P8H5bljw0I2t1kty8bZYRq1I=","tags":{"amenity":"recycling","recycling:clothes":"yes","recycling:shoes":"yes","addr:full":"кв. Чайка, 8240 Стария възел, Слънчев бряг","addr:city":"Слънчев бряг","addr:country":"BG","operator:wikidata":"Q122947768"},"coordinates":[42.696467,27.707971]},"tags_mismatch":false,"dist":0},{"osm":false,"atp":{"id":"oPz_AOxMUpq08UkMKAQmltFy_XQ=","tags":{"amenity":"recycling","recycling:clothes":"yes","recycling:shoes":"yes","addr:full":"8256 Свети Влас","addr:city":"Св. Влас","addr:country":"BG","operator:wikidata":"Q122947768"},"coordinates":[42.71373,27.758482]},"tags_mismatch":false,"dist":0},{"osm":false,"atp":{"id":"WuBLZaYQbXpv6ct_sv8JSWdj2tM=","tags":{"amenity":"recycling","recycling:clothes":"yes","recycling:shoes":"yes","addr:full":"Иван Вазов, 4530 Стрелча","addr:city":"Стрелча","addr:country":"BG","operator:wikidata":"Q122947768"},"coordinates":[42.50332,24.322031]},"tags_mismatch":false,"dist":0},{"osm":false,"atp":{"id":"XjLmM36eKnBEVbPmsp-1i26iA6s=","tags":{"amenity":"recycling","recycling:clothes":"yes","recycling:shoes":"yes","addr:full":"ул. Тодор Каблешков, 4530 Стрелча","addr:city":"Стрелча","addr:country":"BG","operator:wikidata":"Q122947768"},"coordinates":[42.506844,24.317143]},"tags_mismatch":false,"dist":0},{"osm":false,"atp":{"id":"o0xpjiy6jdqwJZ47bDOyrwRWBsU=","tags":{"amenity":"recycling","recycling:clothes":"yes","recycling:shoes":"yes","addr:full":"Димитър Благоев, 4530 Стрелча","addr:city":"Стрелча","addr:country":"BG","operator:wikidata":"Q122947768"},"coordinates":[42.510405,24.321859]},"tags_mismatch":false,"dist":0},{"osm":false,"atp":{"id":"q9kTjL8duoqTMJK_ex2tFC2m78M=","tags":{"amenity":"recycling","recycling:clothes":"yes","recycling:shoes":"yes","addr:full":"ул. Любен Каравелов, 4987 Старцево","addr:city":"Старцево /Златоград/","addr:country":"BG","operator:wikidata":"Q122947768"},"coordinates":[41.430421,25.050478]},"tags_mismatch":false,"dist":0},{"osm":false,"atp":{"id":"lc7jGqRaVumBm9L5VIgLGN_8WXI=","tags":{"amenity":"recycling","recycling:clothes":"yes","recycling:shoes":"yes","addr:full":"ул. „Ал. Стамболийски“ 28, 4190 Съединение","addr:city":"Съединение","addr:country":"BG","operator:wikidata":"Q122947768"},"coordinates":[42.276864,24.544183]},"tags_mismatch":false,"dist":0},{"osm":false,"atp":{"id":"oga7O-2JDzUr4EgyUgCNg7j4DbA=","tags":{"amenity":"recycling","recycling:clothes":"yes","recycling:shoes":"yes","addr:full":"Център, ул. Хан Аспарух 17, 8890 Твърдица","addr:city":"Твърдица","addr:country":"BG","operator:wikidata":"Q122947768"},"coordinates":[42.701362,25.898362]},"tags_mismatch":false,"dist":0},{"osm":false,"atp":{"id":"4g1ciAEK3tfz1Tj3ORe9jUZkPj0=","tags":{"amenity":"recycling","recycling:clothes":"yes","recycling:shoes":"yes","addr:full":"ул. „Кирил и Методий“ 43-29, 5600 Троян","addr:city":"Троян","addr:country":"BG","operator:wikidata":"Q122947768"},"coordinates":[42.890589,24.709161]},"tags_mismatch":false,"dist":0},{"osm":false,"atp":{"id":"2Rq5cgW4CyRp7w4P9JEkYv8wGis=","tags":{"amenity":"recycling","recycling:clothes":"yes","recycling:shoes":"yes","addr:full":"ул. „Професор н. Шипковенски“ 11-15, 5600 Черногор, Троян","addr:city":"Троян","addr:country":"BG","operator:wikidata":"Q122947768"},"coordinates":[42.891603,24.705772]},"tags_mismatch":false,"dist":0},{"osm":false,"atp":{"id":"BrIjLoekQLB-HEfqUF7iPFg1NUw=","tags":{"amenity":"recycling","recycling:clothes":"yes","recycling:shoes":"yes","addr:full":"ул. „Буковец“, 5602 Младост, Троян","addr:city":"Троян","addr:country":"BG","operator:wikidata":"Q122947768"},"coordinates":[42.89919,24.713044]},"tags_mismatch":false,"dist":0},{"osm":false,"atp":{"id":"JoCf9Hn4vMzRAL3yarRInumE7I4=","tags":{"amenity":"recycling","recycling:clothes":"yes","recycling:shoes":"yes","addr:full":"ул. „Г.С. Раковски“ 53-17, 5600 Център, Троян","addr:city":"Троян","addr:country":"BG","operator:wikidata":"Q122947768"},"coordinates":[42.883472,24.711398]},"tags_mismatch":false,"dist":0},{"osm":false,"atp":{"id":"58bxJptmXWaYuW5-pJqqSOWUjHY=","tags":{"amenity":"recycling","recycling:clothes":"yes","recycling:shoes":"yes","addr:full":"ж.к. Лъгът 19, 5600 Троян","addr:city":"Троян","addr:country":"BG","operator:wikidata":"Q122947768"},"coordinates":[42.871267,24.711246]},"tags_mismatch":false,"dist":0},{"osm":false,"atp":{"id":"VgoQpzf6NsEFc3rswewb6wUhUIs=","tags":{"amenity":"recycling","recycling:clothes":"yes","recycling:shoes":"yes","addr:full":"ул. „Балкан\" 23, 5601 Лъгът, Троян","addr:city":"Троян","addr:country":"BG","operator:wikidata":"Q122947768"},"coordinates":[42.872866,24.712044]},"tags_mismatch":false,"dist":0},{"osm":false,"atp":{"id":"R5Fu_Z9YTWq0mpWiCd4h1VJW2FE=","tags":{"amenity":"recycling","recycling:clothes":"yes","recycling:shoes":"yes","addr:full":"5350 ул.Васил Априлов 1, Трявна","addr:city":"Трявна","addr:country":"BG","operator:wikidata":"Q122947768"},"coordinates":[42.879348,25.495262]},"tags_mismatch":false,"dist":0},{"osm":false,"atp":{"id":"Cl_jLv3eQp0opsKwhtrMI-u90Eo=","tags":{"amenity":"recycling","recycling:clothes":"yes","recycling:shoes":"yes","addr:full":"ул. „Александър Стамболийски“, 5350 Трявна","addr:city":"Трявна","addr:country":"BG","operator:wikidata":"Q122947768"},"coordinates":[42.870956,25.498128]},"tags_mismatch":false,"dist":0},{"osm":false,"atp":{"id":"2fcscrhoc_pg1sbZwuIpyCVzY0Y=","tags":{"amenity":"recycling","recycling:clothes":"yes","recycling:shoes":"yes","addr:full":"ул. „Ангел Кънчев“ 21, 5350 Трявна","addr:city":"Трявна","addr:country":"BG","operator:wikidata":"Q122947768"},"coordinates":[42.866638,25.49192]},"tags_mismatch":false,"dist":0},{"osm":false,"atp":{"id":"KFoLyCNvUrJf11tZbioCMA5vr8s=","tags":{"amenity":"recycling","recycling:clothes":"yes","recycling:shoes":"yes","addr:full":"Трявна, 5350","addr:city":"Трявна","addr:country":"BG","operator:wikidata":"Q122947768"},"coordinates":[42.847746,25.468173]},"tags_mismatch":false,"dist":0},{"osm":false,"atp":{"id":"6BQhfKveEpA9sgHxtijAodTPY60=","tags":{"amenity":"recycling","recycling:clothes":"yes","recycling:shoes":"yes","addr:full":"ул. „Преслав“ 9А, 7700 Търговище Център, Търговище","addr:city":"Търговище","addr:country":"BG","operator:wikidata":"Q122947768"},"coordinates":[43.246124,26.576055]},"tags_mismatch":false,"dist":0},{"osm":false,"atp":{"id":"eXoQ-dGKKDCSW6trP8JLw18tNs8=","tags":{"amenity":"recycling","recycling:clothes":"yes","recycling:shoes":"yes","addr:full":"ул. „Паисий“ 17А, 7700 Боровец, Търговище","addr:city":"Търговище","addr:country":"BG","operator:wikidata":"Q122947768"},"coordinates":[43.242744,26.579518]},"tags_mismatch":false,"dist":0},{"osm":false,"atp":{"id":"4pYF_8CJ6svdyL9DHEmeyjnCxoI=","tags":{"amenity":"recycling","recycling:clothes":"yes","recycling:shoes":"yes","addr:full":"ул. „Стефан Караджа“ 7-11, 7700 Търговище","addr:city":"Търговище","addr:country":"BG","operator:wikidata":"Q122947768"},"coordinates":[43.247696,26.576553]},"tags_mismatch":false,"dist":0},{"osm":false,"atp":{"id":"trj7jul40aFmEZpy75QrAE-HZTc=","tags":{"amenity":"recycling","recycling:clothes":"yes","recycling:shoes":"yes","addr:full":"ул. „Цар Симеон“ 3, 7700 Търговище Център, Търговище","addr:city":"Търговище","addr:country":"BG","operator:wikidata":"Q122947768"},"coordinates":[43.251077,26.570607]},"tags_mismatch":false,"dist":0},{"osm":false,"atp":{"id":"1tF63dArisAJGOjccKPeW1PqBnY=","tags":{"amenity":"recycling","recycling:clothes":"yes","recycling:shoes":"yes","addr:full":"ул. „Васил Петлешков“, 7700 Вароша, Търговище","addr:city":"Търговище","addr:country":"BG","operator:wikidata":"Q122947768"},"coordinates":[43.243958,26.564234]},"tags_mismatch":false,"dist":0},{"osm":false,"atp":{"id":"q8OYxcxudcvj6knNlvsnzJqswSI=","tags":{"amenity":"recycling","recycling:clothes":"yes","recycling:shoes":"yes","addr:full":"бул., Сюрен\", 7705 ж.к. Запад 1, Търговище","addr:city":"Търговище","addr:country":"BG","operator:wikidata":"Q122947768"},"coordinates":[43.24231,26.56015]},"tags_mismatch":false,"dist":0},{"osm":false,"atp":{"id":"uK-Zf55qgz7GiNe1010K473cTcE=","tags":{"amenity":"recycling","recycling:clothes":"yes","recycling:shoes":"yes","addr:full":"ж.к. Запад 2 58Г, 7705 ж.к. Запад 2, Търговище","addr:city":"Търговище","addr:country":"BG","operator:wikidata":"Q122947768"},"coordinates":[43.239546,26.556783]},"tags_mismatch":false,"dist":0},{"osm":false,"atp":{"id":"goR_1OLxuxrW89w21iwsmTnPcnI=","tags":{"amenity":"recycling","recycling:clothes":"yes","recycling:shoes":"yes","addr:full":"5, ул. „Беласица“, 7703 Вароша, Търговище","addr:city":"Търговище","addr:country":"BG","operator:wikidata":"Q122947768"},"coordinates":[43.239482,26.568422]},"tags_mismatch":false,"dist":0},{"osm":false,"atp":{"id":"yISIzeIXk_DN86u0vVlKAh852Z0=","tags":{"amenity":"recycling","recycling:clothes":"yes","recycling:shoes":"yes","addr:full":"7702 ж.к. Запад 3, Търговище","addr:city":"Търговище","addr:country":"BG","operator:wikidata":"Q122947768"},"coordinates":[43.248292,26.553866]},"tags_mismatch":false,"dist":0},{"osm":false,"atp":{"id":"FSDQ_L7ZtIawJHUwrVO1zNGVFgQ=","tags":{"amenity":"recycling","recycling:clothes":"yes","recycling:shoes":"yes","addr:full":"7700 Вароша, Търговище","addr:city":"Търговище","addr:country":"BG","operator:wikidata":"Q122947768"},"coordinates":[43.238619,26.571243]},"tags_mismatch":false,"dist":0},{"osm":false,"atp":{"id":"sjsLwDBR45zGRn3N1S8fGEjEGPU=","tags":{"amenity":"recycling","recycling:clothes":"yes","recycling:shoes":"yes","addr:full":"ул. „Мургаш“, 7700 Боровец, Търговище","addr:city":"Търговище","addr:country":"BG","operator:wikidata":"Q122947768"},"coordinates":[43.239849,26.574848]},"tags_mismatch":false,"dist":0},{"osm":false,"atp":{"id":"sz5sp74SnIPxpKn1EZGe3LV_OEM=","tags":{"amenity":"recycling","recycling:clothes":"yes","recycling:shoes":"yes","addr:full":"ул. „Лилия“ 3-5, 7700 Търговище Център, Търговище","addr:city":"Търговище","addr:country":"BG","operator:wikidata":"Q122947768"},"coordinates":[43.247852,26.574379]},"tags_mismatch":false,"dist":0},{"osm":false,"atp":{"id":"Q8_pUUJyOlR0zH_PkiOnRE8oxFc=","tags":{"amenity":"recycling","recycling:clothes":"yes","recycling:shoes":"yes","addr:full":"Бряг, ул. „Велес“ 38, 7704 Търговище","addr:city":"Търговище","addr:country":"BG","operator:wikidata":"Q122947768"},"coordinates":[43.282093,26.596163]},"tags_mismatch":false,"dist":0},{"osm":false,"atp":{"id":"aXyDNRAPZXmgw4gOlLo4Z3io5aw=","tags":{"amenity":"recycling","recycling:clothes":"yes","recycling:shoes":"yes","addr:full":"Въбел, бул. „Александър Стамболийски“ 95, 7701 Търговище","addr:city":"Търговище","addr:country":"BG","operator:wikidata":"Q122947768"},"coordinates":[43.25755,26.530135]},"tags_mismatch":false,"dist":0},{"osm":false,"atp":{"id":"XYogyhKGtKN_V8wvf5MOPF9vzL8=","tags":{"amenity":"recycling","recycling:clothes":"yes","recycling:shoes":"yes","addr:full":"ул.Светулка, 5580 Угърчин","addr:city":"Угърчин","addr:country":"BG","operator:wikidata":"Q122947768"},"coordinates":[43.106276,24.412629]},"tags_mismatch":false,"dist":0},{"osm":false,"atp":{"id":"R_GDFnTvhoktCH-7eccCLDZLcaU=","tags":{"amenity":"recycling","recycling:clothes":"yes","recycling:shoes":"yes","addr:full":"бул. „Илинден“ 89-87, 6302 ж.к. Овчарски, Хасково","addr:city":"Хасково","addr:country":"BG","operator:wikidata":"Q122947768"},"coordinates":[41.925201,25.564538]},"tags_mismatch":false,"dist":0},{"osm":false,"atp":{"id":"K6QjCGGCRhy2nbKKbVUqu_aetfo=","tags":{"amenity":"recycling","recycling:clothes":"yes","recycling:shoes":"yes","addr:full":"ул. „Дунав“ 4, 6301 ж.к. Любен Каравелов, Хасково","addr:city":"Хасково","addr:country":"BG","operator:wikidata":"Q122947768"},"coordinates":[41.937988,25.546277]},"tags_mismatch":false,"dist":0},{"osm":false,"atp":{"id":"oHzBOCGBHrMGFuXairF2_3vtPfs=","tags":{"amenity":"recycling","recycling:clothes":"yes","recycling:shoes":"yes","addr:full":"ул. „Мадара“, 6301 ж.к. Любен Каравелов, Хасково","addr:city":"Хасково","addr:country":"BG","operator:wikidata":"Q122947768"},"coordinates":[41.938471,25.54342]},"tags_mismatch":false,"dist":0},{"osm":false,"atp":{"id":"DJJWqkgqK6TgAOuMD694wtPXS_g=","tags":{"amenity":"recycling","recycling:clothes":"yes","recycling:shoes":"yes","addr:full":"6301 ж.к. Бадема, Хасково","addr:city":"Хасково","addr:country":"BG","operator:wikidata":"Q122947768"},"coordinates":[41.937621,25.537943]},"tags_mismatch":false,"dist":0},{"osm":false,"atp":{"id":"_sLQgz2r1IzhZJa2ffcOFox0sKs=","tags":{"amenity":"recycling","recycling:clothes":"yes","recycling:shoes":"yes","addr:full":"бул. „Г.С.Раковски“, 6300 ж.к. Дружба I, Хасково","addr:city":"Хасково","addr:country":"BG","operator:wikidata":"Q122947768"},"coordinates":[41.936233,25.554985]},"tags_mismatch":false,"dist":0},{"osm":false,"atp":{"id":"X6Oce8r9Lwi06_GJ1Vgyg1mBsyE=","tags":{"amenity":"recycling","recycling:clothes":"yes","recycling:shoes":"yes","addr:full":"6304 Хасково Център, Хасково","addr:city":"Хасково","addr:country":"BG","operator:wikidata":"Q122947768"},"coordinates":[41.930641,25.565215]},"tags_mismatch":false,"dist":0},{"osm":false,"atp":{"id":"5HAZEkj1L4Dce6LTg2A4JwEKlaM=","tags":{"amenity":"recycling","recycling:clothes":"yes","recycling:shoes":"yes","addr:full":"бул. „Стефан Стамболов“, 6304 Хасково Център, Хасково","addr:city":"Хасково","addr:country":"BG","operator:wikidata":"Q122947768"},"coordinates":[41.929748,25.563026]},"tags_mismatch":false,"dist":0},{"osm":false,"atp":{"id":"V_DXyi7r8xuNzciDlKvpa6RPJIk=","tags":{"amenity":"recycling","recycling:clothes":"yes","recycling:shoes":"yes","addr:full":"ул. „Драгоман“ 77-73, 6300 ж.к. Овчарски, Хасково","addr:city":"Хасково","addr:country":"BG","operator:wikidata":"Q122947768"},"coordinates":[41.927727,25.565871]},"tags_mismatch":false,"dist":0},{"osm":false,"atp":{"id":"b64N1gePQ7kxQ1cQ3oZn7HmtHyk=","tags":{"amenity":"recycling","recycling:clothes":"yes","recycling:shoes":"yes","addr:full":"ж.к. Орфей, 6303 Орфей, Хасково - 2 бр","addr:city":"Хасково","addr:country":"BG","operator:wikidata":"Q122947768"},"coordinates":[41.944292,25.55621]},"tags_mismatch":false,"dist":0},{"osm":false,"atp":{"id":"1W2NJN0sMlsxj5zLGi4P1e6GYmw=","tags":{"amenity":"recycling","recycling:clothes":"yes","recycling:shoes":"yes","addr:full":"бул. Генерал Гурко 31-27, 4180 Център, Хисаря","addr:city":"Хисаря","addr:country":"BG","operator:wikidata":"Q122947768"},"coordinates":[42.506325,24.708514]},"tags_mismatch":false,"dist":0},{"osm":false,"atp":{"id":"djJqyJJRKkc3fmJUnUSguAmWTH8=","tags":{"amenity":"recycling","recycling:clothes":"yes","recycling:shoes":"yes","addr:full":"бул. Генерал Гурко 3, 4180 Център, Хисаря","addr:city":"Хисаря","addr:country":"BG","operator:wikidata":"Q122947768"},"coordinates":[42.500365,24.712332]},"tags_mismatch":false,"dist":0},{"osm":false,"atp":{"id":"ooaZZaIGm8NwV-bthZbtbzJ6cuM=","tags":{"amenity":"recycling","recycling:clothes":"yes","recycling:shoes":"yes","addr:full":"54, 7139 Ценово","addr:city":"Ценово","addr:country":"BG","operator:wikidata":"Q122947768"},"coordinates":[43.537295,25.656414]},"tags_mismatch":false,"dist":0},{"osm":false,"atp":{"id":"wiig-8Er3d-aYH6Cv_wiW-kXqUQ=","tags":{"amenity":"recycling","recycling:clothes":"yes","recycling:shoes":"yes","addr:full":"ул. Беловска 2-6, 4850 Чепеларе","addr:city":"Чепеларе","addr:country":"BG","operator:wikidata":"Q122947768"},"coordinates":[41.724494,24.685657]},"tags_mismatch":false,"dist":0},{"osm":false,"atp":{"id":"A1j3vZC3DrcT2ZeeoQguTjNOyUQ=","tags":{"amenity":"recycling","recycling:clothes":"yes","recycling:shoes":"yes","addr:full":"ул. Хан Аспарух 2-8, 4850 Чепеларе","addr:city":"Чепеларе","addr:country":"BG","operator:wikidata":"Q122947768"},"coordinates":[41.728116,24.685059]},"tags_mismatch":false,"dist":0},{"osm":false,"atp":{"id":"Gt0DFG71fBGYemlODUmFFgVRsNs=","tags":{"amenity":"recycling","recycling:clothes":"yes","recycling:shoes":"yes","addr:full":"ул. 24 май 50, 4850 Чепеларе","addr:city":"Чепеларе","addr:country":"BG","operator:wikidata":"Q122947768"},"coordinates":[41.72604,24.67858]},"tags_mismatch":false,"dist":0},{"osm":false,"atp":{"id":"KAqw6xaK3bbgN5MuwjbNXRf8TUk=","tags":{"amenity":"recycling","recycling:clothes":"yes","recycling:shoes":"yes","addr:full":"9705 Шумен","addr:city":"Шумен","addr:country":"BG","operator:wikidata":"Q122947768"},"coordinates":[43.278,26.914821]},"tags_mismatch":false,"dist":0},{"osm":false,"atp":{"id":"Ly4UFDS8t8VpZ-v_vRNWkUDjXa4=","tags":{"amenity":"recycling","recycling:clothes":"yes","recycling:shoes":"yes","addr:full":"ул. „Самара“, 9710 ж.к. Боян Българанов II, Шумен","addr:city":"Шумен","addr:country":"BG","operator:wikidata":"Q122947768"},"coordinates":[43.276828,26.907867]},"tags_mismatch":false,"dist":0},{"osm":false,"atp":{"id":"kKC_ovNsmFcYUXnKgQp6LtjgGEw=","tags":{"amenity":"recycling","recycling:clothes":"yes","recycling:shoes":"yes","addr:full":"9702 Шумен Център, Шумен","addr:city":"Шумен","addr:country":"BG","operator:wikidata":"Q122947768"},"coordinates":[43.270588,26.911365]},"tags_mismatch":false,"dist":0},{"osm":false,"atp":{"id":"KIe5JDdDRLHMaNnZX2xy4v8yo7A=","tags":{"amenity":"recycling","recycling:clothes":"yes","recycling:shoes":"yes","addr:full":"ул. „Август Попов“ 8-18, 9700 Шумен Център, Шумен","addr:city":"Шумен","addr:country":"BG","operator:wikidata":"Q122947768"},"coordinates":[43.271337,26.914797]},"tags_mismatch":false,"dist":0},{"osm":false,"atp":{"id":"TmKVTbBbc3qJRxAgJAl0Yy2EbfQ=","tags":{"amenity":"recycling","recycling:clothes":"yes","recycling:shoes":"yes","addr:full":"ул. „Панайот Волов“ 53, 9700 Шумен Център, Шумен - 2 бр.","addr:city":"Шумен","addr:country":"BG","operator:wikidata":"Q122947768"},"coordinates":[43.275949,26.928042]},"tags_mismatch":false,"dist":0},{"osm":false,"atp":{"id":"Y9xpPKkgBWu-vgxKzm5Zqr1hXhk=","tags":{"amenity":"recycling","recycling:clothes":"yes","recycling:shoes":"yes","addr:full":"Паркинг, Градски, Шумен","addr:city":"Шумен","addr:country":"BG","operator:wikidata":"Q122947768"},"coordinates":[43.272288,26.938185]},"tags_mismatch":false,"dist":0},{"osm":false,"atp":{"id":"qptkszHOLZCtBByfoJ-WynMda4o=","tags":{"amenity":"recycling","recycling:clothes":"yes","recycling:shoes":"yes","addr:full":"ул. „Родопи“ 261, 9704 ж.к. Тракия, Шумен - 2 бр.","addr:city":"Шумен","addr:country":"BG","operator:wikidata":"Q122947768"},"coordinates":[43.275329,26.955108]},"tags_mismatch":false,"dist":0},{"osm":false,"atp":{"id":"J6e2yuV-wVVnoTh_airyLxySAdA=","tags":{"amenity":"recycling","recycling:clothes":"yes","recycling:shoes":"yes","addr:full":"9704 ж.к. Тракия, ул. Дедеагач, Шумен","addr:city":"Шумен","addr:country":"BG","operator:wikidata":"Q122947768"},"coordinates":[43.272188,26.956588]},"tags_mismatch":false,"dist":0},{"osm":false,"atp":{"id":"GN-PJm_rGGdPm1Swyd9GcL5w408=","tags":{"amenity":"recycling","recycling:clothes":"yes","recycling:shoes":"yes","addr:full":"ул. „Университетска“ 10, 9703 Шумен","addr:city":"Шумен","addr:country":"BG","operator:wikidata":"Q122947768"},"coordinates":[43.276745,26.937124]},"tags_mismatch":false,"dist":0},{"osm":false,"atp":{"id":"2rOoi36Qj7zEQp5iEttyKuYESo4=","tags":{"amenity":"recycling","recycling:clothes":"yes","recycling:shoes":"yes","addr:full":"ул. „Съединение“, 9700 Шумен Център, Шумен - 2 бр","addr:city":"Шумен","addr:country":"BG","operator:wikidata":"Q122947768"},"coordinates":[43.269175,26.92651]},"tags_mismatch":false,"dist":0},{"osm":false,"atp":{"id":"JLwl_GiFi6djBqVKKDF1SGd5I50=","tags":{"amenity":"recycling","recycling:clothes":"yes","recycling:shoes":"yes","addr:full":"ул. „Преслав“ 28-40, 9701 Шумен Център, Шумен","addr:city":"Шумен","addr:country":"BG","operator:wikidata":"Q122947768"},"coordinates":[43.266292,26.936617]},"tags_mismatch":false,"dist":0},{"osm":false,"atp":{"id":"vUmMAMEHEYbDZd1F-3LHLiTA5MY=","tags":{"amenity":"recycling","recycling:clothes":"yes","recycling:shoes":"yes","addr:full":"ул. „Каварна“, 9708 Добруджански, Шумен - 2 бр.","addr:city":"Шумен","addr:country":"BG","operator:wikidata":"Q122947768"},"coordinates":[43.266485,26.944257]},"tags_mismatch":false,"dist":0},{"osm":false,"atp":{"id":"VYQBJKH7OcRi83xgZ1KNKZJjhrY=","tags":{"amenity":"recycling","recycling:clothes":"yes","recycling:shoes":"yes","addr:full":"бул. „Велики Преслав“ 142, 9706 Дивдядово, Шумен","addr:city":"Шумен","addr:country":"BG","operator:wikidata":"Q122947768"},"coordinates":[43.241054,26.927159]},"tags_mismatch":false,"dist":0},{"osm":false,"atp":{"id":"ZQZ4HGzMzGR9rmtH_Qa_L3VkENM=","tags":{"amenity":"recycling","recycling:clothes":"yes","recycling:shoes":"yes","addr:full":"ул. Хан Аспарух, 9747 Шумен-с. Царев брод","addr:city":"Шумен","addr:country":"BG","operator:wikidata":"Q122947768"},"coordinates":[43.327501,27.013753]},"tags_mismatch":false,"dist":0},{"osm":false,"atp":{"id":"40sIAz1M6FMlJWicnDLYCYrTBiU=","tags":{"amenity":"recycling","recycling:clothes":"yes","recycling:shoes":"yes","addr:full":"ж.к. Диана 70-17, 8602 ж.к. Диана, Ямбол","addr:city":"Ямбол","addr:country":"BG","operator:wikidata":"Q122947768"},"coordinates":[42.470722,26.528381]},"tags_mismatch":false,"dist":0},{"osm":false,"atp":{"id":"RSKmYo2zEFKBp6ZWfWWwKoaKe2c=","tags":{"amenity":"recycling","recycling:clothes":"yes","recycling:shoes":"yes","addr:full":"ул. „Доктор Кръстев“ 7, 8601 Каргон, Ямбол","addr:city":"Ямбол","addr:country":"BG","operator:wikidata":"Q122947768"},"coordinates":[42.476608,26.499763]},"tags_mismatch":false,"dist":0},{"osm":false,"atp":{"id":"0JKN-6ORcr7BEZ7UMFlGLot8ER4=","tags":{"amenity":"recycling","recycling:clothes":"yes","recycling:shoes":"yes","addr:full":"ул. „Дружба“ 5, 8600 Ямбол Център, Ямбол","addr:city":"Ямбол","addr:country":"BG","operator:wikidata":"Q122947768"},"coordinates":[42.482256,26.499042]},"tags_mismatch":false,"dist":0},{"osm":false,"atp":{"id":"a8nPu5R_kqnSvAwzuJoaesfmPKY=","tags":{"amenity":"recycling","recycling:clothes":"yes","recycling:shoes":"yes","addr:full":"бул. „Граф Игнатиев“ 27, 8600 ж.к. Изток, Ямбол","addr:city":"Ямбол","addr:country":"BG","operator:wikidata":"Q122947768"},"coordinates":[42.479598,26.518539]},"tags_mismatch":false,"dist":0},{"osm":false,"atp":{"id":"WN8-8dnXENIUVhW-4VSREVWYtkM=","tags":{"amenity":"recycling","recycling:clothes":"yes","recycling:shoes":"yes","addr:full":"ул. „Цар Иван Шишман“, 8600 Ямбол Център, Ямбол","addr:city":"Ямбол","addr:country":"BG","operator:wikidata":"Q122947768"},"coordinates":[42.485673,26.507722]},"tags_mismatch":false,"dist":0},{"osm":false,"atp":{"id":"FEGxWSq7brp6XLmdz6KcKFnMPYs=","tags":{"amenity":"recycling","recycling:clothes":"yes","recycling:shoes":"yes","addr:full":"Златен Рог 5А, 8606 ж.к. Златен рог, Ямбол","addr:city":"Ямбол","addr:country":"BG","operator:wikidata":"Q122947768"},"coordinates":[42.482941,26.489602]},"tags_mismatch":false,"dist":0}]}