{"metadata":{"type":"brand","wikidata":"Q110399829","name":"I&G Brokers","compare_keys":["phone","opening_hours"]},"data":[{"osm":{"type":"node","id":4971255148,"tags":{"brand":"I&G Brokers","brand:wikidata":"Q110399829","check_date":"2025-02-05","check_date:opening_hours":"2024-02-17","office":"insurance","opening_hours:signed":"no"},"wikidata":"Q110399829","coordinates":[42.6736711,23.2915518]},"atp":false,"tags_mismatch":false},{"osm":{"type":"node","id":6416108102,"tags":{"brand":"I&G Brokers","brand:wikidata":"Q110399829","office":"insurance","opening_hours":"Mo-Fr 09:00-18:00; Sa 09:00-13:00","phone":"+359 88 633 3892"},"wikidata":"Q110399829","coordinates":[43.0839279,25.621142]},"atp":{"id":"62Q3yAWutLuii57FV8Jr1ZZmAqw=","tags":{"ref":"28","@source_uri":"https://iandgbrokers.com/offices/pins?srch_offices=&city=&features%5B%5D=all&_=1695470505675","@spider":"i_and_g_brokers","office":"insurance","addr:full":"ул. Стоян Михайловски № 58","addr:city":"гр. Велико Търново","addr:state":"Велико Търново","addr:country":"BG","phone":"+359 88 633 3892","email":"vtarnovo@iandgbrokers.com","opening_hours":"Mo-Fr 09:00-18:00; Sa 09:00-13:00","brand":"I&G Brokers","brand:wikidata":"Q110399829","nsi_id":"iandgbrokers-ef0911"},"coordinates":[43.083915,25.621217]},"dist":6.257,"tags_mismatch":false},{"osm":{"type":"node","id":6424219884,"tags":{"brand":"I&G Brokers","brand:wikidata":"Q110399829","check_date":"2024-11-01","contact:facebook":"https://www.facebook.com/iandgbrokers","office":"insurance","opening_hours":"Mo-Fr 09:00-18:00","phone":"+359 2 952 2517","website":"https://iandgbrokers.com/","wheelchair":"limited"},"wikidata":"Q110399829","coordinates":[42.6928789,23.3103765]},"atp":{"id":"5FU8oxqPClwjk65M_cPgMnlj_xk=","tags":{"ref":"133","@source_uri":"https://iandgbrokers.com/offices/pins?srch_offices=&city=&features%5B%5D=all&_=1695470505675","@spider":"i_and_g_brokers","office":"insurance","addr:full":"пл. Руски паметник, бул. Македония № 50","addr:city":"гр. София","addr:state":"София-град","addr:country":"BG","phone":"+359 88 600 0780","email":"ruski.pametnik@iandgbrokers.com","opening_hours":"Mo-Fr 09:00-18:00","brand":"I&G Brokers","brand:wikidata":"Q110399829","nsi_id":"iandgbrokers-ef0911"},"coordinates":[42.6930520209895,23.3103437117219]},"dist":19.436,"tags_mismatch":true},{"osm":{"type":"node","id":6814686554,"tags":{"addr:city":"Варна","addr:housenumber":"1","addr:postcode":"9000","addr:street":"Свети Климент","brand":"I&G Brokers","brand:wikidata":"Q110399829","office":"insurance","opening_hours":"Mo-Fr 09:00-18:00","phone":"+359 88 533 5001","website":"https://iandgbrokers.com"},"wikidata":"Q110399829","coordinates":[43.2031296,27.9189289]},"atp":{"id":"DvhUPBXTvJwVrcTQHru3SAWeg0s=","tags":{"ref":"23","@source_uri":"https://iandgbrokers.com/offices/pins?srch_offices=&city=&features%5B%5D=all&_=1695470505675","@spider":"i_and_g_brokers","office":"insurance","addr:full":"ул. Свети Климент № 1","addr:city":"гр. Варна","addr:state":"Варна","addr:country":"BG","phone":"+359 88 533 5001","email":"chaneva@iandgbrokers.com","opening_hours":"Mo-Fr 09:00-18:00","brand":"I&G Brokers","brand:wikidata":"Q110399829","nsi_id":"iandgbrokers-ef0911"},"coordinates":[43.2031768598907,27.9190231061268]},"dist":9.269,"tags_mismatch":false},{"osm":{"type":"node","id":8599385258,"tags":{"brand":"I&G Brokers","brand:wikidata":"Q110399829","office":"insurance","opening_hours":"Mo-Fr 09:00-13:30,14:00-18:00; Sa,Su off","phone":"+359 88 291 1360"},"wikidata":"Q110399829","coordinates":[42.6770917,23.2932545]},"atp":{"id":"9j9szOapzVef5Tb8xGk8nH3Tdlw=","tags":{"ref":"139","@source_uri":"https://iandgbrokers.com/offices/pins?srch_offices=&city=&features%5B%5D=all&_=1695470505675","@spider":"i_and_g_brokers","office":"insurance","addr:full":"ул. Нишава № 57","addr:city":"гр. София","addr:state":"София-град","addr:country":"BG","phone":"+359 88 291 1360","email":"pencheva@iandgbrokers.com","opening_hours":"Mo-Fr 09:30-18:00","brand":"I&G Brokers","brand:wikidata":"Q110399829","nsi_id":"iandgbrokers-ef0911"},"coordinates":[42.6770489957236,23.2931201566915]},"dist":11.965,"tags_mismatch":true},{"osm":{"type":"node","id":9760428952,"tags":{"branch":"Офис Драгалевци","brand":"I&G Brokers","brand:wikidata":"Q110399829","check_date":"2023-07-29","contact:phone":"+35980020300","contact:website":"https://iandgbrokers.com","internet_access":"no","office":"insurance","opening_hours":"09:00-20:00","payment:mastercard":"yes","payment:visa":"yes","wheelchair":"no"},"wikidata":"Q110399829","coordinates":[42.6402274,23.3118653]},"atp":{"id":"AamcSZXeGhIZj8dHzDylBC1sodc=","tags":{"ref":"144","@source_uri":"https://iandgbrokers.com/offices/pins?srch_offices=&city=&features%5B%5D=all&_=1695470505675","@spider":"i_and_g_brokers","office":"insurance","addr:full":"бул. Черни връх № 204 (Паркингът на магазин Фантастико)","addr:city":"гр. София","addr:state":"София-град","addr:country":"BG","phone":"+359 88 893 8107","email":"office_dragalevci@iandgbrokers.com","opening_hours":"Mo-Su 09:00-20:00","brand":"I&G Brokers","brand:wikidata":"Q110399829","nsi_id":"iandgbrokers-ef0911"},"coordinates":[42.6408896218425,23.3117025230912]},"dist":74.83,"tags_mismatch":true},{"osm":{"type":"node","id":9799794118,"tags":{"brand":"I&G Brokers","brand:wikidata":"Q110399829","office":"insurance","opening_hours":"Mo-Su 09:00-19:00","phone":"+359 88 988 8654"},"wikidata":"Q110399829","coordinates":[42.7024427,23.2849802]},"atp":false,"tags_mismatch":false},{"osm":{"type":"node","id":10035189347,"tags":{"brand":"I&G Brokers","brand:wikidata":"Q110399829","office":"insurance","opening_hours":"Mo-Su 09:00-14:00,15:00-20:00"},"wikidata":"Q110399829","coordinates":[42.6809477,23.3616992]},"atp":{"id":"jpNe10RBYwcxmb10P_KKslCXHC0=","tags":{"ref":"146","@source_uri":"https://iandgbrokers.com/offices/pins?srch_offices=&city=&features%5B%5D=all&_=1695470505675","@spider":"i_and_g_brokers","office":"insurance","addr:full":"ул. Николай Коперник № 27 (Паркингът на магазин Фантастико)","addr:city":"гр. София","addr:state":"София-град","addr:country":"BG","phone":"+359 88 850 2924","email":"office.geomilev@iandgbrokers.com","opening_hours":"Mo-Su 09:00-20:00","brand":"I&G Brokers","brand:wikidata":"Q110399829","nsi_id":"iandgbrokers-ef0911"},"coordinates":[42.6804771048093,23.3612512342698]},"dist":63.868,"tags_mismatch":true},{"osm":{"type":"node","id":10561843176,"tags":{"brand":"I&G Brokers","brand:wikidata":"Q110399829","level":"1","level:ref":"2","office":"insurance","opening_hours":"Mo-Fr 09:00-20:00; Sa-Su 09:00-19:00"},"wikidata":"Q110399829","coordinates":[42.6410004,23.3350548]},"atp":{"id":"JLjdz-zgigbYHcK5EmK2aDfMSO0=","tags":{"ref":"145","@source_uri":"https://iandgbrokers.com/offices/pins?srch_offices=&city=&features%5B%5D=all&_=1695470505675","@spider":"i_and_g_brokers","office":"insurance","addr:full":"бул. „Симеоновско шосе“ 87А","addr:city":"гр. София","addr:state":"София-град","addr:country":"BG","phone":"+359 88 898 3108","email":"office_simeonovsko@iandgbrokers.com","opening_hours":"Mo-Su 09:00-20:00","brand":"I&G Brokers","brand:wikidata":"Q110399829","nsi_id":"iandgbrokers-ef0911"},"coordinates":[42.641356392762994,23.33496745589908]},"dist":40.224,"tags_mismatch":true},{"osm":{"type":"node","id":10984550197,"tags":{"brand":"I&G Brokers","brand:wikidata":"Q110399829","level":"0","office":"insurance","opening_hours":"Mo-Fr 09:00-13:00,14:00-18:00; Sa-Su off"},"wikidata":"Q110399829","coordinates":[42.6770398,23.2886207]},"atp":{"id":"eLdI6so_Q3J3gYooin19DutE-o8=","tags":{"ref":"131","@source_uri":"https://iandgbrokers.com/offices/pins?srch_offices=&city=&features%5B%5D=all&_=1695470505675","@spider":"i_and_g_brokers","office":"insurance","addr:full":"ул. Ворино № 19","addr:city":"гр. София","addr:state":"София-град","addr:country":"BG","phone":"+359 88 632 0952","email":"pim.garant@iandgbrokers.com","opening_hours":"Mo-Fr 09:00-18:00","brand":"I&G Brokers","brand:wikidata":"Q110399829","nsi_id":"iandgbrokers-ef0911"},"coordinates":[42.6773475708332,23.2884963270641]},"dist":35.701,"tags_mismatch":true},{"osm":{"type":"node","id":11267263965,"tags":{"brand":"I&G Brokers","brand:wikidata":"Q110399829","office":"insurance","opening_hours":"Mo-Fr 09:00-20:00; Sa-Su 09:00-19:00","phone":"+359 88 547 8707"},"wikidata":"Q110399829","coordinates":[42.6477924,23.3789513]},"atp":{"id":"f5afsqgee1tgM6SfvyAmSiqVCEU=","tags":{"ref":"127","@source_uri":"https://iandgbrokers.com/offices/pins?srch_offices=&city=&features%5B%5D=all&_=1695470505675","@spider":"i_and_g_brokers","office":"insurance","addr:full":"ж.к. Младост, бул. Александър Малинов № 37 паркинг Билла","addr:city":"гр. София","addr:state":"София-град","addr:country":"BG","phone":"+359 88 547 8707","email":"billa_mladost@iandgbrokers.com","opening_hours":"Mo-Fr 09:00-20:00; Sa-Su 09:00-19:00","brand":"I&G Brokers","brand:wikidata":"Q110399829","nsi_id":"iandgbrokers-ef0911"},"coordinates":[42.6483677844848,23.379087542531]},"dist":64.943,"tags_mismatch":false},{"osm":{"type":"node","id":11559586845,"tags":{"brand":"I&G Brokers","brand:wikidata":"Q110399829","level":"0","office":"insurance","opening_hours":"Mo-Su 09:00-20:00"},"wikidata":"Q110399829","coordinates":[42.6656741,23.2800709]},"atp":{"id":"BuC17R1Jgg3KuZhHsKtpjFdZ5Xs=","tags":{"ref":"152","@source_uri":"https://iandgbrokers.com/offices/pins?srch_offices=&city=&features%5B%5D=all&_=1695470505675","@spider":"i_and_g_brokers","office":"insurance","addr:full":"ул. Пирин № 51А (в магазин Фантастико)","addr:city":"гр. София","addr:state":"София-град","addr:country":"BG","phone":"+359 88 462 9171","email":"pirin@iandgbrokers.com","opening_hours":"Mo-Su 09:00-20:00","brand":"I&G Brokers","brand:wikidata":"Q110399829","nsi_id":"iandgbrokers-ef0911"},"coordinates":[42.6657660298728,23.2800733644178]},"dist":10.224,"tags_mismatch":true},{"osm":{"type":"node","id":11740489399,"tags":{"brand":"I&G Brokers","brand:wikidata":"Q110399829","check_date":"2021-03-24","office":"insurance","opening_hours":"Mo-Fr 09:00-18:00"},"wikidata":"Q110399829","coordinates":[42.6530697,23.3727393]},"atp":false,"tags_mismatch":false},{"osm":{"type":"node","id":12396683907,"tags":{"brand":"I&G Brokers","brand:wikidata":"Q110399829","office":"insurance"},"wikidata":"Q110399829","coordinates":[42.9097122,23.8046138]},"atp":{"id":"UQZge3idXYcU-qIY0mnuSkLeNJs=","tags":{"ref":"113","@source_uri":"https://iandgbrokers.com/offices/pins?srch_offices=&city=&features%5B%5D=all&_=1695470505675","@spider":"i_and_g_brokers","office":"insurance","addr:full":"ул. Цар Освободител № 26","addr:city":"гр. Ботевград","addr:state":"Софийска област","addr:country":"BG","phone":"+359 87 799 5593","email":"office2.botevgrad@iandgbrokers.com","opening_hours":"Mo-Fr 08:30-17:30","brand":"I&G Brokers","brand:wikidata":"Q110399829","nsi_id":"iandgbrokers-ef0911"},"coordinates":[42.9095494,23.8047923]},"dist":23.217,"tags_mismatch":true},{"osm":{"type":"way","id":543130682,"tags":{"brand":"I&G Brokers","brand:wikidata":"Q110399829","building":"yes","office":"insurance","opening_hours":"Mo-Su 09:00-19:00"},"wikidata":"Q110399829","coordinates":[42.1538522,24.7621813]},"atp":{"id":"FOBAKEAhFSMLzWfURSTwq2M-dJo=","tags":{"ref":"83","@source_uri":"https://iandgbrokers.com/offices/pins?srch_offices=&city=&features%5B%5D=all&_=1695470505675","@spider":"i_and_g_brokers","office":"insurance","addr:full":"бул. 6-ти септември № 221","addr:city":"гр. Пловдив","addr:state":"Пловдив","addr:country":"BG","phone":"+359 88 706 7608","email":"billa.plovdiv@iandgbrokers.com","opening_hours":"Mo-Su 09:00-19:00","brand":"I&G Brokers","brand:wikidata":"Q110399829","nsi_id":"iandgbrokers-ef0911"},"coordinates":[42.1536317,24.7621178]},"dist":25.071,"tags_mismatch":true},{"osm":{"type":"way","id":625756168,"tags":{"brand":"I&G Brokers","brand:wikidata":"Q110399829","building":"yes","building:levels":"1","building:material":"glass","office":"insurance"},"wikidata":"Q110399829","coordinates":[42.726371,23.3025064]},"atp":{"id":"Td4rFeIOZevctlpMrLFl0gi8rKg=","tags":{"ref":"149","@source_uri":"https://iandgbrokers.com/offices/pins?srch_offices=&city=&features%5B%5D=all&_=1695470505675","@spider":"i_and_g_brokers","office":"insurance","addr:full":"бул. Ломско шосе 73 ( паркинга на банките)","addr:city":"гр. София","addr:state":"София-град","addr:country":"BG","phone":"+359 88 892 1662","email":"office.nadezhda@iandgbrokers.com","opening_hours":"Mo-Su 09:00-19:00","brand":"I&G Brokers","brand:wikidata":"Q110399829","nsi_id":"iandgbrokers-ef0911"},"coordinates":[42.7258124,23.302725]},"dist":64.629,"tags_mismatch":true},{"osm":{"type":"way","id":1059072757,"tags":{"brand":"I&G Brokers","brand:wikidata":"Q110399829","building":"kiosk","building:levels":"1","check_date":"2022-11-05","office":"insurance","wheelchair":"no"},"wikidata":"Q110399829","coordinates":[42.7337924,23.3099099]},"atp":{"id":"9IDxEJPMRyLxPiF5HhHDzOO3Wsk=","tags":{"ref":"151","@source_uri":"https://iandgbrokers.com/offices/pins?srch_offices=&city=&features%5B%5D=all&_=1695470505675","@spider":"i_and_g_brokers","office":"insurance","addr:full":"ул. Ген. Никола Жеков № 12 (срещу Лидл)","addr:city":"гр. София","addr:state":"София-град","addr:country":"BG","phone":"+359 88 590 1820","email":"b.hristova@iandgbrokers.com","opening_hours":"Mo-Su 09:00-18:00","brand":"I&G Brokers","brand:wikidata":"Q110399829","nsi_id":"iandgbrokers-ef0911"},"coordinates":[42.734400870069,23.310477]},"dist":81.994,"tags_mismatch":true},{"osm":{"type":"way","id":1216062062,"tags":{"brand":"I&G Brokers","brand:wikidata":"Q110399829","building":"yes","office":"insurance","opening_hours":"Mo-Fr 09:00-20:00; Sa-Su 09:00-19:00","phone":"+359 88 601 4491"},"wikidata":"Q110399829","coordinates":[42.7193452,23.2564893]},"atp":{"id":"sboXI3pojNuFJNzFuHGZgQIg77A=","tags":{"ref":"140","@source_uri":"https://iandgbrokers.com/offices/pins?srch_offices=&city=&features%5B%5D=all&_=1695470505675","@spider":"i_and_g_brokers","office":"insurance","addr:full":"бул. Царица Йоанна № 72 (паркингът на супермаркет \"BILLA\")","addr:city":"гр. София","addr:state":"София-град","addr:country":"BG","phone":"+359 88 601 4491","email":"office_billa@iandgbrokers.com","opening_hours":"Mo-Fr 09:00-20:00; Sa-Su 09:00-19:00","brand":"I&G Brokers","brand:wikidata":"Q110399829","nsi_id":"iandgbrokers-ef0911"},"coordinates":[42.7194818525081,23.2565220932534]},"dist":15.429,"tags_mismatch":false},{"osm":{"type":"way","id":1216062359,"tags":{"brand":"I&G Brokers","brand:wikidata":"Q110399829","building":"yes","office":"insurance","opening_hours":"Mo-Su 09:00-20:00","phone":"+359 88 928 1106"},"wikidata":"Q110399829","coordinates":[42.6503567,23.3418847]},"atp":{"id":"-IRsBGt0Uw138ekvLlt4u-DxT2o=","tags":{"ref":"143","@source_uri":"https://iandgbrokers.com/offices/pins?srch_offices=&city=&features%5B%5D=all&_=1695470505675","@spider":"i_and_g_brokers","office":"insurance","addr:full":"ул. Академик Борис Стефанов № 22 (Паркингът на магазин Фантастико)","addr:city":"гр. София","addr:state":"София-град","addr:country":"BG","phone":"+359 88 928 1106","email":"office_studentski@iandgbrokers.com","opening_hours":"Mo-Su 09:00-20:00","brand":"I&G Brokers","brand:wikidata":"Q110399829","nsi_id":"iandgbrokers-ef0911"},"coordinates":[42.6503691543559,23.3416196865844]},"dist":21.718,"tags_mismatch":false},{"osm":false,"atp":{"id":"yiKK9mzylHef750rn1ezX8TrzQQ=","tags":{"ref":"1","office":"insurance","addr:full":"ул. Сан Стефано № 1","addr:city":"гр. Благоевград","addr:state":"Благоевград","addr:country":"BG","name":"Благоевград","phone":"+359 88 920 1994","email":"blagoevgrad1@iandgbrokers.com","opening_hours":"Mo-Fr 08:00-18:00","brand":"I&G Brokers","brand:wikidata":"Q110399829"},"coordinates":[42.020884,23.090338]},"tags_mismatch":false,"dist":0},{"osm":false,"atp":{"id":"iKk1Doj_cdNXlJ3d-NX-6Yfaves=","tags":{"ref":"2","office":"insurance","addr:full":"ул. Стефан Стамболов № 28","addr:city":"гр. Разлог","addr:state":"Благоевград","addr:country":"BG","name":"Разлог","phone":"+359 89 579 7855","email":"razlog@iandgbrokers.com","opening_hours":"Mo-Fr 09:00-18:00","brand":"I&G Brokers","brand:wikidata":"Q110399829"},"coordinates":[41.8828411,23.4674626]},"tags_mismatch":false,"dist":0},{"osm":false,"atp":{"id":"geR0PLK1lZLannITLrqY6PA_F74=","tags":{"ref":"6","office":"insurance","addr:full":"ул. Сердика № 1","addr:city":"гр. Сандански","addr:state":"Благоевград","addr:country":"BG","name":"Сандански","phone":"+359 88 888 1995","email":"sandanski@iandgbrokers.com","opening_hours":"Mo-Fr 09:00-18:00; Sa 10:00-13:00","brand":"I&G Brokers","brand:wikidata":"Q110399829"},"coordinates":[41.5600243,23.2816416]},"tags_mismatch":false,"dist":0},{"osm":false,"atp":{"id":"pTYBdXKP_m-_1iAH7IEvg2u2RjM=","tags":{"ref":"9","office":"insurance","addr:full":"ул. Генерал Гурко № 37","addr:city":"гр. Бургас","addr:state":"Бургас","addr:country":"BG","name":"Бургас","phone":"+359 88 867 3710","email":"burgas@iandgbrokers.com","opening_hours":"Mo-Fr 09:00-18:00","brand":"I&G Brokers","brand:wikidata":"Q110399829"},"coordinates":[42.4989381,27.4750442]},"tags_mismatch":false,"dist":0},{"osm":false,"atp":{"id":"Rk-0yzFIhDj4xlHJwxan3UtuJgY=","tags":{"ref":"10","office":"insurance","addr:full":"ул. Стефан Стамболов № 38","addr:city":"гр. Бургас","addr:state":"Бургас","addr:country":"BG","name":"Бургас","phone":"+359 89 567 0327","email":"darina.sevrieva@iandgbrokers.com","opening_hours":"Mo-Fr 09:00-18:00","brand":"I&G Brokers","brand:wikidata":"Q110399829"},"coordinates":[42.500103,27.471108]},"tags_mismatch":false,"dist":0},{"osm":false,"atp":{"id":"dyafbU38L8IQlWr8y9uAOSJtGKg=","tags":{"ref":"12","office":"insurance","addr:full":"ул. Изгрев № 25","addr:city":"с. Руен","addr:state":"Бургас","addr:country":"BG","name":"с. Руен","phone":"+359 89 796 8464","email":"burgas@iandgbrokers.com","opening_hours":"Sa 09:00-14:30","brand":"I&G Brokers","brand:wikidata":"Q110399829"},"coordinates":[42.800055,27.282223]},"tags_mismatch":false,"dist":0},{"osm":false,"atp":{"id":"XkezjE-lRkoJ9pUO4-TW8V_pXVE=","tags":{"ref":"13","office":"insurance","addr:full":"ул. Янко Комитов № 34","addr:city":"гр. Бургас","addr:state":"Бургас","addr:country":"BG","name":"Бургас","phone":"+359 88 867 3710","email":"burgas@iandgbrokers.com","opening_hours":"Mo-Fr 07:30-16:30","brand":"I&G Brokers","brand:wikidata":"Q110399829"},"coordinates":[42.5232013,27.433741]},"tags_mismatch":false,"dist":0},{"osm":false,"atp":{"id":"As_TlOiYXQ2jARpJEgbcyEB0ANU=","tags":{"ref":"14","office":"insurance","addr:full":"ул. Богориди № 12A","addr:city":"гр. Айтос","addr:state":"Бургас","addr:country":"BG","name":"Айтос","phone":"+359 88 867 3710","email":"burgas@iandgbrokers.com","opening_hours":"Mo-Fr 09:00-18:00","brand":"I&G Brokers","brand:wikidata":"Q110399829"},"coordinates":[42.7022553816393,27.2565973789883]},"tags_mismatch":false,"dist":0},{"osm":false,"atp":{"id":"P6JeW64i9ARdIB8Kxh95EyF9Mbk=","tags":{"ref":"16","office":"insurance","addr:full":"ул. Вая № 8","addr:city":"гр. Бургас","addr:state":"Бургас","addr:country":"BG","name":"Бургас","phone":"+359 88 867 3710","email":"burgas@iandgbrokers.com","opening_hours":"Mo-Fr 08:30-17:00","brand":"I&G Brokers","brand:wikidata":"Q110399829"},"coordinates":[42.4870385,27.4441787]},"tags_mismatch":false,"dist":0},{"osm":false,"atp":{"id":"HsTO0xavXUUrJnXg4jpSW0cD2fY=","tags":{"ref":"17","office":"insurance","addr:full":"ул. Крайезерна № 25А","addr:city":"гр. Бургас","addr:state":"Бургас","addr:country":"BG","name":"Бургас","phone":"+359 88 867 3710","email":"burgas@iandgbrokers.com","opening_hours":"Mo-Fr 08:00-17:00","brand":"I&G Brokers","brand:wikidata":"Q110399829"},"coordinates":[42.4999185,27.4548385]},"tags_mismatch":false,"dist":0},{"osm":false,"atp":{"id":"XwhO4AbQQkb_rNEfr-cyR02ioxY=","tags":{"ref":"19","office":"insurance","addr:full":"бул. Захари Стоянов № 47","addr:city":"гр. Бургас","addr:state":"Бургас","addr:country":"BG","name":"Бургас","phone":"+359 89 661 3859","email":"burgas@iandgbrokers.com","opening_hours":"Mo-Fr 08:30-19:00","brand":"I&G Brokers","brand:wikidata":"Q110399829"},"coordinates":[42.46043,27.408368]},"tags_mismatch":false,"dist":0},{"osm":false,"atp":{"id":"CIyWw8X5FiLsTVbujZmvVZslpn0=","tags":{"ref":"20","office":"insurance","addr:full":"ж.к. Изгрев бл. 129, РУМ Велекa","addr:city":"гр. Бургас","addr:state":"Бургас","addr:country":"BG","name":"Бургас","phone":"+359 88 867 3710","email":"burgas@iandgbrokers.com","opening_hours":"Mo-Fr 09:00-18:00","brand":"I&G Brokers","brand:wikidata":"Q110399829"},"coordinates":[42.5253302,27.4656054]},"tags_mismatch":false,"dist":0},{"osm":false,"atp":{"id":"oaRYvubODJ70z-j0-R25jTpM9KM=","tags":{"ref":"21","office":"insurance","addr:full":"к-с Kамелия Гардън","addr:city":"к.к. Слънчев Бряг","addr:state":"Бургас","addr:country":"BG","name":"к.к. Слънчев Бряг","phone":"+359 89 470 9948","email":"neli.miteva@iandgbrokers.com","opening_hours":"Mo-Fr 09:00-17:00","brand":"I&G Brokers","brand:wikidata":"Q110399829"},"coordinates":[42.688557,27.702824]},"tags_mismatch":false,"dist":0},{"osm":false,"atp":false,"tags_mismatch":false,"dist":0},{"osm":false,"atp":{"id":"VKhSMWncchcsUYQZjkid5KvV9QE=","tags":{"ref":"24","office":"insurance","addr:full":"бул. Ян Хуняди № 5, срещу КАТ","addr:city":"гр. Варна","addr:state":"Варна","addr:country":"BG","name":"Варна","phone":"+359 88 533 5001","email":"varna.kat@iandgbrokers.com","opening_hours":"Mo-Fr 08:00-16:30","brand":"I&G Brokers","brand:wikidata":"Q110399829"},"coordinates":[43.2372529,27.8702231]},"tags_mismatch":false,"dist":0},{"osm":false,"atp":{"id":"Bs2-I3HsG5MCOhaeZV8hBqfWiUw=","tags":{"ref":"25","office":"insurance","addr:full":"бул. Цар Освободител № 202","addr:city":"гр. Варна","addr:state":"Варна","addr:country":"BG","name":"Варна","phone":"+359 88 543 2000","email":"borislav.borisov@iandgbrokers.com","opening_hours":"Mo-Fr 08:30-18:00","brand":"I&G Brokers","brand:wikidata":"Q110399829"},"coordinates":[43.2183208,27.9085900999999]},"tags_mismatch":false,"dist":0},{"osm":false,"atp":{"id":"RRjDNhE_lKDmi7X0ff99r2xEiFY=","tags":{"ref":"26","office":"insurance","addr:full":"ул. Цанко Церковски № 11","addr:city":"гр. Велико Търново","addr:state":"Велико Търново","addr:country":"BG","name":"Велико Търново","phone":"+359 88 525 5527","email":"vtarnovo@iandgbrokers.com","opening_hours":"Mo-Fr 09:00-18:00","brand":"I&G Brokers","brand:wikidata":"Q110399829"},"coordinates":[43.0813141,25.6295059]},"tags_mismatch":false,"dist":0},{"osm":false,"atp":{"id":"7nnWjqTXu_Kv6YmsI5dUtn-Ryhc=","tags":{"ref":"27","office":"insurance","addr:full":"ул. Йоновка № 8","addr:city":"гр. Велико Търново","addr:state":"Велико Търново","addr:country":"BG","name":"Велико Търново","phone":"+359 88 525 5527","email":"vtarnovo@iandgbrokers.com","opening_hours":"Mo-Fr 09:00-18:00","brand":"I&G Brokers","brand:wikidata":"Q110399829"},"coordinates":[43.0758525,25.6176904]},"tags_mismatch":false,"dist":0},{"osm":false,"atp":false,"tags_mismatch":false,"dist":0},{"osm":false,"atp":{"id":"BlZwEeY_VA0OythWmndL_L-FHPk=","tags":{"ref":"29","office":"insurance","addr:full":"ул. Търговска № 112","addr:city":"гр. Полски Тръмбеш","addr:state":"Велико Търново","addr:country":"BG","name":"Полски Тръмбеш","phone":"+359 89 914 0606","email":"polski.trumbesh@iandgbrokers.com","opening_hours":"Mo-Fr 09:00-18:00","brand":"I&G Brokers","brand:wikidata":"Q110399829"},"coordinates":[43.3650807,25.6335259]},"tags_mismatch":false,"dist":0},{"osm":false,"atp":{"id":"UrH8uA80GCiuCDmGaC_8qH3dXE0=","tags":{"ref":"30","office":"insurance","addr:full":"кръстовището на ул. Ген. Гурко и Ул. Янко Боянов","addr:city":"гр. Горна Оряховица","addr:state":"Велико Търново","addr:country":"BG","name":"Горна Оряховица","phone":"+359 88 525 5527","email":"g.oryahovitsa@iandgbrokers.com","opening_hours":"Mo-Fr 09:00-18:00; Sa 09:00-13:00","brand":"I&G Brokers","brand:wikidata":"Q110399829"},"coordinates":[43.121807,25.691859]},"tags_mismatch":false,"dist":0},{"osm":false,"atp":{"id":"DK3tznMgdMVBiiSa_pjxB6kXO5Y=","tags":{"ref":"31","office":"insurance","addr:full":"ул. П.Р.Славейков № 11","addr:city":"гр. Горна Оряховица","addr:state":"Велико Търново","addr:country":"BG","name":"Горна Оряховица","phone":"+359 88 941 9809","email":"irena.koleva@iandgbrokers.com","opening_hours":"Mo-Fr 09:30-18:00","brand":"I&G Brokers","brand:wikidata":"Q110399829"},"coordinates":[43.1290537,25.6803698]},"tags_mismatch":false,"dist":0},{"osm":false,"atp":{"id":"aE6C-LQ8gIwuQRcTGqobngbHf00=","tags":{"ref":"33","office":"insurance","addr:full":"ул. Патриарх Евтимий № 133","addr:city":"гр. Свищов","addr:state":"Велико Търново","addr:country":"BG","name":"Свищов","phone":"+359 88 711 7966","email":"m.hristova@iandgbrokers.com","opening_hours":"Mo-Fr 09:00-18:00","brand":"I&G Brokers","brand:wikidata":"Q110399829"},"coordinates":[43.6118554,25.3565252]},"tags_mismatch":false,"dist":0},{"osm":false,"atp":{"id":"R8K06dbWx8-3bwyU7RXuTxqvGtU=","tags":{"ref":"35","office":"insurance","addr:full":"ул. Иван Срацимир № 5","addr:city":"гр. Белоградчик","addr:state":"Видин","addr:country":"BG","name":"Белоградчик","phone":"+359 87 836 4306","email":"belogradchik@iandgbrokers.com","opening_hours":"Mo-Fr 09:00-17:00","brand":"I&G Brokers","brand:wikidata":"Q110399829"},"coordinates":[43.6263011999999,22.6868896]},"tags_mismatch":false,"dist":0},{"osm":false,"atp":{"id":"hrmOagZbiifqnbpfEAPhpkUoQLA=","tags":{"ref":"36","office":"insurance","addr:full":"ул. Христо Ботев № 58","addr:city":"гр. Видин","addr:state":"Видин","addr:country":"BG","name":"Видин","phone":"+359 88 506 6606","email":"vidin@iandgbrokers.com","opening_hours":"Mo-Fr 09:30-18:00","brand":"I&G Brokers","brand:wikidata":"Q110399829"},"coordinates":[43.996579,22.873924]},"tags_mismatch":false,"dist":0},{"osm":false,"atp":{"id":"aCja7Ny6rpiRzxFmhowEw7aDpvA=","tags":{"ref":"37","office":"insurance","addr:full":"ж.к. Дъбника, Нова търговска улица, пред блок 10","addr:city":"гр. Враца","addr:state":"Враца","addr:country":"BG","name":"Враца","phone":"+359 88 664 9966","email":"vratsa2@iandgbrokers.com","opening_hours":"Mo-Fr 08:30-18:30; Sa 08:30-13:30","brand":"I&G Brokers","brand:wikidata":"Q110399829"},"coordinates":[43.222429,23.547146]},"tags_mismatch":false,"dist":0},{"osm":false,"atp":{"id":"pQ_GrRo4TllghMAyJJz0Yis-17U=","tags":{"ref":"38","office":"insurance","addr:full":"ул. Кръстьо Българията № 58","addr:city":"гр. Враца","addr:state":"Враца","addr:country":"BG","name":"Враца","phone":"+359 88 533 5104","email":"vmarinova@iandgbrokers.com","opening_hours":"Mo-Fr 09:00-18:00","brand":"I&G Brokers","brand:wikidata":"Q110399829"},"coordinates":[43.2017359,23.5540038]},"tags_mismatch":false,"dist":0},{"osm":false,"atp":{"id":"ZtotfrGoMSrrEsl9SMpd_XQB6pQ=","tags":{"ref":"40","office":"insurance","addr:full":"жк. 2, блок 40","addr:city":"гр. Козлодуй","addr:state":"Враца","addr:country":"BG","name":"Козлодуй","phone":"+359 88 531 1858","email":"kozloduy@iandgbrokers.com","opening_hours":"Mo-Fr 09:00-18:00","brand":"I&G Brokers","brand:wikidata":"Q110399829"},"coordinates":[43.779457,23.723797]},"tags_mismatch":false,"dist":0},{"osm":false,"atp":{"id":"PWnU5ITYaPk8AwBOYI-rAvDReMo=","tags":{"ref":"41","office":"insurance","addr:full":"ул. Опълченска № 44","addr:city":"гр. Габрово","addr:state":"Габрово","addr:country":"BG","name":"Габрово","phone":"+359 88 531 0583","email":"gabrovo@iandgbrokers.com","opening_hours":"Mo-Fr 09:30-18:30","brand":"I&G Brokers","brand:wikidata":"Q110399829"},"coordinates":[42.8704313,25.3200991]},"tags_mismatch":false,"dist":0},{"osm":false,"atp":{"id":"Yub4OizLqeXsrL1opwAF2r0i8uM=","tags":{"ref":"43","office":"insurance","addr:full":"пл. Свобода № 7","addr:city":"гр. Севлиево","addr:state":"Габрово","addr:country":"BG","name":"Севлиево","phone":"+359 88 838 2144","email":"sevlievo@iandgbrokers.com","opening_hours":"Mo-Fr 08:30-17:30","brand":"I&G Brokers","brand:wikidata":"Q110399829"},"coordinates":[43.026985349753,25.1039284402794]},"tags_mismatch":false,"dist":0},{"osm":false,"atp":{"id":"IllaVEE6HgRYXQBC3lxp_G1j5cw=","tags":{"ref":"44","office":"insurance","addr:full":"ул. Асен Петков № 9","addr:city":"гр. Балчик","addr:state":"Добрич","addr:country":"BG","name":"Балчик","phone":"+359 88 892 1035","email":"armencheva@iandgbrokers.com","opening_hours":"Mo-Fr 08:30-17:30; Sa 09:00-14:00","brand":"I&G Brokers","brand:wikidata":"Q110399829"},"coordinates":[43.4195876,28.1620154]},"tags_mismatch":false,"dist":0},{"osm":false,"atp":{"id":"DBhVHYXyKxj93oXr1Qy4PT15IuM=","tags":{"ref":"45","office":"insurance","addr:full":"ул. Георги Кирков № 18","addr:city":"гр. Добрич","addr:state":"Добрич","addr:country":"BG","name":"Добрич","phone":"+359 88 505 5372","email":"dobrich@iandgbrokers.com","opening_hours":"Mo-Fr 09:00-18:00","brand":"I&G Brokers","brand:wikidata":"Q110399829"},"coordinates":[43.5708378888887,27.8266195562913]},"tags_mismatch":false,"dist":0},{"osm":false,"atp":{"id":"FjoKF_P8yDbK3n8v0BamGSmbVSI=","tags":{"ref":"46","office":"insurance","addr:full":"ул. Гоце Делчев № 10","addr:city":"гр. Добрич","addr:state":"Добрич","addr:country":"BG","name":"Добрич","phone":"+359 88 505 5372","email":"dobrich@iandgbrokers.com","opening_hours":"Mo-Fr 09:00-18:00","brand":"I&G Brokers","brand:wikidata":"Q110399829"},"coordinates":[43.5701927,27.8360994]},"tags_mismatch":false,"dist":0},{"osm":false,"atp":{"id":"-2dytdghRu8S-Rf7H5gm6zdOGxU=","tags":{"ref":"47","office":"insurance","addr:full":"ул. Васил Априлов № 36","addr:city":"гр. Генерал Тошево","addr:state":"Добрич","addr:country":"BG","name":"Генерал Тошево","phone":"+359 89 470 2759","email":"dobrich@iandgbrokers.com","opening_hours":"Mo-Fr 09:00-18:00","brand":"I&G Brokers","brand:wikidata":"Q110399829"},"coordinates":[43.7017484,28.0350009]},"tags_mismatch":false,"dist":0},{"osm":false,"atp":{"id":"y7LzQFJM28cQ0C23JY4TMNMUmc4=","tags":{"ref":"48","office":"insurance","addr:full":"ул. България № 26","addr:city":"гр. Каварна","addr:state":"Добрич","addr:country":"BG","name":"Каварна","phone":"+359 88 505 5372","email":"dobrich@iandgbrokers.com","opening_hours":"Mo-Fr 09:00-18:00","brand":"I&G Brokers","brand:wikidata":"Q110399829"},"coordinates":[43.4356901,28.3367023]},"tags_mismatch":false,"dist":0},{"osm":false,"atp":{"id":"NbvkQthLwHGQ_nScgS0iLuivcOI=","tags":{"ref":"49","office":"insurance","addr:full":"ул. Хан Аспарух № 29","addr:city":"гр. Тервел","addr:state":"Добрич","addr:country":"BG","name":"Тервел","phone":"+359 88 505 5372","email":"dobrich@iandgbrokers.com","opening_hours":"Mo-Fr 09:00-18:00","brand":"I&G Brokers","brand:wikidata":"Q110399829"},"coordinates":[43.746203,27.409843]},"tags_mismatch":false,"dist":0},{"osm":false,"atp":{"id":"nPddYLTjR-DTlmaVrt9wRdxaNB0=","tags":{"ref":"50","office":"insurance","addr:full":"ул. 8-ми март № 32 до КАТ Кърджали","addr:city":"гр. Кърджали","addr:state":"Кърджали","addr:country":"BG","name":"Кърджали","phone":"+359 88 802 1528","email":"kardzhali@iandgbrokers.com","opening_hours":"Mo-Fr 09:00-18:00","brand":"I&G Brokers","brand:wikidata":"Q110399829"},"coordinates":[41.6256921,25.3691321]},"tags_mismatch":false,"dist":0},{"osm":false,"atp":{"id":"UUqmMRBfFj9rnNlvKeRt3uqKmNg=","tags":{"ref":"51","office":"insurance","addr:full":"ул. Родопи № 2","addr:city":"гр. Ардино","addr:state":"Кърджали","addr:country":"BG","name":"Ардино","phone":"+359 88 802 1528","email":"ardino@iandgbrokers.com","opening_hours":"Mo-Fr 08:00-17:00","brand":"I&G Brokers","brand:wikidata":"Q110399829"},"coordinates":[41.5829673,25.1331779]},"tags_mismatch":false,"dist":0},{"osm":false,"atp":{"id":"2PR8MernBl0gK8lJDDY23gi3VKE=","tags":{"ref":"52","office":"insurance","addr:full":"ул. Димитър Благоев № 10","addr:city":"гр. Крумовград","addr:state":"Кърджали","addr:country":"BG","name":"Крумовград","phone":"+359 87 700 7867","email":"krumovgrad@iandgbrokers.com","opening_hours":"Mo-Fr 09:00-18:00","brand":"I&G Brokers","brand:wikidata":"Q110399829"},"coordinates":[41.4706055,25.6548753]},"tags_mismatch":false,"dist":0},{"osm":false,"atp":{"id":"QraxmqYNwUYYdhJM2kIckX5pay8=","tags":{"ref":"53","office":"insurance","addr:full":"ж.к. Възрожденци, бул. Христо Ботев № 67 магазин 4","addr:city":"гр. Кърджали","addr:state":"Кърджали","addr:country":"BG","name":"Кърджали","phone":"+359 88 802 1528","email":"kardzhali@iandgbrokers.com","opening_hours":"Mo-Fr 09:00-18:00","brand":"I&G Brokers","brand:wikidata":"Q110399829"},"coordinates":[41.6340197,25.3562412]},"tags_mismatch":false,"dist":0},{"osm":false,"atp":{"id":"9_jgIDa0J7iKIWNoMLT2ASemudM=","tags":{"ref":"54","office":"insurance","addr:full":"бул. Тракия № 13","addr:city":"гр. Кърджали","addr:state":"Кърджали","addr:country":"BG","name":"Кърджали","phone":"+359 88 802 1528","email":"kardzhali@iandgbrokers.com","opening_hours":"Mo-Fr 09:00-18:00","brand":"I&G Brokers","brand:wikidata":"Q110399829"},"coordinates":[41.6451271,25.3714533]},"tags_mismatch":false,"dist":0},{"osm":false,"atp":{"id":"J3pufGAG9BvvccMecG-D7fAOu9g=","tags":{"ref":"55","office":"insurance","addr:full":"ул. Св. Спас № 2 - Кооперативен пазар","addr:city":"гр. Бобов дол","addr:state":"Кюстендил","addr:country":"BG","name":"Бобов дол","phone":"+359 89 846 2743","email":"bobovdol@iandgbrokers.com","opening_hours":"Mo-Fr 09:00-18:00","brand":"I&G Brokers","brand:wikidata":"Q110399829"},"coordinates":[42.361939,23.0044579]},"tags_mismatch":false,"dist":0},{"osm":false,"atp":{"id":"gGYwwWFxeYKpQtoA_b3VTTyzci4=","tags":{"ref":"56","office":"insurance","addr:full":"ул. Николаевска № 31","addr:city":"гр. Дупница","addr:state":"Кюстендил","addr:country":"BG","name":"Дупница","phone":"+359 88 807 0810","email":"dupnica@iandgbrokers.com","opening_hours":"Mo-Fr 09:00-18:00; Sa 09:00-14:00","brand":"I&G Brokers","brand:wikidata":"Q110399829"},"coordinates":[42.2662945999999,23.1218045]},"tags_mismatch":false,"dist":0},{"osm":false,"atp":{"id":"E87bAInNsunVMFQ0x_HmUia7Ezs=","tags":{"ref":"57","office":"insurance","addr:full":"ул. Св. Иван Рилски № 60","addr:city":"гр. Дупница","addr:state":"Кюстендил","addr:country":"BG","name":"Дупница","phone":"+359 88 534 2626","email":"lazova@iandgbrokers.com","opening_hours":"Mo-Fr 09:00-18:00","brand":"I&G Brokers","brand:wikidata":"Q110399829"},"coordinates":[42.2628718,23.1089948]},"tags_mismatch":false,"dist":0},{"osm":false,"atp":{"id":"oEA4sTSedphzovSoEh_JqyYsvEY=","tags":{"ref":"58","office":"insurance","addr:full":"бул. Цар Освободител № 94","addr:city":"гр. Кюстендил","addr:state":"Кюстендил","addr:country":"BG","name":"Кюстендил","phone":"+359 88 252 6944","email":"kustendil@iandgbrokers.com","opening_hours":"Mo-Fr 09:00-18:00; Sa 10:00-13:00","brand":"I&G Brokers","brand:wikidata":"Q110399829"},"coordinates":[42.278969,22.688988]},"tags_mismatch":false,"dist":0},{"osm":false,"atp":{"id":"hwyrNS6dUpZKPm8PBXQure1tnHE=","tags":{"ref":"60","office":"insurance","addr:full":"ул. Бяло море № 18 (на кръговото)","addr:city":"гр. Ловеч","addr:state":"Ловеч","addr:country":"BG","name":"Ловеч","phone":"+359 87 750 7677","email":"lovech@iandgbrokers.com","opening_hours":"Mo-Fr 08:30-18:00; Sa 08:30-15:00","brand":"I&G Brokers","brand:wikidata":"Q110399829"},"coordinates":[43.15026599999999,24.7173483]},"tags_mismatch":false,"dist":0},{"osm":false,"atp":{"id":"jYalrjVCMvNUxByDp2Q8IoerNqU=","tags":{"ref":"61","office":"insurance","addr:full":"ул. Христо Ботев № 226","addr:city":"гр. Троян","addr:state":"Ловеч","addr:country":"BG","name":"Троян","phone":"+359 88 953 9009","email":"troian@iandgbrokers.com","opening_hours":"Mo-Fr 08:30-17:30","brand":"I&G Brokers","brand:wikidata":"Q110399829"},"coordinates":[42.8831572,24.7085276]},"tags_mismatch":false,"dist":0},{"osm":false,"atp":{"id":"rUZYEJrl588dNFU2Hi3JkwAXdls=","tags":{"ref":"62","office":"insurance","addr:full":"ул. Поп Еньо Николов № 26","addr:city":"гр. Сопот","addr:state":"Пловдив","addr:country":"BG","name":"гр. Сопот","phone":"+359 87 767 4090","email":"sopot@iandgbrokers.com","opening_hours":"Mo-Fr 09:30-18:00","brand":"I&G Brokers","brand:wikidata":"Q110399829"},"coordinates":[42.654788,24.7582787]},"tags_mismatch":false,"dist":0},{"osm":false,"atp":{"id":"rJqD2YhMrDm1r6fuZYkixaGPRhs=","tags":{"ref":"63","office":"insurance","addr:full":"ул. Любен Каравелов № 1А","addr:city":"гр. Монтана","addr:state":"Монтана","addr:country":"BG","name":"Монтана","phone":"+359 88 831 6301","email":"montana@iandgbrokers.com","opening_hours":"Mo-Fr 08:30-17:30; Sa 09:00-13:00","brand":"I&G Brokers","brand:wikidata":"Q110399829"},"coordinates":[43.407316,23.226624]},"tags_mismatch":false,"dist":0},{"osm":false,"atp":{"id":"YaQF5e7DU7fV0r3jEF978_LeMbw=","tags":{"ref":"64","office":"insurance","addr:full":"пл. Йордан Радичков № 1Б","addr:city":"гр. Берковица","addr:state":"Монтана","addr:country":"BG","name":"Берковица","phone":"+359 88 831 6301","email":"montana@iandgbrokers.com","opening_hours":"Mo-Fr 08:00-19:30","brand":"I&G Brokers","brand:wikidata":"Q110399829"},"coordinates":[43.2373641,23.123943]},"tags_mismatch":false,"dist":0},{"osm":false,"atp":{"id":"h75oQ_8WbKUiFRFIkQfjmW7mgSc=","tags":{"ref":"65","office":"insurance","addr:full":"ул. Морава - срещу ул. Искър и КАТ","addr:city":"гр. Монтана","addr:state":"Монтана","addr:country":"BG","name":"Монтана","phone":"+359 88 831 6301","email":"montana@iandgbrokers.com","opening_hours":"Mo-Fr 08:00-16:30","brand":"I&G Brokers","brand:wikidata":"Q110399829"},"coordinates":[43.4164333,23.2295437]},"tags_mismatch":false,"dist":0},{"osm":false,"atp":{"id":"ckjfQS2dfNqYgFUAcw1KBv5zL9A=","tags":{"ref":"66","office":"insurance","addr:full":"ул. Граф Игнатиев № 4","addr:city":"гр. Монтана","addr:state":"Монтана","addr:country":"BG","name":"Монтана","phone":"+359 88 831 6301","email":"montana@iandgbrokers.com","opening_hours":"Mo-Fr 09:00-17:30","brand":"I&G Brokers","brand:wikidata":"Q110399829"},"coordinates":[43.4063032,23.2255951]},"tags_mismatch":false,"dist":0},{"osm":false,"atp":{"id":"uQZ7n5RFRMB5RE9VO5JOWDxRQOI=","tags":{"ref":"67","office":"insurance","addr:full":"ул. Цар Шишман № 28","addr:city":"гр. Пазарджик","addr:state":"Пазарджик","addr:country":"BG","name":"Пазарджик","phone":"+359 88 522 3999","email":"pazardzhik@iandgbrokers.com","opening_hours":"Mo-Fr 09:00-18:00; Sa 09:00-13:00","brand":"I&G Brokers","brand:wikidata":"Q110399829"},"coordinates":[42.1873738,24.3336484]},"tags_mismatch":false,"dist":0},{"osm":false,"atp":{"id":"5aTNlhZow_j1FtdyKnI9p5aS5xQ=","tags":{"ref":"68","office":"insurance","addr:full":"ул. Есперанто №10","addr:city":"гр. Пазарджик","addr:state":"Пазарджик","addr:country":"BG","name":"Пазарджик","phone":"+359 88 807 0764","email":"v.borisova@iandgbrokers.com","opening_hours":"Mo-Fr 08:30-17:30","brand":"I&G Brokers","brand:wikidata":"Q110399829"},"coordinates":[42.1889952,24.3342247]},"tags_mismatch":false,"dist":0},{"osm":false,"atp":{"id":"7SBBwwCDPjwZ4bP57DEOrrlR6SU=","tags":{"ref":"69","office":"insurance","addr:full":"ул. Виделина № 9","addr:city":"гр. Пазарджик","addr:state":"Пазарджик","addr:country":"BG","name":"Пазарджик","phone":"+359 89 982 5745","email":"pazardzhik3@iandgbrokers.com","opening_hours":"Mo-Fr 09:00-18:00","brand":"I&G Brokers","brand:wikidata":"Q110399829"},"coordinates":[42.1873829,24.3311444]},"tags_mismatch":false,"dist":0},{"osm":false,"atp":{"id":"0l_MOupifWvwSbjK_Q1h3w1FQIA=","tags":{"ref":"70","office":"insurance","addr:full":"ул. Александър Стамболийски № 63Б (Бул. Цар Освободител- до светофара)","addr:city":"гр. Пазарджик","addr:state":"Пазарджик","addr:country":"BG","name":"Пазарджик","phone":"+359 89 673 9062","email":"pazardzhik4@iandgbrokers.com","opening_hours":"Mo-Fr 08:30-17:30; Sa 09:00-14:00","brand":"I&G Brokers","brand:wikidata":"Q110399829"},"coordinates":[42.195622,24.327226]},"tags_mismatch":false,"dist":0},{"osm":false,"atp":{"id":"w3wvuu9O0pgY5a-Ff8PCM_5BdvU=","tags":{"ref":"71","office":"insurance","addr:full":"ул. Стефан Финджеков № 2","addr:city":"гр. Панагюрище","addr:state":"Пазарджик","addr:country":"BG","name":"Панагюрище","phone":"+359 88 567 9746","email":"d.karparova@iandgbrokers.com","opening_hours":"Mo-Fr 09:00-18:00; Sa 09:00-13:30","brand":"I&G Brokers","brand:wikidata":"Q110399829"},"coordinates":[42.503254,24.187931]},"tags_mismatch":false,"dist":0},{"osm":false,"atp":{"id":"lyi8-B3hUDjcGchxtVrO7OCt2JA=","tags":{"ref":"72","office":"insurance","addr:full":"ул. Димитър Горов № 4","addr:city":"гр. Пещера","addr:state":"Пазарджик","addr:country":"BG","name":"Пещера","phone":"+359 88 240 7724","email":"peshtera@iandgbrokers.com","opening_hours":"Mo-Fr 09:00-17:30","brand":"I&G Brokers","brand:wikidata":"Q110399829"},"coordinates":[42.0310176,24.3005991]},"tags_mismatch":false,"dist":0},{"osm":false,"atp":{"id":"Fza_CKfVaucKpNMdaAzRLIhZ3oA=","tags":{"ref":"73","office":"insurance","addr:full":"ул. Възраждане № 1","addr:city":"гр. Септември","addr:state":"Пазарджик","addr:country":"BG","name":"Септември","phone":"+359 89 784 5040","email":"septemvri@iandgbrokers.com","opening_hours":"Tu-Su 09:00-18:00","brand":"I&G Brokers","brand:wikidata":"Q110399829"},"coordinates":[42.210247037172316,24.128212515354736]},"tags_mismatch":false,"dist":0},{"osm":false,"atp":{"id":"ePEBY4I1idY3FEB3XCHGWsJWz_E=","tags":{"ref":"74","office":"insurance","addr:full":"бул. Съединение № 222","addr:city":"гр. Велинград","addr:state":"Пазарджик","addr:country":"BG","name":"Велинград","phone":"+359 88 842 0112","email":"velingrad@iandgbrokers.com","opening_hours":"Mo-Fr 08:00-17:00","brand":"I&G Brokers","brand:wikidata":"Q110399829"},"coordinates":[42.028611,23.991681]},"tags_mismatch":false,"dist":0},{"osm":false,"atp":{"id":"15ni_51pbGmjzuc0tzpvMWJPI5c=","tags":{"ref":"75","office":"insurance","addr:full":"ул. Стримон (Покритият мост над река Струма)","addr:city":"гр. Перник","addr:state":"Перник","addr:country":"BG","name":"Перник","phone":"+359 88 800 2647","email":"pernik@iandgbrokers.com","opening_hours":"Mo-Fr 09:00-18:00; Sa 10:00-13:00","brand":"I&G Brokers","brand:wikidata":"Q110399829"},"coordinates":[42.6074110167024,23.0322448382978]},"tags_mismatch":false,"dist":0},{"osm":false,"atp":{"id":"RnwoFIuNTPm6c0H--HbDOrLk_Ak=","tags":{"ref":"76","office":"insurance","addr:full":"ул. Ленински проспект № 11","addr:city":"гр. Перник","addr:state":"Перник","addr:country":"BG","name":"Перник","phone":"+359 89 878 6724","email":"pernik@iandgbrokers.com","opening_hours":"Mo-Fr 09:30-17:30; Sa 10:00-13:00","brand":"I&G Brokers","brand:wikidata":"Q110399829"},"coordinates":[42.6081178,23.098539]},"tags_mismatch":false,"dist":0},{"osm":false,"atp":{"id":"yP3GFNn4Ltv9nwvkMNC2sQu9UFY=","tags":{"ref":"77","office":"insurance","addr:full":"ж.к. Сторгозия, к-с Теодорос","addr:city":"гр. Плевен","addr:state":"Плевен","addr:country":"BG","name":"Плевен","phone":"+359 88 874 6622","email":"pleven@iandgbrokers.com","opening_hours":"Mo-Fr 09:00-18:00","brand":"I&G Brokers","brand:wikidata":"Q110399829"},"coordinates":[43.423525,24.597806]},"tags_mismatch":false,"dist":0},{"osm":false,"atp":{"id":"wIR-EFCxuG8WlzLh4F2nY2Y6hL0=","tags":{"ref":"78","office":"insurance","addr:full":"ул. Васил Априлов № 18","addr:city":"гр. Плевен","addr:state":"Плевен","addr:country":"BG","name":"Плевен","phone":"+359 88 874 6622","email":"pleven@iandgbrokers.com","opening_hours":"Mo-Fr 09:00-18:00","brand":"I&G Brokers","brand:wikidata":"Q110399829"},"coordinates":[43.4169937,24.6204533]},"tags_mismatch":false,"dist":0},{"osm":false,"atp":{"id":"ilmE8FJaM8BRM5Q0ESE-q5g-aTw=","tags":{"ref":"80","office":"insurance","addr:full":"ул. Генерал Ганецки № 6","addr:city":"гр. Долни Дъбник","addr:state":"Плевен","addr:country":"BG","name":"Долни Дъбник","phone":"+359 89 732 8092","email":"pleven@iandgbrokers.com","opening_hours":"Mo-Fr 09:00-18:00","brand":"I&G Brokers","brand:wikidata":"Q110399829"},"coordinates":[43.406081,24.44006]},"tags_mismatch":false,"dist":0},{"osm":false,"atp":{"id":"qSrBa6pkeM3ZbTZxVDED2Cn1lp0=","tags":{"ref":"81","office":"insurance","addr:full":"ул. Георги Кочев № 108","addr:city":"гр. Плевен","addr:state":"Плевен","addr:country":"BG","name":"Плевен","phone":"+359 87 999 8512","email":"pleven@iandgbrokers.com","opening_hours":"Mo-Fr 09:00-18:00","brand":"I&G Brokers","brand:wikidata":"Q110399829"},"coordinates":[43.4299888,24.6071099]},"tags_mismatch":false,"dist":0},{"osm":false,"atp":{"id":"pot-1cchOpYtf5HsTTKKOXH1S7o=","tags":{"ref":"82","office":"insurance","addr:full":"ул. Герлово № 1","addr:city":"гр. Пловдив","addr:state":"Пловдив","addr:country":"BG","name":"Пловдив","phone":"+359 88 597 5131","email":"shileva@iandgbrokers.com","opening_hours":"Mo-Su 09:00-19:00","brand":"I&G Brokers","brand:wikidata":"Q110399829"},"coordinates":[42.15253,24.789652]},"tags_mismatch":false,"dist":0},{"osm":false,"atp":false,"tags_mismatch":false,"dist":0},{"osm":false,"atp":{"id":"JvTY7qT4A0CS41mWkxj0kFwItXg=","tags":{"ref":"84","office":"insurance","addr:full":"ул. Елин Пелин № 59","addr:city":"гр. Пловдив","addr:state":"Пловдив","addr:country":"BG","name":"Пловдив","phone":"+359 98 895 2859","email":"raeva@iandgbrokers.com","opening_hours":"Mo-Fr 09:00-18:00","brand":"I&G Brokers","brand:wikidata":"Q110399829"},"coordinates":[42.1212537,24.6876824]},"tags_mismatch":false,"dist":0},{"osm":false,"atp":{"id":"hE1_olfPELAFT9lgYo6-Hq05v-4=","tags":{"ref":"85","office":"insurance","addr:full":"ул. Георги С. Раковски № 47","addr:city":"гр. Раковски","addr:state":"Пловдив","addr:country":"BG","name":"Раковски","phone":"+359 89 724 2800","email":"balabanski@iandgbrokers.com","opening_hours":"Mo-Fr 08:00-17:00","brand":"I&G Brokers","brand:wikidata":"Q110399829"},"coordinates":[42.28407,24.959392]},"tags_mismatch":false,"dist":0},{"osm":false,"atp":{"id":"stmThzPeBrn8y8ydM1uqtrKeGC0=","tags":{"ref":"86","office":"insurance","addr:full":"ул. Цар Иван Асен II № 12","addr:city":"гр. Асеновград","addr:state":"Пловдив","addr:country":"BG","name":"Асеновград","phone":"+359 89 944 8441","email":"asenovgrad@iandgbrokers.com","opening_hours":"Mo-Fr 09:00-18:00","brand":"I&G Brokers","brand:wikidata":"Q110399829"},"coordinates":[42.0082652,24.8769461]},"tags_mismatch":false,"dist":0},{"osm":false,"atp":{"id":"BQdJau8a3JlPjRjRRp_MAIYsD5g=","tags":{"ref":"87","office":"insurance","addr:full":"ул. Ибър № 21","addr:city":"гр. Пловдив","addr:state":"Пловдив","addr:country":"BG","name":"Пловдив","phone":"+359 88 505 5738","email":"georgova@iandgbrokers.com","opening_hours":"Mo-Fr 08:30-17:30","brand":"I&G Brokers","brand:wikidata":"Q110399829"},"coordinates":[42.156511,24.747261]},"tags_mismatch":false,"dist":0},{"osm":false,"atp":{"id":"LJt1WHeiDUviLIdmfm_5DLz3Fy8=","tags":{"ref":"88","office":"insurance","addr:full":"ул. Волга № 45","addr:city":"гр. Пловдив","addr:state":"Пловдив","addr:country":"BG","name":"Пловдив","phone":"+359 88 590 2730","email":"plovdiv@iandgbrokers.com","opening_hours":"Mo-Fr 09:00-17:30","brand":"I&G Brokers","brand:wikidata":"Q110399829"},"coordinates":[42.1450412,24.7320595]},"tags_mismatch":false,"dist":0},{"osm":false,"atp":{"id":"_DWLJZQJBRxBjkhXm7GIHZPkLBU=","tags":{"ref":"89","office":"insurance","addr:full":"жк. Тракия - Тъговска зона срещу бл. 14","addr:city":"гр. Пловдив","addr:state":"Пловдив","addr:country":"BG","name":"Пловдив","phone":"+359 88 744 7365","email":"plovdiv2@iandgbrokers.com","opening_hours":"Mo-Fr 09:00-18:30; Sa 09:00-14:00","brand":"I&G Brokers","brand:wikidata":"Q110399829"},"coordinates":[42.139873,24.793887]},"tags_mismatch":false,"dist":0},{"osm":false,"atp":{"id":"U3XilybKYU7ZCreewEWjNexyZIc=","tags":{"ref":"91","office":"insurance","addr:full":"ул. Орфей № 7","addr:city":"гр. Първомай","addr:state":"Пловдив","addr:country":"BG","name":"Първомай","phone":"+359 89 295 5822","email":"parvomai@iandgbrokers.com","opening_hours":"Mo-Fr 09:00-18:00; Sa 10:00-13:00","brand":"I&G Brokers","brand:wikidata":"Q110399829"},"coordinates":[42.097814,25.224127]},"tags_mismatch":false,"dist":0},{"osm":false,"atp":{"id":"1kmyHQo9XDWo3DWWGpsO28cH-GU=","tags":{"ref":"92","office":"insurance","addr:full":"ул. Южен Булевард № 24","addr:city":"гр. Разград","addr:state":"Разград","addr:country":"BG","name":"Разград","phone":"+359 89 865 5723","email":"razgrad2@iandgbrokers.com","opening_hours":"Mo-Fr 09:00-18:00; Sa 09:00-17:00","brand":"I&G Brokers","brand:wikidata":"Q110399829"},"coordinates":[43.5203081,26.5232366]},"tags_mismatch":false,"dist":0},{"osm":false,"atp":{"id":"r27jFGigzLwxzgw7aZRnNTncGEs=","tags":{"ref":"93","office":"insurance","addr:full":"пл. Възраждане № 2","addr:city":"гр. Кубрат","addr:state":"Разград","addr:country":"BG","name":"Кубрат","phone":"+359 87 886 7070","email":"t.doncheva@iandgbrokers.com","opening_hours":"Mo-Fr 08:30-17:30","brand":"I&G Brokers","brand:wikidata":"Q110399829"},"coordinates":[43.7966443,26.4991575]},"tags_mismatch":false,"dist":0},{"osm":false,"atp":{"id":"MnLLwLcskvbf0HaxyVOpVy_ee7M=","tags":{"ref":"94","office":"insurance","addr:full":"ул. Александровска № 11","addr:city":"гр. Русе","addr:state":"Русе","addr:country":"BG","name":"Русе","phone":"+359 88 726 3673","email":"marinova@iandgbrokers.com","opening_hours":"Mo-Fr 09:00-18:00","brand":"I&G Brokers","brand:wikidata":"Q110399829"},"coordinates":[43.845621,25.94943]},"tags_mismatch":false,"dist":0},{"osm":false,"atp":{"id":"6lgNCDrYksTltJt7N83Ul29r-Io=","tags":{"ref":"97","office":"insurance","addr:full":"ул. Духовно възраждане № 21, ет.2","addr:city":"гр. Русе","addr:state":"Русе","addr:country":"BG","name":"Русе","phone":"+359 88 249 7547","email":"t.doncheva@iandgbrokers.com","opening_hours":"Mo-Fr 09:00-18:00","brand":"I&G Brokers","brand:wikidata":"Q110399829"},"coordinates":[43.8508939,25.9530586]},"tags_mismatch":false,"dist":0},{"osm":false,"atp":{"id":"VE7p0r4xrRO8jlecNso-EtrwQwU=","tags":{"ref":"98","office":"insurance","addr:full":"бул. Липник № 8 (паркингът на магазин Кауфланд)","addr:city":"гр. Русе","addr:state":"Русе","addr:country":"BG","name":"Русе","phone":"+359 88 726 3673","email":"marinova@iandgbrokers.com","opening_hours":"Mo-Su 09:00-20:00","brand":"I&G Brokers","brand:wikidata":"Q110399829"},"coordinates":[43.846174,25.966738]},"tags_mismatch":false,"dist":0},{"osm":false,"atp":{"id":"HEW7pUrLXLLD3TDFWtYwrjRsaOY=","tags":{"ref":"101","office":"insurance","addr:full":"ул. Пловдив № 4","addr:city":"гр. Две могили","addr:state":"Русе","addr:country":"BG","name":"Две могили","phone":"+359 88 850 1123","email":"dve.mogili@iandgbrokers.com","opening_hours":"Mo-Fr 09:00-18:00; Sa 09:00-12:30","brand":"I&G Brokers","brand:wikidata":"Q110399829"},"coordinates":[43.5929091,25.8746224]},"tags_mismatch":false,"dist":0},{"osm":false,"atp":{"id":"gOvbfL_3QGxivqBf4oBap9yrW68=","tags":{"ref":"102","office":"insurance","addr:full":"ул. 6-ти септември № 41","addr:city":"гр. Борово","addr:state":"Русе","addr:country":"BG","name":"Борово","phone":"+359 88 726 3673","email":"marinova@iandgbrokers.com","opening_hours":"Mo-Fr 09:00-18:00","brand":"I&G Brokers","brand:wikidata":"Q110399829"},"coordinates":[43.4868976,25.8097514]},"tags_mismatch":false,"dist":0},{"osm":false,"atp":{"id":"HjgTJPVyNQbJGgHpEeOJwLRtv6I=","tags":{"ref":"103","office":"insurance","addr:full":"ул. Възраждане № 4","addr:city":"гр. Дулово","addr:state":"Силистра","addr:country":"BG","name":"Дулово","phone":"+359 88 625 1632","email":"dulovo@iandgbrokers.com","opening_hours":"Mo-Fr 08:00-17:00","brand":"I&G Brokers","brand:wikidata":"Q110399829"},"coordinates":[43.82339630231559,27.142738023346855]},"tags_mismatch":false,"dist":0},{"osm":false,"atp":{"id":"Wz1HzeBFk68x-bLsAB94hFrW5es=","tags":{"ref":"104","office":"insurance","addr:full":"ул. Добрич № 2","addr:city":"гр. Силистра","addr:state":"Силистра","addr:country":"BG","name":"Силистра","phone":"+359 88 788 1714","email":"silistra@iandgbrokers.com","opening_hours":"Mo-Fr 09:00-18:00","brand":"I&G Brokers","brand:wikidata":"Q110399829"},"coordinates":[44.1192445,27.2650586]},"tags_mismatch":false,"dist":0},{"osm":false,"atp":{"id":"Nxlew_cjZqsXsqNb0RBHfd5brVA=","tags":{"ref":"105","office":"insurance","addr:full":"бул. Македония № 127","addr:city":"гр. Силистра","addr:state":"Силистра","addr:country":"BG","name":"Силистра","phone":"+359 87 995 3603","email":"n.tsonev@iandgbrokers.com","opening_hours":"Mo-Fr 09:00-18:00","brand":"I&G Brokers","brand:wikidata":"Q110399829"},"coordinates":[44.1130751,27.2633808]},"tags_mismatch":false,"dist":0},{"osm":false,"atp":{"id":"8pxLZRk3cQ9usz9MnfwcD4VjOcE=","tags":{"ref":"106","office":"insurance","addr:full":"ул. Проф.Минко Балкански № 49","addr:city":"гр. Нова Загора","addr:state":"Сливен","addr:country":"BG","name":"Нова Загора","phone":"+359 88 531 0765","email":"n.zagora@iandgbrokers.com","opening_hours":"Mo-Fr 09:00-18:00","brand":"I&G Brokers","brand:wikidata":"Q110399829"},"coordinates":[42.4939417999999,26.0142694]},"tags_mismatch":false,"dist":0},{"osm":false,"atp":{"id":"lRNPjN86fZQxAqsYQFDEqMRq1rE=","tags":{"ref":"107","office":"insurance","addr:full":"ул. Св.Св.Кирил и Методий № 66","addr:city":"гр. Нова Загора","addr:state":"Сливен","addr:country":"BG","name":"Нова Загора","phone":"+359 88 531 1738","email":"n.zagora2@iandgbrokets.com","opening_hours":"Mo-Fr 09:00-18:00","brand":"I&G Brokers","brand:wikidata":"Q110399829"},"coordinates":[42.4937078,26.0082454]},"tags_mismatch":false,"dist":0},{"osm":false,"atp":{"id":"qFot4HLf7bW_E9RCJu9iHv4B2d4=","tags":{"ref":"108","office":"insurance","addr:full":"бул. „Хаджи Димитър“ 26","addr:city":"гр. Сливен","addr:state":"Сливен","addr:country":"BG","name":"Сливен","phone":"+359 88 531 0492","email":"sliven@iandgbrokers.com","opening_hours":"Mo-Fr 09:00-18:00; Sa 09:30-13:30","brand":"I&G Brokers","brand:wikidata":"Q110399829"},"coordinates":[42.678312,26.318559]},"tags_mismatch":false,"dist":0},{"osm":false,"atp":{"id":"oroo2t3z3bG_27KEET1orJvzFV0=","tags":{"ref":"110","office":"insurance","addr:full":"бул. Бургаско шосе № 63","addr:city":"гр. Сливен","addr:state":"Сливен","addr:country":"BG","name":"Сливен","phone":"+359 87 958 5869","email":"a.velichkov@iandgbrokers.com","opening_hours":"Mo-Fr 09:00-18:00","brand":"I&G Brokers","brand:wikidata":"Q110399829"},"coordinates":[42.6741787,26.3340639]},"tags_mismatch":false,"dist":0},{"osm":false,"atp":{"id":"KVljE1te2MAox8CZlXm1wVn6wYU=","tags":{"ref":"111","office":"insurance","addr:full":"ул. България № 124","addr:city":"гр. Златоград","addr:state":"Смолян","addr:country":"BG","name":"Златоград","phone":"+359 89 751 8223","email":"zlatograd@iandgbrokers.com","opening_hours":"Mo-Fr 09:00-18:00","brand":"I&G Brokers","brand:wikidata":"Q110399829"},"coordinates":[41.3800209,25.096996]},"tags_mismatch":false,"dist":0},{"osm":false,"atp":false,"tags_mismatch":false,"dist":0},{"osm":false,"atp":{"id":"CIQNGCCdjyViyTET2nSPHQhcy2c=","tags":{"ref":"114","office":"insurance","addr:full":"ул. Витоша № 7","addr:city":"гр. Елин Пелин","addr:state":"Софийска област","addr:country":"BG","name":"Елин Пелин","phone":"+359 88 279 4131","email":"еlinpelin@iandgbrokers.com","opening_hours":"Mo-Su 09:00-19:00","brand":"I&G Brokers","brand:wikidata":"Q110399829"},"coordinates":[42.6638821319222,23.5966251950751]},"tags_mismatch":false,"dist":0},{"osm":false,"atp":{"id":"ZsSqrro-P-cIl-6jb864im1Spc0=","tags":{"ref":"115","office":"insurance","addr:full":"ул. Ломско шосе № 28","addr:city":"гр. Костинброд","addr:state":"Софийска област","addr:country":"BG","name":"Костинброд","phone":"+359 89 670 3806","email":"kostinbrod@iandgbrokers.com","opening_hours":"Mo-Fr 09:00-18:00","brand":"I&G Brokers","brand:wikidata":"Q110399829"},"coordinates":[42.810713,23.216639]},"tags_mismatch":false,"dist":0},{"osm":false,"atp":{"id":"ighTQ1JJcVEn5RhXp25yDpKnbwQ=","tags":{"ref":"117","office":"insurance","addr:full":"ул. Игнат Емануилов № 1","addr:city":"гр. Годеч","addr:state":"Софийска област","addr:country":"BG","name":"Годеч","phone":"+359 89 750 7368","email":"godech@iandgbrokers.com","opening_hours":"Mo-Fr 07:30-18:30","brand":"I&G Brokers","brand:wikidata":"Q110399829"},"coordinates":[43.0164415,23.0454923]},"tags_mismatch":false,"dist":0},{"osm":false,"atp":{"id":"b_7ezHlEa4X7WEJ9YdsW7k9vPXk=","tags":{"ref":"118","office":"insurance","addr:full":"бул. Хаджи Ненчо Дончев № 80","addr:city":"гр. Копривщица","addr:state":"Софийска област","addr:country":"BG","name":"Копривщица","phone":"+359 89 683 9302","email":"koprivshtitsa@iandgbrokers.com","opening_hours":"Mo-Fr 09:00-18:00","brand":"I&G Brokers","brand:wikidata":"Q110399829"},"coordinates":[42.6364637,24.3596437]},"tags_mismatch":false,"dist":0},{"osm":false,"atp":{"id":"xgJOUZq4-FzwXVWtdWMsd7shO0w=","tags":{"ref":"119","office":"insurance","addr:full":"ул. Цар Освободител № 78","addr:city":"гр. Пирдоп","addr:state":"Софийска област","addr:country":"BG","name":"Пирдоп","phone":"+359 89 996 6190","email":"pirdop@iandgbrokers.com","opening_hours":"Mo-Fr 09:00-17:00","brand":"I&G Brokers","brand:wikidata":"Q110399829"},"coordinates":[42.7024395,24.1730363]},"tags_mismatch":false,"dist":0},{"osm":false,"atp":{"id":"9Tknyh5QcnW6sAmcpsIaqdmO7d8=","tags":{"ref":"120","office":"insurance","addr:full":"бул. Искър № 87","addr:city":"гр. Самоков","addr:state":"Софийска област","addr:country":"BG","name":"Самоков","phone":"+359 88 435 0979","email":"samokov@iandgbrokers.com","opening_hours":"Mo-Fr 09:00-18:00","brand":"I&G Brokers","brand:wikidata":"Q110399829"},"coordinates":[42.335534,23.5558255]},"tags_mismatch":false,"dist":0},{"osm":false,"atp":{"id":"MVJVNhVR-ntMWb3KrBmGU_qllIk=","tags":{"ref":"121","office":"insurance","addr:full":"ул. Преспа № 4","addr:city":"гр. Самоков","addr:state":"Софийска област","addr:country":"BG","name":"Самоков","phone":"+359 88 280 0613","email":"kyoseva@iandgbrokers.com","opening_hours":"Mo-Fr 09:00-18:00","brand":"I&G Brokers","brand:wikidata":"Q110399829"},"coordinates":[42.3287726999999,23.5515454]},"tags_mismatch":false,"dist":0},{"osm":false,"atp":{"id":"NquYRTG0eKwyIWumsPaaxtDjA4g=","tags":{"ref":"122","office":"insurance","addr:full":"бул. България № 118, ет.4, Абакус бизнес център","addr:city":"гр. София","addr:state":"София-град","addr:country":"BG","name":"Централен офис","phone":"+359 800 20 300","email":"office@iandgbrokers.com","opening_hours":"Mo-Fr 08:30-17:30","brand":"I&G Brokers","brand:wikidata":"Q110399829"},"coordinates":[42.6560683797833,23.2834905132814]},"tags_mismatch":false,"dist":0},{"osm":false,"atp":{"id":"DFKvlgO9e-js0yL6Ue9CjHebLPk=","tags":{"ref":"123","office":"insurance","addr:full":"ул. Янтра № 3Б","addr:city":"гр. София","addr:state":"София-град","addr:country":"BG","name":"София","phone":"+359 88 802 1248","email":"a.dimitrova@iandgbrokers.com","opening_hours":"Mo-Fr 09:00-18:00","brand":"I&G Brokers","brand:wikidata":"Q110399829"},"coordinates":[42.6911364526214,23.3401798]},"tags_mismatch":false,"dist":0},{"osm":false,"atp":{"id":"fWTEgK-uUuyNx2emGpdmIQwAx7A=","tags":{"ref":"124","office":"insurance","addr:full":"ул. Оборище № 111","addr:city":"гр. София","addr:state":"София-град","addr:country":"BG","name":"София","phone":"+359 88 875 0752","email":"bambukova@iandgbrokers.com","opening_hours":"Mo-Fr 09:00-18:00","brand":"I&G Brokers","brand:wikidata":"Q110399829"},"coordinates":[42.6937003901393,23.3528622693932]},"tags_mismatch":false,"dist":0},{"osm":false,"atp":{"id":"4baiXYmC9U7fXBn7gz-4U6Xotj8=","tags":{"ref":"125","office":"insurance","addr:full":"ж.к. Младост 1, бл. 509","addr:city":"гр. София","addr:state":"София-град","addr:country":"BG","name":"София","phone":"+359 88 957 9791","email":"p.petrova@iandgbrokers.com","opening_hours":"Mo-Fr 09:00-19:00","brand":"I&G Brokers","brand:wikidata":"Q110399829"},"coordinates":[42.6491002284711,23.3803129868076]},"tags_mismatch":false,"dist":0},{"osm":false,"atp":false,"tags_mismatch":false,"dist":0},{"osm":false,"atp":{"id":"45Iq0A-l3DyFbCxBayBJB60UlYM=","tags":{"ref":"128","office":"insurance","addr:full":"бул. Панчо Владигеров № 44, Кооперативен Пазар, Базар Искра","addr:city":"гр. София","addr:state":"София-град","addr:country":"BG","name":"София","phone":"+359 88 881 8825","email":"metodieva@iandgbrokers.com","opening_hours":"Mo-Fr 09:00-18:30","brand":"I&G Brokers","brand:wikidata":"Q110399829"},"coordinates":[42.7174061,23.2520164]},"tags_mismatch":false,"dist":0},{"osm":false,"atp":{"id":"nQPC40dniXx9LKYIjUuxCNJYT2k=","tags":{"ref":"129","office":"insurance","addr:full":"ул. Теменуга № 2А","addr:city":"гр. София","addr:state":"София-град","addr:country":"BG","name":"София","phone":"+359 88 235 6046","email":"slatina@iandgbrokers.com","opening_hours":"Mo-Fr 09:00-18:00","brand":"I&G Brokers","brand:wikidata":"Q110399829"},"coordinates":[42.6818677400199,23.3730664042456]},"tags_mismatch":false,"dist":0},{"osm":false,"atp":{"id":"nQA9gpzxAurd8Le-LLGJQ59FiSw=","tags":{"ref":"130","office":"insurance","addr:full":"ул. Калугерица № 13","addr:city":"с. Бистрица","addr:state":"София-град","addr:country":"BG","name":"с. Бистрица","phone":"+359 88 889 3218","email":"ivetafartunkova@iandgbrokers.com","opening_hours":"Mo-Fr 09:00-18:00","brand":"I&G Brokers","brand:wikidata":"Q110399829"},"coordinates":[42.5856048,23.355819]},"tags_mismatch":false,"dist":0},{"osm":false,"atp":false,"tags_mismatch":false,"dist":0},{"osm":false,"atp":{"id":"xO8HFXnm8_mGwJpYl91mo2U2WlM=","tags":{"ref":"132","office":"insurance","addr:full":"ул. Монтевидео № 527","addr:city":"гр. София","addr:state":"София-град","addr:country":"BG","name":"София","phone":"+359 88 881 8825","email":"metodieva@iandgbrokers.com","opening_hours":"Mo-Fr 09:00-18:30","brand":"I&G Brokers","brand:wikidata":"Q110399829"},"coordinates":[42.689389,23.255]},"tags_mismatch":false,"dist":0},{"osm":false,"atp":false,"tags_mismatch":false,"dist":0},{"osm":false,"atp":{"id":"wa2jXsoqtDoObJT4YMIjIjGm3sM=","tags":{"ref":"134","office":"insurance","addr:full":"ж.к. Дружба 2, бл. 210","addr:city":"гр. София","addr:state":"София-град","addr:country":"BG","name":"София","phone":"+359 88 959 1915","email":"e.vasilev@iandgbrokers.com","opening_hours":"Mo-Fr 09:00-18:30; Sa 09:00-12:00","brand":"I&G Brokers","brand:wikidata":"Q110399829"},"coordinates":[42.6542964,23.4006203999999]},"tags_mismatch":false,"dist":0},{"osm":false,"atp":{"id":"K0sXkFpgV6MwuIqmmpnHyKR8v9Y=","tags":{"ref":"135","office":"insurance","addr:full":"ул. Казбек № 59","addr:city":"гр. София","addr:state":"София-град","addr:country":"BG","name":"София","phone":"+359 89 854 5211","email":"a.ilieva@iandgbrokers.com","opening_hours":"Mo-Fr 09:00-19:00","brand":"I&G Brokers","brand:wikidata":"Q110399829"},"coordinates":[42.6658032,23.2846855]},"tags_mismatch":false,"dist":0},{"osm":false,"atp":{"id":"zq3IIkr7JwH46S77wc2D08cg71I=","tags":{"ref":"138","office":"insurance","addr:full":"ул. Митрополит Серафим Сливенски бл.15","addr:city":"гр. София","addr:state":"София-град","addr:country":"BG","name":"София","phone":"+359 88 658 1143","email":"evelina.nedyalkova@iandgbrokers.com","opening_hours":"Mo-Fr 10:00-18:00","brand":"I&G Brokers","brand:wikidata":"Q110399829"},"coordinates":[42.6572212737647,23.3758332982281]},"tags_mismatch":false,"dist":0},{"osm":false,"atp":false,"tags_mismatch":false,"dist":0},{"osm":false,"atp":false,"tags_mismatch":false,"dist":0},{"osm":false,"atp":{"id":"3nEmzZwKgn8UmOKYpoOHVEP_kQs=","tags":{"ref":"142","office":"insurance","addr:full":"бул. Александър Стамболийски № 196 (Паркингът на магазин Лидл)","addr:city":"гр. София","addr:state":"София-град","addr:country":"BG","name":"София","phone":"+359 88 988 8654","email":"zapadenpark@iandgbrokers.com","opening_hours":"Mo-Su 09:00-19:00","brand":"I&G Brokers","brand:wikidata":"Q110399829"},"coordinates":[42.7051872401634,23.2853906335226]},"tags_mismatch":false,"dist":0},{"osm":false,"atp":false,"tags_mismatch":false,"dist":0},{"osm":false,"atp":false,"tags_mismatch":false,"dist":0},{"osm":false,"atp":false,"tags_mismatch":false,"dist":0},{"osm":false,"atp":false,"tags_mismatch":false,"dist":0},{"osm":false,"atp":{"id":"QH40KUfMDgTz6lUhI14iqMFGDvQ=","tags":{"ref":"147","office":"insurance","addr:full":"бул. Никола Петков № 22","addr:city":"гр. София","addr:state":"София-град","addr:country":"BG","name":"София","phone":"+359 89 347 7752","email":"nedyalka.mihaylova@iandgbrokers.com","opening_hours":"Mo-Fr 09:00-18:00","brand":"I&G Brokers","brand:wikidata":"Q110399829"},"coordinates":[42.6600985,23.2649431]},"tags_mismatch":false,"dist":0},{"osm":false,"atp":{"id":"TzQy-rbGtEoOUcPCZjxDfJVQVW4=","tags":{"ref":"148","office":"insurance","addr:full":"бул. Г.М. Димитров № 47","addr:city":"гр. София","addr:state":"София-град","addr:country":"BG","name":"София","phone":"+359 88 224 8017","email":"office.musagenitsa@iandgbrokers.com","opening_hours":"Mo-Fr 09:00-18:00","brand":"I&G Brokers","brand:wikidata":"Q110399829"},"coordinates":[42.6645770311931,23.3623346355821]},"tags_mismatch":false,"dist":0},{"osm":false,"atp":false,"tags_mismatch":false,"dist":0},{"osm":false,"atp":{"id":"bqUYUarv0UONbpWJrlalzE6CTvc=","tags":{"ref":"150","office":"insurance","addr:full":"ул. Латин Колев № 25","addr:city":"гр. София","addr:state":"София-град","addr:country":"BG","name":"София","phone":"+359 88 339 2050","email":"v.bogdanov@iandgbrokers.com","opening_hours":"Mo-Fr 09:30-18:30","brand":"I&G Brokers","brand:wikidata":"Q110399829"},"coordinates":[42.7717695,23.3160976]},"tags_mismatch":false,"dist":0},{"osm":false,"atp":false,"tags_mismatch":false,"dist":0},{"osm":false,"atp":false,"tags_mismatch":false,"dist":0},{"osm":false,"atp":{"id":"obP4_2jYhsrnrI_1mUcQsQD3HzY=","tags":{"ref":"153","office":"insurance","addr:full":"ул. Стефан Стамболов № 138 /в магазин Фантастико/","addr:city":"гр. Банкя","addr:state":"София-град","addr:country":"BG","name":"Банкя","phone":"+359 88 468 6556","email":"office.bankya@iandgbrokers.com","opening_hours":"Mo-Fr 09:00-20:00; Sa-Su 09:00-19:00","brand":"I&G Brokers","brand:wikidata":"Q110399829"},"coordinates":[42.7165456,23.1689793]},"tags_mismatch":false,"dist":0},{"osm":false,"atp":{"id":"BuIbjBDEtsNbjJEPiKz1wOmHy0A=","tags":{"ref":"154","office":"insurance","addr:full":"ул. Козлодуй № 18","addr:city":"гр. София","addr:state":"София-град","addr:country":"BG","name":"София","phone":"+359 88 826 0360","email":"l.hristov@iandgbrokers.com","opening_hours":"Mo-Fr 09:00-19:00","brand":"I&G Brokers","brand:wikidata":"Q110399829"},"coordinates":[42.707022,23.324194]},"tags_mismatch":false,"dist":0},{"osm":false,"atp":{"id":"bztxSTIf_K7ScEb4hwKygcySuSw=","tags":{"ref":"155","office":"insurance","addr:full":"ул. Тодорини кукли № 63","addr:city":"гр. София","addr:state":"София-град","addr:country":"BG","name":"София","phone":"+359 88 465 6752","email":"office.suhatareka@iandgbrokers.com","opening_hours":"Mo-Su 09:00-20:00","brand":"I&G Brokers","brand:wikidata":"Q110399829"},"coordinates":[42.7048817520853,23.3670893691047]},"tags_mismatch":false,"dist":0},{"osm":false,"atp":{"id":"tHGOXm_uT0Suy5exr0IfHtSlhqA=","tags":{"ref":"157","office":"insurance","addr:full":"ул. Тонзос № 8","addr:city":"гр. Казанлък","addr:state":"Стара Загора","addr:country":"BG","name":"Казанлък","phone":"+359 89 548 4842","email":"kazanlаk@iandgbrokers.com","opening_hours":"Mo-Fr 09:00-18:00","brand":"I&G Brokers","brand:wikidata":"Q110399829"},"coordinates":[42.6150518,25.3920097]},"tags_mismatch":false,"dist":0},{"osm":false,"atp":{"id":"oqvJzll-C7ks7F23A1NVBUD0VGg=","tags":{"ref":"161","office":"insurance","addr:full":"ул. Христо Ботев № 70","addr:city":"гр. Стара Загора","addr:state":"Стара Загора","addr:country":"BG","name":"Стара Загора","phone":"+359 88 893 4269","email":"stzagora@iandgbrokers.com","opening_hours":"Mo-Fr 08:30-17:30","brand":"I&G Brokers","brand:wikidata":"Q110399829"},"coordinates":[42.4214222999999,25.6260944999999]},"tags_mismatch":false,"dist":0},{"osm":false,"atp":{"id":"eLkYob434YEx3Yz9rFbb35UOOqU=","tags":{"ref":"163","office":"insurance","addr:full":"бул. Георги Димитров № 111","addr:city":"гр. Чирпан","addr:state":"Стара Загора","addr:country":"BG","name":"Чирпан","phone":"+359 89 448 1450","email":"chirpan@iandgbrokers.com","opening_hours":"Mo-Fr 08:30-17:30","brand":"I&G Brokers","brand:wikidata":"Q110399829"},"coordinates":[42.2024781849059,25.3428994117109]},"tags_mismatch":false,"dist":0},{"osm":false,"atp":{"id":"scSiuT_nMJKqTv9b_JtAsS4hsMc=","tags":{"ref":"164","office":"insurance","addr:full":"ул. Шипка № 4","addr:city":"гр. Търговище","addr:state":"Търговище","addr:country":"BG","name":"Търговище","phone":"+359 88 531 1756","email":"turgovishte@iandgbrokers.com","opening_hours":"Mo-Fr 09:00-18:00","brand":"I&G Brokers","brand:wikidata":"Q110399829"},"coordinates":[43.2431926,26.5701296]},"tags_mismatch":false,"dist":0},{"osm":false,"atp":{"id":"MuYSuIVZKBElIJfhScLTkQ0Bceo=","tags":{"ref":"165","office":"insurance","addr:full":"ул. Ромен Ролан № 5 /паркингът на магазин Кауфланд/","addr:city":"гр. Димитровград","addr:state":"Хасково","addr:country":"BG","name":"Димитровград","phone":"+359 88 720 7755","email":"dimitrovgrad@iandgbrokers.com","opening_hours":"Mo-Su 08:00-20:00","brand":"I&G Brokers","brand:wikidata":"Q110399829"},"coordinates":[42.058756,25.588003]},"tags_mismatch":false,"dist":0},{"osm":false,"atp":{"id":"rZqI0S7dschmx6NuSIXT8R6TNw4=","tags":{"ref":"166","office":"insurance","addr:full":"бул. Димитър Благоев № 16","addr:city":"гр. Димитровград","addr:state":"Хасково","addr:country":"BG","name":"Димитровград","phone":"+359 88 720 7755","email":"dimitrovgrad@iandgbrokers.com","opening_hours":"Mo-Fr 08:30-19:00; Sa 09:00-14:00","brand":"I&G Brokers","brand:wikidata":"Q110399829"},"coordinates":[42.0544003325871,25.597223136001]},"tags_mismatch":false,"dist":0},{"osm":false,"atp":{"id":"oNuJ4lzK-OgoCnA8ERMNqFV_qR4=","tags":{"ref":"168","office":"insurance","addr:full":"ул. Бузлуджа № 4","addr:city":"гр. Димитровград","addr:state":"Хасково","addr:country":"BG","name":"Димитровград","phone":"+359 88 670 7877","email":"dimitrovgrad@iandgbrokers.com","opening_hours":"Mo-Fr 09:00-18:00","brand":"I&G Brokers","brand:wikidata":"Q110399829"},"coordinates":[42.052122,25.593978]},"tags_mismatch":false,"dist":0},{"osm":false,"atp":{"id":"reaE4matXang6pqZWGcd_CcSxbM=","tags":{"ref":"169","office":"insurance","addr:full":"бул. България № 52","addr:city":"гр. Ивайловград","addr:state":"Хасково","addr:country":"BG","name":"Ивайловград","phone":"+359 87 879 5104","email":"ivailovgrad@iandgbrokers.com","opening_hours":"Mo-Fr 09:00-18:00","brand":"I&G Brokers","brand:wikidata":"Q110399829"},"coordinates":[41.5243318,26.1298785]},"tags_mismatch":false,"dist":0},{"osm":false,"atp":{"id":"vvQr8MHhnKwYELdvV5NjjNwClts=","tags":{"ref":"170","office":"insurance","addr:full":"бул. България № 24","addr:city":"гр. Харманли","addr:state":"Хасково","addr:country":"BG","name":"Харманли","phone":"+359 87 813 8073","email":"harmanli@iandgbrokers.com","opening_hours":"Mo-Fr 09:00-18:00","brand":"I&G Brokers","brand:wikidata":"Q110399829"},"coordinates":[41.9291179,25.904842]},"tags_mismatch":false,"dist":0},{"osm":false,"atp":{"id":"bEo3PCtipOz00-Y_MdfYYsYpj6c=","tags":{"ref":"171","office":"insurance","addr:full":"бул. България № 88","addr:city":"гр. Харманли","addr:state":"Хасково","addr:country":"BG","name":"Харманли","phone":"+359 88 841 9153","email":"harmanli@iandgbrokers.com","opening_hours":"Mo-Fr 09:00-18:00","brand":"I&G Brokers","brand:wikidata":"Q110399829"},"coordinates":[41.9231269999999,25.9178661]},"tags_mismatch":false,"dist":0},{"osm":false,"atp":{"id":"wgggzBj1Hpwmwiu1KXw3mnzrLBA=","tags":{"ref":"172","office":"insurance","addr:full":"бул. България № 76","addr:city":"гр. Харманли","addr:state":"Хасково","addr:country":"BG","name":"Харманли","phone":"+359 88 252 6911","email":"harmanli@iandgbrokers.com","opening_hours":"Mo-Fr 09:00-18:00","brand":"I&G Brokers","brand:wikidata":"Q110399829"},"coordinates":[41.9250703,25.9131819]},"tags_mismatch":false,"dist":0},{"osm":false,"atp":{"id":"YwB_BGALALrnDDScLEpBJ7TOgEw=","tags":{"ref":"173","office":"insurance","addr:full":"пл. Възраждане № 6","addr:city":"гр. Харманли","addr:state":"Хасково","addr:country":"BG","name":"Харманли","phone":"+359 88 252 6911","email":"harmanli@iandgbrokers.com","opening_hours":"Mo-Fr 09:00-18:00","brand":"I&G Brokers","brand:wikidata":"Q110399829"},"coordinates":[41.9307356,25.90112]},"tags_mismatch":false,"dist":0},{"osm":false,"atp":{"id":"xJtpjNldJHHzYD0Bl-481XTIo7w=","tags":{"ref":"174","office":"insurance","addr:full":"бул. Георги С. Раковски № 10","addr:city":"гр. Хасково","addr:state":"Хасково","addr:country":"BG","name":"Хасково","phone":"+359 88 930 0007","email":"haskovo2@iandgbrokers.com","opening_hours":"Mo-Fr 09:00-18:00; Sa 10:00-14:00","brand":"I&G Brokers","brand:wikidata":"Q110399829"},"coordinates":[41.9341025,25.5556074]},"tags_mismatch":false,"dist":0},{"osm":false,"atp":{"id":"2Ywafvamk_llw2_9uD-tbnBajNw=","tags":{"ref":"175","office":"insurance","addr:full":"ул. Цар Иван Александър № 54 ет.1","addr:city":"гр. Шумен","addr:state":"Шумен","addr:country":"BG","name":"Шумен","phone":"+359 88 847 4368","email":"kaykova@iandgbrokers.com","opening_hours":"Mo-Fr 09:00-18:00","brand":"I&G Brokers","brand:wikidata":"Q110399829"},"coordinates":[43.2724732,26.9319753]},"tags_mismatch":false,"dist":0},{"osm":false,"atp":{"id":"FVymB3B9hNm2LZOk5Y-61kuV4XA=","tags":{"ref":"176","office":"insurance","addr:full":"ул. Университетска № 26 (до КАТ)","addr:city":"гр. Шумен","addr:state":"Шумен","addr:country":"BG","name":"Шумен","phone":"+359 88 847 4368","email":"shumen2@iandgbroekrs.com","opening_hours":"Mo-Fr 07:30-15:30","brand":"I&G Brokers","brand:wikidata":"Q110399829"},"coordinates":[43.2813362,26.9521175]},"tags_mismatch":false,"dist":0},{"osm":false,"atp":{"id":"dzxzTV-u_DbfMYuEfZ2WdYkTXts=","tags":{"ref":"177","office":"insurance","addr:full":"ул. Ришки проход № 38","addr:city":"гр. Шумен","addr:state":"Шумен","addr:country":"BG","name":"Шумен","phone":"+359 88 847 4368","email":"shumen@iandgbrоkеrs.com","opening_hours":"Mo-Fr 08:30-17:00","brand":"I&G Brokers","brand:wikidata":"Q110399829"},"coordinates":[43.2679462,26.9420775]},"tags_mismatch":false,"dist":0},{"osm":false,"atp":{"id":"nnreF8m8DK6E1IaIXpCTqpA4Zw0=","tags":{"ref":"179","office":"insurance","addr:full":"ул. Ген. Скобелев № 1","addr:city":"гр. Шумен","addr:state":"Шумен","addr:country":"BG","name":"Шумен","phone":"+359 88 471 3998","email":"zlatina.gancheva@iandgbrokers.com","opening_hours":"Mo-Fr 08:00-18:00; Sa 09:30-11:30","brand":"I&G Brokers","brand:wikidata":"Q110399829"},"coordinates":[43.2755798,26.9105317]},"tags_mismatch":false,"dist":0},{"osm":false,"atp":{"id":"jF_SYml9YgH-q1ajg26CstsjdWM=","tags":{"ref":"180","office":"insurance","addr:full":"ул. Странджа № 12","addr:city":"гр. Шумен","addr:state":"Шумен","addr:country":"BG","name":"Шумен","phone":"+359 88 847 4368","email":"kaykova@iandgbrokers.com","opening_hours":"Mo-Fr 09:00-18:00","brand":"I&G Brokers","brand:wikidata":"Q110399829"},"coordinates":[43.2744192,26.9552983]},"tags_mismatch":false,"dist":0},{"osm":false,"atp":{"id":"h2K9JkMBilGZWZOiwpbdlv66Wc0=","tags":{"ref":"182","office":"insurance","addr:full":"ул. Търговска № 29","addr:city":"гр. Елхово","addr:state":"Ямбол","addr:country":"BG","name":"Елхово","phone":"+359 88 800 1014","email":"elhovo@iandgbrokers.com","opening_hours":"Mo-Fr 09:00-18:00; Sa 09:00-14:00","brand":"I&G Brokers","brand:wikidata":"Q110399829"},"coordinates":[42.1718242,26.5662979]},"tags_mismatch":false,"dist":0},{"osm":false,"atp":{"id":"6inVP-2c6vZoCcYCUz4B_S7EPxE=","tags":{"ref":"184","office":"insurance","addr:full":"ж.к. Меден Рудник, бл.102 (Бургаски пазари)","addr:city":"гр. Бургас","addr:state":"Бургас","addr:country":"BG","name":"Бургас","phone":"+359 89 832 5206","email":"burgas@iandgbrokers.com","opening_hours":"Mo-Fr 13:00-15:00,16:00-18:00","brand":"I&G Brokers","brand:wikidata":"Q110399829"},"coordinates":[42.450118,27.414253]},"tags_mismatch":false,"dist":0},{"osm":false,"atp":{"id":"blbbwl0Y1ZSCCiWOsihqScMsKBQ=","tags":{"ref":"186","office":"insurance","addr:full":"ул. Освобождение, срещу Община Камено","addr:city":"гр. Камено","addr:state":"Бургас","addr:country":"BG","name":"Бургас","phone":"+359 98 834 3453","email":"burgas@iandgbrokers.com","opening_hours":"Mo-Fr 09:00-18:00","brand":"I&G Brokers","brand:wikidata":"Q110399829"},"coordinates":[42.574004,27.295968]},"tags_mismatch":false,"dist":0},{"osm":false,"atp":{"id":"Rb1mRq3o98Phi_hQjd4YUYt6zd4=","tags":{"ref":"188","office":"insurance","addr:full":"ж.к. Лазур, ул. Георги Баев № 2","addr:city":"гр. Бургас","addr:state":"Бургас","addr:country":"BG","name":"Бургас","phone":"+359 88 585 2974","email":"burgas@iandgbrokers.com","opening_hours":"Mo-Fr 09:00-18:00","brand":"I&G Brokers","brand:wikidata":"Q110399829"},"coordinates":[42.5062447,27.4742864]},"tags_mismatch":false,"dist":0},{"osm":false,"atp":{"id":"pQtqaWS8l2PVvUm40VUn5WZzXkY=","tags":{"ref":"190","office":"insurance","addr:full":"ул. Първа № 31","addr:city":"с. Ново село","addr:state":"Пловдив","addr:country":"BG","name":"с. Ново село","phone":"+359 88 531 1858","email":"novoselo@iandgbrokers.com","opening_hours":"Mo-Fr 08:30-17:30","brand":"I&G Brokers","brand:wikidata":"Q110399829"},"coordinates":[42.10490817890204,24.484315769357867]},"tags_mismatch":false,"dist":0},{"osm":false,"atp":{"id":"OfY7LtNtoq3IkKwOcT_9a5sSObw=","tags":{"ref":"191","office":"insurance","addr:full":"ул. Искърско дефиле № 110","addr:city":"гр. Нови Искър","addr:state":"София-град","addr:country":"BG","name":"Нови Искър","phone":"+359 88 531 1858","email":"noviiskar@iandgbrokers.com","opening_hours":"Mo-Fr 09:00-18:00","brand":"I&G Brokers","brand:wikidata":"Q110399829"},"coordinates":[42.7986194,23.340726]},"tags_mismatch":false,"dist":0},{"osm":false,"atp":{"id":"Rkunco5SYUZNIC3iHJcBRkd8uTo=","tags":{"ref":"192","office":"insurance","addr:full":"ул. Ангел Маджаров № 1","addr:city":"гр. София","addr:state":"София-град","addr:country":"BG","name":"София","phone":"+359 88 531 1858","email":"chelopechene@iandgbrokers.com","opening_hours":"Mo-Fr 09:00-18:00","brand":"I&G Brokers","brand:wikidata":"Q110399829"},"coordinates":[42.7324481,23.4698099]},"tags_mismatch":false,"dist":0},{"osm":false,"atp":{"id":"orNMpAOFbyP5Xwq_2jXiZjG-QbM=","tags":{"ref":"194","office":"insurance","addr:full":"ж.к. Меден Рудник, срещу бл.15 (Бургаски пазари)","addr:city":"гр. Бургас","addr:state":"Бургас","addr:country":"BG","name":"Бургас","phone":"+359 88 585 2974","email":"burgas@iandgbrokers.com","opening_hours":"Mo-Fr 08:00-18:00","brand":"I&G Brokers","brand:wikidata":"Q110399829"},"coordinates":[42.4649754,27.4197232]},"tags_mismatch":false,"dist":0},{"osm":false,"atp":{"id":"ZwnWupp40yL-U6vAEeE2mr3EFLs=","tags":{"ref":"195","office":"insurance","addr:full":"ул. Витоша № 1","addr:city":"гр. Ботевград","addr:state":"Софийска област","addr:country":"BG","name":"Ботевград","phone":"+359 88 237 4163","email":"office.botevgrad@iandgbrokers.com","opening_hours":"Mo-Su 09:00-19:00","brand":"I&G Brokers","brand:wikidata":"Q110399829"},"coordinates":[42.9078923,23.785524]},"tags_mismatch":false,"dist":0},{"osm":false,"atp":{"id":"iVFvSKZ6eSyLawPT78x6xulzdSE=","tags":{"ref":"196","office":"insurance","addr:full":"ул. Никола Петков № 4","addr:city":"гр. Кнежа","addr:state":"Плевен","addr:country":"BG","name":"Кнежа","phone":"+359 88 531 1858","email":"knezha@iandgbrokers.com","opening_hours":"Mo-Fr 10:00-17:00","brand":"I&G Brokers","brand:wikidata":"Q110399829"},"coordinates":[43.4943617,24.0789476]},"tags_mismatch":false,"dist":0},{"osm":false,"atp":{"id":"R4zga7NQweQ9tORTQUJ6jTluEcU=","tags":{"ref":"197","office":"insurance","addr:full":"ул. Левента № 2","addr:city":"гр. Русе","addr:state":"Русе","addr:country":"BG","name":"Русе","phone":"+359 88 531 1858","email":"v.kolev@iandgbrokers.com","opening_hours":"Mo-Fr 09:00-19:00; Sa 09:00-13:00","brand":"I&G Brokers","brand:wikidata":"Q110399829"},"coordinates":[43.8288138,25.9598626]},"tags_mismatch":false,"dist":0},{"osm":false,"atp":{"id":"IvpTTZptJOjpG_LB5-zfhqofkH0=","tags":{"ref":"198","office":"insurance","addr:full":"ул. Христо Силянов № 93","addr:city":"гр. София","addr:state":"София-град","addr:country":"BG","name":"София","phone":"+359 88 801 2442","email":"m.sholeva@iandgbrokers.com","opening_hours":"Mo-Fr 09:30-19:00","brand":"I&G Brokers","brand:wikidata":"Q110399829"},"coordinates":[42.7289329,23.2924137]},"tags_mismatch":false,"dist":0},{"osm":false,"atp":{"id":"YdIcVwo7FO4m0HAK-vUzM-RBmsE=","tags":{"ref":"200","office":"insurance","addr:full":"ул. Тодор Шопов № 43","addr:city":"с. Сатовча","addr:state":"Благоевград","addr:country":"BG","name":"с. Сатовча","phone":"+359 88 531 1858","email":"y.karova@iandgbrokers.com","opening_hours":"Mo-Fr 08:30-17:30","brand":"I&G Brokers","brand:wikidata":"Q110399829"},"coordinates":[41.6190535,23.9766554]},"tags_mismatch":false,"dist":0},{"osm":false,"atp":{"id":"k7XnlohvSNzLvjFbYVnLJz73AKY=","tags":{"ref":"201","office":"insurance","addr:full":"ул. Станционна 34","addr:city":"гр. Айтос","addr:state":"Бургас","addr:country":"BG","name":"Айтос","phone":"+359 88 867 3710","email":"burgas@iandgbrokers.com","opening_hours":"Sa 09:00-15:00","brand":"I&G Brokers","brand:wikidata":"Q110399829"},"coordinates":[42.7022762,27.2518734]},"tags_mismatch":false,"dist":0},{"osm":false,"atp":{"id":"go2qxg3MKv_sOleUWW_3renW0d0=","tags":{"ref":"202","office":"insurance","addr:full":"кв. Струмско, ул. Броди № 18В","addr:city":"гр. Благоевград","addr:state":"Благоевград","addr:country":"BG","name":"Благоевград","phone":"+359 88 531 1862","email":"blagoevgrad1@iandgbrokers.com","brand":"I&G Brokers","brand:wikidata":"Q110399829"},"coordinates":[41.9960538,23.0914218]},"tags_mismatch":false,"dist":0},{"osm":false,"atp":{"id":"2BYCDx5GW5Xuj13Tzag6o-CKOys=","tags":{"ref":"203","office":"insurance","addr:full":"ул. Княз Александър Батенберг 1","addr:city":"гр. Ботевград","addr:state":"Софийска област","addr:country":"BG","name":"Ботевград","phone":"+359 88 531 1862","email":"office.botevgrad@iandgbrokers.com","brand":"I&G Brokers","brand:wikidata":"Q110399829"},"coordinates":[42.9091358,23.7927366]},"tags_mismatch":false,"dist":0},{"osm":false,"atp":{"id":"S5jQPhh9QV895GLLWbFquM9UNEM=","tags":{"ref":"204","office":"insurance","addr:full":"община Айтос, УПИ № I-138","addr:city":"с. Карагеоргиево","addr:state":"Бургас","addr:country":"BG","name":"Бургас","phone":"+359 88 867 3710","email":"burgas@iandgbrokers.com","brand":"I&G Brokers","brand:wikidata":"Q110399829"},"coordinates":[42.7353212,27.185977]},"tags_mismatch":false,"dist":0},{"osm":false,"atp":{"id":"IBU7awd4tE6X-6QUVL4APYghgqY=","tags":{"ref":"205","office":"insurance","addr:full":"ул. Славянска № 92","addr:city":"гр. Айтос","addr:state":"Бургас","addr:country":"BG","name":"Айтос","phone":"+359 88 867 3710","email":"burgas@iandgbrokers.com","brand":"I&G Brokers","brand:wikidata":"Q110399829"},"coordinates":[42.6938196,27.2663355]},"tags_mismatch":false,"dist":0},{"osm":false,"atp":{"id":"lfDABaPkAHOVi4F44Nixynexfq0=","tags":{"ref":"207","office":"insurance","addr:full":"ул. Панорамен път № 54А","addr:city":"гр. Димитровград","addr:state":"Хасково","addr:country":"BG","name":"Димитровград","phone":"+359 88 720 7755","email":"dimitrovgrad@iandgbrokers.com","brand":"I&G Brokers","brand:wikidata":"Q110399829"},"coordinates":[42.05377310000001,25.6160474]},"tags_mismatch":false,"dist":0},{"osm":false,"atp":{"id":"fPvwyTcPD81V_wKgtfSsJRwA3oI=","tags":{"ref":"208","office":"insurance","addr:full":"бул. 25- септември, автокъща Виктория","addr:city":"гр. Добрич","addr:state":"Добрич","addr:country":"BG","name":"Добрич","phone":"+359 88 531 1862","email":"dobrich@iandgbrokers.com","brand":"I&G Brokers","brand:wikidata":"Q110399829"},"coordinates":[43.5679519,27.8304588]},"tags_mismatch":false,"dist":0},{"osm":false,"atp":{"id":"SOlddylTRUedCPuexy1m4y76o5E=","tags":{"ref":"210","office":"insurance","addr:full":"ул. Васил Левски № 9, община Костенец","addr:city":"с. Костенец","addr:state":"Софийска област","addr:country":"BG","name":"с. Костенец","phone":"+359 88 420 2797","email":"kostenets@iandgbrokers.com","brand":"I&G Brokers","brand:wikidata":"Q110399829"},"coordinates":[42.2623326,23.8280249]},"tags_mismatch":false,"dist":0},{"osm":false,"atp":{"id":"QxCz_agxO-epshDlL_PE8S-rMbo=","tags":{"ref":"211","office":"insurance","addr:full":"ул. Цар Симеон, Автогара Своге","addr:city":"гр. Своге","addr:state":"Софийска област","addr:country":"BG","name":"Своге","phone":"+359 89 670 3806","email":"kostinbrod@iandgbrokers.com","brand":"I&G Brokers","brand:wikidata":"Q110399829"},"coordinates":[42.959787,23.3488722]},"tags_mismatch":false,"dist":0},{"osm":false,"atp":{"id":"uA3kyEQIMLu2rvf9j0R2YT5CkZs=","tags":{"ref":"213","office":"insurance","addr:full":"ул. Шести май № 103, община Дулово","addr:city":"с. Черник","addr:state":"Силистра","addr:country":"BG","name":"с. Черник","phone":"+359 88 531 1862","email":"dulovo@iandgbrokers.com","brand":"I&G Brokers","brand:wikidata":"Q110399829"},"coordinates":[43.82223949999999,27.139699]},"tags_mismatch":false,"dist":0},{"osm":false,"atp":{"id":"G1aMWIZNAOb37pQnQam01Ducei0=","tags":{"ref":"214","office":"insurance","addr:full":"ул. Георги Бенковски кв. 178","addr:city":"гр. Пазарджик","addr:state":"Пазарджик","addr:country":"BG","name":"Пазарджик","phone":"+359 88 522 3999","email":"pazardzhik@iandgbrokers.com","brand":"I&G Brokers","brand:wikidata":"Q110399829"},"coordinates":[42.2064457,24.3285523]},"tags_mismatch":false,"dist":0},{"osm":false,"atp":{"id":"K6PFYaIfN4qVXA2HGsSXXeLJE7c=","tags":{"ref":"215","office":"insurance","addr:full":"ул. Княз Борис I","addr:city":"гр. Асеновград","addr:state":"Пловдив","addr:country":"BG","name":"Асеновград","phone":"+359 88 505 5738","email":"georgova@iandgbrokers.com","brand":"I&G Brokers","brand:wikidata":"Q110399829"},"coordinates":[42.02282659999999,24.8772259]},"tags_mismatch":false,"dist":0},{"osm":false,"atp":{"id":"-7eIiB0rAxuk3ks4N5lm0tdwE3s=","tags":{"ref":"216","office":"insurance","addr:full":"ул. Ландос № 16 - Поща кв. \"Изгрев\"","addr:city":"гр. Пловдив","addr:state":"Пловдив","addr:country":"BG","name":"Пловдив","phone":"+359 88 754 8278","email":"plovdiv@iandgbrokers.com","brand":"I&G Brokers","brand:wikidata":"Q110399829"},"coordinates":[42.1505359,24.786619]},"tags_mismatch":false,"dist":0},{"osm":false,"atp":{"id":"f-_ipNmVABK3RSlXKsZxdDaFHsw=","tags":{"ref":"217","office":"insurance","addr:full":"гр. Садово, Юрий Гагарин 1","addr:city":"гр. Садово","addr:state":"Пловдив","addr:country":"BG","name":"Садово","phone":"+359 88 754 8278","email":"plovdiv@iandgbrokers.com","brand":"I&G Brokers","brand:wikidata":"Q110399829"},"coordinates":[42.1356825,24.9393775]},"tags_mismatch":false,"dist":0},{"osm":false,"atp":{"id":"7BiXKNmEvSHqbuNCyuSYPurIIeY=","tags":{"ref":"218","office":"insurance","addr:full":"с. Петърч, жп Гара Индустриална зона","addr:city":"с. Петърч","addr:state":"Софийска област","addr:country":"BG","name":"Петърч","phone":"+359 88 531 1862","email":"stoikova@iandgbrokers.com","brand":"I&G Brokers","brand:wikidata":"Q110399829"},"coordinates":[42.8442352,23.1494959]},"tags_mismatch":false,"dist":0},{"osm":false,"atp":{"id":"e5dn1ON7nGYuqcgu5rZJ5BYl4J0=","tags":{"ref":"219","office":"insurance","addr:full":"ул. Николай Коперник 6","addr:city":"гр. Пловдив","addr:state":"Пловдив","addr:country":"BG","name":"Пловдив","phone":"+359 88 744 7365","email":"plovdiv2@iandgbrokers.com","brand":"I&G Brokers","brand:wikidata":"Q110399829"},"coordinates":[42.1273571,24.7431479]},"tags_mismatch":false,"dist":0},{"osm":false,"atp":{"id":"TPCGc_P8QxTQslUD-n4Zc5LK0j4=","tags":{"ref":"221","office":"insurance","addr:full":"ул. Зараевска 39","addr:city":"гр. Попово","addr:state":"Търговище","addr:country":"BG","name":"Попово","phone":"+359 88 249 7547","email":"t.doncheva@iandgbrokers.com","brand":"I&G Brokers","brand:wikidata":"Q110399829"},"coordinates":[43.3559656,26.2280167]},"tags_mismatch":false,"dist":0},{"osm":false,"atp":{"id":"hcuGIE33Wce8ctXffco7KQ5I4JM=","tags":{"ref":"223","office":"insurance","addr:full":"Зона Изток 1","addr:city":"гр. Севлиево","addr:state":"Габрово","addr:country":"BG","name":"Севлиево","phone":"+359 88 531 1862","email":"sevlievo@iandgbrokers.com","brand":"I&G Brokers","brand:wikidata":"Q110399829"},"coordinates":[43.0266904,25.1034006]},"tags_mismatch":false,"dist":0},{"osm":false,"atp":{"id":"V7iMoX3OpLXG4z420OE_HWANkiE=","tags":{"ref":"224","office":"insurance","addr:full":"ул. Розова долина № 9","addr:city":"гр. Главиница","addr:state":"Силистра","addr:country":"BG","name":"Главиница","phone":"+359 88 531 1862","email":"office@iandgbrokers.com","brand":"I&G Brokers","brand:wikidata":"Q110399829"},"coordinates":[43.9123576,26.8336223]},"tags_mismatch":false,"dist":0},{"osm":false,"atp":{"id":"BT2jUhRjejY--aO688AYmNURjlQ=","tags":{"ref":"226","office":"insurance","addr:full":"ул. Ангел Кънчев № 2","addr:city":"гр. Стара Загора","addr:state":"Стара Загора","addr:country":"BG","name":"Стара Загора","phone":"+359 88 893 4269","email":"stzagora@iandgbrokers.com","brand":"I&G Brokers","brand:wikidata":"Q110399829"},"coordinates":[42.4228287,25.6426835]},"tags_mismatch":false,"dist":0},{"osm":false,"atp":{"id":"Ozo76sXKWvE2j0DU5Jgq1s8SLkg=","tags":{"ref":"228","office":"insurance","addr:full":"ул. Никола Петков № 59","addr:city":"гр. Стара Загора","addr:state":"Стара Загора","addr:country":"BG","name":"Стара Загора","phone":"+359 88 893 4269","email":"stzagora@iandgbrokers.com","brand":"I&G Brokers","brand:wikidata":"Q110399829"},"coordinates":[42.4297441,25.6637092]},"tags_mismatch":false,"dist":0},{"osm":false,"atp":{"id":"LSFHmveJzog5IRaVhPyK5qLrLPc=","tags":{"ref":"229","office":"insurance","addr:full":"гр.Симеоновград бул. Крайречен, Автомивка Мания","addr:city":"гр. Симеоновград","addr:state":"Хасково","addr:country":"BG","name":"Симеоновград","phone":"+359 88 893 4269","email":"stzagora@iandgbrokers.com","brand":"I&G Brokers","brand:wikidata":"Q110399829"},"coordinates":[42.0349858,25.8310015]},"tags_mismatch":false,"dist":0},{"osm":false,"atp":{"id":"2sdHNBu3pdk0coMqELRUVPCeSC0=","tags":{"ref":"230","office":"insurance","addr:full":"Бул. България 88 УПИ II Пазара, № 6","addr:city":"гр. Стрелча","addr:state":"Пазарджик","addr:country":"BG","name":"Стрелча","phone":"+359 88 760 6422","email":"strelcha@iandgbrokers.com","opening_hours":"Sa 09:00-13:00","brand":"I&G Brokers","brand:wikidata":"Q110399829"},"coordinates":[42.50284,24.32346]},"tags_mismatch":false,"dist":0},{"osm":false,"atp":{"id":"ftFqIliER31rLFM1FTHk9DKg0gc=","tags":{"ref":"231","office":"insurance","addr:full":"ул. Христо Ботев №1","addr:city":"гр. Тервел","addr:state":"Добрич","addr:country":"BG","name":"Tервел","phone":"+359 88 531 1862","email":"dulovo@iandgbrokers.com","brand":"I&G Brokers","brand:wikidata":"Q110399829"},"coordinates":[43.7476241,27.4084449]},"tags_mismatch":false,"dist":0},{"osm":false,"atp":{"id":"mbugefMCzXTQ7MzydlhQHzc1RTg=","tags":{"ref":"232","office":"insurance","addr:full":"ул. Трети Март № 60","addr:city":"гр. Търговище","addr:state":"Търговище","addr:country":"BG","name":"Търговище","phone":"+359 88 531 1756","email":"turgovishte@iandgbrokers.com","brand":"I&G Brokers","brand:wikidata":"Q110399829"},"coordinates":[43.2378426,26.5563761]},"tags_mismatch":false,"dist":0},{"osm":false,"atp":{"id":"tERXOBAuo3UOFbDzyqX_tDefpTQ=","tags":{"ref":"233","office":"insurance","addr:full":"ул. Д-р Жеков № 6","addr:city":"с. Гълъбово","addr:state":"Пловдив","addr:country":"BG","name":"Гълъбово","phone":"+359 87 813 8073","email":"harmanli@iandgbrokers.com","brand":"I&G Brokers","brand:wikidata":"Q110399829"},"coordinates":[42.1384902,25.8700014]},"tags_mismatch":false,"dist":0},{"osm":false,"atp":{"id":"_wAtKtoLfHH_PRVU_0mywWiOUQ0=","tags":{"ref":"234","office":"insurance","addr:full":"бул. Георги Димитров УПИ XIII кв.127","addr:city":"гр. Чирпан","addr:state":"Стара Загора","addr:country":"BG","name":"Чирпан","phone":"+359 89 448 1450","email":"chirpan@iandgbrokers.com","brand":"I&G Brokers","brand:wikidata":"Q110399829"},"coordinates":[42.1983729,25.330044]},"tags_mismatch":false,"dist":0},{"osm":false,"atp":{"id":"2dSq9l5o_bEgeAcMbTRV5t5Z-RA=","tags":{"ref":"235","office":"insurance","addr:full":"ул. Парчевич 11, магазин 1, проектански офис","addr:city":"гр. Шумен","addr:state":"Шумен","addr:country":"BG","name":"Шумен","phone":"+359 88 847 4368","email":"shumen@iandgbrоkеrs.com","brand":"I&G Brokers","brand:wikidata":"Q110399829"},"coordinates":[43.277589,26.9187269]},"tags_mismatch":false,"dist":0},{"osm":false,"atp":{"id":"znESQc7O9JV02FMQ4idWidn9b9Q=","tags":{"ref":"236","office":"insurance","addr:full":"пл. Двадесет и трети септември № 2","addr:city":"с. Никола Козлево","addr:state":"Шумен","addr:country":"BG","name":"с. Никола Козлево","phone":"+359 88 847 4368","email":"shumen@iandgbrоkеrs.com","brand":"I&G Brokers","brand:wikidata":"Q110399829"},"coordinates":[43.5742857,27.2276989]},"tags_mismatch":false,"dist":0},{"osm":false,"atp":{"id":"0LtIxFv4DDoeXXOrR_OPJXO71x0=","tags":{"ref":"237","office":"insurance","addr:full":"ул. Дружба № 2, област Шумен","addr:city":"с. Хитрино","addr:state":"Шумен","addr:country":"BG","name":"с. Хитроно","phone":"+359 88 847 4368","email":"shumen@iandgbrоkеrs.com","brand":"I&G Brokers","brand:wikidata":"Q110399829"},"coordinates":[43.4252494,26.9129855]},"tags_mismatch":false,"dist":0},{"osm":false,"atp":{"id":"k8vcesOZdZbZVBOO6Xp2vXRPHgw=","tags":{"ref":"239","office":"insurance","addr:full":"ул. Цанко Царковски № 12","addr:city":"гр. Плевен","addr:state":"Плевен","addr:country":"BG","name":"Плевен","phone":"+359 88 874 6622","email":"pleven@iandgbrokers.com","opening_hours":"Mo-Fr 08:30-17:30","brand":"I&G Brokers","brand:wikidata":"Q110399829"},"coordinates":[43.4111039,24.6171035]},"tags_mismatch":false,"dist":0},{"osm":false,"atp":{"id":"csxGI16vmPqV_kLA5XL68ulITPo=","tags":{"ref":"240","office":"insurance","addr:full":"ул. Неофит Бозвели 15","addr:city":"гр. Варна","addr:state":"Варна","addr:country":"BG","name":"Варна","phone":"+359 88 831 2705","email":"varna1@iandgbrokers.com","opening_hours":"Mo-Fr 09:00-18:00","brand":"I&G Brokers","brand:wikidata":"Q110399829"},"coordinates":[43.2109028,27.9052193]},"tags_mismatch":false,"dist":0},{"osm":false,"atp":{"id":"OBTj-7VjN8-3x95dN-D2LlG4WpI=","tags":{"ref":"241","office":"insurance","addr:full":"ул. Брегалница № 16","addr:city":"гр. Варна","addr:state":"Варна","addr:country":"BG","name":"Варна","phone":"+359 89 677 4727","email":"varna3@iandgbrokers.com","opening_hours":"Mo-Fr 08:30-17:00","brand":"I&G Brokers","brand:wikidata":"Q110399829"},"coordinates":[43.21621349999999,27.9163941]},"tags_mismatch":false,"dist":0},{"osm":false,"atp":{"id":"lpy9rgmIw-UW8nHtPpmFuEZZFFE=","tags":{"ref":"242","office":"insurance","addr:full":"кв. Красно село бл.45. офис 9 / срещу Първо районно управление на МВР/","addr:city":"гр. Перник","addr:state":"Перник","addr:country":"BG","name":"Перник","phone":"+359 89 782 7089","email":"milena.marinova@iandgbrokers.com","opening_hours":"Mo-Su 08:00-17:30","brand":"I&G Brokers","brand:wikidata":"Q110399829"},"coordinates":[42.611255,23.029982]},"tags_mismatch":false,"dist":0},{"osm":false,"atp":{"id":"OiRbhS3HhAm7JmMF-WYtEqRYnAs=","tags":{"ref":"244","office":"insurance","addr:full":"ул. Васил Левски 43","addr:city":"с. Старцево","addr:state":"Смолян","addr:country":"BG","name":"с. Старцево","phone":"+359 88 531 1858","email":"startsevo@iandgbrokers.com","opening_hours":"Mo-Fr 09:00-18:00","brand":"I&G Brokers","brand:wikidata":"Q110399829"},"coordinates":[41.4307496,25.0516609]},"tags_mismatch":false,"dist":0},{"osm":false,"atp":{"id":"BulQmVtpJ2H2dhUZFAxDKh-z34g=","tags":{"ref":"245","office":"insurance","addr:full":"ул. Калофер № 5","addr:city":"гр. Бургас","addr:state":"Бургас","addr:country":"BG","name":"Бургас","phone":"+359 88 867 3710","email":"burgas@iandgbrokers.com","opening_hours":"Mo-Fr 09:00-18:00; Sa 09:00-14:00","brand":"I&G Brokers","brand:wikidata":"Q110399829"},"coordinates":[42.507354,27.473411]},"tags_mismatch":false,"dist":0},{"osm":false,"atp":{"id":"lz9ue2BsUu_EzzIsijzWd4AujZE=","tags":{"ref":"247","office":"insurance","addr:full":"ул. Екзарх Йосиф № 44","addr:city":"гр. Враца","addr:state":"Враца","addr:country":"BG","name":"Враца","phone":"+359 88 531 1858","email":"office@iandgbrokers.com","opening_hours":"Mo-Fr 09:00-18:00","brand":"I&G Brokers","brand:wikidata":"Q110399829"},"coordinates":[43.20549922826113,23.559771386542877]},"tags_mismatch":false,"dist":0},{"osm":false,"atp":{"id":"aGMgsmXTApueU2B_8peHRcey98Y=","tags":{"ref":"248","office":"insurance","addr:full":"ул. Рокфелер № 41","addr:city":"гр. Петрич","addr:state":"Благоевград","addr:country":"BG","name":"Петрич","phone":"+359 88 888 1995","email":"sandanski@iandgbrokers.com","opening_hours":"Mo-Fr 09:00-18:00","brand":"I&G Brokers","brand:wikidata":"Q110399829"},"coordinates":[41.39750497685455,23.216483910434267]},"tags_mismatch":false,"dist":0},{"osm":false,"atp":{"id":"JVRDLx68yC0zaZbO1vJQ46nQb_g=","tags":{"ref":"250","office":"insurance","addr:full":"бул.България 2","addr:city":"гр. Сливо поле","addr:state":"Русе","addr:country":"BG","name":"Сливо поле","phone":"+359 88 603 3309","email":"slivo.pole@iandgbrokers.com","brand":"I&G Brokers","brand:wikidata":"Q110399829"},"coordinates":[43.941237599549666,26.206060652392566]},"tags_mismatch":false,"dist":0},{"osm":false,"atp":{"id":"yQRznNYmPMZQrovr1e1P0Ut6Plk=","tags":{"ref":"251","office":"insurance","addr:full":"ул.Иван Вазов 4","addr:city":"гр. Тетевен","addr:state":"Ловеч","addr:country":"BG","name":"Тетевен","phone":"+359 88 580 0259","email":"teteven@iandgbrokers.com","brand":"I&G Brokers","brand:wikidata":"Q110399829"},"coordinates":[42.9180949,24.2616364]},"tags_mismatch":false,"dist":0},{"osm":false,"atp":{"id":"K73O5ueBszhQNdavfEKE9RRS1Io=","tags":{"ref":"252","office":"insurance","addr:full":"ул. Опълченска 1","addr:city":"гр. Карлово","addr:state":"Пловдив","addr:country":"BG","name":"Карлово","phone":"+359 88 226 6796","email":"s.voynikov@iandgbrokers.com","brand":"I&G Brokers","brand:wikidata":"Q110399829"},"coordinates":[42.6464776,24.8078954]},"tags_mismatch":false,"dist":0},{"osm":false,"atp":{"id":"YA_h3Au87n5CPb1Ndtc3RlC0cQE=","tags":{"ref":"253","office":"insurance","addr:full":"бул.Александър Стамболийски 165","addr:city":"гр. София","addr:state":"София-град","addr:country":"BG","name":"София","phone":"+359 88 531 1858","email":"dillyan.angelov@iandgbrokers.com","brand":"I&G Brokers","brand:wikidata":"Q110399829"},"coordinates":[42.6996691,23.3016027]},"tags_mismatch":false,"dist":0},{"osm":false,"atp":{"id":"6_OYbpAzLorYvinUwIYdOwKX8ck=","tags":{"ref":"254","office":"insurance","addr:full":"ул. Христо Ботев №5","addr:city":"гр. Банско","addr:state":"Благоевград","addr:country":"BG","name":"Банско","phone":"+359 89 693 8893","email":"atanasov@iandgbrokers.com","brand":"I&G Brokers","brand:wikidata":"Q110399829"},"coordinates":[41.8378222,23.4873996]},"tags_mismatch":false,"dist":0},{"osm":false,"atp":{"id":"J17wSdzDg4yIFAM7i_bv9A26DYc=","tags":{"ref":"255","office":"insurance","addr:full":"гр. Дряново ул.Шипка 103","addr:city":"гр. Дряново","addr:state":"Габрово","addr:country":"BG","name":"Дряново","phone":"+359 88 531 0583","email":"gabrovo@iandgbrokers.com","brand":"I&G Brokers","brand:wikidata":"Q110399829"},"coordinates":[42.976381,25.4754132]},"tags_mismatch":false,"dist":0},{"osm":false,"atp":{"id":"BT716HMenowPxBRRUmaRlgKCNNQ=","tags":{"ref":"256","office":"insurance","addr:full":"кв. Средна кула, ул. Морава 18","addr:city":"гр. Русе","addr:state":"Русе","addr:country":"BG","name":"Русе","phone":"+359 89 453 4342","email":"t.doncheva@iandgbrokers.com","brand":"I&G Brokers","brand:wikidata":"Q110399829"},"coordinates":[43.8041521,25.9496752]},"tags_mismatch":false,"dist":0},{"osm":false,"atp":{"id":"DUEGn1GaeFnsSK9nt0sCcGjY0Eo=","tags":{"ref":"257","office":"insurance","addr:full":"ул. Цар Освободител № 83","addr:city":"гр. Ихтиман","addr:state":"Софийска област","addr:country":"BG","name":"Ихтиман","phone":"+359 88 531 1858","email":"ihtiman@iandgbrokers.com","brand":"I&G Brokers","brand:wikidata":"Q110399829"},"coordinates":[42.4407793,23.8146221]},"tags_mismatch":false,"dist":0},{"osm":false,"atp":{"id":"UpcZeV3Owe-0lwaE4q0XtbmKy_0=","tags":{"ref":"258","office":"insurance","addr:full":"ул. Иван Вазов № 1","addr:city":"с. Драгиново","addr:state":"Пазарджик","addr:country":"BG","name":"Драгиново","phone":"+359 88 531 1858","email":"draginovo@iandgbrokers.com","brand":"I&G Brokers","brand:wikidata":"Q110399829"},"coordinates":[42.0664924,24.0126959]},"tags_mismatch":false,"dist":0},{"osm":false,"atp":{"id":"b7Zzq2CNPES35H_L6tuulV0r3zw=","tags":{"ref":"259","office":"insurance","addr:full":"ул. Димитровградска 5","addr:city":"с. Радиево","addr:state":"Хасково","addr:country":"BG","name":"с. Радиево","phone":"+359 89 980 4181","email":"y.dancheva@iandgbrokers.com","brand":"I&G Brokers","brand:wikidata":"Q110399829"},"coordinates":[42.0953149,25.6243069]},"tags_mismatch":false,"dist":0},{"osm":false,"atp":{"id":"vazKZ9Jcv6PZv2KrXlcH0Uu5PfE=","tags":{"ref":"260","office":"insurance","addr:full":"ул. Георги Петлешев 48","addr:city":"гр. Аксаково","addr:state":"Варна","addr:country":"BG","name":"Аксаково","phone":"+359 88 892 7011","email":"y.chemshirov@iandgbrokers.com","brand":"I&G Brokers","brand:wikidata":"Q110399829"},"coordinates":[43.25783089999999,27.818571]},"tags_mismatch":false,"dist":0}]}