{"metadata":{"type":"brand","wikidata":"Q108169047","name":"Lidl","compare_keys":["opening_hours"]},"data":[{"osm":{"type":"node","id":470821079,"tags":{"addr:city":"Севлиево","addr:housenumber":"41А","addr:postcode":"5400","addr:street":"Никола Петков","brand":"Lidl","brand:wikidata":"Q108169047","name:ro":"Lidl","opening_hours":"Mo-Sa 08:00-20:30; Su 09:00-20:30","shop":"supermarket"},"wikidata":"Q108169047","coordinates":[43.0220455,25.0950242]},"atp":{"id":"vC-hS7La5L-qHdFQ2CPIFCyDSTY=","tags":{"ref":"815","shop":"supermarket","@source_uri":"https://spatial.virtualearth.net/REST/v1/data/04982a582660451a8e08b705855a1008/Filialdaten-BG/Filialdaten-BG?key=AkK9Xgxa6n1ly8c3xz1ntR6ojGGT3h-hys5yW7P9xHpJS2FycVLoYxLo_eeFR69o&$filter=Adresstyp%20Eq%201&$select=*&$format=json&$top=250&$skip=0","@spider":"lidl_bg","addr:street_address":"ул. Никола Петков 41A","addr:city":"Севлиево","addr:postcode":"5400","addr:country":"BG","brand":"Lidl","brand:wikidata":"Q151954","nsi_id":"-1"},"coordinates":[43.02162,25.09434]},"dist":73.023,"tags_mismatch":false},{"osm":{"type":"node","id":1671334380,"tags":{"addr:city":"София","addr:housenumber":"525","addr:postcode":"1839","addr:street":"бул. Ботевградско шосе","brand":"Lidl","brand:wikidata":"Q108169047","check_date":"2022-10-26","contact:facebook":"https://facebook.com/lidlbulgaria","opening_hours":"Mo-Su 09:00-21:30","payment:mastercard":"yes","payment:visa":"yes","shop":"supermarket","website":"https://www.lidl.bg/"},"wikidata":"Q108169047","coordinates":[42.7094425,23.4587502]},"atp":{"id":"6jmMrsJW3vApK-rCHMWoPiekXpY=","tags":{"ref":"142","shop":"supermarket","@source_uri":"https://spatial.virtualearth.net/REST/v1/data/04982a582660451a8e08b705855a1008/Filialdaten-BG/Filialdaten-BG?key=AkK9Xgxa6n1ly8c3xz1ntR6ojGGT3h-hys5yW7P9xHpJS2FycVLoYxLo_eeFR69o&$filter=Adresstyp%20Eq%201&$select=*&$format=json&$top=250&$skip=0","@spider":"lidl_bg","addr:street_address":"бул. Ботевградско Шосе 521-525","addr:city":"София","addr:postcode":"1839","addr:country":"BG","brand":"Lidl","brand:wikidata":"Q151954","nsi_id":"-1"},"coordinates":[42.70944,23.4587]},"dist":4.111,"tags_mismatch":false},{"osm":{"type":"node","id":2182326391,"tags":{"addr:city":"София","addr:housenumber":"3","addr:postcode":"1113","addr:street":"Николай Хайтов","brand":"Lidl","brand:wikidata":"Q108169047","opening_hours":"Mo-Sa 07:30-22:00; Su 09:00-21:30","payment:cash":"yes","payment:credit_cards":"yes","phone":"+359 800 14141","shop":"supermarket","website":"https://www.lidl.bg/","wheelchair":"yes"},"wikidata":"Q108169047","coordinates":[42.6698508,23.3531513]},"atp":{"id":"brHJFfY2-T0IX2iQzFVpefeZrsU=","tags":{"ref":"124","shop":"supermarket","@source_uri":"https://spatial.virtualearth.net/REST/v1/data/04982a582660451a8e08b705855a1008/Filialdaten-BG/Filialdaten-BG?key=AkK9Xgxa6n1ly8c3xz1ntR6ojGGT3h-hys5yW7P9xHpJS2FycVLoYxLo_eeFR69o&$filter=Adresstyp%20Eq%201&$select=*&$format=json&$top=250&$skip=0","@spider":"lidl_bg","addr:street_address":"ул. Николай Хайтов 3","addr:city":"София","addr:postcode":"1113","addr:country":"BG","brand":"Lidl","brand:wikidata":"Q151954","nsi_id":"-1"},"coordinates":[42.66969,23.35325]},"dist":19.617,"tags_mismatch":false},{"osm":{"type":"node","id":2325107554,"tags":{"addr:city":"София","addr:postcode":"1407","brand":"Lidl","brand:wikidata":"Q108169047","opening_hours":"Mo-Sa 07:30-22:00; Su 09:00-21:30","shop":"supermarket","website":"https://www.lidl.bg/","wheelchair":"yes"},"wikidata":"Q108169047","coordinates":[42.6626041,23.3177837]},"atp":{"id":"3hwGQnRxbGJpq25Tl3mlKqotui4=","tags":{"ref":"171","shop":"supermarket","@source_uri":"https://spatial.virtualearth.net/REST/v1/data/04982a582660451a8e08b705855a1008/Filialdaten-BG/Filialdaten-BG?key=AkK9Xgxa6n1ly8c3xz1ntR6ojGGT3h-hys5yW7P9xHpJS2FycVLoYxLo_eeFR69o&$filter=Adresstyp%20Eq%201&$select=*&$format=json&$top=250&$skip=0","@spider":"lidl_bg","addr:street_address":"бул. Черни връх 47","addr:city":"София","addr:postcode":"1407","addr:country":"BG","brand":"Lidl","brand:wikidata":"Q151954","nsi_id":"-1"},"coordinates":[42.66284,23.31757]},"dist":31.518,"tags_mismatch":false},{"osm":{"type":"node","id":2498853736,"tags":{"addr:city":"София","addr:housenumber":"76","addr:postcode":"1632","addr:street":"бул. Президент Линкълн","brand":"Lidl","brand:wikidata":"Q108169047","opening_hours":"Mo-Sa 07:30-22:00; Su 08:30-21:30","shop":"supermarket","website":"https://www.lidl.bg/"},"wikidata":"Q108169047","coordinates":[42.6898622,23.2468413]},"atp":{"id":"oDEQBVKnpfxIOboX9wbFB4HrUtM=","tags":{"ref":"152","shop":"supermarket","@source_uri":"https://spatial.virtualearth.net/REST/v1/data/04982a582660451a8e08b705855a1008/Filialdaten-BG/Filialdaten-BG?key=AkK9Xgxa6n1ly8c3xz1ntR6ojGGT3h-hys5yW7P9xHpJS2FycVLoYxLo_eeFR69o&$filter=Adresstyp%20Eq%201&$select=*&$format=json&$top=250&$skip=0","@spider":"lidl_bg","addr:street_address":"ул. Президент Линкълн 76","addr:city":"София","addr:postcode":"1632","addr:country":"BG","brand":"Lidl","brand:wikidata":"Q151954","nsi_id":"-1"},"coordinates":[42.68954,23.24667]},"dist":38.466,"tags_mismatch":false},{"osm":{"type":"node","id":2647653973,"tags":{"addr:city":"София","addr:housenumber":"1В","addr:postcode":"1510","addr:street":"Резбарска","brand":"Lidl","brand:wikidata":"Q108169047","opening_hours":"Mo-Sa 07:30-22:00; Su 08:30-21:30","shop":"supermarket","website":"https://www.lidl.bg/"},"wikidata":"Q108169047","coordinates":[42.7086006,23.3428427]},"atp":{"id":"htQqQPA-z_pkwZxec79dMbqcRwc=","tags":{"ref":"150","shop":"supermarket","@source_uri":"https://spatial.virtualearth.net/REST/v1/data/04982a582660451a8e08b705855a1008/Filialdaten-BG/Filialdaten-BG?key=AkK9Xgxa6n1ly8c3xz1ntR6ojGGT3h-hys5yW7P9xHpJS2FycVLoYxLo_eeFR69o&$filter=Adresstyp%20Eq%201&$select=*&$format=json&$top=250&$skip=0","@spider":"lidl_bg","addr:street_address":"ул. Резбарска 1В","addr:city":"София","addr:postcode":"1510","addr:country":"BG","brand":"Lidl","brand:wikidata":"Q151954","nsi_id":"-1"},"coordinates":[42.70865,23.34286]},"dist":5.672,"tags_mismatch":false},{"osm":{"type":"node","id":2992985434,"tags":{"addr:city":"София","addr:housenumber":"18","addr:postcode":"1715","addr:street":"Д-р Атанас Москов","brand":"Lidl","brand:wikidata":"Q108169047","opening_hours":"Mo-Sa 07:30-22:00; Su 08:30-21:30","shop":"supermarket","website":"https://www.lidl.bg/"},"wikidata":"Q108169047","coordinates":[42.6357663,23.3744045]},"atp":{"id":"c3V8XvwZJ70_1MWS1uEFX8T-JuU=","tags":{"ref":"102","shop":"supermarket","@source_uri":"https://spatial.virtualearth.net/REST/v1/data/04982a582660451a8e08b705855a1008/Filialdaten-BG/Filialdaten-BG?key=AkK9Xgxa6n1ly8c3xz1ntR6ojGGT3h-hys5yW7P9xHpJS2FycVLoYxLo_eeFR69o&$filter=Adresstyp%20Eq%201&$select=*&$format=json&$top=250&$skip=0","@spider":"lidl_bg","addr:street_address":"ул. Д-р Атанас Москов 18","addr:city":"София","addr:postcode":"1715","addr:country":"BG","brand":"Lidl","brand:wikidata":"Q151954","nsi_id":"-1"},"coordinates":[42.6363,23.3749]},"dist":71.866,"tags_mismatch":false},{"osm":{"type":"node","id":3167611861,"tags":{"brand":"Lidl","brand:wikidata":"Q108169047","check_date":"2024-09-02","opening_hours":"Mo-Sa 07:30-21:30; Su 09:00-21:30","phone":"+359 800 14141","shop":"supermarket","website":"https://www.lidl.bg/"},"wikidata":"Q108169047","coordinates":[42.7002616,23.3241332]},"atp":{"id":"SfA9Q3CriJMlZFn-LZOVCV6C2aU=","tags":{"ref":"167","shop":"supermarket","@source_uri":"https://spatial.virtualearth.net/REST/v1/data/04982a582660451a8e08b705855a1008/Filialdaten-BG/Filialdaten-BG?key=AkK9Xgxa6n1ly8c3xz1ntR6ojGGT3h-hys5yW7P9xHpJS2FycVLoYxLo_eeFR69o&$filter=Adresstyp%20Eq%201&$select=*&$format=json&$top=250&$skip=0","@spider":"lidl_bg","addr:street_address":"ул. Екзарх Йосиф 37","addr:city":"София","addr:postcode":"1000","addr:country":"BG","brand":"Lidl","brand:wikidata":"Q151954","nsi_id":"-1"},"coordinates":[42.70028,23.32412]},"dist":2.313,"tags_mismatch":false},{"osm":{"type":"node","id":3473445334,"tags":{"addr:city":"Сливен","addr:housenumber":"10","addr:postcode":"8806","addr:street":"бул. Стефан Стамболов","brand":"Lidl","brand:wikidata":"Q108169047","opening_hours":"Mo-Sa 08:00-21:00; Su 09:00-20:30","shop":"supermarket"},"wikidata":"Q108169047","coordinates":[42.6765581,26.3450857]},"atp":{"id":"u2a1NNHJswCwVPkjuvLuKoOom5M=","tags":{"ref":"110","shop":"supermarket","@source_uri":"https://spatial.virtualearth.net/REST/v1/data/04982a582660451a8e08b705855a1008/Filialdaten-BG/Filialdaten-BG?key=AkK9Xgxa6n1ly8c3xz1ntR6ojGGT3h-hys5yW7P9xHpJS2FycVLoYxLo_eeFR69o&$filter=Adresstyp%20Eq%201&$select=*&$format=json&$top=250&$skip=0","@spider":"lidl_bg","addr:street_address":"бул. Стефан Стамболов 10","addr:city":"Сливен","addr:postcode":"8806","addr:country":"BG","brand":"Lidl","brand:wikidata":"Q151954","nsi_id":"-1"},"coordinates":[42.6771,26.3453]},"dist":62.752,"tags_mismatch":false},{"osm":{"type":"node","id":3684779957,"tags":{"addr:city":"София","addr:housenumber":"30","addr:postcode":"1582","addr:street":"Димитър Пешев","brand":"Lidl","brand:wikidata":"Q108169047","opening_hours":"Mo-Sa 07:00-22:00; Su 08:00-21:30","shop":"supermarket","website":"https://www.lidl.bg/"},"wikidata":"Q108169047","coordinates":[42.6411056,23.4135246]},"atp":{"id":"nW4Ikr_JAosesx6OTkY4ZtCgRK8=","tags":{"ref":"145","shop":"supermarket","@source_uri":"https://spatial.virtualearth.net/REST/v1/data/04982a582660451a8e08b705855a1008/Filialdaten-BG/Filialdaten-BG?key=AkK9Xgxa6n1ly8c3xz1ntR6ojGGT3h-hys5yW7P9xHpJS2FycVLoYxLo_eeFR69o&$filter=Adresstyp%20Eq%201&$select=*&$format=json&$top=250&$skip=0","@spider":"lidl_bg","addr:street_address":"ул. Димитър Пешев 30","addr:city":"София","addr:postcode":"1582","addr:country":"BG","brand":"Lidl","brand:wikidata":"Q151954","nsi_id":"-1"},"coordinates":[42.64125,23.41317]},"dist":33.153,"tags_mismatch":false},{"osm":{"type":"node","id":3783832915,"tags":{"addr:city":"София","addr:housenumber":"128","addr:postcode":"1000","addr:street":"Георги С. Раковски","brand":"Lidl","brand:wikidata":"Q108169047","check_date":"2024-01-28","opening_hours":"Mo-Sa 07:30-21:30; Su 08:30-21:30","shop":"supermarket","website":"https://www.lidl.bg/"},"wikidata":"Q108169047","coordinates":[42.6904446,23.3232461]},"atp":{"id":"dGF_n77FoEE61Ds-E7AHWH1jTB0=","tags":{"ref":"177","shop":"supermarket","@source_uri":"https://spatial.virtualearth.net/REST/v1/data/04982a582660451a8e08b705855a1008/Filialdaten-BG/Filialdaten-BG?key=AkK9Xgxa6n1ly8c3xz1ntR6ojGGT3h-hys5yW7P9xHpJS2FycVLoYxLo_eeFR69o&$filter=Adresstyp%20Eq%201&$select=*&$format=json&$top=250&$skip=0","@spider":"lidl_bg","addr:street_address":"ул. Георги С. Раковски 128","addr:city":"София","addr:postcode":"1000","addr:country":"BG","brand":"Lidl","brand:wikidata":"Q151954","nsi_id":"-1"},"coordinates":[42.69052,23.32324]},"dist":8.399,"tags_mismatch":false},{"osm":{"type":"node","id":3867065957,"tags":{"addr:city":"Бургас","addr:postcode":"8001","brand":"Lidl","brand:wikidata":"Q108169047","opening_hours":"Mo-Sa 09:30-22:00; Su 09:30-21:30","shop":"supermarket","wheelchair":"yes"},"wikidata":"Q108169047","coordinates":[42.5123921,27.4550925]},"atp":{"id":"-Trh50T-967s09D-5TurYqfT-Ok=","tags":{"ref":"186","shop":"supermarket","@source_uri":"https://spatial.virtualearth.net/REST/v1/data/04982a582660451a8e08b705855a1008/Filialdaten-BG/Filialdaten-BG?key=AkK9Xgxa6n1ly8c3xz1ntR6ojGGT3h-hys5yW7P9xHpJS2FycVLoYxLo_eeFR69o&$filter=Adresstyp%20Eq%201&$select=*&$format=json&$top=250&$skip=0","@spider":"lidl_bg","addr:street_address":"Mall Galleria ул. Янко Комитов 6","addr:city":"Бургас","addr:postcode":"8001","addr:country":"BG","brand":"Lidl","brand:wikidata":"Q151954","nsi_id":"-1"},"coordinates":[42.51303,27.45501]},"dist":71.253,"tags_mismatch":false},{"osm":{"type":"node","id":5241045622,"tags":{"addr:city":"София","addr:housenumber":"1А","addr:postcode":"1700","addr:street":"Д-р Йордан Йосифов","brand":"Lidl","brand:wikidata":"Q108169047","opening_hours":"Mo-Sa 07:30-22:00; Su 09:30-22:00","shop":"supermarket","website":"https://www.lidl.bg/","wheelchair":"yes"},"wikidata":"Q108169047","coordinates":[42.6531085,23.3470887]},"atp":{"id":"Ypl-IcuK9z9f6dVU_r5wuqF3830=","tags":{"ref":"181","shop":"supermarket","@source_uri":"https://spatial.virtualearth.net/REST/v1/data/04982a582660451a8e08b705855a1008/Filialdaten-BG/Filialdaten-BG?key=AkK9Xgxa6n1ly8c3xz1ntR6ojGGT3h-hys5yW7P9xHpJS2FycVLoYxLo_eeFR69o&$filter=Adresstyp%20Eq%201&$select=*&$format=json&$top=250&$skip=0","@spider":"lidl_bg","addr:street_address":"ул. Йордан Йосифов 1A","addr:city":"София","addr:postcode":"1700","addr:country":"BG","brand":"Lidl","brand:wikidata":"Q151954","nsi_id":"-1"},"coordinates":[42.65326,23.34721]},"dist":19.55,"tags_mismatch":false},{"osm":{"type":"node","id":6024573750,"tags":{"addr:city":"София","addr:housenumber":"84","addr:postcode":"1336","addr:street":"бул. Царица Йоанна","brand":"Lidl","brand:wikidata":"Q108169047","opening_hours":"Mo-Sa 07:30-22:00; Su 08:30-22:00","shop":"supermarket","website":"https://www.lidl.bg/","wheelchair":"yes"},"wikidata":"Q108169047","coordinates":[42.7215757,23.2529445]},"atp":{"id":"sNKEIAmLfFFu5JPLEe7Z7D6nZmo=","tags":{"ref":"185","shop":"supermarket","@source_uri":"https://spatial.virtualearth.net/REST/v1/data/04982a582660451a8e08b705855a1008/Filialdaten-BG/Filialdaten-BG?key=AkK9Xgxa6n1ly8c3xz1ntR6ojGGT3h-hys5yW7P9xHpJS2FycVLoYxLo_eeFR69o&$filter=Adresstyp%20Eq%201&$select=*&$format=json&$top=250&$skip=0","@spider":"lidl_bg","addr:street_address":"бул. Царица Йоанна 84","addr:city":"София","addr:postcode":"1336","addr:country":"BG","brand":"Lidl","brand:wikidata":"Q151954","nsi_id":"-1"},"coordinates":[42.7215,23.25293]},"dist":8.5,"tags_mismatch":false},{"osm":{"type":"node","id":6402590356,"tags":{"addr:city":"Пловдив","addr:housenumber":"2Б","addr:postcode":"4023","addr:street":"бул. Менделеев","brand":"Lidl","brand:wikidata":"Q108169047","opening_hours":"Mo-Su 09:30-21:00","shop":"supermarket"},"wikidata":"Q108169047","coordinates":[42.1303538,24.7702351]},"atp":{"id":"ieflhTzIiQuIP8IoX2KF8X8YVQc=","tags":{"ref":"201","shop":"supermarket","@source_uri":"https://spatial.virtualearth.net/REST/v1/data/04982a582660451a8e08b705855a1008/Filialdaten-BG/Filialdaten-BG?key=AkK9Xgxa6n1ly8c3xz1ntR6ojGGT3h-hys5yW7P9xHpJS2FycVLoYxLo_eeFR69o&$filter=Adresstyp%20Eq%201&$select=*&$format=json&$top=250&$skip=0","@spider":"lidl_bg","addr:street_address":"бул. Менделеев 2Б","addr:city":"Пловдив","addr:postcode":"4023","addr:country":"BG","brand":"Lidl","brand:wikidata":"Q151954","nsi_id":"-1"},"coordinates":[42.1305,24.7701]},"dist":19.708,"tags_mismatch":false},{"osm":{"type":"node","id":6575484072,"tags":{"addr:city":"София","addr:postcode":"1504","addr:street":"бул. Евлоги и Христо Георгиеви","brand":"Lidl","brand:wikidata":"Q108169047","opening_hours":"Mo-Sa 07:30-22:00; Su 09:00-21:30","shop":"supermarket","website":"https://www.lidl.bg/"},"wikidata":"Q108169047","coordinates":[42.695101,23.3462859]},"atp":{"id":"KJgQRfNQ211ykIzP6umHxb-eoN0=","tags":{"ref":"199","shop":"supermarket","@source_uri":"https://spatial.virtualearth.net/REST/v1/data/04982a582660451a8e08b705855a1008/Filialdaten-BG/Filialdaten-BG?key=AkK9Xgxa6n1ly8c3xz1ntR6ojGGT3h-hys5yW7P9xHpJS2FycVLoYxLo_eeFR69o&$filter=Adresstyp%20Eq%201&$select=*&$format=json&$top=250&$skip=0","@spider":"lidl_bg","addr:street_address":"бул. Евлоги и Христо Георгиеви 169","addr:city":"София","addr:postcode":"1504","addr:country":"BG","brand":"Lidl","brand:wikidata":"Q151954","nsi_id":"-1"},"coordinates":[42.69532,23.34606]},"dist":30.559,"tags_mismatch":false},{"osm":{"type":"node","id":6578913576,"tags":{"addr:city":"София","addr:housenumber":"152","addr:postcode":"1505","addr:street":"бул. Васил Левски","branch":"Сточна гара","brand":"Lidl","brand:wikidata":"Q108169047","opening_hours":"Mo-Sa 07:30-22:00; Su 09:00-22:00","shop":"supermarket","website":"https://www.lidl.bg/"},"wikidata":"Q108169047","coordinates":[42.704385,23.3336949]},"atp":{"id":"_NgPLPJktKucmhxkLQZAvSuw2PQ=","tags":{"ref":"197","shop":"supermarket","@source_uri":"https://spatial.virtualearth.net/REST/v1/data/04982a582660451a8e08b705855a1008/Filialdaten-BG/Filialdaten-BG?key=AkK9Xgxa6n1ly8c3xz1ntR6ojGGT3h-hys5yW7P9xHpJS2FycVLoYxLo_eeFR69o&$filter=Adresstyp%20Eq%201&$select=*&$format=json&$top=250&$skip=0","@spider":"lidl_bg","addr:street_address":"бул. Васил Левски 152","addr:city":"София","addr:postcode":"1505","addr:country":"BG","brand":"Lidl","brand:wikidata":"Q151954","nsi_id":"-1"},"coordinates":[42.70446,23.33365]},"dist":9.111,"tags_mismatch":false},{"osm":{"type":"node","id":6814489564,"tags":{"addr:city":"Пловдив","addr:housenumber":"115А","addr:postcode":"2000","addr:street":"бул. България","brand":"Lidl","brand:wikidata":"Q108169047","internet_access":"wlan","level":"1","opening_hours":"Mo-Sa 07:30-21:30; Su 09:00-21:30","shop":"supermarket","toilets":"no","wheelchair":"yes"},"wikidata":"Q108169047","coordinates":[42.1573869,24.7285061]},"atp":{"id":"mCDMCki5JDDHSJiyIlGN0RNbra0=","tags":{"ref":"196","shop":"supermarket","@source_uri":"https://spatial.virtualearth.net/REST/v1/data/04982a582660451a8e08b705855a1008/Filialdaten-BG/Filialdaten-BG?key=AkK9Xgxa6n1ly8c3xz1ntR6ojGGT3h-hys5yW7P9xHpJS2FycVLoYxLo_eeFR69o&$filter=Adresstyp%20Eq%201&$select=*&$format=json&$top=250&$skip=0","@spider":"lidl_bg","addr:street_address":"бул. България 115А","addr:city":"Пловдив","addr:postcode":"2000","addr:country":"BG","brand":"Lidl","brand:wikidata":"Q151954","nsi_id":"-1"},"coordinates":[42.15716,24.72825]},"dist":32.897,"tags_mismatch":false},{"osm":{"type":"node","id":6906517685,"tags":{"brand":"Lidl","brand:wikidata":"Q108169047","opening_hours":"Mo-Sa 07:30-21:30; Su 09:30-21:00","self_checkout":"yes","shop":"supermarket","website":"https://www.lidl.bg/","wheelchair":"yes"},"wikidata":"Q108169047","coordinates":[42.6948755,23.3218631]},"atp":{"id":"UUJBNGrnpH9lQF6eAOb__Vk47sw=","tags":{"ref":"198","shop":"supermarket","@source_uri":"https://spatial.virtualearth.net/REST/v1/data/04982a582660451a8e08b705855a1008/Filialdaten-BG/Filialdaten-BG?key=AkK9Xgxa6n1ly8c3xz1ntR6ojGGT3h-hys5yW7P9xHpJS2FycVLoYxLo_eeFR69o&$filter=Adresstyp%20Eq%201&$select=*&$format=json&$top=250&$skip=0","@spider":"lidl_bg","addr:street_address":"ул. Алабин 35","addr:city":"София","addr:postcode":"1000","addr:country":"BG","brand":"Lidl","brand:wikidata":"Q151954","nsi_id":"-1"},"coordinates":[42.69484,23.32201]},"dist":12.638,"tags_mismatch":false},{"osm":{"type":"node","id":7771008096,"tags":{"addr:city":"Варна","addr:postcode":"9000","brand":"Lidl","brand:wikidata":"Q108169047","opening_hours":"Mo-Sa 07:30-22:00; Su 08:30-22:00","shop":"supermarket","website":"https://lidl.bg","wheelchair":"yes"},"wikidata":"Q108169047","coordinates":[43.224706,27.9307208]},"atp":{"id":"Y_BETCamwByknj-cINkFzhZ1Ixs=","tags":{"ref":"169","shop":"supermarket","@source_uri":"https://spatial.virtualearth.net/REST/v1/data/04982a582660451a8e08b705855a1008/Filialdaten-BG/Filialdaten-BG?key=AkK9Xgxa6n1ly8c3xz1ntR6ojGGT3h-hys5yW7P9xHpJS2FycVLoYxLo_eeFR69o&$filter=Adresstyp%20Eq%201&$select=*&$format=json&$top=250&$skip=0","@spider":"lidl_bg","addr:street_address":"ул. Мир 45","addr:city":"Варна","addr:postcode":"9000","addr:country":"BG","brand":"Lidl","brand:wikidata":"Q151954","nsi_id":"-1"},"coordinates":[43.22498,27.93054]},"dist":33.806,"tags_mismatch":false},{"osm":{"type":"node","id":7804149419,"tags":{"addr:city":"Гоце Делчев","addr:postcode":"2900","brand":"Lidl","brand:wikidata":"Q108169047","opening_hours":"Mo-Sa 08:30-21:00; Su 09:00-21:00","shop":"supermarket"},"wikidata":"Q108169047","coordinates":[41.5754007,23.7441051]},"atp":{"id":"6SPdgXSuxqXhvgyS5YvA1HaJin4=","tags":{"ref":"801","shop":"supermarket","@source_uri":"https://spatial.virtualearth.net/REST/v1/data/04982a582660451a8e08b705855a1008/Filialdaten-BG/Filialdaten-BG?key=AkK9Xgxa6n1ly8c3xz1ntR6ojGGT3h-hys5yW7P9xHpJS2FycVLoYxLo_eeFR69o&$filter=Adresstyp%20Eq%201&$select=*&$format=json&$top=250&$skip=0","@spider":"lidl_bg","addr:street_address":"ул. Панаирски ливади 2","addr:city":"Гоце Делчев","addr:postcode":"2900","addr:country":"BG","brand":"Lidl","brand:wikidata":"Q151954","nsi_id":"-1"},"coordinates":[41.5757,23.74429]},"dist":36.663,"tags_mismatch":false},{"osm":{"type":"node","id":9093654120,"tags":{"addr:city":"Пловдив","addr:postcode":"4004","brand":"Lidl","brand:wikidata":"Q108169047","opening_hours":"Mo-Sa 07:30-22:00; Su 08:30-21:30","shop":"supermarket"},"wikidata":"Q108169047","coordinates":[42.1223509,24.7401166]},"atp":{"id":"xwTL3krBpbq_TjaolbZXoA9dvx0=","tags":{"ref":"133","shop":"supermarket","@source_uri":"https://spatial.virtualearth.net/REST/v1/data/04982a582660451a8e08b705855a1008/Filialdaten-BG/Filialdaten-BG?key=AkK9Xgxa6n1ly8c3xz1ntR6ojGGT3h-hys5yW7P9xHpJS2FycVLoYxLo_eeFR69o&$filter=Adresstyp%20Eq%201&$select=*&$format=json&$top=250&$skip=0","@spider":"lidl_bg","addr:street_address":"бул. Македония 97A","addr:city":"Пловдив","addr:postcode":"4004","addr:country":"BG","brand":"Lidl","brand:wikidata":"Q151954","nsi_id":"-1"},"coordinates":[42.12237,24.74021]},"dist":7.991,"tags_mismatch":false},{"osm":{"type":"node","id":10182554672,"tags":{"addr:city":"Пловдив","addr:housenumber":"105","addr:postcode":"4000","addr:street":"бул. Васил Левски","brand":"Lidl","brand:wikidata":"Q108169047","opening_hours":"Mo-Sa 09:00-21:00; Su 09:30-21:00","shop":"supermarket"},"wikidata":"Q108169047","coordinates":[42.1729337,24.7414347]},"atp":{"id":"RlW-L5aw0rlNqJDMp9eHFycvKD0=","tags":{"ref":"221","shop":"supermarket","@source_uri":"https://spatial.virtualearth.net/REST/v1/data/04982a582660451a8e08b705855a1008/Filialdaten-BG/Filialdaten-BG?key=AkK9Xgxa6n1ly8c3xz1ntR6ojGGT3h-hys5yW7P9xHpJS2FycVLoYxLo_eeFR69o&$filter=Adresstyp%20Eq%201&$select=*&$format=json&$top=250&$skip=0","@spider":"lidl_bg","addr:street_address":"бул. Васил Левски 105","addr:city":"Пловдив","addr:postcode":"4003","addr:country":"BG","brand":"Lidl","brand:wikidata":"Q151954","nsi_id":"-1"},"coordinates":[42.17308,24.74129]},"dist":20.17,"tags_mismatch":false},{"osm":{"type":"node","id":10287417740,"tags":{"addr:city":"Шумен","addr:postcode":"9700","brand":"Lidl","brand:wikidata":"Q108169047","opening_hours":"Mo-Sa 08:00-21:00; Su 09:00-20:30","shop":"supermarket"},"wikidata":"Q108169047","coordinates":[43.2784916,26.9086908]},"atp":{"id":"OAhaY7sEd0e7lv5XxCwnjlB-7VQ=","tags":{"ref":"845","shop":"supermarket","@source_uri":"https://spatial.virtualearth.net/REST/v1/data/04982a582660451a8e08b705855a1008/Filialdaten-BG/Filialdaten-BG?key=AkK9Xgxa6n1ly8c3xz1ntR6ojGGT3h-hys5yW7P9xHpJS2FycVLoYxLo_eeFR69o&$filter=Adresstyp%20Eq%201&$select=*&$format=json&$top=250&$skip=0","@spider":"lidl_bg","addr:street_address":"ул. Генерал Драгомиров 18","addr:city":"Шумен","addr:postcode":"9700","addr:country":"BG","brand":"Lidl","brand:wikidata":"Q151954","nsi_id":"-1"},"coordinates":[43.27828,26.90861]},"dist":24.421,"tags_mismatch":false},{"osm":{"type":"node","id":10982942136,"tags":{"addr:city":"Перник","addr:postcode":"2306","brand":"Lidl","brand:wikidata":"Q108169047","opening_hours":"Mo-Su 09:30-20:30","shop":"supermarket"},"wikidata":"Q108169047","coordinates":[42.6018356,23.0494848]},"atp":{"id":"xQ9QKkB4V_lnuUI4gKtS9VHmJdQ=","tags":{"ref":"225","shop":"supermarket","@source_uri":"https://spatial.virtualearth.net/REST/v1/data/04982a582660451a8e08b705855a1008/Filialdaten-BG/Filialdaten-BG?key=AkK9Xgxa6n1ly8c3xz1ntR6ojGGT3h-hys5yW7P9xHpJS2FycVLoYxLo_eeFR69o&$filter=Adresstyp%20Eq%201&$select=*&$format=json&$top=250&$skip=0","@spider":"lidl_bg","addr:street_address":"ул. Захари Зограф 159","addr:city":"Перник","addr:postcode":"2306","addr:country":"BG","brand":"Lidl","brand:wikidata":"Q151954","nsi_id":"-1"},"coordinates":[42.60206,23.04868]},"dist":70.439,"tags_mismatch":false},{"osm":{"type":"node","id":11171713012,"tags":{"addr:city":"София","addr:postcode":"1434","brand":"Lidl","brand:wikidata":"Q108169047","level":"-1","opening_hours":"Mo-Sa 09:30-22:00; Su 09:30-21:30","shop":"supermarket","wheelchair":"yes"},"wikidata":"Q108169047","coordinates":[42.6251868,23.3516212]},"atp":{"id":"5xC6BKVu-_7AU0g9m8JrV1xUVOQ=","tags":{"ref":"187","shop":"supermarket","@source_uri":"https://spatial.virtualearth.net/REST/v1/data/04982a582660451a8e08b705855a1008/Filialdaten-BG/Filialdaten-BG?key=AkK9Xgxa6n1ly8c3xz1ntR6ojGGT3h-hys5yW7P9xHpJS2FycVLoYxLo_eeFR69o&$filter=Adresstyp%20Eq%201&$select=*&$format=json&$top=250&$skip=0","@spider":"lidl_bg","addr:street_address":"Sofia Ring Mall ул. Околовръстен път 214","addr:city":"София","addr:postcode":"1434","addr:country":"BG","brand":"Lidl","brand:wikidata":"Q151954","nsi_id":"-1"},"coordinates":[42.62489,23.352]},"dist":45.274,"tags_mismatch":false},{"osm":{"type":"node","id":11181821715,"tags":{"addr:city":"София","addr:housenumber":"58","addr:postcode":"1505","addr:street":"бул. Княгиня Мария Луиза","brand":"Lidl","brand:wikidata":"Q108169047","opening_hours":"Mo-Sa 07:30-21:30; Su 09:00-21:00","phone":"+359 2 906 6444","shop":"supermarket","website":"https://lidl.bg"},"wikidata":"Q108169047","coordinates":[42.7042281,23.323884]},"atp":{"id":"d4e50cKHTBxMIkuSdULXnfBPoZo=","tags":{"ref":"218","shop":"supermarket","@source_uri":"https://spatial.virtualearth.net/REST/v1/data/04982a582660451a8e08b705855a1008/Filialdaten-BG/Filialdaten-BG?key=AkK9Xgxa6n1ly8c3xz1ntR6ojGGT3h-hys5yW7P9xHpJS2FycVLoYxLo_eeFR69o&$filter=Adresstyp%20Eq%201&$select=*&$format=json&$top=250&$skip=0","@spider":"lidl_bg","addr:street_address":"бул. Мария Луиза 58","addr:city":"София","addr:postcode":"1505","addr:country":"BG","brand":"Lidl","brand:wikidata":"Q151954","nsi_id":"-1"},"coordinates":[42.7042,23.32383]},"dist":5.407,"tags_mismatch":false},{"osm":{"type":"node","id":11255836521,"tags":{"addr:city":"Перник","addr:postcode":"2300","brand":"Lidl","brand:wikidata":"Q108169047","opening_hours":"Mo-Sa 08:00-21:00; Su 08:30-21:00","shop":"supermarket","website":"https://www.lidl.bg/"},"wikidata":"Q108169047","coordinates":[42.6052388,23.0363823]},"atp":{"id":"DuAMwbfNJyC9ngk9AjYQpA6aLEI=","tags":{"ref":"104","shop":"supermarket","@source_uri":"https://spatial.virtualearth.net/REST/v1/data/04982a582660451a8e08b705855a1008/Filialdaten-BG/Filialdaten-BG?key=AkK9Xgxa6n1ly8c3xz1ntR6ojGGT3h-hys5yW7P9xHpJS2FycVLoYxLo_eeFR69o&$filter=Adresstyp%20Eq%201&$select=*&$format=json&$top=250&$skip=0","@spider":"lidl_bg","addr:street_address":"ул. Г. С. Раковски 2","addr:city":"Перник","addr:postcode":"2300","addr:country":"BG","brand":"Lidl","brand:wikidata":"Q151954","nsi_id":"-1"},"coordinates":[42.60536,23.03632]},"dist":14.409,"tags_mismatch":false},{"osm":{"type":"node","id":11285569434,"tags":{"addr:city":"Карлово","addr:housenumber":"34","addr:postcode":"4300","addr:street":"Ген. Владимир Заимов","brand":"Lidl","brand:wikidata":"Q108169047","fixme":"verify position;add parking and buillding","opening_hours":"Mo-Sa 08:00-21:00; Su 09:00-21:00","shop":"supermarket"},"wikidata":"Q108169047","coordinates":[42.6327007,24.8007724]},"atp":{"id":"jvGF4K0mNCLwEiynA25POLGfE7M=","tags":{"ref":"223","shop":"supermarket","@source_uri":"https://spatial.virtualearth.net/REST/v1/data/04982a582660451a8e08b705855a1008/Filialdaten-BG/Filialdaten-BG?key=AkK9Xgxa6n1ly8c3xz1ntR6ojGGT3h-hys5yW7P9xHpJS2FycVLoYxLo_eeFR69o&$filter=Adresstyp%20Eq%201&$select=*&$format=json&$top=250&$skip=0","@spider":"lidl_bg","addr:street_address":"ул. Генерал Заимов 54","addr:city":"Карлово","addr:postcode":"4300","addr:country":"BG","brand":"Lidl","brand:wikidata":"Q151954","nsi_id":"-1"},"coordinates":[42.63274,24.80097]},"dist":16.745,"tags_mismatch":false},{"osm":{"type":"node","id":11704524038,"tags":{"addr:city":"Бургас","addr:postcode":"8008","brand":"Lidl","brand:wikidata":"Q108169047","opening_hours":"Mo-Sa 08:00-21:30; Su 09:00-21:00","shop":"supermarket"},"wikidata":"Q108169047","coordinates":[42.5271492,27.4532697]},"atp":{"id":"YeUeKjKv9n8DCb0Z7WuUDOHRPY8=","tags":{"ref":"230","shop":"supermarket","@source_uri":"https://spatial.virtualearth.net/REST/v1/data/04982a582660451a8e08b705855a1008/Filialdaten-BG/Filialdaten-BG?key=AkK9Xgxa6n1ly8c3xz1ntR6ojGGT3h-hys5yW7P9xHpJS2FycVLoYxLo_eeFR69o&$filter=Adresstyp%20Eq%201&$select=*&$format=json&$top=250&$skip=0","@spider":"lidl_bg","addr:street_address":"ж.к. Изгрев бл. 207","addr:city":"Бургас","addr:postcode":"8008","addr:country":"BG","brand":"Lidl","brand:wikidata":"Q151954","nsi_id":"-1"},"coordinates":[42.52716,27.45411]},"dist":68.87,"tags_mismatch":false},{"osm":{"type":"node","id":11723449705,"tags":{"brand":"Lidl","brand:wikidata":"Q108169047","shop":"supermarket"},"wikidata":"Q108169047","coordinates":[42.655695,23.5907072]},"atp":{"id":"Z6vh80qBmwDVVsuJU1hf-Xprwp8=","tags":{"ref":"235","shop":"supermarket","@source_uri":"https://spatial.virtualearth.net/REST/v1/data/04982a582660451a8e08b705855a1008/Filialdaten-BG/Filialdaten-BG?key=AkK9Xgxa6n1ly8c3xz1ntR6ojGGT3h-hys5yW7P9xHpJS2FycVLoYxLo_eeFR69o&$filter=Adresstyp%20Eq%201&$select=*&$format=json&$top=250&$skip=0","@spider":"lidl_bg","addr:street_address":"бул. Витоша 25","addr:city":"Елин Пелин","addr:postcode":"2100","addr:country":"BG","brand":"Lidl","brand:wikidata":"Q151954","nsi_id":"-1"},"coordinates":[42.65604,23.59034]},"dist":48.717,"tags_mismatch":false},{"osm":{"type":"node","id":12513965990,"tags":{"addr:city":"Бургас","brand":"Lidl","brand:wikidata":"Q108169047","opening_hours":"Mo-Sa 07:30-21:30; Su 08:30-21:00","shop":"supermarket"},"wikidata":"Q108169047","coordinates":[42.5046106,27.4729054]},"atp":{"id":"9x3-4QAcZeId_WpkZtvIrM90eXM=","tags":{"ref":"244","shop":"supermarket","@source_uri":"https://spatial.virtualearth.net/REST/v1/data/04982a582660451a8e08b705855a1008/Filialdaten-BG/Filialdaten-BG?key=AkK9Xgxa6n1ly8c3xz1ntR6ojGGT3h-hys5yW7P9xHpJS2FycVLoYxLo_eeFR69o&$filter=Adresstyp%20Eq%201&$select=*&$format=json&$top=250&$skip=0","@spider":"lidl_bg","addr:street_address":"бул. Демокрация, Chantrer Residence","addr:city":"Бургас","addr:postcode":"8000","addr:country":"BG","brand":"Lidl","brand:wikidata":"Q151954","nsi_id":"-1"},"coordinates":[42.50468,27.4729]},"dist":7.73,"tags_mismatch":false},{"osm":{"type":"way","id":48847859,"tags":{"addr:city":"Варна","addr:housenumber":"176","addr:postcode":"9000","addr:street":"бул. Сливница","brand":"Lidl","brand:wikidata":"Q108169047","building":"yes","building:levels":"1","opening_hours":"Mo-Sa 08:00-22:00; Su 08:30-21:30","payment:cards":"yes","payment:cash":"yes","payment:contactless":"yes","shop":"supermarket","wheelchair":"yes"},"wikidata":"Q108169047","coordinates":[43.2272627,27.8875074]},"atp":{"id":"SFsoI8_NCRAlu-2ExqQXHTs73YE=","tags":{"ref":"193","shop":"supermarket","@source_uri":"https://spatial.virtualearth.net/REST/v1/data/04982a582660451a8e08b705855a1008/Filialdaten-BG/Filialdaten-BG?key=AkK9Xgxa6n1ly8c3xz1ntR6ojGGT3h-hys5yW7P9xHpJS2FycVLoYxLo_eeFR69o&$filter=Adresstyp%20Eq%201&$select=*&$format=json&$top=250&$skip=0","@spider":"lidl_bg","addr:street_address":"бул. Сливница 176","addr:city":"Варна","addr:postcode":"9000","addr:country":"BG","brand":"Lidl","brand:wikidata":"Q151954","nsi_id":"-1"},"coordinates":[43.22699,27.88819]},"dist":63.073,"tags_mismatch":false},{"osm":{"type":"way","id":86129860,"tags":{"addr:city":"Стара Загора","addr:housenumber":"11","addr:postcode":"6008","addr:street":"Радецки","brand":"Lidl","brand:wikidata":"Q108169047","building":"yes","opening_hours":"Mo-Sa 07:30-21:30; Su 08:30-21:30","ref:vatin":"BG131071587","shop":"supermarket"},"wikidata":"Q108169047","coordinates":[42.4389807,25.6352511]},"atp":{"id":"6PjGPmYmFc3M8uEVmnHWo6IAUeo=","tags":{"ref":"134","shop":"supermarket","@source_uri":"https://spatial.virtualearth.net/REST/v1/data/04982a582660451a8e08b705855a1008/Filialdaten-BG/Filialdaten-BG?key=AkK9Xgxa6n1ly8c3xz1ntR6ojGGT3h-hys5yW7P9xHpJS2FycVLoYxLo_eeFR69o&$filter=Adresstyp%20Eq%201&$select=*&$format=json&$top=250&$skip=0","@spider":"lidl_bg","addr:street_address":"ул. Радецки 11","addr:city":"Стара Загора","addr:postcode":"6008","addr:country":"BG","brand":"Lidl","brand:wikidata":"Q151954","nsi_id":"-1"},"coordinates":[42.43895,25.63526]},"dist":3.491,"tags_mismatch":false},{"osm":{"type":"way","id":102799086,"tags":{"addr:city":"Пловдив","addr:postcode":"4002","brand":"Lidl","brand:wikidata":"Q108169047","building":"supermarket","opening_hours":"Mo-Sa 07:30-22:00; Su 08:30-21:30","shop":"supermarket"},"wikidata":"Q108169047","coordinates":[42.1397717,24.7253815]},"atp":{"id":"Dg9K5kxya5YCcKH_0LGPvY6AhR0=","tags":{"ref":"155","shop":"supermarket","@source_uri":"https://spatial.virtualearth.net/REST/v1/data/04982a582660451a8e08b705855a1008/Filialdaten-BG/Filialdaten-BG?key=AkK9Xgxa6n1ly8c3xz1ntR6ojGGT3h-hys5yW7P9xHpJS2FycVLoYxLo_eeFR69o&$filter=Adresstyp%20Eq%201&$select=*&$format=json&$top=250&$skip=0","@spider":"lidl_bg","addr:street_address":"бул. Пещерско шосе 34","addr:city":"Пловдив","addr:postcode":"4002","addr:country":"BG","brand":"Lidl","brand:wikidata":"Q151954","nsi_id":"-1"},"coordinates":[42.1397,24.7253]},"dist":10.427,"tags_mismatch":false},{"osm":{"type":"way","id":103439373,"tags":{"addr:city":"Варна","addr:housenumber":"62","addr:postcode":"9020","addr:street":"бул. Република","branch":"Възраждане","brand":"Lidl","brand:wikidata":"Q108169047","building":"yes","int_name":"Lidl","opening_hours":"Mo-Sa 07:30-22:00; Su 08:30-21:30","shop":"supermarket","wheelchair":"yes"},"wikidata":"Q108169047","coordinates":[43.2365683,27.8821968]},"atp":{"id":"QR5D4z7d9heA03Q8espS7VdMlsc=","tags":{"ref":"115","shop":"supermarket","@source_uri":"https://spatial.virtualearth.net/REST/v1/data/04982a582660451a8e08b705855a1008/Filialdaten-BG/Filialdaten-BG?key=AkK9Xgxa6n1ly8c3xz1ntR6ojGGT3h-hys5yW7P9xHpJS2FycVLoYxLo_eeFR69o&$filter=Adresstyp%20Eq%201&$select=*&$format=json&$top=250&$skip=0","@spider":"lidl_bg","addr:street_address":"бул. Република 62","addr:city":"Варна","addr:postcode":"9020","addr:country":"BG","brand":"Lidl","brand:wikidata":"Q151954","nsi_id":"-1"},"coordinates":[43.23635,27.88164]},"dist":51.223,"tags_mismatch":false},{"osm":{"type":"way","id":114119222,"tags":{"addr:city":"Пловдив","addr:postcode":"4023","brand":"Lidl","brand:wikidata":"Q108169047","building":"yes","opening_hours":"Mo-Sa 07:30-22:00; Su 08:30-21:30","shop":"supermarket"},"wikidata":"Q108169047","coordinates":[42.1363814,24.7926986]},"atp":{"id":"lBcPVi0GzJv1iqnqE7mNe9R5Kf4=","tags":{"ref":"151","shop":"supermarket","@source_uri":"https://spatial.virtualearth.net/REST/v1/data/04982a582660451a8e08b705855a1008/Filialdaten-BG/Filialdaten-BG?key=AkK9Xgxa6n1ly8c3xz1ntR6ojGGT3h-hys5yW7P9xHpJS2FycVLoYxLo_eeFR69o&$filter=Adresstyp%20Eq%201&$select=*&$format=json&$top=250&$skip=0","@spider":"lidl_bg","addr:street_address":"бул. Освобождение 43","addr:city":"Пловдив","addr:postcode":"4023","addr:country":"BG","brand":"Lidl","brand:wikidata":"Q151954","nsi_id":"-1"},"coordinates":[42.13631,24.79249]},"dist":18.944,"tags_mismatch":false},{"osm":{"type":"way","id":116742942,"tags":{"addr:city":"Плевен","addr:postcode":"5803","brand":"Lidl","brand:wikidata":"Q108169047","building":"retail","int_name":"Lidl","opening_hours":"Mo-Sa 07:30-21:30; Su 08:30-21:00","shop":"supermarket"},"wikidata":"Q108169047","coordinates":[43.4137906,24.6337772]},"atp":{"id":"xjugmhghdvHV4uOUCxx7oAzYlEU=","tags":{"ref":"111","shop":"supermarket","@source_uri":"https://spatial.virtualearth.net/REST/v1/data/04982a582660451a8e08b705855a1008/Filialdaten-BG/Filialdaten-BG?key=AkK9Xgxa6n1ly8c3xz1ntR6ojGGT3h-hys5yW7P9xHpJS2FycVLoYxLo_eeFR69o&$filter=Adresstyp%20Eq%201&$select=*&$format=json&$top=250&$skip=0","@spider":"lidl_bg","addr:street_address":"ул. Георги Кочев 4В","addr:city":"Плевен","addr:postcode":"5803","addr:country":"BG","brand":"Lidl","brand:wikidata":"Q151954","nsi_id":"-1"},"coordinates":[43.41359,24.63363]},"dist":25.277,"tags_mismatch":false},{"osm":{"type":"way","id":141175127,"tags":{"addr:city":"Стара Загора","addr:housenumber":"3","addr:postcode":"6002","addr:street":"Хаджи Димитър Асенов","brand":"Lidl","brand:wikidata":"Q108169047","building":"retail","opening_hours":"Mo-Sa 07:30-21:30; Su 08:30-21:30","shop":"supermarket","wheelchair":"yes"},"wikidata":"Q108169047","coordinates":[42.4168536,25.6260068]},"atp":{"id":"qzbfDpykGgE6Gg0vtRo_0Oy1GnQ=","tags":{"ref":"159","shop":"supermarket","@source_uri":"https://spatial.virtualearth.net/REST/v1/data/04982a582660451a8e08b705855a1008/Filialdaten-BG/Filialdaten-BG?key=AkK9Xgxa6n1ly8c3xz1ntR6ojGGT3h-hys5yW7P9xHpJS2FycVLoYxLo_eeFR69o&$filter=Adresstyp%20Eq%201&$select=*&$format=json&$top=250&$skip=0","@spider":"lidl_bg","addr:street_address":"ул. Хаджи Димитър Асенов 3","addr:city":"Стара Загора","addr:postcode":"6002","addr:country":"BG","brand":"Lidl","brand:wikidata":"Q151954","nsi_id":"-1"},"coordinates":[42.41681,25.62608]},"dist":7.721,"tags_mismatch":false},{"osm":{"type":"way","id":146826991,"tags":{"addr:city":"София","addr:housenumber":"67","addr:postcode":"1229","addr:street":"Хан Кубрат","branch":"Надежда","brand":"Lidl","brand:wikidata":"Q108169047","building":"retail","building:levels":"1","opening_hours":"Mo-Sa 07:30-21:30; Su 08:30-21:00","roof:levels":"0","roof:shape":"flat","shop":"supermarket","website":"https://www.lidl.bg/","wheelchair":"yes"},"wikidata":"Q108169047","coordinates":[42.731368,23.2853768]},"atp":{"id":"iNifDRFGouTV4dcMaMoPPj_N-uo=","tags":{"ref":"106","shop":"supermarket","@source_uri":"https://spatial.virtualearth.net/REST/v1/data/04982a582660451a8e08b705855a1008/Filialdaten-BG/Filialdaten-BG?key=AkK9Xgxa6n1ly8c3xz1ntR6ojGGT3h-hys5yW7P9xHpJS2FycVLoYxLo_eeFR69o&$filter=Adresstyp%20Eq%201&$select=*&$format=json&$top=250&$skip=0","@spider":"lidl_bg","addr:street_address":"ул. Хан Кубрат 67","addr:city":"София","addr:postcode":"1229","addr:country":"BG","brand":"Lidl","brand:wikidata":"Q151954","nsi_id":"-1"},"coordinates":[42.73134,23.28543]},"dist":5.346,"tags_mismatch":false},{"osm":{"type":"way","id":167325037,"tags":{"addr:city":"София","addr:housenumber":"196","addr:postcode":"1373","addr:street":"бул. Александър Стамболийски","brand":"Lidl","brand:wikidata":"Q108169047","building":"retail","building:levels":"2","opening_hours":"Mo-Sa 07:30-21:30; Su 09:00-21:30","shop":"supermarket","website":"https://www.lidl.bg/","wheelchair":"yes"},"wikidata":"Q108169047","coordinates":[42.7027713,23.2843389]},"atp":{"id":"egKOt1WFTH7l_RBP-2K7Josb-E4=","tags":{"ref":"168","shop":"supermarket","@source_uri":"https://spatial.virtualearth.net/REST/v1/data/04982a582660451a8e08b705855a1008/Filialdaten-BG/Filialdaten-BG?key=AkK9Xgxa6n1ly8c3xz1ntR6ojGGT3h-hys5yW7P9xHpJS2FycVLoYxLo_eeFR69o&$filter=Adresstyp%20Eq%201&$select=*&$format=json&$top=250&$skip=0","@spider":"lidl_bg","addr:street_address":"бул. Александър Стамболийски 196","addr:city":"София","addr:postcode":"1373","addr:country":"BG","brand":"Lidl","brand:wikidata":"Q151954","nsi_id":"-1"},"coordinates":[42.70248,23.28463]},"dist":40.187,"tags_mismatch":false},{"osm":{"type":"way","id":167326808,"tags":{"addr:city":"София","addr:housenumber":"9Б","addr:postcode":"1592","addr:street":"бул. Искърско шосе","brand":"Lidl","brand:wikidata":"Q108169047","building":"yes","opening_hours":"Mo-Sa 07:30-21:30; Su 09:00-21:30","shop":"supermarket"},"wikidata":"Q108169047","coordinates":[42.6687432,23.4033775]},"atp":{"id":"_g4D3taJSvLs9PBBZ1aSj44Zq4w=","tags":{"ref":"211","shop":"supermarket","@source_uri":"https://spatial.virtualearth.net/REST/v1/data/04982a582660451a8e08b705855a1008/Filialdaten-BG/Filialdaten-BG?key=AkK9Xgxa6n1ly8c3xz1ntR6ojGGT3h-hys5yW7P9xHpJS2FycVLoYxLo_eeFR69o&$filter=Adresstyp%20Eq%201&$select=*&$format=json&$top=250&$skip=0","@spider":"lidl_bg","addr:street_address":"бул. Искърско шосе 5Б","addr:city":"София","addr:postcode":"1592","addr:country":"BG","brand":"Lidl","brand:wikidata":"Q151954","nsi_id":"-1"},"coordinates":[42.66859,23.4028]},"dist":50.195,"tags_mismatch":false},{"osm":{"type":"way","id":169951216,"tags":{"addr:city":"Силистра","addr:postcode":"7501","addr:street":"Бесарабия","brand":"Lidl","brand:wikidata":"Q108169047","building":"yes","opening_hours":"Mo-Sa 07:30-21:30; Su 08:30-21:00","shop":"supermarket","wheelchair":"yes"},"wikidata":"Q108169047","coordinates":[44.1147753,27.2742885]},"atp":{"id":"UInLeJVz4sxoUNLMml6-R83CBHs=","tags":{"ref":"814","shop":"supermarket","@source_uri":"https://spatial.virtualearth.net/REST/v1/data/04982a582660451a8e08b705855a1008/Filialdaten-BG/Filialdaten-BG?key=AkK9Xgxa6n1ly8c3xz1ntR6ojGGT3h-hys5yW7P9xHpJS2FycVLoYxLo_eeFR69o&$filter=Adresstyp%20Eq%201&$select=*&$format=json&$top=250&$skip=0","@spider":"lidl_bg","addr:street_address":"ул. Бесарабия 2","addr:city":"Силистра","addr:postcode":"7501","addr:country":"BG","brand":"Lidl","brand:wikidata":"Q151954","nsi_id":"-1"},"coordinates":[44.11495,27.27346]},"dist":68.934,"tags_mismatch":false},{"osm":{"type":"way","id":172072952,"tags":{"addr:city":"Поморие","addr:housenumber":"102А","addr:postcode":"8200","addr:street":"Княз Борис I","brand":"Lidl","brand:wikidata":"Q108169047","building":"yes","opening_hours":"Mo-Su 08:30-22:00","shop":"supermarket"},"wikidata":"Q108169047","coordinates":[42.5657791,27.623206]},"atp":{"id":"XS7zIh5n7OpR7jvqJaWwBcD2-QI=","tags":{"ref":"842","shop":"supermarket","@source_uri":"https://spatial.virtualearth.net/REST/v1/data/04982a582660451a8e08b705855a1008/Filialdaten-BG/Filialdaten-BG?key=AkK9Xgxa6n1ly8c3xz1ntR6ojGGT3h-hys5yW7P9xHpJS2FycVLoYxLo_eeFR69o&$filter=Adresstyp%20Eq%201&$select=*&$format=json&$top=250&$skip=0","@spider":"lidl_bg","addr:street_address":"ул. Княз Борис I 102а","addr:city":"Поморие","addr:postcode":"8200","addr:country":"BG","brand":"Lidl","brand:wikidata":"Q151954","nsi_id":"-1"},"coordinates":[42.56542,27.62333]},"dist":41.201,"tags_mismatch":false},{"osm":{"type":"way","id":178702878,"tags":{"addr:city":"Бургас","addr:postcode":"8008","addr:street":"Транспортна","alt_name":"Лидъл","brand":"Lidl","brand:wikidata":"Q108169047","building":"yes","opening_hours":"Mo-Sa 07:30-22:00; Su 08:30-21:30","shop":"supermarket","wheelchair":"yes"},"wikidata":"Q108169047","coordinates":[42.5318528,27.4627268]},"atp":{"id":"ayq5QHOvg7PJj6Hwv7eB_-rTfM8=","tags":{"ref":"123","shop":"supermarket","@source_uri":"https://spatial.virtualearth.net/REST/v1/data/04982a582660451a8e08b705855a1008/Filialdaten-BG/Filialdaten-BG?key=AkK9Xgxa6n1ly8c3xz1ntR6ojGGT3h-hys5yW7P9xHpJS2FycVLoYxLo_eeFR69o&$filter=Adresstyp%20Eq%201&$select=*&$format=json&$top=250&$skip=0","@spider":"lidl_bg","addr:street_address":"ул. Транспортна","addr:city":"Бургас","addr:postcode":"8008","addr:country":"BG","brand":"Lidl","brand:wikidata":"Q151954","nsi_id":"-1"},"coordinates":[42.53159,27.46228]},"dist":46.843,"tags_mismatch":false},{"osm":{"type":"way","id":178954298,"tags":{"addr:city":"Равда","addr:postcode":"8238","brand":"Lidl","brand:wikidata":"Q108169047","building":"yes","building:levels":"1","name:ru":"Лидл","opening_hours":"Mo-Sa 07:30-22:30; Su 08:00-22:00","roof:shape":"flat","shop":"supermarket","website":"https://www.lidl.bg/"},"wikidata":"Q108169047","coordinates":[42.6521846,27.6713733]},"atp":{"id":"DAdyzKzcElwz2qsnvPv8SmVzAmc=","tags":{"ref":"126","shop":"supermarket","@source_uri":"https://spatial.virtualearth.net/REST/v1/data/04982a582660451a8e08b705855a1008/Filialdaten-BG/Filialdaten-BG?key=AkK9Xgxa6n1ly8c3xz1ntR6ojGGT3h-hys5yW7P9xHpJS2FycVLoYxLo_eeFR69o&$filter=Adresstyp%20Eq%201&$select=*&$format=json&$top=250&$skip=0","@spider":"lidl_bg","addr:street_address":"кръстовището на Е87 и пътя за Равда","addr:city":"Равда/Несебър","addr:postcode":"8238","addr:country":"BG","brand":"Lidl","brand:wikidata":"Q151954","nsi_id":"-1"},"coordinates":[42.65177,27.67117]},"dist":49.008,"tags_mismatch":false},{"osm":{"type":"way","id":179105118,"tags":{"addr:city":"Димитровград","addr:postcode":"6400","brand":"Lidl","brand:wikidata":"Q108169047","building":"yes","opening_hours":"Mo-Sa 07:30-21:30; Su 08:30-20:30","shop":"supermarket","wheelchair":"yes"},"wikidata":"Q108169047","coordinates":[42.0544552,25.5972326]},"atp":{"id":"u-povl_fjAYSiXB49DaKBBE4I1k=","tags":{"ref":"806","shop":"supermarket","@source_uri":"https://spatial.virtualearth.net/REST/v1/data/04982a582660451a8e08b705855a1008/Filialdaten-BG/Filialdaten-BG?key=AkK9Xgxa6n1ly8c3xz1ntR6ojGGT3h-hys5yW7P9xHpJS2FycVLoYxLo_eeFR69o&$filter=Adresstyp%20Eq%201&$select=*&$format=json&$top=250&$skip=0","@spider":"lidl_bg","addr:street_address":"ул. Димитър Благоев 16","addr:city":"Димитровград","addr:postcode":"6400","addr:country":"BG","brand":"Lidl","brand:wikidata":"Q151954","nsi_id":"-1"},"coordinates":[42.05439,25.5975]},"dist":23.237,"tags_mismatch":false},{"osm":{"type":"way","id":193537821,"tags":{"addr:city":"София","addr:housenumber":"111","addr:postcode":"1359","addr:street":"бул. Д-р Петър Дертлиев","brand":"Lidl","brand:wikidata":"Q108169047","building":"retail","building:levels":"1","opening_hours":"Mo-Sa 07:30-21:30; Su 09:00-21:00","roof:shape":"flat","shop":"supermarket","website":"https://www.lidl.bg/"},"wikidata":"Q108169047","coordinates":[42.7118485,23.2399279]},"atp":{"id":"O-fFXQuWb6dKfHewSHUrshWEDB0=","tags":{"ref":"800","shop":"supermarket","@source_uri":"https://spatial.virtualearth.net/REST/v1/data/04982a582660451a8e08b705855a1008/Filialdaten-BG/Filialdaten-BG?key=AkK9Xgxa6n1ly8c3xz1ntR6ojGGT3h-hys5yW7P9xHpJS2FycVLoYxLo_eeFR69o&$filter=Adresstyp%20Eq%201&$select=*&$format=json&$top=250&$skip=0","@spider":"lidl_bg","addr:street_address":"ул. Петър Дертлиев 111","addr:city":"София","addr:postcode":"1359","addr:country":"BG","brand":"Lidl","brand:wikidata":"Q151954","nsi_id":"-1"},"coordinates":[42.71209,23.2399]},"dist":26.95,"tags_mismatch":false},{"osm":{"type":"way","id":198023058,"tags":{"addr:city":"Търговище","addr:postcode":"7700","brand":"Lidl","brand:wikidata":"Q108169047","building":"supermarket","opening_hours":"Mo-Sa 08:00-21:30; Su 08:30-21:00","shop":"supermarket","wheelchair":"yes"},"wikidata":"Q108169047","coordinates":[43.2481755,26.5548084]},"atp":{"id":"v34IWEqywOy7-qOROpHoBqR0Xkc=","tags":{"ref":"813","shop":"supermarket","@source_uri":"https://spatial.virtualearth.net/REST/v1/data/04982a582660451a8e08b705855a1008/Filialdaten-BG/Filialdaten-BG?key=AkK9Xgxa6n1ly8c3xz1ntR6ojGGT3h-hys5yW7P9xHpJS2FycVLoYxLo_eeFR69o&$filter=Adresstyp%20Eq%201&$select=*&$format=json&$top=250&$skip=0","@spider":"lidl_bg","addr:street_address":"ул. Александър Стамболийски 48","addr:city":"Търговище","addr:postcode":"7700","addr:country":"BG","brand":"Lidl","brand:wikidata":"Q151954","nsi_id":"-1"},"coordinates":[43.24852,26.55445]},"dist":48.063,"tags_mismatch":false},{"osm":{"type":"way","id":199472695,"tags":{"addr:city":"Ямбол","addr:country":"BG","addr:housenumber":"187","addr:postcode":"8600","addr:street":"бул. Граф Игнатиев","brand":"Lidl","brand:wikidata":"Q108169047","building":"yes","building:levels":"1","opening_hours":"Mo-Sa 08:00-21:30; Su 08:30-21:00","shop":"supermarket","website":"https://www.lidl.bg/"},"wikidata":"Q108169047","coordinates":[42.4695512,26.5244233]},"atp":{"id":"3SH9xXmYZjLgaF6aEpYousW3-Vw=","tags":{"ref":"158","shop":"supermarket","@source_uri":"https://spatial.virtualearth.net/REST/v1/data/04982a582660451a8e08b705855a1008/Filialdaten-BG/Filialdaten-BG?key=AkK9Xgxa6n1ly8c3xz1ntR6ojGGT3h-hys5yW7P9xHpJS2FycVLoYxLo_eeFR69o&$filter=Adresstyp%20Eq%201&$select=*&$format=json&$top=250&$skip=0","@spider":"lidl_bg","addr:street_address":"ж.к. Диана 187","addr:city":"Ямбол","addr:postcode":"8600","addr:country":"BG","brand":"Lidl","brand:wikidata":"Q151954","nsi_id":"-1"},"coordinates":[42.46993,26.52449]},"dist":42.474,"tags_mismatch":false},{"osm":{"type":"way","id":209898029,"tags":{"addr:city":"София","addr:housenumber":"236","addr:postcode":"1309","addr:street":"бул. Сливница","brand":"Lidl","brand:wikidata":"Q108169047","building":"retail","opening_hours":"Mo-Sa 07:30-22:00; Su 08:30-21:30","payment:cards":"yes","payment:cheque":"yes","payment:coins":"yes","payment:contactless":"yes","payment:credit_cards":"yes","payment:debit_cards":"yes","payment:maestro":"yes","payment:mastercard":"yes","payment:notes":"yes","payment:visa":"yes","payment:visa_debit":"yes","payment:visa_electron":"yes","phone":"+359 800 14141","shop":"supermarket","website":"https://www.lidl.bg/"},"wikidata":"Q108169047","coordinates":[42.7118459,23.2919008]},"atp":{"id":"eJ-H4dskmDZ_n_Hf_f_vcCkb_lc=","tags":{"ref":"103","shop":"supermarket","@source_uri":"https://spatial.virtualearth.net/REST/v1/data/04982a582660451a8e08b705855a1008/Filialdaten-BG/Filialdaten-BG?key=AkK9Xgxa6n1ly8c3xz1ntR6ojGGT3h-hys5yW7P9xHpJS2FycVLoYxLo_eeFR69o&$filter=Adresstyp%20Eq%201&$select=*&$format=json&$top=250&$skip=0","@spider":"lidl_bg","addr:street_address":"бул. Сливница 236","addr:city":"София","addr:postcode":"1309","addr:country":"BG","brand":"Lidl","brand:wikidata":"Q151954","nsi_id":"-1"},"coordinates":[42.71148,23.29166]},"dist":45.193,"tags_mismatch":false},{"osm":{"type":"way","id":212030620,"tags":{"addr:city":"Русе","addr:postcode":"7005","branch":"Здравец","brand":"Lidl","brand:wikidata":"Q108169047","building":"retail","opening_hours":"Mo-Sa 07:30-21:30; Su 08:30-21:00","shop":"supermarket"},"wikidata":"Q108169047","coordinates":[43.8465731,25.9773554]},"atp":{"id":"DgO17y8OKKfGNPDI_ZE_cwEArt4=","tags":{"ref":"125","shop":"supermarket","@source_uri":"https://spatial.virtualearth.net/REST/v1/data/04982a582660451a8e08b705855a1008/Filialdaten-BG/Filialdaten-BG?key=AkK9Xgxa6n1ly8c3xz1ntR6ojGGT3h-hys5yW7P9xHpJS2FycVLoYxLo_eeFR69o&$filter=Adresstyp%20Eq%201&$select=*&$format=json&$top=250&$skip=0","@spider":"lidl_bg","addr:street_address":"ул. Чипровци 32","addr:city":"Русе","addr:postcode":"7005","addr:country":"BG","brand":"Lidl","brand:wikidata":"Q151954","nsi_id":"-1"},"coordinates":[43.8471,25.97687]},"dist":70.341,"tags_mismatch":false},{"osm":{"type":"way","id":219501021,"tags":{"addr:city":"Разград","addr:postcode":"7200","brand":"Lidl","brand:wikidata":"Q108169047","building":"yes","opening_hours":"Mo-Sa 08:00-21:30; Su 09:00-21:00","shop":"supermarket"},"wikidata":"Q108169047","coordinates":[43.5211303,26.5402717]},"atp":{"id":"rxTisn-PDOydQY-ZhpSOSEd-0k0=","tags":{"ref":"146","shop":"supermarket","@source_uri":"https://spatial.virtualearth.net/REST/v1/data/04982a582660451a8e08b705855a1008/Filialdaten-BG/Filialdaten-BG?key=AkK9Xgxa6n1ly8c3xz1ntR6ojGGT3h-hys5yW7P9xHpJS2FycVLoYxLo_eeFR69o&$filter=Adresstyp%20Eq%201&$select=*&$format=json&$top=250&$skip=0","@spider":"lidl_bg","addr:street_address":"ул. Априлско Въстание 66E","addr:city":"Разград","addr:postcode":"7200","addr:country":"BG","brand":"Lidl","brand:wikidata":"Q151954","nsi_id":"-1"},"coordinates":[43.52155,26.53987]},"dist":56.807,"tags_mismatch":false},{"osm":{"type":"way","id":219538012,"tags":{"addr:city":"Луковит","addr:postcode":"5770","brand":"Lidl","brand:wikidata":"Q108169047","building":"retail","opening_hours":"Mo-Su 09:00-21:00","shop":"supermarket"},"wikidata":"Q108169047","coordinates":[43.2141914,24.1656052]},"atp":{"id":"b-cKjn83IUUwAzX5VQZNhVDIlJw=","tags":{"ref":"817","shop":"supermarket","@source_uri":"https://spatial.virtualearth.net/REST/v1/data/04982a582660451a8e08b705855a1008/Filialdaten-BG/Filialdaten-BG?key=AkK9Xgxa6n1ly8c3xz1ntR6ojGGT3h-hys5yW7P9xHpJS2FycVLoYxLo_eeFR69o&$filter=Adresstyp%20Eq%201&$select=*&$format=json&$top=250&$skip=0","@spider":"lidl_bg","addr:street_address":"ул. Възраждане 128","addr:city":"Луковит","addr:postcode":"5770","addr:country":"BG","brand":"Lidl","brand:wikidata":"Q151954","nsi_id":"-1"},"coordinates":[43.21464,24.16512]},"dist":63.516,"tags_mismatch":false},{"osm":{"type":"way","id":222944962,"tags":{"addr:city":"Велико Търново","addr:postcode":"5008","brand":"Lidl","brand:wikidata":"Q108169047","building":"retail","opening_hours":"Mo-Sa 07:30-21:30; Su 09:00-21:00","shop":"supermarket"},"wikidata":"Q108169047","coordinates":[43.0725684,25.6100296]},"atp":{"id":"3oncUmwu6j0rt88WSauUYXmbkK0=","tags":{"ref":"120","shop":"supermarket","@source_uri":"https://spatial.virtualearth.net/REST/v1/data/04982a582660451a8e08b705855a1008/Filialdaten-BG/Filialdaten-BG?key=AkK9Xgxa6n1ly8c3xz1ntR6ojGGT3h-hys5yW7P9xHpJS2FycVLoYxLo_eeFR69o&$filter=Adresstyp%20Eq%201&$select=*&$format=json&$top=250&$skip=0","@spider":"lidl_bg","addr:street_address":"ул. Народни будители 25","addr:city":"Велико Търново","addr:postcode":"5008","addr:country":"BG","brand":"Lidl","brand:wikidata":"Q151954","nsi_id":"-1"},"coordinates":[43.07289,25.60962]},"dist":48.844,"tags_mismatch":false},{"osm":{"type":"way","id":224473746,"tags":{"addr:city":"Велико Търново","addr:postcode":"5005","brand":"Lidl","brand:wikidata":"Q108169047","building":"retail","opening_hours":"Mo-Sa 07:30-21:30; Su 09:00-21:00","shop":"supermarket"},"wikidata":"Q108169047","coordinates":[43.0799654,25.6090258]},"atp":{"id":"o98Hf2oFtMYBva7IX2c8Af1YBvA=","tags":{"ref":"157","shop":"supermarket","@source_uri":"https://spatial.virtualearth.net/REST/v1/data/04982a582660451a8e08b705855a1008/Filialdaten-BG/Filialdaten-BG?key=AkK9Xgxa6n1ly8c3xz1ntR6ojGGT3h-hys5yW7P9xHpJS2FycVLoYxLo_eeFR69o&$filter=Adresstyp%20Eq%201&$select=*&$format=json&$top=250&$skip=0","@spider":"lidl_bg","addr:street_address":"ул. Серес 3","addr:city":"Велико Търново","addr:postcode":"5005","addr:country":"BG","brand":"Lidl","brand:wikidata":"Q151954","nsi_id":"-1"},"coordinates":[43.08021,25.60938]},"dist":39.589,"tags_mismatch":false},{"osm":{"type":"way","id":225799996,"tags":{"addr:city":"Бургас","addr:postcode":"8001","brand":"Lidl","brand:wikidata":"Q108169047","building":"yes","opening_hours":"Mo-Sa 07:30-21:30; Su 08:30-20:00","shop":"supermarket"},"wikidata":"Q108169047","coordinates":[42.5020284,27.45888]},"atp":{"id":"Yj2dV12Epbqv9L7PLoQN6FhFVaI=","tags":{"ref":"156","shop":"supermarket","@source_uri":"https://spatial.virtualearth.net/REST/v1/data/04982a582660451a8e08b705855a1008/Filialdaten-BG/Filialdaten-BG?key=AkK9Xgxa6n1ly8c3xz1ntR6ojGGT3h-hys5yW7P9xHpJS2FycVLoYxLo_eeFR69o&$filter=Adresstyp%20Eq%201&$select=*&$format=json&$top=250&$skip=0","@spider":"lidl_bg","addr:street_address":"ул. Пирин 8","addr:city":"Бургас","addr:postcode":"8001","addr:country":"BG","brand":"Lidl","brand:wikidata":"Q151954","nsi_id":"-1"},"coordinates":[42.50266,27.45897]},"dist":70.617,"tags_mismatch":false},{"osm":{"type":"way","id":230414664,"tags":{"addr:city":"Русе","addr:housenumber":"61","addr:postcode":"7015","addr:street":"Стрешер планина","brand":"Lidl","brand:wikidata":"Q108169047","building":"commercial","building:levels":"1","height":"5","opening_hours":"Mo-Sa 07:30-21:30; Su 08:30-21:00","shop":"supermarket"},"wikidata":"Q108169047","coordinates":[43.831089,25.969569]},"atp":{"id":"725UoMPy0dDqdb9Rz_OJ7DT0xms=","tags":{"ref":"153","shop":"supermarket","@source_uri":"https://spatial.virtualearth.net/REST/v1/data/04982a582660451a8e08b705855a1008/Filialdaten-BG/Filialdaten-BG?key=AkK9Xgxa6n1ly8c3xz1ntR6ojGGT3h-hys5yW7P9xHpJS2FycVLoYxLo_eeFR69o&$filter=Adresstyp%20Eq%201&$select=*&$format=json&$top=250&$skip=0","@spider":"lidl_bg","addr:street_address":"ул. Стрешер планина 61","addr:city":"Русе","addr:postcode":"7015","addr:country":"BG","brand":"Lidl","brand:wikidata":"Q151954","nsi_id":"-1"},"coordinates":[43.83153,25.96925]},"dist":55.312,"tags_mismatch":false},{"osm":{"type":"way","id":233082354,"tags":{"addr:city":"Варна","addr:housenumber":"14","addr:postcode":"9023","addr:street":"бул. Света Елена","brand":"Lidl","brand:wikidata":"Q108169047","building":"yes","opening_hours":"Mo-Sa 08:00-21:30; Su 08:30-21:00","payment:cash":"yes","payment:credit_cards":"yes","payment:debit_cards":"yes","payment:mastercard":"yes","payment:notes":"yes","payment:visa":"yes","shop":"supermarket","website":"https://www.lidl.bg/"},"wikidata":"Q108169047","coordinates":[43.2451673,27.8585349]},"atp":{"id":"eGFnZTolMhS94cKfc8gIV3nrsks=","tags":{"ref":"138","shop":"supermarket","@source_uri":"https://spatial.virtualearth.net/REST/v1/data/04982a582660451a8e08b705855a1008/Filialdaten-BG/Filialdaten-BG?key=AkK9Xgxa6n1ly8c3xz1ntR6ojGGT3h-hys5yW7P9xHpJS2FycVLoYxLo_eeFR69o&$filter=Adresstyp%20Eq%201&$select=*&$format=json&$top=250&$skip=0","@spider":"lidl_bg","addr:street_address":"ул. Св. Елена 14","addr:city":"Варна","addr:postcode":"9023","addr:country":"BG","brand":"Lidl","brand:wikidata":"Q151954","nsi_id":"-1"},"coordinates":[43.24547,27.8577]},"dist":75.538,"tags_mismatch":false},{"osm":{"type":"way","id":234236294,"tags":{"addr:city":"Видин","addr:postcode":"3705","brand":"Lidl","brand:wikidata":"Q108169047","building":"yes","name:ro":"Lidl","opening_hours":"Mo-Sa 08:00-21:00; Su 08:30-21:00","shop":"supermarket","wheelchair":"yes"},"wikidata":"Q108169047","coordinates":[43.9939392,22.8650444]},"atp":{"id":"2gQbsUG_CkIKbtHHp75N4dDg3kU=","tags":{"ref":"823","shop":"supermarket","@source_uri":"https://spatial.virtualearth.net/REST/v1/data/04982a582660451a8e08b705855a1008/Filialdaten-BG/Filialdaten-BG?key=AkK9Xgxa6n1ly8c3xz1ntR6ojGGT3h-hys5yW7P9xHpJS2FycVLoYxLo_eeFR69o&$filter=Adresstyp%20Eq%201&$select=*&$format=json&$top=250&$skip=0","@spider":"lidl_bg","addr:street_address":"ул. Академик Стефан Младенов 20","addr:city":"Видин","addr:postcode":"3705","addr:country":"BG","brand":"Lidl","brand:wikidata":"Q151954","nsi_id":"-1"},"coordinates":[43.99383,22.86559]},"dist":45.303,"tags_mismatch":false},{"osm":{"type":"way","id":235036709,"tags":{"addr:city":"Смолян","addr:postcode":"4700","brand":"Lidl","brand:wikidata":"Q108169047","building":"yes","opening_hours":"Mo-Sa 07:30-21:00; Su 09:00-20:30","shop":"supermarket"},"wikidata":"Q108169047","coordinates":[41.5720942,24.7170434]},"atp":{"id":"vZrXfT4hipgnyLJwZnPMdMxCVjs=","tags":{"ref":"122","shop":"supermarket","@source_uri":"https://spatial.virtualearth.net/REST/v1/data/04982a582660451a8e08b705855a1008/Filialdaten-BG/Filialdaten-BG?key=AkK9Xgxa6n1ly8c3xz1ntR6ojGGT3h-hys5yW7P9xHpJS2FycVLoYxLo_eeFR69o&$filter=Adresstyp%20Eq%201&$select=*&$format=json&$top=250&$skip=0","@spider":"lidl_bg","addr:street_address":"бул. България 1Ж","addr:city":"Смолян","addr:postcode":"4700","addr:country":"BG","brand":"Lidl","brand:wikidata":"Q151954","nsi_id":"-1"},"coordinates":[41.57237,24.71763]},"dist":57.634,"tags_mismatch":false},{"osm":{"type":"way","id":235500005,"tags":{"addr:city":"Варна","addr:postcode":"9009","brand":"Lidl","brand:wikidata":"Q108169047","building":"yes","opening_hours":"Mo-Sa 07:30-22:00; Su 08:30-21:30","shop":"supermarket","toilets:wheelchair":"no","wheelchair":"yes"},"wikidata":"Q108169047","coordinates":[43.2195084,27.8829247]},"atp":{"id":"KaF_VqCiGl0QjUWW1fRFWpsO1S8=","tags":{"ref":"144","shop":"supermarket","@source_uri":"https://spatial.virtualearth.net/REST/v1/data/04982a582660451a8e08b705855a1008/Filialdaten-BG/Filialdaten-BG?key=AkK9Xgxa6n1ly8c3xz1ntR6ojGGT3h-hys5yW7P9xHpJS2FycVLoYxLo_eeFR69o&$filter=Adresstyp%20Eq%201&$select=*&$format=json&$top=250&$skip=0","@spider":"lidl_bg","addr:street_address":"бул. Вл. Варненчик 257","addr:city":"Варна","addr:postcode":"9009","addr:country":"BG","brand":"Lidl","brand:wikidata":"Q151954","nsi_id":"-1"},"coordinates":[43.22015,27.88261]},"dist":75.763,"tags_mismatch":false},{"osm":{"type":"way","id":240109190,"tags":{"addr:city":"Разлог","addr:housenumber":"24","addr:postcode":"2760","addr:street":"Гоце Делчев","brand":"Lidl","brand:wikidata":"Q108169047","building":"supermarket","building:levels":"1","check_date:opening_hours":"2025-02-23","opening_hours":"Mo-Sa 08:30-21:00; Su 09:00-21:00","shop":"supermarket","wheelchair":"yes"},"wikidata":"Q108169047","coordinates":[41.8790543,23.4716099]},"atp":{"id":"mdwVqzO6wiy43_VvWzVZHGm2nP4=","tags":{"ref":"802","shop":"supermarket","@source_uri":"https://spatial.virtualearth.net/REST/v1/data/04982a582660451a8e08b705855a1008/Filialdaten-BG/Filialdaten-BG?key=AkK9Xgxa6n1ly8c3xz1ntR6ojGGT3h-hys5yW7P9xHpJS2FycVLoYxLo_eeFR69o&$filter=Adresstyp%20Eq%201&$select=*&$format=json&$top=250&$skip=0","@spider":"lidl_bg","addr:street_address":"ул. Гоце Делчев 24","addr:city":"Разлог","addr:postcode":"2760","addr:country":"BG","brand":"Lidl","brand:wikidata":"Q151954","nsi_id":"-1"},"coordinates":[41.87888,23.47216]},"dist":49.496,"tags_mismatch":false},{"osm":{"type":"way","id":247459889,"tags":{"addr:city":"София","addr:housenumber":"2","addr:postcode":"1574","addr:street":"Марко Бочар","brand":"Lidl","brand:wikidata":"Q108169047","building":"retail","opening_hours":"Mo-Sa 07:00-22:00; Su 08:30-22:00","shop":"supermarket","website":"https://www.lidl.bg/","wheelchair":"yes"},"wikidata":"Q108169047","coordinates":[42.6931002,23.3667489]},"atp":{"id":"0hTldckPKrqSB_Vi10gLQoPATc0=","tags":{"ref":"161","shop":"supermarket","@source_uri":"https://spatial.virtualearth.net/REST/v1/data/04982a582660451a8e08b705855a1008/Filialdaten-BG/Filialdaten-BG?key=AkK9Xgxa6n1ly8c3xz1ntR6ojGGT3h-hys5yW7P9xHpJS2FycVLoYxLo_eeFR69o&$filter=Adresstyp%20Eq%201&$select=*&$format=json&$top=250&$skip=0","@spider":"lidl_bg","addr:street_address":"ул. Марко Бочар 2","addr:city":"София","addr:postcode":"1574","addr:country":"BG","brand":"Lidl","brand:wikidata":"Q151954","nsi_id":"-1"},"coordinates":[42.69349,23.36697]},"dist":46.96,"tags_mismatch":false},{"osm":{"type":"way","id":250106180,"tags":{"addr:city":"Добрич","addr:postcode":"9300","brand":"Lidl","brand:wikidata":"Q108169047","building":"yes","opening_hours":"Mo-Sa 07:30-21:30; Su 08:30-21:00","shop":"supermarket"},"wikidata":"Q108169047","coordinates":[43.5616254,27.8395073]},"atp":{"id":"tWHuM2tCkBQ4Z_kxA4yFhsnsRFU=","tags":{"ref":"162","shop":"supermarket","@source_uri":"https://spatial.virtualearth.net/REST/v1/data/04982a582660451a8e08b705855a1008/Filialdaten-BG/Filialdaten-BG?key=AkK9Xgxa6n1ly8c3xz1ntR6ojGGT3h-hys5yW7P9xHpJS2FycVLoYxLo_eeFR69o&$filter=Adresstyp%20Eq%201&$select=*&$format=json&$top=250&$skip=0","@spider":"lidl_bg","addr:street_address":"бул. Русия 2","addr:city":"Добрич","addr:postcode":"9300","addr:country":"BG","brand":"Lidl","brand:wikidata":"Q151954","nsi_id":"-1"},"coordinates":[43.56186,27.83898]},"dist":49.857,"tags_mismatch":false},{"osm":{"type":"way","id":251850936,"tags":{"addr:city":"София","addr:housenumber":"12","addr:postcode":"1231","addr:street":"Ген. Никола Жеков","addr:suburb":"ж.к. Свобода","brand":"Lidl","brand:wikidata":"Q108169047","building":"retail","building:levels":"1","check_date":"2022-11-05","opening_hours":"Mo-Sa 07:30-22:00; Su 08:30-21:30","payment:mastercard":"yes","payment:visa":"yes","roof:shape":"flat","shop":"supermarket","website":"https://www.lidl.bg/","wheelchair":"yes"},"wikidata":"Q108169047","coordinates":[42.7338663,23.3104983]},"atp":{"id":"1Gyiwa2fUGzGOwMOzspHhPLBjiU=","tags":{"ref":"176","shop":"supermarket","@source_uri":"https://spatial.virtualearth.net/REST/v1/data/04982a582660451a8e08b705855a1008/Filialdaten-BG/Filialdaten-BG?key=AkK9Xgxa6n1ly8c3xz1ntR6ojGGT3h-hys5yW7P9xHpJS2FycVLoYxLo_eeFR69o&$filter=Adresstyp%20Eq%201&$select=*&$format=json&$top=250&$skip=0","@spider":"lidl_bg","addr:street_address":"ул. Ген. Никола Жеков 12","addr:city":"София","addr:postcode":"1231","addr:country":"BG","brand":"Lidl","brand:wikidata":"Q151954","nsi_id":"-1"},"coordinates":[42.7337,23.31002]},"dist":43.22,"tags_mismatch":false},{"osm":{"type":"way","id":255730760,"tags":{"addr:city":"Горна Оряховица","addr:postcode":"5101","brand":"Lidl","brand:wikidata":"Q108169047","building":"retail","building:levels":"1","opening_hours":"Mo-Sa 07:30-21:00; Su 09:00-20:30","roof:levels":"1","roof:shape":"hipped","shop":"supermarket","wheelchair":"yes"},"wikidata":"Q108169047","coordinates":[43.1290235,25.6810029]},"atp":{"id":"vTp8GKLJ4KeMgvigqDhRFTSqKRg=","tags":{"ref":"819","shop":"supermarket","@source_uri":"https://spatial.virtualearth.net/REST/v1/data/04982a582660451a8e08b705855a1008/Filialdaten-BG/Filialdaten-BG?key=AkK9Xgxa6n1ly8c3xz1ntR6ojGGT3h-hys5yW7P9xHpJS2FycVLoYxLo_eeFR69o&$filter=Adresstyp%20Eq%201&$select=*&$format=json&$top=250&$skip=0","@spider":"lidl_bg","addr:street_address":"ул. Христо Смирненски 14","addr:city":"Горна Оряховица","addr:postcode":"5101","addr:country":"BG","brand":"Lidl","brand:wikidata":"Q151954","nsi_id":"-1"},"coordinates":[43.12854,25.68126]},"dist":57.669,"tags_mismatch":false},{"osm":{"type":"way","id":271727321,"tags":{"addr:city":"Петрич","addr:postcode":"2850","brand":"Lidl","brand:wikidata":"Q108169047","building":"retail","opening_hours":"Mo-Sa 07:30-21:00; Su 08:30-21:00","shop":"supermarket","source":"Bing"},"wikidata":"Q108169047","coordinates":[41.3983592,23.2095696]},"atp":{"id":"AIap9J0q019Gh7skIqo9C6KlS1E=","tags":{"ref":"119","shop":"supermarket","@source_uri":"https://spatial.virtualearth.net/REST/v1/data/04982a582660451a8e08b705855a1008/Filialdaten-BG/Filialdaten-BG?key=AkK9Xgxa6n1ly8c3xz1ntR6ojGGT3h-hys5yW7P9xHpJS2FycVLoYxLo_eeFR69o&$filter=Adresstyp%20Eq%201&$select=*&$format=json&$top=250&$skip=0","@spider":"lidl_bg","addr:street_address":"ул. Рокфелер 49","addr:city":"Петрич","addr:postcode":"2850","addr:country":"BG","brand":"Lidl","brand:wikidata":"Q151954","nsi_id":"-1"},"coordinates":[41.398,23.20926]},"dist":47.562,"tags_mismatch":false},{"osm":{"type":"way","id":275265645,"tags":{"addr:city":"Пещера","addr:housenumber":"34","addr:postcode":"4550","addr:street":"Хан Пресиян","brand":"Lidl","brand:wikidata":"Q108169047","building":"retail","ele":"460","opening_hours":"Mo-Sa 08:30-20:30; Su 09:00-20:30","shop":"supermarket"},"wikidata":"Q108169047","coordinates":[42.0347854,24.3095734]},"atp":{"id":"EnaHgaoI6fLfL-r4qUiimr5eEtE=","tags":{"ref":"139","shop":"supermarket","@source_uri":"https://spatial.virtualearth.net/REST/v1/data/04982a582660451a8e08b705855a1008/Filialdaten-BG/Filialdaten-BG?key=AkK9Xgxa6n1ly8c3xz1ntR6ojGGT3h-hys5yW7P9xHpJS2FycVLoYxLo_eeFR69o&$filter=Adresstyp%20Eq%201&$select=*&$format=json&$top=250&$skip=0","@spider":"lidl_bg","addr:street_address":"ул. Хан Пресиян 34","addr:city":"Пещера","addr:postcode":"4550","addr:country":"BG","brand":"Lidl","brand:wikidata":"Q151954","nsi_id":"-1"},"coordinates":[42.03416,24.30925]},"dist":74.494,"tags_mismatch":false},{"osm":{"type":"way","id":284103767,"tags":{"addr:city":"Враца","addr:postcode":"3000","brand":"Lidl","brand:wikidata":"Q108169047","building":"yes","opening_hours":"Mo-Sa 08:00-21:00; Su 08:30-20:30","shop":"supermarket"},"wikidata":"Q108169047","coordinates":[43.2074882,23.5618035]},"atp":{"id":"-yp0uGNOJ0bLCJfqCAll2o7e1ds=","tags":{"ref":"163","shop":"supermarket","@source_uri":"https://spatial.virtualearth.net/REST/v1/data/04982a582660451a8e08b705855a1008/Filialdaten-BG/Filialdaten-BG?key=AkK9Xgxa6n1ly8c3xz1ntR6ojGGT3h-hys5yW7P9xHpJS2FycVLoYxLo_eeFR69o&$filter=Adresstyp%20Eq%201&$select=*&$format=json&$top=250&$skip=0","@spider":"lidl_bg","addr:street_address":"ул. Васил Кънчов 21","addr:city":"Враца","addr:postcode":"3000","addr:country":"BG","brand":"Lidl","brand:wikidata":"Q151954","nsi_id":"-1"},"coordinates":[43.20781,23.56104]},"dist":71.481,"tags_mismatch":false},{"osm":{"type":"way","id":286962415,"tags":{"addr:city":"София","addr:housenumber":"15","addr:postcode":"1715","addr:street":"Проф. Александър Танев","addr:suburb":"ж.к. Младост 4","brand":"Lidl","brand:wikidata":"Q108169047","building":"retail","building:levels":"1","check_date":"2023-06-06","internet_access":"no","opening_hours":"Mo-Sa 07:30-21:30; Su 08:30-21:00","payment:mastercard":"yes","payment:visa":"yes","shop":"supermarket","website":"https://www.lidl.bg/","wheelchair":"yes"},"wikidata":"Q108169047","coordinates":[42.6285924,23.383829]},"atp":{"id":"0a0yYgii_b3-o4qlNyr2KH0ggHU=","tags":{"ref":"127","shop":"supermarket","@source_uri":"https://spatial.virtualearth.net/REST/v1/data/04982a582660451a8e08b705855a1008/Filialdaten-BG/Filialdaten-BG?key=AkK9Xgxa6n1ly8c3xz1ntR6ojGGT3h-hys5yW7P9xHpJS2FycVLoYxLo_eeFR69o&$filter=Adresstyp%20Eq%201&$select=*&$format=json&$top=250&$skip=0","@spider":"lidl_bg","addr:street_address":"ул. Проф. Александър Танев 15","addr:city":"София","addr:postcode":"1715","addr:country":"BG","brand":"Lidl","brand:wikidata":"Q151954","nsi_id":"-1"},"coordinates":[42.6287,23.38356]},"dist":25.05,"tags_mismatch":false},{"osm":{"type":"way","id":298213736,"tags":{"addr:city":"Панагюрище","addr:postcode":"4500","brand":"Lidl","brand:wikidata":"Q108169047","building":"supermarket","opening_hours":"Mo-Sa 08:00-21:00; Su 09:00-20:30","shop":"supermarket","wheelchair":"yes"},"wikidata":"Q108169047","coordinates":[42.5044973,24.1716133]},"atp":{"id":"GBeSTh2yJBVYcRmpSaNe30fJGGU=","tags":{"ref":"804","shop":"supermarket","@source_uri":"https://spatial.virtualearth.net/REST/v1/data/04982a582660451a8e08b705855a1008/Filialdaten-BG/Filialdaten-BG?key=AkK9Xgxa6n1ly8c3xz1ntR6ojGGT3h-hys5yW7P9xHpJS2FycVLoYxLo_eeFR69o&$filter=Adresstyp%20Eq%201&$select=*&$format=json&$top=250&$skip=0","@spider":"lidl_bg","addr:street_address":"ул. Пятигорск 58","addr:city":"Панагюрище","addr:postcode":"4500","addr:country":"BG","brand":"Lidl","brand:wikidata":"Q151954","nsi_id":"-1"},"coordinates":[42.50445,24.17167]},"dist":7.019,"tags_mismatch":false},{"osm":{"type":"way","id":309202222,"tags":{"addr:city":"Ловеч","addr:postcode":"5502","brand":"Lidl","brand:wikidata":"Q108169047","building":"yes","opening_hours":"Mo-Sa 07:30-21:00; Su 08:30-21:00","shop":"supermarket"},"wikidata":"Q108169047","coordinates":[43.1447325,24.711666]},"atp":{"id":"ZbOW8hoRjeMYjZOcxWAKgF5gIV4=","tags":{"ref":"116","shop":"supermarket","@source_uri":"https://spatial.virtualearth.net/REST/v1/data/04982a582660451a8e08b705855a1008/Filialdaten-BG/Filialdaten-BG?key=AkK9Xgxa6n1ly8c3xz1ntR6ojGGT3h-hys5yW7P9xHpJS2FycVLoYxLo_eeFR69o&$filter=Adresstyp%20Eq%201&$select=*&$format=json&$top=250&$skip=0","@spider":"lidl_bg","addr:street_address":"ул. Княз Имеретински 103","addr:city":"Ловеч","addr:postcode":"5502","addr:country":"BG","brand":"Lidl","brand:wikidata":"Q151954","nsi_id":"-1"},"coordinates":[43.14456,24.71181]},"dist":22.459,"tags_mismatch":false},{"osm":{"type":"way","id":317252507,"tags":{"addr:city":"Хасково","addr:housenumber":"93","addr:postcode":"6300","addr:street":"бул. България","brand":"Lidl","brand:wikidata":"Q108169047","building":"retail","building:levels":"1","opening_hours":"Mo-Sa 07:30-21:30; Su 08:30-21:00","payment:cash":"yes","payment:contactless":"yes","payment:credit_cards":"yes","payment:debit_cards":"yes","roof:shape":"skillion","shop":"supermarket"},"wikidata":"Q108169047","coordinates":[41.9300378,25.5638417]},"atp":{"id":"7ltfLYjiJHoIC3PaYXfid-uiXNI=","tags":{"ref":"149","shop":"supermarket","@source_uri":"https://spatial.virtualearth.net/REST/v1/data/04982a582660451a8e08b705855a1008/Filialdaten-BG/Filialdaten-BG?key=AkK9Xgxa6n1ly8c3xz1ntR6ojGGT3h-hys5yW7P9xHpJS2FycVLoYxLo_eeFR69o&$filter=Adresstyp%20Eq%201&$select=*&$format=json&$top=250&$skip=0","@spider":"lidl_bg","addr:street_address":"бул. България 93","addr:city":"Хасково","addr:postcode":"6300","addr:country":"BG","brand":"Lidl","brand:wikidata":"Q151954","nsi_id":"-1"},"coordinates":[41.92996,25.56385]},"dist":8.678,"tags_mismatch":false},{"osm":{"type":"way","id":324074391,"tags":{"addr:city":"Троян","addr:postcode":"5600","brand":"Lidl","brand:wikidata":"Q108169047","building":"yes","opening_hours":"Mo-Sa 08:30-21:00; Su 09:00-20:30","shop":"supermarket"},"wikidata":"Q108169047","coordinates":[42.8918848,24.7156231]},"atp":{"id":"vEQcetcBEo_dukzFhU5S9pOL8nc=","tags":{"ref":"216","shop":"supermarket","@source_uri":"https://spatial.virtualearth.net/REST/v1/data/04982a582660451a8e08b705855a1008/Filialdaten-BG/Filialdaten-BG?key=AkK9Xgxa6n1ly8c3xz1ntR6ojGGT3h-hys5yW7P9xHpJS2FycVLoYxLo_eeFR69o&$filter=Adresstyp%20Eq%201&$select=*&$format=json&$top=250&$skip=0","@spider":"lidl_bg","addr:street_address":"ул. Академик Ангел Балевски 1","addr:city":"Троян","addr:postcode":"5600","addr:country":"BG","brand":"Lidl","brand:wikidata":"Q151954","nsi_id":"-1"},"coordinates":[42.89178,24.71541]},"dist":20.909,"tags_mismatch":false},{"osm":{"type":"way","id":324718629,"tags":{"addr:city":"Пловдив","addr:postcode":"4017","brand":"Lidl","brand:wikidata":"Q108169047","building":"yes","opening_hours":"Mo-Sa 07:30-22:00; Su 08:30-21:30","shop":"supermarket"},"wikidata":"Q108169047","coordinates":[42.1391467,24.762401]},"atp":{"id":"5F3Fx17bvxwR44gyO8tIaJrw0CM=","tags":{"ref":"180","shop":"supermarket","@source_uri":"https://spatial.virtualearth.net/REST/v1/data/04982a582660451a8e08b705855a1008/Filialdaten-BG/Filialdaten-BG?key=AkK9Xgxa6n1ly8c3xz1ntR6ojGGT3h-hys5yW7P9xHpJS2FycVLoYxLo_eeFR69o&$filter=Adresstyp%20Eq%201&$select=*&$format=json&$top=250&$skip=0","@spider":"lidl_bg","addr:street_address":"бул. Източен 33","addr:city":"Пловдив","addr:postcode":"4017","addr:country":"BG","brand":"Lidl","brand:wikidata":"Q151954","nsi_id":"-1"},"coordinates":[42.13906,24.76242]},"dist":9.767,"tags_mismatch":false},{"osm":{"type":"way","id":329730862,"tags":{"addr:city":"Кърджали","addr:housenumber":"72 79","addr:postcode":"6600","addr:street":"бул. Беломорски","brand":"Лидл","brand:wikidata":"Q108169047","building":"yes","opening_hours":"Mo-Sa 07:30-21:30; Su 08:30-21:00","phone":"+359 800 14141","shop":"supermarket"},"wikidata":"Q108169047","coordinates":[41.6307666,25.3772846]},"atp":{"id":"sM7OjJ5LS5gOg2hGvjH2hzgGNf8=","tags":{"ref":"132","shop":"supermarket","@source_uri":"https://spatial.virtualearth.net/REST/v1/data/04982a582660451a8e08b705855a1008/Filialdaten-BG/Filialdaten-BG?key=AkK9Xgxa6n1ly8c3xz1ntR6ojGGT3h-hys5yW7P9xHpJS2FycVLoYxLo_eeFR69o&$filter=Adresstyp%20Eq%201&$select=*&$format=json&$top=250&$skip=0","@spider":"lidl_bg","addr:street_address":"бул. Беломорски 72 79","addr:city":"Кърджали","addr:postcode":"6600","addr:country":"BG","brand":"Lidl","brand:wikidata":"Q151954","nsi_id":"-1"},"coordinates":[41.63078,25.37727]},"dist":1.922,"tags_mismatch":false},{"osm":{"type":"way","id":330980888,"tags":{"addr:city":"София","addr:housenumber":"62А","addr:postcode":"1606","addr:street":"бул. Ген. Скобелев","brand":"Lidl","brand:wikidata":"Q108169047","building":"retail","building:levels":"1","opening_hours":"Mo-Sa 07:30-22:00; Su 08:30-22:00","shop":"supermarket","smoking":"no","website":"https://www.lidl.bg/","wheelchair":"yes"},"wikidata":"Q108169047","coordinates":[42.6955674,23.3096756]},"atp":{"id":"TBvakW6oYDPXIiSBmOUVRn_nYiY=","tags":{"ref":"175","shop":"supermarket","@source_uri":"https://spatial.virtualearth.net/REST/v1/data/04982a582660451a8e08b705855a1008/Filialdaten-BG/Filialdaten-BG?key=AkK9Xgxa6n1ly8c3xz1ntR6ojGGT3h-hys5yW7P9xHpJS2FycVLoYxLo_eeFR69o&$filter=Adresstyp%20Eq%201&$select=*&$format=json&$top=250&$skip=0","@spider":"lidl_bg","addr:street_address":"бул. Скобелев 62A","addr:city":"София","addr:postcode":"1606","addr:country":"BG","brand":"Lidl","brand:wikidata":"Q151954","nsi_id":"-1"},"coordinates":[42.69561,23.30929]},"dist":31.867,"tags_mismatch":false},{"osm":{"type":"way","id":334341071,"tags":{"addr:city":"Бургас","addr:place":"Районен център 420","addr:postcode":"8009","brand":"Lidl","brand:wikidata":"Q108169047","building":"yes","opening_hours":"Mo-Sa 07:30-21:30; Su 08:30-21:00","shop":"supermarket"},"wikidata":"Q108169047","coordinates":[42.4585883,27.4150728]},"atp":{"id":"weQlSSnPHow7FQDbH5y6i53eGzE=","tags":{"ref":"109","shop":"supermarket","@source_uri":"https://spatial.virtualearth.net/REST/v1/data/04982a582660451a8e08b705855a1008/Filialdaten-BG/Filialdaten-BG?key=AkK9Xgxa6n1ly8c3xz1ntR6ojGGT3h-hys5yW7P9xHpJS2FycVLoYxLo_eeFR69o&$filter=Adresstyp%20Eq%201&$select=*&$format=json&$top=250&$skip=0","@spider":"lidl_bg","addr:street_address":"ж.к. Меден Рудник","addr:city":"Бургас","addr:postcode":"8009","addr:country":"BG","brand":"Lidl","brand:wikidata":"Q151954","nsi_id":"-1"},"coordinates":[42.45859,27.41558]},"dist":41.609,"tags_mismatch":false},{"osm":{"type":"way","id":335169578,"tags":{"addr:city":"Бургас","addr:housenumber":"17","addr:postcode":"8001","addr:street":"Проф. Яким Якимов","brand":"Lidl","brand:wikidata":"Q108169047","building":"retail","opening_hours":"Mo-Sa 08:30-21:00; Su 09:00-21:00","shop":"supermarket"},"wikidata":"Q108169047","coordinates":[42.5239576,27.4433503]},"atp":{"id":"2sdX3ZpbSdqeEkOOk4Qbc87tZkg=","tags":{"ref":"810","shop":"supermarket","@source_uri":"https://spatial.virtualearth.net/REST/v1/data/04982a582660451a8e08b705855a1008/Filialdaten-BG/Filialdaten-BG?key=AkK9Xgxa6n1ly8c3xz1ntR6ojGGT3h-hys5yW7P9xHpJS2FycVLoYxLo_eeFR69o&$filter=Adresstyp%20Eq%201&$select=*&$format=json&$top=250&$skip=0","@spider":"lidl_bg","addr:street_address":"ул. Проф. Яким Якимов 17","addr:city":"Бургас","addr:postcode":"8001","addr:country":"BG","brand":"Lidl","brand:wikidata":"Q151954","nsi_id":"-1"},"coordinates":[42.52337,27.44415]},"dist":92.542,"tags_mismatch":false},{"osm":{"type":"way","id":340062742,"tags":{"addr:city":"Плевен","addr:housenumber":"119","addr:place":"ж.к. Сторгозия","addr:postcode":"5802","brand":"Lidl","brand:wikidata":"Q108169047","building":"yes","check_date":"2022-12-01","internet_access":"no","opening_hours":"Mo-Sa 08:00-21:30; Su 08:30-21:00","payment:mastercard":"yes","payment:visa":"yes","phone":"+359 2 906 6444","shop":"supermarket","website":"https://lidl.bg","wheelchair":"yes"},"wikidata":"Q108169047","coordinates":[43.4250476,24.5895096]},"atp":{"id":"9nt4N8bnU08PpS5PLWTsCvO5bvs=","tags":{"ref":"136","shop":"supermarket","@source_uri":"https://spatial.virtualearth.net/REST/v1/data/04982a582660451a8e08b705855a1008/Filialdaten-BG/Filialdaten-BG?key=AkK9Xgxa6n1ly8c3xz1ntR6ojGGT3h-hys5yW7P9xHpJS2FycVLoYxLo_eeFR69o&$filter=Adresstyp%20Eq%201&$select=*&$format=json&$top=250&$skip=0","@spider":"lidl_bg","addr:street_address":"ж.к. Сторгозия 119","addr:city":"Плевен","addr:postcode":"5802","addr:country":"BG","brand":"Lidl","brand:wikidata":"Q151954","nsi_id":"-1"},"coordinates":[43.42553,24.59005]},"dist":69.151,"tags_mismatch":false},{"osm":{"type":"way","id":340828047,"tags":{"addr:city":"Сливен","addr:postcode":"8801","brand":"Lidl","brand:wikidata":"Q108169047","building":"yes","int_name":"Lidl","opening_hours":"Mo-Sa 08:00-21:00; Su 09:00-20:30","shop":"supermarket","wheelchair":"yes"},"wikidata":"Q108169047","coordinates":[42.6745844,26.3227522]},"atp":{"id":"s3U9bM-B9ruw_sNYmxTmQWRccb4=","tags":{"ref":"113","shop":"supermarket","@source_uri":"https://spatial.virtualearth.net/REST/v1/data/04982a582660451a8e08b705855a1008/Filialdaten-BG/Filialdaten-BG?key=AkK9Xgxa6n1ly8c3xz1ntR6ojGGT3h-hys5yW7P9xHpJS2FycVLoYxLo_eeFR69o&$filter=Adresstyp%20Eq%201&$select=*&$format=json&$top=250&$skip=0","@spider":"lidl_bg","addr:street_address":"ул. Цар Симеон 37","addr:city":"Сливен","addr:postcode":"8801","addr:country":"BG","brand":"Lidl","brand:wikidata":"Q151954","nsi_id":"-1"},"coordinates":[42.67484,26.32321]},"dist":46.995,"tags_mismatch":false},{"osm":{"type":"way","id":367996193,"tags":{"addr:city":"Русе","addr:housenumber":"17","addr:postcode":"7002","addr:street":"Майор Атанас Узунов","brand":"Lidl","brand:wikidata":"Q108169047","building":"retail","building:levels":"2","opening_hours":"Mo-Sa 07:30-21:30; Su 08:30-21:00","roof:levels":"1","roof:shape":"flat","shop":"supermarket","wheelchair":"yes"},"wikidata":"Q108169047","coordinates":[43.8562302,25.9593319]},"atp":{"id":"J4ycRIWgZ01Mcmk1yb73h2jmpGI=","tags":{"ref":"148","shop":"supermarket","@source_uri":"https://spatial.virtualearth.net/REST/v1/data/04982a582660451a8e08b705855a1008/Filialdaten-BG/Filialdaten-BG?key=AkK9Xgxa6n1ly8c3xz1ntR6ojGGT3h-hys5yW7P9xHpJS2FycVLoYxLo_eeFR69o&$filter=Adresstyp%20Eq%201&$select=*&$format=json&$top=250&$skip=0","@spider":"lidl_bg","addr:street_address":"ул. Майор Атанас Узунов 17","addr:city":"Русе","addr:postcode":"7002","addr:country":"BG","brand":"Lidl","brand:wikidata":"Q151954","nsi_id":"-1"},"coordinates":[43.85574,25.95929]},"dist":54.611,"tags_mismatch":false},{"osm":{"type":"way","id":369097788,"tags":{"addr:city":"Пазарджик","addr:housenumber":"48А","addr:postcode":"4400","addr:street":"бул. Александър Стамболийски","alt_name":"Лидъл","brand":"Lidl","brand:wikidata":"Q108169047","building":"supermarket","int_name":"Lidl","opening_hours":"Mo-Sa 07:30-21:30; Su 08:30-21:00","phone":"+359 800 14141","shop":"supermarket","toilets:wheelchair":"no","website":"https://www.lidl.bg/","wheelchair":"yes"},"wikidata":"Q108169047","coordinates":[42.1966815,24.3266448]},"atp":{"id":"8s8p2rQGoMYUuvQTHQKPqtuJdi8=","tags":{"ref":"137","shop":"supermarket","@source_uri":"https://spatial.virtualearth.net/REST/v1/data/04982a582660451a8e08b705855a1008/Filialdaten-BG/Filialdaten-BG?key=AkK9Xgxa6n1ly8c3xz1ntR6ojGGT3h-hys5yW7P9xHpJS2FycVLoYxLo_eeFR69o&$filter=Adresstyp%20Eq%201&$select=*&$format=json&$top=250&$skip=0","@spider":"lidl_bg","addr:street_address":"бул. Ал. Стамболийски 48А","addr:city":"Пазарджик","addr:postcode":"4400","addr:country":"BG","brand":"Lidl","brand:wikidata":"Q151954","nsi_id":"-1"},"coordinates":[42.19672,24.32666]},"dist":4.46,"tags_mismatch":false},{"osm":{"type":"way","id":390324100,"tags":{"addr:city":"Перник","addr:postcode":"2303","brand":"Lidl","brand:wikidata":"Q108169047","building":"yes","opening_hours":"Mo-Sa 08:00-21:00; Su 08:30-21:00","shop":"supermarket","source":"Bing","website":"https://www.lidl.bg/"},"wikidata":"Q108169047","coordinates":[42.6113835,23.0913058]},"atp":{"id":"m4_kMjfHA34uuiMJkzsMXXBfK_0=","tags":{"ref":"803","shop":"supermarket","@source_uri":"https://spatial.virtualearth.net/REST/v1/data/04982a582660451a8e08b705855a1008/Filialdaten-BG/Filialdaten-BG?key=AkK9Xgxa6n1ly8c3xz1ntR6ojGGT3h-hys5yW7P9xHpJS2FycVLoYxLo_eeFR69o&$filter=Adresstyp%20Eq%201&$select=*&$format=json&$top=250&$skip=0","@spider":"lidl_bg","addr:street_address":"ул. Юри Гагарин 3В","addr:city":"Перник","addr:postcode":"2303","addr:country":"BG","brand":"Lidl","brand:wikidata":"Q151954","nsi_id":"-1"},"coordinates":[42.61101,23.09131]},"dist":41.533,"tags_mismatch":false},{"osm":{"type":"way","id":398538162,"tags":{"addr:city":"Асеновград","addr:postcode":"4230","brand":"Lidl","brand:wikidata":"Q108169047","building":"supermarket","opening_hours":"Mo-Sa 08:00-21:30; Su 09:00-21:00","shop":"supermarket"},"wikidata":"Q108169047","coordinates":[42.0146279,24.8679902]},"atp":{"id":"M_DILK78FTNsLrqZxRCO5nLvxF0=","tags":{"ref":"129","shop":"supermarket","@source_uri":"https://spatial.virtualearth.net/REST/v1/data/04982a582660451a8e08b705855a1008/Filialdaten-BG/Filialdaten-BG?key=AkK9Xgxa6n1ly8c3xz1ntR6ojGGT3h-hys5yW7P9xHpJS2FycVLoYxLo_eeFR69o&$filter=Adresstyp%20Eq%201&$select=*&$format=json&$top=250&$skip=0","@spider":"lidl_bg","addr:street_address":"ул. Васил Левски 26","addr:city":"Асеновград","addr:postcode":"4230","addr:country":"BG","brand":"Lidl","brand:wikidata":"Q151954","nsi_id":"-1"},"coordinates":[42.01469,24.86802]},"dist":7.331,"tags_mismatch":false},{"osm":{"type":"way","id":422503282,"tags":{"addr:city":"София","addr:housenumber":"28","addr:postcode":"1404","addr:street":"Тодор Каблешков","brand":"Lidl","brand:wikidata":"Q108169047","building":"retail","building:levels":"1","opening_hours":"Mo-Sa 07:30-22:00; Su 08:30-22:00","roof:shape":"flat","self_checkout":"yes","shop":"supermarket","website":"https://www.lidl.bg/","wheelchair":"yes"},"wikidata":"Q108169047","coordinates":[42.659605,23.300775]},"atp":{"id":"aw-XbNwtsnnBoa1Na2PwwAr8c7Q=","tags":{"ref":"172","shop":"supermarket","@source_uri":"https://spatial.virtualearth.net/REST/v1/data/04982a582660451a8e08b705855a1008/Filialdaten-BG/Filialdaten-BG?key=AkK9Xgxa6n1ly8c3xz1ntR6ojGGT3h-hys5yW7P9xHpJS2FycVLoYxLo_eeFR69o&$filter=Adresstyp%20Eq%201&$select=*&$format=json&$top=250&$skip=0","@spider":"lidl_bg","addr:street_address":"ул. Тодор Каблешков 28","addr:city":"София","addr:postcode":"1404","addr:country":"BG","brand":"Lidl","brand:wikidata":"Q151954","nsi_id":"-1"},"coordinates":[42.6599,23.30046]},"dist":41.707,"tags_mismatch":false},{"osm":{"type":"way","id":424978165,"tags":{"addr:city":"Велинград","addr:housenumber":"92","addr:postcode":"4600","addr:street":"Георги Кирков","brand":"Lidl","brand:wikidata":"Q108169047","building":"yes","building:levels":"1","check_date":"2023-02-19","internet_access":"no","opening_hours":"Mo-Su 09:00-21:00","payment:cash":"yes","payment:credit_cards":"yes","payment:debit_cards":"yes","shop":"supermarket","website":"https://lidl.bg","wheelchair":"yes"},"wikidata":"Q108169047","coordinates":[42.0320653,24.004529]},"atp":{"id":"Dtx4BAMttjQWPGsoRk7_Cb8CvIA=","tags":{"ref":"130","shop":"supermarket","@source_uri":"https://spatial.virtualearth.net/REST/v1/data/04982a582660451a8e08b705855a1008/Filialdaten-BG/Filialdaten-BG?key=AkK9Xgxa6n1ly8c3xz1ntR6ojGGT3h-hys5yW7P9xHpJS2FycVLoYxLo_eeFR69o&$filter=Adresstyp%20Eq%201&$select=*&$format=json&$top=250&$skip=0","@spider":"lidl_bg","addr:street_address":"ул. Георги Кирков 92","addr:city":"Велинград","addr:postcode":"4600","addr:country":"BG","brand":"Lidl","brand:wikidata":"Q151954","nsi_id":"-1"},"coordinates":[42.03198,24.00463]},"dist":12.631,"tags_mismatch":false},{"osm":{"type":"way","id":469478635,"tags":{"addr:city":"Габрово","addr:housenumber":"4","addr:postcode":"5306","addr:street":"Васил Неделчев","brand":"Lidl","brand:wikidata":"Q108169047","building":"commercial","building:levels":"1","note:cadastre:building_use":"Сграда за тьрговия","opening_hours":"Mo-Sa 08:00-21:00; Su 09:00-20:30","shop":"supermarket"},"wikidata":"Q108169047","coordinates":[42.8812865,25.315834]},"atp":{"id":"Lvn_OOszTvfYXc0cXoIVTmCdzZc=","tags":{"ref":"121","shop":"supermarket","@source_uri":"https://spatial.virtualearth.net/REST/v1/data/04982a582660451a8e08b705855a1008/Filialdaten-BG/Filialdaten-BG?key=AkK9Xgxa6n1ly8c3xz1ntR6ojGGT3h-hys5yW7P9xHpJS2FycVLoYxLo_eeFR69o&$filter=Adresstyp%20Eq%201&$select=*&$format=json&$top=250&$skip=0","@spider":"lidl_bg","addr:street_address":"ул. Васил Неделчев 4","addr:city":"Габрово","addr:postcode":"5306","addr:country":"BG","brand":"Lidl","brand:wikidata":"Q151954","nsi_id":"-1"},"coordinates":[42.88084,25.31606]},"dist":52.953,"tags_mismatch":false},{"osm":{"type":"way","id":469478828,"tags":{"addr:city":"Габрово","addr:housenumber":"68","addr:postcode":"5312","addr:street":"Свищовска","addr:street:en":"Svishtovska","addr:suburb":"Младост","brand":"Lidl","brand:wikidata":"Q108169047","building":"commercial","building:levels":"1","note:cadastre:building_use":"Сграда за тьрговия","opening_hours":"Mo-Sa 08:00-21:00; Su 09:00-20:30","phone":"+359 800 14141","shop":"supermarket","website":"https://www.lidl.bg/"},"wikidata":"Q108169047","coordinates":[42.8953665,25.3109301]},"atp":{"id":"y2DCLuIbiHuI4biOjd8EJbSiNTI=","tags":{"ref":"114","shop":"supermarket","@source_uri":"https://spatial.virtualearth.net/REST/v1/data/04982a582660451a8e08b705855a1008/Filialdaten-BG/Filialdaten-BG?key=AkK9Xgxa6n1ly8c3xz1ntR6ojGGT3h-hys5yW7P9xHpJS2FycVLoYxLo_eeFR69o&$filter=Adresstyp%20Eq%201&$select=*&$format=json&$top=250&$skip=0","@spider":"lidl_bg","addr:street_address":"ул. Свищовска 68","addr:city":"Габрово","addr:postcode":"5312","addr:country":"BG","brand":"Lidl","brand:wikidata":"Q151954","nsi_id":"-1"},"coordinates":[42.89503,25.31082]},"dist":38.477,"tags_mismatch":false},{"osm":{"type":"way","id":476034873,"tags":{"addr:city":"София","addr:housenumber":"52","addr:postcode":"1712","addr:street":"бул. Андрей Ляпчев","brand":"Lidl","brand:wikidata":"Q108169047","building":"retail","building:levels":"2","check_date":"2022-12-18","opening_hours":"Mo-Sa 07:30-22:00; Su 08:30-21:30","shop":"supermarket","website":"https://www.lidl.bg/","wheelchair":"yes"},"wikidata":"Q108169047","coordinates":[42.6490448,23.3684932]},"atp":{"id":"x3H-dOyhtU76_qVkk8BEotC6n2g=","tags":{"ref":"173","shop":"supermarket","@source_uri":"https://spatial.virtualearth.net/REST/v1/data/04982a582660451a8e08b705855a1008/Filialdaten-BG/Filialdaten-BG?key=AkK9Xgxa6n1ly8c3xz1ntR6ojGGT3h-hys5yW7P9xHpJS2FycVLoYxLo_eeFR69o&$filter=Adresstyp%20Eq%201&$select=*&$format=json&$top=250&$skip=0","@spider":"lidl_bg","addr:street_address":"бул. Андрей Ляпчев 52","addr:city":"София","addr:postcode":"1712","addr:country":"BG","brand":"Lidl","brand:wikidata":"Q151954","nsi_id":"-1"},"coordinates":[42.64945,23.36869]},"dist":47.845,"tags_mismatch":false},{"osm":{"type":"way","id":497919519,"tags":{"addr:city":"Каварна","addr:housenumber":"1","addr:postcode":"9650","addr:street":"Марица","brand":"Lidl","brand:wikidata":"Q108169047","building":"commercial","opening_hours":"Mo-Su 08:00-22:00","shop":"supermarket"},"wikidata":"Q108169047","coordinates":[43.4350937,28.3274237]},"atp":{"id":"Yz_5OzD1wU_IZVFDteMPY19jVTQ=","tags":{"ref":"241","shop":"supermarket","@source_uri":"https://spatial.virtualearth.net/REST/v1/data/04982a582660451a8e08b705855a1008/Filialdaten-BG/Filialdaten-BG?key=AkK9Xgxa6n1ly8c3xz1ntR6ojGGT3h-hys5yW7P9xHpJS2FycVLoYxLo_eeFR69o&$filter=Adresstyp%20Eq%201&$select=*&$format=json&$top=250&$skip=0","@spider":"lidl_bg","addr:street_address":"ул. Марица 1","addr:city":"Каварна","addr:postcode":"9650","addr:country":"BG","brand":"Lidl","brand:wikidata":"Q151954","nsi_id":"-1"},"coordinates":[43.43546,28.32692]},"dist":57.56,"tags_mismatch":false},{"osm":{"type":"way","id":589854027,"tags":{"addr:city":"София","addr:housenumber":"3","addr:postcode":"1612","addr:street":"Ладога","brand":"Lidl","brand:wikidata":"Q108169047","building":"retail","building:levels":"2","check_date":"2024-12-05","opening_hours":"Mo-Sa 07:30-21:30; Su 08:30-21:30","self_checkout":"yes","shop":"supermarket","website":"https://www.lidl.bg/","wheelchair":"yes"},"wikidata":"Q108169047","coordinates":[42.6699273,23.2789564]},"atp":{"id":"d4tP4T-qVn2h_6KBbl_bJuENlb4=","tags":{"ref":"182","shop":"supermarket","@source_uri":"https://spatial.virtualearth.net/REST/v1/data/04982a582660451a8e08b705855a1008/Filialdaten-BG/Filialdaten-BG?key=AkK9Xgxa6n1ly8c3xz1ntR6ojGGT3h-hys5yW7P9xHpJS2FycVLoYxLo_eeFR69o&$filter=Adresstyp%20Eq%201&$select=*&$format=json&$top=250&$skip=0","@spider":"lidl_bg","addr:street_address":"ул. Ладога 3","addr:city":"София","addr:postcode":"1612","addr:country":"BG","brand":"Lidl","brand:wikidata":"Q151954","nsi_id":"-1"},"coordinates":[42.66999,23.27859]},"dist":30.757,"tags_mismatch":false},{"osm":{"type":"way","id":594237017,"tags":{"addr:city":"Козлодуй","addr:housenumber":"2А","addr:postcode":"3320","addr:street":"Христо Ботев","brand":"Lidl","brand:wikidata":"Q108169047","building":"yes","building:levels":"1","opening_hours":"Mo-Sa 08:30-21:00; Su 08:30-20:30","payment:coins":"yes","payment:credit_cards":"yes","payment:debit_cards":"yes","payment:notes":"yes","phone":"+359 800 14141","shop":"supermarket","website":"https://www.lidl.bg/"},"wikidata":"Q108169047","coordinates":[43.7756383,23.7342894]},"atp":{"id":"k4CeAp4njj8ZdL_eFFkVN5Ctuyc=","tags":{"ref":"822","shop":"supermarket","@source_uri":"https://spatial.virtualearth.net/REST/v1/data/04982a582660451a8e08b705855a1008/Filialdaten-BG/Filialdaten-BG?key=AkK9Xgxa6n1ly8c3xz1ntR6ojGGT3h-hys5yW7P9xHpJS2FycVLoYxLo_eeFR69o&$filter=Adresstyp%20Eq%201&$select=*&$format=json&$top=250&$skip=0","@spider":"lidl_bg","addr:street_address":"ул. Христо Ботев 2A","addr:city":"Козлодуй","addr:postcode":"3320","addr:country":"BG","brand":"Lidl","brand:wikidata":"Q151954","nsi_id":"-1"},"coordinates":[43.77586,23.73335]},"dist":79.35,"tags_mismatch":false},{"osm":{"type":"way","id":611733552,"tags":{"addr:city":"София","addr:postcode":"1405","brand":"Lidl","brand:wikidata":"Q108169047","building":"retail","opening_hours":"Mo-Sa 07:30-22:00; Su 09:00-22:00","shop":"supermarket","website":"https://www.lidl.bg/"},"wikidata":"Q108169047","coordinates":[42.6400111,23.3125682]},"atp":{"id":"RieTliHmeEaAnZ6Gf0Ub9VNRSbo=","tags":{"ref":"174","shop":"supermarket","@source_uri":"https://spatial.virtualearth.net/REST/v1/data/04982a582660451a8e08b705855a1008/Filialdaten-BG/Filialdaten-BG?key=AkK9Xgxa6n1ly8c3xz1ntR6ojGGT3h-hys5yW7P9xHpJS2FycVLoYxLo_eeFR69o&$filter=Adresstyp%20Eq%201&$select=*&$format=json&$top=250&$skip=0","@spider":"lidl_bg","addr:street_address":"бул. Черни връх 173","addr:city":"София","addr:postcode":"1405","addr:country":"BG","brand":"Lidl","brand:wikidata":"Q151954","nsi_id":"-1"},"coordinates":[42.6402,23.31286]},"dist":31.795,"tags_mismatch":false},{"osm":{"type":"way","id":627425255,"tags":{"addr:city":"Враца","addr:postcode":"3005","brand":"Lidl","brand:wikidata":"Q108169047","building":"yes","internet_access":"wlan","opening_hours":"Mo-Sa 08:00-21:00; Su 08:30-20:30","shop":"supermarket"},"wikidata":"Q108169047","coordinates":[43.2206424,23.5421784]},"atp":{"id":"IO55lAKBxY7pPQoUZ8q7GprRH9I=","tags":{"ref":"821","shop":"supermarket","@source_uri":"https://spatial.virtualearth.net/REST/v1/data/04982a582660451a8e08b705855a1008/Filialdaten-BG/Filialdaten-BG?key=AkK9Xgxa6n1ly8c3xz1ntR6ojGGT3h-hys5yW7P9xHpJS2FycVLoYxLo_eeFR69o&$filter=Adresstyp%20Eq%201&$select=*&$format=json&$top=250&$skip=0","@spider":"lidl_bg","addr:street_address":"ул. Стоян Ц. Даскалов 3","addr:city":"Враца","addr:postcode":"3005","addr:country":"BG","brand":"Lidl","brand:wikidata":"Q151954","nsi_id":"-1"},"coordinates":[43.22056,23.54249]},"dist":26.86,"tags_mismatch":false},{"osm":{"type":"way","id":682666280,"tags":{"addr:city":"Самоков","addr:postcode":"2000","brand":"Lidl","brand:wikidata":"Q108169047","building":"supermarket","opening_hours":"Mo-Sa 08:30-21:00; Su 09:00-21:00","shop":"supermarket"},"wikidata":"Q108169047","coordinates":[42.3341994,23.5554242]},"atp":{"id":"hmU-OHiBVAOIyYFN4_b3BoBrOj0=","tags":{"ref":"189","shop":"supermarket","@source_uri":"https://spatial.virtualearth.net/REST/v1/data/04982a582660451a8e08b705855a1008/Filialdaten-BG/Filialdaten-BG?key=AkK9Xgxa6n1ly8c3xz1ntR6ojGGT3h-hys5yW7P9xHpJS2FycVLoYxLo_eeFR69o&$filter=Adresstyp%20Eq%201&$select=*&$format=json&$top=250&$skip=0","@spider":"lidl_bg","addr:street_address":"бул. Искър 2Б","addr:city":"Самоков","addr:postcode":"2000","addr:country":"BG","brand":"Lidl","brand:wikidata":"Q151954","nsi_id":"-1"},"coordinates":[42.33428,23.55537]},"dist":10.009,"tags_mismatch":false},{"osm":{"type":"way","id":685053670,"tags":{"addr:city":"курортен комплекс „Св. Константин и Елена“","addr:housenumber":"6","addr:postcode":"9000","addr:street":"68-ма","brand":"Lidl","brand:wikidata":"Q108169047","building":"yes","opening_hours":"Mo-Sa 08:00-22:30; Su 08:00-22:00","shop":"supermarket"},"wikidata":"Q108169047","coordinates":[43.2312253,28.0054082]},"atp":{"id":"HxJbMq-IzyzoK4Ab3i4N7Fo0MVM=","tags":{"ref":"191","shop":"supermarket","@source_uri":"https://spatial.virtualearth.net/REST/v1/data/04982a582660451a8e08b705855a1008/Filialdaten-BG/Filialdaten-BG?key=AkK9Xgxa6n1ly8c3xz1ntR6ojGGT3h-hys5yW7P9xHpJS2FycVLoYxLo_eeFR69o&$filter=Adresstyp%20Eq%201&$select=*&$format=json&$top=250&$skip=0","@spider":"lidl_bg","addr:street_address":"ул.45, № 27","addr:city":"Варна, курортен комплекс Св. Константин и Елена","addr:postcode":"9000","addr:country":"BG","brand":"Lidl","brand:wikidata":"Q151954","nsi_id":"-1"},"coordinates":[43.23163,28.00592]},"dist":61.191,"tags_mismatch":false},{"osm":{"type":"way","id":686139173,"tags":{"addr:city":"Монтана","addr:postcode":"3405","brand":"Lidl","brand:wikidata":"Q108169047","building":"yes","opening_hours":"Mo-Sa 08:00-21:00; Su 09:00-21:00","shop":"supermarket"},"wikidata":"Q108169047","coordinates":[43.417919,23.2264031]},"atp":{"id":"6ECMnllSn_YVy55wsHSy1OH6GmY=","tags":{"ref":"131","shop":"supermarket","@source_uri":"https://spatial.virtualearth.net/REST/v1/data/04982a582660451a8e08b705855a1008/Filialdaten-BG/Filialdaten-BG?key=AkK9Xgxa6n1ly8c3xz1ntR6ojGGT3h-hys5yW7P9xHpJS2FycVLoYxLo_eeFR69o&$filter=Adresstyp%20Eq%201&$select=*&$format=json&$top=250&$skip=0","@spider":"lidl_bg","addr:street_address":"ул. Трети Март 137А","addr:city":"Монтана","addr:postcode":"3405","addr:country":"BG","brand":"Lidl","brand:wikidata":"Q151954","nsi_id":"-1"},"coordinates":[43.41801,23.22634]},"dist":11.33,"tags_mismatch":false},{"osm":{"type":"way","id":689369317,"tags":{"addr:city":"Варна","addr:postcode":"9000","brand":"Lidl","brand:wikidata":"Q108169047","building":"yes","check_date":"2024-08-29","internet_access":"no","opening_hours":"Mo-Sa 07:00-22:30; Su 08:00-22:00","payment:cash":"yes","payment:credit_cards":"yes","payment:debit_cards":"yes","shop":"supermarket","wheelchair":"yes"},"wikidata":"Q108169047","coordinates":[43.2153944,27.9154824]},"atp":{"id":"eshyHWyRr4MYsAtJFWEKUXdMFjI=","tags":{"ref":"192","shop":"supermarket","@source_uri":"https://spatial.virtualearth.net/REST/v1/data/04982a582660451a8e08b705855a1008/Filialdaten-BG/Filialdaten-BG?key=AkK9Xgxa6n1ly8c3xz1ntR6ojGGT3h-hys5yW7P9xHpJS2FycVLoYxLo_eeFR69o&$filter=Adresstyp%20Eq%201&$select=*&$format=json&$top=250&$skip=0","@spider":"lidl_bg","addr:street_address":"ул. Битоля 1А","addr:city":"Варна","addr:postcode":"9000","addr:country":"BG","brand":"Lidl","brand:wikidata":"Q151954","nsi_id":"-1"},"coordinates":[43.21497,27.91531]},"dist":49.216,"tags_mismatch":false},{"osm":{"type":"way","id":706654153,"tags":{"addr:city":"Шумен","addr:housenumber":"36A","addr:postcode":"9700","addr:street":"бул. Симеон Велики","air_conditioning":"yes","brand":"Lidl","brand:wikidata":"Q108169047","building":"retail","building:levels":"1","currency:BGN":"yes","opening_hours":"Mo-Sa 07:30-21:30; Su 08:30-21:00","payment:cash":"yes","payment:contactless":"yes","payment:credit_cards":"yes","payment:debit_cards":"yes","payment:mastercard":"yes","payment:visa":"yes","shop":"supermarket","website":"https://www.lidl.bg/","wheelchair":"yes"},"wikidata":"Q108169047","coordinates":[43.2751124,26.9324307]},"atp":{"id":"cusNoLB7XuCPNNZdaey5Si5y5yc=","tags":{"ref":"220","shop":"supermarket","@source_uri":"https://spatial.virtualearth.net/REST/v1/data/04982a582660451a8e08b705855a1008/Filialdaten-BG/Filialdaten-BG?key=AkK9Xgxa6n1ly8c3xz1ntR6ojGGT3h-hys5yW7P9xHpJS2FycVLoYxLo_eeFR69o&$filter=Adresstyp%20Eq%201&$select=*&$format=json&$top=250&$skip=0","@spider":"lidl_bg","addr:street_address":"ул. Симеон Велики 36 A","addr:city":"Шумен","addr:postcode":"9701","addr:country":"BG","brand":"Lidl","brand:wikidata":"Q151954","nsi_id":"-1"},"coordinates":[43.27462,26.93239]},"dist":54.851,"tags_mismatch":false},{"osm":{"type":"way","id":755886515,"tags":{"addr:city":"София","addr:housenumber":"218","addr:postcode":"1387","addr:street":"бул. Ломско шосе","brand":"Lidl","brand:wikidata":"Q108169047","building":"supermarket","opening_hours":"Mo-Sa 07:30-21:30; Su 09:00-21:00","shop":"supermarket","website":"https://www.lidl.bg/"},"wikidata":"Q108169047","coordinates":[42.743017,23.2861374]},"atp":{"id":"O79Q_KkWm7k4yIeSKqa1S0-El_8=","tags":{"ref":"135","shop":"supermarket","@source_uri":"https://spatial.virtualearth.net/REST/v1/data/04982a582660451a8e08b705855a1008/Filialdaten-BG/Filialdaten-BG?key=AkK9Xgxa6n1ly8c3xz1ntR6ojGGT3h-hys5yW7P9xHpJS2FycVLoYxLo_eeFR69o&$filter=Adresstyp%20Eq%201&$select=*&$format=json&$top=250&$skip=0","@spider":"lidl_bg","addr:street_address":"бул. Ломско шосе 218","addr:city":"София","addr:postcode":"1387","addr:country":"BG","brand":"Lidl","brand:wikidata":"Q151954","nsi_id":"-1"},"coordinates":[42.74256,23.28598]},"dist":52.417,"tags_mismatch":false},{"osm":{"type":"way","id":792052148,"tags":{"addr:city":"Балчик","addr:housenumber":"5","addr:postcode":"9600","addr:street":"Дунав","brand":"Lidl","brand:wikidata":"Q108169047","building":"yes","opening_hours":"Mo-Sa 08:00-22:00; Su 08:30-22:00","shop":"supermarket"},"wikidata":"Q108169047","coordinates":[43.4277158,28.1592735]},"atp":{"id":"LjwrYEEMPIhWXSbaKdii2b0wXcQ=","tags":{"ref":"846","shop":"supermarket","@source_uri":"https://spatial.virtualearth.net/REST/v1/data/04982a582660451a8e08b705855a1008/Filialdaten-BG/Filialdaten-BG?key=AkK9Xgxa6n1ly8c3xz1ntR6ojGGT3h-hys5yW7P9xHpJS2FycVLoYxLo_eeFR69o&$filter=Adresstyp%20Eq%201&$select=*&$format=json&$top=250&$skip=0","@spider":"lidl_bg","addr:street_address":"ул. Дунав 5","addr:city":"Балчик","addr:postcode":"9600","addr:country":"BG","brand":"Lidl","brand:wikidata":"Q151954","nsi_id":"-1"},"coordinates":[43.42826,28.15933]},"dist":60.684,"tags_mismatch":false},{"osm":{"type":"way","id":798431771,"tags":{"addr:city":"Благоевград","addr:postcode":"2700","brand":"Lidl","brand:wikidata":"Q108169047","building":"yes","opening_hours":"Mo-Sa 08:00-21:30; Su 08:30-21:00","shop":"supermarket"},"wikidata":"Q108169047","coordinates":[42.0144047,23.0840701]},"atp":{"id":"QKc2-xsZRixDgRlCSSJQfY0gQ5s=","tags":{"ref":"141","shop":"supermarket","@source_uri":"https://spatial.virtualearth.net/REST/v1/data/04982a582660451a8e08b705855a1008/Filialdaten-BG/Filialdaten-BG?key=AkK9Xgxa6n1ly8c3xz1ntR6ojGGT3h-hys5yW7P9xHpJS2FycVLoYxLo_eeFR69o&$filter=Adresstyp%20Eq%201&$select=*&$format=json&$top=250&$skip=0","@spider":"lidl_bg","addr:street_address":"бул. Св. Димитър Солунски 26","addr:city":"Благоевград","addr:postcode":"2700","addr:country":"BG","brand":"Lidl","brand:wikidata":"Q151954","nsi_id":"-1"},"coordinates":[42.01462,23.08404]},"dist":24.069,"tags_mismatch":false},{"osm":{"type":"way","id":810027478,"tags":{"addr:city":"Провадия","addr:postcode":"9200","brand":"Lidl","brand:wikidata":"Q108169047","building":"retail","opening_hours":"Mo-Sa 08:00-21:00; Su 08:30-21:00","shop":"supermarket"},"wikidata":"Q108169047","coordinates":[43.189521,27.4440093]},"atp":{"id":"cXX23RSFuqV5fYiAJ87JfhoXKA8=","tags":{"ref":"219","shop":"supermarket","@source_uri":"https://spatial.virtualearth.net/REST/v1/data/04982a582660451a8e08b705855a1008/Filialdaten-BG/Filialdaten-BG?key=AkK9Xgxa6n1ly8c3xz1ntR6ojGGT3h-hys5yW7P9xHpJS2FycVLoYxLo_eeFR69o&$filter=Adresstyp%20Eq%201&$select=*&$format=json&$top=250&$skip=0","@spider":"lidl_bg","addr:street_address":"Северна промишлена зона","addr:city":"Провадия","addr:postcode":"9200","addr:country":"BG","brand":"Lidl","brand:wikidata":"Q151954","nsi_id":"-1"},"coordinates":[43.18971,27.44478]},"dist":65.921,"tags_mismatch":false},{"osm":{"type":"way","id":827647340,"tags":{"addr:city":"Дупница","addr:housenumber":"17","addr:postcode":"2600","addr:street":"Страхил Войвода","brand":"Lidl","brand:wikidata":"Q108169047","building":"yes","opening_hours":"Mo-Sa 08:00-21:30; Su 08:30-20:30","shop":"supermarket"},"wikidata":"Q108169047","coordinates":[42.26652,23.1126147]},"atp":{"id":"iBeJSjt_MzDnOfZBDwlNxm9y4-w=","tags":{"ref":"178","shop":"supermarket","@source_uri":"https://spatial.virtualearth.net/REST/v1/data/04982a582660451a8e08b705855a1008/Filialdaten-BG/Filialdaten-BG?key=AkK9Xgxa6n1ly8c3xz1ntR6ojGGT3h-hys5yW7P9xHpJS2FycVLoYxLo_eeFR69o&$filter=Adresstyp%20Eq%201&$select=*&$format=json&$top=250&$skip=0","@spider":"lidl_bg","addr:street_address":"ул. Страхил войвода 17","addr:city":"Дупница","addr:postcode":"2600","addr:country":"BG","brand":"Lidl","brand:wikidata":"Q151954","nsi_id":"-1"},"coordinates":[42.26659,23.11244]},"dist":16.347,"tags_mismatch":false},{"osm":{"type":"way","id":845383135,"tags":{"addr:city":"София","addr:housenumber":"99","addr:postcode":"1138","addr:street":"Самоковско шосе","brand":"Lidl","brand:wikidata":"Q108169047","building":"yes","opening_hours":"Mo-Sa 07:30-22:00; Su 08:30-21:30","organic":"yes","payment:cash":"yes","payment:contactless":"yes","payment:credit_cards":"yes","payment:debit_cards":"yes","shop":"supermarket","wheelchair":"yes"},"wikidata":"Q108169047","coordinates":[42.621694,23.4053752]},"atp":{"id":"r4XyutpOULWWEH4EC1m-jsEqjMQ=","tags":{"ref":"194","shop":"supermarket","@source_uri":"https://spatial.virtualearth.net/REST/v1/data/04982a582660451a8e08b705855a1008/Filialdaten-BG/Filialdaten-BG?key=AkK9Xgxa6n1ly8c3xz1ntR6ojGGT3h-hys5yW7P9xHpJS2FycVLoYxLo_eeFR69o&$filter=Adresstyp%20Eq%201&$select=*&$format=json&$top=250&$skip=0","@spider":"lidl_bg","addr:street_address":"бул. Самоковско шосе 99","addr:city":"София","addr:postcode":"1000","addr:country":"BG","brand":"Lidl","brand:wikidata":"Q151954","nsi_id":"-1"},"coordinates":[42.62231,23.4052]},"dist":69.98,"tags_mismatch":false},{"osm":{"type":"way","id":902308599,"tags":{"addr:city":"Пловдив","addr:postcode":"4000","brand":"Lidl","brand:wikidata":"Q108169047","building":"yes","opening_hours":"Mo-Sa 07:30-21:30; Su 09:00-21:00","shop":"supermarket"},"wikidata":"Q108169047","coordinates":[42.1648426,24.7358645]},"atp":{"id":"R3iEOEE6CjS1bieAbFkxQxMFhhk=","tags":{"ref":"170","shop":"supermarket","@source_uri":"https://spatial.virtualearth.net/REST/v1/data/04982a582660451a8e08b705855a1008/Filialdaten-BG/Filialdaten-BG?key=AkK9Xgxa6n1ly8c3xz1ntR6ojGGT3h-hys5yW7P9xHpJS2FycVLoYxLo_eeFR69o&$filter=Adresstyp%20Eq%201&$select=*&$format=json&$top=250&$skip=0","@spider":"lidl_bg","addr:street_address":"ул. Победа 75","addr:city":"Пловдив","addr:postcode":"4000","addr:country":"BG","brand":"Lidl","brand:wikidata":"Q151954","nsi_id":"-1"},"coordinates":[42.16479,24.73583]},"dist":6.503,"tags_mismatch":false},{"osm":{"type":"way","id":903105624,"tags":{"addr:city":"София","addr:postcode":"1324","brand":"Lidl","brand:wikidata":"Q108169047","building":"yes","opening_hours":"Mo-Sa 07:30-22:00; Su 08:30-21:30","shop":"supermarket"},"wikidata":"Q108169047","coordinates":[42.7149268,23.2654412]},"atp":{"id":"Xlnhe_6W-JxK9IYfEJFhkO6yWlM=","tags":{"ref":"179","shop":"supermarket","@source_uri":"https://spatial.virtualearth.net/REST/v1/data/04982a582660451a8e08b705855a1008/Filialdaten-BG/Filialdaten-BG?key=AkK9Xgxa6n1ly8c3xz1ntR6ojGGT3h-hys5yW7P9xHpJS2FycVLoYxLo_eeFR69o&$filter=Adresstyp%20Eq%201&$select=*&$format=json&$top=250&$skip=0","@spider":"lidl_bg","addr:street_address":"бул. Царица Йоанна 20","addr:city":"София","addr:postcode":"1324","addr:country":"BG","brand":"Lidl","brand:wikidata":"Q151954","nsi_id":"-1"},"coordinates":[42.71478,23.2655]},"dist":17.016,"tags_mismatch":false},{"osm":{"type":"way","id":915127078,"tags":{"addr:city":"Ямбол","addr:postcode":"8600","brand":"Lidl","brand:wikidata":"Q108169047","building":"yes","opening_hours":"Mo-Sa 08:00-21:30; Su 09:00-21:00","shop":"supermarket"},"wikidata":"Q108169047","coordinates":[42.4773225,26.5118053]},"atp":{"id":"LiItRk2Xhkk9mSrUJYKz6H7UdYM=","tags":{"ref":"214","shop":"supermarket","@source_uri":"https://spatial.virtualearth.net/REST/v1/data/04982a582660451a8e08b705855a1008/Filialdaten-BG/Filialdaten-BG?key=AkK9Xgxa6n1ly8c3xz1ntR6ojGGT3h-hys5yW7P9xHpJS2FycVLoYxLo_eeFR69o&$filter=Adresstyp%20Eq%201&$select=*&$format=json&$top=250&$skip=0","@spider":"lidl_bg","addr:street_address":"Retail Park Yambol, ул. Битоля 37","addr:city":"Ямбол","addr:postcode":"8600","addr:country":"BG","brand":"Lidl","brand:wikidata":"Q151954","nsi_id":"-1"},"coordinates":[42.47771,26.5118]},"dist":43.09,"tags_mismatch":false},{"osm":{"type":"way","id":975643554,"tags":{"addr:city":"Казанлък","addr:postcode":"6100","brand":"Lidl","brand:wikidata":"Q108169047","building":"yes","opening_hours":"Mo-Sa 07:30-21:30; Su 08:30-21:00","shop":"supermarket"},"wikidata":"Q108169047","coordinates":[42.6179044,25.4002827]},"atp":{"id":"L3e6PCuaM07XyGiet-7Jqv28xIw=","tags":{"ref":"183","shop":"supermarket","@source_uri":"https://spatial.virtualearth.net/REST/v1/data/04982a582660451a8e08b705855a1008/Filialdaten-BG/Filialdaten-BG?key=AkK9Xgxa6n1ly8c3xz1ntR6ojGGT3h-hys5yW7P9xHpJS2FycVLoYxLo_eeFR69o&$filter=Adresstyp%20Eq%201&$select=*&$format=json&$top=250&$skip=0","@spider":"lidl_bg","addr:street_address":"бул. Княз Ал. Батенберг 45","addr:city":"Казанлък","addr:postcode":"6100","addr:country":"BG","brand":"Lidl","brand:wikidata":"Q151954","nsi_id":"-1"},"coordinates":[42.61786,25.40022]},"dist":7.12,"tags_mismatch":false},{"osm":{"type":"way","id":981157204,"tags":{"addr:city":"Пловдив","addr:housenumber":"1А","addr:postcode":"4000","addr:street":"Рогошко шосе","brand":"Lidl","brand:wikidata":"Q108169047","building":"yes","internet_access":"wlan","opening_hours":"Mo-Sa 07:30-21:30; Su 09:00-21:30","shop":"supermarket"},"wikidata":"Q108169047","coordinates":[42.1611327,24.7654845]},"atp":{"id":"BdAHZEkWLTcy1qnNXm-WYTVsJ5o=","tags":{"ref":"208","shop":"supermarket","@source_uri":"https://spatial.virtualearth.net/REST/v1/data/04982a582660451a8e08b705855a1008/Filialdaten-BG/Filialdaten-BG?key=AkK9Xgxa6n1ly8c3xz1ntR6ojGGT3h-hys5yW7P9xHpJS2FycVLoYxLo_eeFR69o&$filter=Adresstyp%20Eq%201&$select=*&$format=json&$top=250&$skip=0","@spider":"lidl_bg","addr:street_address":"ул. Рогошко шосе 1А","addr:city":"Пловдив","addr:postcode":"4000","addr:country":"BG","brand":"Lidl","brand:wikidata":"Q151954","nsi_id":"-1"},"coordinates":[42.16109,24.7655]},"dist":4.917,"tags_mismatch":false},{"osm":{"type":"way","id":991560020,"tags":{"addr:city":"София","addr:housenumber":"173","addr:postcode":"1309","addr:street":"бул. Тодор Александров","brand":"Lidl","brand:wikidata":"Q108169047","building":"supermarket","building:levels":"2","opening_hours":"Mo-Sa 07:30-21:30; Su 09:00-21:30","shop":"supermarket"},"wikidata":"Q108169047","coordinates":[42.7030211,23.2939323]},"atp":{"id":"hpdSX8wUJZ8mCuoBw-CtiVxXD6Q=","tags":{"ref":"205","shop":"supermarket","@source_uri":"https://spatial.virtualearth.net/REST/v1/data/04982a582660451a8e08b705855a1008/Filialdaten-BG/Filialdaten-BG?key=AkK9Xgxa6n1ly8c3xz1ntR6ojGGT3h-hys5yW7P9xHpJS2FycVLoYxLo_eeFR69o&$filter=Adresstyp%20Eq%201&$select=*&$format=json&$top=250&$skip=0","@spider":"lidl_bg","addr:street_address":"бул. Тодор Александров 173","addr:city":"София","addr:postcode":"1309","addr:country":"BG","brand":"Lidl","brand:wikidata":"Q151954","nsi_id":"-1"},"coordinates":[42.70313,23.29365]},"dist":26.053,"tags_mismatch":false},{"osm":{"type":"way","id":1021248466,"tags":{"addr:city":"София","addr:postcode":"1619","brand":"Lidl","brand:wikidata":"Q108169047","building":"yes","check_date:opening_hours":"2023-08-23","opening_hours":"Mo-Sa 07:30-22:00; Su 08:30-21:30","shop":"supermarket","website":"https://www.lidl.bg/"},"wikidata":"Q108169047","coordinates":[42.6601524,23.2427962]},"atp":{"id":"IqNzYLzG0CnHEgd9-cMxhafg9ZI=","tags":{"ref":"195","shop":"supermarket","@source_uri":"https://spatial.virtualearth.net/REST/v1/data/04982a582660451a8e08b705855a1008/Filialdaten-BG/Filialdaten-BG?key=AkK9Xgxa6n1ly8c3xz1ntR6ojGGT3h-hys5yW7P9xHpJS2FycVLoYxLo_eeFR69o&$filter=Adresstyp%20Eq%201&$select=*&$format=json&$top=250&$skip=0","@spider":"lidl_bg","addr:street_address":"ул. Княжевска 5","addr:city":"София","addr:postcode":"1619","addr:country":"BG","brand":"Lidl","brand:wikidata":"Q151954","nsi_id":"-1"},"coordinates":[42.65975,23.24293]},"dist":46.063,"tags_mismatch":false},{"osm":{"type":"way","id":1030419188,"tags":{"addr:city":"София","addr:housenumber":"9","addr:postcode":"1618","addr:street":"Вихрен","brand":"Lidl","brand:wikidata":"Q108169047","building":"yes","check_date":"2024-12-14","check_date:opening_hours":"2024-06-17","internet_access":"no","opening_hours":"Mo-Sa 08:00-21:30; Su 09:00-21:00","payment:cash":"yes","payment:credit_cards":"yes","payment:debit_cards":"yes","self_checkout":"yes","shop":"supermarket","wheelchair":"yes"},"wikidata":"Q108169047","coordinates":[42.6666559,23.2673383]},"atp":{"id":"o9cpel-TX-AJ6sTjbBnjZnOYcl0=","tags":{"ref":"217","shop":"supermarket","@source_uri":"https://spatial.virtualearth.net/REST/v1/data/04982a582660451a8e08b705855a1008/Filialdaten-BG/Filialdaten-BG?key=AkK9Xgxa6n1ly8c3xz1ntR6ojGGT3h-hys5yW7P9xHpJS2FycVLoYxLo_eeFR69o&$filter=Adresstyp%20Eq%201&$select=*&$format=json&$top=250&$skip=0","@spider":"lidl_bg","addr:street_address":"ул. Вихрен 9","addr:city":"София","addr:postcode":"1618","addr:country":"BG","brand":"Lidl","brand:wikidata":"Q151954","nsi_id":"-1"},"coordinates":[42.66689,23.26747]},"dist":28.17,"tags_mismatch":false},{"osm":{"type":"way","id":1037397673,"tags":{"addr:city":"Варна","addr:postcode":"9000","brand":"Lidl","brand:wikidata":"Q108169047","building":"yes","check_date":"2023-04-14","internet_access":"no","opening_hours":"Mo-Su 08:00-22:00","payment:mastercard":"yes","payment:visa":"yes","shop":"supermarket","website":"https://lidl.bg","wheelchair":"yes"},"wikidata":"Q108169047","coordinates":[43.1772209,27.9056729]},"atp":{"id":"VlypB2W3yKPFgaVr8_sKswXnyGc=","tags":{"ref":"204","shop":"supermarket","@source_uri":"https://spatial.virtualearth.net/REST/v1/data/04982a582660451a8e08b705855a1008/Filialdaten-BG/Filialdaten-BG?key=AkK9Xgxa6n1ly8c3xz1ntR6ojGGT3h-hys5yW7P9xHpJS2FycVLoYxLo_eeFR69o&$filter=Adresstyp%20Eq%201&$select=*&$format=json&$top=250&$skip=0","@spider":"lidl_bg","addr:street_address":"бул. 1-ви май 6","addr:city":"Варна","addr:postcode":"9000","addr:country":"BG","brand":"Lidl","brand:wikidata":"Q151954","nsi_id":"-1"},"coordinates":[43.17713,27.90618]},"dist":42.344,"tags_mismatch":false},{"osm":{"type":"way","id":1049138933,"tags":{"addr:city":"Царево","addr:housenumber":"19","addr:postcode":"8260","addr:street":"Михаил Герджиков","brand":"Lidl","brand:wikidata":"Q108169047","building":"retail","building:levels":"1","name:de":"Lidl","opening_hours":"Mo-Su 08:00-22:00","payment:cash":"yes","payment:credit_cards":"yes","payment:debit_cards":"yes","payment:maestro":"yes","payment:mastercard":"yes","payment:visa":"yes","ref:vatin":"BG131071587","shop":"supermarket"},"wikidata":"Q108169047","coordinates":[42.1652138,27.8444983]},"atp":{"id":"GmU-s_EXqYibnEbmHr9U3M3vH3k=","tags":{"ref":"202","shop":"supermarket","@source_uri":"https://spatial.virtualearth.net/REST/v1/data/04982a582660451a8e08b705855a1008/Filialdaten-BG/Filialdaten-BG?key=AkK9Xgxa6n1ly8c3xz1ntR6ojGGT3h-hys5yW7P9xHpJS2FycVLoYxLo_eeFR69o&$filter=Adresstyp%20Eq%201&$select=*&$format=json&$top=250&$skip=0","@spider":"lidl_bg","addr:street_address":"ул. Михаил Герджиков 19","addr:city":"Царево","addr:postcode":"8260","addr:country":"BG","brand":"Lidl","brand:wikidata":"Q151954","nsi_id":"-1"},"coordinates":[42.16554,27.84485]},"dist":46.431,"tags_mismatch":false},{"osm":{"type":"way","id":1049139984,"tags":{"addr:city":"Созопол","addr:housenumber":"26","addr:postcode":"8130","addr:street":"Созополски манастири","brand":"Lidl","brand:wikidata":"Q108169047","building":"yes","name:ru":"лидл","opening_hours":"Mo-Sa 08:00-22:30; Su 08:00-22:00","phone":"+359 800 14141","shop":"supermarket"},"wikidata":"Q108169047","coordinates":[42.4063828,27.7060467]},"atp":{"id":"aJZoTjo5QyxQxR5aTGOyehZ0ZMA=","tags":{"ref":"184","shop":"supermarket","@source_uri":"https://spatial.virtualearth.net/REST/v1/data/04982a582660451a8e08b705855a1008/Filialdaten-BG/Filialdaten-BG?key=AkK9Xgxa6n1ly8c3xz1ntR6ojGGT3h-hys5yW7P9xHpJS2FycVLoYxLo_eeFR69o&$filter=Adresstyp%20Eq%201&$select=*&$format=json&$top=250&$skip=0","@spider":"lidl_bg","addr:street_address":"м. Буджака, ул. Созополски манастири 26","addr:city":"Созопол","addr:postcode":"8130","addr:country":"BG","brand":"Lidl","brand:wikidata":"Q151954","nsi_id":"-1"},"coordinates":[42.40597,27.70601]},"dist":46,"tags_mismatch":false},{"osm":{"type":"way","id":1068467628,"tags":{"addr:city":"Харманли","addr:housenumber":"12","addr:place":"ж.к. Тракия","addr:postcode":"6450","brand":"Lidl","brand:wikidata":"Q108169047","building":"commercial","opening_hours":"Mo-Sa 08:00-21:00; Su 09:00-20:30","shop":"supermarket","website":"https://www.lidl.bg/"},"wikidata":"Q108169047","coordinates":[41.9317714,25.90556]},"atp":{"id":"6NUUGeo_wLPwkIloT6njrg_b4s4=","tags":{"ref":"807","shop":"supermarket","@source_uri":"https://spatial.virtualearth.net/REST/v1/data/04982a582660451a8e08b705855a1008/Filialdaten-BG/Filialdaten-BG?key=AkK9Xgxa6n1ly8c3xz1ntR6ojGGT3h-hys5yW7P9xHpJS2FycVLoYxLo_eeFR69o&$filter=Adresstyp%20Eq%201&$select=*&$format=json&$top=250&$skip=0","@spider":"lidl_bg","addr:street_address":"ж.к. Тракия 12","addr:city":"Харманли","addr:postcode":"6450","addr:country":"BG","brand":"Lidl","brand:wikidata":"Q151954","nsi_id":"-1"},"coordinates":[41.93168,25.90574]},"dist":18.028,"tags_mismatch":false},{"osm":{"type":"way","id":1100553667,"tags":{"addr:city":"Раковски","addr:postcode":"4150","brand":"Lidl","brand:wikidata":"Q108169047","building":"yes","mapillary":"1014159143614759","opening_hours":"Mo-Sa 09:00-20:30; Su 09:00-20:00","shop":"supermarket"},"wikidata":"Q108169047","coordinates":[42.2727364,24.9163351]},"atp":{"id":"PhjF04Tz72Bc1dJoNPD5685AsK8=","tags":{"ref":"206","shop":"supermarket","@source_uri":"https://spatial.virtualearth.net/REST/v1/data/04982a582660451a8e08b705855a1008/Filialdaten-BG/Filialdaten-BG?key=AkK9Xgxa6n1ly8c3xz1ntR6ojGGT3h-hys5yW7P9xHpJS2FycVLoYxLo_eeFR69o&$filter=Adresstyp%20Eq%201&$select=*&$format=json&$top=250&$skip=0","@spider":"lidl_bg","addr:street_address":"ул. Христо Смирненски 45, местност Казаните","addr:city":"Раковски","addr:postcode":"4150","addr:country":"BG","brand":"Lidl","brand:wikidata":"Q151954","nsi_id":"-1"},"coordinates":[42.27269,24.9164]},"dist":7.425,"tags_mismatch":false},{"osm":{"type":"way","id":1104898611,"tags":{"addr:city":"Хасково","addr:housenumber":"19А","addr:postcode":"6300","addr:street":"Дунав","branch":"Лидл Хасково 209","brand":"Lidl","brand:wikidata":"Q108169047","building":"yes","building:levels":"1","opening_hours":"Mo-Sa 08:00-21:00; Su 09:00-20:30","shop":"supermarket"},"wikidata":"Q108169047","coordinates":[41.9404047,25.556191]},"atp":{"id":"Q5v7-AeqdtTI6YUABxSkfS8Mrws=","tags":{"ref":"209","shop":"supermarket","@source_uri":"https://spatial.virtualearth.net/REST/v1/data/04982a582660451a8e08b705855a1008/Filialdaten-BG/Filialdaten-BG?key=AkK9Xgxa6n1ly8c3xz1ntR6ojGGT3h-hys5yW7P9xHpJS2FycVLoYxLo_eeFR69o&$filter=Adresstyp%20Eq%201&$select=*&$format=json&$top=250&$skip=0","@spider":"lidl_bg","addr:street_address":"ул. Дунав 19 Б","addr:city":"Хасково","addr:postcode":"6300","addr:country":"BG","brand":"Lidl","brand:wikidata":"Q151954","nsi_id":"-1"},"coordinates":[41.94007,25.55551]},"dist":67.511,"tags_mismatch":false},{"osm":{"type":"way","id":1112909553,"tags":{"addr:city":"Стара Загора","addr:housenumber":"44","addr:postcode":"6009","addr:street":"бул. Никола Петков","brand":"Lidl","brand:wikidata":"Q108169047","building":"yes","fixme":"update building shape when new imagery is available","opening_hours":"Mo-Sa 08:00-21:30; Su 08:30-21:30","ref:vatin":"BG131071587","shop":"supermarket"},"wikidata":"Q108169047","coordinates":[42.4276563,25.6593205]},"atp":{"id":"KJk8OwgUUiJzvNT8o-BfMEr8pl0=","tags":{"ref":"224","shop":"supermarket","@source_uri":"https://spatial.virtualearth.net/REST/v1/data/04982a582660451a8e08b705855a1008/Filialdaten-BG/Filialdaten-BG?key=AkK9Xgxa6n1ly8c3xz1ntR6ojGGT3h-hys5yW7P9xHpJS2FycVLoYxLo_eeFR69o&$filter=Adresstyp%20Eq%201&$select=*&$format=json&$top=250&$skip=0","@spider":"lidl_bg","addr:street_address":"бул. Никола Петков 44","addr:city":"Стара Загора","addr:postcode":"6009","addr:country":"BG","brand":"Lidl","brand:wikidata":"Q151954","nsi_id":"-1"},"coordinates":[42.42761,25.65988]},"dist":46.209,"tags_mismatch":false},{"osm":{"type":"way","id":1139639506,"tags":{"addr:city":"Ботевград","addr:postcode":"2140","brand":"Lidl","brand:wikidata":"Q108169047","building":"yes","opening_hours":"Mo-Sa 09:00-21:00; Su 09:00-20:30","shop":"supermarket"},"wikidata":"Q108169047","coordinates":[42.9101577,23.8024815]},"atp":{"id":"EntNA5rmQz3xMHOIoqalLrDqxLY=","tags":{"ref":"831","shop":"supermarket","@source_uri":"https://spatial.virtualearth.net/REST/v1/data/04982a582660451a8e08b705855a1008/Filialdaten-BG/Filialdaten-BG?key=AkK9Xgxa6n1ly8c3xz1ntR6ojGGT3h-hys5yW7P9xHpJS2FycVLoYxLo_eeFR69o&$filter=Adresstyp%20Eq%201&$select=*&$format=json&$top=250&$skip=0","@spider":"lidl_bg","addr:street_address":"бул. Цар Освободител 33А","addr:city":"Ботевград","addr:postcode":"2140","addr:country":"BG","brand":"Lidl","brand:wikidata":"Q151954","nsi_id":"-1"},"coordinates":[42.91008,23.80268]},"dist":18.33,"tags_mismatch":false},{"osm":{"type":"way","id":1177247527,"tags":{"addr:city":"Несебър","addr:postcode":"8240","brand":"Lidl","brand:wikidata":"Q108169047","building":"retail","building:levels":"1","opening_hours":"Mo-Sa 08:00-22:30; Su 08:00-22:30","shop":"supermarket","toilets":"yes","wheelchair":"designated"},"wikidata":"Q108169047","coordinates":[42.7107105,27.7198068]},"atp":{"id":"6RdXIOMEkX5Z6xt3973a7B19bQg=","tags":{"ref":"203","shop":"supermarket","@source_uri":"https://spatial.virtualearth.net/REST/v1/data/04982a582660451a8e08b705855a1008/Filialdaten-BG/Filialdaten-BG?key=AkK9Xgxa6n1ly8c3xz1ntR6ojGGT3h-hys5yW7P9xHpJS2FycVLoYxLo_eeFR69o&$filter=Adresstyp%20Eq%201&$select=*&$format=json&$top=250&$skip=0","@spider":"lidl_bg","addr:street_address":"местност Чаирите 357","addr:city":"Несебър/Слънчев бряг","addr:postcode":"8240","addr:country":"BG","brand":"Lidl","brand:wikidata":"Q151954","nsi_id":"-1"},"coordinates":[42.71099,27.72162]},"dist":151.371,"tags_mismatch":false},{"osm":{"type":"way","id":1180986086,"tags":{"brand":"Lidl","brand:wikidata":"Q108169047","building":"retail","fixme":"shape","shop":"supermarket","start_date:railway":"2024-10-05"},"wikidata":"Q108169047","coordinates":[42.6452076,23.3854823]},"atp":{"id":"WOy9YBNpvbWrmo5MrG6t0uVpXis=","tags":{"ref":"234","shop":"supermarket","@source_uri":"https://spatial.virtualearth.net/REST/v1/data/04982a582660451a8e08b705855a1008/Filialdaten-BG/Filialdaten-BG?key=AkK9Xgxa6n1ly8c3xz1ntR6ojGGT3h-hys5yW7P9xHpJS2FycVLoYxLo_eeFR69o&$filter=Adresstyp%20Eq%201&$select=*&$format=json&$top=250&$skip=0","@spider":"lidl_bg","addr:street_address":"ул. Жечо Гюмюшев 5","addr:city":"София","addr:postcode":"1712","addr:country":"BG","brand":"Lidl","brand:wikidata":"Q151954","nsi_id":"-1"},"coordinates":[42.64571,23.38531]},"dist":57.614,"tags_mismatch":false},{"osm":{"type":"way","id":1238947584,"tags":{"addr:city":"София","addr:housenumber":"2","addr:street":"бул. Райко Даскалов","brand":"Lidl","brand:wikidata":"Q108169047","building":"retail","building:levels":"2","opening_hours":"Mo-Sa 08:00-21:30; Su 09:00-21:00","self_checkout":"yes","shop":"supermarket","start_date":"2024-01-20"},"wikidata":"Q108169047","coordinates":[42.7134682,23.2477848]},"atp":{"id":"x92pKdN6Fbxi7CnGllZ0g3SD3mE=","tags":{"ref":"107","shop":"supermarket","@source_uri":"https://spatial.virtualearth.net/REST/v1/data/04982a582660451a8e08b705855a1008/Filialdaten-BG/Filialdaten-BG?key=AkK9Xgxa6n1ly8c3xz1ntR6ojGGT3h-hys5yW7P9xHpJS2FycVLoYxLo_eeFR69o&$filter=Adresstyp%20Eq%201&$select=*&$format=json&$top=250&$skip=0","@spider":"lidl_bg","addr:street_address":"бул. Райко Даскалов 2","addr:city":"София","addr:postcode":"1359","addr:country":"BG","brand":"Lidl","brand:wikidata":"Q151954","nsi_id":"-1"},"coordinates":[42.71334,23.24781]},"dist":14.403,"tags_mismatch":false},{"osm":{"type":"way","id":1283561088,"tags":{"addr:housenumber":"4","addr:street":"бул. Добринова скала","brand":"Lidl","brand:wikidata":"Q108169047","building":"yes","opening_date":"2024-02-24","opening_hours":"Mo-Sa 08:00-21:30; Su 09:00-21:00","shop":"supermarket"},"wikidata":"Q108169047","coordinates":[42.7323794,23.2479981]},"atp":{"id":"dQrMUl7ei2Ln8zZD5f9VNv-8rds=","tags":{"ref":"227","shop":"supermarket","@source_uri":"https://spatial.virtualearth.net/REST/v1/data/04982a582660451a8e08b705855a1008/Filialdaten-BG/Filialdaten-BG?key=AkK9Xgxa6n1ly8c3xz1ntR6ojGGT3h-hys5yW7P9xHpJS2FycVLoYxLo_eeFR69o&$filter=Adresstyp%20Eq%201&$select=*&$format=json&$top=250&$skip=0","@spider":"lidl_bg","addr:street_address":"бул. Добринова скала 4","addr:city":"София","addr:postcode":"1360","addr:country":"BG","brand":"Lidl","brand:wikidata":"Q151954","nsi_id":"-1"},"coordinates":[42.73221,23.24876]},"dist":65.018,"tags_mismatch":false},{"osm":{"type":"way","id":1290083833,"tags":{"brand":"Lidl","brand:wikidata":"Q108169047","building":"commercial","shop":"supermarket"},"wikidata":"Q108169047","coordinates":[43.4198283,24.6075886]},"atp":{"id":"70HaeQHDQzj6K1cHUEtrDbw64ac=","tags":{"ref":"226","shop":"supermarket","@source_uri":"https://spatial.virtualearth.net/REST/v1/data/04982a582660451a8e08b705855a1008/Filialdaten-BG/Filialdaten-BG?key=AkK9Xgxa6n1ly8c3xz1ntR6ojGGT3h-hys5yW7P9xHpJS2FycVLoYxLo_eeFR69o&$filter=Adresstyp%20Eq%201&$select=*&$format=json&$top=250&$skip=0","@spider":"lidl_bg","addr:street_address":"ул. Сторгозия 2","addr:city":"Плевен","addr:postcode":"5802","addr:country":"BG","brand":"Lidl","brand:wikidata":"Q151954","nsi_id":"-1"},"coordinates":[43.41928,24.60794]},"dist":67.25,"tags_mismatch":false},{"osm":{"type":"way","id":1303227879,"tags":{"addr:city":"Пловдив","addr:housenumber":"153А","addr:postcode":"4001","addr:street":"бул. Пещерско шосе","brand":"Lidl","brand:wikidata":"Q108169047","building":"yes","opening_hours":"Mo-Sa 07:30-21:30; Su 08:30-21:30","shop":"supermarket"},"wikidata":"Q108169047","coordinates":[42.1309068,24.6983559]},"atp":{"id":"X3gJUh1lkDJeVMwbtnGTO1cKe90=","tags":{"ref":"143","shop":"supermarket","@source_uri":"https://spatial.virtualearth.net/REST/v1/data/04982a582660451a8e08b705855a1008/Filialdaten-BG/Filialdaten-BG?key=AkK9Xgxa6n1ly8c3xz1ntR6ojGGT3h-hys5yW7P9xHpJS2FycVLoYxLo_eeFR69o&$filter=Adresstyp%20Eq%201&$select=*&$format=json&$top=250&$skip=0","@spider":"lidl_bg","addr:street_address":"бул. Пещерско шосе 153 А","addr:city":"Пловдив","addr:postcode":"4001","addr:country":"BG","brand":"Lidl","brand:wikidata":"Q151954","nsi_id":"-1"},"coordinates":[42.1315,24.6972]},"dist":115.916,"tags_mismatch":false},{"osm":false,"atp":false,"tags_mismatch":false,"dist":0},{"osm":false,"atp":false,"tags_mismatch":false,"dist":0},{"osm":false,"atp":false,"tags_mismatch":false,"dist":0},{"osm":false,"atp":false,"tags_mismatch":false,"dist":0},{"osm":false,"atp":false,"tags_mismatch":false,"dist":0},{"osm":false,"atp":false,"tags_mismatch":false,"dist":0},{"osm":false,"atp":false,"tags_mismatch":false,"dist":0},{"osm":false,"atp":false,"tags_mismatch":false,"dist":0},{"osm":false,"atp":false,"tags_mismatch":false,"dist":0},{"osm":false,"atp":false,"tags_mismatch":false,"dist":0},{"osm":false,"atp":false,"tags_mismatch":false,"dist":0},{"osm":false,"atp":false,"tags_mismatch":false,"dist":0},{"osm":false,"atp":false,"tags_mismatch":false,"dist":0},{"osm":false,"atp":false,"tags_mismatch":false,"dist":0},{"osm":false,"atp":false,"tags_mismatch":false,"dist":0},{"osm":false,"atp":false,"tags_mismatch":false,"dist":0},{"osm":false,"atp":false,"tags_mismatch":false,"dist":0},{"osm":false,"atp":false,"tags_mismatch":false,"dist":0},{"osm":false,"atp":false,"tags_mismatch":false,"dist":0},{"osm":false,"atp":false,"tags_mismatch":false,"dist":0},{"osm":false,"atp":false,"tags_mismatch":false,"dist":0},{"osm":false,"atp":false,"tags_mismatch":false,"dist":0},{"osm":false,"atp":false,"tags_mismatch":false,"dist":0},{"osm":false,"atp":false,"tags_mismatch":false,"dist":0},{"osm":false,"atp":false,"tags_mismatch":false,"dist":0},{"osm":false,"atp":false,"tags_mismatch":false,"dist":0},{"osm":false,"atp":false,"tags_mismatch":false,"dist":0},{"osm":false,"atp":false,"tags_mismatch":false,"dist":0},{"osm":false,"atp":false,"tags_mismatch":false,"dist":0},{"osm":false,"atp":false,"tags_mismatch":false,"dist":0},{"osm":false,"atp":false,"tags_mismatch":false,"dist":0},{"osm":false,"atp":false,"tags_mismatch":false,"dist":0},{"osm":false,"atp":false,"tags_mismatch":false,"dist":0},{"osm":false,"atp":false,"tags_mismatch":false,"dist":0},{"osm":false,"atp":false,"tags_mismatch":false,"dist":0},{"osm":false,"atp":false,"tags_mismatch":false,"dist":0},{"osm":false,"atp":false,"tags_mismatch":false,"dist":0},{"osm":false,"atp":false,"tags_mismatch":false,"dist":0},{"osm":false,"atp":false,"tags_mismatch":false,"dist":0},{"osm":false,"atp":false,"tags_mismatch":false,"dist":0},{"osm":false,"atp":false,"tags_mismatch":false,"dist":0},{"osm":false,"atp":false,"tags_mismatch":false,"dist":0},{"osm":false,"atp":false,"tags_mismatch":false,"dist":0},{"osm":false,"atp":false,"tags_mismatch":false,"dist":0},{"osm":false,"atp":false,"tags_mismatch":false,"dist":0},{"osm":false,"atp":false,"tags_mismatch":false,"dist":0},{"osm":false,"atp":false,"tags_mismatch":false,"dist":0},{"osm":false,"atp":false,"tags_mismatch":false,"dist":0},{"osm":false,"atp":false,"tags_mismatch":false,"dist":0},{"osm":false,"atp":false,"tags_mismatch":false,"dist":0},{"osm":false,"atp":false,"tags_mismatch":false,"dist":0},{"osm":false,"atp":false,"tags_mismatch":false,"dist":0},{"osm":false,"atp":false,"tags_mismatch":false,"dist":0},{"osm":false,"atp":false,"tags_mismatch":false,"dist":0},{"osm":false,"atp":false,"tags_mismatch":false,"dist":0},{"osm":false,"atp":false,"tags_mismatch":false,"dist":0},{"osm":false,"atp":false,"tags_mismatch":false,"dist":0},{"osm":false,"atp":false,"tags_mismatch":false,"dist":0},{"osm":false,"atp":false,"tags_mismatch":false,"dist":0},{"osm":false,"atp":false,"tags_mismatch":false,"dist":0},{"osm":false,"atp":false,"tags_mismatch":false,"dist":0},{"osm":false,"atp":false,"tags_mismatch":false,"dist":0},{"osm":false,"atp":false,"tags_mismatch":false,"dist":0},{"osm":false,"atp":false,"tags_mismatch":false,"dist":0},{"osm":false,"atp":false,"tags_mismatch":false,"dist":0},{"osm":false,"atp":false,"tags_mismatch":false,"dist":0},{"osm":false,"atp":false,"tags_mismatch":false,"dist":0},{"osm":false,"atp":false,"tags_mismatch":false,"dist":0},{"osm":false,"atp":false,"tags_mismatch":false,"dist":0},{"osm":false,"atp":false,"tags_mismatch":false,"dist":0},{"osm":false,"atp":false,"tags_mismatch":false,"dist":0},{"osm":false,"atp":false,"tags_mismatch":false,"dist":0},{"osm":false,"atp":false,"tags_mismatch":false,"dist":0},{"osm":false,"atp":false,"tags_mismatch":false,"dist":0},{"osm":false,"atp":false,"tags_mismatch":false,"dist":0},{"osm":false,"atp":false,"tags_mismatch":false,"dist":0},{"osm":false,"atp":false,"tags_mismatch":false,"dist":0},{"osm":false,"atp":false,"tags_mismatch":false,"dist":0},{"osm":false,"atp":false,"tags_mismatch":false,"dist":0},{"osm":false,"atp":false,"tags_mismatch":false,"dist":0},{"osm":false,"atp":false,"tags_mismatch":false,"dist":0},{"osm":false,"atp":false,"tags_mismatch":false,"dist":0},{"osm":false,"atp":false,"tags_mismatch":false,"dist":0},{"osm":false,"atp":false,"tags_mismatch":false,"dist":0},{"osm":false,"atp":false,"tags_mismatch":false,"dist":0},{"osm":false,"atp":false,"tags_mismatch":false,"dist":0},{"osm":false,"atp":false,"tags_mismatch":false,"dist":0},{"osm":false,"atp":false,"tags_mismatch":false,"dist":0},{"osm":false,"atp":false,"tags_mismatch":false,"dist":0},{"osm":false,"atp":false,"tags_mismatch":false,"dist":0},{"osm":false,"atp":false,"tags_mismatch":false,"dist":0},{"osm":false,"atp":false,"tags_mismatch":false,"dist":0},{"osm":false,"atp":false,"tags_mismatch":false,"dist":0},{"osm":false,"atp":false,"tags_mismatch":false,"dist":0},{"osm":false,"atp":false,"tags_mismatch":false,"dist":0},{"osm":false,"atp":false,"tags_mismatch":false,"dist":0},{"osm":false,"atp":false,"tags_mismatch":false,"dist":0},{"osm":false,"atp":false,"tags_mismatch":false,"dist":0},{"osm":false,"atp":false,"tags_mismatch":false,"dist":0},{"osm":false,"atp":false,"tags_mismatch":false,"dist":0},{"osm":false,"atp":false,"tags_mismatch":false,"dist":0},{"osm":false,"atp":false,"tags_mismatch":false,"dist":0},{"osm":false,"atp":false,"tags_mismatch":false,"dist":0},{"osm":false,"atp":false,"tags_mismatch":false,"dist":0},{"osm":false,"atp":{"id":"qERgQX7TxjcfCgc7BA443DUSwTs=","tags":{"ref":"228","shop":"supermarket","addr:street_address":"ул. Пристанищна 41A","addr:city":"Лом","addr:postcode":"3600","addr:country":"BG","name":"Лом – ул. Пристанищна 41А","brand":"Lidl","brand:wikidata":"Q151954"},"coordinates":[43.82741,23.24094]},"tags_mismatch":false,"dist":0},{"osm":false,"atp":{"id":"u5qI-DorQzhJtFbN8_54Wmz0p9M=","tags":{"ref":"229","shop":"supermarket","addr:street_address":"ул. Петър Ников 9","addr:city":"Кюстендил","addr:postcode":"2502","addr:country":"BG","name":"Кюстендил – ул. Петър Ников 9","brand":"Lidl","brand:wikidata":"Q151954"},"coordinates":[42.2792,22.6721]},"tags_mismatch":false,"dist":0},{"osm":false,"atp":false,"tags_mismatch":false,"dist":0},{"osm":false,"atp":{"id":"l9ePWeVpwLRCO16yHXUOyc9qx3w=","tags":{"ref":"231","shop":"supermarket","addr:street_address":"ул. Никола Петков 13","addr:city":"Русе","addr:postcode":"7005","addr:country":"BG","name":"Русе – ул. Никола Петков 13","brand":"Lidl","brand:wikidata":"Q151954"},"coordinates":[43.85318,25.97829]},"tags_mismatch":false,"dist":0},{"osm":false,"atp":false,"tags_mismatch":false,"dist":0},{"osm":false,"atp":false,"tags_mismatch":false,"dist":0},{"osm":false,"atp":{"id":"xonW97gK-8_EXEeor72l09Bfyjc=","tags":{"ref":"237","shop":"supermarket","addr:street_address":"бул. Москва 24А","addr:city":"Карнобат","addr:postcode":"8400","addr:country":"BG","name":"Карнобат – бул. Москва 24А","brand":"Lidl","brand:wikidata":"Q151954"},"coordinates":[42.65086,26.97682]},"tags_mismatch":false,"dist":0},{"osm":false,"atp":{"id":"K3Feqt195LDpxg5aCUVtIjFtOgg=","tags":{"ref":"239","shop":"supermarket","addr:street_address":"бул. Липник 1","addr:city":"Русе","addr:postcode":"7000","addr:country":"BG","name":"Русе – Ритейл Парк Приста  бул. Липник 1","brand":"Lidl","brand:wikidata":"Q151954"},"coordinates":[43.84776,25.96118]},"tags_mismatch":false,"dist":0},{"osm":false,"atp":{"id":"GMiPl4hsVdoqtADl25js4Jh7aBc=","tags":{"ref":"240","shop":"supermarket","addr:street_address":"бул. 25 септември 70","addr:city":"Добрич","addr:postcode":"9300","addr:country":"BG","name":"Добрич – бул. 25 септември 70","brand":"Lidl","brand:wikidata":"Q151954"},"coordinates":[43.57813,27.82943]},"tags_mismatch":false,"dist":0},{"osm":false,"atp":false,"tags_mismatch":false,"dist":0},{"osm":false,"atp":{"id":"DV1whssIPFMUT_7tASyYpD7j5gc=","tags":{"ref":"243","shop":"supermarket","addr:street_address":"бул. Кукленско шосе 8Б","addr:city":"Пловдив","addr:postcode":"4000","addr:country":"BG","name":"Пловдив – Ритейл парк Park Maxx","brand":"Lidl","brand:wikidata":"Q151954"},"coordinates":[42.12257,24.75595]},"tags_mismatch":false,"dist":0},{"osm":false,"atp":false,"tags_mismatch":false,"dist":0},{"osm":false,"atp":false,"tags_mismatch":false,"dist":0},{"osm":false,"atp":false,"tags_mismatch":false,"dist":0},{"osm":false,"atp":false,"tags_mismatch":false,"dist":0},{"osm":false,"atp":false,"tags_mismatch":false,"dist":0},{"osm":false,"atp":false,"tags_mismatch":false,"dist":0},{"osm":false,"atp":false,"tags_mismatch":false,"dist":0},{"osm":false,"atp":false,"tags_mismatch":false,"dist":0},{"osm":false,"atp":false,"tags_mismatch":false,"dist":0},{"osm":false,"atp":false,"tags_mismatch":false,"dist":0},{"osm":false,"atp":false,"tags_mismatch":false,"dist":0},{"osm":false,"atp":false,"tags_mismatch":false,"dist":0},{"osm":false,"atp":false,"tags_mismatch":false,"dist":0},{"osm":false,"atp":false,"tags_mismatch":false,"dist":0},{"osm":false,"atp":false,"tags_mismatch":false,"dist":0},{"osm":false,"atp":false,"tags_mismatch":false,"dist":0},{"osm":false,"atp":false,"tags_mismatch":false,"dist":0},{"osm":false,"atp":false,"tags_mismatch":false,"dist":0},{"osm":false,"atp":false,"tags_mismatch":false,"dist":0},{"osm":false,"atp":false,"tags_mismatch":false,"dist":0},{"osm":false,"atp":false,"tags_mismatch":false,"dist":0}]}