{"metadata":{"name":"Yettel","key":"shop","value":"telecommunication","compare_keys":["opening_hours"]},"data":[{"osm":{"type":"node","id":1243236052,"tags":{"addr:city":"Варна","addr:housenumber":"76","addr:postcode":"9000","addr:street":"бул. 8-ми Приморски полк","brand":"Yettel","brand:wikidata":"Q14915070","check_date":"2023-02-21","old_name":"Telenor;Globul","opening_hours":"Mo-Fr 09:00-19:30","payment:cash":"yes","payment:credit_cards":"yes","payment:debit_cards":"yes","shop":"telecommunication","website":"https://yettel.bg/"},"wikidata":"Q14915070","coordinates":[43.2085824,27.9194075]},"atp":{"id":"uqFaf0cwM3l7lnq7xd2SRrFBya4=","tags":{"@source_uri":"https://www.yettel.bg/store-locator/json","@spider":"yettel_bg","shop":"telecommunication","addr:street_address":"бул. 8-ми Приморски полк 76","addr:country":"BG","opening_hours":"Mo-Fr 09:00-19:00","brand":"Yettel","brand:wikidata":"Q14915070","nsi_id":"yettel-5ceaa9"},"coordinates":[43.20863,27.91922]},"dist":16.092,"tags_mismatch":true},{"osm":{"type":"node","id":1347020585,"tags":{"brand":"Yettel","brand:wikidata":"Q14915070","shop":"telecommunication"},"wikidata":"Q14915070","coordinates":[42.4252506,25.6314836]},"atp":{"id":"4ox9vmVpxtPKTWiJaUM4fYt0cx8=","tags":{"@source_uri":"https://www.yettel.bg/store-locator/json","@spider":"yettel_bg","shop":"telecommunication","addr:street_address":"ул. Цар Симеон Велики 119","addr:country":"BG","opening_hours":"Mo-Fr 09:00-19:00; Sa 10:00-17:00","brand":"Yettel","brand:wikidata":"Q14915070","nsi_id":"yettel-5ceaa9"},"coordinates":[42.4251158,25.6313721]},"dist":17.562,"tags_mismatch":true},{"osm":{"type":"node","id":1378846537,"tags":{"brand":"Yettel","brand:wikidata":"Q14915070","shop":"telecommunication"},"wikidata":"Q14915070","coordinates":[42.4262698,25.6314585]},"atp":{"id":"_z4f9HOJM2JZ8E56DvQehK4k3q4=","tags":{"@source_uri":"https://www.yettel.bg/store-locator/json","@spider":"yettel_bg","shop":"telecommunication","addr:street_address":"ул. Св. Княз Борис 110 Б","addr:country":"BG","opening_hours":"Mo-Fr 09:00-19:00","brand":"Yettel","brand:wikidata":"Q14915070","nsi_id":"yettel-5ceaa9"},"coordinates":[42.42637,25.63144]},"dist":11.245,"tags_mismatch":true},{"osm":{"type":"node","id":1391113138,"tags":{"addr:city":"Пловдив","addr:housenumber":"63","addr:postcode":"4000","addr:street":"бул. България","brand":"Yettel","brand:wikidata":"Q14915070","old_name":"Telenor;Globul","opening_hours":"Mo-Fr 09:00-19:30","shop":"telecommunication","website":"https://yettel.bg/"},"wikidata":"Q14915070","coordinates":[42.1588801,24.7383436]},"atp":{"id":"_ut4QmTzrHGpY4wdgtgCtbk0ekk=","tags":{"@source_uri":"https://www.yettel.bg/store-locator/json","@spider":"yettel_bg","shop":"telecommunication","addr:street_address":"бул. България 63","addr:country":"BG","opening_hours":"Mo-Fr 09:00-19:00","brand":"Yettel","brand:wikidata":"Q14915070","nsi_id":"yettel-5ceaa9"},"coordinates":[42.15905,24.73824]},"dist":20.732,"tags_mismatch":true},{"osm":{"type":"node","id":3203408576,"tags":{"addr:city":"Русе","addr:housenumber":"3","addr:postcode":"7000","addr:street":"пл. Свобода","brand":"Yettel","brand:wikidata":"Q14915070","old_name":"Telenor;Globul","opening_hours":"Mo-Fr 09:00-19:30","phone":"+359 82 590 050","shop":"telecommunication","telecom":"telecommunication","website":"https://yettel.bg/"},"wikidata":"Q14915070","coordinates":[43.8497349,25.9542461]},"atp":{"id":"U_JyXRCdvWCO7d6QQCElcSBZcMw=","tags":{"@source_uri":"https://www.yettel.bg/store-locator/json","@spider":"yettel_bg","shop":"telecommunication","addr:street_address":"пл. Свобода 3","addr:country":"BG","opening_hours":"Mo-Fr 09:00-19:00","brand":"Yettel","brand:wikidata":"Q14915070","nsi_id":"yettel-5ceaa9"},"coordinates":[43.84983,25.95399]},"dist":23.099,"tags_mismatch":true},{"osm":{"type":"node","id":3234259682,"tags":{"brand":"Yettel","brand:wikidata":"Q14915070","shop":"telecommunication"},"wikidata":"Q14915070","coordinates":[43.8535954,25.9903235]},"atp":{"id":"f-OmibZHEvKStNxwsVfQ3kpxNVU=","tags":{"@source_uri":"https://www.yettel.bg/store-locator/json","@spider":"yettel_bg","shop":"telecommunication","addr:street_address":"Mall Русе, бул. Липник 121Д","addr:country":"BG","opening_hours":"Mo-Su 09:30-20:00","brand":"Yettel","brand:wikidata":"Q14915070","nsi_id":"yettel-5ceaa9"},"coordinates":[43.85386,25.98952]},"dist":70.828,"tags_mismatch":true},{"osm":{"type":"node","id":3274481098,"tags":{"brand":"Yettel","brand:wikidata":"Q14915070","shop":"telecommunication"},"wikidata":"Q14915070","coordinates":[43.5693744,27.8274828]},"atp":{"id":"_RcRQIVwfFGbMZo-bQYlYCa8llc=","tags":{"@source_uri":"https://www.yettel.bg/store-locator/json","@spider":"yettel_bg","shop":"telecommunication","addr:street_address":"пл. Свобода 9, бл. 29","addr:country":"BG","opening_hours":"Mo-Fr 09:00-19:00; Sa 10:00-17:00","brand":"Yettel","brand:wikidata":"Q14915070","nsi_id":"yettel-5ceaa9"},"coordinates":[43.568916,27.829383]},"dist":161.353,"tags_mismatch":true},{"osm":{"type":"node","id":3381502439,"tags":{"brand":"Yettel","brand:wikidata":"Q14915070","shop":"telecommunication"},"wikidata":"Q14915070","coordinates":[42.4914172,27.4731831]},"atp":{"id":"VEAXHsV2VhFqVqogUYQG4Ce21rw=","tags":{"@source_uri":"https://www.yettel.bg/store-locator/json","@spider":"yettel_bg","shop":"telecommunication","addr:street_address":"ул. Александровска 2","addr:country":"BG","opening_hours":"Mo-Fr 09:00-19:30; Sa 10:00-17:00","brand":"Yettel","brand:wikidata":"Q14915070","nsi_id":"yettel-5ceaa9"},"coordinates":[42.491402,27.4734]},"dist":17.864,"tags_mismatch":true},{"osm":{"type":"node","id":3457018992,"tags":{"addr:city":"Девин","addr:housenumber":"31","addr:postcode":"4800","addr:street":"Освобождение","brand":"Yettel","brand:wikidata":"Q14915070","old_name":"Telenor;Globul","opening_hours":"Mo-Fr 09:00-18:30","shop":"telecommunication","website":"https://yettel.bg/"},"wikidata":"Q14915070","coordinates":[41.7429291,24.3951915]},"atp":{"id":"MOl27Z3KXUYVwDbkMrKC8BP5nNw=","tags":{"@source_uri":"https://www.yettel.bg/store-locator/json","@spider":"yettel_bg","shop":"telecommunication","addr:street_address":"ул. Освобождение 31","addr:country":"BG","opening_hours":"Mo-Fr 09:00-18:30","brand":"Yettel","brand:wikidata":"Q14915070","nsi_id":"yettel-5ceaa9"},"coordinates":[41.74299,24.39528]},"dist":9.989,"tags_mismatch":false},{"osm":{"type":"node","id":3522631057,"tags":{"brand":"Yettel","brand:wikidata":"Q14915070","opening_hours":"Mo-Fr 09:00-20:00","shop":"telecommunication"},"wikidata":"Q14915070","coordinates":[42.6960793,23.3483691]},"atp":{"id":"xSCy-jfzqrqxY8gWwHiWGcNBQBY=","tags":{"@source_uri":"https://www.yettel.bg/store-locator/json","@spider":"yettel_bg","shop":"telecommunication","addr:street_address":"бул. Мадрид 14","addr:country":"BG","opening_hours":"Mo-Fr 09:00-19:00","brand":"Yettel","brand:wikidata":"Q14915070","nsi_id":"yettel-5ceaa9"},"coordinates":[42.69647,23.34829]},"dist":43.922,"tags_mismatch":true},{"osm":{"type":"node","id":3583356488,"tags":{"brand":"Yettel","brand:wikidata":"Q14915070","int_name":"Telenor","old_name":"Globul","opening_hours":"Mo-Fr 09:00-19:30; Sa 10:00-18:00","phone":"+359 2 415 2055","shop":"telecommunication","website":"https://www.telenor.bg/","wheelchair":"limited"},"wikidata":"Q14915070","coordinates":[42.6779685,23.2862188]},"atp":{"id":"iNG4rTaDep-rbetzETYZTC4QqHA=","tags":{"@source_uri":"https://www.yettel.bg/store-locator/json","@spider":"yettel_bg","shop":"telecommunication","addr:street_address":"бул. Гоце Делчев 3","addr:country":"BG","opening_hours":"Mo-Fr 09:00-19:30; Sa 10:00-17:00","brand":"Yettel","brand:wikidata":"Q14915070","nsi_id":"yettel-5ceaa9"},"coordinates":[42.67789,23.28604]},"dist":17.025,"tags_mismatch":true},{"osm":{"type":"node","id":3657766540,"tags":{"addr:housenumber":"32","addr:street":"Граф Игнатиев","brand":"Yettel","brand:wikidata":"Q14915070","check_date":"2023-05-28","contact:phone":"+359 2 415 4550","internet_access":"wlan","internet_access:fee":"customers","opening_hours":"Mo-Fr 09:00-19:30","payment:mastercard":"yes","payment:visa":"yes","shop":"telecommunication","website":"https://www.telenor.bg/","wheelchair":"yes"},"wikidata":"Q14915070","coordinates":[42.6907651,23.3255805]},"atp":{"id":"P-Pf2ZVy-ySCn5vPzSm7x58udtg=","tags":{"@source_uri":"https://www.yettel.bg/store-locator/json","@spider":"yettel_bg","shop":"telecommunication","addr:street_address":"ул. Граф Игнатиев 32","addr:country":"BG","opening_hours":"Mo-Fr 09:00-19:00","brand":"Yettel","brand:wikidata":"Q14915070","nsi_id":"yettel-5ceaa9"},"coordinates":[42.69088,23.32568]},"dist":15.145,"tags_mismatch":true},{"osm":{"type":"node","id":3688558767,"tags":{"brand":"Yettel","brand:wikidata":"Q14915070","check_date":"2024-09-20","check_date:opening_hours":"2023-12-14","opening_hours":"Mo-Fr 09:00-19:00","shop":"telecommunication"},"wikidata":"Q14915070","coordinates":[42.6746477,23.3594377]},"atp":{"id":"PtYoXO2uXHkkIA2NYlUeGnsqYvo=","tags":{"@source_uri":"https://www.yettel.bg/store-locator/json","@spider":"yettel_bg","shop":"telecommunication","addr:street_address":"бул. Цариградско шосе 14","addr:country":"BG","opening_hours":"Mo-Th 09:00-19:30; Fr 09:00-19:00","brand":"Yettel","brand:wikidata":"Q14915070","nsi_id":"yettel-5ceaa9"},"coordinates":[42.67472,23.359656]},"dist":19.574,"tags_mismatch":true},{"osm":{"type":"node","id":3999382316,"tags":{"addr:city":"Елин Пелин","addr:postcode":"2100","brand":"Yettel","brand:wikidata":"Q14915070","shop":"telecommunication"},"wikidata":"Q14915070","coordinates":[42.6713694,23.598879]},"atp":{"id":"HlxC5s1pa6MIpSLxjpGmWnZdT0s=","tags":{"@source_uri":"https://www.yettel.bg/store-locator/json","@spider":"yettel_bg","shop":"telecommunication","addr:street_address":"Автогара, магазин 6","addr:country":"BG","opening_hours":"Mo-Fr 09:00-18:00","brand":"Yettel","brand:wikidata":"Q14915070","nsi_id":"yettel-5ceaa9"},"coordinates":[42.67112,23.59864]},"dist":33.924,"tags_mismatch":true},{"osm":{"type":"node","id":4103526589,"tags":{"addr:city":"Слънчев бряг","addr:housenumber":"51","addr:postcode":"8240","addr:street":"1-ва","brand":"Yettel","brand:wikidata":"Q14915070","old_name":"Telenor;Globul","opening_hours":"Mo-Fr 09:00-19:00","payment:cash":"yes","payment:credit_cards":"yes","payment:debit_cards":"yes","shop":"telecommunication","website":"https://yettel.bg/"},"wikidata":"Q14915070","coordinates":[42.6942175,27.7100239]},"atp":{"id":"8zbZdBacDqb_kv3gNTnvMjgWbRE=","tags":{"@source_uri":"https://www.yettel.bg/store-locator/json","@spider":"yettel_bg","shop":"telecommunication","addr:street_address":"ул. Булевард 51","addr:country":"BG","opening_hours":"Mo-Fr 09:00-18:00","brand":"Yettel","brand:wikidata":"Q14915070","nsi_id":"yettel-5ceaa9"},"coordinates":[42.694302,27.7096]},"dist":35.895,"tags_mismatch":true},{"osm":{"type":"node","id":4105536936,"tags":{"brand":"Yettel","brand:wikidata":"Q14915070","shop":"telecommunication"},"wikidata":"Q14915070","coordinates":[42.1453901,24.7317023]},"atp":false,"tags_mismatch":false},{"osm":{"type":"node","id":4230833990,"tags":{"addr:city":"Кърджали","addr:postcode":"6600","brand":"Yettel","brand:wikidata":"Q14915070","shop":"telecommunication"},"wikidata":"Q14915070","coordinates":[41.644079,25.3665113]},"atp":{"id":"DZBhTHonAJuUnIofZ4ta5O0pso4=","tags":{"@source_uri":"https://www.yettel.bg/store-locator/json","@spider":"yettel_bg","shop":"telecommunication","addr:street_address":"бул. Тракия 1","addr:country":"BG","opening_hours":"Mo-Fr 09:00-19:00; Sa 09:00-16:00","brand":"Yettel","brand:wikidata":"Q14915070","nsi_id":"yettel-5ceaa9"},"coordinates":[41.644798,25.368999]},"dist":221.635,"tags_mismatch":true},{"osm":{"type":"node","id":4430676212,"tags":{"addr:city":"Добрич","addr:housenumber":"бл. 29","addr:place":"площад Свобода","addr:postcode":"9300","brand":"Yettel","brand:wikidata":"Q14915070","old_name":"Telenor;Globul","opening_hours":"Mo-Fr 09:00-19:30; Sa 10:00-17:00","payment:cash":"yes","payment:credit_cards":"yes","payment:debit_cards":"yes","shop":"telecommunication","website":"https://yettel.bg/"},"wikidata":"Q14915070","coordinates":[43.5688663,27.8293984]},"atp":{"id":"AyjLjyKi56DlLnjq0eP-dLfPHCc=","tags":{"@source_uri":"https://www.yettel.bg/store-locator/json","@spider":"yettel_bg","shop":"telecommunication","addr:street_address":"ул. Отец Паисий 23","addr:country":"BG","opening_hours":"Mo-Fr 09:00-19:00","brand":"Yettel","brand:wikidata":"Q14915070","nsi_id":"yettel-5ceaa9"},"coordinates":[43.57043,27.83327]},"dist":357.104,"tags_mismatch":true},{"osm":{"type":"node","id":4441603989,"tags":{"brand":"Yettel","brand:wikidata":"Q14915070","opening_hours":"Mo-Fr 08:00-17:00","shop":"telecommunication"},"wikidata":"Q14915070","coordinates":[41.6471591,24.1588846]},"atp":{"id":"b__dTiP7U7J1e9RuVAWZ7_C7kyo=","tags":{"@source_uri":"https://www.yettel.bg/store-locator/json","@spider":"yettel_bg","shop":"telecommunication","addr:street_address":"ул. Хисар 1","addr:country":"BG","opening_hours":"Mo-Fr 09:00-18:30","brand":"Yettel","brand:wikidata":"Q14915070","nsi_id":"yettel-5ceaa9"},"coordinates":[41.64736,24.15885]},"dist":22.523,"tags_mismatch":true},{"osm":{"type":"node","id":4501446126,"tags":{"brand":"Yettel","brand:wikidata":"Q14915070","old_name":"Telenor;Globul","opening_hours":"Mo-Fr 09:00-20:00; Sa 10:00-18:00","shop":"telecommunication"},"wikidata":"Q14915070","coordinates":[42.6942578,23.3204238]},"atp":{"id":"GaN4pCjO0XHHg7rdJt8nK9pxkdQ=","tags":{"@source_uri":"https://www.yettel.bg/store-locator/json","@spider":"yettel_bg","shop":"telecommunication","addr:street_address":"бул. Витоша 10","addr:country":"BG","opening_hours":"Mo-Fr 09:00-19:30; Sa 10:00-17:00","brand":"Yettel","brand:wikidata":"Q14915070","nsi_id":"yettel-5ceaa9"},"coordinates":[42.6934,23.32007]},"dist":99.669,"tags_mismatch":true},{"osm":{"type":"node","id":4876629282,"tags":{"brand":"Yettel","brand:wikidata":"Q14915070","old_name":"Telenor;Globul","shop":"telecommunication"},"wikidata":"Q14915070","coordinates":[42.8513299,23.0398288]},"atp":false,"tags_mismatch":false},{"osm":{"type":"node","id":5027187644,"tags":{"addr:city":"Казанлък","addr:housenumber":"2","addr:postcode":"6100","addr:street":"пл. Севтополис","brand":"Yettel","brand:wikidata":"Q14915070","old_name":"Telenor;Globul","opening_hours":"Mo-Fr 09:00-19:30; Sa 10:00-17:00","payment:cash":"yes","payment:credit_cards":"yes","payment:debit_cards":"yes","shop":"telecommunication","website":"https://yettel.bg/"},"wikidata":"Q14915070","coordinates":[42.6194767,25.392801]},"atp":{"id":"d-1cOvhB34qtALLBcKpuK8un6Yg=","tags":{"@source_uri":"https://www.yettel.bg/store-locator/json","@spider":"yettel_bg","shop":"telecommunication","addr:street_address":"пл. Севтополис 2","addr:country":"BG","opening_hours":"Mo-Fr 09:00-19:00; Sa 10:00-17:00","brand":"Yettel","brand:wikidata":"Q14915070","nsi_id":"yettel-5ceaa9"},"coordinates":[42.61956,25.39277]},"dist":9.604,"tags_mismatch":true},{"osm":{"type":"node","id":5117749534,"tags":{"addr:city":"Пловдив","addr:housenumber":"2","addr:postcode":"4000","addr:street":"Княз Богориди","brand":"Yettel","brand:wikidata":"Q14915070","old_name":"Telenor;Globul","opening_hours":"Mo-Fr 09:00-19:30","payment:cash":"yes","payment:credit_cards":"yes","payment:debit_cards":"yes","shop":"telecommunication","website":"https://yettel.bg/","wheelchair":"no"},"wikidata":"Q14915070","coordinates":[42.1504354,24.7470514]},"atp":{"id":"u9h8KumP5qf72Oi0g-qQT0y4kJI=","tags":{"@source_uri":"https://www.yettel.bg/store-locator/json","@spider":"yettel_bg","shop":"telecommunication","addr:street_address":"ул. Княз Богориди 2","addr:country":"BG","opening_hours":"Mo-Fr 09:00-19:00","brand":"Yettel","brand:wikidata":"Q14915070","nsi_id":"yettel-5ceaa9"},"coordinates":[42.1505,24.7469]},"dist":14.401,"tags_mismatch":true},{"osm":{"type":"node","id":5635089595,"tags":{"addr:city":"Дулово","addr:housenumber":"16","addr:postcode":"7650","addr:street":"Васил Левски","brand":"Yettel","brand:wikidata":"Q14915070","old_name":"Telenor;Globul","payment:cash":"yes","payment:credit_cards":"yes","payment:debit_cards":"yes","shop":"telecommunication","website":"https://yettel.bg/"},"wikidata":"Q14915070","coordinates":[43.8236895,27.1410085]},"atp":{"id":"HkInHqR3ZGLusXOHiIqCtABs0wM=","tags":{"@source_uri":"https://www.yettel.bg/store-locator/json","@spider":"yettel_bg","shop":"telecommunication","addr:street_address":"ул. Васил Левски 16","addr:country":"BG","opening_hours":"Mo-Fr 09:00-18:30","brand":"Yettel","brand:wikidata":"Q14915070","nsi_id":"yettel-5ceaa9"},"coordinates":[43.82361,27.14083]},"dist":16.829,"tags_mismatch":true},{"osm":{"type":"node","id":5908083847,"tags":{"addr:city":"София","addr:housenumber":"171","addr:postcode":"1220","addr:street":"бул. Ломско шосе","brand":"Yettel","brand:wikidata":"Q14915070","old_name":"Telenor;Globul","phone":"+359 2 415 2080;+359 2 415 2077","shop":"telecommunication","website":"https://www.yettel.bg"},"wikidata":"Q14915070","coordinates":[42.726481,23.301861]},"atp":{"id":"o08703Nc6Na_2JXE9okECTRLsfI=","tags":{"@source_uri":"https://www.yettel.bg/store-locator/json","@spider":"yettel_bg","shop":"telecommunication","addr:street_address":"бул. Ломско шосе, бл. 171 м-н №10","addr:country":"BG","opening_hours":"Mo-Fr 09:00-19:30; Sa 10:00-17:00","brand":"Yettel","brand:wikidata":"Q14915070","nsi_id":"yettel-5ceaa9"},"coordinates":[42.726429,23.302097]},"dist":20.126,"tags_mismatch":true},{"osm":{"type":"node","id":6033873772,"tags":{"brand":"Yettel","brand:wikidata":"Q14915070","old_name":"Telenor;Globul","shop":"telecommunication","wheelchair":"yes"},"wikidata":"Q14915070","coordinates":[42.6281873,23.3738483]},"atp":{"id":"LPwH3n4abXEhwob106SfLsICI1U=","tags":{"@source_uri":"https://www.yettel.bg/store-locator/json","@spider":"yettel_bg","shop":"telecommunication","addr:street_address":"жк Младост 4, Бизнес парк София, сгр. 4","addr:country":"BG","opening_hours":"Mo-Fr 08:30-19:00","brand":"Yettel","brand:wikidata":"Q14915070","nsi_id":"yettel-5ceaa9"},"coordinates":[42.62842,23.37386]},"dist":25.893,"tags_mismatch":true},{"osm":{"type":"node","id":6296611460,"tags":{"addr:city":"Костинброд","addr:postcode":"2230","addr:street":"Детелина","brand":"Yettel","brand:wikidata":"Q14915070","old_name":"Telenor;Globul","opening_hours":"Mo-Fr 09:00-18:30","shop":"telecommunication","website":"https://yettel.bg/","wheelchair":"yes"},"wikidata":"Q14915070","coordinates":[42.8082421,23.2013555]},"atp":false,"tags_mismatch":false},{"osm":{"type":"node","id":6407220594,"tags":{"addr:city":"Шумен","addr:housenumber":"46 В","addr:postcode":"9700","addr:street":"бул. Симеон Велики","brand":"Yettel","brand:wikidata":"Q14915070","old_name":"Telenor;Globul","opening_hours":"Mo-Fr 09:00-19:00","shop":"telecommunication","website":"https://yettel.bg/"},"wikidata":"Q14915070","coordinates":[43.2762342,26.9427869]},"atp":false,"tags_mismatch":false},{"osm":{"type":"node","id":6448393462,"tags":{"addr:city":"София","addr:country":"BG","addr:housenumber":"64","addr:street":"бул. Витоша","brand":"Yettel","brand:wikidata":"Q14915070","check_date":"2023-11-19","int_name":"Yettel","old_name":"Globul;Telenor","opening_hours":"Mo-Fr 09:00-19:30","payment:cash":"yes","payment:mastercard":"yes","payment:visa":"yes","phone":"+359 2 415 2390","shop":"telecommunication","wheelchair":"yes"},"wikidata":"Q14915070","coordinates":[42.688858,23.3187027]},"atp":{"id":"5HwibY15ebBwyenUNhZMeK5spMM=","tags":{"@source_uri":"https://www.yettel.bg/store-locator/json","@spider":"yettel_bg","shop":"telecommunication","addr:street_address":"бул. Витоша 64","addr:country":"BG","opening_hours":"Mo-Fr 09:00-19:30","brand":"Yettel","brand:wikidata":"Q14915070","nsi_id":"yettel-5ceaa9"},"coordinates":[42.6889,23.318899]},"dist":16.71,"tags_mismatch":false},{"osm":{"type":"node","id":6578553201,"tags":{"addr:city":"Радомир","addr:country":"BG","addr:housenumber":"19","addr:postcode":"2400","addr:street":"пл. Свобода","brand":"Yettel","brand:wikidata":"Q14915070","old_name":"Telenor;Globul","opening_hours":"Mo-Fr 09:00-18:30","shop":"telecommunication","website":"https://yettel.bg/"},"wikidata":"Q14915070","coordinates":[42.5474496,22.9645039]},"atp":{"id":"BtUaq59LNqk3cL3yYL8aM6x18d4=","tags":{"@source_uri":"https://www.yettel.bg/store-locator/json","@spider":"yettel_bg","shop":"telecommunication","addr:street_address":"пл. Свобода 19","addr:country":"BG","opening_hours":"Mo-Fr 09:00-18:30","brand":"Yettel","brand:wikidata":"Q14915070","nsi_id":"yettel-5ceaa9"},"coordinates":[42.54727,22.96464]},"dist":22.872,"tags_mismatch":false},{"osm":{"type":"node","id":6732270683,"tags":{"addr:city":"Добрич","addr:postcode":"9300","addr:street":"Отец Паисий","brand":"Yettel","brand:wikidata":"Q14915070","shop":"telecommunication"},"wikidata":"Q14915070","coordinates":[43.5704748,27.8330871]},"atp":false,"tags_mismatch":false},{"osm":{"type":"node","id":6901820261,"tags":{"brand":"Yettel","brand:wikidata":"Q14915070","int_name":"Yettel","old_name":"Telenor;Globul","opening_hours":"Mo-Fr 09:00-20:00; Sa 10:00-18:00","payment:cash":"yes","payment:credit_cards":"yes","payment:debit_cards":"yes","phone":"+359 2 415 2560","shop":"telecommunication","website":"https://yettel.bg/"},"wikidata":"Q14915070","coordinates":[42.7151855,23.252015]},"atp":{"id":"uL_THtPVTmKR2bOEt7wjeAgQYtM=","tags":{"@source_uri":"https://www.yettel.bg/store-locator/json","@spider":"yettel_bg","shop":"telecommunication","addr:street_address":"жк Люлин 6 бул. Захари Стоянов до бл. 601","addr:country":"BG","opening_hours":"Mo-Fr 09:00-19:30; Sa 10:00-17:00","brand":"Yettel","brand:wikidata":"Q14915070","nsi_id":"yettel-5ceaa9"},"coordinates":[42.71513,23.25203]},"dist":6.292,"tags_mismatch":true},{"osm":{"type":"node","id":7154932566,"tags":{"brand":"Yettel","brand:wikidata":"Q14915070","shop":"telecommunication","website":"https://www.yettel.bg/"},"wikidata":"Q14915070","coordinates":[42.729767,23.2534781]},"atp":false,"tags_mismatch":false},{"osm":{"type":"node","id":7760543285,"tags":{"brand":"Yettel","brand:wikidata":"Q14915070","shop":"telecommunication"},"wikidata":"Q14915070","coordinates":[42.5004869,24.1877853]},"atp":{"id":"SFYjUPOqS2oGVZh1GD_Wvu1gG2c=","tags":{"@source_uri":"https://www.yettel.bg/store-locator/json","@spider":"yettel_bg","shop":"telecommunication","addr:street_address":"ул. Георги Бенковски 32","addr:country":"BG","opening_hours":"Mo-Fr 09:00-19:00","brand":"Yettel","brand:wikidata":"Q14915070","nsi_id":"yettel-5ceaa9"},"coordinates":[42.50033,24.18782]},"dist":17.677,"tags_mismatch":true},{"osm":{"type":"node","id":7828540186,"tags":{"brand":"Yettel","brand:wikidata":"Q14915070","old_name":"Telenor;Globul","opening_hours":"Mo-Fr 09:00-18:30","shop":"telecommunication","website":"https://yettel.bg/"},"wikidata":"Q14915070","coordinates":[43.1085756,26.4173161]},"atp":{"id":"ZG1W5QCFPnWSHrQHATu3wMMZNAQ=","tags":{"@source_uri":"https://www.yettel.bg/store-locator/json","@spider":"yettel_bg","shop":"telecommunication","addr:street_address":"ул. Цар Освободител 2","addr:country":"BG","opening_hours":"Mo-Fr 09:00-18:00","brand":"Yettel","brand:wikidata":"Q14915070","nsi_id":"yettel-5ceaa9"},"coordinates":[43.10854,26.41698]},"dist":27.57,"tags_mismatch":true},{"osm":{"type":"node","id":7913265013,"tags":{"addr:city":"Благоевград","addr:housenumber":"3","addr:postcode":"2700","addr:street":"Тодор Александров","brand":"Yettel","brand:wikidata":"Q14915070","old_name":"Telenor;Globul","opening_hours":"Mo-Fr 09:00-19:00; Sa 10:00-17:00","payment:cash":"yes","payment:credit_cards":"yes","payment:debit_cards":"yes","shop":"telecommunication","website":"https://yettel.bg/"},"wikidata":"Q14915070","coordinates":[42.0201069,23.1002478]},"atp":{"id":"OBV3_rUxynq19sHB0AztJr_aUEk=","tags":{"@source_uri":"https://www.yettel.bg/store-locator/json","@spider":"yettel_bg","shop":"telecommunication","addr:street_address":"ул. Тодор Александров 3","addr:country":"BG","opening_hours":"Mo-Fr 09:00-19:00; Sa 10:00-17:00","brand":"Yettel","brand:wikidata":"Q14915070","nsi_id":"yettel-5ceaa9"},"coordinates":[42.020116,23.100214]},"dist":2.97,"tags_mismatch":false},{"osm":{"type":"node","id":9025403073,"tags":{"brand":"Yettel","brand:wikidata":"Q14915070","check_date":"2023-02-19","old_name":"Telenor;Globul","shop":"telecommunication","wheelchair":"no"},"wikidata":"Q14915070","coordinates":[42.1449201,24.7494554]},"atp":{"id":"39xqG6Bylih-wXBpnLI1h3Io37I=","tags":{"@source_uri":"https://www.yettel.bg/store-locator/json","@spider":"yettel_bg","shop":"telecommunication","addr:street_address":"бул. Александър Батенберг I 35","addr:country":"BG","opening_hours":"Mo-Fr 09:00-19:00","brand":"Yettel","brand:wikidata":"Q14915070","nsi_id":"yettel-5ceaa9"},"coordinates":[42.144697,24.749386]},"dist":25.459,"tags_mismatch":true},{"osm":{"type":"node","id":9240314458,"tags":{"addr:city":"Хасково","addr:housenumber":"12","addr:postcode":"6300","addr:street":"Велико Търново","brand":"Yettel","brand:wikidata":"Q14915070","old_name":"Telenor","opening_hours":"Mo-Fr 09:00-19:30","payment:cash":"yes","payment:credit_cards":"yes","payment:debit_cards":"yes","shop":"telecommunication"},"wikidata":"Q14915070","coordinates":[41.9320912,25.5561454]},"atp":{"id":"FyXBj5ch_4tQGvZhv9MAOBqDk44=","tags":{"@source_uri":"https://www.yettel.bg/store-locator/json","@spider":"yettel_bg","shop":"telecommunication","addr:street_address":"ул. Велико Търново 12","addr:country":"BG","opening_hours":"Mo-Fr 09:00-19:00; Sa 10:00-17:00","brand":"Yettel","brand:wikidata":"Q14915070","nsi_id":"yettel-5ceaa9"},"coordinates":[41.932152,25.556112]},"dist":7.303,"tags_mismatch":true},{"osm":{"type":"node","id":9558246542,"tags":{"brand":"Yettel","brand:wikidata":"Q14915070","check_date:opening_hours":"2023-04-20","old_name":"Telenor;Globul","opening_hours":"Mo-Sa 09:00-21:00; Su 09:00-20:00","shop":"telecommunication"},"wikidata":"Q14915070","coordinates":[42.1662554,24.7490564]},"atp":{"id":"ElojQDJv3Y4SdxDVpmrUtk3gSxQ=","tags":{"@source_uri":"https://www.yettel.bg/store-locator/json","@spider":"yettel_bg","shop":"telecommunication","addr:street_address":"Брезовско шосе 127","addr:country":"BG","opening_hours":"Mo-Sa 08:00-21:00; Su 09:00-21:00","brand":"Yettel","brand:wikidata":"Q14915070","nsi_id":"yettel-5ceaa9"},"coordinates":[42.167727,24.749267]},"dist":164.552,"tags_mismatch":true},{"osm":{"type":"node","id":9583302282,"tags":{"addr:city":"Златоград","addr:housenumber":"бл. 192","addr:postcode":"4980","addr:street":"Беловидово","brand":"Yettel","brand:wikidata":"Q14915070","old_name":"Telenor","opening_hours":"Mo-Fr 09:00-18:30","shop":"telecommunication","website":"https://www.yettel.bg/"},"wikidata":"Q14915070","coordinates":[41.3790634,25.0972148]},"atp":{"id":"guEY_-4LbgasY8m3n9csNDhiAzk=","tags":{"@source_uri":"https://www.yettel.bg/store-locator/json","@spider":"yettel_bg","shop":"telecommunication","addr:street_address":"ул. Беловидово, бл. 192","addr:country":"BG","opening_hours":"Mo-Fr 09:00-18:30","brand":"Yettel","brand:wikidata":"Q14915070","nsi_id":"yettel-5ceaa9"},"coordinates":[41.3792405,25.0973084]},"dist":21.185,"tags_mismatch":false},{"osm":{"type":"node","id":9583336621,"tags":{"addr:city":"Смолян","addr:housenumber":"74","addr:postcode":"4700","addr:street":"бул. България","brand":"Yettel","brand:wikidata":"Q14915070","old_name":"Telenor;Globul","opening_hours":"Mo-Fr 09:00-19:00","phone":"+359 301 52 787;+359 89 819 2787","shop":"telecommunication"},"wikidata":"Q14915070","coordinates":[41.5788088,24.6947585]},"atp":{"id":"RBdJacQuXuXQ9H9acszLspoIaSM=","tags":{"@source_uri":"https://www.yettel.bg/store-locator/json","@spider":"yettel_bg","shop":"telecommunication","addr:street_address":"бул. България 74","addr:country":"BG","opening_hours":"Mo-Fr 09:00-19:00","brand":"Yettel","brand:wikidata":"Q14915070","nsi_id":"yettel-5ceaa9"},"coordinates":[41.57881,24.69477]},"dist":0.966,"tags_mismatch":false},{"osm":{"type":"node","id":9671736310,"tags":{"addr:city":"Варна","addr:housenumber":"1","addr:street":"Студентска","brand":"Yettel","brand:wikidata":"Q14915070","old_name":"Telenor;Globul","opening_hours":"Mo-Fr 09:00-13:00","payment:cash":"yes","payment:credit_cards":"yes","payment:debit_cards":"yes","shop":"telecommunication"},"wikidata":"Q14915070","coordinates":[43.2242071,27.9304014]},"atp":{"id":"73ZCNz9lIazqT_8NCLm9kTP9K8Y=","tags":{"@source_uri":"https://www.yettel.bg/store-locator/json","@spider":"yettel_bg","shop":"telecommunication","addr:street_address":"ул.Студентска 1","addr:country":"BG","opening_hours":"Mo-Fr 09:00-19:00","brand":"Yettel","brand:wikidata":"Q14915070","nsi_id":"yettel-5ceaa9"},"coordinates":[43.2233834,27.9319363]},"dist":154.454,"tags_mismatch":true},{"osm":{"type":"node","id":9683384373,"tags":{"brand":"Yettel","brand:wikidata":"Q14915070","old_name":"Telenor;Globul","shop":"telecommunication"},"wikidata":"Q14915070","coordinates":[42.7019406,23.359573]},"atp":{"id":"-vVfHr51VqUfQjOljNYeJ67z1dc=","tags":{"@source_uri":"https://www.yettel.bg/store-locator/json","@spider":"yettel_bg","shop":"telecommunication","addr:street_address":"ул. Тодорини кукли № 20","addr:country":"BG","opening_hours":"Mo-Fr 09:00-19:30","brand":"Yettel","brand:wikidata":"Q14915070","nsi_id":"yettel-5ceaa9"},"coordinates":[42.7019879,23.3595129]},"dist":7.196,"tags_mismatch":true},{"osm":{"type":"node","id":9929955417,"tags":{"addr:city":"Шумен","addr:housenumber":"2","addr:postcode":"9700","addr:street":"Стилиян Чилингиров","brand":"Yettel","brand:wikidata":"Q14915070","old_name":"Telenor;Globul","shop":"telecommunication"},"wikidata":"Q14915070","coordinates":[43.2710229,26.9281002]},"atp":{"id":"uTArV3x6hoyV8ODD1TDjfWi78Nk=","tags":{"@source_uri":"https://www.yettel.bg/store-locator/json","@spider":"yettel_bg","shop":"telecommunication","addr:street_address":"ул. Стилиян Чилингиров 2","addr:country":"BG","opening_hours":"Mo-Fr 09:00-19:00","brand":"Yettel","brand:wikidata":"Q14915070","nsi_id":"yettel-5ceaa9"},"coordinates":[43.271,26.9279]},"dist":16.408,"tags_mismatch":true},{"osm":{"type":"node","id":10086106852,"tags":{"brand":"Yettel","brand:wikidata":"Q14915070","old_name":"Telenor;Globul","shop":"telecommunication"},"wikidata":"Q14915070","coordinates":[43.2124095,27.9040662]},"atp":{"id":"UQLzqwnpzysr_iMcePpVOWSBzWc=","tags":{"@source_uri":"https://www.yettel.bg/store-locator/json","@spider":"yettel_bg","shop":"telecommunication","addr:street_address":"бул. Владислав Варненчик 81A","addr:country":"BG","opening_hours":"Mo-Fr 09:00-19:00; Sa 09:00-16:00","brand":"Yettel","brand:wikidata":"Q14915070","nsi_id":"yettel-5ceaa9"},"coordinates":[43.212799,27.903999]},"dist":43.651,"tags_mismatch":true},{"osm":{"type":"node","id":10231116601,"tags":{"brand":"Yettel","brand:wikidata":"Q14915070","old_name":"Telenor;Globul","shop":"telecommunication"},"wikidata":"Q14915070","coordinates":[42.8524806,23.0380868]},"atp":{"id":"enQtxPbd26XcCtf2iB9ix64Qj4A=","tags":{"@source_uri":"https://www.yettel.bg/store-locator/json","@spider":"yettel_bg","shop":"telecommunication","addr:street_address":"ул. Паисий Хилендарски 40A","addr:country":"BG","opening_hours":"Mo-Fr 09:00-18:30","brand":"Yettel","brand:wikidata":"Q14915070","nsi_id":"yettel-5ceaa9"},"coordinates":[42.85295,23.0373]},"dist":82.692,"tags_mismatch":true},{"osm":{"type":"node","id":10249380831,"tags":{"brand":"Yettel","brand:wikidata":"Q14915070","level":"0","old_name":"Telenor;Globul","shop":"telecommunication"},"wikidata":"Q14915070","coordinates":[42.6608382,23.3825299]},"atp":{"id":"Bb7it7zA1Ai-fM0pWnOZ5Oa80TM=","tags":{"@source_uri":"https://www.yettel.bg/store-locator/json","@spider":"yettel_bg","shop":"telecommunication","addr:street_address":"The Mall, бул. Цариградско шосе 115","addr:country":"BG","opening_hours":"Mo-Su 10:00-22:00","brand":"Yettel","brand:wikidata":"Q14915070","nsi_id":"yettel-5ceaa9"},"coordinates":[42.66021,23.38159]},"dist":103.857,"tags_mismatch":true},{"osm":{"type":"node","id":10297355313,"tags":{"brand":"Yettel","brand:wikidata":"Q14915070","old_name":"Telenor;Globul","opening_hours":"Mo-Fr 09:00-20:00","shop":"telecommunication","website":"https://www.yettel.bg/"},"wikidata":"Q14915070","coordinates":[42.6508004,23.3419293]},"atp":{"id":"f78G8c4BwQqBzV7sB0qhftw38LU=","tags":{"@source_uri":"https://www.yettel.bg/store-locator/json","@spider":"yettel_bg","shop":"telecommunication","addr:street_address":"ж.к. Студентски град, бул. Академик Б. Стефанов 20","addr:country":"BG","opening_hours":"Mo-Fr 09:00-19:30","brand":"Yettel","brand:wikidata":"Q14915070","nsi_id":"yettel-5ceaa9"},"coordinates":[42.6507,23.342199]},"dist":24.721,"tags_mismatch":true},{"osm":{"type":"node","id":10651054901,"tags":{"brand":"Yettel","brand:wikidata":"Q14915070","old_name":"Telenor;Globul","shop":"telecommunication"},"wikidata":"Q14915070","coordinates":[42.5031743,24.7038157]},"atp":false,"tags_mismatch":false},{"osm":{"type":"node","id":10671878312,"tags":{"brand":"Yettel","brand:wikidata":"Q14915070","old_name":"Telenor;Globul","shop":"telecommunication"},"wikidata":"Q14915070","coordinates":[42.264497,23.1160566]},"atp":{"id":"clHJ_Kp8OgzxqYi2fX8btVcGqbo=","tags":{"@source_uri":"https://www.yettel.bg/store-locator/json","@spider":"yettel_bg","shop":"telecommunication","addr:street_address":"ул. Свети Иван Рилски 4","addr:country":"BG","opening_hours":"Mo-Fr 09:00-19:00","brand":"Yettel","brand:wikidata":"Q14915070","nsi_id":"yettel-5ceaa9"},"coordinates":[42.26442,23.11613]},"dist":10.478,"tags_mismatch":true},{"osm":{"type":"node","id":10683278259,"tags":{"addr:city":"Благоевград","addr:housenumber":"3","addr:postcode":"2700","addr:street":"бул. Св. Св. Кирил и Методий","brand":"Yettel","brand:wikidata":"Q14915070","old_name":"Telenor;Globul","opening_hours":"Mo-Fr 09:00-19:30","payment:cash":"yes","payment:credit_cards":"yes","payment:debit_cards":"yes","shop":"telecommunication","website":"https://yettel.bg/"},"wikidata":"Q14915070","coordinates":[42.0201396,23.0943365]},"atp":{"id":"luzbwwRyLmc1mV9PDDvDcXomCFI=","tags":{"@source_uri":"https://www.yettel.bg/store-locator/json","@spider":"yettel_bg","shop":"telecommunication","addr:street_address":"ул. Св. Св. Кирил и Методи 3","addr:country":"BG","opening_hours":"Mo-Fr 09:00-19:00","brand":"Yettel","brand:wikidata":"Q14915070","nsi_id":"yettel-5ceaa9"},"coordinates":[42.020119,23.094308]},"dist":3.285,"tags_mismatch":true},{"osm":{"type":"node","id":10683407262,"tags":{"addr:city":"Казанлък","addr:housenumber":"7","addr:postcode":"6100","addr:street":"Княз Александър Батенберг","brand":"Yettel","brand:wikidata":"Q14915070","old_name":"Telenor;Globul","opening_hours":"Mo-Fr 09:00-19:30","payment:cash":"yes","payment:credit_cards":"yes","payment:debit_cards":"yes","shop":"telecommunication","website":"https://yettel.bg/"},"wikidata":"Q14915070","coordinates":[42.6189563,25.3942776]},"atp":{"id":"ip-SCbn7UIKd7F1J_QM-MIjTjII=","tags":{"@source_uri":"https://www.yettel.bg/store-locator/json","@spider":"yettel_bg","shop":"telecommunication","addr:street_address":"бул. Княз Александър Батенберг 7","addr:country":"BG","opening_hours":"Mo-Fr 09:00-19:00","brand":"Yettel","brand:wikidata":"Q14915070","nsi_id":"yettel-5ceaa9"},"coordinates":[42.618999,25.3955]},"dist":100.136,"tags_mismatch":true},{"osm":{"type":"node","id":10683482234,"tags":{"brand":"Yettel","brand:wikidata":"Q14915070","old_name":"Telenor;Globul","opening_hours":"Mo-Su 09:00-19:00; Sa 09:00-16:00","payment:cash":"yes","payment:credit_cards":"yes","payment:debit_cards":"yes","shop":"telecommunication","website":"https://yettel.bg/"},"wikidata":"Q14915070","coordinates":[41.6449354,25.36911]},"atp":false,"tags_mismatch":false},{"osm":{"type":"node","id":10683493499,"tags":{"addr:city":"Несебър","addr:housenumber":"11","addr:postcode":"8230","addr:street":"Хан Крум","brand":"Yettel","brand:wikidata":"Q14915070","old_name":"Telenor;Globul","opening_hours":"Mo-Fr 09:00-19:00","shop":"telecommunication","website":"https://yettel.bg/"},"wikidata":"Q14915070","coordinates":[42.66243,27.7188352]},"atp":{"id":"_q-FXEQkib2nwZ8uefztcDYSE_E=","tags":{"@source_uri":"https://www.yettel.bg/store-locator/json","@spider":"yettel_bg","shop":"telecommunication","addr:street_address":"ул. Хан Крум 11","addr:country":"BG","opening_hours":"Mo-Fr 09:00-18:00","brand":"Yettel","brand:wikidata":"Q14915070","nsi_id":"yettel-5ceaa9"},"coordinates":[42.66322,27.71849]},"dist":92.267,"tags_mismatch":true},{"osm":{"type":"node","id":10683557769,"tags":{"addr:city":"Бургас","addr:housenumber":"107","addr:postcode":"8000","addr:street":"Александровска","brand":"Yettel","brand:wikidata":"Q14915070","old_name":"Telenor;Globul","opening_hours":"Mo-Fr 09:00-19:00","payment:cash":"yes","payment:credit_cards":"yes","payment:debit_cards":"yes","shop":"telecommunication","website":"https://yettel.bg/"},"wikidata":"Q14915070","coordinates":[42.4992406,27.4702466]},"atp":{"id":"RjYbKu1NZa4MMR7MMd7Uj5ToBwE=","tags":{"@source_uri":"https://www.yettel.bg/store-locator/json","@spider":"yettel_bg","shop":"telecommunication","addr:street_address":"ул. Александровска 107","addr:country":"BG","opening_hours":"Mo-Fr 09:00-19:00","brand":"Yettel","brand:wikidata":"Q14915070","nsi_id":"yettel-5ceaa9"},"coordinates":[42.499916,27.4701]},"dist":76.057,"tags_mismatch":false},{"osm":{"type":"node","id":10697274713,"tags":{"brand":"Yettel","brand:wikidata":"Q14915070","shop":"telecommunication"},"wikidata":"Q14915070","coordinates":[42.4381583,25.6319824]},"atp":{"id":"-TAEN8oUG1DGMKyo6g6ZG_3A1QQ=","tags":{"@source_uri":"https://www.yettel.bg/store-locator/json","@spider":"yettel_bg","shop":"telecommunication","addr:street_address":"Mall Galeria Stara Zagora, ул. Хан Аспарух 30","addr:country":"BG","opening_hours":"Mo-Su 10:00-21:00","brand":"Yettel","brand:wikidata":"Q14915070","nsi_id":"yettel-5ceaa9"},"coordinates":[42.4382,25.63178]},"dist":17.245,"tags_mismatch":true},{"osm":{"type":"node","id":10814989913,"tags":{"addr:city":"Ямбол","addr:housenumber":"34","addr:postcode":"8600","addr:street":"Търговска","brand":"Yettel","brand:wikidata":"Q14915070","opening_hours":"Mo-Fr 09:00-19:00","shop":"telecommunication"},"wikidata":"Q14915070","coordinates":[42.4819271,26.5111231]},"atp":{"id":"wuMUN2y2yEXpHBwI3RksLX14QGY=","tags":{"@source_uri":"https://www.yettel.bg/store-locator/json","@spider":"yettel_bg","shop":"telecommunication","addr:street_address":"ул. Търговска 34","addr:country":"BG","opening_hours":"Mo-Fr 09:00-19:00","brand":"Yettel","brand:wikidata":"Q14915070","nsi_id":"yettel-5ceaa9"},"coordinates":[42.481602,26.5135]},"dist":198.242,"tags_mismatch":false},{"osm":{"type":"node","id":10979756980,"tags":{"brand":"Yettel","brand:wikidata":"Q14915070","shop":"telecommunication"},"wikidata":"Q14915070","coordinates":[43.3460591,27.1947596]},"atp":{"id":"WGzXvwLtUw_4NfSJqpL6BYmQXe8=","tags":{"@source_uri":"https://www.yettel.bg/store-locator/json","@spider":"yettel_bg","shop":"telecommunication","addr:street_address":"ул. Цар Освободител 5","addr:country":"BG","opening_hours":"Mo-Fr 09:00-18:30","brand":"Yettel","brand:wikidata":"Q14915070","nsi_id":"yettel-5ceaa9"},"coordinates":[43.34612,27.19483]},"dist":8.847,"tags_mismatch":true},{"osm":{"type":"node","id":11235822437,"tags":{"brand":"Yettel","brand:wikidata":"Q14915070","shop":"telecommunication"},"wikidata":"Q14915070","coordinates":[43.1407016,24.7186294]},"atp":{"id":"8Y8S3Pyh_CfbEw_Mb5UJkLWKIXQ=","tags":{"@source_uri":"https://www.yettel.bg/store-locator/json","@spider":"yettel_bg","shop":"telecommunication","addr:street_address":"ул. Търговска 54, вх. А, ет. 1","addr:country":"BG","opening_hours":"Mo-Fr 09:00-18:30","brand":"Yettel","brand:wikidata":"Q14915070","nsi_id":"yettel-5ceaa9"},"coordinates":[43.14073,24.71832]},"dist":25.301,"tags_mismatch":true},{"osm":{"type":"node","id":11257967659,"tags":{"brand":"Yettel","brand:wikidata":"Q14915070","shop":"telecommunication"},"wikidata":"Q14915070","coordinates":[42.4184994,27.6948997]},"atp":false,"tags_mismatch":false},{"osm":{"type":"node","id":11325714825,"tags":{"brand":"Yettel","brand:wikidata":"Q14915070","shop":"telecommunication"},"wikidata":"Q14915070","coordinates":[43.2506519,26.5715185]},"atp":{"id":"TkxBaPRP0uxofOK3B_wvFJNOBhM=","tags":{"@source_uri":"https://www.yettel.bg/store-locator/json","@spider":"yettel_bg","shop":"telecommunication","addr:street_address":"ул. Цар Симеон 4, ет. 1","addr:country":"BG","opening_hours":"Mo-Fr 09:00-18:30","brand":"Yettel","brand:wikidata":"Q14915070","nsi_id":"yettel-5ceaa9"},"coordinates":[43.2505145,26.5714224]},"dist":17.146,"tags_mismatch":true},{"osm":{"type":"node","id":11537933452,"tags":{"brand":"Yettel","brand:wikidata":"Q14915070","check_date":"2025-05-28","shop":"telecommunication"},"wikidata":"Q14915070","coordinates":[42.6963953,23.2868993]},"atp":false,"tags_mismatch":false},{"osm":{"type":"node","id":11550146872,"tags":{"brand":"Yettel","brand:wikidata":"Q14915070","level":"0","opening_hours":"Mo-Su 10:00-22:00","shop":"telecommunication"},"wikidata":"Q14915070","coordinates":[42.6577146,23.3141229]},"atp":{"id":"in-ZXhFJses4NMPM2ll1lQ9t5FQ=","tags":{"@source_uri":"https://www.yettel.bg/store-locator/json","@spider":"yettel_bg","shop":"telecommunication","addr:street_address":"Paradise Center, бул. Черни връх 100","addr:country":"BG","opening_hours":"Mo-Su 10:00-22:00","brand":"Yettel","brand:wikidata":"Q14915070","nsi_id":"yettel-5ceaa9"},"coordinates":[42.65819,23.31554]},"dist":127.37,"tags_mismatch":false},{"osm":{"type":"node","id":11938894753,"tags":{"brand":"Yettel","brand:wikidata":"Q14915070","check_date":"2025-05","level":"-1","opening_hours":"Mo-Su 09:00-21:00","shop":"telecommunication"},"wikidata":"Q14915070","coordinates":[42.7001157,23.3216507]},"atp":{"id":"hY2CyGFxcic87HA3Kv0vSACJ1bE=","tags":{"@source_uri":"https://www.yettel.bg/store-locator/json","@spider":"yettel_bg","shop":"telecommunication","addr:street_address":"бул. Мария Луиза 25","addr:country":"BG","opening_hours":"Mo-Su 09:00-21:00","brand":"Yettel","brand:wikidata":"Q14915070","nsi_id":"yettel-5ceaa9"},"coordinates":[42.701801,23.322399]},"dist":197.121,"tags_mismatch":false},{"osm":{"type":"node","id":11961065929,"tags":{"brand":"Yettel","brand:wikidata":"Q14915070","opening_hours":"Mo-Fr 09:00-18:00","shop":"telecommunication"},"wikidata":"Q14915070","coordinates":[43.2061009,24.1636735]},"atp":{"id":"Y5mE563-jFHkKAxeSazys6PVKnE=","tags":{"@source_uri":"https://www.yettel.bg/store-locator/json","@spider":"yettel_bg","shop":"telecommunication","addr:street_address":"ул. Възраждане 88","addr:country":"BG","opening_hours":"Mo-Fr 09:00-18:00","brand":"Yettel","brand:wikidata":"Q14915070","nsi_id":"yettel-5ceaa9"},"coordinates":[43.20633,24.16333]},"dist":37.737,"tags_mismatch":false},{"osm":{"type":"node","id":11969198199,"tags":{"brand":"Yettel","brand:wikidata":"Q14915070","shop":"telecommunication"},"wikidata":"Q14915070","coordinates":[42.9079187,23.794185]},"atp":{"id":"-uryYyz6-cNiNaGJP4PvVP5cH84=","tags":{"@source_uri":"https://www.yettel.bg/store-locator/json","@spider":"yettel_bg","shop":"telecommunication","addr:street_address":"пл. Саранск 7","addr:country":"BG","opening_hours":"Mo-Fr 09:00-19:00","brand":"Yettel","brand:wikidata":"Q14915070","nsi_id":"yettel-5ceaa9"},"coordinates":[42.907651,23.793366]},"dist":73.044,"tags_mismatch":true},{"osm":{"type":"node","id":12073982247,"tags":{"brand":"Yettel","brand:wikidata":"Q14915070","shop":"telecommunication"},"wikidata":"Q14915070","coordinates":[42.809035,23.2128876]},"atp":{"id":"aT1iBzhgga-m-aGehxM5J9GL6qc=","tags":{"@source_uri":"https://www.yettel.bg/store-locator/json","@spider":"yettel_bg","shop":"telecommunication","addr:street_address":"ул. Електра, ет. 1, обект 8 Билла Парк","addr:country":"BG","opening_hours":"Mo-Fr 09:00-18:30","brand":"Yettel","brand:wikidata":"Q14915070","nsi_id":"yettel-5ceaa9"},"coordinates":[42.8092664,23.2102776]},"dist":214.46,"tags_mismatch":true},{"osm":{"type":"node","id":12165020020,"tags":{"brand":"Yettel","brand:wikidata":"Q14915070","level":"0","shop":"telecommunication","wheelchair":"yes"},"wikidata":"Q14915070","coordinates":[42.6642376,23.2882534]},"atp":{"id":"315a69S5QWrqQnnKOwC9F7-oNl4=","tags":{"@source_uri":"https://www.yettel.bg/store-locator/json","@spider":"yettel_bg","shop":"telecommunication","addr:street_address":"Bulgaria Mall, бул. България 69","addr:country":"BG","opening_hours":"Mo-Su 10:00-21:00","brand":"Yettel","brand:wikidata":"Q14915070","nsi_id":"yettel-5ceaa9"},"coordinates":[42.6647,23.288401]},"dist":52.814,"tags_mismatch":true},{"osm":{"type":"node","id":12262758872,"tags":{"addr:city":"Габрово","addr:housenumber":"1","addr:postcode":"5300","addr:street":"Петко Каравелов","brand":"Yettel","brand:wikidata":"Q14915070","shop":"telecommunication"},"wikidata":"Q14915070","coordinates":[42.872113,25.3192361]},"atp":{"id":"Yj-tdA3SshNVuHaheQa8gMcSlcs=","tags":{"@source_uri":"https://www.yettel.bg/store-locator/json","@spider":"yettel_bg","shop":"telecommunication","addr:street_address":"ул. Петко Каравелов 1","addr:country":"BG","opening_hours":"Mo-Fr 09:00-19:00","brand":"Yettel","brand:wikidata":"Q14915070","nsi_id":"yettel-5ceaa9"},"coordinates":[42.872398,25.3193]},"dist":32.116,"tags_mismatch":true},{"osm":{"type":"node","id":12289899331,"tags":{"brand":"Yettel","brand:wikidata":"Q14915070","check_date":"2024-10-26","opening_hours":"Mo-Fr 09:00-18:30","payment:cash":"yes","payment:credit_cards":"yes","payment:debit_cards":"yes","shop":"telecommunication","wheelchair":"no"},"wikidata":"Q14915070","coordinates":[43.495462,24.0798486]},"atp":{"id":"RX2Y-iG2Niso5qvbbw6LGs_-I8Q=","tags":{"@source_uri":"https://www.yettel.bg/store-locator/json","@spider":"yettel_bg","shop":"telecommunication","addr:street_address":"ул. Марин Боев 66","addr:country":"BG","opening_hours":"Mo-We 09:00-18:00; Th 09:00-18:30; Fr 09:00-18:00","brand":"Yettel","brand:wikidata":"Q14915070","nsi_id":"yettel-5ceaa9"},"coordinates":[43.495515,24.079821]},"dist":6.3,"tags_mismatch":true},{"osm":{"type":"node","id":12365508580,"tags":{"brand":"Yettel","brand:wikidata":"Q14915070","opening_hours":"10:00-21:00","shop":"telecommunication"},"wikidata":"Q14915070","coordinates":[42.6796097,23.3676849]},"atp":{"id":"qc6MsVjtKMmF9RelL5nOFhZ7pt0=","tags":{"@source_uri":"https://www.yettel.bg/store-locator/json","@spider":"yettel_bg","shop":"telecommunication","addr:street_address":"Sky City Mall, ж.к. Слатина, ул. Коста Лулчев 52","addr:country":"BG","opening_hours":"Mo-Su 10:00-21:00","brand":"Yettel","brand:wikidata":"Q14915070","nsi_id":"yettel-5ceaa9"},"coordinates":[42.68011,23.36716]},"dist":70.256,"tags_mismatch":true},{"osm":{"type":"node","id":12641299531,"tags":{"brand":"Yettel","brand:wikidata":"Q14915070","shop":"telecommunication"},"wikidata":"Q14915070","coordinates":[42.7121035,23.338435]},"atp":false,"tags_mismatch":false},{"osm":{"type":"node","id":12645452202,"tags":{"brand":"Yettel","brand:wikidata":"Q14915070","shop":"telecommunication"},"wikidata":"Q14915070","coordinates":[42.4236291,25.6240065]},"atp":{"id":"0Y94MsFTaoBZuiITvBA0nR_ni3A=","tags":{"@source_uri":"https://www.yettel.bg/store-locator/json","@spider":"yettel_bg","shop":"telecommunication","addr:street_address":"бул. Цар Симеон Велики 92","addr:country":"BG","opening_hours":"Mo-Fr 09:00-19:00","brand":"Yettel","brand:wikidata":"Q14915070","nsi_id":"yettel-5ceaa9"},"coordinates":[42.424,25.623899]},"dist":42.176,"tags_mismatch":true},{"osm":{"type":"node","id":12871232112,"tags":{"brand":"Yettel","brand:wikidata":"Q14915070","shop":"telecommunication"},"wikidata":"Q14915070","coordinates":[41.5713898,23.7291268]},"atp":{"id":"CDhPwgme9tmU7UVHCJIeNA5T9Gg=","tags":{"@source_uri":"https://www.yettel.bg/store-locator/json","@spider":"yettel_bg","shop":"telecommunication","addr:street_address":"ул. Бяло Море 13","addr:country":"BG","opening_hours":"Mo-Fr 09:00-19:00; Sa 10:00-17:00","brand":"Yettel","brand:wikidata":"Q14915070","nsi_id":"yettel-5ceaa9"},"coordinates":[41.5714,23.729]},"dist":10.609,"tags_mismatch":true},{"osm":{"type":"node","id":12912365081,"tags":{"brand":"Yettel","brand:wikidata":"Q14915070","level":"0","opening_hours":"Mo-Su 10:00-21:00","shop":"telecommunication"},"wikidata":"Q14915070","coordinates":[42.6788205,23.320595]},"atp":{"id":"cJ_ZWT3LjI2Hc9nBkoCFm3i_WUY=","tags":{"@source_uri":"https://www.yettel.bg/store-locator/json","@spider":"yettel_bg","shop":"telecommunication","addr:street_address":"City Centre Sofia, бул. Арсеналски 2","addr:country":"BG","opening_hours":"Mo-Su 10:00-21:00","brand":"Yettel","brand:wikidata":"Q14915070","nsi_id":"yettel-5ceaa9"},"coordinates":[42.679154,23.320198]},"dist":49.279,"tags_mismatch":false},{"osm":false,"atp":{"id":"hWbyZ6LP5zoPiGcyVorejpa93Jk=","tags":{"shop":"telecommunication","addr:street_address":"бул. „Царица Йоанна” № 15 West Mall","addr:country":"BG","name":"Yettel","opening_hours":"Mo-Su 10:00-21:00","brand":"Yettel","brand:wikidata":"Q14915070"},"coordinates":[42.710873,23.270934]},"tags_mismatch":false,"dist":0},{"osm":false,"atp":{"id":"cVCVHQOeSpwnyV14OcGXlNPko9g=","tags":{"shop":"telecommunication","addr:street_address":"жк. Меден Рудник, Кауфланд, ул. Матей Миткалото 45","addr:country":"BG","name":"Yettel","opening_hours":"Mo-Sa 08:00-21:00; Su 09:00-20:30","brand":"Yettel","brand:wikidata":"Q14915070"},"coordinates":[42.463304,27.410089]},"tags_mismatch":false,"dist":0},{"osm":false,"atp":{"id":"IvqSPRdTpqA3QUkP_DJkPStEXuI=","tags":{"shop":"telecommunication","addr:street_address":"ул. Христо Ботев 35","addr:country":"BG","name":"Yettel","opening_hours":"Mo-Fr 09:00-18:30","brand":"Yettel","brand:wikidata":"Q14915070"},"coordinates":[43.1423,23.7124]},"tags_mismatch":false,"dist":0},{"osm":false,"atp":false,"tags_mismatch":false,"dist":0},{"osm":false,"atp":false,"tags_mismatch":false,"dist":0},{"osm":false,"atp":{"id":"u8R6mHCZc7l8CRQXQDKpGv5Ce3A=","tags":{"shop":"telecommunication","addr:street_address":"ул. Тича 6","addr:country":"BG","name":"Yettel","opening_hours":"Mo-Fr 09:00-18:00","brand":"Yettel","brand:wikidata":"Q14915070"},"coordinates":[42.99217,27.71902]},"tags_mismatch":false,"dist":0},{"osm":false,"atp":{"id":"MOZLyWfvSJQjt0pj-iwBNW8tZEM=","tags":{"shop":"telecommunication","addr:street_address":"ул. Георги Димитров 9","addr:country":"BG","name":"Yettel","opening_hours":"Mo-Fr 09:00-19:00","brand":"Yettel","brand:wikidata":"Q14915070"},"coordinates":[42.289993,25.933971]},"tags_mismatch":false,"dist":0},{"osm":false,"atp":{"id":"9cvjoIullo2K3T0phHCuiA78a7Q=","tags":{"shop":"telecommunication","addr:street_address":"ул. Княз Борис I 16","addr:country":"BG","name":"Yettel","opening_hours":"Mo-Fr 09:00-19:00","brand":"Yettel","brand:wikidata":"Q14915070"},"coordinates":[42.099249,25.224854]},"tags_mismatch":false,"dist":0},{"osm":false,"atp":{"id":"QItxq6lDFpV8r7wq3R6n9bQgVpw=","tags":{"shop":"telecommunication","addr:street_address":"ул. Княз Борис I 1","addr:country":"BG","name":"Yettel","opening_hours":"Mo-Fr 09:00-18:30","brand":"Yettel","brand:wikidata":"Q14915070"},"coordinates":[43.1225,25.69191]},"tags_mismatch":false,"dist":0},{"osm":false,"atp":{"id":"RDoS_ZXSnzeAiNiu3G5sxsIvn5A=","tags":{"shop":"telecommunication","addr:street_address":"ул. Беловидово, бл. 192","addr:country":"BG","name":"Yettel","opening_hours":"Mo-Fr 09:00-18:00","brand":"Yettel","brand:wikidata":"Q14915070"},"coordinates":[41.379276,25.097242]},"tags_mismatch":false,"dist":0},{"osm":false,"atp":{"id":"FOeOONgq4_-0OQAI_QQ-1ueYw0Y=","tags":{"shop":"telecommunication","addr:street_address":"ул. Цар Борис III 20","addr:country":"BG","name":"Yettel","opening_hours":"Mo-Fr 09:00-19:00","brand":"Yettel","brand:wikidata":"Q14915070"},"coordinates":[41.39471,23.20751]},"tags_mismatch":false,"dist":0},{"osm":false,"atp":{"id":"WkCRomBHoGIaB6Od1REZYghiwlY=","tags":{"shop":"telecommunication","addr:street_address":"ул. Шейново 6 (Бизнес център-партер)","addr:country":"BG","name":"Yettel","opening_hours":"Mo-Fr 09:00-18:30","brand":"Yettel","brand:wikidata":"Q14915070"},"coordinates":[41.88514,23.4669]},"tags_mismatch":false,"dist":0},{"osm":false,"atp":{"id":"ZLYieKppzwhHGHByR2SS2JhpRZk=","tags":{"shop":"telecommunication","addr:street_address":"ул. Георги Бенковски 32","addr:country":"BG","name":"Yettel","opening_hours":"Mo-Fr 09:00-18:30","brand":"Yettel","brand:wikidata":"Q14915070"},"coordinates":[42.500329,24.18782]},"tags_mismatch":false,"dist":0},{"osm":false,"atp":{"id":"_03YCGXP7CgdNcKE6LnCr8e1VWo=","tags":{"shop":"telecommunication","addr:street_address":"бул. Търговски 1","addr:country":"BG","name":"Yettel","opening_hours":"Mo-Fr 09:00-18:30","brand":"Yettel","brand:wikidata":"Q14915070"},"coordinates":[42.1325,24.53537]},"tags_mismatch":false,"dist":0},{"osm":false,"atp":false,"tags_mismatch":false,"dist":0},{"osm":false,"atp":{"id":"7Q4-2UFTH4i1Ee_w-a89Snt99QY=","tags":{"shop":"telecommunication","addr:street_address":"ул. Ген. Карцов 43","addr:country":"BG","name":"Yettel","opening_hours":"Mo-Fr 09:00-19:00","brand":"Yettel","brand:wikidata":"Q14915070"},"coordinates":[42.64191,24.80789]},"tags_mismatch":false,"dist":0},{"osm":false,"atp":{"id":"6UNPyFLCnrKlVkeMDDklbVNJQTA=","tags":{"shop":"telecommunication","addr:street_address":"ул. Александър Стамболийски 32","addr:country":"BG","name":"Yettel","opening_hours":"Mo-Fr 09:00-18:00","brand":"Yettel","brand:wikidata":"Q14915070"},"coordinates":[43.36025,25.14265]},"tags_mismatch":false,"dist":0},{"osm":false,"atp":{"id":"qgKl06oFdP3ZY6M8obSY4QArVng=","tags":{"shop":"telecommunication","addr:street_address":"ул. Македония 1","addr:country":"BG","name":"Yettel","opening_hours":"Mo-Fr 09:00-18:30","brand":"Yettel","brand:wikidata":"Q14915070"},"coordinates":[41.89208,23.11217]},"tags_mismatch":false,"dist":0},{"osm":false,"atp":false,"tags_mismatch":false,"dist":0},{"osm":false,"atp":{"id":"LI1Kz0kp5Hb63qO6q6YnFGDpTzM=","tags":{"shop":"telecommunication","addr:street_address":"бул. България 78","addr:country":"BG","name":"Yettel","opening_hours":"Mo-Fr 09:00-18:30","brand":"Yettel","brand:wikidata":"Q14915070"},"coordinates":[43.34893,26.2249]},"tags_mismatch":false,"dist":0},{"osm":false,"atp":{"id":"9myjUuJ1MtKl12uuUE7BS7OALcI=","tags":{"shop":"telecommunication","addr:street_address":"ул. България 59","addr:country":"BG","name":"Yettel","opening_hours":"Mo-Fr 09:00-18:00","brand":"Yettel","brand:wikidata":"Q14915070"},"coordinates":[43.43551,28.33801]},"tags_mismatch":false,"dist":0},{"osm":false,"atp":{"id":"Szbs_4xXYTHSaYAZZENHMK3wLM8=","tags":{"shop":"telecommunication","addr:street_address":"ул. Черно море 32 А","addr:country":"BG","name":"Yettel","opening_hours":"Mo-Fr 09:00-18:00","brand":"Yettel","brand:wikidata":"Q14915070"},"coordinates":[43.40944,28.16553]},"tags_mismatch":false,"dist":0},{"osm":false,"atp":{"id":"Z_qNAp6a6BZbGBnP5e3ndqTejRg=","tags":{"shop":"telecommunication","addr:street_address":"бул. Република, бл. 4","addr:country":"BG","name":"Yettel","opening_hours":"Mo-Fr 09:00-19:00","brand":"Yettel","brand:wikidata":"Q14915070"},"coordinates":[42.13875,25.86653]},"tags_mismatch":false,"dist":0},{"osm":false,"atp":{"id":"XJZNnw1t5BUwVQ9kqIQj4Ayvl6w=","tags":{"shop":"telecommunication","addr:street_address":"пл. Свобода 5","addr:country":"BG","name":"Yettel","opening_hours":"Mo-Fr 09:00-18:00","brand":"Yettel","brand:wikidata":"Q14915070"},"coordinates":[43.0266,25.103399]},"tags_mismatch":false,"dist":0},{"osm":false,"atp":{"id":"Fdv7iuCuFyz1yS_WBvKRiwmbp2k=","tags":{"shop":"telecommunication","addr:street_address":"ул. Хаджи Димитър 6","addr:country":"BG","name":"Yettel","opening_hours":"Mo-Fr 09:00-18:00","brand":"Yettel","brand:wikidata":"Q14915070"},"coordinates":[43.45868,25.7393]},"tags_mismatch":false,"dist":0},{"osm":false,"atp":{"id":"eiJ1wra4vje3VVsXqVge4tUS258=","tags":{"shop":"telecommunication","addr:street_address":"ул. Пауталия 20","addr:country":"BG","name":"Yettel","opening_hours":"Mo-Fr 09:00-19:00","brand":"Yettel","brand:wikidata":"Q14915070"},"coordinates":[42.28045,22.69008]},"tags_mismatch":false,"dist":0},{"osm":false,"atp":false,"tags_mismatch":false,"dist":0},{"osm":false,"atp":false,"tags_mismatch":false,"dist":0},{"osm":false,"atp":{"id":"VnhLHDcyAcLBVH6Xx8M948NsUqU=","tags":{"shop":"telecommunication","addr:street_address":"ул. Гео Милев 1","addr:country":"BG","name":"Yettel","opening_hours":"Mo-Fr 09:00-18:00","brand":"Yettel","brand:wikidata":"Q14915070"},"coordinates":[44.0463,26.61658]},"tags_mismatch":false,"dist":0},{"osm":false,"atp":{"id":"y_TFxYlXlJdS3UbBs3zbizbHYXY=","tags":{"shop":"telecommunication","addr:street_address":"ул, Белмекен 4","addr:country":"BG","name":"Yettel","opening_hours":"Mo-Fr 09:00-18:30","brand":"Yettel","brand:wikidata":"Q14915070"},"coordinates":[42.30721,23.85766]},"tags_mismatch":false,"dist":0},{"osm":false,"atp":false,"tags_mismatch":false,"dist":0},{"osm":false,"atp":{"id":"kSZMU0UcevmVzmLKaX37c0GBMVs=","tags":{"shop":"telecommunication","addr:street_address":"кв. Секирово, ул. Петър Богдан 77А","addr:country":"BG","name":"Yettel","opening_hours":"Mo-Fr 09:00-19:00","brand":"Yettel","brand:wikidata":"Q14915070"},"coordinates":[42.27167,24.94341]},"tags_mismatch":false,"dist":0},{"osm":false,"atp":{"id":"sPO5WcWk_rYCUAyxhdNYUTlOmkk=","tags":{"shop":"telecommunication","addr:street_address":"ул. Ген. Карцов 43","addr:country":"BG","name":"Yettel","opening_hours":"Mo-Fr 09:00-18:00","brand":"Yettel","brand:wikidata":"Q14915070"},"coordinates":[42.64191,24.80789]},"tags_mismatch":false,"dist":0},{"osm":false,"atp":{"id":"kSMZcCnYC8y3LS9QNlwIWGjFGt4=","tags":{"shop":"telecommunication","addr:street_address":"ул. Димитър Грънчаров 14","addr:country":"BG","name":"Yettel","opening_hours":"Mo-Fr 09:00-18:30","brand":"Yettel","brand:wikidata":"Q14915070"},"coordinates":[43.18014,27.4439]},"tags_mismatch":false,"dist":0},{"osm":false,"atp":{"id":"EL_wurl-ZvjW4V_jtVj8DfW5J_U=","tags":{"shop":"telecommunication","addr:street_address":"пл. Възраждане 2","addr:country":"BG","name":"Yettel","opening_hours":"Mo-Fr 09:00-18:30","brand":"Yettel","brand:wikidata":"Q14915070"},"coordinates":[43.7966,26.49927]},"tags_mismatch":false,"dist":0},{"osm":false,"atp":{"id":"mI-cZAFU6Kjc62_5OmAK1B8qG8A=","tags":{"shop":"telecommunication","addr:street_address":"бул. Република, бл. 4","addr:country":"BG","name":"Yettel","opening_hours":"Mo-Fr 09:00-19:00","brand":"Yettel","brand:wikidata":"Q14915070"},"coordinates":[42.13875,25.86653]},"tags_mismatch":false,"dist":0},{"osm":false,"atp":{"id":"o2s5iiKqWXdgfQvzBjBO6GB4ulI=","tags":{"shop":"telecommunication","addr:street_address":"бул. Съединение 206","addr:country":"BG","name":"Yettel","opening_hours":"Mo-Fr 09:00-18:30","brand":"Yettel","brand:wikidata":"Q14915070"},"coordinates":[42.025351,23.991336]},"tags_mismatch":false,"dist":0},{"osm":false,"atp":{"id":"D2XO_qOMKlUw5hRjDed7T-bfe-0=","tags":{"shop":"telecommunication","addr:street_address":"пл. България (Търговски център)","addr:country":"BG","name":"Yettel","opening_hours":"Mo-Fr 09:00-18:30","brand":"Yettel","brand:wikidata":"Q14915070"},"coordinates":[42.03178,24.30185]},"tags_mismatch":false,"dist":0},{"osm":false,"atp":{"id":"TtKVqsSld_KFaZ99_94cFZVRpCs=","tags":{"shop":"telecommunication","addr:street_address":"ул. Георги Димитров 9","addr:country":"BG","name":"Yettel","opening_hours":"Mo-Fr 09:00-19:00","brand":"Yettel","brand:wikidata":"Q14915070"},"coordinates":[42.289993,25.933971]},"tags_mismatch":false,"dist":0},{"osm":false,"atp":false,"tags_mismatch":false,"dist":0},{"osm":false,"atp":{"id":"edfZfomqyr-d564DTJNrWPrOrmg=","tags":{"shop":"telecommunication","addr:street_address":"ул. Княз Борис I 60","addr:country":"BG","name":"Yettel","opening_hours":"Mo-Fr 09:00-18:00","brand":"Yettel","brand:wikidata":"Q14915070"},"coordinates":[42.557098,27.6399]},"tags_mismatch":false,"dist":0},{"osm":false,"atp":{"id":"mbvj4ALOg0T2-z3ocBbXXsQZ6pA=","tags":{"shop":"telecommunication","addr:street_address":"ул. Княз Борис I 16","addr:country":"BG","name":"Yettel","opening_hours":"Mo-Fr 09:00-19:00","brand":"Yettel","brand:wikidata":"Q14915070"},"coordinates":[42.099249,25.224854]},"tags_mismatch":false,"dist":0},{"osm":false,"atp":{"id":"TzkSqQnl5ZBafoXZ-AXWDaMYvDw=","tags":{"shop":"telecommunication","addr:street_address":"ул. Цар Симеон 43","addr:country":"BG","name":"Yettel","opening_hours":"Mo-Fr 09:00-18:30","brand":"Yettel","brand:wikidata":"Q14915070"},"coordinates":[41.83958,23.48723]},"tags_mismatch":false,"dist":0},{"osm":false,"atp":{"id":"8QVPYV1l5XSljkITlc1dMu2sqvA=","tags":{"shop":"telecommunication","addr:street_address":"ул.Лудогорие 28","addr:country":"BG","name":"Yettel","opening_hours":"Mo-Fr 09:00-18:30","brand":"Yettel","brand:wikidata":"Q14915070"},"coordinates":[43.71483,26.82938]},"tags_mismatch":false,"dist":0},{"osm":false,"atp":{"id":"p6Py-w2tt9pi7ptKDPBoCV5gd4o=","tags":{"shop":"telecommunication","addr:street_address":"бул. България 78","addr:country":"BG","name":"Yettel","opening_hours":"Mo-Fr 09:00-18:30","brand":"Yettel","brand:wikidata":"Q14915070"},"coordinates":[43.34893,26.2249]},"tags_mismatch":false,"dist":0},{"osm":false,"atp":{"id":"_dX_K9lMVJwWXnyK-z4Q0jnAyjI=","tags":{"shop":"telecommunication","addr:street_address":"ул. „Св.Св. Кирил и Методий“ № 53, ет1","addr:country":"BG","name":"Yettel","opening_hours":"Mo-Fr 09:00-19:00","brand":"Yettel","brand:wikidata":"Q14915070"},"coordinates":[43.179371,27.896994]},"tags_mismatch":false,"dist":0},{"osm":false,"atp":{"id":"RA0dT5P0A1ZGYGbL_Gsmwim8PAA=","tags":{"shop":"telecommunication","addr:street_address":"бул. Сливница 185","addr:country":"BG","name":"Yettel","opening_hours":"Mo-Su 10:00-21:00","brand":"Yettel","brand:wikidata":"Q14915070"},"coordinates":[43.22772545,27.8746748]},"tags_mismatch":false,"dist":0},{"osm":false,"atp":{"id":"JJcVt7i8gmo2KBJSrRulmekYNbY=","tags":{"shop":"telecommunication","addr:street_address":"акад. Дмитрий Лихачов“ 58, търг. център \"Сантара\"","addr:country":"BG","name":"Yettel","opening_hours":"Mo-Fr 09:00-19:00","brand":"Yettel","brand:wikidata":"Q14915070"},"coordinates":[42.74162,23.27729]},"tags_mismatch":false,"dist":0},{"osm":false,"atp":false,"tags_mismatch":false,"dist":0},{"osm":false,"atp":{"id":"IGfOR-iRPX3UGTG1JygVly5jvgk=","tags":{"shop":"telecommunication","addr:street_address":"ул. Македония 97Б","addr:country":"BG","name":"Yettel","opening_hours":"Mo-Sa 08:00-21:00; Su 09:00-21:00","brand":"Yettel","brand:wikidata":"Q14915070"},"coordinates":[42.122947,24.741208]},"tags_mismatch":false,"dist":0},{"osm":false,"atp":{"id":"Vmar238K0szKIPbc1aM2TlNHOGs=","tags":{"shop":"telecommunication","addr:street_address":"бул. Липник 8","addr:country":"BG","name":"Yettel","opening_hours":"Mo-Sa 08:00-21:00; Su 09:00-21:00","brand":"Yettel","brand:wikidata":"Q14915070"},"coordinates":[43.845814,25.965881]},"tags_mismatch":false,"dist":0},{"osm":false,"atp":{"id":"n4Niyn-iorSKXWm2i8K1df7QAVo=","tags":{"shop":"telecommunication","addr:street_address":"ул. Отец Паисий 1","addr:country":"BG","name":"Yettel","opening_hours":"Mo-Fr 09:00-19:30; Sa 10:00-17:00","brand":"Yettel","brand:wikidata":"Q14915070"},"coordinates":[44.11686,27.26072]},"tags_mismatch":false,"dist":0},{"osm":false,"atp":{"id":"4Fp6tksA7yEs6NBW7xjr-7KI7Pc=","tags":{"shop":"telecommunication","addr:street_address":"бул.Руски 54, Мол Марково Тепе","addr:country":"BG","name":"Yettel","opening_hours":"Mo-Su 10:00-21:00","brand":"Yettel","brand:wikidata":"Q14915070"},"coordinates":[42.14135,24.74149]},"tags_mismatch":false,"dist":0},{"osm":false,"atp":{"id":"qBGtvscz4pjPyUrYCf6fhZEoPrQ=","tags":{"shop":"telecommunication","addr:street_address":"пл. Иван Миндиликов 1","addr:country":"BG","name":"Yettel","opening_hours":"Mo-Su 10:00-21:00","brand":"Yettel","brand:wikidata":"Q14915070"},"coordinates":[43.4195,24.61419]},"tags_mismatch":false,"dist":0},{"osm":false,"atp":{"id":"rfNj6Soy4YRr0DfWhEGuaL_ur40=","tags":{"shop":"telecommunication","addr:street_address":"Околовръстен път 214","addr:country":"BG","name":"Yettel","opening_hours":"Mo-Su 10:00-22:00","brand":"Yettel","brand:wikidata":"Q14915070"},"coordinates":[42.624078,23.352753]},"tags_mismatch":false,"dist":0},{"osm":false,"atp":{"id":"9YT29tZxYp3LtgWMPQ7fRgFG_wQ=","tags":{"shop":"telecommunication","addr:street_address":"ул. Ангел Кънчев 13","addr:country":"BG","name":"Yettel","opening_hours":"Mo-Fr 09:30-18:00","brand":"Yettel","brand:wikidata":"Q14915070"},"coordinates":[42.86654468,25.49127006]},"tags_mismatch":false,"dist":0},{"osm":false,"atp":{"id":"UbUFHEFGdQYm1_jrFtigC54lvn8=","tags":{"shop":"telecommunication","addr:street_address":"Serdika Center, бул. Ситняково 48","addr:country":"BG","name":"Yettel","opening_hours":"Mo-Su 10:00-22:00","brand":"Yettel","brand:wikidata":"Q14915070"},"coordinates":[42.691002,23.353399]},"tags_mismatch":false,"dist":0},{"osm":false,"atp":false,"tags_mismatch":false,"dist":0},{"osm":false,"atp":false,"tags_mismatch":false,"dist":0},{"osm":false,"atp":false,"tags_mismatch":false,"dist":0},{"osm":false,"atp":false,"tags_mismatch":false,"dist":0},{"osm":false,"atp":{"id":"3dVPhTk71Xfg9eWG273rNtcbUDk=","tags":{"shop":"telecommunication","addr:street_address":"ул. Хан Аспарух 37, блок Боряна","addr:country":"BG","name":"Yettel","opening_hours":"Mo-Fr 09:00-18:00","brand":"Yettel","brand:wikidata":"Q14915070"},"coordinates":[43.7487,27.40812]},"tags_mismatch":false,"dist":0},{"osm":false,"atp":{"id":"sQILSHyU8nW3EhSGPABDtsm9NzA=","tags":{"shop":"telecommunication","addr:street_address":"ул. Иван Вазаов 37","addr:country":"BG","name":"Yettel","opening_hours":"Mo-Fr 09:00-18:00","brand":"Yettel","brand:wikidata":"Q14915070"},"coordinates":[42.91817,24.26362]},"tags_mismatch":false,"dist":0},{"osm":false,"atp":{"id":"zowzXkuZ_tn31HTrBs8l8OFzaKo=","tags":{"shop":"telecommunication","addr:street_address":"ул. Васил Левски 74","addr:country":"BG","name":"Yettel","opening_hours":"Mo-Fr 09:00-18:00","brand":"Yettel","brand:wikidata":"Q14915070"},"coordinates":[42.887199,24.710899]},"tags_mismatch":false,"dist":0},{"osm":false,"atp":false,"tags_mismatch":false,"dist":0},{"osm":false,"atp":{"id":"Qc9_-oYFxALfHJmj2y5KbjyF7fM=","tags":{"shop":"telecommunication","addr:street_address":"ул. Васил Левски 28","addr:country":"BG","name":"Yettel","opening_hours":"Mo-Fr 09:00-19:00","brand":"Yettel","brand:wikidata":"Q14915070"},"coordinates":[43.24761,26.5728]},"tags_mismatch":false,"dist":0},{"osm":false,"atp":{"id":"YvPVFBOyg6Kn05Cxjj1lBKwGdpo=","tags":{"shop":"telecommunication","addr:street_address":"бул. България 10","addr:country":"BG","name":"Yettel","opening_hours":"Mo-Fr 09:00-19:00","brand":"Yettel","brand:wikidata":"Q14915070"},"coordinates":[41.929846,25.90385]},"tags_mismatch":false,"dist":0},{"osm":false,"atp":false,"tags_mismatch":false,"dist":0},{"osm":false,"atp":{"id":"c8FMRETJ-cO20BUquywnJMk8Gas=","tags":{"shop":"telecommunication","addr:street_address":"ул. Хан Аспарух 43","addr:country":"BG","name":"Yettel","opening_hours":"Mo-Fr 09:00-18:00","brand":"Yettel","brand:wikidata":"Q14915070"},"coordinates":[42.169498,27.846901]},"tags_mismatch":false,"dist":0},{"osm":false,"atp":{"id":"NWP8-HcWBQR7YP9KvPsnE7VOi8g=","tags":{"shop":"telecommunication","addr:street_address":"ул. Стефан Караджа 4","addr:country":"BG","name":"Yettel","opening_hours":"Mo-Fr 09:00-18:00","brand":"Yettel","brand:wikidata":"Q14915070"},"coordinates":[43.2814,24.08077]},"tags_mismatch":false,"dist":0},{"osm":false,"atp":{"id":"fkOKmkYeBcOjpOzurwzLTWSO5rQ=","tags":{"shop":"telecommunication","addr:street_address":"ул. Георги Димитров 22","addr:country":"BG","name":"Yettel","opening_hours":"Mo-Fr 09:00-19:00","brand":"Yettel","brand:wikidata":"Q14915070"},"coordinates":[42.198502,25.325199]},"tags_mismatch":false,"dist":0},{"osm":false,"atp":{"id":"v7AG9va9wJPSJQQNuEXqx8CsNrU=","tags":{"shop":"telecommunication","addr:street_address":"бул. Симеон Велики 46 В","addr:country":"BG","name":"Yettel","opening_hours":"Mo-Fr 09:00-19:00","brand":"Yettel","brand:wikidata":"Q14915070"},"coordinates":[43.273701,26.927999]},"tags_mismatch":false,"dist":0},{"osm":false,"atp":{"id":"X9uLW6mu7cCrxFK6Pyj6QfMN23A=","tags":{"shop":"telecommunication","addr:street_address":"бул. Велики Преслав 6","addr:country":"BG","name":"Yettel","opening_hours":"Mo-Fr 09:00-19:00","brand":"Yettel","brand:wikidata":"Q14915070"},"coordinates":[43.270103,26.93621]},"tags_mismatch":false,"dist":0},{"osm":false,"atp":false,"tags_mismatch":false,"dist":0},{"osm":false,"atp":{"id":"GtKxxGlMTnMRJBEcNQ7NbXLug2M=","tags":{"shop":"telecommunication","addr:street_address":"ул. Търговска 8","addr:country":"BG","name":"Yettel","opening_hours":"Mo-Fr 09:00-19:00","brand":"Yettel","brand:wikidata":"Q14915070"},"coordinates":[42.48288,26.50812]},"tags_mismatch":false,"dist":0},{"osm":false,"atp":false,"tags_mismatch":false,"dist":0},{"osm":false,"atp":{"id":"j7wS2OjtPhTkssAA8cVvsaF2TW0=","tags":{"shop":"telecommunication","addr:street_address":"ул. Др. Константин Стоилов 30","addr:country":"BG","name":"Yettel","opening_hours":"Mo-Fr 09:00-19:00","brand":"Yettel","brand:wikidata":"Q14915070"},"coordinates":[42.678902,26.322599]},"tags_mismatch":false,"dist":0},{"osm":false,"atp":{"id":"Dtw230hMUJ3rTYzZGYzYTSmWmtU=","tags":{"shop":"telecommunication","addr:street_address":"бул. Цар Освободител 30","addr:country":"BG","name":"Yettel","opening_hours":"Mo-Fr 09:00-19:00","brand":"Yettel","brand:wikidata":"Q14915070"},"coordinates":[42.68043,26.31961]},"tags_mismatch":false,"dist":0},{"osm":false,"atp":false,"tags_mismatch":false,"dist":0},{"osm":false,"atp":false,"tags_mismatch":false,"dist":0},{"osm":false,"atp":{"id":"Q7X69fY6f4bES5Q29k9ehz3rXok=","tags":{"shop":"telecommunication","addr:street_address":"ул. Иван Вазов 48, бл. 29","addr:country":"BG","name":"Yettel","opening_hours":"Mo-Fr 09:00-18:30","brand":"Yettel","brand:wikidata":"Q14915070"},"coordinates":[42.653702,24.754999]},"tags_mismatch":false,"dist":0},{"osm":false,"atp":false,"tags_mismatch":false,"dist":0},{"osm":false,"atp":false,"tags_mismatch":false,"dist":0},{"osm":false,"atp":false,"tags_mismatch":false,"dist":0},{"osm":false,"atp":{"id":"FWykTXUo78mT2QjTC77kFJGe8B8=","tags":{"shop":"telecommunication","addr:street_address":"Mall of Sofia, бул. Ал. Стамболийски 101","addr:country":"BG","name":"Yettel","opening_hours":"Mo-Su 10:00-21:00","brand":"Yettel","brand:wikidata":"Q14915070"},"coordinates":[42.69792,23.30885]},"tags_mismatch":false,"dist":0},{"osm":false,"atp":false,"tags_mismatch":false,"dist":0},{"osm":false,"atp":false,"tags_mismatch":false,"dist":0},{"osm":false,"atp":false,"tags_mismatch":false,"dist":0},{"osm":false,"atp":false,"tags_mismatch":false,"dist":0},{"osm":false,"atp":{"id":"P-QBQp7eACqSlrclgksD_pWMagw=","tags":{"shop":"telecommunication","addr:street_address":"ж.к. Овча Купел1, бул. Монтевидео до бл. 419","addr:country":"BG","name":"Yettel","opening_hours":"Mo-Fr 09:00-19:30","brand":"Yettel","brand:wikidata":"Q14915070"},"coordinates":[42.688218,23.2548]},"tags_mismatch":false,"dist":0},{"osm":false,"atp":{"id":"BkqIZiqoRi7OPrqp-T8Y5O81aTk=","tags":{"shop":"telecommunication","addr:street_address":"бул. Вардар и бул. Възкресение, магазин 3","addr:country":"BG","name":"Yettel","opening_hours":"Mo-Fr 09:00-19:30; Sa 10:00-17:00","brand":"Yettel","brand:wikidata":"Q14915070"},"coordinates":[42.692799,23.2864]},"tags_mismatch":false,"dist":0},{"osm":false,"atp":{"id":"jgsbaJIOf-7Ktr6R5Q6miRNzS94=","tags":{"shop":"telecommunication","addr:street_address":"кв. Орландовци, ул. „Малашевска“ № 1","addr:country":"BG","name":"Yettel","opening_hours":"Mo-Sa 09:00-20:00","brand":"Yettel","brand:wikidata":"Q14915070"},"coordinates":[42.7234492,23.3211291]},"tags_mismatch":false,"dist":0},{"osm":false,"atp":false,"tags_mismatch":false,"dist":0},{"osm":false,"atp":{"id":"gsUK0x6z8lmpuoge6OuLXc5DlIY=","tags":{"shop":"telecommunication","addr:street_address":"жк Младост 3, ул. Бъднина, бл 301","addr:country":"BG","name":"Yettel","opening_hours":"Mo-Fr 09:00-19:30; Sa 10:00-17:00","brand":"Yettel","brand:wikidata":"Q14915070"},"coordinates":[42.64479,23.37868]},"tags_mismatch":false,"dist":0},{"osm":false,"atp":false,"tags_mismatch":false,"dist":0},{"osm":false,"atp":false,"tags_mismatch":false,"dist":0},{"osm":false,"atp":false,"tags_mismatch":false,"dist":0},{"osm":false,"atp":false,"tags_mismatch":false,"dist":0},{"osm":false,"atp":false,"tags_mismatch":false,"dist":0},{"osm":false,"atp":false,"tags_mismatch":false,"dist":0},{"osm":false,"atp":false,"tags_mismatch":false,"dist":0},{"osm":false,"atp":false,"tags_mismatch":false,"dist":0},{"osm":false,"atp":{"id":"1PPZR_Eo5pas4wagEAYvEt75OdI=","tags":{"shop":"telecommunication","addr:street_address":"жк. Дружба 1, срещу блок 18","addr:country":"BG","name":"Yettel","opening_hours":"Mo-Fr 09:00-19:30; Sa 10:00-16:00","brand":"Yettel","brand:wikidata":"Q14915070"},"coordinates":[42.6679,23.39557]},"tags_mismatch":false,"dist":0},{"osm":false,"atp":false,"tags_mismatch":false,"dist":0},{"osm":false,"atp":{"id":"dx6sogwAp_mBSBSR3NMoQyBIMfs=","tags":{"shop":"telecommunication","addr:street_address":"ул. Асен Златаров 30","addr:country":"BG","name":"Yettel","opening_hours":"Mo-Fr 09:00-19:00; Sa 10:00-17:00","brand":"Yettel","brand:wikidata":"Q14915070"},"coordinates":[42.19233,24.33369]},"tags_mismatch":false,"dist":0},{"osm":false,"atp":{"id":"a1UMXe1o86aCFt2uO5hvl9RlSNE=","tags":{"shop":"telecommunication","addr:street_address":"ул. Търговска 33","addr:country":"BG","name":"Yettel","opening_hours":"Mo-Fr 09:00-18:30","brand":"Yettel","brand:wikidata":"Q14915070"},"coordinates":[42.603001,23.0303]},"tags_mismatch":false,"dist":0},{"osm":false,"atp":{"id":"mom1HSHCu4ek3AhnYII_ysGG-0U=","tags":{"shop":"telecommunication","addr:street_address":"кв. Изток, ул. Минск 15","addr:country":"BG","name":"Yettel","opening_hours":"Mo-Fr 09:00-19:00; Sa 10:00-18:00","brand":"Yettel","brand:wikidata":"Q14915070"},"coordinates":[42.60845,23.09879]},"tags_mismatch":false,"dist":0},{"osm":false,"atp":{"id":"kGW9fUo4n3AMZwMkGd4EeRrn4cM=","tags":{"shop":"telecommunication","addr:street_address":"ул. Търговска 12","addr:country":"BG","name":"Yettel","opening_hours":"Mo-Fr 09:00-19:00; Sa 10:00-18:00","brand":"Yettel","brand:wikidata":"Q14915070"},"coordinates":[42.60471,23.03048]},"tags_mismatch":false,"dist":0},{"osm":false,"atp":{"id":"qCM5zO_udKaCPAnZjZn0u_B9bNY=","tags":{"shop":"telecommunication","addr:street_address":"ул. Цар Борис III 20","addr:country":"BG","name":"Yettel","opening_hours":"Mo-Fr 09:00-19:30","brand":"Yettel","brand:wikidata":"Q14915070"},"coordinates":[41.39471,23.20751]},"tags_mismatch":false,"dist":0},{"osm":false,"atp":{"id":"FWuXtzr80hXOVrHZ7dA-sUir2nY=","tags":{"shop":"telecommunication","addr:street_address":"ул. Цар Освободител 51","addr:country":"BG","name":"Yettel","opening_hours":"Mo-Fr 09:00-18:00","brand":"Yettel","brand:wikidata":"Q14915070"},"coordinates":[42.69991,24.17887]},"tags_mismatch":false,"dist":0},{"osm":false,"atp":{"id":"BlSXyN8rFtSkZdR_ZMBFEwmAeRI=","tags":{"shop":"telecommunication","addr:street_address":"ул. Васил Левски 132","addr:country":"BG","name":"Yettel","opening_hours":"Mo-Fr 09:00-19:00","brand":"Yettel","brand:wikidata":"Q14915070"},"coordinates":[43.412498,24.6154]},"tags_mismatch":false,"dist":0},{"osm":false,"atp":false,"tags_mismatch":false,"dist":0},{"osm":false,"atp":{"id":"055wlIan4ADZy_coCNgHbRfDnjU=","tags":{"shop":"telecommunication","addr:street_address":"ул. Иван Вазов 61","addr:country":"BG","name":"Yettel","opening_hours":"Mo-Fr 09:00-18:30","brand":"Yettel","brand:wikidata":"Q14915070"},"coordinates":[42.13616,24.74219]},"tags_mismatch":false,"dist":0},{"osm":false,"atp":{"id":"EBl1Fowhyv0IQMHLeiT-11cwiX8=","tags":{"shop":"telecommunication","addr:street_address":"Търговки център Grand, ул. Капитан Райчо и ул. Петко Д. Петков","addr:country":"BG","name":"Yettel","opening_hours":"Mo-Fr 10:00-19:30","brand":"Yettel","brand:wikidata":"Q14915070"},"coordinates":[42.14174,24.75637]},"tags_mismatch":false,"dist":0},{"osm":false,"atp":{"id":"-9_yi3DZZAnAT9gPxfOUOqmLkMI=","tags":{"shop":"telecommunication","addr:street_address":"Mall Plovdiv, ул. Перущица 8","addr:country":"BG","name":"Yettel","opening_hours":"Mo-Su 10:00-21:00","brand":"Yettel","brand:wikidata":"Q14915070"},"coordinates":[42.14128,24.71967]},"tags_mismatch":false,"dist":0},{"osm":false,"atp":{"id":"YMd3e3MPbwywuAKPrzRpmwwc5HU=","tags":{"shop":"telecommunication","addr:street_address":"ул. Д-р Георги Странски № 3","addr:country":"BG","name":"Yettel","opening_hours":"Mo-Su 10:00-21:00","brand":"Yettel","brand:wikidata":"Q14915070"},"coordinates":[42.14319,24.78467]},"tags_mismatch":false,"dist":0},{"osm":false,"atp":{"id":"3DsyvdFXWEORC-yshxljsNPNN78=","tags":{"shop":"telecommunication","addr:street_address":"кв. Кючук Париж, ул. Македония 43","addr:country":"BG","name":"Yettel","opening_hours":"Mo-Fr 09:00-19:00","brand":"Yettel","brand:wikidata":"Q14915070"},"coordinates":[42.13018,24.74408]},"tags_mismatch":false,"dist":0},{"osm":false,"atp":false,"tags_mismatch":false,"dist":0},{"osm":false,"atp":false,"tags_mismatch":false,"dist":0},{"osm":false,"atp":{"id":"wf0fBJMsg8FfRSvAUM2GybfQz3w=","tags":{"shop":"telecommunication","addr:street_address":"жк Тракия, ул. Съединение 45, до бл.100","addr:country":"BG","name":"Yettel","opening_hours":"Mo-Fr 09:00-19:30; Sa 10:00-17:00","brand":"Yettel","brand:wikidata":"Q14915070"},"coordinates":[42.1315,24.794201]},"tags_mismatch":false,"dist":0},{"osm":false,"atp":{"id":"-hRPWg9JfUrmP1fw5gDjy2VGA2Y=","tags":{"shop":"telecommunication","addr:street_address":"бул. България 21","addr:country":"BG","name":"Yettel","opening_hours":"Mo-Fr 09:00-19:00","brand":"Yettel","brand:wikidata":"Q14915070"},"coordinates":[43.52516,26.52196]},"tags_mismatch":false,"dist":0},{"osm":false,"atp":{"id":"Vvi15PVvi2q3tP-XMMw3W8kpjCY=","tags":{"shop":"telecommunication","addr:street_address":"бул. България 11","addr:country":"BG","name":"Yettel","opening_hours":"Mo-Fr 09:00-19:00","brand":"Yettel","brand:wikidata":"Q14915070"},"coordinates":[43.525101,26.5257]},"tags_mismatch":false,"dist":0},{"osm":false,"atp":false,"tags_mismatch":false,"dist":0},{"osm":false,"atp":false,"tags_mismatch":false,"dist":0},{"osm":false,"atp":{"id":"J8-8IaMKxVNONYZM6ntM6zGHUEU=","tags":{"shop":"telecommunication","addr:street_address":"ул. Македония 33","addr:country":"BG","name":"Yettel","opening_hours":"Mo-Fr 09:00-18:30","brand":"Yettel","brand:wikidata":"Q14915070"},"coordinates":[42.33717,23.55948]},"tags_mismatch":false,"dist":0},{"osm":false,"atp":{"id":"TgC28Nhoeje-LXNVWMTyk8W9xMA=","tags":{"shop":"telecommunication","addr:street_address":"пл. Македония 22","addr:country":"BG","name":"Yettel","opening_hours":"Mo-Fr 09:00-19:00","brand":"Yettel","brand:wikidata":"Q14915070"},"coordinates":[41.56281,23.27872]},"tags_mismatch":false,"dist":0},{"osm":false,"atp":{"id":"4TLEWqaT6aA20hw6wulrneXeNBc=","tags":{"shop":"telecommunication","addr:street_address":"бул. България 111, магазин 2","addr:country":"BG","name":"Yettel","opening_hours":"Mo-Fr 09:00-18:00","brand":"Yettel","brand:wikidata":"Q14915070"},"coordinates":[41.76609,26.20045]},"tags_mismatch":false,"dist":0},{"osm":false,"atp":{"id":"5rj6SCAJVjGCx1jjFdPFF5XW1hM=","tags":{"shop":"telecommunication","addr:street_address":"ул. Цар Освободител 106","addr:country":"BG","name":"Yettel","opening_hours":"Mo-Fr 09:00-18:30","brand":"Yettel","brand:wikidata":"Q14915070"},"coordinates":[43.61568,25.35097]},"tags_mismatch":false,"dist":0},{"osm":false,"atp":{"id":"cIYcns0odQhV8s6SoWzwQEK12cE=","tags":{"shop":"telecommunication","addr:street_address":"ул. Цар Симеон 18","addr:country":"BG","name":"Yettel","opening_hours":"Mo-Fr 09:00-18:00","brand":"Yettel","brand:wikidata":"Q14915070"},"coordinates":[42.96086,23.34496]},"tags_mismatch":false,"dist":0},{"osm":false,"atp":false,"tags_mismatch":false,"dist":0},{"osm":false,"atp":{"id":"e6d7L8CyBNx8D22ZyVtPB7zwzHQ=","tags":{"shop":"telecommunication","addr:street_address":"кв. Девня бул. Съединение №111","addr:country":"BG","name":"Yettel","opening_hours":"Mo-Fr 09:00-18:00; Sa 09:00-16:00","brand":"Yettel","brand:wikidata":"Q14915070"},"coordinates":[43.2196128,27.5557]},"tags_mismatch":false,"dist":0},{"osm":false,"atp":{"id":"A0ZilUiytwB0al3XUsTI2Yfcb9M=","tags":{"shop":"telecommunication","addr:street_address":"бул. Димитър Благоев 9, вх.В, ет.1","addr:country":"BG","name":"Yettel","opening_hours":"Mo-Fr 09:00-18:00","brand":"Yettel","brand:wikidata":"Q14915070"},"coordinates":[42.05561,25.59224]},"tags_mismatch":false,"dist":0},{"osm":false,"atp":false,"tags_mismatch":false,"dist":0},{"osm":false,"atp":{"id":"vk_YrDuZpZLTabbEBMNOTS25xhE=","tags":{"shop":"telecommunication","addr:street_address":"Ретайл Парк Добрич, бул. „25-ти септември” № 70","addr:country":"BG","name":"Yettel","opening_hours":"Mo-Su 10:00-20:00","brand":"Yettel","brand:wikidata":"Q14915070"},"coordinates":[43.579228,27.8305557]},"tags_mismatch":false,"dist":0},{"osm":false,"atp":false,"tags_mismatch":false,"dist":0},{"osm":false,"atp":{"id":"ZQaIYC5Uov51XsS5Zk6roHdCdAI=","tags":{"shop":"telecommunication","addr:street_address":"ул. Тича 6","addr:country":"BG","name":"Yettel","opening_hours":"Mo-Fr 09:00-18:00","brand":"Yettel","brand:wikidata":"Q14915070"},"coordinates":[42.99217,27.71902]},"tags_mismatch":false,"dist":0},{"osm":false,"atp":false,"tags_mismatch":false,"dist":0},{"osm":false,"atp":{"id":"EH2MZv3wFRrOy2kwrP5dXRw63CQ=","tags":{"shop":"telecommunication","addr:street_address":"ул. Николаевска 21А","addr:country":"BG","name":"Yettel","opening_hours":"Mo-Fr 09:00-19:00","brand":"Yettel","brand:wikidata":"Q14915070"},"coordinates":[42.266,23.12082]},"tags_mismatch":false,"dist":0},{"osm":false,"atp":false,"tags_mismatch":false,"dist":0},{"osm":false,"atp":false,"tags_mismatch":false,"dist":0},{"osm":false,"atp":{"id":"ursel7cNREhOxND33GIth1SYdBA=","tags":{"shop":"telecommunication","addr:street_address":"ул. Търговска 21","addr:country":"BG","name":"Yettel","opening_hours":"Mo-Fr 09:00-18:00","brand":"Yettel","brand:wikidata":"Q14915070"},"coordinates":[42.1718,26.56633]},"tags_mismatch":false,"dist":0},{"osm":false,"atp":false,"tags_mismatch":false,"dist":0},{"osm":false,"atp":{"id":"rfddiyatKuSurc8E03ajTqcjufE=","tags":{"shop":"telecommunication","addr:street_address":"ул. Цар Освободител 110","addr:country":"BG","name":"Yettel","opening_hours":"Mo-Fr 09:00-18:00","brand":"Yettel","brand:wikidata":"Q14915070"},"coordinates":[42.43706,23.81655]},"tags_mismatch":false,"dist":0},{"osm":false,"atp":{"id":"gEB_j_yEp_xqmDxMCdt7lWH8nL0=","tags":{"shop":"telecommunication","addr:street_address":"ул. България 59","addr:country":"BG","name":"Yettel","opening_hours":"Mo-Fr 09:00-18:30","brand":"Yettel","brand:wikidata":"Q14915070"},"coordinates":[43.435776,28.3358111]},"tags_mismatch":false,"dist":0},{"osm":false,"atp":false,"tags_mismatch":false,"dist":0},{"osm":false,"atp":false,"tags_mismatch":false,"dist":0},{"osm":false,"atp":{"id":"nUhKhhZF9r9um7dVKihJawjYVBE=","tags":{"shop":"telecommunication","addr:street_address":"бул. България 1","addr:country":"BG","name":"Yettel","opening_hours":"Mo-Fr 09:00-18:30","brand":"Yettel","brand:wikidata":"Q14915070"},"coordinates":[42.6493,26.9851]},"tags_mismatch":false,"dist":0},{"osm":false,"atp":{"id":"JSmQnbXdCFTLfaKGKLub-xqWPGE=","tags":{"shop":"telecommunication","addr:street_address":"ул. Марин Боев 66","addr:country":"BG","name":"Yettel","opening_hours":"Mo-Fr 09:00-18:00","brand":"Yettel","brand:wikidata":"Q14915070"},"coordinates":[43.495515,24.079821]},"tags_mismatch":false,"dist":0},{"osm":false,"atp":{"id":"s-21yEVzf99T16fpr-vZwR7Nimw=","tags":{"shop":"telecommunication","addr:street_address":"ул. Кирил и Методий 1","addr:country":"BG","name":"Yettel","opening_hours":"Mo-Fr 09:00-18:30","brand":"Yettel","brand:wikidata":"Q14915070"},"coordinates":[43.77611,23.72904]},"tags_mismatch":false,"dist":0},{"osm":false,"atp":false,"tags_mismatch":false,"dist":0},{"osm":false,"atp":{"id":"kd0X65_QaXZskc-0c7VEjoVDSIg=","tags":{"shop":"telecommunication","addr:street_address":"ул. Любен Каравелов 5","addr:country":"BG","name":"Yettel","opening_hours":"Mo-Fr 09:00-19:00","brand":"Yettel","brand:wikidata":"Q14915070"},"coordinates":[42.27995,22.692]},"tags_mismatch":false,"dist":0},{"osm":false,"atp":{"id":"MhLPV_gw-b7rrVIB_B17dexWL3k=","tags":{"shop":"telecommunication","addr:street_address":"ул. Александър Стамболийски 32","addr:country":"BG","name":"Yettel","opening_hours":"Mo-Fr 09:00-18:30","brand":"Yettel","brand:wikidata":"Q14915070"},"coordinates":[43.3570078,25.1414121]},"tags_mismatch":false,"dist":0},{"osm":false,"atp":false,"tags_mismatch":false,"dist":0},{"osm":false,"atp":{"id":"w3OFFqr8a_SB6lEaDfoUt347uNQ=","tags":{"shop":"telecommunication","addr:street_address":"ул. Славянска 3","addr:country":"BG","name":"Yettel","opening_hours":"Mo-Fr 09:00-18:30","brand":"Yettel","brand:wikidata":"Q14915070"},"coordinates":[43.82452,23.23759]},"tags_mismatch":false,"dist":0},{"osm":false,"atp":false,"tags_mismatch":false,"dist":0},{"osm":false,"atp":{"id":"MIsrNjlfO44SjkcaL2pxR8SUVgI=","tags":{"shop":"telecommunication","addr:street_address":"ул. Христо Ботев 35","addr:country":"BG","name":"Yettel","opening_hours":"Mo-Fr 09:00-18:30","brand":"Yettel","brand:wikidata":"Q14915070"},"coordinates":[43.1423,23.7124]},"tags_mismatch":false,"dist":0},{"osm":false,"atp":{"id":"hG39cDmtxGbXY_BGf9zaDyyGI0c=","tags":{"shop":"telecommunication","addr:street_address":"ул. Гюмюрджинска 37","addr:country":"BG","name":"Yettel","opening_hours":"Mo-Fr 09:00-18:30","brand":"Yettel","brand:wikidata":"Q14915070"},"coordinates":[41.528577,25.407732]},"tags_mismatch":false,"dist":0},{"osm":false,"atp":{"id":"cbOr9ZCP2bfZa64TRwk0g9pqHM0=","tags":{"shop":"telecommunication","addr:street_address":"ул. „Граф Игнатиев“ № 4, ет.1.","addr:country":"BG","name":"Yettel","opening_hours":"Mo-Fr 09:00-19:00","brand":"Yettel","brand:wikidata":"Q14915070"},"coordinates":[43.406358,23.225759]},"tags_mismatch":false,"dist":0},{"osm":false,"atp":{"id":"NxRV4Yt6YPBERotIdLqf4DH7zUM=","tags":{"shop":"telecommunication","addr:street_address":"ул. Васил Левски 49","addr:country":"BG","name":"Yettel","opening_hours":"Mo-Fr 09:00-18:30","brand":"Yettel","brand:wikidata":"Q14915070"},"coordinates":[42.493099,26.0128]},"tags_mismatch":false,"dist":0},{"osm":false,"atp":false,"tags_mismatch":false,"dist":0},{"osm":false,"atp":{"id":"N6YmoSvzkMPnmq-aEZizKEPUQSw=","tags":{"shop":"telecommunication","addr:street_address":"ул. Цар Освободител 2","addr:country":"BG","name":"Yettel","opening_hours":"Mo-Fr 09:00-18:30","brand":"Yettel","brand:wikidata":"Q14915070"},"coordinates":[43.10854,26.41698]},"tags_mismatch":false,"dist":0},{"osm":false,"atp":{"id":"rT6adPPKr74Nc--C05Y3saC-5b8=","tags":{"shop":"telecommunication","addr:street_address":"бул. Руски 1","addr:country":"BG","name":"Yettel","opening_hours":"Mo-Fr 09:00-18:00","brand":"Yettel","brand:wikidata":"Q14915070"},"coordinates":[43.23738,25.30804]},"tags_mismatch":false,"dist":0},{"osm":false,"atp":{"id":"NqshS7ygFtppcFYcwJPBOUDw244=","tags":{"shop":"telecommunication","addr:street_address":"ул. Асен Златарев 1","addr:country":"BG","name":"Yettel","opening_hours":"Mo-Fr 09:00-19:00","brand":"Yettel","brand:wikidata":"Q14915070"},"coordinates":[42.191399,24.332399]},"tags_mismatch":false,"dist":0},{"osm":false,"atp":{"id":"CBOm-UsFlP5h1xWXii0y5xn2xxM=","tags":{"shop":"telecommunication","addr:street_address":"бул. България 5","addr:country":"BG","name":"Yettel","opening_hours":"Mo-Fr 09:00-19:00","brand":"Yettel","brand:wikidata":"Q14915070"},"coordinates":[42.18867,24.33158]},"tags_mismatch":false,"dist":0},{"osm":false,"atp":{"id":"cTuMtwxPzWaVd2BvrkfOBBcbNfw=","tags":{"shop":"telecommunication","addr:street_address":"ул. Цар Освободител 13","addr:country":"BG","name":"Yettel","opening_hours":"Mo-Fr 09:00-19:00","brand":"Yettel","brand:wikidata":"Q14915070"},"coordinates":[42.703062,27.25438]},"tags_mismatch":false,"dist":0},{"osm":false,"atp":{"id":"vdgScszdXHxFcdd0foGPalNJByI=","tags":{"shop":"telecommunication","addr:street_address":"ул. Трети Март 27","addr:country":"BG","name":"Yettel","opening_hours":"Mo-Fr 09:00-19:00","brand":"Yettel","brand:wikidata":"Q14915070"},"coordinates":[42.00573,24.8743]},"tags_mismatch":false,"dist":0},{"osm":false,"atp":{"id":"-qu74ctzM3f1Zt63-OtZlqjTvaw=","tags":{"shop":"telecommunication","addr:street_address":"ул. Марица 4","addr:country":"BG","name":"Yettel","opening_hours":"Mo-Fr 09:00-19:00; Sa 10:00-17:00","brand":"Yettel","brand:wikidata":"Q14915070"},"coordinates":[42.008598,24.871901]},"tags_mismatch":false,"dist":0},{"osm":false,"atp":{"id":"0B4UCLUWZxn_IgNepelVChuQNj0=","tags":{"shop":"telecommunication","addr:street_address":"ул. Черно море 32 А","addr:country":"BG","name":"Yettel","opening_hours":"Mo-Fr 09:00-18:30","brand":"Yettel","brand:wikidata":"Q14915070"},"coordinates":[43.40916,28.1636191]},"tags_mismatch":false,"dist":0},{"osm":false,"atp":false,"tags_mismatch":false,"dist":0},{"osm":false,"atp":false,"tags_mismatch":false,"dist":0},{"osm":false,"atp":false,"tags_mismatch":false,"dist":0},{"osm":false,"atp":false,"tags_mismatch":false,"dist":0},{"osm":false,"atp":{"id":"hNfQ6QF96_gtDENqmUQoirQLMew=","tags":{"shop":"telecommunication","addr:street_address":"Mall Бургас Плаза, ул. Транспортна","addr:country":"BG","name":"Yettel","opening_hours":"Mo-Su 10:00-21:00","brand":"Yettel","brand:wikidata":"Q14915070"},"coordinates":[42.530701,27.4573]},"tags_mismatch":false,"dist":0},{"osm":false,"atp":false,"tags_mismatch":false,"dist":0},{"osm":false,"atp":{"id":"vqPYdcdkzEeoCWKu-LWE6ZF0wv4=","tags":{"shop":"telecommunication","addr:street_address":"ул. Янко Комитов 6, Mall Galleria Burgas","addr:country":"BG","name":"Yettel","opening_hours":"Mo-Su 10:00-22:00","brand":"Yettel","brand:wikidata":"Q14915070"},"coordinates":[42.512901,27.454901]},"tags_mismatch":false,"dist":0},{"osm":false,"atp":{"id":"BbhpHe3_h5THiglJEyrdJYlY1k8=","tags":{"shop":"telecommunication","addr:street_address":"жк Меден рудник, ул. Въстаническа 302","addr:country":"BG","name":"Yettel","opening_hours":"Mo-Fr 09:00-19:00","brand":"Yettel","brand:wikidata":"Q14915070"},"coordinates":[42.452801,27.419701]},"tags_mismatch":false,"dist":0},{"osm":false,"atp":{"id":"2do3QPiGbxHaiMDP64iFF0yQmCM=","tags":{"shop":"telecommunication","addr:street_address":"жк Изгрев, бл.109, вх. Б, eт. 0, обект 6","addr:country":"BG","name":"Yettel","opening_hours":"Mo-Fr 09:00-19:00","brand":"Yettel","brand:wikidata":"Q14915070"},"coordinates":[42.5239,27.46576]},"tags_mismatch":false,"dist":0},{"osm":false,"atp":{"id":"qxfGZJp-5nFpZB3WmOZYWasJPDA=","tags":{"shop":"telecommunication","addr:street_address":"ул. Христо Ботев 16","addr:country":"BG","name":"Yettel","opening_hours":"Mo-Fr 09:00-18:30","brand":"Yettel","brand:wikidata":"Q14915070"},"coordinates":[43.469898,23.944201]},"tags_mismatch":false,"dist":0},{"osm":false,"atp":false,"tags_mismatch":false,"dist":0},{"osm":false,"atp":{"id":"J911zsuWLsvbrbz2g-7Zq8xfwZY=","tags":{"shop":"telecommunication","addr:street_address":"Mall Varna, бул. Владислав Варненчик 186","addr:country":"BG","name":"Yettel","opening_hours":"Mo-Su 10:00-20:00","brand":"Yettel","brand:wikidata":"Q14915070"},"coordinates":[43.2202,27.8892]},"tags_mismatch":false,"dist":0},{"osm":false,"atp":{"id":"smeMpXpuHVTl8EzcxUM2zLHnuM0=","tags":{"shop":"telecommunication","addr:street_address":"Grand Mall Varna, ж.к. Младост, ул. Андрей Сахаров 2","addr:country":"BG","name":"Yettel","opening_hours":"Mo-Su 10:00-21:00","brand":"Yettel","brand:wikidata":"Q14915070"},"coordinates":[43.21714,27.89695]},"tags_mismatch":false,"dist":0},{"osm":false,"atp":{"id":"4MQECoRJWz9V9zR5XNLiVlDZW8k=","tags":{"shop":"telecommunication","addr:street_address":"жк. Владислав Варненчик, бул. Св. Елена 26","addr:country":"BG","name":"Yettel","opening_hours":"Mo-Fr 09:00-19:00; Sa 09:00-16:00","brand":"Yettel","brand:wikidata":"Q14915070"},"coordinates":[43.245998,27.8496]},"tags_mismatch":false,"dist":0},{"osm":false,"atp":{"id":"AC9T1PcBrmWYm0W9iBK1s4-QbN0=","tags":{"shop":"telecommunication","addr:street_address":"ул. Д-р Людвиг Заменхоф 1","addr:country":"BG","name":"Yettel","opening_hours":"Mo-Fr 09:00-19:00; Sa 10:00-17:00","brand":"Yettel","brand:wikidata":"Q14915070"},"coordinates":[43.203248,27.912938]},"tags_mismatch":false,"dist":0},{"osm":false,"atp":false,"tags_mismatch":false,"dist":0},{"osm":false,"atp":false,"tags_mismatch":false,"dist":0},{"osm":false,"atp":{"id":"N7h-1o8C6inL3j7wyVvHMY6tBVE=","tags":{"shop":"telecommunication","addr:street_address":"ул. Ян Палах 10, Търговски Център Ян Палах","addr:country":"BG","name":"Yettel","opening_hours":"Mo-Fr 09:00-19:00","brand":"Yettel","brand:wikidata":"Q14915070"},"coordinates":[43.219601,27.9142]},"tags_mismatch":false,"dist":0},{"osm":false,"atp":{"id":"tq1ADEH3n4oef25tkPXCl6LUX1c=","tags":{"shop":"telecommunication","addr:street_address":"ул.Чаталджа 49","addr:country":"BG","name":"Yettel","opening_hours":"Mo-Fr 09:00-19:00","brand":"Yettel","brand:wikidata":"Q14915070"},"coordinates":[43.21336,27.92327]},"tags_mismatch":false,"dist":0},{"osm":false,"atp":{"id":"NjRiLC-nl_1o_Gb9YLafFRLTK2s=","tags":{"shop":"telecommunication","addr:street_address":"ул. Христо Ботев 2","addr:country":"BG","name":"Yettel","opening_hours":"Mo-Fr 09:00-18:00","brand":"Yettel","brand:wikidata":"Q14915070"},"coordinates":[43.161301,26.814301]},"tags_mismatch":false,"dist":0},{"osm":false,"atp":{"id":"t2hSfbo0C969t04rnv2WIhezoHA=","tags":{"shop":"telecommunication","addr:street_address":"Central Mall, ул. Оборище 18","addr:country":"BG","name":"Yettel","opening_hours":"Mo-Su 10:00-20:00","brand":"Yettel","brand:wikidata":"Q14915070"},"coordinates":[43.07943,25.60035]},"tags_mismatch":false,"dist":0},{"osm":false,"atp":{"id":"zb6kGlofzO432BHRza5A1ZQfsUk=","tags":{"shop":"telecommunication","addr:street_address":"ул. Васил Левски 8","addr:country":"BG","name":"Yettel","opening_hours":"Mo-Fr 09:00-19:00","brand":"Yettel","brand:wikidata":"Q14915070"},"coordinates":[43.07993,25.6295]},"tags_mismatch":false,"dist":0},{"osm":false,"atp":{"id":"CKmbWq2cu0bZbP8biUrK5DWU1Ps=","tags":{"shop":"telecommunication","addr:street_address":"ул. Цар Симеон Велики 55","addr:country":"BG","name":"Yettel","opening_hours":"Mo-Fr 09:00-19:00","brand":"Yettel","brand:wikidata":"Q14915070"},"coordinates":[43.9902,22.873899]},"tags_mismatch":false,"dist":0},{"osm":false,"atp":{"id":"kdOTVy9lI_MdsU9vIPExa5WK77Q=","tags":{"shop":"telecommunication","addr:street_address":"Mall Vidin, бул. Цар Симеон Велики 20А","addr:country":"BG","name":"Yettel","opening_hours":"Mo-Fr 09:00-19:00; Sa 09:00-17:00","brand":"Yettel","brand:wikidata":"Q14915070"},"coordinates":[43.98698,22.87496]},"tags_mismatch":false,"dist":0},{"osm":false,"atp":{"id":"SB7MiUZBUp37DsBs4zjvcH3dNls=","tags":{"shop":"telecommunication","addr:street_address":"ул. Никола Войводов 8","addr:country":"BG","name":"Yettel","opening_hours":"Mo-Fr 09:00-19:00","brand":"Yettel","brand:wikidata":"Q14915070"},"coordinates":[43.204899,23.5513]},"tags_mismatch":false,"dist":0},{"osm":false,"atp":false,"tags_mismatch":false,"dist":0},{"osm":false,"atp":{"id":"ReKj4Op70gRy4hCyF2v0AoeHuk0=","tags":{"shop":"telecommunication","addr:street_address":"бул. Могильов 47, Terra Mall","addr:country":"BG","name":"Yettel","opening_hours":"Mo-Su 10:00-20:00","brand":"Yettel","brand:wikidata":"Q14915070"},"coordinates":[42.885899,25.3132]},"tags_mismatch":false,"dist":0},{"osm":false,"atp":{"id":"8cG9QVYdPxnROPTLEbVqTB-jkAA=","tags":{"shop":"telecommunication","addr:street_address":"ул. Бяло море 2","addr:country":"BG","name":"Yettel","opening_hours":"Mo-Fr 09:00-19:00","brand":"Yettel","brand:wikidata":"Q14915070"},"coordinates":[41.57138,23.72624]},"tags_mismatch":false,"dist":0},{"osm":false,"atp":false,"tags_mismatch":false,"dist":0}]}