{"metadata":{"name":"kik","key":"shop","value":"clothes","compare_keys":["opening_hours","addr:postcode"]},"data":[{"osm":{"type":"node","id":8500719683,"tags":{"addr:postcode":"8600","brand":"KiK","brand:wikidata":"Q883965","opening_hours":"Mo-Su 09:00-20:00","shop":"clothes"},"wikidata":"Q883965","coordinates":[42.4769221,26.5125211]},"atp":{"id":"xrd1kPRvD40jUysD0sDhgfJRsuM=","tags":{"ref":"9407","@source_uri":"https://storefinder-microservice.kik.de/storefinder/results.json?lat=&long=&country=bg&distance=100000&limit=100000","@spider":"kik","shop":"clothes","addr:street_address":"37. Bitolya Str.","addr:city":"Yambol","addr:postcode":"8600","addr:country":"BG","phone":"+359 46 983 004","opening_hours":"Mo-Su 09:00-20:00","brand":"KiK","brand:wikidata":"Q883965","nsi_id":"kik-323dff"},"coordinates":[42.477231,26.511903]},"dist":61.232,"tags_mismatch":false},{"osm":{"type":"node","id":9613284424,"tags":{"brand":"KiK","brand:wikidata":"Q883965","level":"1","shop":"clothes"},"wikidata":"Q883965","coordinates":[41.5605515,23.2807184]},"atp":{"id":"jD7JwIXEDDRBO1gdH6XwOoB_xCo=","tags":{"ref":"9410","@source_uri":"https://storefinder-microservice.kik.de/storefinder/results.json?lat=&long=&country=bg&distance=100000&limit=100000","@spider":"kik","shop":"clothes","addr:street_address":"13. Malashevska Str.","addr:city":"Sandanski","addr:postcode":"2800","addr:country":"BG","phone":"+359 74 159 990","opening_hours":"Mo-Su 10:00-20:00","brand":"KiK","brand:wikidata":"Q883965","nsi_id":"kik-323dff"},"coordinates":[41.560301,23.280705]},"dist":27.877,"tags_mismatch":true},{"osm":{"type":"node","id":10080107733,"tags":{"brand":"KiK","brand:wikidata":"Q883965","opening_hours":"09:00-20:00","shop":"clothes"},"wikidata":"Q883965","coordinates":[42.6071129,23.0555294]},"atp":false,"tags_mismatch":false},{"osm":{"type":"node","id":10157390137,"tags":{"addr:postcode":"8000","brand":"KiK","brand:wikidata":"Q883965","check_date":"2022-11-04","level":"1","opening_hours":"Mo-Su 09:00-20:00","shop":"clothes"},"wikidata":"Q883965","coordinates":[42.4957863,27.4711983]},"atp":{"id":"Ln7LrFxepoi3PYaOmUajqrDKdQE=","tags":{"ref":"9429","@source_uri":"https://storefinder-microservice.kik.de/storefinder/results.json?lat=&long=&country=bg&distance=100000&limit=100000","@spider":"kik","shop":"clothes","addr:street_address":"58. Aleksandrovska Str.","addr:city":"Burgas","addr:postcode":"8000","addr:country":"BG","phone":"+359 56 700 197","opening_hours":"Mo-Su 09:00-20:00","brand":"KiK","brand:wikidata":"Q883965","nsi_id":"kik-323dff"},"coordinates":[42.495726,27.471095]},"dist":10.802,"tags_mismatch":false},{"osm":{"type":"node","id":10249380837,"tags":{"brand":"KiK","brand:wikidata":"Q883965","level":"-2","shop":"clothes"},"wikidata":"Q883965","coordinates":[42.6608153,23.3822911]},"atp":false,"tags_mismatch":false},{"osm":{"type":"node","id":10806881088,"tags":{"addr:postcode":"2600","brand":"KiK","brand:wikidata":"Q883965","opening_hours":"Mo-Su 10:00-20:00","shop":"clothes"},"wikidata":"Q883965","coordinates":[42.273079,23.1293399]},"atp":{"id":"kpcTm63Nlf1DImze3HmUVNM1D5E=","tags":{"ref":"9409","@source_uri":"https://storefinder-microservice.kik.de/storefinder/results.json?lat=&long=&country=bg&distance=100000&limit=100000","@spider":"kik","shop":"clothes","addr:street_address":"1. Otovitsa Str.","addr:city":"Dupnitsa","addr:postcode":"2600","addr:country":"BG","phone":"+359 701 310 26","opening_hours":"Mo-Su 10:00-20:00","brand":"KiK","brand:wikidata":"Q883965","nsi_id":"kik-323dff"},"coordinates":[42.273021,23.129543]},"dist":17.912,"tags_mismatch":false},{"osm":{"type":"node","id":10982942133,"tags":{"brand":"KiK","brand:wikidata":"Q883965","opening_hours":"Mo-Su 10:00-20:00","shop":"clothes"},"wikidata":"Q883965","coordinates":[42.6026849,23.050099]},"atp":{"id":"0NVrcvSJ8zqzyj1Ne5d9IjtKkt4=","tags":{"ref":"9440","@source_uri":"https://storefinder-microservice.kik.de/storefinder/results.json?lat=&long=&country=bg&distance=100000&limit=100000","@spider":"kik","shop":"clothes","addr:street_address":"Zahari Zograf Str. 159, Katasternr.: 55871.509.8, 55871.509.10","addr:city":"Pernik","addr:postcode":"2306","addr:country":"BG","opening_hours":"Mo-Su 10:00-20:00","brand":"KiK","brand:wikidata":"Q883965","nsi_id":"kik-323dff"},"coordinates":[42.602686,23.050117]},"dist":1.478,"tags_mismatch":true},{"osm":{"type":"node","id":10982993808,"tags":{"brand":"KiK","brand:wikidata":"Q883965","opening_hours":"Mo-Su 10:00-20:00","shop":"clothes"},"wikidata":"Q883965","coordinates":[42.1830312,24.3448988]},"atp":false,"tags_mismatch":false},{"osm":{"type":"node","id":11171422825,"tags":{"addr:postcode":"6303","brand":"KiK","brand:wikidata":"Q883965","opening_hours":"Mo-Su 10:00-20:00","shop":"clothes"},"wikidata":"Q883965","coordinates":[41.9410015,25.5557995]},"atp":{"id":"oH6oIjJHmKsOOHPm0B1g7dtNHFY=","tags":{"ref":"9446","@source_uri":"https://storefinder-microservice.kik.de/storefinder/results.json?lat=&long=&country=bg&distance=100000&limit=100000","@spider":"kik","shop":"clothes","addr:street_address":"M. Uvata","addr:city":"Haskovo","addr:postcode":"6300","addr:country":"BG","opening_hours":"Mo-Su 10:00-19:00","brand":"KiK","brand:wikidata":"Q883965","nsi_id":"kik-323dff"},"coordinates":[41.941047,25.555393]},"dist":34,"tags_mismatch":true},{"osm":{"type":"node","id":11195324788,"tags":{"addr:postcode":"3400","brand":"KiK","brand:wikidata":"Q883965","opening_hours":"Mo-Su 09:00-20:00","shop":"clothes"},"wikidata":"Q883965","coordinates":[43.4184209,23.2260841]},"atp":{"id":"57_KP3GYOxnqcMX3zzaTIQ_Su2s=","tags":{"ref":"9402","@source_uri":"https://storefinder-microservice.kik.de/storefinder/results.json?lat=&long=&country=bg&distance=100000&limit=100000","@spider":"kik","shop":"clothes","addr:street_address":"137 A Treti Mart Blvd.","addr:city":"Montana","addr:postcode":"3400","addr:country":"BG","phone":"+359 96 587 475","opening_hours":"Mo-Su 09:00-20:00","brand":"KiK","brand:wikidata":"Q883965","nsi_id":"kik-323dff"},"coordinates":[43.420208,23.225824]},"dist":199.824,"tags_mismatch":false},{"osm":{"type":"node","id":11206982241,"tags":{"brand":"KiK","brand:wikidata":"Q883965","shop":"clothes"},"wikidata":"Q883965","coordinates":[42.8925881,24.7160144]},"atp":{"id":"_kvv4Ao5Hos9pzhmzk9Upb0rVZ8=","tags":{"ref":"9424","@source_uri":"https://storefinder-microservice.kik.de/storefinder/results.json?lat=&long=&country=bg&distance=100000&limit=100000","@spider":"kik","shop":"clothes","addr:street_address":"Akademik Angel Balevski Str. 1","addr:city":"Troyan","addr:postcode":"5600","addr:country":"BG","phone":"+359 67 092 003","opening_hours":"Mo-Su 10:00-20:00","brand":"KiK","brand:wikidata":"Q883965","nsi_id":"kik-323dff"},"coordinates":[42.892524,24.715694]},"dist":27.057,"tags_mismatch":true},{"osm":{"type":"node","id":11233091837,"tags":{"brand":"KiK","brand:wikidata":"Q883965","shop":"clothes"},"wikidata":"Q883965","coordinates":[41.9702203,25.5597227]},"atp":false,"tags_mismatch":false},{"osm":{"type":"node","id":11254816937,"tags":{"addr:postcode":"8800","brand":"KiK","brand:wikidata":"Q883965","opening_hours":"Mo-Su 10:00-20:00","shop":"clothes"},"wikidata":"Q883965","coordinates":[42.6823805,26.3410045]},"atp":false,"tags_mismatch":false},{"osm":{"type":"node","id":11275621276,"tags":{"brand":"KiK","brand:wikidata":"Q883965","shop":"clothes"},"wikidata":"Q883965","coordinates":[43.2742562,26.9449007]},"atp":{"id":"jns1l9duhemjEeUATo4mtTpP3Yk=","tags":{"ref":"9428","@source_uri":"https://storefinder-microservice.kik.de/storefinder/results.json?lat=&long=&country=bg&distance=100000&limit=100000","@spider":"kik","shop":"clothes","addr:street_address":"Simeon Veliki Blvd. 37","addr:city":"Shumen","addr:postcode":"9704","addr:country":"BG","opening_hours":"Mo-Su 10:00-20:00","brand":"KiK","brand:wikidata":"Q883965","nsi_id":"kik-323dff"},"coordinates":[43.275799,26.942647]},"dist":250.439,"tags_mismatch":true},{"osm":{"type":"node","id":11324280416,"tags":{"brand":"KiK","brand:wikidata":"Q883965","level":"1","shop":"clothes"},"wikidata":"Q883965","coordinates":[42.660416,23.2454819]},"atp":{"id":"WZ5-oiB8fumMhyi2B3PqGpMv0lw=","tags":{"ref":"9430","@source_uri":"https://storefinder-microservice.kik.de/storefinder/results.json?lat=&long=&country=bg&distance=100000&limit=100000","@spider":"kik","shop":"clothes","addr:street_address":"272. Tsar Boris III Blvd.","addr:city":"Sofia","addr:postcode":"1619","addr:country":"BG","opening_hours":"Mo-Su 10:00-20:00","brand":"KiK","brand:wikidata":"Q883965","nsi_id":"kik-323dff"},"coordinates":[42.660037,23.245315]},"dist":44.298,"tags_mismatch":true},{"osm":{"type":"node","id":11415535198,"tags":{"brand":"KiK","brand:wikidata":"Q883965","shop":"clothes"},"wikidata":"Q883965","coordinates":[43.2801196,26.9276738]},"atp":{"id":"e8aQIRpbjdWUUQRSZtHGvH4lceM=","tags":{"ref":"9455","@source_uri":"https://storefinder-microservice.kik.de/storefinder/results.json?lat=&long=&country=bg&distance=100000&limit=100000","@spider":"kik","shop":"clothes","addr:street_address":"Kraleviche Str. 1","addr:city":"Shumen","addr:postcode":"9700","addr:country":"BG","opening_hours":"Mo-Su 10:00-20:00","brand":"KiK","brand:wikidata":"Q883965","nsi_id":"kik-323dff"},"coordinates":[43.280624,26.926497]},"dist":110.547,"tags_mismatch":true},{"osm":{"type":"node","id":11509499972,"tags":{"brand":"KiK","brand:wikidata":"Q883965","shop":"clothes"},"wikidata":"Q883965","coordinates":[42.7041934,24.1617425]},"atp":{"id":"og6BA9f8YECYl1ZzKBLpyG4elAM=","tags":{"ref":"9417","@source_uri":"https://storefinder-microservice.kik.de/storefinder/results.json?lat=&long=&country=bg&distance=100000&limit=100000","@spider":"kik","shop":"clothes","addr:street_address":"Stefan Stambolov Str.","addr:city":"Pirdop","addr:postcode":"2070","addr:country":"BG","opening_hours":"Mo-Su 10:00-20:00","brand":"KiK","brand:wikidata":"Q883965","nsi_id":"kik-323dff"},"coordinates":[42.704249,24.161583]},"dist":14.425,"tags_mismatch":true},{"osm":{"type":"node","id":11608677358,"tags":{"brand":"KiK","brand:wikidata":"Q883965","level":"0","shop":"clothes"},"wikidata":"Q883965","coordinates":[41.6148451,25.3758814]},"atp":{"id":"Ao0m2FYRA46O7xTcFpC1Pdu4hMU=","tags":{"ref":"9426","@source_uri":"https://storefinder-microservice.kik.de/storefinder/results.json?lat=&long=&country=bg&distance=100000&limit=100000","@spider":"kik","shop":"clothes","addr:street_address":"1-vi May Str.","addr:city":"Kardzhali","addr:postcode":"6604","addr:country":"BG","opening_hours":"Mo-Su 10:00-20:00","brand":"KiK","brand:wikidata":"Q883965","nsi_id":"kik-323dff"},"coordinates":[41.615191,25.3755]},"dist":49.846,"tags_mismatch":true},{"osm":{"type":"node","id":11685130817,"tags":{"brand":"KiK","brand:wikidata":"Q883965","shop":"clothes"},"wikidata":"Q883965","coordinates":[41.5724296,24.7159732]},"atp":{"id":"9Dvz_qHrWaV-vaGJJm9gA8mXQ6o=","tags":{"ref":"9436","@source_uri":"https://storefinder-microservice.kik.de/storefinder/results.json?lat=&long=&country=bg&distance=100000&limit=100000","@spider":"kik","shop":"clothes","addr:street_address":"Beliya kamak Str. Nr24","addr:city":"Smolyan","addr:postcode":"4700","addr:country":"BG","opening_hours":"Mo-Su 10:00-20:00","brand":"KiK","brand:wikidata":"Q883965","nsi_id":"kik-323dff"},"coordinates":[41.572227,24.715352]},"dist":56.373,"tags_mismatch":true},{"osm":{"type":"node","id":11723449710,"tags":{"brand":"KiK","brand:wikidata":"Q883965","shop":"clothes"},"wikidata":"Q883965","coordinates":[42.6575256,23.5912678]},"atp":{"id":"9ydVtuHQ2S-yXHQjqEXNZJhpTCQ=","tags":{"ref":"9448","@source_uri":"https://storefinder-microservice.kik.de/storefinder/results.json?lat=&long=&country=bg&distance=100000&limit=100000","@spider":"kik","shop":"clothes","addr:street_address":"Ul. Nr. 105 Kais kadastre number: 42.656631, 23.590758","addr:city":"Elin Pelin","addr:postcode":"2100","addr:country":"BG","opening_hours":"Mo-Su 10:00-19:00","brand":"KiK","brand:wikidata":"Q883965","nsi_id":"kik-323dff"},"coordinates":[42.657531,23.591264]},"dist":0.676,"tags_mismatch":true},{"osm":{"type":"node","id":11733906635,"tags":{"brand":"KiK","brand:wikidata":"Q883965","shop":"clothes"},"wikidata":"Q883965","coordinates":[44.1137347,27.2733605]},"atp":{"id":"uxBPJaYUwadNNM8WEVKw_QjSa8Q=","tags":{"ref":"9450","@source_uri":"https://storefinder-microservice.kik.de/storefinder/results.json?lat=&long=&country=bg&distance=100000&limit=100000","@spider":"kik","shop":"clothes","addr:street_address":"Blvd. Sedmi septemvri 33A","addr:city":"Silistra","addr:postcode":"7500","addr:country":"BG","opening_hours":"Mo-Su 10:00-20:00","brand":"KiK","brand:wikidata":"Q883965","nsi_id":"kik-323dff"},"coordinates":[44.11356,27.273763]},"dist":37.549,"tags_mismatch":true},{"osm":{"type":"node","id":11748814774,"tags":{"brand":"KiK","brand:wikidata":"Q883965","shop":"clothes"},"wikidata":"Q883965","coordinates":[42.1330576,24.7953056]},"atp":{"id":"fyKj42oNGcv6T_9EOq8UlyzkMkk=","tags":{"ref":"9433","@source_uri":"https://storefinder-microservice.kik.de/storefinder/results.json?lat=&long=&country=bg&distance=100000&limit=100000","@spider":"kik","shop":"clothes","addr:street_address":"41. Saedinenie Str.","addr:city":"Plovdiv","addr:postcode":"4023","addr:country":"BG","opening_hours":"Mo-Su 10:00-19:00","brand":"KiK","brand:wikidata":"Q883965","nsi_id":"kik-323dff"},"coordinates":[42.133088,24.795097]},"dist":17.53,"tags_mismatch":true},{"osm":{"type":"node","id":11874807954,"tags":{"brand":"KiK","brand:wikidata":"Q883965","opening_hours":"Mo-Su 09:00-20:00","shop":"clothes"},"wikidata":"Q883965","coordinates":[42.6528678,27.6727604]},"atp":{"id":"ALvCBcfZ5BJXv9wyCX9fc9axDOE=","tags":{"ref":"9458","@source_uri":"https://storefinder-microservice.kik.de/storefinder/results.json?lat=&long=&country=bg&distance=100000&limit=100000","@spider":"kik","shop":"clothes","addr:street_address":"E87","addr:city":"Ravda","addr:postcode":"8238","addr:country":"BG","opening_hours":"Mo-Su 09:00-20:00","brand":"KiK","brand:wikidata":"Q883965","nsi_id":"kik-323dff"},"coordinates":[42.653277,27.672176]},"dist":65.988,"tags_mismatch":true},{"osm":{"type":"node","id":12259586911,"tags":{"brand":"KiK","brand:wikidata":"Q883965","shop":"clothes"},"wikidata":"Q883965","coordinates":[42.124757,24.7216187]},"atp":false,"tags_mismatch":false},{"osm":{"type":"node","id":12358918588,"tags":{"brand":"KiK","brand:wikidata":"Q883965","opening_hours":"Mo-Su 10:00-20:00","shop":"clothes"},"wikidata":"Q883965","coordinates":[42.9109847,23.8049293]},"atp":{"id":"s-0uvy_0CoWchIoK366ak3A1ObY=","tags":{"ref":"9453","@source_uri":"https://storefinder-microservice.kik.de/storefinder/results.json?lat=&long=&country=bg&distance=100000&limit=100000","@spider":"kik","shop":"clothes","addr:street_address":"Tsar Osvoboditel Blvd 35A","addr:city":"Botevgrad","addr:postcode":"2140","addr:country":"BG","opening_hours":"Mo-Su 10:00-20:00","brand":"KiK","brand:wikidata":"Q883965","nsi_id":"kik-323dff"},"coordinates":[42.910575,23.804486]},"dist":58.127,"tags_mismatch":true},{"osm":{"type":"node","id":12695824291,"tags":{"brand":"KiK","brand:wikidata":"Q883965","shop":"clothes"},"wikidata":"Q883965","coordinates":[42.709882,23.4548477]},"atp":false,"tags_mismatch":false},{"osm":false,"atp":false,"tags_mismatch":false,"dist":0},{"osm":false,"atp":{"id":"wDrXkZP-FDPr4WnWScO0OaEUZZg=","tags":{"ref":"9441","shop":"clothes","addr:street_address":"Todor Alexandrov Str. 38","addr:city":"Gotse Delchev","addr:postcode":"2900","addr:country":"BG","name":"KiK","opening_hours":"Mo-Su 10:00-19:00","brand":"KiK","brand:wikidata":"Q883965"},"coordinates":[41.568457,23.728986]},"tags_mismatch":false,"dist":0},{"osm":false,"atp":{"id":"2WqCMjWjx_Knu6LORwewmcl1piw=","tags":{"ref":"9437","shop":"clothes","addr:street_address":"Gotze Delchev Str. 51A","addr:city":"Razlog","addr:postcode":"2760","addr:country":"BG","name":"KiK","opening_hours":"Mo-Su 10:00-20:00","brand":"KiK","brand:wikidata":"Q883965"},"coordinates":[41.881315,23.47134]},"tags_mismatch":false,"dist":0},{"osm":false,"atp":false,"tags_mismatch":false,"dist":0},{"osm":false,"atp":false,"tags_mismatch":false,"dist":0},{"osm":false,"atp":{"id":"Zf8qcOX66SI-hCcSSxu8C2Idg4g=","tags":{"ref":"9452","shop":"clothes","addr:street_address":"Khan Asparuh Str. 2","addr:city":"Velingrad","addr:postcode":"4600","addr:country":"BG","name":"KiK","opening_hours":"Mo-Su 10:00-20:00","brand":"KiK","brand:wikidata":"Q883965"},"coordinates":[42.031185,24.003353]},"tags_mismatch":false,"dist":0},{"osm":false,"atp":false,"tags_mismatch":false,"dist":0},{"osm":false,"atp":{"id":"_VFZdwfqaTaOIwrx9am0rXAdtiM=","tags":{"ref":"9425","shop":"clothes","addr:street_address":"Yuriy Gagarin Blvd Nr2A","addr:city":"Pernik","addr:postcode":"2304","addr:country":"BG","name":"KiK","opening_hours":"Mo-Su 10:00-19:00","brand":"KiK","brand:wikidata":"Q883965"},"coordinates":[42.606012,23.115201]},"tags_mismatch":false,"dist":0},{"osm":false,"atp":false,"tags_mismatch":false,"dist":0},{"osm":false,"atp":false,"tags_mismatch":false,"dist":0},{"osm":false,"atp":{"id":"I9fDGovz8ZF6UeL131_V3id256w=","tags":{"ref":"9406","shop":"clothes","addr:street_address":"15. Rayko Daskalov Blvd.","addr:city":"Sofia","addr:postcode":"1359","addr:country":"BG","name":"KiK","phone":"+359 2 423 0041","opening_hours":"Mo-Su 10:00-20:00","brand":"KiK","brand:wikidata":"Q883965"},"coordinates":[42.717576,23.240414]},"tags_mismatch":false,"dist":0},{"osm":false,"atp":{"id":"VXx_lq-p-jphppch15PZdSjN5Do=","tags":{"ref":"9439","shop":"clothes","addr:street_address":"Dimcho Debelyanov Str. 10, Katasternr.: 55155.507.368","addr:city":"Pazardjik","addr:postcode":"4400","addr:country":"BG","name":"KiK","opening_hours":"Mo-Su 10:00-20:00","brand":"KiK","brand:wikidata":"Q883965"},"coordinates":[42.186739,24.346037]},"tags_mismatch":false,"dist":0},{"osm":false,"atp":{"id":"uUd4KU6wcHSJe3mZ8PIY5Xlbd7k=","tags":{"ref":"9423","shop":"clothes","addr:street_address":"12. Georgi Benkovski Str.","addr:city":"Pazardjik","addr:postcode":"4400","addr:country":"BG","name":"KiK","phone":"+359 34 986 370","opening_hours":"Mo-Su 10:00-20:00","brand":"KiK","brand:wikidata":"Q883965"},"coordinates":[42.196297,24.334239]},"tags_mismatch":false,"dist":0},{"osm":false,"atp":{"id":"5vvBiXGZmNoPQjnF36WlMc8IBmI=","tags":{"ref":"9401","shop":"clothes","addr:street_address":"15 Tsaritsa Yoanna Blvd.","addr:city":"Sofia","addr:postcode":"1336","addr:country":"BG","name":"KiK","phone":"+359 2 488 4011","opening_hours":"Mo-Su 10:00-21:00","brand":"KiK","brand:wikidata":"Q883965"},"coordinates":[42.71036,23.271031]},"tags_mismatch":false,"dist":0},{"osm":false,"atp":{"id":"vg-vh0ZHH4Sd3xPlYRhdHb87zow=","tags":{"ref":"9400","shop":"clothes","addr:street_address":"115z Tsarigradsko shose Blvd.","addr:city":"Sofia","addr:postcode":"1784","addr:country":"BG","name":"KiK","phone":"+359 2 423 5999","opening_hours":"Mo-Su 10:00-22:00","brand":"KiK","brand:wikidata":"Q883965"},"coordinates":[42.663845,23.378753]},"tags_mismatch":false,"dist":0},{"osm":false,"atp":{"id":"FhaGYrg0coZXpQC5IXaSA7Rif6I=","tags":{"ref":"9471","shop":"clothes","addr:street_address":"Trakija Blvd.Nr.30g","addr:city":"Stamboliyski","addr:postcode":"4210","addr:country":"BG","name":"KiK","opening_hours":"Mo-Su 10:00-20:00","brand":"KiK","brand:wikidata":"Q883965"},"coordinates":[42.137272,24.54331]},"tags_mismatch":false,"dist":0},{"osm":false,"atp":{"id":"r-gNs_-FcCOSWEknh_LH7_3vUrQ=","tags":{"ref":"9447","shop":"clothes","addr:street_address":"Vasil Levski Str., Nr. 20","addr:city":"Asenovgrad","addr:postcode":"4230","addr:country":"BG","name":"KiK","opening_hours":"Mo-Su 10:00-20:00","brand":"KiK","brand:wikidata":"Q883965"},"coordinates":[42.013134,24.870974]},"tags_mismatch":false,"dist":0},{"osm":false,"atp":false,"tags_mismatch":false,"dist":0},{"osm":false,"atp":{"id":"utnUypc_aWIur17loOTlRqXxauk=","tags":{"ref":"9404","shop":"clothes","addr:street_address":"131 Aleksandar Stamboliiski Blvd.","addr:city":"Plovdiv","addr:postcode":"4004","addr:country":"BG","name":"KiK","phone":"+359 32 331 100","opening_hours":"Mo-Su 10:00-20:00","brand":"KiK","brand:wikidata":"Q883965"},"coordinates":[42.121504,24.740945]},"tags_mismatch":false,"dist":0},{"osm":false,"atp":{"id":"mcRVD7Uwe8kPWwLxLKzzH9_IEyY=","tags":{"ref":"9403","shop":"clothes","addr:street_address":"54 Ruski Blvd.","addr:city":"Plovdiv","addr:postcode":"4000","addr:country":"BG","name":"KiK","phone":"+359 32 333 238","opening_hours":"Mo-Su 10:00-21:00","brand":"KiK","brand:wikidata":"Q883965"},"coordinates":[42.141324,24.740971]},"tags_mismatch":false,"dist":0},{"osm":false,"atp":{"id":"sndMtB3D1CrkhVz0oNEf4qZjdGw=","tags":{"ref":"9434","shop":"clothes","addr:street_address":"Osvobozhdenie Blvd.Nr157","addr:city":"Plovdiv","addr:postcode":"4004","addr:country":"BG","name":"KiK","opening_hours":"Mo-Su 11:00-19:00","brand":"KiK","brand:wikidata":"Q883965"},"coordinates":[42.127479,24.77116]},"tags_mismatch":false,"dist":0},{"osm":false,"atp":{"id":"WaFkC06orBb67pKbsR2XaLaQCRU=","tags":{"ref":"9413","shop":"clothes","addr:street_address":"8. Rayko Daskalov","addr:city":"Plovdiv","addr:postcode":"4000","addr:country":"BG","name":"KiK","phone":"+359 32 306 076","opening_hours":"Mo-Su 09:30-20:00","brand":"KiK","brand:wikidata":"Q883965"},"coordinates":[42.148864,24.748112]},"tags_mismatch":false,"dist":0},{"osm":false,"atp":false,"tags_mismatch":false,"dist":0},{"osm":false,"atp":{"id":"80zvbBl_CIRn_Zno548gYpzhIwg=","tags":{"ref":"9427","shop":"clothes","addr:street_address":"Georgi Benkovski Str. 67","addr:city":"Panagyurishte","addr:postcode":"4500","addr:country":"BG","name":"KiK","phone":"+359 35 089 120","opening_hours":"Mo-Su 10:00-20:00","brand":"KiK","brand:wikidata":"Q883965"},"coordinates":[42.495117,24.187445]},"tags_mismatch":false,"dist":0},{"osm":false,"atp":{"id":"RH1Hg7c4scBvxIoARPRH8xz5vDQ=","tags":{"ref":"9464","shop":"clothes","addr:street_address":"Knyaz Boris Ite Nr. 51 V","addr:city":"Parvomay","addr:postcode":"4271","addr:country":"BG","name":"KiK","opening_hours":"Mo-Su 10:00-20:00","brand":"KiK","brand:wikidata":"Q883965"},"coordinates":[42.090689,25.21119]},"tags_mismatch":false,"dist":0},{"osm":false,"atp":{"id":"C1u88jBDPyXNNWK8MhsewJcp_Ao=","tags":{"ref":"9444","shop":"clothes","addr:street_address":"Bul. G. S. Rakovski 28A","addr:city":"Haskovo","addr:postcode":"6303","addr:country":"BG","name":"KiK","opening_hours":"Mo-Su 10:00-20:00","brand":"KiK","brand:wikidata":"Q883965"},"coordinates":[41.94072,25.555293]},"tags_mismatch":false,"dist":0},{"osm":false,"atp":false,"tags_mismatch":false,"dist":0},{"osm":false,"atp":false,"tags_mismatch":false,"dist":0},{"osm":false,"atp":false,"tags_mismatch":false,"dist":0},{"osm":false,"atp":{"id":"9VJ3N506Vv-L4jJheBNhe6iEPq8=","tags":{"ref":"9451","shop":"clothes","addr:street_address":"Stefan Stambolov 4a blvd.","addr:city":"Dimitrovgrad","addr:postcode":"6400","addr:country":"BG","name":"KiK","opening_hours":"Mo-Su 10:00-19:00","brand":"KiK","brand:wikidata":"Q883965"},"coordinates":[42.059055,25.58514]},"tags_mismatch":false,"dist":0},{"osm":false,"atp":{"id":"Si9vDyW5-h2-OZ-jc-GTs1zYNxg=","tags":{"ref":"9443","shop":"clothes","addr:street_address":"Georgi Dimitrov Blvd., Kadasternummer 81414.501.324","addr:city":"Chirpan","addr:postcode":"6200","addr:country":"BG","name":"KiK","opening_hours":"Mo-Su 10:00-20:00","brand":"KiK","brand:wikidata":"Q883965"},"coordinates":[42.198636,25.32409]},"tags_mismatch":false,"dist":0},{"osm":false,"atp":{"id":"w0mEYpviCZkcl01t7tYkfQQjAtA=","tags":{"ref":"9421","shop":"clothes","addr:street_address":"2. Petropavlovska Str.","addr:city":"Vratza","addr:postcode":"3000","addr:country":"BG","name":"KiK","opening_hours":"Mo-Su 09:00-19:00","brand":"KiK","brand:wikidata":"Q883965"},"coordinates":[43.208073,23.546266]},"tags_mismatch":false,"dist":0},{"osm":false,"atp":{"id":"omCfKkwXq4jkkoW2cyctNv0O2Sk=","tags":{"ref":"9418","shop":"clothes","addr:street_address":"Stoyan Daskalov Str Nr.1","addr:city":"Vratza","addr:postcode":"3000","addr:country":"BG","name":"KiK","opening_hours":"Mo-Su 09:00-19:00","brand":"KiK","brand:wikidata":"Q883965"},"coordinates":[43.220828,23.542244]},"tags_mismatch":false,"dist":0},{"osm":false,"atp":{"id":"DarCt52IMh5e09iJreK4PgWB1-M=","tags":{"ref":"9454","shop":"clothes","addr:street_address":"uliza General Zaimov 32 Grundst√ºcknr.: 36498.503.2977","addr:city":"Karlovo","addr:postcode":"4300","addr:country":"BG","name":"KiK","opening_hours":"Mo-Su 10:00-20:00","brand":"KiK","brand:wikidata":"Q883965"},"coordinates":[42.633977,24.801309]},"tags_mismatch":false,"dist":0},{"osm":false,"atp":false,"tags_mismatch":false,"dist":0},{"osm":false,"atp":false,"tags_mismatch":false,"dist":0},{"osm":false,"atp":{"id":"2ilY5DsAGEdKsanOlCFPM9EpB24=","tags":{"ref":"9445","shop":"clothes","addr:street_address":"Nikola Petkov Blvd. 52","addr:city":"Stara Zagora","addr:postcode":"6009","addr:country":"BG","name":"KiK","opening_hours":"Mo-Su 10:00-20:00","brand":"KiK","brand:wikidata":"Q883965"},"coordinates":[42.428106,25.661337]},"tags_mismatch":false,"dist":0},{"osm":false,"atp":{"id":"Bik3WUDRXPwPF2Cun9_wipV41Vo=","tags":{"ref":"9432","shop":"clothes","addr:street_address":"153. \"23. Shipchenski peh. polk\" Blvd.","addr:city":"Kazanlak","addr:postcode":"6100","addr:country":"BG","name":"KiK","opening_hours":"Mo-Su 09:00-20:00","brand":"KiK","brand:wikidata":"Q883965"},"coordinates":[42.617551,25.369574]},"tags_mismatch":false,"dist":0},{"osm":false,"atp":{"id":"6vDXWSP4jNoSwr93RBpXboNngpc=","tags":{"ref":"9414","shop":"clothes","addr:street_address":"45. Targovska Str.","addr:city":"Lovech","addr:postcode":"5500","addr:country":"BG","name":"KiK","phone":"+359 68 586 006","opening_hours":"Mo-Su 09:00-20:00","brand":"KiK","brand:wikidata":"Q883965"},"coordinates":[43.135706,24.717048]},"tags_mismatch":false,"dist":0},{"osm":false,"atp":{"id":"j2caWEX43pK0QjdO6Rm2fB742_8=","tags":{"ref":"9449","shop":"clothes","addr:street_address":"Blvd. Panonia 43","addr:city":"Vidin","addr:postcode":"3700","addr:country":"BG","name":"KiK","opening_hours":"Mo-Su 10:00-20:00","brand":"KiK","brand:wikidata":"Q883965"},"coordinates":[44.000142,22.869687]},"tags_mismatch":false,"dist":0},{"osm":false,"atp":{"id":"IIVyoHwNsyJm4pC3XpmGIe1Scx4=","tags":{"ref":"9468","shop":"clothes","addr:street_address":"Aleksander Stamboliiski Str.167","addr:city":"Elhovo","addr:postcode":"8700","addr:country":"BG","name":"KiK","opening_hours":"Mo-Su 10:00-20:00","brand":"KiK","brand:wikidata":"Q883965"},"coordinates":[42.180442,26.573469]},"tags_mismatch":false,"dist":0},{"osm":false,"atp":{"id":"KuvVTvSjWg5PSHGatFOJgQFCKPQ=","tags":{"ref":"9431","shop":"clothes","addr:street_address":"40 Vasil Aprilov Blvd.","addr:city":"Gabrovo","addr:postcode":"5300","addr:country":"BG","name":"KiK","opening_hours":"Mo-Su 10:00-20:00","brand":"KiK","brand:wikidata":"Q883965"},"coordinates":[42.867321,25.317089]},"tags_mismatch":false,"dist":0},{"osm":false,"atp":{"id":"EimrwEJOn2mPPpC2UVIoXg21bZ0=","tags":{"ref":"9457","shop":"clothes","addr:street_address":"Stancionna Str.Nr11","addr:city":"Gabrovo","addr:postcode":"5300","addr:country":"BG","name":"KiK","opening_hours":"Mo-Su 09:00-19:00","brand":"KiK","brand:wikidata":"Q883965"},"coordinates":[42.88254,25.316492]},"tags_mismatch":false,"dist":0},{"osm":false,"atp":{"id":"K741cvm_fu7W8QzMEtff0ugnIjg=","tags":{"ref":"9416","shop":"clothes","addr:street_address":"Nikola D. Petkov Str. 41","addr:city":"Sevlievo","addr:postcode":"5402","addr:country":"BG","name":"KiK","phone":"+359 67 595 137","opening_hours":"Mo-Su 10:00-19:00","brand":"KiK","brand:wikidata":"Q883965"},"coordinates":[43.021983,25.095045]},"tags_mismatch":false,"dist":0},{"osm":false,"atp":{"id":"b_31yg0vwLKLfrTyu8OzzSqWrW4=","tags":{"ref":"9405","shop":"clothes","addr:street_address":"ul.Ivan Mindilikov 1","addr:city":"Pleven","addr:postcode":"5809","addr:country":"BG","name":"KiK","phone":"+359 64 977 028","opening_hours":"Mo-Su 10:00-21:00","brand":"KiK","brand:wikidata":"Q883965"},"coordinates":[43.419756,24.613339]},"tags_mismatch":false,"dist":0},{"osm":false,"atp":false,"tags_mismatch":false,"dist":0},{"osm":false,"atp":{"id":"z26BxHjns3E2fjVwkjA_ohpCM2Y=","tags":{"ref":"9442","shop":"clothes","addr:street_address":"Georgi Danchev Blvd. Nr24-26","addr:city":"Sliven","addr:postcode":"8800","addr:country":"BG","name":"KiK","opening_hours":"Mo-Su 10:00-20:00","brand":"KiK","brand:wikidata":"Q883965"},"coordinates":[42.676024,26.320263]},"tags_mismatch":false,"dist":0},{"osm":false,"atp":{"id":"uB7DazqC5DaTnXuflXHip1i3L3M=","tags":{"ref":"9415","shop":"clothes","addr:street_address":"Tsar Simeon Blvd. 41","addr:city":"Sliven","addr:postcode":"8801","addr:country":"BG","name":"KiK","phone":"+359 44 410 292","opening_hours":"Mo-Su 10:00-19:00","brand":"KiK","brand:wikidata":"Q883965"},"coordinates":[42.673989,26.324168]},"tags_mismatch":false,"dist":0},{"osm":false,"atp":{"id":"Z-IVa782lEPt3bTg8mXMYYKsVbU=","tags":{"ref":"9411","shop":"clothes","addr:street_address":"Magistralna Str. 17","addr:city":"Veliko Tarnovo","addr:postcode":"5002","addr:country":"BG","name":"KiK","phone":"+359 62 520 251","opening_hours":"Mo-Su 10:00-20:00","brand":"KiK","brand:wikidata":"Q883965"},"coordinates":[43.075618,25.604021]},"tags_mismatch":false,"dist":0},{"osm":false,"atp":{"id":"ad1LiOHvGkdGf9G5mVsB_g7YdZo=","tags":{"ref":"9412","shop":"clothes","addr:street_address":"1. Bulgaria Blvd.","addr:city":"Veliko Tarnovo","addr:postcode":"5000","addr:country":"BG","name":"KiK","opening_hours":"Mo-Su 10:00-19:00","brand":"KiK","brand:wikidata":"Q883965"},"coordinates":[43.078337,25.626345]},"tags_mismatch":false,"dist":0},{"osm":false,"atp":false,"tags_mismatch":false,"dist":0},{"osm":false,"atp":{"id":"Ef0c3BpXx8mZMMwm4-FhwqGyDUM=","tags":{"ref":"9461","shop":"clothes","addr:street_address":"30. Todor Alexandrov Blvd.","addr:city":"Burgas","addr:postcode":"8001","addr:country":"BG","name":"KiK","opening_hours":"Mo-Su 10:00-20:00","brand":"KiK","brand:wikidata":"Q883965"},"coordinates":[42.503387,27.460075]},"tags_mismatch":false,"dist":0},{"osm":false,"atp":{"id":"hPx6R6OHDppz0Zoy5Zi8Uutb8Z0=","tags":{"ref":"9459","shop":"clothes","addr:street_address":"zh.k. Bratya Miladinovi, bl 118","addr:city":"Burgas","addr:postcode":"8001","addr:country":"BG","name":"KiK","opening_hours":"Mo-Su 10:00-20:00","brand":"KiK","brand:wikidata":"Q883965"},"coordinates":[42.502754,27.475576]},"tags_mismatch":false,"dist":0},{"osm":false,"atp":{"id":"-8LS1bqyrdw2qOx3H8KDGqkExC0=","tags":{"ref":"9422","shop":"clothes","addr:street_address":"31. Transportna Str.","addr:city":"Burgas","addr:postcode":"8008","addr:country":"BG","name":"KiK","phone":"+359 56 700 398","opening_hours":"Mo-Su 10:00-21:00","brand":"KiK","brand:wikidata":"Q883965"},"coordinates":[42.53024,27.45805]},"tags_mismatch":false,"dist":0},{"osm":false,"atp":{"id":"KCpmpi88m6afzgBpVO8IkZqkTWM=","tags":{"ref":"9420","shop":"clothes","addr:street_address":"27 Alexander Stamboliyski Blvd.","addr:city":"Targovishte","addr:postcode":"7700","addr:country":"BG","name":"KiK","phone":"+359 60 029 978","opening_hours":"Mo-Su 10:00-20:00","brand":"KiK","brand:wikidata":"Q883965"},"coordinates":[43.24833,26.558374]},"tags_mismatch":false,"dist":0},{"osm":false,"atp":false,"tags_mismatch":false,"dist":0},{"osm":false,"atp":false,"tags_mismatch":false,"dist":0},{"osm":false,"atp":false,"tags_mismatch":false,"dist":0},{"osm":false,"atp":{"id":"pM0fgqyNabvJ_zCPdHmfc8K6e50=","tags":{"ref":"9438","shop":"clothes","addr:street_address":"Platz Svoboda 7","addr:city":"Ruse","addr:postcode":"7000","addr:country":"BG","name":"KiK","opening_hours":"Mo-Su 10:00-20:00","brand":"KiK","brand:wikidata":"Q883965"},"coordinates":[43.84872,25.952003]},"tags_mismatch":false,"dist":0},{"osm":false,"atp":{"id":"k0kGilcGsb8vqSMp1cYlf1S-y8Q=","tags":{"ref":"9472","shop":"clothes","addr:street_address":"525. Botevgradsko Shosse Blvd.","addr:city":"Sofia","addr:postcode":"1839","addr:country":"BG","name":"KiK","opening_hours":"Mo-Su 10:00-20:00","brand":"KiK","brand:wikidata":"Q883965"},"coordinates":[49.600558,6.131693]},"tags_mismatch":false,"dist":0},{"osm":false,"atp":{"id":"tt-yOXjEkq8r4ghmoC38Qo0OIu4=","tags":{"ref":"9408","shop":"clothes","addr:street_address":"185. Slivnitsa Blvd.","addr:city":"Varna","addr:postcode":"9009","addr:country":"BG","name":"KiK","phone":"+359 52 803 660","opening_hours":"Mo-Su 10:00-21:00","brand":"KiK","brand:wikidata":"Q883965"},"coordinates":[43.22726,27.875004]},"tags_mismatch":false,"dist":0},{"osm":false,"atp":{"id":"D4_oUJMuxLpyQyYp_GnZ_h7iaDM=","tags":{"ref":"9435","shop":"clothes","addr:street_address":"2. Andrey Saharov Str.","addr:city":"Varna","addr:postcode":"9000","addr:country":"BG","name":"KiK","opening_hours":"Mo-Su 10:00-21:00","brand":"KiK","brand:wikidata":"Q883965"},"coordinates":[43.216487,27.898646]},"tags_mismatch":false,"dist":0},{"osm":false,"atp":{"id":"QqGcAQTPBYzYlpAF5fGE0R3Bfi4=","tags":{"ref":"9467","shop":"clothes","addr:street_address":"Tzar Boris III Str. 22-24","addr:city":"Varna","addr:postcode":"9022","addr:country":"BG","name":"KiK","opening_hours":"Mo-Su 10:00-19:00","brand":"KiK","brand:wikidata":"Q883965"},"coordinates":[43.247808,27.983076]},"tags_mismatch":false,"dist":0},{"osm":false,"atp":{"id":"jieMg6BHzRAb9ZopMZoP1qb7qPw=","tags":{"ref":"9419","shop":"clothes","addr:street_address":"4. Dobrudzha Blvd.","addr:city":"Dobrich","addr:postcode":"9300","addr:country":"BG","name":"KiK","phone":"+359 58 585 177","opening_hours":"Mo-Su 10:00-20:00","brand":"KiK","brand:wikidata":"Q883965"},"coordinates":[43.57188,27.814978]},"tags_mismatch":false,"dist":0},{"osm":false,"atp":{"id":"n0g_wNi51T5CoDAfq0aYQfRYmok=","tags":{"ref":"9456","shop":"clothes","addr:street_address":"25th September Blvd. 70","addr:city":"Dobrich","addr:postcode":"9300","addr:country":"BG","name":"KiK","opening_hours":"Mo-Su 10:00-20:00","brand":"KiK","brand:wikidata":"Q883965"},"coordinates":[43.579021,27.829317]},"tags_mismatch":false,"dist":0},{"osm":false,"atp":{"id":"ll7uJDC_DB7sCZXlWSaHRwfCOPE=","tags":{"ref":"9469","shop":"clothes","addr:street_address":"56. Mur Str","addr:city":"Sofia","addr:postcode":"1680","addr:country":"BG","name":"KiK","opening_hours":"Mo-Su 10:00-20:00","brand":"KiK","brand:wikidata":"Q883965"},"coordinates":[47.438989,19.167339]},"tags_mismatch":false,"dist":0},{"osm":false,"atp":false,"tags_mismatch":false,"dist":0}]}