{"metadata":{"name":"Minimart","key":"shop","value":"convenience","compare_keys":false},"data":[{"osm":{"type":"node","id":851320217,"tags":{"brand":"Minimart","brand:wikidata":"Q119168386","opening_hours":"Mo-Su,PH 07:00-22:00","shop":"convenience"},"wikidata":"Q119168386","coordinates":[42.6937603,23.3537959]},"atp":{"id":"GWxUpDn11dlGLqGW7fU6kE2AkZM=","tags":{"ref":"94","@source_uri":"https://mini-mart.bg/wp-admin/admin-ajax.php?action=asl_load_stores","@spider":"minimart_bg","shop":"convenience","addr:street":"Оборище, ул. „Марагидик“ 10","addr:city":"София","addr:postcode":"1505","addr:country":"BG","website":"https://mini-mart.bg/","opening_hours":"Mo-Su 07:00-22:00","brand":"Minimart","brand:wikidata":"Q119168386","nsi_id":"minimart-854be4"},"coordinates":[42.69377507148689,23.35386780981444]},"dist":6.102,"tags_mismatch":true},{"osm":{"type":"node","id":1350379799,"tags":{"brand":"Minimart","brand:wikidata":"Q119168386","shop":"convenience"},"wikidata":"Q119168386","coordinates":[42.1450536,24.7567171]},"atp":{"id":"1XEnehcuvhObc1VMHVQmn2jTav8=","tags":{"ref":"108","@source_uri":"https://mini-mart.bg/wp-admin/admin-ajax.php?action=asl_load_stores","@spider":"minimart_bg","shop":"convenience","addr:street":"Каменица 1, Пловдив Център, бул. „Княгиня Мария Луиза“ 16","addr:city":"Пловдив","addr:country":"BG","website":"https://mini-mart.bg/","opening_hours":"Mo-Su 08:00-22:00","brand":"Minimart","brand:wikidata":"Q119168386","nsi_id":"minimart-854be4"},"coordinates":[42.1452206,24.756612]},"dist":20.492,"tags_mismatch":true},{"osm":{"type":"node","id":1488778789,"tags":{"brand":"Minimart","brand:wikidata":"Q119168386","shop":"convenience"},"wikidata":"Q119168386","coordinates":[42.1519301,24.7620208]},"atp":{"id":"ab_XMHrugeLNcqs5PKvpxuNsypE=","tags":{"ref":"162","@source_uri":"https://mini-mart.bg/wp-admin/admin-ajax.php?action=asl_load_stores","@spider":"minimart_bg","shop":"convenience","addr:street":"ул. Райно Попович 20","addr:city":"Пловдив","addr:country":"BG","website":"https://mini-mart.bg/","opening_hours":"Mo-Su 08:00-22:00","brand":"Minimart","brand:wikidata":"Q119168386","nsi_id":"minimart-854be4"},"coordinates":[42.1519342,24.7620148]},"dist":0.673,"tags_mismatch":true},{"osm":{"type":"node","id":1697418906,"tags":{"brand":"Minimart","brand:wikidata":"Q119168386","opening_hours":"07:00-22:00","shop":"convenience","stroller":"no","wheelchair":"no"},"wikidata":"Q119168386","coordinates":[42.6988557,23.3066815]},"atp":{"id":"A4CgLlUK-caNEPqiHiFsUXNBPgg=","tags":{"ref":"88","@source_uri":"https://mini-mart.bg/wp-admin/admin-ajax.php?action=asl_load_stores","@spider":"minimart_bg","shop":"convenience","addr:street":"бул. Ал. Стамболийски 125","addr:city":"София","addr:country":"BG","website":"https://mini-mart.bg/","opening_hours":"Mo-Su 07:00-22:00","brand":"Minimart","brand:wikidata":"Q119168386","nsi_id":"minimart-854be4"},"coordinates":[42.69887438422891,23.30667620531007]},"dist":2.122,"tags_mismatch":true},{"osm":{"type":"node","id":1699498118,"tags":{"brand":"Minimart","brand:wikidata":"Q119168386","check_date":"2025-03-09","opening_hours":"07:00-22:00","shop":"convenience","wheelchair":"no"},"wikidata":"Q119168386","coordinates":[42.6772887,23.3008199]},"atp":{"id":"mq_MUVIPepTRB6tZC3xm2jfSimw=","tags":{"ref":"241","@source_uri":"https://mini-mart.bg/wp-admin/admin-ajax.php?action=asl_load_stores","@spider":"minimart_bg","shop":"convenience","addr:street":"ул. Мила родина 20","addr:city":"София","addr:country":"BG","website":"https://mini-mart.bg/","opening_hours":"Mo-Su 07:00-22:00","brand":"Minimart","brand:wikidata":"Q119168386","nsi_id":"minimart-854be4"},"coordinates":[42.677235,23.3010449]},"dist":19.338,"tags_mismatch":true},{"osm":{"type":"node","id":1847320705,"tags":{"brand":"Minimart","brand:wikidata":"Q119168386","opening_hours":"PH,Mo-Su 07:00-22:00","shop":"convenience"},"wikidata":"Q119168386","coordinates":[42.6783491,23.3077849]},"atp":{"id":"8zAYmhv9IwO0qLk4qlie0kOEFTM=","tags":{"ref":"65","@source_uri":"https://mini-mart.bg/wp-admin/admin-ajax.php?action=asl_load_stores","@spider":"minimart_bg","shop":"convenience","addr:street":"улица „Ярослав Вешин“ 41","addr:city":"София","addr:postcode":"1408","addr:country":"BG","website":"https://mini-mart.bg/","opening_hours":"Mo-Su 07:00-22:00","brand":"Minimart","brand:wikidata":"Q119168386","nsi_id":"minimart-854be4"},"coordinates":[42.6782044,23.3078409]},"dist":16.728,"tags_mismatch":true},{"osm":{"type":"node","id":3070817493,"tags":{"addr:housenumber":"12","addr:street":"Вишнева","brand":"Minimart","brand:wikidata":"Q119168386","opening_hours":"PH,Mo-Su 07:00-22:00","shop":"convenience"},"wikidata":"Q119168386","coordinates":[42.6783214,23.332226]},"atp":{"id":"wdrnemFOdbUnhyUWpMLeutC3XiM=","tags":{"ref":"72","@source_uri":"https://mini-mart.bg/wp-admin/admin-ajax.php?action=asl_load_stores","@spider":"minimart_bg","shop":"convenience","addr:street":"улица „Вишнева“ 12, 1164 София","addr:city":"София","addr:postcode":"1164","addr:country":"BG","website":"https://mini-mart.bg/","opening_hours":"Mo-Su 07:00-22:00","brand":"Minimart","brand:wikidata":"Q119168386","nsi_id":"minimart-854be4"},"coordinates":[42.6782435,23.3319561]},"dist":23.703,"tags_mismatch":true},{"osm":{"type":"node","id":3120009729,"tags":{"brand":"Minimart","brand:wikidata":"Q119168386","opening_hours":"Mo-Su 07:00-22:00","shop":"convenience"},"wikidata":"Q119168386","coordinates":[42.6699608,23.2841093]},"atp":{"id":"9rqfYAxsqlh5L2I5uEeUMEfgk-w=","tags":{"ref":"143","@source_uri":"https://mini-mart.bg/wp-admin/admin-ajax.php?action=asl_load_stores","@spider":"minimart_bg","shop":"convenience","addr:street":"ул. Ястребец 25","addr:city":"София","addr:country":"BG","website":"https://mini-mart.bg/","opening_hours":"Mo-Su 07:00-22:00","brand":"Minimart","brand:wikidata":"Q119168386","nsi_id":"minimart-854be4"},"coordinates":[42.67004000000001,23.28407]},"dist":9.374,"tags_mismatch":true},{"osm":{"type":"node","id":3130696929,"tags":{"brand":"Minimart","brand:wikidata":"Q119168386","opening_hours":"Mo-Su 07:00-22:00","shop":"convenience"},"wikidata":"Q119168386","coordinates":[42.6720914,23.2889093]},"atp":{"id":"BGtWJ8AD3jybvqXlYoD_CRGEIck=","tags":{"ref":"229","@source_uri":"https://mini-mart.bg/wp-admin/admin-ajax.php?action=asl_load_stores","@spider":"minimart_bg","shop":"convenience","addr:street":"ул. Родопски извор 25","addr:city":"София","addr:country":"BG","website":"https://mini-mart.bg/","opening_hours":"Mo-Su 07:00-22:00","brand":"Minimart","brand:wikidata":"Q119168386","nsi_id":"minimart-854be4"},"coordinates":[42.67216904559969,23.28899332845002]},"dist":11.033,"tags_mismatch":true},{"osm":{"type":"node","id":3365405980,"tags":{"addr:city":"Плевен","addr:housenumber":"2","addr:street":"бул. Русе","brand":"Minimart","brand:wikidata":"Q119168386","check_date":"2024-10-06","email":"customer@mini-mart.bg","internet_access":"no","opening_hours":"07:00-22:00","payment:cash":"yes","payment:credit_cards":"yes","payment:debit_cards":"yes","ref":"5802","shop":"convenience","website":"https://mini-mart.bg","wheelchair":"no"},"wikidata":"Q119168386","coordinates":[43.4113633,24.6218462]},"atp":{"id":"w4ag-6SU2uP4jTLYv9eCLXtIXI8=","tags":{"ref":"195","@source_uri":"https://mini-mart.bg/wp-admin/admin-ajax.php?action=asl_load_stores","@spider":"minimart_bg","shop":"convenience","addr:street":"бул. Русе 2","addr:city":"Плевен","addr:country":"BG","website":"https://mini-mart.bg/","opening_hours":"Mo-Su 07:00-22:00","brand":"Minimart","brand:wikidata":"Q119168386","nsi_id":"minimart-854be4"},"coordinates":[43.411332515397255,24.62179666441802]},"dist":5.266,"tags_mismatch":true},{"osm":{"type":"node","id":3808328321,"tags":{"brand":"Minimart","brand:wikidata":"Q119168386","shop":"convenience"},"wikidata":"Q119168386","coordinates":[42.1424287,24.7648262]},"atp":{"id":"Zf1VVDKmfitYruMZA7DSMVkUISw=","tags":{"ref":"111","@source_uri":"https://mini-mart.bg/wp-admin/admin-ajax.php?action=asl_load_stores","@spider":"minimart_bg","shop":"convenience","addr:street":"ул. Зефир 8","addr:city":"Пловдив","addr:country":"BG","website":"https://mini-mart.bg/","opening_hours":"Mo-Su 08:00-22:00","brand":"Minimart","brand:wikidata":"Q119168386","nsi_id":"minimart-854be4"},"coordinates":[42.14243794169061,24.764935378326438]},"dist":9.06,"tags_mismatch":true},{"osm":{"type":"node","id":4315786648,"tags":{"atm":"yes","brand":"Minimart","brand:wikidata":"Q119168386","shop":"convenience"},"wikidata":"Q119168386","coordinates":[42.6838308,23.3539593]},"atp":{"id":"GBINdIuinufma5jcikvpkEcRZw8=","tags":{"ref":"100","@source_uri":"https://mini-mart.bg/wp-admin/admin-ajax.php?action=asl_load_stores","@spider":"minimart_bg","shop":"convenience","addr:street":"район „Слатина“, ул. „Борис Христов“ № 2А, етаж 1","addr:city":"София","addr:country":"BG","website":"https://mini-mart.bg/","opening_hours":"Mo-Su 07:00-22:00","brand":"Minimart","brand:wikidata":"Q119168386","nsi_id":"minimart-854be4"},"coordinates":[42.68387406004528,23.35382057809067]},"dist":12.317,"tags_mismatch":true},{"osm":{"type":"node","id":4316096618,"tags":{"brand":"Minimart","brand:wikidata":"Q119168386","check_date:opening_hours":"2025-01-10","opening_hours:signed":"no","shop":"convenience"},"wikidata":"Q119168386","coordinates":[42.7026167,23.3249971]},"atp":{"id":"4mgH449K7miWmVDwD3l0dme5Kyo=","tags":{"ref":"132","@source_uri":"https://mini-mart.bg/wp-admin/admin-ajax.php?action=asl_load_stores","@spider":"minimart_bg","shop":"convenience","addr:street":"ул. \"Св. Св. Кирил и методи\" № 72","addr:city":"София","addr:country":"BG","website":"https://mini-mart.bg/","opening_hours":"Mo-Su 07:00-22:00","brand":"Minimart","brand:wikidata":"Q119168386","nsi_id":"minimart-854be4"},"coordinates":[42.702612235559506,23.32504022883607]},"dist":3.559,"tags_mismatch":true},{"osm":{"type":"node","id":4885010602,"tags":{"addr:city":"София","addr:housenumber":"6","addr:postcode":"1407","addr:street":"Плачковица","brand":"Minimart","brand:wikidata":"Q119168386","opening_hours":"Mo-Su,PH 07:00-22:00","shop":"convenience"},"wikidata":"Q119168386","coordinates":[42.670917,23.3262362]},"atp":{"id":"tQUCejPU8iWjyPQcqP0c-oBGcmI=","tags":{"ref":"198","@source_uri":"https://mini-mart.bg/wp-admin/admin-ajax.php?action=asl_load_stores","@spider":"minimart_bg","shop":"convenience","addr:street":"ул. Бигла 30","addr:city":"София","addr:country":"BG","website":"https://mini-mart.bg/","opening_hours":"Mo-Su 07:00-22:00","brand":"Minimart","brand:wikidata":"Q119168386","nsi_id":"minimart-854be4"},"coordinates":[42.6710201,23.3259015]},"dist":29.668,"tags_mismatch":true},{"osm":{"type":"node","id":4947500475,"tags":{"brand":"Minimart","brand:wikidata":"Q119168386","opening_hours":"Mo-Su,PH 07:00-22:00","shop":"convenience"},"wikidata":"Q119168386","coordinates":[42.7021863,23.3228194]},"atp":{"id":"G46RSxkUdiA60c7C41btAtUXhns=","tags":{"ref":"196","@source_uri":"https://mini-mart.bg/wp-admin/admin-ajax.php?action=asl_load_stores","@spider":"minimart_bg","shop":"convenience","addr:street":"бул. Княгиня Мария Луиза 55","addr:city":"София","addr:country":"BG","website":"https://mini-mart.bg/","opening_hours":"Mo-Su 07:00-22:00","brand":"Minimart","brand:wikidata":"Q119168386","nsi_id":"minimart-854be4"},"coordinates":[42.702156,23.3227622]},"dist":5.762,"tags_mismatch":true},{"osm":{"type":"node","id":5186925577,"tags":{"brand":"Minimart","brand:wikidata":"Q119168386","opening_hours":"Mo-Su,PH 07:00-22:00","shop":"convenience"},"wikidata":"Q119168386","coordinates":[42.6998724,23.3346031]},"atp":{"id":"OMHGDpBwbFA3dRLHJQoJuQriR6M=","tags":{"ref":"189","@source_uri":"https://mini-mart.bg/wp-admin/admin-ajax.php?action=asl_load_stores","@spider":"minimart_bg","shop":"convenience","addr:street":"бул. Васил Левски 112","addr:city":"София","addr:country":"BG","website":"https://mini-mart.bg/","opening_hours":"Mo-Su 07:00-22:00","brand":"Minimart","brand:wikidata":"Q119168386","nsi_id":"minimart-854be4"},"coordinates":[42.699818,23.3346861]},"dist":9.088,"tags_mismatch":true},{"osm":{"type":"node","id":5237160412,"tags":{"addr:city":"София","addr:housenumber":"53","addr:street":"бул. Княз Александър Дондуков","brand":"Minimart","brand:wikidata":"Q119168386","opening_hours":"PH,Mo-Su 07:00-22:00","shop":"convenience"},"wikidata":"Q119168386","coordinates":[42.6987539,23.3337372]},"atp":{"id":"71QTH5FBaCQrYyZvi-FF_X00H5k=","tags":{"ref":"76","@source_uri":"https://mini-mart.bg/wp-admin/admin-ajax.php?action=asl_load_stores","@spider":"minimart_bg","shop":"convenience","addr:street":"бул. Княз Александър Дондуков 53","addr:city":"София","addr:country":"BG","website":"https://mini-mart.bg/","opening_hours":"Mo-Su 07:00-22:00","brand":"Minimart","brand:wikidata":"Q119168386","nsi_id":"minimart-854be4"},"coordinates":[42.6985942,23.3336684]},"dist":18.627,"tags_mismatch":true},{"osm":{"type":"node","id":5318625611,"tags":{"addr:city":"София","addr:housenumber":"147","addr:street":"Цар Симеон","addr:unit":"A","brand":"Minimart","brand:wikidata":"Q119168386","shop":"convenience"},"wikidata":"Q119168386","coordinates":[42.7034842,23.3080251]},"atp":{"id":"i566h5uopqBCeTtxowsv8QVLbSU=","tags":{"ref":"96","@source_uri":"https://mini-mart.bg/wp-admin/admin-ajax.php?action=asl_load_stores","@spider":"minimart_bg","shop":"convenience","addr:street":"гр. София, ул. Брегалница № 91","addr:city":"София","addr:country":"BG","website":"https://mini-mart.bg/","opening_hours":"Mo-Su 07:00-22:00","brand":"Minimart","brand:wikidata":"Q119168386","nsi_id":"minimart-854be4"},"coordinates":[42.70346437110832,23.30802632565919]},"dist":2.207,"tags_mismatch":true},{"osm":{"type":"node","id":5395973517,"tags":{"addr:city":"София","addr:postcode":"1606","brand":"Minimart","brand:wikidata":"Q119168386","shop":"convenience"},"wikidata":"Q119168386","coordinates":[42.6927477,23.3098787]},"atp":{"id":"UHNObELY-Y0cFtqN21kWpehFHx0=","tags":{"ref":"138","@source_uri":"https://mini-mart.bg/wp-admin/admin-ajax.php?action=asl_load_stores","@spider":"minimart_bg","shop":"convenience","addr:street":"бул. \"Тотлебен\" № 2","addr:city":"София","addr:country":"BG","website":"https://mini-mart.bg/","opening_hours":"Mo-Su 07:00-22:00","brand":"Minimart","brand:wikidata":"Q119168386","nsi_id":"minimart-854be4"},"coordinates":[42.6926613,23.3098286]},"dist":10.443,"tags_mismatch":true},{"osm":{"type":"node","id":5418395724,"tags":{"brand":"Minimart","brand:wikidata":"Q119168386","opening_hours":"Mo-Su,PH 07:00-22:00","shop":"convenience","wheelchair":"yes"},"wikidata":"Q119168386","coordinates":[42.6951025,23.3155197]},"atp":{"id":"lVwUUNIdy2ZU3nRDOb0HVndvYKw=","tags":{"ref":"77","@source_uri":"https://mini-mart.bg/wp-admin/admin-ajax.php?action=asl_load_stores","@spider":"minimart_bg","shop":"convenience","addr:street":"ул. Алабин 1 / TELLUS Tower","addr:city":"София","addr:country":"BG","website":"https://mini-mart.bg/","opening_hours":"Mo-Su 07:00-22:00","brand":"Minimart","brand:wikidata":"Q119168386","nsi_id":"minimart-854be4"},"coordinates":[42.69501788757723,23.315833486369346]},"dist":27.316,"tags_mismatch":true},{"osm":{"type":"node","id":5699738826,"tags":{"addr:housenumber":"5","addr:street":"Стара планина","brand":"Minimart","brand:wikidata":"Q119168386","opening_hours":"Mo-Su,PH 07:00-22:00","shop":"convenience"},"wikidata":"Q119168386","coordinates":[42.6985279,23.3305186]},"atp":{"id":"Kv9AjaDZcsCUvVVYx6oXB130pR4=","tags":{"ref":"206","@source_uri":"https://mini-mart.bg/wp-admin/admin-ajax.php?action=asl_load_stores","@spider":"minimart_bg","shop":"convenience","addr:street":"Стара планина 5","addr:city":"София","addr:country":"BG","website":"https://mini-mart.bg/","opening_hours":"Mo-Su 07:00-22:00","brand":"Minimart","brand:wikidata":"Q119168386","nsi_id":"minimart-854be4"},"coordinates":[42.6985423,23.3304392]},"dist":6.683,"tags_mismatch":true},{"osm":{"type":"node","id":5754909082,"tags":{"brand":"Minimart","brand:wikidata":"Q119168386","opening_hours":"07:00-22:00","shop":"convenience"},"wikidata":"Q119168386","coordinates":[42.662412,23.2652463]},"atp":{"id":"x2NC-QXEzcGTRUMWWIPEBrHPi9k=","tags":{"ref":"86","@source_uri":"https://mini-mart.bg/wp-admin/admin-ajax.php?action=asl_load_stores","@spider":"minimart_bg","shop":"convenience","addr:street":"ул. Александър С. Пушкин 34, 1618 Павлово","addr:city":"София","addr:country":"BG","website":"https://mini-mart.bg/","opening_hours":"Mo-Su 07:00-22:00","brand":"Minimart","brand:wikidata":"Q119168386","nsi_id":"minimart-854be4"},"coordinates":[42.662343,23.2651929]},"dist":8.828,"tags_mismatch":true},{"osm":{"type":"node","id":5775855731,"tags":{"brand":"Minimart","brand:wikidata":"Q119168386","check_date":"2024-09-02","opening_hours":"07:00-22:00","shop":"convenience"},"wikidata":"Q119168386","coordinates":[42.6995611,23.3295043]},"atp":{"id":"6u2Y3ZvC2aM6ZV9mWrkUgVY4bzg=","tags":{"ref":"133","@source_uri":"https://mini-mart.bg/wp-admin/admin-ajax.php?action=asl_load_stores","@spider":"minimart_bg","shop":"convenience","addr:street":"ул. Георги С. Раковски 68","addr:city":"София","addr:country":"BG","website":"https://mini-mart.bg/","opening_hours":"Mo-Su 07:00-22:00","brand":"Minimart","brand:wikidata":"Q119168386","nsi_id":"minimart-854be4"},"coordinates":[42.69965972396838,23.329442058258074]},"dist":12.089,"tags_mismatch":true},{"osm":{"type":"node","id":5908036470,"tags":{"brand":"Minimart","brand:wikidata":"Q119168386","check_date":"2025-02-13","shop":"convenience"},"wikidata":"Q119168386","coordinates":[42.7050452,23.3177443]},"atp":{"id":"0X9Vad6ydZDLaaC0eY-cmdJu0dM=","tags":{"ref":"232","@source_uri":"https://mini-mart.bg/wp-admin/admin-ajax.php?action=asl_load_stores","@spider":"minimart_bg","shop":"convenience","addr:street":"бул. \"Сливница\" 148","addr:city":"София","addr:country":"BG","website":"https://mini-mart.bg/","opening_hours":"Mo-Su 07:00-22:00","brand":"Minimart","brand:wikidata":"Q119168386","nsi_id":"minimart-854be4"},"coordinates":[42.70498375593518,23.31771807256928]},"dist":7.161,"tags_mismatch":true},{"osm":{"type":"node","id":6024847998,"tags":{"addr:street":"Граф Игнатиев","brand":"Minimart","brand:wikidata":"Q119168386","opening_hours":"PH,Mo-Su 07:00-22:00","shop":"convenience"},"wikidata":"Q119168386","coordinates":[42.688376,23.3289495]},"atp":{"id":"J1L-j0f_yYQ5t73yBZpZWf4U_DA=","tags":{"ref":"99","@source_uri":"https://mini-mart.bg/wp-admin/admin-ajax.php?action=asl_load_stores","@spider":"minimart_bg","shop":"convenience","addr:street":"ул.Граф Игнатиев 41","addr:city":"София","addr:country":"BG","website":"https://mini-mart.bg/","opening_hours":"Mo-Su 07:00-22:00","brand":"Minimart","brand:wikidata":"Q119168386","nsi_id":"minimart-854be4"},"coordinates":[42.68835647996001,23.32888308551942]},"dist":5.846,"tags_mismatch":true},{"osm":{"type":"node","id":6481610300,"tags":{"brand":"Minimart","brand:wikidata":"Q119168386","shop":"convenience"},"wikidata":"Q119168386","coordinates":[42.6860273,23.3135844]},"atp":{"id":"bjEGd-v-SlWg_pYeHs36_3PPaec=","tags":{"ref":"134","@source_uri":"https://mini-mart.bg/wp-admin/admin-ajax.php?action=asl_load_stores","@spider":"minimart_bg","shop":"convenience","addr:street":"ул. Княз Борис I 10","addr:city":"София","addr:country":"BG","website":"https://mini-mart.bg/","opening_hours":"Mo-Su 07:00-22:00","brand":"Minimart","brand:wikidata":"Q119168386","nsi_id":"minimart-854be4"},"coordinates":[42.68597213688173,23.313533876590746]},"dist":7.394,"tags_mismatch":true},{"osm":{"type":"node","id":9871750601,"tags":{"brand":"Minimart","brand:wikidata":"Q119168386","opening_hours":"Mo-Su 08:00-22:00","shop":"convenience","website":"https://mini-mart.bg"},"wikidata":"Q119168386","coordinates":[42.5012159,27.4642741]},"atp":{"id":"IP-zAMyuvoCNec4-fiCnHfAhLl0=","tags":{"ref":"172","@source_uri":"https://mini-mart.bg/wp-admin/admin-ajax.php?action=asl_load_stores","@spider":"minimart_bg","shop":"convenience","addr:street":"ул. Уилям Гладстон 107","addr:city":"Бургас","addr:country":"BG","website":"https://mini-mart.bg/","opening_hours":"Mo-Su 07:00-22:00","brand":"Minimart","brand:wikidata":"Q119168386","nsi_id":"minimart-854be4"},"coordinates":[42.5013605,27.4641659]},"dist":18.363,"tags_mismatch":true},{"osm":{"type":"node","id":10225121817,"tags":{"brand":"Minimart","brand:wikidata":"Q119168386","opening_hours":"PH,Mo-Su 07:00-22:00","shop":"convenience"},"wikidata":"Q119168386","coordinates":[42.678863,23.3109944]},"atp":{"id":"adRlslTGqHbhorDkCnBik7gRFng=","tags":{"ref":"68","@source_uri":"https://mini-mart.bg/wp-admin/admin-ajax.php?action=asl_load_stores","@spider":"minimart_bg","shop":"convenience","addr:street":"бул. „Витоша“ 99","addr:city":"София","addr:postcode":"1408","addr:country":"BG","website":"https://mini-mart.bg/","opening_hours":"Mo-Su 07:00-22:00","brand":"Minimart","brand:wikidata":"Q119168386","nsi_id":"minimart-854be4"},"coordinates":[42.6788357,23.3109455]},"dist":5.019,"tags_mismatch":true},{"osm":{"type":"node","id":10939796151,"tags":{"brand":"Minimart","brand:wikidata":"Q119168386","shop":"convenience"},"wikidata":"Q119168386","coordinates":[42.6749977,23.3174836]},"atp":false,"tags_mismatch":false},{"osm":{"type":"node","id":11022873931,"tags":{"brand":"Minimart","brand:wikidata":"Q119168386","check_date":"2025-02-26","opening_hours":"Mo-Su 07:00-22:00","shop":"convenience"},"wikidata":"Q119168386","coordinates":[42.6763721,23.2851944]},"atp":{"id":"L6HknO5bKUUkYkgn-gn4AbZKER4=","tags":{"ref":"137","@source_uri":"https://mini-mart.bg/wp-admin/admin-ajax.php?action=asl_load_stores","@spider":"minimart_bg","shop":"convenience","addr:street":"ул. \"Хубча\" № 7","addr:city":"София","addr:country":"BG","website":"https://mini-mart.bg/","opening_hours":"Mo-Su 07:00-22:00","brand":"Minimart","brand:wikidata":"Q119168386","nsi_id":"minimart-854be4"},"coordinates":[42.67625462995655,23.28514536441805]},"dist":13.663,"tags_mismatch":true},{"osm":{"type":"node","id":11046193630,"tags":{"brand":"Minimart","brand:wikidata":"Q119168386","check_date":"2024-12-02","opening_hours":"Mo-Su 07:00-22:00","shop":"convenience"},"wikidata":"Q119168386","coordinates":[42.7004521,23.3159117]},"atp":{"id":"K3e3Ati8F8KOSUBe3iC9H0YUkiM=","tags":{"ref":"71","@source_uri":"https://mini-mart.bg/wp-admin/admin-ajax.php?action=asl_load_stores","@spider":"minimart_bg","shop":"convenience","addr:street":"бул. Христо Ботев 75","addr:city":"София","addr:country":"BG","website":"https://mini-mart.bg/","opening_hours":"Mo-Su 07:00-22:00","brand":"Minimart","brand:wikidata":"Q119168386","nsi_id":"minimart-854be4"},"coordinates":[42.70039797717989,23.315949467073064]},"dist":6.763,"tags_mismatch":true},{"osm":{"type":"node","id":11116262162,"tags":{"brand":"Minimart","brand:wikidata":"Q119168386","check_date":"2024-10-29","opening_hours":"Mo-Su, PH 07:00-22:00","shop":"convenience"},"wikidata":"Q119168386","coordinates":[42.686216,23.2993306]},"atp":{"id":"HDXzBGlacIDa52k11NxGD1HvXvs=","tags":{"ref":"66","@source_uri":"https://mini-mart.bg/wp-admin/admin-ajax.php?action=asl_load_stores","@spider":"minimart_bg","shop":"convenience","addr:street":"булевард „Цар Борис III“ 7","addr:city":"София","addr:postcode":"1612","addr:country":"BG","website":"https://mini-mart.bg/","opening_hours":"Mo-Su 07:00-22:00","brand":"Minimart","brand:wikidata":"Q119168386","nsi_id":"minimart-854be4"},"coordinates":[42.6862,23.29942]},"dist":7.521,"tags_mismatch":true},{"osm":{"type":"node","id":11175217544,"tags":{"brand":"Minimart","brand:wikidata":"Q119168386","opening_hours":"PH,Mo-Su 07:00-22:00","shop":"convenience"},"wikidata":"Q119168386","coordinates":[42.6985147,23.3269811]},"atp":{"id":"8FG0iEG72wwY9S4rYl3EEv5sKPI=","tags":{"ref":"80","@source_uri":"https://mini-mart.bg/wp-admin/admin-ajax.php?action=asl_load_stores","@spider":"minimart_bg","shop":"convenience","addr:street":"ул. Бачо Киро 4","addr:city":"София","addr:country":"BG","website":"https://mini-mart.bg/","opening_hours":"Mo-Su 07:00-22:00","brand":"Minimart","brand:wikidata":"Q119168386","nsi_id":"minimart-854be4"},"coordinates":[42.698529,23.3270376]},"dist":4.883,"tags_mismatch":true},{"osm":{"type":"node","id":11175217602,"tags":{"addr:city":"София","addr:housenumber":"11","addr:street":"Проф. Христо Вакарелски","brand":"Minimart","brand:wikidata":"Q119168386","opening_hours":"Mo-Fr,PH 07:00-22:00","shop":"convenience"},"wikidata":"Q119168386","coordinates":[42.6555616,23.3415464]},"atp":{"id":"CuHd5uzidEb746DSkXbxJuXkh5M=","tags":{"ref":"69","@source_uri":"https://mini-mart.bg/wp-admin/admin-ajax.php?action=asl_load_stores","@spider":"minimart_bg","shop":"convenience","addr:street":"ул. проф. Христо Вакарелски 11","addr:city":"София","addr:postcode":"1700","addr:country":"BG","website":"https://mini-mart.bg/","opening_hours":"Mo-Su 07:00-22:00","brand":"Minimart","brand:wikidata":"Q119168386","nsi_id":"minimart-854be4"},"coordinates":[42.655498,23.3415161]},"dist":7.494,"tags_mismatch":true},{"osm":{"type":"node","id":11176573411,"tags":{"addr:city":"София","addr:housenumber":"29","addr:street":"Георги С. Раковски","brand":"Minimart","brand:wikidata":"Q119168386","opening_hours":"Mo-Su, PH 07:00-22:00","shop":"convenience"},"wikidata":"Q119168386","coordinates":[42.7055777,23.3286826]},"atp":{"id":"XMIALXh13C_I0kqBnnGBiz2Spww=","tags":{"ref":"83","@source_uri":"https://mini-mart.bg/wp-admin/admin-ajax.php?action=asl_load_stores","@spider":"minimart_bg","shop":"convenience","addr:street":"ул. „Георги С. Раковски“ 29, 1000","addr:city":"София","addr:country":"BG","website":"https://mini-mart.bg/","opening_hours":"Mo-Su 07:00-22:00","brand":"Minimart","brand:wikidata":"Q119168386","nsi_id":"minimart-854be4"},"coordinates":[42.70590491696794,23.328626291818235]},"dist":36.675,"tags_mismatch":true},{"osm":{"type":"node","id":11181809530,"tags":{"addr:city":"София","addr:housenumber":"37","addr:postcode":"1303","addr:street":"бул. Стефан Стамболов","brand":"Minimart","brand:wikidata":"Q119168386","check_date":"2024-12-06","opening_hours":"Mo-Su, PH 07:00-22:00","shop":"convenience"},"wikidata":"Q119168386","coordinates":[42.7014932,23.3187847]},"atp":{"id":"rh8TL7E3X9EkEZYedvGMfcedI84=","tags":{"ref":"78","@source_uri":"https://mini-mart.bg/wp-admin/admin-ajax.php?action=asl_load_stores","@spider":"minimart_bg","shop":"convenience","addr:street":"бул. \"Стефан Стамболов\" 37, 1303","addr:city":"София","addr:country":"BG","website":"https://mini-mart.bg/","opening_hours":"Mo-Su 07:00-22:00","brand":"Minimart","brand:wikidata":"Q119168386","nsi_id":"minimart-854be4"},"coordinates":[42.7015702,23.3191786]},"dist":33.308,"tags_mismatch":true},{"osm":{"type":"node","id":11240786289,"tags":{"brand":"Minimart","brand:wikidata":"Q119168386","shop":"convenience"},"wikidata":"Q119168386","coordinates":[42.6907911,23.3638479]},"atp":{"id":"IT0cDiTlFIWs6I2zr7TXWnk6r4w=","tags":{"ref":"92","@source_uri":"https://mini-mart.bg/wp-admin/admin-ajax.php?action=asl_load_stores","@spider":"minimart_bg","shop":"convenience","addr:street":"ул. Поп Харитон 1, кв. Редута","addr:city":"София","addr:postcode":"1505","addr:country":"BG","website":"https://mini-mart.bg/","opening_hours":"Mo-Su 07:00-22:00","brand":"Minimart","brand:wikidata":"Q119168386","nsi_id":"minimart-854be4"},"coordinates":[42.69073657798029,23.36391007754822]},"dist":7.911,"tags_mismatch":true},{"osm":{"type":"node","id":11554782953,"tags":{"brand":"Minimart","brand:wikidata":"Q119168386","opening_hours":"07:00-22:00","shop":"convenience"},"wikidata":"Q119168386","coordinates":[42.6764103,23.2893047]},"atp":{"id":"r5SkTRfN4f-L9K4OYqr9doenWmc=","tags":{"ref":"136","@source_uri":"https://mini-mart.bg/wp-admin/admin-ajax.php?action=asl_load_stores","@spider":"minimart_bg","shop":"convenience","addr:street":"ул. Воринo 32","addr:city":"София","addr:country":"BG","website":"https://mini-mart.bg/","opening_hours":"Mo-Su 07:00-22:00","brand":"Minimart","brand:wikidata":"Q119168386","nsi_id":"minimart-854be4"},"coordinates":[42.676437540877316,23.28934303348543]},"dist":4.358,"tags_mismatch":true},{"osm":{"type":"node","id":11627114558,"tags":{"brand":"Minimart","brand:wikidata":"Q119168386","opening_hours":"07:00-22:00","shop":"convenience"},"wikidata":"Q119168386","coordinates":[42.6687016,23.2996471]},"atp":{"id":"qZgihBqdtm_rUvItO3Ej8XnnoQE=","tags":{"ref":"97","@source_uri":"https://mini-mart.bg/wp-admin/admin-ajax.php?action=asl_load_stores","@spider":"minimart_bg","shop":"convenience","addr:street":"ул. Бадемова Гора № 22","addr:city":"София","addr:country":"BG","website":"https://mini-mart.bg/","opening_hours":"Mo-Su 07:00-22:00","brand":"Minimart","brand:wikidata":"Q119168386","nsi_id":"minimart-854be4"},"coordinates":[42.66880846726263,23.299929357025135]},"dist":25.957,"tags_mismatch":true},{"osm":{"type":"node","id":11644952932,"tags":{"brand":"Minimart","brand:wikidata":"Q119168386","check_date":"2025-03-22","opening_hours":"07:00-22:00","shop":"convenience"},"wikidata":"Q119168386","coordinates":[42.6795788,23.3601348]},"atp":false,"tags_mismatch":false},{"osm":{"type":"node","id":11672631900,"tags":{"brand":"Minimart","brand:wikidata":"Q119168386","opening_hours":"Mo-Su,PH 07:00-22:00","shop":"convenience"},"wikidata":"Q119168386","coordinates":[42.6639931,23.3558529]},"atp":{"id":"x6-13Rg3EOQL9pYUPrpkLDxP8ts=","tags":{"ref":"104","@source_uri":"https://mini-mart.bg/wp-admin/admin-ajax.php?action=asl_load_stores","@spider":"minimart_bg","shop":"convenience","addr:street":"ж.к. „Дианабад“, бул. \"Драган Цанков\" № 59-63, вх. А, ет. 1, обект 1","addr:city":"София","addr:country":"BG","website":"https://mini-mart.bg/","opening_hours":"Mo-Su 07:00-22:00","brand":"Minimart","brand:wikidata":"Q119168386","nsi_id":"minimart-854be4"},"coordinates":[42.664422798414286,23.354658766006462]},"dist":108.703,"tags_mismatch":true},{"osm":{"type":"node","id":11764719144,"tags":{"brand":"Minimart","brand:wikidata":"Q119168386","check_date":"2024-09-05","opening_hours":"07:00-22:00","shop":"convenience"},"wikidata":"Q119168386","coordinates":[42.6738493,23.2977934]},"atp":{"id":"q85iePWIT3QG7ppqqrNsmptEBNA=","tags":{"ref":"87","@source_uri":"https://mini-mart.bg/wp-admin/admin-ajax.php?action=asl_load_stores","@spider":"minimart_bg","shop":"convenience","addr:street":"ул. Нишава 107, 1408 ж.к. Стрелбище","addr:city":"София","addr:country":"BG","website":"https://mini-mart.bg/","opening_hours":"Mo-Su 07:00-22:00","brand":"Minimart","brand:wikidata":"Q119168386","nsi_id":"minimart-854be4"},"coordinates":[42.67422848019487,23.29792400531005]},"dist":43.494,"tags_mismatch":true},{"osm":{"type":"node","id":11850637268,"tags":{"brand":"Minimart","brand:wikidata":"Q119168386","opening_hours":"Mo-Su,PH 07:00-22:00","shop":"convenience"},"wikidata":"Q119168386","coordinates":[42.64746,23.3825979]},"atp":{"id":"XvMLEjMv1OSgGcKE8yMqJr-UWV4=","tags":{"ref":"89","@source_uri":"https://mini-mart.bg/wp-admin/admin-ajax.php?action=asl_load_stores","@spider":"minimart_bg","shop":"convenience","addr:street":"ж.к. Младост 1 А, ул. Кръстьо Раковски 564","addr:city":"София","addr:country":"BG","website":"https://mini-mart.bg/","opening_hours":"Mo-Su 07:00-22:00","brand":"Minimart","brand:wikidata":"Q119168386","nsi_id":"minimart-854be4"},"coordinates":[42.64765350860397,23.382109951867672]},"dist":45.339,"tags_mismatch":true},{"osm":{"type":"node","id":11898331042,"tags":{"brand":"Minimart","brand:wikidata":"Q119168386","opening_hours":"Mo-Su,PH 07:00-22:00","shop":"convenience"},"wikidata":"Q119168386","coordinates":[42.6548309,23.3299284]},"atp":{"id":"9zS5QhHHM0OKbjOpRoEUIN01YfM=","tags":{"ref":"125","@source_uri":"https://mini-mart.bg/wp-admin/admin-ajax.php?action=asl_load_stores","@spider":"minimart_bg","shop":"convenience","addr:street":"ул. \"Могилата\" № 12","addr:city":"София","addr:country":"BG","website":"https://mini-mart.bg/","opening_hours":"Mo-Su 07:00-22:00","brand":"Minimart","brand:wikidata":"Q119168386","nsi_id":"minimart-854be4"},"coordinates":[42.654776628119905,23.329948581159215]},"dist":6.256,"tags_mismatch":true},{"osm":{"type":"node","id":11898365143,"tags":{"brand":"Minimart","brand:wikidata":"Q119168386","opening_hours":"07:00-22:00","shop":"convenience"},"wikidata":"Q119168386","coordinates":[42.6464612,23.328576]},"atp":{"id":"yDWMFbSHnOzgPbALNR5JTQnN0zk=","tags":{"ref":"93","@source_uri":"https://mini-mart.bg/wp-admin/admin-ajax.php?action=asl_load_stores","@spider":"minimart_bg","shop":"convenience","addr:street":"ул. Георги Райчев 21","addr:city":"София","addr:country":"BG","website":"https://mini-mart.bg/","opening_hours":"Mo-Su 07:00-22:00","brand":"Minimart","brand:wikidata":"Q119168386","nsi_id":"minimart-854be4"},"coordinates":[42.6465046447917,23.328639129843918]},"dist":7.071,"tags_mismatch":true},{"osm":{"type":"node","id":11922752937,"tags":{"brand":"Minimart","brand:wikidata":"Q119168386","check_date":"2024-11-01","opening_hours":"07:00-22:00","shop":"convenience"},"wikidata":"Q119168386","coordinates":[42.6890146,23.3142741]},"atp":{"id":"5nrcMQxjd2xN1SbYHsq20iGsVCI=","tags":{"ref":"131","@source_uri":"https://mini-mart.bg/wp-admin/admin-ajax.php?action=asl_load_stores","@spider":"minimart_bg","shop":"convenience","addr:street":"бул. \"Генерал Скобелев\" № 35","addr:city":"София","addr:country":"BG","website":"https://mini-mart.bg/","opening_hours":"Mo-Su 07:00-22:00","brand":"Minimart","brand:wikidata":"Q119168386","nsi_id":"minimart-854be4"},"coordinates":[42.6890003,23.3142656]},"dist":1.735,"tags_mismatch":true},{"osm":{"type":"node","id":11982667115,"tags":{"brand":"Minimart","brand:wikidata":"Q119168386","opening_hours":"Mo-Su,PH 07:00-22:00","shop":"convenience"},"wikidata":"Q119168386","coordinates":[42.6385571,23.3659868]},"atp":{"id":"2vYjbIi6Bsv-2m4nwEiPRmyncYE=","tags":{"ref":"122","@source_uri":"https://mini-mart.bg/wp-admin/admin-ajax.php?action=asl_load_stores","@spider":"minimart_bg","shop":"convenience","addr:street":"ж.к. Младост 2, бл. 280","addr:city":"София","addr:country":"BG","website":"https://mini-mart.bg/","opening_hours":"Mo-Su 07:00-22:00","brand":"Minimart","brand:wikidata":"Q119168386","nsi_id":"minimart-854be4"},"coordinates":[42.63819729999999,23.3660096]},"dist":40.051,"tags_mismatch":true},{"osm":{"type":"node","id":11985173726,"tags":{"brand":"Minimart","brand:wikidata":"Q119168386","opening_hours":"Mo-Su,PH 07:00-22:00","shop":"convenience"},"wikidata":"Q119168386","coordinates":[42.6481575,23.3714387]},"atp":{"id":"wXCtoyvjFS15CqnC3EEqRpqrnsQ=","tags":{"ref":"135","@source_uri":"https://mini-mart.bg/wp-admin/admin-ajax.php?action=asl_load_stores","@spider":"minimart_bg","shop":"convenience","addr:street":"ж.к. \"Младост 2\", бл. 257","addr:city":"София","addr:country":"BG","website":"https://mini-mart.bg/","opening_hours":"Mo-Su 07:00-22:00","brand":"Minimart","brand:wikidata":"Q119168386","nsi_id":"minimart-854be4"},"coordinates":[42.648175023925255,23.371450005487823]},"dist":2.157,"tags_mismatch":true},{"osm":{"type":"node","id":11993653717,"tags":{"brand":"Minimart","brand:wikidata":"Q119168386","opening_hours":"Mo-Su,PH 07:00-22:00","shop":"convenience"},"wikidata":"Q119168386","coordinates":[42.6688517,23.3471242]},"atp":{"id":"Vu25Z9KrQJgetsOtfoq5BAmPmt0=","tags":{"ref":"98","@source_uri":"https://mini-mart.bg/wp-admin/admin-ajax.php?action=asl_load_stores","@spider":"minimart_bg","shop":"convenience","addr:street":"гр. София, ул. Елемаг 22","addr:city":"София","addr:country":"BG","website":"https://mini-mart.bg/","opening_hours":"Mo-Su 07:00-22:00","brand":"Minimart","brand:wikidata":"Q119168386","nsi_id":"minimart-854be4"},"coordinates":[42.66876217245663,23.346999677734377]},"dist":14.239,"tags_mismatch":true},{"osm":{"type":"node","id":11993665871,"tags":{"brand":"Minimart","brand:wikidata":"Q119168386","opening_hours":"Mo-Su,PH 07:00-22:00","shop":"convenience"},"wikidata":"Q119168386","coordinates":[42.7041196,23.329665]},"atp":{"id":"TQ1OKBt6snYiuFilPt-3KQDfHsY=","tags":{"ref":"124","@source_uri":"https://mini-mart.bg/wp-admin/admin-ajax.php?action=asl_load_stores","@spider":"minimart_bg","shop":"convenience","addr:street":"ул. Ангиста 192","addr:city":"София","addr:country":"BG","website":"https://mini-mart.bg/","opening_hours":"Mo-Su 07:00-22:00","brand":"Minimart","brand:wikidata":"Q119168386","nsi_id":"minimart-854be4"},"coordinates":[42.70429682718579,23.32968685772218]},"dist":19.788,"tags_mismatch":true},{"osm":{"type":"node","id":11994604382,"tags":{"brand":"Minimart","brand:wikidata":"Q119168386","opening_hours":"Mo-Su,PH 07:00-22:00","shop":"convenience","source":"https://www.mapillary.com/app/?pKey=295920900235965"},"wikidata":"Q119168386","coordinates":[42.6890636,23.3167461]},"atp":{"id":"_A5uMHYb1t0V7Khfe-uE-3QXJog=","tags":{"ref":"75","@source_uri":"https://mini-mart.bg/wp-admin/admin-ajax.php?action=asl_load_stores","@spider":"minimart_bg","shop":"convenience","addr:street":"Бул. Патриарх Евтимий 61","addr:city":"София","addr:country":"BG","website":"https://mini-mart.bg/","opening_hours":"Mo-Su 07:00-22:00","brand":"Minimart","brand:wikidata":"Q119168386","nsi_id":"minimart-854be4"},"coordinates":[42.6890168,23.3166757]},"dist":7.758,"tags_mismatch":true},{"osm":{"type":"node","id":12028788802,"tags":{"brand":"Minimart","brand:wikidata":"Q119168386","shop":"convenience"},"wikidata":"Q119168386","coordinates":[42.1321247,24.7858872]},"atp":{"id":"aZFKkGKXeGSNWzUyfOxBctISfcU=","tags":{"ref":"159","@source_uri":"https://mini-mart.bg/wp-admin/admin-ajax.php?action=asl_load_stores","@spider":"minimart_bg","shop":"convenience","addr:street":"ул. Тракия 142","addr:city":"Пловдив","addr:country":"BG","website":"https://mini-mart.bg/","opening_hours":"Mo-Su 08:00-22:00","brand":"Minimart","brand:wikidata":"Q119168386","nsi_id":"minimart-854be4"},"coordinates":[42.13218929080188,24.785858054086283]},"dist":7.574,"tags_mismatch":true},{"osm":{"type":"node","id":12078838574,"tags":{"brand":"Minimart","brand:wikidata":"Q119168386","check_date":"2024-10-15","opening_hours":"Mo-Su,PH 07:00-22:00","shop":"convenience"},"wikidata":"Q119168386","coordinates":[42.6753182,23.3094149]},"atp":{"id":"UiPrpyLF_OO6SdMpa-Fti-dY-Sk=","tags":{"ref":"127","@source_uri":"https://mini-mart.bg/wp-admin/admin-ajax.php?action=asl_load_stores","@spider":"minimart_bg","shop":"convenience","addr:street":"бул. Витоша № 133","addr:city":"София","addr:country":"BG","website":"https://mini-mart.bg/","opening_hours":"Mo-Su 07:00-22:00","brand":"Minimart","brand:wikidata":"Q119168386","nsi_id":"minimart-854be4"},"coordinates":[42.675305,23.3094936]},"dist":6.599,"tags_mismatch":true},{"osm":{"type":"node","id":12162301686,"tags":{"addr:city":"София","addr:housenumber":"104","addr:postcode":"1404","addr:street":"Боянски водопад","brand":"Minimart","brand:wikidata":"Q119168386","opening_hours":"07:00-22:00","payment:cash":"yes","payment:diners_club":"yes","payment:discover_card":"yes","payment:mastercard":"yes","payment:visa_debit":"yes","payment:visa_electron":"no","shop":"convenience","website":"https://mini-mart.bg"},"wikidata":"Q119168386","coordinates":[42.6616038,23.2930826]},"atp":{"id":"ZAycnRAJxtXbcZIb8k1DUqa03wo=","tags":{"ref":"147","@source_uri":"https://mini-mart.bg/wp-admin/admin-ajax.php?action=asl_load_stores","@spider":"minimart_bg","shop":"convenience","addr:street":"ул. \"Боянски водопад\" № 104","addr:city":"София","addr:country":"BG","website":"https://mini-mart.bg/","opening_hours":"Mo-Su 07:00-22:00","brand":"Minimart","brand:wikidata":"Q119168386","nsi_id":"minimart-854be4"},"coordinates":[42.661328503542755,23.29293573809816]},"dist":32.883,"tags_mismatch":true},{"osm":{"type":"node","id":12162307132,"tags":{"brand":"Minimart","brand:wikidata":"Q119168386","shop":"convenience"},"wikidata":"Q119168386","coordinates":[42.6972364,23.3146729]},"atp":{"id":"DrGMysdl95BYZ8CGRCJQiRJjYFc=","tags":{"ref":"145","@source_uri":"https://mini-mart.bg/wp-admin/admin-ajax.php?action=asl_load_stores","@spider":"minimart_bg","shop":"convenience","addr:street":"ул. 'Марко Балабанов' № 1","addr:city":"София","addr:country":"BG","website":"https://mini-mart.bg/","opening_hours":"Mo-Su 07:00-22:00","brand":"Minimart","brand:wikidata":"Q119168386","nsi_id":"minimart-854be4"},"coordinates":[42.6972072,23.3142448]},"dist":35.136,"tags_mismatch":true},{"osm":{"type":"node","id":12169993470,"tags":{"addr:housenumber":"бл. 109Б","addr:place":"ж.к. Младост 1","brand":"Minimart","brand:wikidata":"Q119168386","check_date":"2025-03-14","level":"0","opening_hours":"Mo-Su,PH 07:00-22:00","payment:cash":"yes","payment:credit_cards":"yes","payment:debit_cards":"yes","shop":"convenience","wheelchair":"no"},"wikidata":"Q119168386","coordinates":[42.6635748,23.3634904]},"atp":{"id":"o5E7bFEJsKcYytcmOhq2YlcsQAI=","tags":{"ref":"142","@source_uri":"https://mini-mart.bg/wp-admin/admin-ajax.php?action=asl_load_stores","@spider":"minimart_bg","shop":"convenience","addr:street":"ж.к. Младост 1, ул. Методи Андонов 110","addr:city":"София","addr:country":"BG","website":"https://mini-mart.bg/","opening_hours":"Mo-Su 07:00-22:00","brand":"Minimart","brand:wikidata":"Q119168386","nsi_id":"minimart-854be4"},"coordinates":[42.66353279600301,23.36347392623903]},"dist":4.861,"tags_mismatch":true},{"osm":{"type":"node","id":12240668019,"tags":{"brand":"Minimart","brand:wikidata":"Q119168386","shop":"convenience"},"wikidata":"Q119168386","coordinates":[42.6847524,23.2481789]},"atp":{"id":"u8-mhr4gup7zMcfB0cZCoCD2dYc=","tags":{"ref":"95","@source_uri":"https://mini-mart.bg/wp-admin/admin-ajax.php?action=asl_load_stores","@spider":"minimart_bg","shop":"convenience","addr:street":"гр. София, кв. Овча Купел 2, бл. 49","addr:city":"София","addr:country":"BG","website":"https://mini-mart.bg/","opening_hours":"Mo-Su 07:00-22:00","brand":"Minimart","brand:wikidata":"Q119168386","nsi_id":"minimart-854be4"},"coordinates":[42.68456264919934,23.248717648379507]},"dist":48.83,"tags_mismatch":true},{"osm":{"type":"node","id":12259451520,"tags":{"brand":"Minimart","brand:wikidata":"Q119168386","mapillary":"977624433958373","shop":"convenience"},"wikidata":"Q119168386","coordinates":[42.1238837,24.723794]},"atp":{"id":"4Wzj9r_nPV5VuD0meOl3RqAUmdY=","tags":{"ref":"114","@source_uri":"https://mini-mart.bg/wp-admin/admin-ajax.php?action=asl_load_stores","@spider":"minimart_bg","shop":"convenience","addr:street":"бул. Александър Стамболийски 101","addr:city":"Пловдив","addr:country":"BG","website":"https://mini-mart.bg/","opening_hours":"Mo-Su 08:00-22:00","brand":"Minimart","brand:wikidata":"Q119168386","nsi_id":"minimart-854be4"},"coordinates":[42.1239347,24.7237569]},"dist":6.444,"tags_mismatch":true},{"osm":{"type":"node","id":12269143729,"tags":{"brand":"Minimart","brand:wikidata":"Q119168386","opening_hours":"Mo-Su,PH 07:00-22:00","shop":"convenience"},"wikidata":"Q119168386","coordinates":[42.6931324,23.3255702]},"atp":{"id":"HgevXHpyWvghDxvuu3Iq0ykyFSQ=","tags":{"ref":"140","@source_uri":"https://mini-mart.bg/wp-admin/admin-ajax.php?action=asl_load_stores","@spider":"minimart_bg","shop":"convenience","addr:street":"ул. \"Ген. Йосиф В. Гурко\" № 10","addr:city":"София","addr:country":"BG","website":"https://mini-mart.bg/","opening_hours":"Mo-Su 07:00-22:00","brand":"Minimart","brand:wikidata":"Q119168386","nsi_id":"minimart-854be4"},"coordinates":[42.693167866932534,23.32567745075762]},"dist":9.612,"tags_mismatch":true},{"osm":{"type":"node","id":12290580212,"tags":{"brand":"Minimart","brand:wikidata":"Q119168386","opening_hours":"Mo-Su,PH 07:00-22:00","shop":"convenience"},"wikidata":"Q119168386","coordinates":[42.652226,23.3134447]},"atp":{"id":"pTMHNKEPds1gMYiiOBaqI_w3-54=","tags":{"ref":"187","@source_uri":"https://mini-mart.bg/wp-admin/admin-ajax.php?action=asl_load_stores","@spider":"minimart_bg","shop":"convenience","addr:street":"ул. Ген. Иван Колев 23","addr:city":"София","addr:country":"BG","website":"https://mini-mart.bg/","opening_hours":"Mo-Su 07:00-22:00","brand":"Minimart","brand:wikidata":"Q119168386","nsi_id":"minimart-854be4"},"coordinates":[42.65210889999999,23.3134046]},"dist":13.428,"tags_mismatch":true},{"osm":{"type":"node","id":12323065197,"tags":{"brand":"Minimart","brand:wikidata":"Q119168386","shop":"convenience"},"wikidata":"Q119168386","coordinates":[42.1457473,24.7634502]},"atp":{"id":"yrqskjW0Pl5ATskjKXafzxyriDY=","tags":{"ref":"192","@source_uri":"https://mini-mart.bg/wp-admin/admin-ajax.php?action=asl_load_stores","@spider":"minimart_bg","shop":"convenience","addr:street":"бул. Източен 44","addr:city":"Пловдив","addr:country":"BG","website":"https://mini-mart.bg/","opening_hours":"Mo-Su 08:00-22:00","brand":"Minimart","brand:wikidata":"Q119168386","nsi_id":"minimart-854be4"},"coordinates":[42.145754,24.763604]},"dist":12.702,"tags_mismatch":true},{"osm":{"type":"node","id":12323065198,"tags":{"brand":"Minimart","brand:wikidata":"Q119168386","shop":"convenience"},"wikidata":"Q119168386","coordinates":[42.1350796,24.7593185]},"atp":{"id":"xjd75ELzE8KMdlBD4AI5NvlWqj0=","tags":{"ref":"107","@source_uri":"https://mini-mart.bg/wp-admin/admin-ajax.php?action=asl_load_stores","@spider":"minimart_bg","shop":"convenience","addr:street":"кв. Съдийски, ул. Хаджи Поптилев №1","addr:city":"Пловдив","addr:country":"BG","website":"https://mini-mart.bg/","opening_hours":"Mo-Su 08:00-22:00","brand":"Minimart","brand:wikidata":"Q119168386","nsi_id":"minimart-854be4"},"coordinates":[42.1349879,24.7593222]},"dist":10.201,"tags_mismatch":true},{"osm":{"type":"node","id":12386691830,"tags":{"brand":"Minimart","brand:wikidata":"Q119168386","opening_hours":"Mo-Su 07:00-22:00","shop":"convenience"},"wikidata":"Q119168386","coordinates":[42.7009013,23.3126365]},"atp":{"id":"KXhlXRaBAljZKboDIAKliIvFtp4=","tags":{"ref":"188","@source_uri":"https://mini-mart.bg/wp-admin/admin-ajax.php?action=asl_load_stores","@spider":"minimart_bg","shop":"convenience","addr:street":"ул. Пиротска 64","addr:city":"София","addr:country":"BG","website":"https://mini-mart.bg/","opening_hours":"Mo-Su 07:00-22:00","brand":"Minimart","brand:wikidata":"Q119168386","nsi_id":"minimart-854be4"},"coordinates":[42.7010728,23.3127487]},"dist":21.16,"tags_mismatch":true},{"osm":{"type":"node","id":12400234739,"tags":{"brand":"Minimart","brand:wikidata":"Q119168386","shop":"convenience"},"wikidata":"Q119168386","coordinates":[42.4915481,27.4734081]},"atp":{"id":"4uMqnS6s-jLxoW9tJjRzuhGdDSA=","tags":{"ref":"164","@source_uri":"https://mini-mart.bg/wp-admin/admin-ajax.php?action=asl_load_stores","@spider":"minimart_bg","shop":"convenience","addr:street":"ул. Александровска 1","addr:city":"Бургас","addr:country":"BG","website":"https://mini-mart.bg/","opening_hours":"Mo-Su 07:00-22:00","brand":"Minimart","brand:wikidata":"Q119168386","nsi_id":"minimart-854be4"},"coordinates":[42.4915039,27.473495]},"dist":8.656,"tags_mismatch":true},{"osm":{"type":"node","id":12691519803,"tags":{"brand":"Minimart","brand:wikidata":"Q119168386","check_date":"2025-03-22","shop":"convenience"},"wikidata":"Q119168386","coordinates":[42.6747209,23.3613151]},"atp":{"id":"-DtHgmj_MtMfwhcxUNzm2gn9U0I=","tags":{"ref":"238","@source_uri":"https://mini-mart.bg/wp-admin/admin-ajax.php?action=asl_load_stores","@spider":"minimart_bg","shop":"convenience","addr:street":"ул. Прелом 2","addr:city":"София","addr:country":"BG","website":"https://mini-mart.bg/","opening_hours":"Mo-Su 07:00-22:00","brand":"Minimart","brand:wikidata":"Q119168386","nsi_id":"minimart-854be4"},"coordinates":[42.674793,23.3613312]},"dist":8.124,"tags_mismatch":true},{"osm":false,"atp":false,"tags_mismatch":false,"dist":0},{"osm":false,"atp":false,"tags_mismatch":false,"dist":0},{"osm":false,"atp":false,"tags_mismatch":false,"dist":0},{"osm":false,"atp":false,"tags_mismatch":false,"dist":0},{"osm":false,"atp":false,"tags_mismatch":false,"dist":0},{"osm":false,"atp":false,"tags_mismatch":false,"dist":0},{"osm":false,"atp":false,"tags_mismatch":false,"dist":0},{"osm":false,"atp":false,"tags_mismatch":false,"dist":0},{"osm":false,"atp":false,"tags_mismatch":false,"dist":0},{"osm":false,"atp":false,"tags_mismatch":false,"dist":0},{"osm":false,"atp":{"id":"urUw7XWlLB6y3dgCyuzb25czWig=","tags":{"ref":"79","shop":"convenience","addr:street":"ул. \"Зографски манастир\" 15, 1309 ж.к. Илинден","addr:city":"София","addr:country":"BG","name":"Minimart","website":"https://mini-mart.bg/","opening_hours":"Mo-Su 07:00-22:00","brand":"Minimart","brand:wikidata":"Q119168386"},"coordinates":[42.70619076403996,23.293114793670647]},"tags_mismatch":false,"dist":0},{"osm":false,"atp":false,"tags_mismatch":false,"dist":0},{"osm":false,"atp":{"id":"HCk7umrQMkQ9k75SxK6c4bivKyU=","tags":{"ref":"82","shop":"convenience","addr:street":"ул. Димитър Петков 64, 1309 Света Троица","addr:city":"София","addr:country":"BG","name":"Minimart","website":"https://mini-mart.bg/","opening_hours":"Mo-Su 07:00-22:00","brand":"Minimart","brand:wikidata":"Q119168386"},"coordinates":[42.7029658,23.3007157]},"tags_mismatch":false,"dist":0},{"osm":false,"atp":false,"tags_mismatch":false,"dist":0},{"osm":false,"atp":{"id":"1ef7D6LiZOM1Skw6Axptnpo4vHU=","tags":{"ref":"84","shop":"convenience","addr:street":"ул. \"Кумановски бой\" 12, 1229 ж.к. Надежда 3, София","addr:city":"София","addr:country":"BG","name":"Minimart","website":"https://mini-mart.bg/","opening_hours":"Mo-Su 07:00-22:00","brand":"Minimart","brand:wikidata":"Q119168386"},"coordinates":[42.73132319601568,23.2922448648346]},"tags_mismatch":false,"dist":0},{"osm":false,"atp":{"id":"LlK9OrVPdyOeKtomw3GPrGkKycQ=","tags":{"ref":"85","shop":"convenience","addr:street":"ж.к. Банишора, ул. „Опълченска“ 42","addr:city":"София","addr:country":"BG","name":"Minimart","website":"https://mini-mart.bg/","opening_hours":"Mo-Su 07:00-22:00","brand":"Minimart","brand:wikidata":"Q119168386"},"coordinates":[42.7086202,23.3129274]},"tags_mismatch":false,"dist":0},{"osm":false,"atp":false,"tags_mismatch":false,"dist":0},{"osm":false,"atp":false,"tags_mismatch":false,"dist":0},{"osm":false,"atp":false,"tags_mismatch":false,"dist":0},{"osm":false,"atp":false,"tags_mismatch":false,"dist":0},{"osm":false,"atp":{"id":"9HF5FZ6UJr1Km0Hqzlm0Lokv6JU=","tags":{"ref":"90","shop":"convenience","addr:street":"пл. Възраждане, етаж 1","addr:city":"Пазарджик","addr:country":"BG","name":"Minimart","website":"https://mini-mart.bg/","opening_hours":"Mo-Su 07:00-22:00","brand":"Minimart","brand:wikidata":"Q119168386"},"coordinates":[42.189569674831546,24.33351799737549]},"tags_mismatch":false,"dist":0},{"osm":false,"atp":false,"tags_mismatch":false,"dist":0},{"osm":false,"atp":false,"tags_mismatch":false,"dist":0},{"osm":false,"atp":false,"tags_mismatch":false,"dist":0},{"osm":false,"atp":false,"tags_mismatch":false,"dist":0},{"osm":false,"atp":false,"tags_mismatch":false,"dist":0},{"osm":false,"atp":false,"tags_mismatch":false,"dist":0},{"osm":false,"atp":false,"tags_mismatch":false,"dist":0},{"osm":false,"atp":false,"tags_mismatch":false,"dist":0},{"osm":false,"atp":false,"tags_mismatch":false,"dist":0},{"osm":false,"atp":{"id":"xeYcdh3WfwFvB_Aw9-9SgLQHgew=","tags":{"ref":"101","shop":"convenience","addr:street":"бул. \"Ботевградско шосе\" № 118, блок № 111, вход А","addr:city":"София","addr:country":"BG","name":"Minimart","website":"https://mini-mart.bg/","opening_hours":"Mo-Su 07:00-22:00","brand":"Minimart","brand:wikidata":"Q119168386"},"coordinates":[42.70016601639216,23.372615155324556]},"tags_mismatch":false,"dist":0},{"osm":false,"atp":{"id":"OexWIyrOa-EMJexIA_UVovdU8wE=","tags":{"ref":"102","shop":"convenience","addr:street":"ж.к. \"Надежда\", бл. 172, вх. Е, ет. 1","addr:city":"София","addr:country":"BG","name":"Minimart","website":"https://mini-mart.bg/","opening_hours":"Mo-Su 07:00-22:00","brand":"Minimart","brand:wikidata":"Q119168386"},"coordinates":[42.727261358253756,23.30082214529421]},"tags_mismatch":false,"dist":0},{"osm":false,"atp":false,"tags_mismatch":false,"dist":0},{"osm":false,"atp":{"id":"DFjE3tNyetFsWOxYT1uriyqeJ4U=","tags":{"ref":"105","shop":"convenience","addr:street":"бул. 6-ти септември 186","addr:city":"Пловдив","addr:country":"BG","name":"Minimart","website":"https://mini-mart.bg/","opening_hours":"Mo-Su 08:00-22:00","brand":"Minimart","brand:wikidata":"Q119168386"},"coordinates":[42.14767583713333,24.730902046986557]},"tags_mismatch":false,"dist":0},{"osm":false,"atp":{"id":"vBIMRUBv6hxA7D6bRmHBnBcFVM0=","tags":{"ref":"106","shop":"convenience","addr:street":"ул. Мортагон 5","addr:city":"Пловдив","addr:country":"BG","name":"Minimart","website":"https://mini-mart.bg/","opening_hours":"Mo-Su 08:00-22:00","brand":"Minimart","brand:wikidata":"Q119168386"},"coordinates":[42.1516732,24.7591524]},"tags_mismatch":false,"dist":0},{"osm":false,"atp":false,"tags_mismatch":false,"dist":0},{"osm":false,"atp":false,"tags_mismatch":false,"dist":0},{"osm":false,"atp":{"id":"FKrTRl7t1exjEmlKJl1gw9FNJMI=","tags":{"ref":"109","shop":"convenience","addr:street":"бул. Цар Борис III Обединител 137","addr:city":"Пловдив","addr:country":"BG","name":"Minimart","website":"https://mini-mart.bg/","opening_hours":"Mo-Su 08:00-22:00","brand":"Minimart","brand:wikidata":"Q119168386"},"coordinates":[42.1377954,24.7519062]},"tags_mismatch":false,"dist":0},{"osm":false,"atp":{"id":"wAqOfrpuxP_z7hNz5ecW2SiyPdM=","tags":{"ref":"110","shop":"convenience","addr:street":"ул. Гладстон 74","addr:city":"Пловдив","addr:country":"BG","name":"Minimart","website":"https://mini-mart.bg/","opening_hours":"Mo-Su 08:00-22:00","brand":"Minimart","brand:wikidata":"Q119168386"},"coordinates":[42.141685,24.739184]},"tags_mismatch":false,"dist":0},{"osm":false,"atp":false,"tags_mismatch":false,"dist":0},{"osm":false,"atp":{"id":"1ueDW24D8FfghBuGA3gOSUhu5GM=","tags":{"ref":"112","shop":"convenience","addr:street":"ул. Георги Икономов 31","addr:city":"Пловдив","addr:country":"BG","name":"Minimart","website":"https://mini-mart.bg/","opening_hours":"Mo-Su 08:00-22:00","brand":"Minimart","brand:wikidata":"Q119168386"},"coordinates":[42.123765654700364,24.729409032293688]},"tags_mismatch":false,"dist":0},{"osm":false,"atp":{"id":"GZrANu4J49NUsOhLMbSVmcENmdc=","tags":{"ref":"113","shop":"convenience","addr:street":"ул. Димитър Цончев № 3","addr:city":"Пловдив","addr:country":"BG","name":"Minimart","website":"https://mini-mart.bg/","opening_hours":"Mo-Su 08:00-22:00","brand":"Minimart","brand:wikidata":"Q119168386"},"coordinates":[42.15065715417507,24.743375464834607]},"tags_mismatch":false,"dist":0},{"osm":false,"atp":false,"tags_mismatch":false,"dist":0},{"osm":false,"atp":{"id":"aEbBGHXNiI2ZRi-YQYUDRZ5b0Xg=","tags":{"ref":"116","shop":"convenience","addr:street":"ул. Петко Каравелов 18","addr:city":"Пловдив","addr:country":"BG","name":"Minimart","website":"https://mini-mart.bg/","opening_hours":"Mo-Su 08:00-22:00","brand":"Minimart","brand:wikidata":"Q119168386"},"coordinates":[42.15001448460799,24.746213756475086]},"tags_mismatch":false,"dist":0},{"osm":false,"atp":{"id":"JrxgC1FVk09TK1MMGLmROxayuCg=","tags":{"ref":"117","shop":"convenience","addr:street":"бул. Дунав 5","addr:city":"Пловдив","addr:country":"BG","name":"Minimart","website":"https://mini-mart.bg/","opening_hours":"Mo-Su 08:00-22:00","brand":"Minimart","brand:wikidata":"Q119168386"},"coordinates":[42.163023740658765,24.73669715874939]},"tags_mismatch":false,"dist":0},{"osm":false,"atp":{"id":"LeHEs30e-OClbLhTqcabfwHIGqs=","tags":{"ref":"118","shop":"convenience","addr:street":"бул. Патриарх Евтимий 61","addr:city":"София","addr:country":"BG","name":"Minimart","website":"https://mini-mart.bg/","opening_hours":"Mo-Su 07:00-22:00","brand":"Minimart","brand:wikidata":"Q119168386"},"coordinates":[42.6890168,23.3166757]},"tags_mismatch":false,"dist":0},{"osm":false,"atp":{"id":"ME5kapUwN9GpwgQwtOezGvse0GE=","tags":{"ref":"119","shop":"convenience","addr:street":"ул. Велчо Атанасов 8","addr:city":"София","addr:country":"BG","name":"Minimart","website":"https://mini-mart.bg/","opening_hours":"Mo-Su 07:00-22:00","brand":"Minimart","brand:wikidata":"Q119168386"},"coordinates":[42.6955353270734,23.360514095827387]},"tags_mismatch":false,"dist":0},{"osm":false,"atp":{"id":"DY2aMrkc6OD3tj83-t3ep60i8dk=","tags":{"ref":"121","shop":"convenience","addr:street":"ул. Калиманци 75","addr:city":"София","addr:country":"BG","name":"Minimart","website":"https://mini-mart.bg/","opening_hours":"Mo-Su 07:00-22:00","brand":"Minimart","brand:wikidata":"Q119168386"},"coordinates":[42.6874091,23.3630584]},"tags_mismatch":false,"dist":0},{"osm":false,"atp":false,"tags_mismatch":false,"dist":0},{"osm":false,"atp":false,"tags_mismatch":false,"dist":0},{"osm":false,"atp":false,"tags_mismatch":false,"dist":0},{"osm":false,"atp":{"id":"t3YpU9SgeAByyESwofMEuye0J4E=","tags":{"ref":"126","shop":"convenience","addr:street":"бул. „проф. Цветан Лазаров“ № 126","addr:city":"София","addr:country":"BG","name":"Minimart","website":"https://mini-mart.bg/","opening_hours":"Mo-Su 07:00-22:00","brand":"Minimart","brand:wikidata":"Q119168386"},"coordinates":[42.65131651706507,23.405334040544876]},"tags_mismatch":false,"dist":0},{"osm":false,"atp":false,"tags_mismatch":false,"dist":0},{"osm":false,"atp":{"id":"fmLQc8kjOJDOZgqvn-6QbyE5PAw=","tags":{"ref":"128","shop":"convenience","addr:street":"ул. \"Проф. Иван Шишманов\" № 9","addr:city":"София","addr:country":"BG","name":"Minimart","website":"https://mini-mart.bg/","opening_hours":"Mo-Su 07:00-22:00","brand":"Minimart","brand:wikidata":"Q119168386"},"coordinates":[42.71013869999999,23.3588794]},"tags_mismatch":false,"dist":0},{"osm":false,"atp":{"id":"6pbBoVerTOZX6eIA98dGlLN_m0M=","tags":{"ref":"130","shop":"convenience","addr:street":"бул. \"Мария Луиза\" № 99","addr:city":"София","addr:country":"BG","name":"Minimart","website":"https://mini-mart.bg/","opening_hours":"Mo-Su 07:00-22:00","brand":"Minimart","brand:wikidata":"Q119168386"},"coordinates":[42.70624979999999,23.3230803]},"tags_mismatch":false,"dist":0},{"osm":false,"atp":false,"tags_mismatch":false,"dist":0},{"osm":false,"atp":false,"tags_mismatch":false,"dist":0},{"osm":false,"atp":false,"tags_mismatch":false,"dist":0},{"osm":false,"atp":false,"tags_mismatch":false,"dist":0},{"osm":false,"atp":false,"tags_mismatch":false,"dist":0},{"osm":false,"atp":false,"tags_mismatch":false,"dist":0},{"osm":false,"atp":false,"tags_mismatch":false,"dist":0},{"osm":false,"atp":false,"tags_mismatch":false,"dist":0},{"osm":false,"atp":{"id":"3MlnaT4wsZ3eIlmEfPujmzRzwC0=","tags":{"ref":"139","shop":"convenience","addr:street":"ул. \"Крум Кюлявков\" № 15","addr:city":"София","addr:country":"BG","name":"Minimart","website":"https://mini-mart.bg/","opening_hours":"Mo-Su 07:00-22:00","brand":"Minimart","brand:wikidata":"Q119168386"},"coordinates":[42.662426,23.3524597]},"tags_mismatch":false,"dist":0},{"osm":false,"atp":false,"tags_mismatch":false,"dist":0},{"osm":false,"atp":{"id":"NiR7R6EfonHrzNeZ74F394epGCg=","tags":{"ref":"141","shop":"convenience","addr:street":"ул. „Илинденско въстание“ 69","addr:city":"София","addr:country":"BG","name":"Minimart","website":"https://mini-mart.bg/","opening_hours":"Mo-Su 07:00-22:00","brand":"Minimart","brand:wikidata":"Q119168386"},"coordinates":[42.728631651403646,23.295522843055743]},"tags_mismatch":false,"dist":0},{"osm":false,"atp":false,"tags_mismatch":false,"dist":0},{"osm":false,"atp":false,"tags_mismatch":false,"dist":0},{"osm":false,"atp":{"id":"hBNJnGrHM5ifN3q4YHcwCJwjmgE=","tags":{"ref":"144","shop":"convenience","addr:street":"кв. Полигона, бл. 43","addr:city":"София","addr:country":"BG","name":"Minimart","website":"https://mini-mart.bg/","opening_hours":"Mo-Su 07:00-22:00","brand":"Minimart","brand:wikidata":"Q119168386"},"coordinates":[42.6626856,23.3820971]},"tags_mismatch":false,"dist":0},{"osm":false,"atp":false,"tags_mismatch":false,"dist":0},{"osm":false,"atp":{"id":"trDL1ii1ESPtZgU9J7HuPpktm6E=","tags":{"ref":"146","shop":"convenience","addr:street":"Тихи кът 12","addr:city":"София","addr:country":"BG","name":"Minimart","website":"https://mini-mart.bg/","opening_hours":"Mo-Su 07:00-22:00","brand":"Minimart","brand:wikidata":"Q119168386"},"coordinates":[42.67704,23.2349035]},"tags_mismatch":false,"dist":0},{"osm":false,"atp":false,"tags_mismatch":false,"dist":0},{"osm":false,"atp":{"id":"vbzumlU_OmvJYUoJNYTlFVFIriU=","tags":{"ref":"148","shop":"convenience","addr:street":"Константин Величков 57","addr:city":"София","addr:country":"BG","name":"Minimart","website":"https://mini-mart.bg/","opening_hours":"Mo-Su 07:00-22:00","brand":"Minimart","brand:wikidata":"Q119168386"},"coordinates":[42.70363,23.2984125]},"tags_mismatch":false,"dist":0},{"osm":false,"atp":{"id":"C_D4oVp3FGA0-Zk3UcGlKnulNyA=","tags":{"ref":"149","shop":"convenience","addr:street":"ж.к. Люлин бл. 645","addr:city":"София","addr:country":"BG","name":"Minimart","website":"https://mini-mart.bg/","opening_hours":"Mo-Su 07:00-22:00","brand":"Minimart","brand:wikidata":"Q119168386"},"coordinates":[42.71143458227601,23.250501930818945]},"tags_mismatch":false,"dist":0},{"osm":false,"atp":{"id":"Xt37jdX5kgyJ1J2lQTtp8oVAYFI=","tags":{"ref":"150","shop":"convenience","addr:street":"бул. Христо Ботев 61","addr:city":"Пловдив","addr:country":"BG","name":"Minimart","website":"https://mini-mart.bg/","opening_hours":"Mo-Su 08:00-22:00","brand":"Minimart","brand:wikidata":"Q119168386"},"coordinates":[42.1361883,24.7501293]},"tags_mismatch":false,"dist":0},{"osm":false,"atp":{"id":"Jxga3MUvu0D67JnX-aJiKC9AH-w=","tags":{"ref":"151","shop":"convenience","addr:street":"Петко Д. Петков 38","addr:city":"Пловдив","addr:country":"BG","name":"Minimart","website":"https://mini-mart.bg/","opening_hours":"Mo-Su 08:00-22:00","brand":"Minimart","brand:wikidata":"Q119168386"},"coordinates":[42.1406159,24.7554902]},"tags_mismatch":false,"dist":0},{"osm":false,"atp":{"id":"tLR8cc4O8Am4BkF6R9PkOrnXcl4=","tags":{"ref":"152","shop":"convenience","addr:street":"бул. 6-ти Септември 104","addr:city":"Пловдив","addr:country":"BG","name":"Minimart","website":"https://mini-mart.bg/","opening_hours":"Mo-Su 08:00-22:00","brand":"Minimart","brand:wikidata":"Q119168386"},"coordinates":[42.14767575914713,24.730826003704856]},"tags_mismatch":false,"dist":0},{"osm":false,"atp":{"id":"nHswMj_WFzHrZNP-mmd4CIwsGM8=","tags":{"ref":"153","shop":"convenience","addr:street":"ул. Перущица 8","addr:city":"Пловдив","addr:country":"BG","name":"Minimart","website":"https://mini-mart.bg/","opening_hours":"Mo-Su 08:00-22:00","brand":"Minimart","brand:wikidata":"Q119168386"},"coordinates":[42.1411783,24.7189126]},"tags_mismatch":false,"dist":0},{"osm":false,"atp":{"id":"vPABB7CZl8ZDTKl31FiSEgHdzy4=","tags":{"ref":"154","shop":"convenience","addr:street":"бул. Руски 11","addr:city":"Пловдив","addr:country":"BG","name":"Minimart","website":"https://mini-mart.bg/","opening_hours":"Mo-Su 08:00-22:00","brand":"Minimart","brand:wikidata":"Q119168386"},"coordinates":[42.151205198437616,24.739701509227388]},"tags_mismatch":false,"dist":0},{"osm":false,"atp":{"id":"HN-gmKIMO6IOEPn705Nv3nZ1isM=","tags":{"ref":"155","shop":"convenience","addr:street":"ул. Иван Вазов 47","addr:city":"Пловдив","addr:country":"BG","name":"Minimart","website":"https://mini-mart.bg/","opening_hours":"Mo-Su 08:00-22:00","brand":"Minimart","brand:wikidata":"Q119168386"},"coordinates":[42.1373699,24.7443692]},"tags_mismatch":false,"dist":0},{"osm":false,"atp":{"id":"O_gG6GALN5xc2Rc5HBgkDdyVZr8=","tags":{"ref":"156","shop":"convenience","addr:street":"Надежда 2","addr:city":"Пловдив","addr:country":"BG","name":"Minimart","website":"https://mini-mart.bg/","opening_hours":"Mo-Su 08:00-22:00","brand":"Minimart","brand:wikidata":"Q119168386"},"coordinates":[42.1225126,24.6869235]},"tags_mismatch":false,"dist":0},{"osm":false,"atp":{"id":"vVuJZKnpcZAsSwV4WiBFsfmQGKM=","tags":{"ref":"157","shop":"convenience","addr:street":"ул. Райко Даскалов 57","addr:city":"Пловдив","addr:country":"BG","name":"Minimart","website":"https://mini-mart.bg/","opening_hours":"Mo-Su 08:00-22:00","brand":"Minimart","brand:wikidata":"Q119168386"},"coordinates":[42.1515948,24.7461199]},"tags_mismatch":false,"dist":0},{"osm":false,"atp":{"id":"3ZQwNMsCjHkO2Z8KpBQ-i9kMiDo=","tags":{"ref":"158","shop":"convenience","addr:street":"ул. Авксентий Велешки 9","addr:city":"Пловдив","addr:country":"BG","name":"Minimart","website":"https://mini-mart.bg/","opening_hours":"Mo-Su 08:00-22:00","brand":"Minimart","brand:wikidata":"Q119168386"},"coordinates":[42.1411698,24.7433938]},"tags_mismatch":false,"dist":0},{"osm":false,"atp":false,"tags_mismatch":false,"dist":0},{"osm":false,"atp":{"id":"Y6UrjJFZAX5RIiHfCrqA4a7q5H0=","tags":{"ref":"160","shop":"convenience","addr:street":"ул. Смилево 12","addr:city":"Пловдив","addr:country":"BG","name":"Minimart","website":"https://mini-mart.bg/","opening_hours":"Mo-Su 08:00-22:00","brand":"Minimart","brand:wikidata":"Q119168386"},"coordinates":[42.1263152,24.7513782]},"tags_mismatch":false,"dist":0},{"osm":false,"atp":{"id":"mEybq-gPqcM31N_fLnrQNL7Ismw=","tags":{"ref":"161","shop":"convenience","addr:street":"ул. Победа 22","addr:city":"Пловдив","addr:country":"BG","name":"Minimart","website":"https://mini-mart.bg/","opening_hours":"Mo-Su 08:00-22:00","brand":"Minimart","brand:wikidata":"Q119168386"},"coordinates":[42.1566941,24.7387196]},"tags_mismatch":false,"dist":0},{"osm":false,"atp":false,"tags_mismatch":false,"dist":0},{"osm":false,"atp":{"id":"Omzi3CCu_ziF5tJe5COL5vFTKX8=","tags":{"ref":"163","shop":"convenience","addr:street":"ж.к. Славейков бл.125","addr:city":"Бургас","addr:country":"BG","name":"Minimart","website":"https://mini-mart.bg/","opening_hours":"Mo-Su 07:00-22:00","brand":"Minimart","brand:wikidata":"Q119168386"},"coordinates":[42.5213714,27.4538324]},"tags_mismatch":false,"dist":0},{"osm":false,"atp":false,"tags_mismatch":false,"dist":0},{"osm":false,"atp":{"id":"mq00vwEes7VG2H_nfQUdl4l6F5c=","tags":{"ref":"165","shop":"convenience","addr:street":"ул. Св. Св. Кирил и Методий 55","addr:city":"Бургас","addr:country":"BG","name":"Minimart","website":"https://mini-mart.bg/","opening_hours":"Mo-Su 07:00-22:00","brand":"Minimart","brand:wikidata":"Q119168386"},"coordinates":[42.4987311,27.4785541]},"tags_mismatch":false,"dist":0},{"osm":false,"atp":{"id":"I9QywCxmmsxc5rurS7h7_nCox9k=","tags":{"ref":"166","shop":"convenience","addr:street":"ул. д-р Нидер 13","addr:city":"Бургас","addr:country":"BG","name":"Minimart","website":"https://mini-mart.bg/","opening_hours":"Mo-Su 07:00-22:00","brand":"Minimart","brand:wikidata":"Q119168386"},"coordinates":[42.4924632,27.477326]},"tags_mismatch":false,"dist":0},{"osm":false,"atp":{"id":"i8s43badcah3Y5SHSasZEwDFxjM=","tags":{"ref":"167","shop":"convenience","addr:street":"ж.к. Зорница, бл. 86","addr:city":"Бургас","addr:country":"BG","name":"Minimart","website":"https://mini-mart.bg/","opening_hours":"Mo-Su 07:00-22:00","brand":"Minimart","brand:wikidata":"Q119168386"},"coordinates":[42.52198000063995,27.466425067736807]},"tags_mismatch":false,"dist":0},{"osm":false,"atp":{"id":"rDbt37AHSUE5JLTT2ECGjwA7_bE=","tags":{"ref":"168","shop":"convenience","addr:street":"ул. Места 46","addr:city":"Бургас","addr:country":"BG","name":"Minimart","website":"https://mini-mart.bg/","opening_hours":"Mo-Su 07:00-22:00","brand":"Minimart","brand:wikidata":"Q119168386"},"coordinates":[42.5056199,27.4689194]},"tags_mismatch":false,"dist":0},{"osm":false,"atp":{"id":"ZMMbyCCgA6qZMKMf0JpgbIpbuDk=","tags":{"ref":"169","shop":"convenience","addr:street":"ул. Пробуда 85","addr:city":"Бургас","addr:country":"BG","name":"Minimart","website":"https://mini-mart.bg/","opening_hours":"Mo-Su 07:00-22:00","brand":"Minimart","brand:wikidata":"Q119168386"},"coordinates":[42.4988554,27.4623946]},"tags_mismatch":false,"dist":0},{"osm":false,"atp":{"id":"H8fHVSL6r4F5JTacGWdgqu2nNHw=","tags":{"ref":"170","shop":"convenience","addr:street":"ул. Славянска 67","addr:city":"Бургас","addr:country":"BG","name":"Minimart","website":"https://mini-mart.bg/","opening_hours":"Mo-Su 07:00-22:00","brand":"Minimart","brand:wikidata":"Q119168386"},"coordinates":[42.4958659,27.4751158]},"tags_mismatch":false,"dist":0},{"osm":false,"atp":{"id":"7kWxm27adRGRW7Nv_7XdnZO66-8=","tags":{"ref":"171","shop":"convenience","addr:street":"ул. Цар Симеон I 131","addr:city":"Бургас","addr:country":"BG","name":"Minimart","website":"https://mini-mart.bg/","opening_hours":"Mo-Su 07:00-22:00","brand":"Minimart","brand:wikidata":"Q119168386"},"coordinates":[42.50253750867314,27.470738228836044]},"tags_mismatch":false,"dist":0},{"osm":false,"atp":false,"tags_mismatch":false,"dist":0},{"osm":false,"atp":{"id":"Zd60XtviueWPYmdpxuiIl8P21tc=","tags":{"ref":"173","shop":"convenience","addr:street":"ж.к. Меден рудник, бл. 236","addr:city":"Бургас","addr:country":"BG","name":"Minimart","website":"https://mini-mart.bg/","opening_hours":"Mo-Su 07:00-22:00","brand":"Minimart","brand:wikidata":"Q119168386"},"coordinates":[42.4526372,27.4129394]},"tags_mismatch":false,"dist":0},{"osm":false,"atp":{"id":"Qc88esS0Sk1JXZWWBZ92fk7oTQU=","tags":{"ref":"174","shop":"convenience","addr:street":"ул. Стефан Караджа 48","addr:city":"Пазарджик","addr:country":"BG","name":"Minimart","website":"https://mini-mart.bg/","opening_hours":"Mo-Su 07:00-22:00","brand":"Minimart","brand:wikidata":"Q119168386"},"coordinates":[42.1917583,24.3426023]},"tags_mismatch":false,"dist":0},{"osm":false,"atp":{"id":"z_az5r90RGUdDV-aeX4weRxW2D4=","tags":{"ref":"175","shop":"convenience","addr:street":"ул. Йордан Ненов 32","addr:city":"Пазарджик","addr:country":"BG","name":"Minimart","website":"https://mini-mart.bg/","opening_hours":"Mo-Su 07:00-22:00","brand":"Minimart","brand:wikidata":"Q119168386"},"coordinates":[42.1863612,24.3288248]},"tags_mismatch":false,"dist":0},{"osm":false,"atp":{"id":"9PoasEL3lhEBVjOgHXPF8qynwi0=","tags":{"ref":"176","shop":"convenience","addr:street":"ул. Цар Шишман 12","addr:city":"Пазарджик","addr:country":"BG","name":"Minimart","website":"https://mini-mart.bg/","opening_hours":"Mo-Su 07:00-22:00","brand":"Minimart","brand:wikidata":"Q119168386"},"coordinates":[42.1880815,24.3331943]},"tags_mismatch":false,"dist":0},{"osm":false,"atp":{"id":"vhvhUss10rkeZBBuQdgqg3RdtAk=","tags":{"ref":"177","shop":"convenience","addr:street":"ул. Иван Вазов 4","addr:city":"Пазарджик","addr:country":"BG","name":"Minimart","website":"https://mini-mart.bg/","opening_hours":"Mo-Su 07:00-22:00","brand":"Minimart","brand:wikidata":"Q119168386"},"coordinates":[42.1930337,24.3326343]},"tags_mismatch":false,"dist":0},{"osm":false,"atp":{"id":"BCMwHmgf1Wzaqw8IeieQJEYmMA8=","tags":{"ref":"178","shop":"convenience","addr:street":"ул. Кокиче 1","addr:city":"Пазарджик","addr:country":"BG","name":"Minimart","website":"https://mini-mart.bg/","opening_hours":"Mo-Su 07:00-22:00","brand":"Minimart","brand:wikidata":"Q119168386"},"coordinates":[42.1918906,24.3187987]},"tags_mismatch":false,"dist":0},{"osm":false,"atp":{"id":"sOR3MK-jots8pdLLJDU5lrsWNzI=","tags":{"ref":"179","shop":"convenience","addr:street":"ул. Найчо Цанов 11","addr:city":"Перник","addr:country":"BG","name":"Minimart","website":"https://mini-mart.bg/","opening_hours":"Mo-Su 07:00-22:00","brand":"Minimart","brand:wikidata":"Q119168386"},"coordinates":[42.602131,23.0285827]},"tags_mismatch":false,"dist":0},{"osm":false,"atp":{"id":"B89IFK3X313iJau1OOQ9ksDv_C0=","tags":{"ref":"180","shop":"convenience","addr:street":"ул. Кракра 68","addr:city":"Перник","addr:country":"BG","name":"Minimart","website":"https://mini-mart.bg/","opening_hours":"Mo-Su 07:00-22:00","brand":"Minimart","brand:wikidata":"Q119168386"},"coordinates":[42.5987057,23.0243561]},"tags_mismatch":false,"dist":0},{"osm":false,"atp":{"id":"Iy2mEKBQXaboXejK2WtsbgrQfXk=","tags":{"ref":"181","shop":"convenience","addr:street":"ул. Благой Гебрев 26","addr:city":"Перник","addr:country":"BG","name":"Minimart","website":"https://mini-mart.bg/","opening_hours":"Mo-Su 07:00-22:00","brand":"Minimart","brand:wikidata":"Q119168386"},"coordinates":[42.60612323895397,23.105190362565597]},"tags_mismatch":false,"dist":0},{"osm":false,"atp":{"id":"SBW8SE36vStUAXX7nrKAmVQ2pOM=","tags":{"ref":"182","shop":"convenience","addr:street":"ул. Търговска 30","addr:city":"Перник","addr:country":"BG","name":"Minimart","website":"https://mini-mart.bg/","opening_hours":"Mo-Su 07:00-22:00","brand":"Minimart","brand:wikidata":"Q119168386"},"coordinates":[42.6037131,23.0299559]},"tags_mismatch":false,"dist":0},{"osm":false,"atp":{"id":"CKwStWYcBssZOqW4EE3WeOua06Q=","tags":{"ref":"183","shop":"convenience","addr:street":"ул. Хан Аспарух 13","addr:city":"Асеновград","addr:country":"BG","name":"Minimart","website":"https://mini-mart.bg/","opening_hours":"Mo-Su 07:00-22:00","brand":"Minimart","brand:wikidata":"Q119168386"},"coordinates":[42.0153136,24.8809733]},"tags_mismatch":false,"dist":0},{"osm":false,"atp":{"id":"jSgoQwJlwHu1hOS01lRWKivQ7p0=","tags":{"ref":"184","shop":"convenience","addr:street":"ул. Христо Ботев 15","addr:city":"Асеновград","addr:country":"BG","name":"Minimart","website":"https://mini-mart.bg/","opening_hours":"Mo-Su 07:00-22:00","brand":"Minimart","brand:wikidata":"Q119168386"},"coordinates":[42.0061247,24.8828904]},"tags_mismatch":false,"dist":0},{"osm":false,"atp":{"id":"EMAuwIF3tjs8DRFPPOE7DC_5Gyg=","tags":{"ref":"185","shop":"convenience","addr:street":"ул. Цар Симеон 13","addr:city":"Плевен","addr:country":"BG","name":"Minimart","website":"https://mini-mart.bg/","opening_hours":"Mo-Su 07:00-22:00","brand":"Minimart","brand:wikidata":"Q119168386"},"coordinates":[43.4097733,24.6199816]},"tags_mismatch":false,"dist":0},{"osm":false,"atp":{"id":"ZtnjZQZTjzCsIIVJSaUdMBajnXk=","tags":{"ref":"186","shop":"convenience","addr:street":"ул. Свежест 9","addr:city":"Нови Искър","addr:country":"BG","name":"Minimart","website":"https://mini-mart.bg/","opening_hours":"Mo-Su 07:00-22:00","brand":"Minimart","brand:wikidata":"Q119168386"},"coordinates":[42.82812231848608,23.354969759083552]},"tags_mismatch":false,"dist":0},{"osm":false,"atp":false,"tags_mismatch":false,"dist":0},{"osm":false,"atp":false,"tags_mismatch":false,"dist":0},{"osm":false,"atp":false,"tags_mismatch":false,"dist":0},{"osm":false,"atp":{"id":"532ATWF_MmDBXXRw9xvEX16o6FA=","tags":{"ref":"190","shop":"convenience","addr:street":"бул. България 140","addr:city":"Пловдив","addr:country":"BG","name":"Minimart","website":"https://mini-mart.bg/","opening_hours":"Mo-Su 08:00-22:00","brand":"Minimart","brand:wikidata":"Q119168386"},"coordinates":[42.15983190000001,24.7412237]},"tags_mismatch":false,"dist":0},{"osm":false,"atp":{"id":"-58g3RET4sS4kEMpOvDJ2jY-RHo=","tags":{"ref":"191","shop":"convenience","addr:street":"бул. Цар Борис III Обединител 22","addr:city":"Пловдив","addr:country":"BG","name":"Minimart","website":"https://mini-mart.bg/","opening_hours":"Mo-Su 08:00-22:00","brand":"Minimart","brand:wikidata":"Q119168386"},"coordinates":[42.1594662,24.7479819]},"tags_mismatch":false,"dist":0},{"osm":false,"atp":false,"tags_mismatch":false,"dist":0},{"osm":false,"atp":{"id":"kpK4y-BCT_iMM9Y5h_jGRXLyqyU=","tags":{"ref":"193","shop":"convenience","addr:street":"ж.к. Изгрев, бл. 111","addr:city":"Бургас","addr:country":"BG","name":"Minimart","website":"https://mini-mart.bg/","opening_hours":"Mo-Su 07:00-22:00","brand":"Minimart","brand:wikidata":"Q119168386"},"coordinates":[42.52395120000001,27.4651524]},"tags_mismatch":false,"dist":0},{"osm":false,"atp":{"id":"R0Q7WTEWa9tgtsLsMqfTmNr3-yE=","tags":{"ref":"194","shop":"convenience","addr:street":"ул. Подп. Калитин 57","addr:city":"Стара Загора","addr:country":"BG","name":"Minimart","website":"https://mini-mart.bg/","opening_hours":"Mo-Su 07:00-22:00","brand":"Minimart","brand:wikidata":"Q119168386"},"coordinates":[42.4285523,25.6438077]},"tags_mismatch":false,"dist":0},{"osm":false,"atp":false,"tags_mismatch":false,"dist":0},{"osm":false,"atp":false,"tags_mismatch":false,"dist":0},{"osm":false,"atp":{"id":"_J4_sARKaE3pK6x3aWVPkgGzgRI=","tags":{"ref":"197","shop":"convenience","addr:street":"ул. Нишава 165","addr:city":"София","addr:country":"BG","name":"Minimart","website":"https://mini-mart.bg/","opening_hours":"Mo-Su 07:00-22:00","brand":"Minimart","brand:wikidata":"Q119168386"},"coordinates":[42.67019519999999,23.3027263]},"tags_mismatch":false,"dist":0},{"osm":false,"atp":false,"tags_mismatch":false,"dist":0},{"osm":false,"atp":{"id":"s8B0hhAEPZUs5IRPGysN18eDV8E=","tags":{"ref":"199","shop":"convenience","addr:street":"ул. Ильо Войвода 47","addr:city":"София","addr:country":"BG","name":"Minimart","website":"https://mini-mart.bg/","opening_hours":"Mo-Su 07:00-22:00","brand":"Minimart","brand:wikidata":"Q119168386"},"coordinates":[42.702658353326385,23.347388606082145]},"tags_mismatch":false,"dist":0},{"osm":false,"atp":{"id":"bBTN8Sr30Ynzo8YSx0zsduFQ3-0=","tags":{"ref":"200","shop":"convenience","addr:street":"ул. Лазо Войвода 31","addr:city":"Пловдив","addr:country":"BG","name":"Minimart","website":"https://mini-mart.bg/","opening_hours":"Mo-Su 08:00-22:00","brand":"Minimart","brand:wikidata":"Q119168386"},"coordinates":[42.127214,24.7452895]},"tags_mismatch":false,"dist":0},{"osm":false,"atp":{"id":"Nk8A6D4NcXiuuZJeeYoKHi6BHMM=","tags":{"ref":"201","shop":"convenience","addr:street":"ул. Рая 11","addr:city":"Пловдив","addr:country":"BG","name":"Minimart","website":"https://mini-mart.bg/","opening_hours":"Mo-Su 08:00-22:00","brand":"Minimart","brand:wikidata":"Q119168386"},"coordinates":[42.13561349771893,24.706645425131242]},"tags_mismatch":false,"dist":0},{"osm":false,"atp":{"id":"dRpYc6DWIk6pAMgOvh2dVMC4iXo=","tags":{"ref":"202","shop":"convenience","addr:street":"ул. Христо Ботев 14","addr:city":"Стара Загора","addr:country":"BG","name":"Minimart","website":"https://mini-mart.bg/","opening_hours":"Mo-Su 07:00-22:00","brand":"Minimart","brand:wikidata":"Q119168386"},"coordinates":[42.41962420000001,25.6175634]},"tags_mismatch":false,"dist":0},{"osm":false,"atp":{"id":"Og6TC7TAE2zsgnj076AXx0iTm7g=","tags":{"ref":"203","shop":"convenience","addr:street":"ул. Христо Ботев 123","addr:city":"Стара Загора","addr:country":"BG","name":"Minimart","website":"https://mini-mart.bg/","opening_hours":"Mo-Su 07:00-22:00","brand":"Minimart","brand:wikidata":"Q119168386"},"coordinates":[42.4224837,25.6306413]},"tags_mismatch":false,"dist":0},{"osm":false,"atp":{"id":"9mKJ51RShQOJ4nR9dX88E9uNsmE=","tags":{"ref":"204","shop":"convenience","addr:street":"Цар Иван Асен II 15","addr:city":"Асеновград","addr:country":"BG","name":"Minimart","website":"https://mini-mart.bg/","opening_hours":"Mo-Su 07:00-22:00","brand":"Minimart","brand:wikidata":"Q119168386"},"coordinates":[42.0085086,24.8773159]},"tags_mismatch":false,"dist":0},{"osm":false,"atp":{"id":"q_x19dxPe_aabST7G6LFuj4u8kQ=","tags":{"ref":"205","shop":"convenience","addr:street":"ул. Трифон Кунев 7","addr:city":"Плевен","addr:country":"BG","name":"Minimart","website":"https://mini-mart.bg/","opening_hours":"Mo-Su 07:00-22:00","brand":"Minimart","brand:wikidata":"Q119168386"},"coordinates":[43.412372,24.6339346]},"tags_mismatch":false,"dist":0},{"osm":false,"atp":false,"tags_mismatch":false,"dist":0},{"osm":false,"atp":{"id":"if3CNftvX6weSRgXn3ep3Cv-5A8=","tags":{"ref":"207","shop":"convenience","addr:street":"бул. Мадрид 40","addr:city":"София","addr:country":"BG","name":"Minimart","website":"https://mini-mart.bg/","opening_hours":"Mo-Su 07:00-22:00","brand":"Minimart","brand:wikidata":"Q119168386"},"coordinates":[42.6964836,23.3513153]},"tags_mismatch":false,"dist":0},{"osm":false,"atp":{"id":"7GqgVP5frfxDzNV5Q09Dvz6vmdg=","tags":{"ref":"208","shop":"convenience","addr:street":"Дмитрий Лихачов 31","addr:city":"София","addr:country":"BG","name":"Minimart","website":"https://mini-mart.bg/","opening_hours":"Mo-Su 07:00-22:00","brand":"Minimart","brand:wikidata":"Q119168386"},"coordinates":[42.74304819614566,23.275074371163946]},"tags_mismatch":false,"dist":0},{"osm":false,"atp":{"id":"OynbTe4TW_EXgjMV42xupaYnEbA=","tags":{"ref":"209","shop":"convenience","addr:street":"Ангел Войвода 63","addr:city":"София","addr:country":"BG","name":"Minimart","website":"https://mini-mart.bg/","opening_hours":"Mo-Su 07:00-22:00","brand":"Minimart","brand:wikidata":"Q119168386"},"coordinates":[42.70743415179934,23.356808382209024]},"tags_mismatch":false,"dist":0},{"osm":false,"atp":{"id":"odQ3JRuJtLZJSgPxIbUE-aPF67o=","tags":{"ref":"210","shop":"convenience","addr:street":"ул. Орион 31","addr:city":"София","addr:country":"BG","name":"Minimart","website":"https://mini-mart.bg/","opening_hours":"Mo-Su 07:00-22:00","brand":"Minimart","brand:wikidata":"Q119168386"},"coordinates":[42.715709413997224,23.275450301010878]},"tags_mismatch":false,"dist":0},{"osm":false,"atp":{"id":"iV3fD1W7KIS7DUTy2VkOJpzNVNQ=","tags":{"ref":"211","shop":"convenience","addr:street":"ул. Ген. Данаил Николаев 83","addr:city":"Пловдив","addr:country":"BG","name":"Minimart","website":"https://mini-mart.bg/","opening_hours":"Mo-Su 08:00-22:00","brand":"Minimart","brand:wikidata":"Q119168386"},"coordinates":[42.1461765,24.7325928]},"tags_mismatch":false,"dist":0},{"osm":false,"atp":{"id":"cC3d-bCcMqmS6P3Acm-JTowXzyo=","tags":{"ref":"212","shop":"convenience","addr:street":"ул. Хан Аспарух 19","addr:city":"Пловдив","addr:country":"BG","name":"Minimart","website":"https://mini-mart.bg/","opening_hours":"Mo-Su 08:00-22:00","brand":"Minimart","brand:wikidata":"Q119168386"},"coordinates":[42.143296,24.7567123]},"tags_mismatch":false,"dist":0},{"osm":false,"atp":{"id":"BooBsaiPgPsckjPcYzQnA-xjIKc=","tags":{"ref":"213","shop":"convenience","addr:street":"ул. Белград 20","addr:city":"Пловдив","addr:country":"BG","name":"Minimart","website":"https://mini-mart.bg/","opening_hours":"Mo-Su 08:00-22:00","brand":"Minimart","brand:wikidata":"Q119168386"},"coordinates":[42.1570415,24.7458422]},"tags_mismatch":false,"dist":0},{"osm":false,"atp":{"id":"ibOb0N5LQkKy9nlc4GztGyzY3mA=","tags":{"ref":"214","shop":"convenience","addr:street":"бул. Освобождение 59","addr:city":"Пловдив","addr:country":"BG","name":"Minimart","website":"https://mini-mart.bg/","opening_hours":"Mo-Su 08:00-22:00","brand":"Minimart","brand:wikidata":"Q119168386"},"coordinates":[42.1313013,24.7836954]},"tags_mismatch":false,"dist":0},{"osm":false,"atp":{"id":"Pe0bcjRa0FE4CVBXGlRAswdlBeI=","tags":{"ref":"215","shop":"convenience","addr:street":"ул. Съединение 1","addr:city":"Пловдив","addr:country":"BG","name":"Minimart","website":"https://mini-mart.bg/","opening_hours":"Mo-Su 08:00-22:00","brand":"Minimart","brand:wikidata":"Q119168386"},"coordinates":[42.1416319,24.7886339]},"tags_mismatch":false,"dist":0},{"osm":false,"atp":{"id":"6r_Sv2d4ci4FmkCPN9dTMrEOtkg=","tags":{"ref":"216","shop":"convenience","addr:street":"бул. Цар Симеон Велики 142","addr:city":"Стара Загора","addr:country":"BG","name":"Minimart","website":"https://mini-mart.bg/","opening_hours":"Mo-Su 07:00-22:00","brand":"Minimart","brand:wikidata":"Q119168386"},"coordinates":[42.4256597,25.6368979]},"tags_mismatch":false,"dist":0},{"osm":false,"atp":{"id":"xtJxkhsvHTZMv4yEBpeEl9ATA2E=","tags":{"ref":"218","shop":"convenience","addr:street":"ул. Хаджи Димитър Асенов 107","addr:city":"Стара Загора","addr:country":"BG","name":"Minimart","website":"https://mini-mart.bg/","opening_hours":"Mo-Su 07:00-22:00","brand":"Minimart","brand:wikidata":"Q119168386"},"coordinates":[42.4266393,25.6237768]},"tags_mismatch":false,"dist":0},{"osm":false,"atp":{"id":"MvlrIwAnt2yaCJzNJOpaqxdNSOQ=","tags":{"ref":"219","shop":"convenience","addr:street":"кв. Самара 3, бл. 33","addr:city":"Стара Загора","addr:country":"BG","name":"Minimart","website":"https://mini-mart.bg/","opening_hours":"Mo-Su 07:00-22:00","brand":"Minimart","brand:wikidata":"Q119168386"},"coordinates":[42.43436877042617,25.645511317721542]},"tags_mismatch":false,"dist":0},{"osm":false,"atp":{"id":"d0TEf3sIU62SY3lexoHKsc31FEE=","tags":{"ref":"220","shop":"convenience","addr:street":"ул. Августа Траяна 1","addr:city":"Стара Загора","addr:country":"BG","name":"Minimart","website":"https://mini-mart.bg/","opening_hours":"Mo-Su 07:00-22:00","brand":"Minimart","brand:wikidata":"Q119168386"},"coordinates":[42.4308402,25.6176724]},"tags_mismatch":false,"dist":0},{"osm":false,"atp":{"id":"GTgbDVeZPVTFXbb2mo8nPhuQq5I=","tags":{"ref":"221","shop":"convenience","addr:street":"бул. Миньор, бл. 1","addr:city":"Перник","addr:country":"BG","name":"Minimart","website":"https://mini-mart.bg/","opening_hours":"Mo-Su 07:00-22:00","brand":"Minimart","brand:wikidata":"Q119168386"},"coordinates":[42.60527159999999,23.0320432]},"tags_mismatch":false,"dist":0},{"osm":false,"atp":{"id":"iXwKS1CtMtSj7lnsNvNjbLbJtU4=","tags":{"ref":"222","shop":"convenience","addr:street":"ул. Младен Стоянов, бл. 5","addr:city":"Перник","addr:country":"BG","name":"Minimart","website":"https://mini-mart.bg/","opening_hours":"Mo-Su 07:00-22:00","brand":"Minimart","brand:wikidata":"Q119168386"},"coordinates":[42.6131267,23.0896298]},"tags_mismatch":false,"dist":0},{"osm":false,"atp":{"id":"jkFlaDgwC2I74ChXPzhsRNEpWaw=","tags":{"ref":"223","shop":"convenience","addr:street":"ул. Благой Гебрев, ет. 1","addr:city":"Перник","addr:country":"BG","name":"Minimart","website":"https://mini-mart.bg/","opening_hours":"Mo-Su 07:00-22:00","brand":"Minimart","brand:wikidata":"Q119168386"},"coordinates":[42.6036608310913,23.112191357733153]},"tags_mismatch":false,"dist":0},{"osm":false,"atp":{"id":"zpQDIV8zF8gOBwvUfPy6T-CeJgQ=","tags":{"ref":"224","shop":"convenience","addr:street":"ул. Княз Борис I 17","addr:city":"Асеновград","addr:country":"BG","name":"Minimart","website":"https://mini-mart.bg/","opening_hours":"Mo-Su 07:00-22:00","brand":"Minimart","brand:wikidata":"Q119168386"},"coordinates":[42.01809919999999,24.8825601]},"tags_mismatch":false,"dist":0},{"osm":false,"atp":{"id":"Yw9kCGHMxemEie-18bz-Yc4XZd4=","tags":{"ref":"225","shop":"convenience","addr:street":"ул. Данаил Попов 7","addr:city":"Плевен","addr:country":"BG","name":"Minimart","website":"https://mini-mart.bg/","opening_hours":"Mo-Su 07:00-22:00","brand":"Minimart","brand:wikidata":"Q119168386"},"coordinates":[43.416984,24.6158457]},"tags_mismatch":false,"dist":0},{"osm":false,"atp":{"id":"vYauTKhf04FiViXciUuk5iK8KqQ=","tags":{"ref":"226","shop":"convenience","addr:street":"ул. Ген. Л-нт Атанас Стефанов 17","addr:city":"Плевен","addr:country":"BG","name":"Minimart","website":"https://mini-mart.bg/","opening_hours":"Mo-Su 07:00-22:00","brand":"Minimart","brand:wikidata":"Q119168386"},"coordinates":[43.401118888207876,24.618733182894882]},"tags_mismatch":false,"dist":0},{"osm":false,"atp":{"id":"P3_FIZsa4EBpkvNRlBZuZ1GWKJQ=","tags":{"ref":"227","shop":"convenience","addr:street":"ж.к. \"Овча Купел\", бл. № 406","addr:city":"София","addr:country":"BG","name":"Minimart","website":"https://mini-mart.bg/","opening_hours":"Mo-Su 07:00-22:00","brand":"Minimart","brand:wikidata":"Q119168386"},"coordinates":[42.685299312854426,23.251182654153446]},"tags_mismatch":false,"dist":0},{"osm":false,"atp":{"id":"AenIOgBQVCl-qz2Wp4b4OSuC_30=","tags":{"ref":"228","shop":"convenience","addr:street":"бул. \"Ломско шосе\" 31","addr:city":"София","addr:country":"BG","name":"Minimart","website":"https://mini-mart.bg/","opening_hours":"Mo-Su 07:00-22:00","brand":"Minimart","brand:wikidata":"Q119168386"},"coordinates":[42.7218975,23.3069389]},"tags_mismatch":false,"dist":0},{"osm":false,"atp":false,"tags_mismatch":false,"dist":0},{"osm":false,"atp":{"id":"xpdNO3l3ftSsacRIDom5DbZ-oD0=","tags":{"ref":"230","shop":"convenience","addr:street":"кв. \"Железник\", ул. Генерал Иван Пашинов 23","addr:city":"Стара Загора","addr:country":"BG","name":"Minimart","website":"https://mini-mart.bg/","opening_hours":"Mo-Su 07:00-22:00","brand":"Minimart","brand:wikidata":"Q119168386"},"coordinates":[42.41502699999999,25.5977462]},"tags_mismatch":false,"dist":0},{"osm":false,"atp":{"id":"PcQySls_6u22Y6HkIoGHJHSwmD8=","tags":{"ref":"231","shop":"convenience","addr:street":"ж.к. \"Хаджи Димитър“, бл. 97","addr:city":"София","addr:country":"BG","name":"Minimart","website":"https://mini-mart.bg/","opening_hours":"Mo-Su 07:00-22:00","brand":"Minimart","brand:wikidata":"Q119168386"},"coordinates":[42.70947253660608,23.345567038189703]},"tags_mismatch":false,"dist":0},{"osm":false,"atp":false,"tags_mismatch":false,"dist":0},{"osm":false,"atp":{"id":"0Tukfh2Ww8yxhhzgOzR6E75eT4Y=","tags":{"ref":"233","shop":"convenience","addr:street":"кв. \"Прослав\", ул. \"Елин Пелин\" 1","addr:city":"Пловдив","addr:country":"BG","name":"Minimart","website":"https://mini-mart.bg/","opening_hours":"Mo-Su 08:00-22:00","brand":"Minimart","brand:wikidata":"Q119168386"},"coordinates":[42.12904754277883,24.690190985180667]},"tags_mismatch":false,"dist":0},{"osm":false,"atp":{"id":"AsoKX9fT3qu4hur3xYwh4xWzZQo=","tags":{"ref":"234","shop":"convenience","addr:street":"ул. „Ивайло“ 68","addr:city":"Бургас","addr:country":"BG","name":"Minimart","website":"https://mini-mart.bg/","opening_hours":"Mo-Su 07:00-22:00","brand":"Minimart","brand:wikidata":"Q119168386"},"coordinates":[42.4974378,27.4638696]},"tags_mismatch":false,"dist":0},{"osm":false,"atp":{"id":"CuqBLx68VqnLHNPnDiJgWpChhL4=","tags":{"ref":"235","shop":"convenience","addr:street":"бул. „Митрополит Методи Кусев“ 68","addr:city":"Стара Загора","addr:country":"BG","name":"Minimart","website":"https://mini-mart.bg/","opening_hours":"Mo-Su 07:00-22:00","brand":"Minimart","brand:wikidata":"Q119168386"},"coordinates":[42.4288892950714,25.625311628974913]},"tags_mismatch":false,"dist":0},{"osm":false,"atp":{"id":"JhJmwxSq36y5m_TRn2hl7npOKgk=","tags":{"ref":"236","shop":"convenience","addr:street":"ул. \"Христо Ботев\" 56","addr:city":"Стара Загора","addr:country":"BG","name":"Minimart","website":"https://mini-mart.bg/","opening_hours":"Mo-Su 07:00-22:00","brand":"Minimart","brand:wikidata":"Q119168386"},"coordinates":[42.42121216049572,25.62475085833587]},"tags_mismatch":false,"dist":0},{"osm":false,"atp":{"id":"SgCQ12S1q38H3kekIAJpzY5AavA=","tags":{"ref":"237","shop":"convenience","addr:street":"ул. \"105\" 10","addr:city":"Нови Хан","addr:country":"BG","name":"Minimart","website":"https://mini-mart.bg/","opening_hours":"Mo-Su 07:00-22:00","brand":"Minimart","brand:wikidata":"Q119168386"},"coordinates":[42.60743219304778,23.594304119049074]},"tags_mismatch":false,"dist":0},{"osm":false,"atp":false,"tags_mismatch":false,"dist":0},{"osm":false,"atp":{"id":"vZuf_UQruwXx6FF2LNlWcvlBPOA=","tags":{"ref":"239","shop":"convenience","addr:street":"бул. Ал. Стамболийски 156","addr:city":"София","addr:country":"BG","name":"Minimart","website":"https://mini-mart.bg/","opening_hours":"Mo-Su 07:00-22:00","brand":"Minimart","brand:wikidata":"Q119168386"},"coordinates":[42.70045349999999,23.2986806]},"tags_mismatch":false,"dist":0},{"osm":false,"atp":{"id":"oavHLQbL8CJiSMwfh8SD3q4TeDw=","tags":{"ref":"240","shop":"convenience","addr:street":"ж.к. \"Света Троица\", блок 16","addr:city":"София","addr:country":"BG","name":"Minimart","website":"https://mini-mart.bg/","opening_hours":"Mo-Su 07:00-22:00","brand":"Minimart","brand:wikidata":"Q119168386"},"coordinates":[42.7092738,23.2960793]},"tags_mismatch":false,"dist":0},{"osm":false,"atp":false,"tags_mismatch":false,"dist":0},{"osm":false,"atp":{"id":"dzxTiFNj2-2Crtb-tf3zODj4qRw=","tags":{"ref":"242","shop":"convenience","addr:street":"бул. Царица Йоанна 15","addr:city":"София","addr:country":"BG","name":"Minimart","website":"https://mini-mart.bg/","opening_hours":"Mo-Su 07:00-22:00","brand":"Minimart","brand:wikidata":"Q119168386"},"coordinates":[42.7097706,23.2726986]},"tags_mismatch":false,"dist":0},{"osm":false,"atp":{"id":"XJcq43jeV4OdmoDDjFTC9KP_t6c=","tags":{"ref":"243","shop":"convenience","addr:street":"ул. Черковна 3Б","addr:city":"София","addr:country":"BG","name":"Minimart","website":"https://mini-mart.bg/","opening_hours":"Mo-Su 07:00-22:00","brand":"Minimart","brand:wikidata":"Q119168386"},"coordinates":[42.7011014,23.3519792]},"tags_mismatch":false,"dist":0},{"osm":false,"atp":{"id":"W-eZP-mTavTo32V7DKcGMKqBEGc=","tags":{"ref":"244","shop":"convenience","addr:street":"бул. Пещерско шосе 150","addr:city":"Пловдив","addr:country":"BG","name":"Minimart","website":"https://mini-mart.bg/","opening_hours":"Mo-Su 08:00-22:00","brand":"Minimart","brand:wikidata":"Q119168386"},"coordinates":[42.1320579,24.6946169]},"tags_mismatch":false,"dist":0},{"osm":false,"atp":{"id":"9Ffe1OlIGDJpNZJWr58ZcRngbHU=","tags":{"ref":"245","shop":"convenience","addr:street":"ул. Васил Априлов 8","addr:city":"Бургас","addr:country":"BG","name":"Minimart","website":"https://mini-mart.bg/","opening_hours":"Mo-Su 07:00-22:00","brand":"Minimart","brand:wikidata":"Q119168386"},"coordinates":[42.49491754995368,27.471188235651418]},"tags_mismatch":false,"dist":0},{"osm":false,"atp":{"id":"Ntj9pARXpnoSdKd_D3ARPOJnplg=","tags":{"ref":"246","shop":"convenience","addr:street":"ул. Цар Калоян 24","addr:city":"Бургас","addr:country":"BG","name":"Minimart","website":"https://mini-mart.bg/","opening_hours":"Mo-Su 07:00-22:00","brand":"Minimart","brand:wikidata":"Q119168386"},"coordinates":[42.4931531,27.4636703]},"tags_mismatch":false,"dist":0},{"osm":false,"atp":{"id":"EMPdricgSJLubXfYWsMaGtaqkqc=","tags":{"ref":"247","shop":"convenience","addr:street":"ул. Св. Отец Паисий 146","addr:city":"Стара Загора","addr:country":"BG","name":"Minimart","website":"https://mini-mart.bg/","opening_hours":"Mo-Su 07:00-22:00","brand":"Minimart","brand:wikidata":"Q119168386"},"coordinates":[42.4288381,25.6204228]},"tags_mismatch":false,"dist":0},{"osm":false,"atp":{"id":"AdTqVDqkxqt_RD-iCZBpQ0uQPFA=","tags":{"ref":"248","shop":"convenience","addr:street":"ул. Екзарх Йосиф 1","addr:city":"Плевен","addr:country":"BG","name":"Minimart","website":"https://mini-mart.bg/","opening_hours":"Mo-Su 07:00-22:00","brand":"Minimart","brand:wikidata":"Q119168386"},"coordinates":[43.4030023,24.6215104]},"tags_mismatch":false,"dist":0},{"osm":false,"atp":{"id":"BiX-YjahTCUCmiwlX_vdIVCdz1c=","tags":{"ref":"249","shop":"convenience","addr:street":"ул. Любен Каравелов 1","addr:city":"Плевен","addr:country":"BG","name":"Minimart","website":"https://mini-mart.bg/","opening_hours":"Mo-Su 07:00-22:00","brand":"Minimart","brand:wikidata":"Q119168386"},"coordinates":[43.4150718,24.6132468]},"tags_mismatch":false,"dist":0}]}