{"metadata":{"type":"brand","wikidata":"Q64033983","name":"Т-Маркет","compare_keys":["opening_hours"],"key":"shop","value":"supermarket"},"data":[{"osm":{"type":"node","id":166613987,"tags":{"brand":"Т-Маркет","brand:wikidata":"Q64033983","int_name":"T-Market","shop":"supermarket","website":"https://tmarket.bg/"},"wikidata":"Q64033983","coordinates":[42.6685879,23.3943282]},"atp":false,"tags_mismatch":false},{"osm":{"type":"node","id":179925154,"tags":{"brand":"Т-Маркет","brand:wikidata":"Q64033983","int_name":"T-Market","shop":"supermarket","website":"https://tmarket.bg/"},"wikidata":"Q64033983","coordinates":[42.6690445,23.3894123]},"atp":{"id":"YujA_atExaSERv_LHpF963ogo_0=","tags":{"@source_uri":"https://tmarket.bg/page/magazin-druzhba-1","@spider":"t_market_bg","shop":"supermarket","addr:country":"BG","opening_hours":"Mo-Su 08:00-22:00","brand":"Т-Маркет","brand:wikidata":"Q64033983","nsi_id":"tmarket-56b425"},"coordinates":[42.669089223521524,23.387420915755254]},"dist":162.89,"tags_mismatch":true},{"osm":{"type":"node","id":346417672,"tags":{"addr:city":"Слънчев бряг","addr:postcode":"8240","addr:street":"кв. Камелия, зона Запад","brand":"Т-Маркет","brand:wikidata":"Q64033983","shop":"supermarket"},"wikidata":"Q64033983","coordinates":[42.6876122,27.7051478]},"atp":false,"tags_mismatch":false},{"osm":{"type":"node","id":872906117,"tags":{"addr:city":"Казанлък","addr:housenumber":"217","addr:postcode":"6100","addr:street":"Княз Александър Батенберг","brand":"Т-Маркет","brand:wikidata":"Q64033983","note":"exPenny","opening_hours":"Mo-Su 08:00-22:00","payment:cash":"yes","payment:coins":"yes","payment:credit_cards":"yes","payment:debit_cards":"yes","payment:maestro":"yes","payment:mastercard":"yes","payment:notes":"yes","payment:visa":"yes","shop":"supermarket"},"wikidata":"Q64033983","coordinates":[42.6159855,25.4169854]},"atp":{"id":"Sh2ZbO071M13EGMGbdzANdIRpdo=","tags":{"@source_uri":"https://tmarket.bg/page/magazin-kazanluk","@spider":"t_market_bg","shop":"supermarket","addr:country":"BG","opening_hours":"Mo-Su 08:00-22:00","brand":"Т-Маркет","brand:wikidata":"Q64033983","nsi_id":"tmarket-56b425"},"coordinates":[42.6159903268929,25.414549015506065]},"dist":199.368,"tags_mismatch":false},{"osm":{"type":"node","id":1286888161,"tags":{"brand":"Т-Маркет","brand:wikidata":"Q64033983","check_date":"2024-09-20","int_name":"T-Market","opening_hours":"PH,Mo-Su 08:00-22:00","shop":"supermarket","toilets:wheelchair":"no","website":"https://tmarket.bg/","wheelchair":"yes"},"wikidata":"Q64033983","coordinates":[42.6742628,23.3588253]},"atp":{"id":"UNN58kGz2Q_SFWgtLHEgWD4mMWc=","tags":{"@source_uri":"https://tmarket.bg/page/magazin-iztok","@spider":"t_market_bg","shop":"supermarket","addr:country":"BG","opening_hours":"Mo-Su 08:00-22:00","brand":"Т-Маркет","brand:wikidata":"Q64033983","nsi_id":"tmarket-56b425"},"coordinates":[42.67428932319137,23.35670111575532]},"dist":173.683,"tags_mismatch":true},{"osm":{"type":"node","id":1391113323,"tags":{"brand":"Т-Маркет","brand:wikidata":"Q64033983","opening_hours":"Mo-Su,PH 08:00-22:00","shop":"supermarket"},"wikidata":"Q64033983","coordinates":[42.1568748,24.7434396]},"atp":false,"tags_mismatch":false},{"osm":{"type":"node","id":1419025402,"tags":{"brand":"Т-Маркет","brand:wikidata":"Q64033983","int_name":"T-Market","opening_hours":"PH,Mo-Su 08:00-22:00","shop":"supermarket"},"wikidata":"Q64033983","coordinates":[43.4360623,28.3369796]},"atp":{"id":"i6phmO8w79jGNuCx9vM9mIg3fO0=","tags":{"@source_uri":"https://tmarket.bg/page/magazin-kavarna","@spider":"t_market_bg","shop":"supermarket","addr:country":"BG","opening_hours":"Mo-Su 08:00-23:00","brand":"Т-Маркет","brand:wikidata":"Q64033983","nsi_id":"tmarket-56b425"},"coordinates":[43.43579937912934,28.335839115490717]},"dist":96.616,"tags_mismatch":true},{"osm":{"type":"node","id":1615898778,"tags":{"addr:street":"Съединение","brand":"Т-Маркет","brand:wikidata":"Q64033983","shop":"supermarket"},"wikidata":"Q64033983","coordinates":[42.1287209,24.7804012]},"atp":false,"tags_mismatch":false},{"osm":{"type":"node","id":1846387630,"tags":{"addr:city":"София","addr:housenumber":"2","addr:postcode":"1408","addr:street":"Стефан Малинов","brand":"Т-Маркет","brand:wikidata":"Q64033983","check_date:opening_hours":"2023-04-04","opening_hours":"Mo-Su 08:00-22:00","phone":"+359 2 952 5762","self_checkout":"no","shop":"supermarket","website":"https://tmarket.bg/","wheelchair":"yes"},"wikidata":"Q64033983","coordinates":[42.6758971,23.3046804]},"atp":{"id":"3H18zH-436nxCeedwOabbneKAto=","tags":{"@source_uri":"https://tmarket.bg/page/magazin-ivan-vazov","@spider":"t_market_bg","shop":"supermarket","addr:country":"BG","opening_hours":"Mo-Su 08:00-22:00","brand":"Т-Маркет","brand:wikidata":"Q64033983","nsi_id":"tmarket-56b425"},"coordinates":[42.675872123090706,23.30284331575528]},"dist":150.208,"tags_mismatch":false},{"osm":{"type":"node","id":2162716961,"tags":{"brand":"Т-Маркет","brand:wikidata":"Q64033983","shop":"supermarket"},"wikidata":"Q64033983","coordinates":[42.3329552,23.5559215]},"atp":{"id":"gkRvIoaOZg0HY6BX5lp_ccrH2EA=","tags":{"@source_uri":"https://tmarket.bg/page/magazin-samokov","@spider":"t_market_bg","shop":"supermarket","addr:country":"BG","opening_hours":"Mo-Su 08:00-22:00","brand":"Т-Маркет","brand:wikidata":"Q64033983","nsi_id":"tmarket-56b425"},"coordinates":[42.33293804480646,23.553828015498656]},"dist":172.095,"tags_mismatch":true},{"osm":{"type":"node","id":2186786962,"tags":{"brand":"Т-Маркет","brand:wikidata":"Q64033983","check_date:opening_hours":"2023-09-25","contact:phone":"+359 2 868 1317","int_name":"T-Market","opening_hours":"PH,Mo-Su 08:00-22:00","shop":"supermarket","website":"https://tmarket.bg/"},"wikidata":"Q64033983","coordinates":[42.6694425,23.3233538]},"atp":{"id":"RrDCQVhZi0giRBMJETpcBPr_Rr0=","tags":{"@source_uri":"https://tmarket.bg/page/magazin-lozenets","@spider":"t_market_bg","shop":"supermarket","addr:country":"BG","opening_hours":"Mo-Su 08:00-22:00","brand":"Т-Маркет","brand:wikidata":"Q64033983","nsi_id":"tmarket-56b425"},"coordinates":[42.66944382349949,23.32126021550752]},"dist":171.169,"tags_mismatch":true},{"osm":{"type":"node","id":2208059400,"tags":{"brand":"Т-Маркет","brand:wikidata":"Q64033983","int_name":"T-Market","opening_hours":"Mo-Sa 08:00-22:00; Su 08:00-21:00","shop":"supermarket","website":"https://tmarket.bg/"},"wikidata":"Q64033983","coordinates":[42.706473,23.2852778]},"atp":false,"tags_mismatch":false},{"osm":{"type":"node","id":2362564606,"tags":{"brand":"Т-Маркет","brand:wikidata":"Q64033983","check_date":"2025-03-20","int_name":"T-Market","opening_hours":"Mo-Su 07:30-24:00","self_checkout":"no","shop":"supermarket","website":"https://tmarket.bg/","wheelchair":"yes"},"wikidata":"Q64033983","coordinates":[42.6775821,23.2969324]},"atp":false,"tags_mismatch":false},{"osm":{"type":"node","id":2560723098,"tags":{"addr:housenumber":"27","addr:street":"Велчо Атанасов","brand":"Т-Маркет","brand:wikidata":"Q64033983","int_name":"T-Market","opening_hours":"PH,Mo-Su 08:00-22:00","shop":"supermarket","website":"https://tmarket.bg/"},"wikidata":"Q64033983","coordinates":[42.6930883,23.3600454]},"atp":{"id":"3OAKJ94kP5SBX5nj6ZSrI0yUULI=","tags":{"@source_uri":"https://tmarket.bg/page/magazin-reduta-atanasov","@spider":"t_market_bg","shop":"supermarket","addr:country":"BG","opening_hours":"Mo-Su 08:00-22:00","brand":"Т-Маркет","brand:wikidata":"Q64033983","nsi_id":"tmarket-56b425"},"coordinates":[42.69310257916599,23.35784331546685]},"dist":179.979,"tags_mismatch":true},{"osm":{"type":"node","id":2561299949,"tags":{"brand":"Т-Маркет","brand:wikidata":"Q64033983","int_name":"T-Market","opening_hours":"PH,Mo-Su 08:00-22:00","shop":"supermarket","website":"https://tmarket.bg/"},"wikidata":"Q64033983","coordinates":[42.6915983,23.3631733]},"atp":false,"tags_mismatch":false},{"osm":{"type":"node","id":2642121965,"tags":{"addr:city":"София","addr:postcode":"1680","brand":"Т-Маркет","brand:wikidata":"Q64033983","check_date":"2024-08","int_name":"T-Market","opening_hours":"Mo-Su 08:00-22:00","shop":"supermarket","website":"https://tmarket.bg/","wheelchair":"yes"},"wikidata":"Q64033983","coordinates":[42.6680502,23.2851434]},"atp":{"id":"jeQzMGjfWau7Wz4yPF0WcsmCAJ8=","tags":{"@source_uri":"https://tmarket.bg/page/magazin-borovo","@spider":"t_market_bg","shop":"supermarket","addr:country":"BG","opening_hours":"Mo-Su 08:00-22:00","brand":"Т-Маркет","brand:wikidata":"Q64033983","nsi_id":"tmarket-56b425"},"coordinates":[42.66811412358393,23.28312621550741]},"dist":165.08,"tags_mismatch":false},{"osm":{"type":"node","id":3080013027,"tags":{"brand":"Т-Маркет","brand:wikidata":"Q64033983","int_name":"T-Market","shop":"supermarket","website":"https://tmarket.bg/"},"wikidata":"Q64033983","coordinates":[42.7132173,23.2699706]},"atp":false,"tags_mismatch":false},{"osm":{"type":"node","id":3193692275,"tags":{"addr:housenumber":"102","addr:street":"Костенски водопад","brand":"Т-Маркет","brand:wikidata":"Q64033983","check_date":"2023-11-20","contact:phone":"+359 2 869 0400","int_name":"T-Market","internet_access":"no","opening_hours":"08:00-22:00","payment:mastercard":"yes","payment:visa":"yes","shop":"supermarket","website":"https://tmarket.bg/","wheelchair":"yes"},"wikidata":"Q64033983","coordinates":[42.6624239,23.2953465]},"atp":{"id":"ndFrxRRV4O1zPNvuqeTSdyzZnfU=","tags":{"@source_uri":"https://tmarket.bg/page/magazin-kostenski-vodopad","@spider":"t_market_bg","shop":"supermarket","addr:country":"BG","opening_hours":"Mo-Su 08:00-22:00","brand":"Т-Маркет","brand:wikidata":"Q64033983","nsi_id":"tmarket-56b425"},"coordinates":[42.66249782394021,23.2933834157551]},"dist":160.728,"tags_mismatch":true},{"osm":{"type":"node","id":3193735086,"tags":{"brand":"Т-Маркет","brand:wikidata":"Q64033983","check_date":"2024-11-17","int_name":"T-Market","opening_hours":"PH,Mo-Su 08:00-22:00","shop":"supermarket","website":"https://tmarket.bg/"},"wikidata":"Q64033983","coordinates":[42.6700448,23.2956465]},"atp":{"id":"D1Yo9sdUozJi5JfDHOuUlyQE_54=","tags":{"@source_uri":"https://tmarket.bg/page/magazin-chervena-roza","@spider":"t_market_bg","shop":"supermarket","addr:country":"BG","opening_hours":"Mo-Su 08:00-22:00","brand":"Т-Маркет","brand:wikidata":"Q64033983","nsi_id":"tmarket-56b425"},"coordinates":[42.669884023471134,23.293549515755203]},"dist":172.375,"tags_mismatch":true},{"osm":{"type":"node","id":3688615499,"tags":{"brand":"Т-Маркет","brand:wikidata":"Q64033983","check_date":"2024-10-23","opening_hours":"Mo-Su 08:00-22:00","shop":"supermarket","start_date":"2024-03-05"},"wikidata":"Q64033983","coordinates":[42.6770156,23.3335941]},"atp":false,"tags_mismatch":false},{"osm":{"type":"node","id":3706827112,"tags":{"brand":"Т-Маркет","brand:wikidata":"Q64033983","shop":"supermarket"},"wikidata":"Q64033983","coordinates":[42.5033849,27.4731769]},"atp":{"id":"c_ZnNm4mBYgjGEEE2NkvO6uXyeM=","tags":{"@source_uri":"https://tmarket.bg/page/magazin-burgas","@spider":"t_market_bg","shop":"supermarket","addr:full":"гр. Бургас, ул. Константин Величков 34.","addr:country":"BG","opening_hours":"Mo-Su 08:00-22:00","brand":"Т-Маркет","brand:wikidata":"Q64033983","nsi_id":"tmarket-56b425"},"coordinates":[42.50322477917743,27.471312115460837]},"dist":153.903,"tags_mismatch":true},{"osm":{"type":"node","id":4105523119,"tags":{"brand":"Т-Маркет","brand:wikidata":"Q64033983","shop":"supermarket"},"wikidata":"Q64033983","coordinates":[42.1482368,24.7319075]},"atp":{"id":"XGvdGNFleT8ndxq24-RqGDpmhUQ=","tags":{"@source_uri":"https://tmarket.bg/page/magazin-aprilov","@spider":"t_market_bg","shop":"supermarket","addr:country":"BG","opening_hours":"Mo-Su 08:00-22:00","brand":"Т-Маркет","brand:wikidata":"Q64033983","nsi_id":"tmarket-56b425"},"coordinates":[42.14823807920169,24.729804715223956]},"dist":173.356,"tags_mismatch":true},{"osm":{"type":"node","id":4152317792,"tags":{"brand":"Т-Маркет","brand:wikidata":"Q64033983","check_date":"2024-10-01","int_name":"T-Market","opening_hours":"PH,Mo-Su 08:00-22:00","shop":"supermarket","website":"https://tmarket.bg/","wheelchair":"no"},"wikidata":"Q64033983","coordinates":[42.6831403,23.2874562]},"atp":{"id":"ExdUWamp6MVaImg36GacK61Hx14=","tags":{"@source_uri":"https://tmarket.bg/page/magazin-lagera","@spider":"t_market_bg","shop":"supermarket","addr:country":"BG","opening_hours":"Mo-Su 08:00-22:00","brand":"Т-Маркет","brand:wikidata":"Q64033983","nsi_id":"tmarket-56b425"},"coordinates":[42.683180666520855,23.28641025826766]},"dist":85.614,"tags_mismatch":true},{"osm":{"type":"node","id":4226457990,"tags":{"brand":"Т-Маркет","brand:wikidata":"Q64033983","shop":"supermarket"},"wikidata":"Q64033983","coordinates":[43.2074283,24.1624]},"atp":{"id":"pLvUXt2HG6VeTgw3rwwrX2vOdZw=","tags":{"@source_uri":"https://tmarket.bg/page/magazin-lukovit","@spider":"t_market_bg","shop":"supermarket","addr:country":"BG","opening_hours":"Mo-Sa 08:00-22:00; Su 08:00-21:00","brand":"Т-Маркет","brand:wikidata":"Q64033983","nsi_id":"tmarket-56b425"},"coordinates":[43.20756758914991,24.160208615521668]},"dist":178.281,"tags_mismatch":true},{"osm":{"type":"node","id":4592342679,"tags":{"brand":"Т-Маркет","brand:wikidata":"Q64033983","int_name":"T-Market","shop":"supermarket","website":"https://tmarket.bg/"},"wikidata":"Q64033983","coordinates":[42.7045505,23.3666255]},"atp":{"id":"V825nUcVQzaavnSBIPhU7XvlxrY=","tags":{"@source_uri":"https://tmarket.bg/page/magazin-gerena","@spider":"t_market_bg","shop":"supermarket","addr:country":"BG","opening_hours":"Mo-Su 08:00-22:00","brand":"Т-Маркет","brand:wikidata":"Q64033983","nsi_id":"tmarket-56b425"},"coordinates":[42.70393204435204,23.365965052467935]},"dist":87.417,"tags_mismatch":true},{"osm":{"type":"node","id":4791350022,"tags":{"addr:city":"Ловеч","addr:housenumber":"2","addr:postcode":"5502","addr:street":"бул. Мизия","brand":"Т-Маркет","brand:wikidata":"Q64033983","opening_hours":"Mo-Su 08:00-21:00","payment:cash":"yes","payment:coins":"yes","payment:credit_cards":"yes","payment:debit_cards":"yes","payment:notes":"yes","shop":"supermarket","website":"https://tmarket.bg/"},"wikidata":"Q64033983","coordinates":[43.1505563,24.7165919]},"atp":{"id":"565VhJYFVRBu1_VsF6jfmuYtkZo=","tags":{"@source_uri":"https://tmarket.bg/page/magazin-lovech","@spider":"t_market_bg","shop":"supermarket","addr:country":"BG","opening_hours":"Mo-Su 08:00-22:00","brand":"Т-Маркет","brand:wikidata":"Q64033983","nsi_id":"tmarket-56b425"},"coordinates":[43.150460292811445,24.714354315520215]},"dist":181.834,"tags_mismatch":true},{"osm":{"type":"node","id":4938157906,"tags":{"brand":"Т-Маркет","brand:wikidata":"Q64033983","int_name":"T-Market","opening_hours":"Mo-Su 07:30-22:00","shop":"supermarket","website":"https://tmarket.bg/","wheelchair":"yes"},"wikidata":"Q64033983","coordinates":[42.6646636,23.3623831]},"atp":{"id":"UQdBv5VAWIcNNMkaJirG3u4lrxA=","tags":{"@source_uri":"https://tmarket.bg/page/magazin-danovski","@spider":"t_market_bg","shop":"supermarket","addr:country":"BG","opening_hours":"Mo-Sa 07:30-22:00; Su 08:00-22:00","brand":"Т-Маркет","brand:wikidata":"Q64033983","nsi_id":"tmarket-56b425"},"coordinates":[42.66483902379204,23.360250215507453]},"dist":175.483,"tags_mismatch":true},{"osm":{"type":"node","id":5305452237,"tags":{"addr:city":"Пловдив","addr:housenumber":"32","addr:street":"Капитан Райчо","brand":"Т-Маркет","brand:wikidata":"Q64033983","opening_hours":"Mo-Su 08:00-22:00","shop":"supermarket"},"wikidata":"Q64033983","coordinates":[42.1412252,24.7526383]},"atp":{"id":"o2HnTLvBbTMVBldHMncBhqqKgoE=","tags":{"@source_uri":"https://tmarket.bg/page/magazin-kapitan-raicho","@spider":"t_market_bg","shop":"supermarket","addr:country":"BG","opening_hours":"Mo-Su 08:00-22:00","brand":"Т-Маркет","brand:wikidata":"Q64033983","nsi_id":"tmarket-56b425"},"coordinates":[42.14119237920215,24.75055611522359]},"dist":171.716,"tags_mismatch":false},{"osm":{"type":"node","id":5389332242,"tags":{"atm":"yes","brand":"Т-Маркет","brand:wikidata":"Q64033983","shop":"supermarket"},"wikidata":"Q64033983","coordinates":[42.140395,24.7938252]},"atp":false,"tags_mismatch":false},{"osm":{"type":"node","id":5646112861,"tags":{"brand":"Т-Маркет","brand:wikidata":"Q64033983","shop":"supermarket"},"wikidata":"Q64033983","coordinates":[42.6514955,26.9843412]},"atp":{"id":"VcDPzg6Khmpg4DAH8iOaYNxlgus=","tags":{"@source_uri":"https://tmarket.bg/page/magazin-karnobat","@spider":"t_market_bg","shop":"supermarket","addr:country":"BG","opening_hours":"Mo-Su 08:00-22:00","brand":"Т-Маркет","brand:wikidata":"Q64033983","nsi_id":"tmarket-56b425"},"coordinates":[42.65163882463022,26.982027915507064]},"dist":189.856,"tags_mismatch":true},{"osm":{"type":"node","id":5994050686,"tags":{"brand":"Т-Маркет","brand:wikidata":"Q64033983","shop":"supermarket"},"wikidata":"Q64033983","coordinates":[43.2196925,27.914063]},"atp":{"id":"yZpY3lTPWXlWWd5dsoyIGzn4kic=","tags":{"@source_uri":"https://tmarket.bg/page/magazin-varna","@spider":"t_market_bg","shop":"supermarket","addr:full":"гр. Варна, Бизнес парк, сграда Б, ул. Ян Палах №10","addr:country":"BG","opening_hours":"Mo-Su 08:00-22:00","brand":"Т-Маркет","brand:wikidata":"Q64033983","nsi_id":"tmarket-56b425"},"coordinates":[43.2197159,27.914092]},"dist":3.506,"tags_mismatch":true},{"osm":{"type":"node","id":6552453587,"tags":{"brand":"Т-Маркет","brand:wikidata":"Q64033983","shop":"supermarket"},"wikidata":"Q64033983","coordinates":[42.9177082,24.2642495]},"atp":{"id":"Lw0emf4wPb3Gvk2WHI3Vi62TMBQ=","tags":{"@source_uri":"https://tmarket.bg/page/magazin-teteven","@spider":"t_market_bg","shop":"supermarket","addr:country":"BG","opening_hours":"Mo-Su 07:00-22:00","brand":"Т-Маркет","brand:wikidata":"Q64033983","nsi_id":"tmarket-56b425"},"coordinates":[42.917778807689906,24.26222251551403]},"dist":165.247,"tags_mismatch":true},{"osm":{"type":"node","id":6678721503,"tags":{"brand":"Т-Маркет","brand:wikidata":"Q64033983","shop":"supermarket"},"wikidata":"Q64033983","coordinates":[43.7742043,23.7289467]},"atp":{"id":"7dui0SwzGrhYJQV3KPSct0EjEsk=","tags":{"@source_uri":"https://tmarket.bg/page/magazin-kozludui","@spider":"t_market_bg","shop":"supermarket","addr:country":"BG","opening_hours":"Mo-Su 08:00-21:00","brand":"Т-Маркет","brand:wikidata":"Q64033983","nsi_id":"tmarket-56b425"},"coordinates":[43.77377825264311,23.726327115536876]},"dist":215.598,"tags_mismatch":true},{"osm":{"type":"node","id":6726372285,"tags":{"brand":"Т-Маркет","brand:wikidata":"Q64033983","shop":"supermarket"},"wikidata":"Q64033983","coordinates":[42.0977033,25.2250988]},"atp":false,"tags_mismatch":false},{"osm":{"type":"node","id":6819939488,"tags":{"brand":"Т-Маркет","brand:wikidata":"Q64033983","shop":"supermarket"},"wikidata":"Q64033983","coordinates":[43.1126668,26.4179585]},"atp":{"id":"npzOBP9oBMWWnhI3dvjWJqztLCM=","tags":{"@source_uri":"https://tmarket.bg/page/magazin-omurtag","@spider":"t_market_bg","shop":"supermarket","addr:country":"BG","opening_hours":"Mo-Su 08:00-21:00","brand":"Т-Маркет","brand:wikidata":"Q64033983","nsi_id":"tmarket-56b425"},"coordinates":[43.1123681,26.418758399999998]},"dist":72.933,"tags_mismatch":true},{"osm":{"type":"node","id":7166914225,"tags":{"addr:city":"София","brand":"Т-Маркет","brand:wikidata":"Q64033983","int_name":"T-Market","shop":"supermarket","website":"https://tmarket.bg/"},"wikidata":"Q64033983","coordinates":[42.7244572,23.2470503]},"atp":{"id":"Sy9U-d_WYxvfiX6O5mWr5E3fsuM=","tags":{"@source_uri":"https://tmarket.bg/page/magazin-liulin2","@spider":"t_market_bg","shop":"supermarket","addr:country":"BG","opening_hours":"Mo-Su 08:00-22:00","brand":"Т-Маркет","brand:wikidata":"Q64033983","nsi_id":"tmarket-56b425"},"coordinates":[42.724441920004,23.244855315756386]},"dist":179.309,"tags_mismatch":true},{"osm":{"type":"node","id":7252292078,"tags":{"addr:city":"София","addr:housenumber":"44","addr:street":"бул. Панчо Владигеров","brand":"Т-Маркет","brand:wikidata":"Q64033983","contact:phone":"+359 2 824 0091","int_name":"T-Market","shop":"supermarket","website":"https://tmarket.bg/"},"wikidata":"Q64033983","coordinates":[42.7179168,23.2521424]},"atp":{"id":"0KqbgSCwC8yMwP-9CrvucONG_UA=","tags":{"@source_uri":"https://tmarket.bg/page/magazin-lyulin-3","@spider":"t_market_bg","shop":"supermarket","addr:country":"BG","opening_hours":"Mo-Fr 07:30-22:00; Su 08:00-22:00","brand":"Т-Маркет","brand:wikidata":"Q64033983","nsi_id":"tmarket-56b425"},"coordinates":[42.71773357916453,23.250055915467687]},"dist":171.669,"tags_mismatch":true},{"osm":{"type":"node","id":7804149418,"tags":{"brand":"Т-Маркет","brand:wikidata":"Q64033983","shop":"supermarket"},"wikidata":"Q64033983","coordinates":[41.5760307,23.7427801]},"atp":{"id":"mdPv9-NhUqPK_0CpofUnl1gokx0=","tags":{"@source_uri":"https://tmarket.bg/page/magazin-goce","@spider":"t_market_bg","shop":"supermarket","addr:country":"BG","opening_hours":"Mo-Su 08:00-22:00","brand":"Т-Маркет","brand:wikidata":"Q64033983","nsi_id":"tmarket-56b425"},"coordinates":[41.57595999224648,23.740721515479088]},"dist":171.418,"tags_mismatch":true},{"osm":{"type":"node","id":9343137709,"tags":{"addr:city":"Пловдив","addr:housenumber":"1","addr:postcode":"4006","addr:street":"Герлово","brand":"Т-Маркет","brand:wikidata":"Q64033983","shop":"supermarket"},"wikidata":"Q64033983","coordinates":[42.1524982,24.7898906]},"atp":false,"tags_mismatch":false},{"osm":{"type":"node","id":10139140181,"tags":{"brand":"Т-Маркет","brand:wikidata":"Q64033983","shop":"supermarket"},"wikidata":"Q64033983","coordinates":[42.1204838,24.7563346]},"atp":false,"tags_mismatch":false},{"osm":{"type":"node","id":10302133514,"tags":{"addr:city":"София","addr:housenumber":"35","addr:postcode":"1734","addr:street":"Акад. Борис Стефанов","brand":"Т-Маркет","brand:wikidata":"Q64033983","opening_hours":"Mo-Su 08:00-24:00; PH off","organic":"yes","shop":"supermarket","wheelchair":"yes"},"wikidata":"Q64033983","coordinates":[42.6458021,23.3419333]},"atp":{"id":"Wm9kwROUzXMbqRWVt3OeD108W7I=","tags":{"@source_uri":"https://tmarket.bg/page/magazin-studentski-grad","@spider":"t_market_bg","shop":"supermarket","addr:country":"BG","opening_hours":"Mo-Su 08:00-24:00","brand":"Т-Маркет","brand:wikidata":"Q64033983","nsi_id":"tmarket-56b425"},"coordinates":[42.64580492500015,23.339841515754657]},"dist":171.087,"tags_mismatch":true},{"osm":{"type":"node","id":10895381340,"tags":{"brand":"Т-Маркет","brand:wikidata":"Q64033983","shop":"supermarket"},"wikidata":"Q64033983","coordinates":[42.705092,27.2491963]},"atp":{"id":"LQ07ItghivllsVE4U5p63X9DC_8=","tags":{"@source_uri":"https://tmarket.bg/page/magazin-aitos","@spider":"t_market_bg","shop":"supermarket","addr:country":"BG","opening_hours":"Mo-Su 08:00-22:00","brand":"Т-Маркет","brand:wikidata":"Q64033983","nsi_id":"tmarket-56b425"},"coordinates":[42.70507242123575,27.24711971550849]},"dist":169.696,"tags_mismatch":true},{"osm":{"type":"node","id":10911021003,"tags":{"brand":"Т-Маркет","brand:wikidata":"Q64033983","payment:cash":"yes","payment:credit_cards":"yes","payment:debit_cards":"yes","shop":"supermarket"},"wikidata":"Q64033983","coordinates":[42.1318832,24.7032494]},"atp":{"id":"a5kk7KIu1Sq0r-6h1kbPuNKU8tA=","tags":{"@source_uri":"https://tmarket.bg/page/magazin-peshtersko-shose","@spider":"t_market_bg","shop":"supermarket","addr:country":"BG","opening_hours":"Mo-Su 08:00-22:00","brand":"Т-Маркет","brand:wikidata":"Q64033983","nsi_id":"tmarket-56b425"},"coordinates":[42.13217407920278,24.701216515223308]},"dist":170.728,"tags_mismatch":true},{"osm":{"type":"node","id":10982993815,"tags":{"brand":"Т-Маркет","brand:wikidata":"Q64033983","opening_hours":"Mo-Su 10:00-20:00","shop":"supermarket"},"wikidata":"Q64033983","coordinates":[42.1836777,24.3457906]},"atp":false,"tags_mismatch":false},{"osm":{"type":"node","id":11072492183,"tags":{"brand":"Т-Маркет","brand:wikidata":"Q64033983","shop":"supermarket"},"wikidata":"Q64033983","coordinates":[43.9842835,22.872303]},"atp":{"id":"lAv9U0BV-ah3WCQsVBZPnpGml7U=","tags":{"@source_uri":"https://tmarket.bg/page/magazin-vidin","@spider":"t_market_bg","shop":"supermarket","addr:country":"BG","opening_hours":"Mo-Su 08:00-22:00","brand":"Т-Маркет","brand:wikidata":"Q64033983","nsi_id":"tmarket-56b425"},"coordinates":[43.9844531,22.8720634]},"dist":26.891,"tags_mismatch":true},{"osm":{"type":"node","id":11233091845,"tags":{"brand":"Т-Маркет","brand:wikidata":"Q64033983","shop":"supermarket"},"wikidata":"Q64033983","coordinates":[41.9710835,25.559132]},"atp":{"id":"0wn84oKWvoaodkqgUT60NrlgB9o=","tags":{"@source_uri":"https://tmarket.bg/page/magazin-haskovo","@spider":"t_market_bg","shop":"supermarket","addr:full":"Търговски комплекс HOLIDAY PARK Хасково, на адрес Димитровградско шосе, срещу Бирената фабрика","addr:country":"BG","opening_hours":"Mo-Su 08:00-21:00","brand":"Т-Маркет","brand:wikidata":"Q64033983","nsi_id":"tmarket-56b425"},"coordinates":[41.970438,25.5600381]},"dist":103.746,"tags_mismatch":true},{"osm":{"type":"node","id":11295438325,"tags":{"brand":"Т-Маркет","brand:wikidata":"Q64033983","opening_hours":"Mo-Su,PH 08:00-22:00","shop":"supermarket"},"wikidata":"Q64033983","coordinates":[42.6463144,23.3743323]},"atp":false,"tags_mismatch":false},{"osm":{"type":"node","id":11434256664,"tags":{"addr:housenumber":"29","addr:street":"Оборище","brand":"Т-Маркет","brand:wikidata":"Q64033983","shop":"supermarket"},"wikidata":"Q64033983","coordinates":[43.3530655,27.1941195]},"atp":false,"tags_mismatch":false},{"osm":{"type":"node","id":11509482765,"tags":{"brand":"Т-Маркет","brand:wikidata":"Q64033983","shop":"supermarket"},"wikidata":"Q64033983","coordinates":[42.2673394,23.1138136]},"atp":{"id":"oE6fLgw8DkCwy5mJeeFAx6r_dMM=","tags":{"@source_uri":"https://tmarket.bg/page/magazin-dupnitsa","@spider":"t_market_bg","shop":"supermarket","addr:full":"гр. Дупница, ул. Иван Вазов 26","addr:country":"BG","opening_hours":"Mo-Su 08:00-22:00","brand":"Т-Маркет","brand:wikidata":"Q64033983","nsi_id":"tmarket-56b425"},"coordinates":[42.26704579134762,23.11231671099097]},"dist":127.426,"tags_mismatch":true},{"osm":{"type":"node","id":11608677356,"tags":{"brand":"Т-Маркет","brand:wikidata":"Q64033983","level":"0","shop":"supermarket"},"wikidata":"Q64033983","coordinates":[41.6149541,25.3763434]},"atp":false,"tags_mismatch":false},{"osm":{"type":"node","id":11802604974,"tags":{"brand":"Т-Маркет","brand:wikidata":"Q64033983","opening_hours":"Mo-u 07:30-21:00","shop":"supermarket"},"wikidata":"Q64033983","coordinates":[43.7021866,28.0404512]},"atp":{"id":"AH90jEXln-aId13exMsfEVXvUl0=","tags":{"@source_uri":"https://tmarket.bg/page/magazin-general-toshevo","@spider":"t_market_bg","shop":"supermarket","addr:full":"гр. Генерал Тошево, ул. Трети март 14","addr:country":"BG","opening_hours":"Mo-Su 07:30-21:00","brand":"Т-Маркет","brand:wikidata":"Q64033983","nsi_id":"tmarket-56b425"},"coordinates":[43.7016762,28.0396345]},"dist":86.783,"tags_mismatch":true},{"osm":{"type":"node","id":12087027916,"tags":{"addr:city":"Царево","addr:housenumber":"1","addr:street":"Даниела Йорданова","brand":"Т-Маркет","brand:wikidata":"Q64033983","fixme":"approximate location due to oudated satellite imagery","ref:vatin":"BG131324923","shop":"supermarket"},"wikidata":"Q64033983","coordinates":[42.1657617,27.8454786]},"atp":false,"tags_mismatch":false},{"osm":{"type":"node","id":12528868325,"tags":{"addr:city":"Бургас","addr:housenumber":"17","addr:street":"Мара Гидик","brand":"Т-Маркет","brand:wikidata":"Q64033983","check_date":"2025-01-24","opening_hours":"07:00-22:00","shop":"supermarket","wheelchair":"no"},"wikidata":"Q64033983","coordinates":[42.4952707,27.4710131]},"atp":{"id":"B-MncvLW3mUbmLTrMt9IZN12f-4=","tags":{"@source_uri":"https://tmarket.bg/page/magazin-burgas-ul-maragidik","@spider":"t_market_bg","shop":"supermarket","addr:full":"гр. Бургас, ул. Марагидик №17","addr:country":"BG","opening_hours":"Mo-Su 08:00-22:00","brand":"Т-Маркет","brand:wikidata":"Q64033983","nsi_id":"tmarket-56b425"},"coordinates":[42.4951534,27.4710685]},"dist":13.811,"tags_mismatch":true},{"osm":{"type":"node","id":12534075864,"tags":{"brand":"Т-Маркет","brand:wikidata":"Q64033983","shop":"supermarket"},"wikidata":"Q64033983","coordinates":[42.5245306,27.4487159]},"atp":false,"tags_mismatch":false},{"osm":{"type":"node","id":12612795535,"tags":{"brand":"Т-Маркет","brand:wikidata":"Q64033983","shop":"supermarket"},"wikidata":"Q64033983","coordinates":[42.7192892,23.2635627]},"atp":{"id":"pRdqGfwEFIKJEpFBJlkeJvbu-tw=","tags":{"@source_uri":"https://tmarket.bg/page/magazin-lyulin-9","@spider":"t_market_bg","shop":"supermarket","addr:country":"BG","opening_hours":"Mo-Fr 07:30-22:00; Su 08:00-22:00","brand":"Т-Маркет","brand:wikidata":"Q64033983","nsi_id":"tmarket-56b425"},"coordinates":[42.719265220333014,23.261302315756346]},"dist":184.678,"tags_mismatch":true},{"osm":{"type":"way","id":65154082,"tags":{"addr:housenumber":"10","addr:street":"Васил Калчев","brand":"Т-Маркет","brand:wikidata":"Q64033983","building":"commercial","int_name":"T-Market","opening_hours":"PH,Mo-Su 08:00-22:00","shop":"supermarket","website":"https://tmarket.bg/","wheelchair":"yes"},"wikidata":"Q64033983","coordinates":[42.664102,23.3494459]},"atp":{"id":"g6LSnT5wVOqw-4R3m7Q9EScZtIM=","tags":{"@source_uri":"https://tmarket.bg/page/magazin-dianabad","@spider":"t_market_bg","shop":"supermarket","addr:country":"BG","opening_hours":"Mo-Su 08:00-22:00","brand":"Т-Маркет","brand:wikidata":"Q64033983","nsi_id":"tmarket-56b425"},"coordinates":[42.66399202384533,23.347144615755134]},"dist":188.564,"tags_mismatch":true},{"osm":{"type":"way","id":70106319,"tags":{"addr:city":"София","addr:housenumber":"4","addr:postcode":"1231","addr:street":"Златен клас","brand":"Т-Маркет","brand:wikidata":"Q64033983","building":"retail","int_name":"T-Market","loc_name":"T MARKET Връбница","opening_hours":"Mo-Su 08:00-22:00","shop":"supermarket","website":"https://tmarket.bg/"},"wikidata":"Q64033983","coordinates":[42.7388325,23.2950261]},"atp":{"id":"n2uU8AuDZCK_1T_h9BN6O1vKauE=","tags":{"@source_uri":"https://tmarket.bg/page/magazin-vrabnitsa","@spider":"t_market_bg","shop":"supermarket","addr:country":"BG","opening_hours":"Mo-Su 08:00-22:00","brand":"Т-Маркет","brand:wikidata":"Q64033983","nsi_id":"tmarket-56b425"},"coordinates":[42.738946219081534,23.292743315756752]},"dist":186.858,"tags_mismatch":false},{"osm":{"type":"way","id":75284992,"tags":{"brand":"Т-Маркет","brand:wikidata":"Q64033983","building":"yes","shop":"supermarket"},"wikidata":"Q64033983","coordinates":[42.1337849,24.7941185]},"atp":false,"tags_mismatch":false},{"osm":{"type":"way","id":93462967,"tags":{"addr:city":"Бяла Слатина","addr:housenumber":"41А","addr:postcode":"3200","addr:street":"Търнавска","brand":"Т-Маркет","brand:wikidata":"Q64033983","building":"yes","shop":"supermarket"},"wikidata":"Q64033983","coordinates":[43.4776606,23.9317996]},"atp":{"id":"2ZvsAY_cmBQwTo5BAogdeI6qvoA=","tags":{"@source_uri":"https://tmarket.bg/page/magazin-bqla-slatina-1","@spider":"t_market_bg","shop":"supermarket","addr:country":"BG","opening_hours":"Mo-Su 08:00-22:00","brand":"Т-Маркет","brand:wikidata":"Q64033983","nsi_id":"tmarket-56b425"},"coordinates":[43.47761287178508,23.930107215528977]},"dist":136.658,"tags_mismatch":true},{"osm":{"type":"way","id":120117608,"tags":{"brand":"Т-Маркет","brand:wikidata":"Q64033983","building":"yes","opening_hours":"Mo-Su 08:00-22:00","shop":"supermarket"},"wikidata":"Q64033983","coordinates":[42.4118228,25.5939225]},"atp":{"id":"NDE8MYOrczniuW6YPaZBo60CeD8=","tags":{"@source_uri":"https://tmarket.bg/page/magazin-stara-zagora","@spider":"t_market_bg","shop":"supermarket","addr:country":"BG","opening_hours":"Mo-Su 08:00-22:00","brand":"Т-Маркет","brand:wikidata":"Q64033983","nsi_id":"tmarket-56b425"},"coordinates":[42.4114691126246,25.593341176932647]},"dist":61.842,"tags_mismatch":false},{"osm":{"type":"way","id":166109683,"tags":{"brand":"Т-Маркет","brand:wikidata":"Q64033983","building":"retail","building:levels":"1","check_date":"2025-03-13","int_name":"T-Market","opening_hours":"08:00-22:00","payment:cash":"yes","payment:credit_cards":"yes","payment:debit_cards":"yes","roof:shape":"flat","shop":"supermarket","website":"https://tmarket.bg/","wheelchair":"yes"},"wikidata":"Q64033983","coordinates":[42.632628,23.3767138]},"atp":false,"tags_mismatch":false},{"osm":{"type":"way","id":166112143,"tags":{"atm":"yes","brand":"Т-Маркет","brand:wikidata":"Q64033983","building":"retail","check_date:opening_hours":"2023-09-09","contact:phone":"+359 2 974 4621","int_name":"T-Market","opening_hours":"Mo-Su 08:00-22:00","shop":"supermarket","website":"https://tmarket.bg/"},"wikidata":"Q64033983","coordinates":[42.6533759,23.3685631]},"atp":{"id":"df05eX0KYQFMYcgoOAur2Wcgg9c=","tags":{"@source_uri":"https://tmarket.bg/page/magazin-mladost-1a","@spider":"t_market_bg","shop":"supermarket","addr:country":"BG","brand":"Т-Маркет","brand:wikidata":"Q64033983","nsi_id":"tmarket-56b425"},"coordinates":[42.65426722849914,23.37287202628451]},"dist":366.055,"tags_mismatch":false},{"osm":{"type":"way","id":167324006,"tags":{"brand":"Т-Маркет","brand:wikidata":"Q64033983","building":"yes","shop":"supermarket","website":"https://tmarket.bg/"},"wikidata":"Q64033983","coordinates":[42.6970164,23.2761571]},"atp":{"id":"HOKX8HiikwvPVxtVQMbuV5C4ZXE=","tags":{"@source_uri":"https://tmarket.bg/page/magazin-vaskresenie","@spider":"t_market_bg","shop":"supermarket","addr:country":"BG","opening_hours":"Mo-Su 08:00-22:00","brand":"Т-Маркет","brand:wikidata":"Q64033983","nsi_id":"tmarket-56b425"},"coordinates":[42.69720572173571,23.27405371550827]},"dist":173.178,"tags_mismatch":true},{"osm":{"type":"way","id":167324118,"tags":{"brand":"Т-Маркет","brand:wikidata":"Q64033983","building":"yes","building:levels":"2","int_name":"T-Market","shop":"supermarket","website":"https://tmarket.bg/"},"wikidata":"Q64033983","coordinates":[42.6846454,23.2410628]},"atp":{"id":"A62t1g0sk5JAC8dgPKJiYrMg0dA=","tags":{"@source_uri":"https://tmarket.bg/page/magazin-ovcha","@spider":"t_market_bg","shop":"supermarket","addr:country":"BG","opening_hours":"Mo-Su 08:00-22:00","brand":"Т-Маркет","brand:wikidata":"Q64033983","nsi_id":"tmarket-56b425"},"coordinates":[42.68452942254117,23.238865315507876]},"dist":180.083,"tags_mismatch":true},{"osm":{"type":"way","id":167325065,"tags":{"brand":"Т-Маркет","brand:wikidata":"Q64033983","building":"yes","building:levels":"2","int_name":"T-Market","roof:material":"tar_paper","shop":"supermarket","website":"https://tmarket.bg/","wheelchair":"yes"},"wikidata":"Q64033983","coordinates":[42.7013258,23.2845933]},"atp":false,"tags_mismatch":false},{"osm":{"type":"way","id":167326935,"tags":{"addr:postcode":"1582","brand":"Т-Маркет","brand:wikidata":"Q64033983","building":"retail","int_name":"T-Market","shop":"supermarket","website":"https://tmarket.bg/"},"wikidata":"Q64033983","coordinates":[42.6472923,23.4054578]},"atp":{"id":"2cGyUzsTujHzYNIt8JovArB6Q_U=","tags":{"@source_uri":"https://tmarket.bg/page/magazin-druzhba-2","@spider":"t_market_bg","shop":"supermarket","addr:country":"BG","opening_hours":"Mo-Su 08:00-22:00","brand":"Т-Маркет","brand:wikidata":"Q64033983","nsi_id":"tmarket-56b425"},"coordinates":[42.64728852490593,23.403483015754713]},"dist":161.514,"tags_mismatch":true},{"osm":{"type":"way","id":227930453,"tags":{"brand":"Т-Маркет","brand:wikidata":"Q64033983","building":"yes","shop":"supermarket"},"wikidata":"Q64033983","coordinates":[42.3091883,23.8583803]},"atp":{"id":"QuzBHbjdaSxhTs76_klHswn5DME=","tags":{"@source_uri":"https://tmarket.bg/page/magazin-kostenec","@spider":"t_market_bg","shop":"supermarket","addr:country":"BG","opening_hours":"Mo-Su 08:00-22:00","brand":"Т-Маркет","brand:wikidata":"Q64033983","nsi_id":"tmarket-56b425"},"coordinates":[42.309205546304206,23.856285615498024]},"dist":172.259,"tags_mismatch":true},{"osm":{"type":"way","id":244831796,"tags":{"addr:city":"Раднево","addr:housenumber":"4","addr:postcode":"6260","addr:street":"Митьо Станев","brand":"Т-Маркет","brand:wikidata":"Q64033983","building":"yes","note":"exPenny Market","shop":"supermarket"},"wikidata":"Q64033983","coordinates":[42.2885322,25.9325176]},"atp":false,"tags_mismatch":false},{"osm":{"type":"way","id":274053015,"tags":{"addr:city":"Пловдив","addr:postcode":"4021","addr:street":"Гонда вода","brand":"Т-Маркет","brand:wikidata":"Q64033983","building":"yes","payment:cash":"yes","payment:contactless":"yes","payment:credit_cards":"yes","payment:debit_cards":"yes","shop":"supermarket"},"wikidata":"Q64033983","coordinates":[42.1615013,24.7565484]},"atp":{"id":"J8paiOPcpeWDnSTmujChEsIi9Bk=","tags":{"@source_uri":"https://tmarket.bg/page/magazin-gagarin","@spider":"t_market_bg","shop":"supermarket","addr:country":"BG","opening_hours":"Mo-Su 08:00-22:00","brand":"Т-Маркет","brand:wikidata":"Q64033983","nsi_id":"tmarket-56b425"},"coordinates":[42.161425879200664,24.754277315224424]},"dist":187.38,"tags_mismatch":true},{"osm":{"type":"way","id":274557536,"tags":{"brand":"Т-Маркет","brand:wikidata":"Q64033983","building":"retail","building:levels":"1","opening_hours":"Mo-Su 08:00-22:00","shop":"supermarket"},"wikidata":"Q64033983","coordinates":[42.7098394,23.3086654]},"atp":{"id":"aOhX2rHGKQQbITzqGxmNP0LpFKc=","tags":{"@source_uri":"https://tmarket.bg/page/magazin-banishora","@spider":"t_market_bg","shop":"supermarket","addr:country":"BG","opening_hours":"Mo-Su 08:00-22:00","brand":"Т-Маркет","brand:wikidata":"Q64033983","nsi_id":"tmarket-56b425"},"coordinates":[42.7100638,23.3084727]},"dist":29.504,"tags_mismatch":false},{"osm":{"type":"way","id":276692832,"tags":{"addr:city":"Разлог","addr:housenumber":"53","addr:postcode":"2760","addr:street":"Гоце Делчев","brand":"Т-Маркет","brand:wikidata":"Q64033983","building":"supermarket","opening_hours":"Mo-Su 08:00-22:00","shop":"supermarket","website":"https://tmarket.bg"},"wikidata":"Q64033983","coordinates":[41.8802785,23.4723223]},"atp":{"id":"TxwBPXtOrqIs0PFNwjFTUqog9f8=","tags":{"@source_uri":"https://tmarket.bg/page/magazin-razlog","@spider":"t_market_bg","shop":"supermarket","addr:country":"BG","opening_hours":"Mo-Su 08:00-22:00","brand":"Т-Маркет","brand:wikidata":"Q64033983","nsi_id":"tmarket-56b425"},"coordinates":[41.88027197325713,23.470055415486925]},"dist":187.675,"tags_mismatch":false},{"osm":{"type":"way","id":278573526,"tags":{"addr:city":"София","addr:street":"Мачуково","addr:suburb":"ж.к. Гевгелийски","brand":"Т-Маркет","brand:wikidata":"Q64033983","building":"retail","email":"maxima@maximabulgaria.bg","int_name":"T-Market","opening_hours":"Mo-Su 08:00-22:00","payment:boricacard":"yes","payment:cards":"yes","payment:cash":"yes","payment:coins":"yes","payment:credit_cards":"yes","payment:debit_cards":"yes","payment:mastercard":"yes","payment:visa":"yes","phone":"+359 800 13344","shop":"supermarket","website":"https://tmarket.bg/","wheelchair":"yes"},"wikidata":"Q64033983","coordinates":[42.7085707,23.2804638]},"atp":{"id":"MLiTQyTmVgy8lF_GFIdSAtYzbBM=","tags":{"@source_uri":"https://tmarket.bg/page/magazin-gevgeliiski","@spider":"t_market_bg","shop":"supermarket","addr:country":"BG","opening_hours":"Mo-Su 08:00-22:00","brand":"Т-Маркет","brand:wikidata":"Q64033983","nsi_id":"tmarket-56b425"},"coordinates":[42.708511421016716,23.278053015756022]},"dist":197.089,"tags_mismatch":false},{"osm":{"type":"way","id":294197412,"tags":{"brand":"Т-Маркет","brand:wikidata":"Q64033983","building":"yes","payment:cash":"yes","payment:credit_cards":"yes","payment:debit_cards":"yes","shop":"supermarket"},"wikidata":"Q64033983","coordinates":[42.1308413,24.7081545]},"atp":{"id":"ldcx7TWd-jmui6t2eFcj4zcRkcw=","tags":{"@source_uri":"https://tmarket.bg/page/magazin-smirnenski-2","@spider":"t_market_bg","shop":"supermarket","addr:country":"BG","opening_hours":"Mo-Su 08:00-22:00","brand":"Т-Маркет","brand:wikidata":"Q64033983","nsi_id":"tmarket-56b425"},"coordinates":[42.13080767920298,24.705934315223292]},"dist":183.123,"tags_mismatch":true},{"osm":{"type":"way","id":296756752,"tags":{"brand":"Т-Маркет","brand:wikidata":"Q64033983","building":"yes","shop":"supermarket"},"wikidata":"Q64033983","coordinates":[42.1332084,24.7122721]},"atp":false,"tags_mismatch":false},{"osm":{"type":"way","id":314995293,"tags":{"brand":"Т-Маркет","brand:wikidata":"Q64033983","building":"yes","int_name":"T-Market","opening_hours":"Mo-Su,PH 08:00-22:00","shop":"supermarket","website":"https://tmarket.bg/"},"wikidata":"Q64033983","coordinates":[42.641433,23.368113]},"atp":{"id":"X8z0_0UgqjEuO69ytJYZuKWu518=","tags":{"@source_uri":"https://tmarket.bg/page/magazin-mladost-2-2","@spider":"t_market_bg","shop":"supermarket","addr:country":"BG","opening_hours":"Mo-Su 08:00-22:00","brand":"Т-Маркет","brand:wikidata":"Q64033983","nsi_id":"tmarket-56b425"},"coordinates":[42.64146732527601,23.36601251550673]},"dist":171.853,"tags_mismatch":true},{"osm":{"type":"way","id":397622860,"tags":{"brand":"Т-Маркет","brand:wikidata":"Q64033983","building":"supermarket","shop":"supermarket"},"wikidata":"Q64033983","coordinates":[42.0113287,24.8784553]},"atp":{"id":"Quw2VpP3uVkHqdPoe2nED5arC0w=","tags":{"@source_uri":"https://tmarket.bg/page/magazin-asenovgrad","@spider":"t_market_bg","shop":"supermarket","addr:country":"BG","opening_hours":"Mo-Su 08:00-22:00","brand":"Т-Маркет","brand:wikidata":"Q64033983","nsi_id":"tmarket-56b425"},"coordinates":[42.01133066504495,24.876374815490276]},"dist":171.888,"tags_mismatch":true},{"osm":{"type":"way","id":397691858,"tags":{"brand":"Т-Маркет","brand:wikidata":"Q64033983","shop":"supermarket","wheelchair":"yes"},"wikidata":"Q64033983","coordinates":[42.6417933,24.8005273]},"atp":{"id":"jpH8kyQ9t1A8o3mq4mHCpZ1PJOM=","tags":{"@source_uri":"https://tmarket.bg/page/magazin-karlovo","@spider":"t_market_bg","shop":"supermarket","addr:country":"BG","opening_hours":"Mo-Su 08:00-22:00","brand":"Т-Маркет","brand:wikidata":"Q64033983","nsi_id":"tmarket-56b425"},"coordinates":[42.642143325233036,24.79912521550677]},"dist":121.108,"tags_mismatch":true},{"osm":{"type":"way","id":520413980,"tags":{"addr:city":"Ямбол","addr:housenumber":"85","addr:postcode":"8602","addr:street":"Търговска","brand":"Т-Маркет","brand:wikidata":"Q64033983","building":"yes","opening_hours":"Mo-Su 08:00-22:00","payment:cash":"yes","payment:coins":"yes","payment:credit_cards":"yes","payment:debit_cards":"yes","payment:notes":"yes","shop":"supermarket"},"wikidata":"Q64033983","coordinates":[42.4783357,26.5247775]},"atp":false,"tags_mismatch":false},{"osm":{"type":"way","id":530890685,"tags":{"addr:housenumber":"1a","addr:postcode":"2400","addr:street":"ул. Милан Грънчаров","brand":"Т-Маркет","brand:wikidata":"Q64033983","building":"yes","opening_hours":"Mo-Su 08:00-22:00","shop":"supermarket"},"wikidata":"Q64033983","coordinates":[42.5519054,22.9663211]},"atp":{"id":"gHqfN0PT13JbCRwRKKMVFouMvN0=","tags":{"@source_uri":"https://tmarket.bg/page/magazin-radomir","@spider":"t_market_bg","shop":"supermarket","addr:country":"BG","opening_hours":"Mo-Su 08:00-22:00","brand":"Т-Маркет","brand:wikidata":"Q64033983","nsi_id":"tmarket-56b425"},"coordinates":[42.55153843098031,22.964096915504385]},"dist":186.705,"tags_mismatch":false},{"osm":{"type":"way","id":538554226,"tags":{"brand":"Т-Маркет","brand:wikidata":"Q64033983","building":"yes","int_name":"T-Market","shop":"supermarket","website":"https://tmarket.bg/","wheelchair":"yes"},"wikidata":"Q64033983","coordinates":[42.8131117,23.2141788]},"atp":{"id":"CIewPlRzi1nJapgbbFbZV18EXN0=","tags":{"@source_uri":"https://tmarket.bg/page/magazin-kostinbrod","@spider":"t_market_bg","shop":"supermarket","addr:country":"BG","opening_hours":"Mo-Su 08:00-22:00","brand":"Т-Маркет","brand:wikidata":"Q64033983","nsi_id":"tmarket-56b425"},"coordinates":[42.812998914369246,23.212010515511228]},"dist":177.311,"tags_mismatch":true},{"osm":{"type":"way","id":615330404,"tags":{"brand":"Т-Маркет","brand:wikidata":"Q64033983","building":"yes","shop":"supermarket"},"wikidata":"Q64033983","coordinates":[43.2353067,23.1362079]},"atp":{"id":"RhvQ4TAGRWfdVtnrVTVsD_o08gU=","tags":{"@source_uri":"https://tmarket.bg/page/magazin-berkovitsa","@spider":"t_market_bg","shop":"supermarket","addr:country":"BG","opening_hours":"Mo-Su 08:00-22:00","brand":"Т-Маркет","brand:wikidata":"Q64033983","nsi_id":"tmarket-56b425"},"coordinates":[43.23532618736886,23.1340715155225]},"dist":173.084,"tags_mismatch":true},{"osm":{"type":"way","id":686131348,"tags":{"brand":"Т-Маркет","brand:wikidata":"Q64033983","building":"yes","opening_hours":"Mo-Sa08:00-22:00,Su 08:00-21:00","shop":"supermarket","wheelchair":"designated"},"wikidata":"Q64033983","coordinates":[43.4186995,23.2227892]},"atp":{"id":"Ggpr5B6CQgXLoH_J6giqKRVwpjw=","tags":{"@source_uri":"https://tmarket.bg/page/magazin-montana","@spider":"t_market_bg","shop":"supermarket","addr:country":"BG","opening_hours":"Mo-Sa 08:00-22:00; Su 08:00-21:00","brand":"Т-Маркет","brand:wikidata":"Q64033983","nsi_id":"tmarket-56b425"},"coordinates":[43.41861727558581,23.22045801552731]},"dist":188.504,"tags_mismatch":true},{"osm":{"type":"way","id":725452417,"tags":{"brand":"Т-Маркет","brand:wikidata":"Q64033983","building":"yes","shop":"supermarket"},"wikidata":"Q64033983","coordinates":[42.6646233,27.706294]},"atp":{"id":"l5dj7K3XGwW6hvpY-r3CxAc9c9g=","tags":{"@source_uri":"https://tmarket.bg/page/magazin-nesebar","@spider":"t_market_bg","shop":"supermarket","addr:country":"BG","opening_hours":"Mo-Su 08:00-22:00","brand":"Т-Маркет","brand:wikidata":"Q64033983","nsi_id":"tmarket-56b425"},"coordinates":[42.664619323805915,27.70415741550733]},"dist":174.699,"tags_mismatch":true},{"osm":{"type":"way","id":935878848,"tags":{"brand":"Т-Маркет","brand:wikidata":"Q64033983","building":"yes","opening_hours":"Mo-Su 08:00-22:00","shop":"supermarket"},"wikidata":"Q64033983","coordinates":[43.2236421,23.5522044]},"atp":{"id":"vP_8hjrJKcnVGpQmXyMbE-Cv-fM=","tags":{"@source_uri":"https://tmarket.bg/page/magazin-vratsa","@spider":"t_market_bg","shop":"supermarket","addr:country":"BG","opening_hours":"Mo-Su 08:00-22:00","brand":"Т-Маркет","brand:wikidata":"Q64033983","nsi_id":"tmarket-56b425"},"coordinates":[43.2236213881199,23.550016415522194]},"dist":177.299,"tags_mismatch":false},{"osm":{"type":"way","id":1161170236,"tags":{"brand":"Т-Маркет","brand:wikidata":"Q64033983","building":"yes","opening_hours":"08:00-22:00","shop":"supermarket"},"wikidata":"Q64033983","coordinates":[42.8388007,24.0038294]},"atp":false,"tags_mismatch":false},{"osm":{"type":"way","id":1173613534,"tags":{"brand":"Т-Маркет","brand:wikidata":"Q64033983","building":"yes","shop":"supermarket"},"wikidata":"Q64033983","coordinates":[42.6692807,23.5985734]},"atp":{"id":"Ei9cZCIrf0Y_ngXL4l_9KGR6Sck=","tags":{"@source_uri":"https://tmarket.bg/page/magazin-elin-pelin","@spider":"t_market_bg","shop":"supermarket","addr:country":"BG","opening_hours":"Mo-Su 08:00-22:00","brand":"Т-Маркет","brand:wikidata":"Q64033983","nsi_id":"tmarket-56b425"},"coordinates":[42.66921922351372,23.596472915507487]},"dist":171.87,"tags_mismatch":true},{"osm":{"type":"way","id":1263814101,"tags":{"brand":"Т-Маркет","brand:wikidata":"Q64033983","building":"commercial","shop":"supermarket"},"wikidata":"Q64033983","coordinates":[42.1480451,24.7723602]},"atp":{"id":"3aVAGtQSNdZMyfFt-YkBUiNQWr0=","tags":{"@source_uri":"https://tmarket.bg/page/magazin-tsarigradsko-shose-plovdiv","@spider":"t_market_bg","shop":"supermarket","addr:full":"гр.","addr:country":"BG","opening_hours":"Mo-Su 08:00-22:00","brand":"Т-Маркет","brand:wikidata":"Q64033983","nsi_id":"tmarket-56b425"},"coordinates":[42.14815627920161,24.77051391544949]},"dist":152.711,"tags_mismatch":true},{"osm":false,"atp":{"id":"K4fmEDvotl7MGJLwenALT2VrzZI=","tags":{"shop":"supermarket","addr:full":"кв. „Пясъците“ № 15","addr:country":"BG","name":"Т-Маркет","opening_hours":"Mo-Su 08:00-22:00","brand":"Т-Маркет","brand:wikidata":"Q64033983"},"coordinates":[42.6602274,27.7205135]},"tags_mismatch":false,"dist":0},{"osm":false,"atp":{"id":"xFrCfOS8gGYVsFBt6Fv5MHuK-Rk=","tags":{"shop":"supermarket","addr:full":"гр. Момчилград, ул. Гюмюрджинса 63","addr:country":"BG","name":"Т-Маркет","opening_hours":"Mo-Su 08:00-22:00","brand":"Т-Маркет","brand:wikidata":"Q64033983"},"coordinates":[41.5239217,25.411216199999995]},"tags_mismatch":false,"dist":0},{"osm":false,"atp":{"id":"23NzoeiLA1gCcP27azeOZyLrtzk=","tags":{"shop":"supermarket","addr:full":"гр. Кърджали, ул. Първи май 45А","addr:country":"BG","name":"Т-Маркет","opening_hours":"Mo-Su 08:00-21:00","brand":"Т-Маркет","brand:wikidata":"Q64033983"},"coordinates":[41.606592899999995,25.3865207]},"tags_mismatch":false,"dist":0},{"osm":false,"atp":{"id":"aY7XyMsClHvhxIRFMQu6OoCCXjQ=","tags":{"shop":"supermarket","addr:full":"бул. „Цар Борис III-ти Обединител“ 179, 4000 Пловдив","addr:country":"BG","name":"Т-Маркет","opening_hours":"Mo-Su 08:00-22:00","brand":"Т-Маркет","brand:wikidata":"Q64033983"},"coordinates":[42.137378206323405,24.75484372850105]},"tags_mismatch":false,"dist":0},{"osm":false,"atp":{"id":"JFM24oLI6wDpXVmCWRIqAi3-IF8=","tags":{"shop":"supermarket","addr:full":"ул. „Бачо Киро“ 4, 6100 Калиакчийски","addr:country":"BG","name":"Т-Маркет","opening_hours":"Mo-Su 08:00-22:00","brand":"Т-Маркет","brand:wikidata":"Q64033983"},"coordinates":[42.6149283,25.3906752]},"tags_mismatch":false,"dist":0},{"osm":false,"atp":{"id":"V7E1XjMGpAlkVfaedJANbZq-aTs=","tags":{"shop":"supermarket","addr:full":"ул. „Княз Борис I“ №54, Твърдица, България","addr:country":"BG","name":"Т-Маркет","opening_hours":"Mo-Su 08:00-22:00","brand":"Т-Маркет","brand:wikidata":"Q64033983"},"coordinates":[42.6895324,23.3167898]},"tags_mismatch":false,"dist":0},{"osm":false,"atp":{"id":"CdlvObWEVQmkqSHYhZYpSipjoyI=","tags":{"shop":"supermarket","addr:full":"ж.к. Славейков 214, 8010 ж.к. Петко Р. Славейков, Бургас, България","addr:country":"BG","name":"Т-Маркет","opening_hours":"Mo-Su 08:00-22:00","brand":"Т-Маркет","brand:wikidata":"Q64033983"},"coordinates":[42.5202689,27.4516176]},"tags_mismatch":false,"dist":0},{"osm":false,"atp":{"id":"HevvIHlpDAlgK-j4fz2Tgm8JUew=","tags":{"shop":"supermarket","addr:country":"BG","name":"Т-Маркет","opening_hours":"Mo-Su 08:00-22:00","brand":"Т-Маркет","brand:wikidata":"Q64033983"},"coordinates":[42.0553855,25.5872625]},"tags_mismatch":false,"dist":0},{"osm":false,"atp":{"id":"EEVhe4uk0qTW_hQPiBTRWuBcwqA=","tags":{"shop":"supermarket","addr:country":"BG","name":"Т-Маркет","opening_hours":"Mo-Su 08:00-21:00","brand":"Т-Маркет","brand:wikidata":"Q64033983"},"coordinates":[42.18708276097957,24.335090424267566]},"tags_mismatch":false,"dist":0},{"osm":false,"atp":false,"tags_mismatch":false,"dist":0},{"osm":false,"atp":{"id":"pHqQroQeke10te73FRYe-AI6KZk=","tags":{"shop":"supermarket","addr:full":"гр. Бургас","addr:country":"BG","name":"Т-Маркет","opening_hours":"Mo-Su 08:00-22:00","brand":"Т-Маркет","brand:wikidata":"Q64033983"},"coordinates":[42.45523,27.418675]},"tags_mismatch":false,"dist":0},{"osm":false,"atp":{"id":"gnOLhibaVE39lNJhBCSNRZynCrk=","tags":{"shop":"supermarket","addr:country":"BG","name":"Т-Маркет","opening_hours":"Mo-Su 08:00-22:00","brand":"Т-Маркет","brand:wikidata":"Q64033983"},"coordinates":[42.0993826,27.9396268]},"tags_mismatch":false,"dist":0},{"osm":false,"atp":{"id":"9eykJgiX7BI5N5JIfAM4UrDWAVc=","tags":{"shop":"supermarket","addr:country":"BG","name":"Т-Маркет","opening_hours":"Mo-Su 08:00-22:00","brand":"Т-Маркет","brand:wikidata":"Q64033983"},"coordinates":[42.4396423,27.6375164]},"tags_mismatch":false,"dist":0},{"osm":false,"atp":{"id":"EbuvrrEwtHtUAPk7XXNIHGhdWCI=","tags":{"shop":"supermarket","addr:full":"гр. Плевен, пл. Иван Миндиликов № 1","addr:country":"BG","name":"Т-Маркет","opening_hours":"Mo-Su 10:00-21:30","brand":"Т-Маркет","brand:wikidata":"Q64033983"},"coordinates":[43.4201143,24.6200017]},"tags_mismatch":false,"dist":0},{"osm":false,"atp":false,"tags_mismatch":false,"dist":0},{"osm":false,"atp":false,"tags_mismatch":false,"dist":0},{"osm":false,"atp":false,"tags_mismatch":false,"dist":0},{"osm":false,"atp":{"id":"mG13_AH8YKa5pRJoqM5mLNEr_tI=","tags":{"shop":"supermarket","addr:country":"BG","name":"Т-Маркет","opening_hours":"Mo-Su 08:00-22:00","brand":"Т-Маркет","brand:wikidata":"Q64033983"},"coordinates":[42.67856526735187,23.288343497618072]},"tags_mismatch":false,"dist":0},{"osm":false,"atp":false,"tags_mismatch":false,"dist":0},{"osm":false,"atp":false,"tags_mismatch":false,"dist":0},{"osm":false,"atp":false,"tags_mismatch":false,"dist":0},{"osm":false,"atp":{"id":"wq2hAzFa1Eln5nHeZh6b7ANVwcs=","tags":{"shop":"supermarket","addr:country":"BG","name":"Т-Маркет","opening_hours":"Mo-Su 08:00-22:00","brand":"Т-Маркет","brand:wikidata":"Q64033983"},"coordinates":[42.669590676600826,23.31042534756583]},"tags_mismatch":false,"dist":0},{"osm":false,"atp":false,"tags_mismatch":false,"dist":0},{"osm":false,"atp":{"id":"75MTKj22SIQKuzEIjKbJthMHaRM=","tags":{"shop":"supermarket","addr:country":"BG","name":"Т-Маркет","opening_hours":"Mo-Su 08:00-22:00","brand":"Т-Маркет","brand:wikidata":"Q64033983"},"coordinates":[42.63525606138228,23.37398923787756]},"tags_mismatch":false,"dist":0},{"osm":false,"atp":false,"tags_mismatch":false,"dist":0},{"osm":false,"atp":{"id":"LyCmEBYx_w6vQ4SgNCT7SsAIQ-8=","tags":{"shop":"supermarket","addr:country":"BG","name":"Т-Маркет","opening_hours":"Mo-Su 08:00-22:00","brand":"Т-Маркет","brand:wikidata":"Q64033983"},"coordinates":[42.68323990495381,23.37217962156426]},"tags_mismatch":false,"dist":0},{"osm":false,"atp":false,"tags_mismatch":false,"dist":0},{"osm":false,"atp":false,"tags_mismatch":false,"dist":0},{"osm":false,"atp":{"id":"M7x-fPqeW8w9JlaQLKhDmZxlz4s=","tags":{"shop":"supermarket","addr:country":"BG","name":"Т-Маркет","opening_hours":"Mo-Su 08:00-22:00","brand":"Т-Маркет","brand:wikidata":"Q64033983"},"coordinates":[42.69933962159969,23.278124815755806]},"tags_mismatch":false,"dist":0},{"osm":false,"atp":false,"tags_mismatch":false,"dist":0},{"osm":false,"atp":false,"tags_mismatch":false,"dist":0},{"osm":false,"atp":false,"tags_mismatch":false,"dist":0},{"osm":false,"atp":false,"tags_mismatch":false,"dist":0},{"osm":false,"atp":{"id":"FicU9YXEVl-6kYedUrRWOn5Q0qI=","tags":{"shop":"supermarket","addr:country":"BG","name":"Т-Маркет","opening_hours":"Mo-Su 08:00-22:00","brand":"Т-Маркет","brand:wikidata":"Q64033983"},"coordinates":[42.708246984149625,23.255086742780115]},"tags_mismatch":false,"dist":0},{"osm":false,"atp":false,"tags_mismatch":false,"dist":0},{"osm":false,"atp":false,"tags_mismatch":false,"dist":0},{"osm":false,"atp":false,"tags_mismatch":false,"dist":0},{"osm":false,"atp":{"id":"pNjHacFylIkfXqhiSlYtzAh_5dA=","tags":{"shop":"supermarket","addr:country":"BG","name":"Т-Маркет","opening_hours":"Mo-Su 08:00-22:00","brand":"Т-Маркет","brand:wikidata":"Q64033983"},"coordinates":[42.698004106246565,23.28139248021403]},"tags_mismatch":false,"dist":0},{"osm":false,"atp":false,"tags_mismatch":false,"dist":0},{"osm":false,"atp":false,"tags_mismatch":false,"dist":0},{"osm":false,"atp":{"id":"VR6wbGb4Dp8ZmHD7Ci_8iXkuAUo=","tags":{"shop":"supermarket","addr:country":"BG","name":"Т-Маркет","opening_hours":"Mo-Su 08:00-22:00","brand":"Т-Маркет","brand:wikidata":"Q64033983"},"coordinates":[42.12040887920366,24.73061121522299]},"tags_mismatch":false,"dist":0},{"osm":false,"atp":{"id":"6WtPLEKZjMPT58oXPZGMVkZ58bM=","tags":{"shop":"supermarket","addr:country":"BG","name":"Т-Маркет","opening_hours":"Mo-Su 08:00-22:00","brand":"Т-Маркет","brand:wikidata":"Q64033983"},"coordinates":[42.133988979202684,24.79162711522348]},"tags_mismatch":false,"dist":0},{"osm":false,"atp":{"id":"NkNFf75kwHF8kZt9uCDmJ5ke6RE=","tags":{"shop":"supermarket","addr:country":"BG","name":"Т-Маркет","opening_hours":"Mo-Su 08:00-22:00","brand":"Т-Маркет","brand:wikidata":"Q64033983"},"coordinates":[42.134170979202786,24.709180315223403]},"tags_mismatch":false,"dist":0},{"osm":false,"atp":false,"tags_mismatch":false,"dist":0},{"osm":false,"atp":{"id":"k3hpmEBgdInPidJsEZWOdqjW_50=","tags":{"shop":"supermarket","addr:country":"BG","name":"Т-Маркет","opening_hours":"Mo-Su 08:00-22:00","brand":"Т-Маркет","brand:wikidata":"Q64033983"},"coordinates":[42.13598069999999,24.716055817443834]},"tags_mismatch":false,"dist":0},{"osm":false,"atp":{"id":"nVRBK3DK-mvvdL_jU6N13dm5AL0=","tags":{"shop":"supermarket","addr:country":"BG","name":"Т-Маркет","opening_hours":"Mo-Su 08:00-22:00","brand":"Т-Маркет","brand:wikidata":"Q64033983"},"coordinates":[42.12871600000001,24.771477669775404]},"tags_mismatch":false,"dist":0},{"osm":false,"atp":{"id":"dTzdAm6-6e97SnRRe-9PeV8gBxk=","tags":{"shop":"supermarket","addr:country":"BG","name":"Т-Маркет","opening_hours":"Mo-Su 08:00-22:00","brand":"Т-Маркет","brand:wikidata":"Q64033983"},"coordinates":[42.13451061724063,24.77829883425784]},"tags_mismatch":false,"dist":0},{"osm":false,"atp":false,"tags_mismatch":false,"dist":0},{"osm":false,"atp":{"id":"Ecf5eP5TO_532BIQwPXcN5zAooM=","tags":{"shop":"supermarket","addr:country":"BG","name":"Т-Маркет","opening_hours":"Mo-Su 08:00-22:00","brand":"Т-Маркет","brand:wikidata":"Q64033983"},"coordinates":[42.14823807920169,24.729804715223956]},"tags_mismatch":false,"dist":0},{"osm":false,"atp":false,"tags_mismatch":false,"dist":0},{"osm":false,"atp":{"id":"OJqLCWZ_IxqBfcPT6A_tu56ArcU=","tags":{"shop":"supermarket","addr:country":"BG","name":"Т-Маркет","opening_hours":"Mo-Su 08:00-22:00","brand":"Т-Маркет","brand:wikidata":"Q64033983"},"coordinates":[42.15251507920126,24.785246615224025]},"tags_mismatch":false,"dist":0},{"osm":false,"atp":false,"tags_mismatch":false,"dist":0},{"osm":false,"atp":false,"tags_mismatch":false,"dist":0},{"osm":false,"atp":{"id":"F97PkiQuDvVM2SxIXZCtJiaXSew=","tags":{"shop":"supermarket","addr:country":"BG","name":"Т-Маркет","opening_hours":"Mo-Su 08:00-22:00","brand":"Т-Маркет","brand:wikidata":"Q64033983"},"coordinates":[42.69310652199568,23.357843315755705]},"tags_mismatch":false,"dist":0},{"osm":false,"atp":false,"tags_mismatch":false,"dist":0},{"osm":false,"atp":false,"tags_mismatch":false,"dist":0},{"osm":false,"atp":false,"tags_mismatch":false,"dist":0},{"osm":false,"atp":{"id":"rTY338bTdebcIFpUsZNce4lDdsE=","tags":{"shop":"supermarket","addr:country":"BG","name":"Т-Маркет","opening_hours":"Mo-Sa 08:00-22:00; Su 08:00-21:00","brand":"Т-Маркет","brand:wikidata":"Q64033983"},"coordinates":[42.7064888,23.276462969775377]},"tags_mismatch":false,"dist":0},{"osm":false,"atp":false,"tags_mismatch":false,"dist":0},{"osm":false,"atp":false,"tags_mismatch":false,"dist":0},{"osm":false,"atp":false,"tags_mismatch":false,"dist":0},{"osm":false,"atp":false,"tags_mismatch":false,"dist":0},{"osm":false,"atp":false,"tags_mismatch":false,"dist":0},{"osm":false,"atp":false,"tags_mismatch":false,"dist":0},{"osm":false,"atp":false,"tags_mismatch":false,"dist":0},{"osm":false,"atp":false,"tags_mismatch":false,"dist":0},{"osm":false,"atp":false,"tags_mismatch":false,"dist":0},{"osm":false,"atp":false,"tags_mismatch":false,"dist":0},{"osm":false,"atp":false,"tags_mismatch":false,"dist":0},{"osm":false,"atp":{"id":"CNjMCf1O3MT0-VL2ZKuwGbihwH4=","tags":{"shop":"supermarket","addr:country":"BG","name":"Т-Маркет","opening_hours":"Mo-Su 07:00-20:30","brand":"Т-Маркет","brand:wikidata":"Q64033983"},"coordinates":[43.23574928734208,25.31148781531383]},"tags_mismatch":false,"dist":0},{"osm":false,"atp":{"id":"k8PdX44kcHPW8vW7rFHWP1LWSf8=","tags":{"shop":"supermarket","addr:country":"BG","name":"Т-Маркет","opening_hours":"Mo-Su 08:00-22:00","brand":"Т-Маркет","brand:wikidata":"Q64033983"},"coordinates":[43.348147080121024,26.231844615317147]},"tags_mismatch":false,"dist":0},{"osm":false,"atp":{"id":"VvE8e4wCWPSigNkoei9yIPVp93s=","tags":{"shop":"supermarket","addr:country":"BG","name":"Т-Маркет","opening_hours":"Mo-Su 08:00-22:00","brand":"Т-Маркет","brand:wikidata":"Q64033983"},"coordinates":[43.348147080121024,26.231844615317147]},"tags_mismatch":false,"dist":0},{"osm":false,"atp":false,"tags_mismatch":false,"dist":0},{"osm":false,"atp":{"id":"aodT2lbhkjUVVY8UVGghxaN25cU=","tags":{"shop":"supermarket","addr:country":"BG","name":"Т-Маркет","opening_hours":"Mo-Su 08:00-22:00","brand":"Т-Маркет","brand:wikidata":"Q64033983"},"coordinates":[42.799955579159715,23.338892315470222]},"tags_mismatch":false,"dist":0},{"osm":false,"atp":false,"tags_mismatch":false,"dist":0},{"osm":false,"atp":{"id":"emjRo6BDDC6ObC4OChM1EBl-_RA=","tags":{"shop":"supermarket","addr:country":"BG","name":"Т-Маркет","opening_hours":"Mo-Su 08:00-22:00","brand":"Т-Маркет","brand:wikidata":"Q64033983"},"coordinates":[42.47592967214768,26.525786964556897]},"tags_mismatch":false,"dist":0},{"osm":false,"atp":false,"tags_mismatch":false,"dist":0},{"osm":false,"atp":{"id":"zlCcEN7tQjPUz7AcEtOYDO_tTYE=","tags":{"shop":"supermarket","addr:country":"BG","name":"Т-Маркет","opening_hours":"Mo-Su 08:00-22:00","brand":"Т-Маркет","brand:wikidata":"Q64033983"},"coordinates":[42.83464531299039,23.996474415511866]},"tags_mismatch":false,"dist":0},{"osm":false,"atp":false,"tags_mismatch":false,"dist":0},{"osm":false,"atp":false,"tags_mismatch":false,"dist":0},{"osm":false,"atp":false,"tags_mismatch":false,"dist":0},{"osm":false,"atp":{"id":"JnhvnEdnZmDCs3HoW3QusEHNhj0=","tags":{"shop":"supermarket","addr:country":"BG","name":"Т-Маркет","opening_hours":"Mo-Su 08:00-22:00","brand":"Т-Маркет","brand:wikidata":"Q64033983"},"coordinates":[42.716286620523,24.135601915508754]},"tags_mismatch":false,"dist":0},{"osm":false,"atp":false,"tags_mismatch":false,"dist":0},{"osm":false,"atp":{"id":"6GerXyzcGHcjuCE7Ey92Rr76-sI=","tags":{"shop":"supermarket","addr:country":"BG","name":"Т-Маркет","opening_hours":"Mo-Su 08:00-22:00","brand":"Т-Маркет","brand:wikidata":"Q64033983"},"coordinates":[42.596466206202855,23.016428161738833]},"tags_mismatch":false,"dist":0},{"osm":false,"atp":{"id":"8GEXesM_neM4szWyPqFro91B-Qc=","tags":{"shop":"supermarket","addr:country":"BG","name":"Т-Маркет","opening_hours":"Mo-Su 08:00-22:00","brand":"Т-Маркет","brand:wikidata":"Q64033983"},"coordinates":[42.59658191003034,23.01642813982397]},"tags_mismatch":false,"dist":0},{"osm":false,"atp":false,"tags_mismatch":false,"dist":0},{"osm":false,"atp":false,"tags_mismatch":false,"dist":0},{"osm":false,"atp":false,"tags_mismatch":false,"dist":0},{"osm":false,"atp":false,"tags_mismatch":false,"dist":0},{"osm":false,"atp":{"id":"PXAASdguT2iY96esePI7kgW00vQ=","tags":{"shop":"supermarket","addr:country":"BG","name":"Т-Маркет","opening_hours":"Mo-Su 08:00-22:00","brand":"Т-Маркет","brand:wikidata":"Q64033983"},"coordinates":[43.82124569956568,23.237750115538216]},"tags_mismatch":false,"dist":0},{"osm":false,"atp":false,"tags_mismatch":false,"dist":0},{"osm":false,"atp":{"id":"MNy8ux3u7zV3mD4X6h07ft4usx8=","tags":{"shop":"supermarket","addr:country":"BG","name":"Т-Маркет","opening_hours":"Mo-Sa 08:00-22:00; Su 08:00-21:00","brand":"Т-Маркет","brand:wikidata":"Q64033983"},"coordinates":[43.4233955752781,24.59244831552752]},"tags_mismatch":false,"dist":0},{"osm":false,"atp":false,"tags_mismatch":false,"dist":0},{"osm":false,"atp":false,"tags_mismatch":false,"dist":0},{"osm":false,"atp":{"id":"SvQ-Q17VSKaBnqBIme_0X_UZf5o=","tags":{"shop":"supermarket","addr:country":"BG","name":"Т-Маркет","opening_hours":"Mo-Su 08:00-21:00","brand":"Т-Маркет","brand:wikidata":"Q64033983"},"coordinates":[42.812998914369246,23.212010515511228]},"tags_mismatch":false,"dist":0},{"osm":false,"atp":{"id":"JSk01o5ORSlOc1lT5QColQvM92U=","tags":{"shop":"supermarket","addr:country":"BG","name":"Т-Маркет","opening_hours":"Mo-Sa 08:00-22:00; Su 08:00-21:00","brand":"Т-Маркет","brand:wikidata":"Q64033983"},"coordinates":[43.515700069329,26.51403071552993]},"tags_mismatch":false,"dist":0},{"osm":false,"atp":false,"tags_mismatch":false,"dist":0},{"osm":false,"atp":{"id":"sBy4w26peP8H4CgUN7-0DBc-VAs=","tags":{"shop":"supermarket","addr:country":"BG","name":"Т-Маркет","opening_hours":"Mo-Su 08:00-22:00","brand":"Т-Маркет","brand:wikidata":"Q64033983"},"coordinates":[42.11494165216143,24.824381222780882]},"tags_mismatch":false,"dist":0},{"osm":false,"atp":false,"tags_mismatch":false,"dist":0},{"osm":false,"atp":{"id":"KhUHKkoGFsB_sHFLMEICdQbB-To=","tags":{"shop":"supermarket","addr:country":"BG","name":"Т-Маркет","opening_hours":"Mo-Su 07:30-24:00","brand":"Т-Маркет","brand:wikidata":"Q64033983"},"coordinates":[42.66399202384533,23.347144615755134]},"tags_mismatch":false,"dist":0},{"osm":false,"atp":{"id":"u8YBRRDF8O8C8LC_0itM-FPyTJU=","tags":{"shop":"supermarket","addr:country":"BG","name":"Т-Маркет","opening_hours":"Mo-Su 08:00-22:00","brand":"Т-Маркет","brand:wikidata":"Q64033983"},"coordinates":[42.68145703287425,25.48143430682214]},"tags_mismatch":false,"dist":0},{"osm":false,"atp":{"id":"K-VQ543EO-t08c9S-E8hnKcpg2I=","tags":{"shop":"supermarket","addr:country":"BG","name":"Т-Маркет","opening_hours":"Mo-Su 08:00-22:00","brand":"Т-Маркет","brand:wikidata":"Q64033983"},"coordinates":[42.71729677916456,23.238987415467687]},"tags_mismatch":false,"dist":0},{"osm":false,"atp":{"id":"WUYhoikcKAOLQUkznlPEM6lYjWk=","tags":{"shop":"supermarket","addr:country":"BG","name":"Т-Маркет","opening_hours":"Mo-Su 08:00-22:00","brand":"Т-Маркет","brand:wikidata":"Q64033983"},"coordinates":[41.77087898009736,26.19698831481086]},"tags_mismatch":false,"dist":0},{"osm":false,"atp":{"id":"bRDrYLwj5Q5HP9tic-WylUox-AM=","tags":{"shop":"supermarket","addr:country":"BG","name":"Т-Маркет","opening_hours":"Mo-Su 08:00-22:00","brand":"Т-Маркет","brand:wikidata":"Q64033983"},"coordinates":[42.2661647791933,27.74513351545337]},"tags_mismatch":false,"dist":0},{"osm":false,"atp":{"id":"ND9AQgrwZV8rz_XmiwBv6ldtHE4=","tags":{"shop":"supermarket","addr:country":"BG","name":"Т-Маркет","opening_hours":"Mo-Su 08:00-22:00","brand":"Т-Маркет","brand:wikidata":"Q64033983"},"coordinates":[42.8760194,27.8879606]},"tags_mismatch":false,"dist":0},{"osm":false,"atp":{"id":"yQ_Gfa_1WaU7JffjRUzuNauUy1k=","tags":{"shop":"supermarket","addr:country":"BG","name":"Т-Маркет","opening_hours":"Mo-Su 08:00-22:00","brand":"Т-Маркет","brand:wikidata":"Q64033983"},"coordinates":[41.47720624204541,25.646787491214525]},"tags_mismatch":false,"dist":0},{"osm":false,"atp":false,"tags_mismatch":false,"dist":0},{"osm":false,"atp":{"id":"kSxm9Svw6EXQclXlwJleOT70Ryo=","tags":{"shop":"supermarket","addr:country":"BG","name":"Т-Маркет","opening_hours":"Mo-Su 08:00-22:00","brand":"Т-Маркет","brand:wikidata":"Q64033983"},"coordinates":[42.364642479186564,23.003404515456396]},"tags_mismatch":false,"dist":0},{"osm":false,"atp":{"id":"HYNf9qszvE-sSnstj1kMZI1W8Pw=","tags":{"shop":"supermarket","addr:country":"BG","name":"Т-Маркет","opening_hours":"Mo-Su 08:00-22:00","brand":"Т-Маркет","brand:wikidata":"Q64033983"},"coordinates":[41.74101997923316,24.401301315436783]},"tags_mismatch":false,"dist":0},{"osm":false,"atp":{"id":"093sfDvArzHuRz0q12sWRuvtKxw=","tags":{"shop":"supermarket","addr:full":"гр. Стамболийски, ул. Търговска №50","addr:country":"BG","name":"Т-Маркет","opening_hours":"Mo-Su 08:00-22:00","brand":"Т-Маркет","brand:wikidata":"Q64033983"},"coordinates":[42.13261227920296,24.53072771544915]},"tags_mismatch":false,"dist":0},{"osm":false,"atp":false,"tags_mismatch":false,"dist":0},{"osm":false,"atp":{"id":"ZnuOEqpyeZjsuZyaeNnZz1zOZ0w=","tags":{"shop":"supermarket","addr:full":"гр. Свищов","addr:country":"BG","name":"Т-Маркет","opening_hours":"Mo-Su 08:00-22:00","brand":"Т-Маркет","brand:wikidata":"Q64033983"},"coordinates":[43.612954179122745,25.344436415496467]},"tags_mismatch":false,"dist":0},{"osm":false,"atp":false,"tags_mismatch":false,"dist":0},{"osm":false,"atp":{"id":"JjGYvJj1lw5T-AdllEt-YGutcco=","tags":{"shop":"supermarket","addr:country":"BG","name":"Т-Маркет","opening_hours":"Mo-Su 08:00-22:00","brand":"Т-Маркет","brand:wikidata":"Q64033983"},"coordinates":[42.183399979199145,26.57234111545085]},"tags_mismatch":false,"dist":0},{"osm":false,"atp":{"id":"HQA8yNQMeN9aztSXX7lG2YlEE-8=","tags":{"shop":"supermarket","addr:country":"BG","name":"Т-Маркет","opening_hours":"Mo-Su 08:00-21:00","brand":"Т-Маркет","brand:wikidata":"Q64033983"},"coordinates":[43.79499427911659,26.49837881550227]},"tags_mismatch":false,"dist":0},{"osm":false,"atp":{"id":"Qxqfk7ChO9EfTTYs3st1hLdFA7U=","tags":{"shop":"supermarket","addr:full":"гр. Котел, ул. Хаджи Къна Боева №4, ет.2","addr:country":"BG","name":"Т-Маркет","opening_hours":"Mo-Su 08:00-21:00","brand":"Т-Маркет","brand:wikidata":"Q64033983"},"coordinates":[42.888279179154935,26.443331015473056]},"tags_mismatch":false,"dist":0},{"osm":false,"atp":false,"tags_mismatch":false,"dist":0},{"osm":false,"atp":{"id":"Gvs0hGORChZeW6I-qW4d9Eq_--o=","tags":{"shop":"supermarket","addr:full":"гр. Поморие, ул.Професор Стоянов 23","addr:country":"BG","name":"Т-Маркет","opening_hours":"Mo-Su 08:00-24:00","brand":"Т-Маркет","brand:wikidata":"Q64033983"},"coordinates":[42.561571400000005,27.6388335]},"tags_mismatch":false,"dist":0},{"osm":false,"atp":false,"tags_mismatch":false,"dist":0},{"osm":false,"atp":{"id":"_8XkZXBamvinicFEZoecex5gXaU=","tags":{"shop":"supermarket","addr:full":"ул. Тича 25","addr:country":"BG","name":"Т-Маркет","opening_hours":"Mo-Su 08:00-22:00","brand":"Т-Маркет","brand:wikidata":"Q64033983"},"coordinates":[42.995263,27.7219173]},"tags_mismatch":false,"dist":0},{"osm":false,"atp":{"id":"g38NkAWA0Zq6MSOmIlcIxh3LJBw=","tags":{"shop":"supermarket","addr:full":"Горна Оряховица, ул. Васил Левски 10","addr:country":"BG","name":"Т-Маркет","opening_hours":"Mo-Su 08:00-22:00","brand":"Т-Маркет","brand:wikidata":"Q64033983"},"coordinates":[43.1322052,25.6843404]},"tags_mismatch":false,"dist":0},{"osm":false,"atp":{"id":"6iFls0ib-uJdQPZGEYAtCdXhVGE=","tags":{"shop":"supermarket","addr:full":"гр. Петрич, ул.Свобода 33","addr:country":"BG","name":"Т-Маркет","opening_hours":"Mo-Su 08:00-22:00","brand":"Т-Маркет","brand:wikidata":"Q64033983"},"coordinates":[41.4034669,23.2044808]},"tags_mismatch":false,"dist":0},{"osm":false,"atp":false,"tags_mismatch":false,"dist":0},{"osm":false,"atp":{"id":"vEFjjePd_cjpQ3UbQHDjiljen4U=","tags":{"shop":"supermarket","addr:full":"гр. Нови Пазар, ул. Оборище 29","addr:country":"BG","name":"Т-Маркет","opening_hours":"Mo-Su 08:00-21:00","brand":"Т-Маркет","brand:wikidata":"Q64033983"},"coordinates":[43.3472628,27.1970594]},"tags_mismatch":false,"dist":0},{"osm":false,"atp":{"id":"xF2Xv8CS33ytQZYZi_omrLyV3zI=","tags":{"shop":"supermarket","addr:full":"гр. София, пл. Велчова Завера 1","addr:country":"BG","name":"Т-Маркет","opening_hours":"Mo-Su 08:00-22:00","brand":"Т-Маркет","brand:wikidata":"Q64033983"},"coordinates":[42.67751333522726,23.33876635089288]},"tags_mismatch":false,"dist":0},{"osm":false,"atp":{"id":"U4HbIaMrKhHlcvBSAOMFHdAk9kI=","tags":{"shop":"supermarket","addr:full":"ул. \"Никола Попов\" № 2A","addr:country":"BG","name":"Т-Маркет","opening_hours":"Mo-Su 08:00-22:00","brand":"Т-Маркет","brand:wikidata":"Q64033983"},"coordinates":[42.35271552593948,27.19190163802795]},"tags_mismatch":false,"dist":0},{"osm":false,"atp":{"id":"G36vHb1-iu4Xy7k7o9YfLp7mIK0=","tags":{"shop":"supermarket","addr:country":"BG","name":"Т-Маркет","opening_hours":"Mo-Su 08:00-22:00","brand":"Т-Маркет","brand:wikidata":"Q64033983"},"coordinates":[42.031438542519055,24.004668395308787]},"tags_mismatch":false,"dist":0},{"osm":false,"atp":{"id":"BW1Z3bzbl0U46MNyWJ1f4W4QZZ4=","tags":{"shop":"supermarket","addr:full":"гр. Божурище, бул. ЕВРОПА 22","addr:country":"BG","name":"Т-Маркет","opening_hours":"Mo-Su 08:00-22:00","brand":"Т-Маркет","brand:wikidata":"Q64033983"},"coordinates":[42.76267808569189,23.197367205872453]},"tags_mismatch":false,"dist":0},{"osm":false,"atp":{"id":"rAbo_BYMCBrQBjq4-iaCKlSRTqI=","tags":{"shop":"supermarket","addr:country":"BG","name":"Т-Маркет","opening_hours":"Mo-Su 07:30-24:00","brand":"Т-Маркет","brand:wikidata":"Q64033983"},"coordinates":[42.13143399323977,27.889222435198107]},"tags_mismatch":false,"dist":0},{"osm":false,"atp":{"id":"-g0sJ8p-iUfXI6pSpOT9qQPr6NI=","tags":{"shop":"supermarket","addr:full":"гр.Панагюрище, ул. Райна Княгиня №1","addr:country":"BG","name":"Т-Маркет","opening_hours":"Mo-Su 08:00-22:00","brand":"Т-Маркет","brand:wikidata":"Q64033983"},"coordinates":[42.50563588456046,24.18343009239301]},"tags_mismatch":false,"dist":0},{"osm":false,"atp":{"id":"e3-pLF6Qy1PB3H0CtkxBsMhaQRI=","tags":{"shop":"supermarket","addr:full":"гр.Кюстендил, ул. Тинтява 49","addr:country":"BG","name":"Т-Маркет","opening_hours":"Mo-Su 08:00-22:00","brand":"Т-Маркет","brand:wikidata":"Q64033983"},"coordinates":[42.27505559409869,22.668973302007636]},"tags_mismatch":false,"dist":0},{"osm":false,"atp":{"id":"OrNJjp3mCnqufgpFGF5c3J9RZ-w=","tags":{"shop":"supermarket","addr:full":"гр.Кричим, пл. Демокрация 8","addr:country":"BG","name":"Т-Маркет","opening_hours":"Mo-Su 08:00-22:00","brand":"Т-Маркет","brand:wikidata":"Q64033983"},"coordinates":[42.04380267208937,24.467277058370197]},"tags_mismatch":false,"dist":0},{"osm":false,"atp":{"id":"YkCDg-G969Teh2wjPrUlIPzIpPM=","tags":{"shop":"supermarket","addr:full":"гр.Смолян, бул. България 4, ет.1","addr:country":"BG","name":"Т-Маркет","opening_hours":"Mo-Su 08:00-22:00","brand":"Т-Маркет","brand:wikidata":"Q64033983"},"coordinates":[41.574315728103365,24.716220741029062]},"tags_mismatch":false,"dist":0},{"osm":false,"atp":{"id":"-g5xMt6UzLFAErqiV8vngeFijNc=","tags":{"shop":"supermarket","addr:full":"гр.София, ул. Академик Жак Натан 11","addr:country":"BG","name":"Т-Маркет","opening_hours":"Mo-Su 07:30-24:00","brand":"Т-Маркет","brand:wikidata":"Q64033983"},"coordinates":[42.65264501533263,23.346457217621037]},"tags_mismatch":false,"dist":0},{"osm":false,"atp":{"id":"QZf1JxN5heP1TUnoZ7OyOq7BCr4=","tags":{"shop":"supermarket","addr:full":"гр.Бургас, кв. Славейков 186","addr:country":"BG","name":"Т-Маркет","opening_hours":"Mo-Su 08:00-22:00","brand":"Т-Маркет","brand:wikidata":"Q64033983"},"coordinates":[42.5197362169236,27.456808369808044]},"tags_mismatch":false,"dist":0},{"osm":false,"atp":{"id":"-2BT57um3cgCTb6Fo5x_Ep67Puo=","tags":{"shop":"supermarket","addr:full":"гр.Чирпан, ул. Неделчо Николов 5","addr:country":"BG","name":"Т-Маркет","opening_hours":"Mo-Su 08:00-22:00","brand":"Т-Маркет","brand:wikidata":"Q64033983"},"coordinates":[42.19826548545018,25.323037633746143]},"tags_mismatch":false,"dist":0},{"osm":false,"atp":{"id":"JleMLq9hDI_sgMxMTS4TzbY9Nt4=","tags":{"shop":"supermarket","addr:full":"гр. Девня, ул. Съединение 111","addr:country":"BG","name":"Т-Маркет","opening_hours":"Mo-Su 08:00-22:00","brand":"Т-Маркет","brand:wikidata":"Q64033983"},"coordinates":[43.20771492499978,27.643236780676006]},"tags_mismatch":false,"dist":0},{"osm":false,"atp":{"id":"rGnVj43IXx6He-YnWBAREq2WEdE=","tags":{"shop":"supermarket","addr:full":"гр. Исперих, ул. Христо Смирненски 61 Б","addr:country":"BG","name":"Т-Маркет","opening_hours":"Mo-Su 08:00-22:00","brand":"Т-Маркет","brand:wikidata":"Q64033983"},"coordinates":[43.68376369740274,26.76966035891706]},"tags_mismatch":false,"dist":0},{"osm":false,"atp":{"id":"cwVXR07NLiiZnevtOLWWxzv4pLA=","tags":{"shop":"supermarket","addr:country":"BG","name":"Т-Маркет","opening_hours":"Mo-Su 08:00-22:00","brand":"Т-Маркет","brand:wikidata":"Q64033983"},"coordinates":[42.60230691685563,23.033369999999998]},"tags_mismatch":false,"dist":0},{"osm":false,"atp":{"id":"82GrNK441mjBpKbcwAlGEEafipE=","tags":{"shop":"supermarket","addr:country":"BG","name":"Т-Маркет","opening_hours":"Mo-Su 08:00-22:00","brand":"Т-Маркет","brand:wikidata":"Q64033983"},"coordinates":[42.5018993,26.5261273]},"tags_mismatch":false,"dist":0}]}