{"metadata":{"name":"Praktiker","key":"shop","value":"doityourself","compare_keys":["opening_hours"]},"data":[{"osm":{"type":"node","id":2318943441,"tags":{"addr:city":"Велико Търново","addr:housenumber":"17","addr:postcode":"5002","addr:street":"Магистрална","brand":"Praktiker","brand:wikidata":"Q110399491","opening_hours":"Mo-Sa 08:00-20:00; Su 08:30-19:30","phone":"+359 62 668 100","shop":"doityourself","wheelchair":"yes"},"wikidata":"Q110399491","coordinates":[43.0730362,25.6137174]},"atp":{"id":"Wu1rvZWlhfqfNYJ_2YATaWti12k=","tags":{"ref":"1610","@source_uri":"https://api.praktiker.bg/videoluxcommercewebservices/v2/praktiker/mapbox/customerpreferedstore","@spider":"praktiker_bg","shop":"doityourself","addr:street_address":"ул. Магистрална 17","addr:city":"Велико Търново","addr:postcode":"5002","addr:country":"BG","opening_hours":"Mo-Sa 08:00-20:00; Su 08:30-19:30","image":"https://api.technopolis.bg/medias/1610.jpg?context=bWFzdGVyfHJvb3R8NTcyMDl8aW1hZ2UvanBlZ3xhR05oTDJnMVl5OHhNVEF3T0RNd09Ea3dNemsyTmk1cWNHY3xiNjVhZDYzZTgxNzE2NmRjYmFkYzBjYmY3YzMxYjE1YTMyMTk0MDk0MmM0MTNkNjU3ZjQyZDIwYmU5YTY4OGJk","brand":"Praktiker","brand:wikidata":"Q110399491","nsi_id":"praktiker-6499aa"},"coordinates":[43.073344,25.613691]},"dist":34.293,"tags_mismatch":false},{"osm":{"type":"node","id":10982942137,"tags":{"brand":"Praktiker","brand:wikidata":"Q110399491","opening_hours":"Mo-Sa 08:00-21:00; Su 08:30-20:00","shop":"doityourself"},"wikidata":"Q110399491","coordinates":[42.6017636,23.0485734]},"atp":{"id":"YbubTD2BEQIuEg3Wxd8u0uz-dCw=","tags":{"ref":"1619","@source_uri":"https://api.praktiker.bg/videoluxcommercewebservices/v2/praktiker/mapbox/customerpreferedstore","@spider":"praktiker_bg","shop":"doityourself","addr:street_address":"ул. \"Захари Зограф\" 159","addr:city":"Перник","addr:postcode":"2306","addr:country":"BG","opening_hours":"Mo-Sa 08:00-21:00; Su 08:30-20:00","image":"https://api.technopolis.bg/medias/1619.jpg?context=bWFzdGVyfHJvb3R8NjU2MjJ8aW1hZ2UvanBlZ3xhRGczTDJnMk5TOHpNRGN6TkRRNU5qVXpNRFEyTWk1cWNHY3xlZTE4YWUzZjU0NmZkMjIwZDE2OGU3MGYwODRmYTE1NDg5MjQ2NmYwMGU3ZmJiZjE5YmRlNDA1ZDNhNTdjODUz","brand":"Praktiker","brand:wikidata":"Q110399491","nsi_id":"praktiker-6499aa"},"coordinates":[42.601707,23.048523]},"dist":7.525,"tags_mismatch":false},{"osm":{"type":"node","id":11228913401,"tags":{"brand":"Praktiker","brand:wikidata":"Q110399491","shop":"doityourself"},"wikidata":"Q110399491","coordinates":[41.9710109,25.5599415]},"atp":{"id":"k6D4x7RCt2tX_NrUoegrvxdqbJI=","tags":{"ref":"1620","@source_uri":"https://api.praktiker.bg/videoluxcommercewebservices/v2/praktiker/mapbox/customerpreferedstore","@spider":"praktiker_bg","shop":"doityourself","addr:street_address":"м.“Увата 214.4","addr:city":"Хасково","addr:postcode":"6300","addr:country":"BG","opening_hours":"Mo-Sa 08:00-21:00; Su 08:30-20:00","image":"https://api.technopolis.bg/medias/1620-Store.jpg?context=bWFzdGVyfHJvb3R8NjI3NTh8aW1hZ2UvanBlZ3xhR1ZrTDJnMU5DOHpNamcxTkRjME56Z3dOemMzTkM1cWNHY3w3ZmZiZjFlMGI1YWQ0ZTU5ZjRlMmIxM2EzYmY1ZmVjZDFmYmI0ZGFkMDJlNmRkYzEyZmUyZTNkNTkwODhmNDg4","brand":"Praktiker","brand:wikidata":"Q110399491","nsi_id":"praktiker-6499aa"},"coordinates":[41.97111,25.560157]},"dist":20.948,"tags_mismatch":true},{"osm":{"type":"way","id":72431584,"tags":{"addr:city":"Стара Загора","addr:housenumber":"48","addr:street":"бул. Никола Петков","brand":"Praktiker","brand:wikidata":"Q110399491","building":"yes","opening_hours":"Mo-Sa 08:00-21:00; Su 08:30-20:00","phone":"+359 42 696 120","shop":"doityourself"},"wikidata":"Q110399491","coordinates":[42.4268098,25.6600249]},"atp":{"id":"d2OqUBKIXdBgvwxrR-wKdUOcvEg=","tags":{"ref":"1607","@source_uri":"https://api.praktiker.bg/videoluxcommercewebservices/v2/praktiker/mapbox/customerpreferedstore","@spider":"praktiker_bg","shop":"doityourself","addr:street_address":"бул. Никола Петков 48","addr:city":"Стара Загора","addr:postcode":"6009","addr:country":"BG","opening_hours":"Mo-Sa 08:00-21:00; Su 08:30-20:00","image":"https://api.technopolis.bg/medias/1607.jpg?context=bWFzdGVyfHJvb3R8NjI5ODJ8aW1hZ2UvanBlZ3xhR015TDJobFpDOHhNVEF3T0RNd05qZzNNak0xTUM1cWNHY3xkOThkMWFlNmVjZTQxZTBlOTVkNDVjNjIyNTI4OTZhNmRkZmRkMmVjMjQ1OGIzMGU3NTlhNzZjODQ0ZTMwN2Ux","brand":"Praktiker","brand:wikidata":"Q110399491","nsi_id":"praktiker-6499aa"},"coordinates":[42.426992,25.659923]},"dist":21.918,"tags_mismatch":false},{"osm":{"type":"way","id":88690590,"tags":{"addr:city":"София","addr:street":"бул. Панчо Владигеров","brand":"Praktiker","brand:wikidata":"Q110399491","building":"yes","opening_hours":"Mo-Sa 08:00-20:00; Su 08:30-19:30","phone":"+359 2 810 7120","shop":"doityourself","website":"https://praktiker.bg","wheelchair":"yes"},"wikidata":"Q110399491","coordinates":[42.7294412,23.2672179]},"atp":{"id":"WBrOrem01r-5aJXoUlmeU1Y92-4=","tags":{"ref":"1604","@source_uri":"https://api.praktiker.bg/videoluxcommercewebservices/v2/praktiker/mapbox/customerpreferedstore","@spider":"praktiker_bg","shop":"doityourself","addr:street_address":"бул. Панчо Владигеров","addr:city":"София","addr:postcode":"1360","addr:country":"BG","opening_hours":"Mo-Sa 08:00-21:00; Su 08:30-20:00","image":"https://api.technopolis.bg/medias/1604.jpg?context=bWFzdGVyfHJvb3R8NTY5OTF8aW1hZ2UvanBlZ3xhRFUxTDJneU1DOHhNVEF3T0RJNU56UXpOVEUyTmk1cWNHY3xmNzA3Mzc3ZjZkOWE3OWE4ZGJiNThiNmMzOTRjMzgxMzU5NDc2MmJjMDBhY2M5ZWZhYTA2ZGJhMmU5ZGEyZGFk","brand":"Praktiker","brand:wikidata":"Q110399491","nsi_id":"praktiker-6499aa"},"coordinates":[42.72977,23.266891]},"dist":45.273,"tags_mismatch":true},{"osm":{"type":"way","id":116742961,"tags":{"addr:city":"Плевен","addr:housenumber":"6В","addr:street":"бул. Европа","brand":"Praktiker","brand:wikidata":"Q110399491","building":"yes","opening_hours":"Mo-Sa 08:00-20:00; Su 08:30-19:30","phone":"+359 64 887 120","shop":"doityourself"},"wikidata":"Q110399491","coordinates":[43.4091022,24.6374547]},"atp":{"id":"muj8crqXaRWwuuzJ7FkveYtET0s=","tags":{"ref":"1606","@source_uri":"https://api.praktiker.bg/videoluxcommercewebservices/v2/praktiker/mapbox/customerpreferedstore","@spider":"praktiker_bg","shop":"doityourself","addr:street_address":"бул. Европа 6В","addr:city":"Плевен","addr:postcode":"5800","addr:country":"BG","opening_hours":"Mo-Sa 07:30-20:30; Su 08:00-20:00","image":"https://api.technopolis.bg/medias/11008306872350.jpg?context=bWFzdGVyfHJvb3R8NjI5ODJ8aW1hZ2UvanBlZ3xhREl6TDJnME1DOHhNall4TXpneU5EWTBNekV3TWk1cWNHY3w2OTdkMTQ4OGY2ZTJiMTEzODk5MzZmMjEyZmU3YmViMjJhYzljZmRjYWFkMzNmYTI2OWFhNTY3ZjllZDU1ZTk3","brand":"Praktiker","brand:wikidata":"Q110399491","nsi_id":"praktiker-6499aa"},"coordinates":[43.408947,24.637411]},"dist":17.615,"tags_mismatch":true},{"osm":{"type":"way","id":127375711,"tags":{"addr:city":"Бургас","addr:housenumber":"8","addr:street":"Янко Комитов","brand":"Praktiker","brand:wikidata":"Q110399491","building":"yes","shop":"doityourself","wheelchair":"yes"},"wikidata":"Q110399491","coordinates":[42.5137213,27.4513063]},"atp":{"id":"8uo_8dUpxL-vjnAjHtvmrBOCdG0=","tags":{"ref":"1605","@source_uri":"https://api.praktiker.bg/videoluxcommercewebservices/v2/praktiker/mapbox/customerpreferedstore","@spider":"praktiker_bg","shop":"doityourself","addr:street_address":"бул. Янко Комитов 8","addr:city":"Бургас","addr:postcode":"8005","addr:country":"BG","opening_hours":"Mo-Sa 08:00-21:00; Su 08:30-20:00","image":"https://api.technopolis.bg/medias/1605.jpg?context=bWFzdGVyfHJvb3R8NjI5ODJ8aW1hZ2UvanBlZ3xhR1ZoTDJnMk5DOHhNVEF3T0RNd05URXdNamczT0M1cWNHY3xlMGFiZmExZjA4NDZmNGI1NjY2ZTYxNDczMmY0ZDFiZWU5MTdkN2Q0MGNkZjYyZDg5YjQ0Y2RhOGI4MGQxN2Rl","brand":"Praktiker","brand:wikidata":"Q110399491","nsi_id":"praktiker-6499aa"},"coordinates":[42.513988,27.451386]},"dist":30.367,"tags_mismatch":true},{"osm":{"type":"way","id":212023364,"tags":{"addr:city":"Русе","addr:housenumber":"10","addr:street":"бул. Липник","brand":"Praktiker","brand:wikidata":"Q110399491","building":"yes","opening_hours":"Mo-Sa 08:00-21:00; Su 08:30-20:00","phone":"+359 82 887 120","shop":"doityourself"},"wikidata":"Q110399491","coordinates":[43.8467218,25.9676333]},"atp":{"id":"OLpQuQe2uD3IBxFW6OojFLy66TY=","tags":{"ref":"1608","@source_uri":"https://api.praktiker.bg/videoluxcommercewebservices/v2/praktiker/mapbox/customerpreferedstore","@spider":"praktiker_bg","shop":"doityourself","addr:street_address":"бул. Липник 10","addr:city":"Русе","addr:postcode":"7000","addr:country":"BG","opening_hours":"Mo-Sa 08:00-21:00; Su 08:30-20:00","image":"https://api.technopolis.bg/medias/1608.jpg?context=bWFzdGVyfHJvb3R8NTYzOTB8aW1hZ2UvanBlZ3xhRE5sTDJneE9TOHhNVEF3T0RNd056QXdNelF5TWk1cWNHY3w0ZGZkYTAyZmE1OTU0NmQ0YzdjNmI5N2IyZmJjOTg1MGNlNjQxOGU4NjIxYzkxYjE1MTRkMWE1NmFlZTY5NjVh","brand":"Praktiker","brand:wikidata":"Q110399491","nsi_id":"praktiker-6499aa"},"coordinates":[43.8467198,25.9675195]},"dist":9.129,"tags_mismatch":false},{"osm":{"type":"way","id":386128425,"tags":{"addr:city":"Варна","addr:housenumber":"49","addr:street":"бул. Република","brand":"Praktiker","brand:wikidata":"Q110399491","building":"yes","opening_hours":"Mo-Sa 08:00-21:00; Su 08:30-20:00","phone":"+359 52 579 120","shop":"doityourself"},"wikidata":"Q110399491","coordinates":[43.2205625,27.8731424]},"atp":{"id":"RoHobH_EMu-HVD1qAnNZQueQ1rE=","tags":{"ref":"1602","@source_uri":"https://api.praktiker.bg/videoluxcommercewebservices/v2/praktiker/mapbox/customerpreferedstore","@spider":"praktiker_bg","shop":"doityourself","addr:street_address":"бул. Република 49","addr:city":"Варна","addr:postcode":"9000","addr:country":"BG","opening_hours":"Mo-Sa 08:00-21:00; Su 08:30-20:00","image":"https://api.technopolis.bg/medias/1602.jpg?context=bWFzdGVyfHJvb3R8NjYwODl8aW1hZ2UvanBlZ3xhRFUzTDJobU1TOHhNVEF3T0RJNU56RTNNekF5TWk1cWNHY3w5NWZhNDBkOTkwMTE1NTEzMjJmYmNhNTkxMzM2NzI3ODA3MjI1MzM4ZDU1ZGMxMjRmNjBmNTk3ODAzZDRlZWY0","brand":"Praktiker","brand:wikidata":"Q110399491","nsi_id":"praktiker-6499aa"},"coordinates":[43.2206322,27.8736059]},"dist":38.349,"tags_mismatch":false},{"osm":{"type":"way","id":498252967,"tags":{"addr:city":"Шумен","addr:housenumber":"37","addr:postcode":"9704","addr:street":"бул. Симеон Велики","brand":"Praktiker","brand:wikidata":"Q110399491","building":"yes","opening_hours":"Mo-Sa 08:00-20:00; Su 08:30-19:30","phone":"+359 54 912 100","shop":"doityourself"},"wikidata":"Q110399491","coordinates":[43.2742835,26.942732]},"atp":{"id":"6E6y2r8ybtLaIle0DgVkGouFjQc=","tags":{"ref":"1615","@source_uri":"https://api.praktiker.bg/videoluxcommercewebservices/v2/praktiker/mapbox/customerpreferedstore","@spider":"praktiker_bg","shop":"doityourself","addr:street_address":"бул. Симеон Велики 37","addr:city":"Шумен","addr:postcode":"9700","addr:country":"BG","opening_hours":"Mo-Sa 08:00-20:00; Su 08:30-19:30","image":"https://api.technopolis.bg/medias/1615.jpg?context=bWFzdGVyfHJvb3R8NTAxMDZ8aW1hZ2UvanBlZ3xhRE0wTDJneE15OHhNVEF3T0RNeE16SXlPVE0wTWk1cWNHY3xlOGQ3OTc4ZDdmNzFmZjE1ZGY3ZjExM2M3YWNlOTc1NWNhMzIyNmUyZmZjODMxM2FhMWRkODg2ODBhNmM1NDU2","brand":"Praktiker","brand:wikidata":"Q110399491","nsi_id":"praktiker-6499aa"},"coordinates":[43.2748586,26.9428906]},"dist":65.225,"tags_mismatch":false},{"osm":{"type":"way","id":500902264,"tags":{"addr:city":"Ямбол","addr:housenumber":"177","addr:postcode":"8602","addr:street":"бул. Граф Игнатиев","brand":"Praktiker","brand:wikidata":"Q110399491","building":"yes","opening_hours":"Mo-Sa 08:00-20:00; Su 08:30-19:30","phone":"+359 46 982 100","shop":"doityourself"},"wikidata":"Q110399491","coordinates":[42.4675791,26.5260889]},"atp":{"id":"BT1Rq5CXpMlidJSMgZaDVuhOZaU=","tags":{"ref":"1614","@source_uri":"https://api.praktiker.bg/videoluxcommercewebservices/v2/praktiker/mapbox/customerpreferedstore","@spider":"praktiker_bg","shop":"doityourself","addr:street_address":"бул. Граф Игнатиев 177","addr:city":"Ямбол","addr:postcode":"8600","addr:country":"BG","opening_hours":"Mo-Sa 08:00-20:00; Su 08:30-19:30","image":"https://api.technopolis.bg/medias/1614.jpg?context=bWFzdGVyfHJvb3R8NTY4ODN8aW1hZ2UvanBlZ3xhR1ptTDJneU1TOHhNVEF3T0RNeE1EVTNOVEV6TkM1cWNHY3w2YTczMDc4YjU0ZmY1NWNlNTBiZjlmYzYyMjk3YTBkMWIzNzA5NjQ4NTViZDNkOTgzZDYzMzRkZTIxOWRiNWFi","brand":"Praktiker","brand:wikidata":"Q110399491","nsi_id":"praktiker-6499aa"},"coordinates":[42.4676268,26.525973]},"dist":10.886,"tags_mismatch":false},{"osm":{"type":"way","id":671940335,"tags":{"addr:city":"Пловдив","addr:housenumber":"9","addr:street":"Кукленско шосе","brand":"Praktiker","brand:wikidata":"Q110399491","building":"yes","opening_hours":"Mo-Sa 08:00-21:00; Su 08:30-20:00","phone":"+359 32 909 100","shop":"doityourself"},"wikidata":"Q110399491","coordinates":[42.1267117,24.7587514]},"atp":{"id":"icoO69hQfjB5UFr1EWjUrIH7c1g=","tags":{"ref":"1603","@source_uri":"https://api.praktiker.bg/videoluxcommercewebservices/v2/praktiker/mapbox/customerpreferedstore","@spider":"praktiker_bg","shop":"doityourself","addr:street_address":"бул. Кукленско шосе 9","addr:city":"Пловдив","addr:postcode":"4004","addr:country":"BG","opening_hours":"Mo-Sa 08:00-21:00; Su 08:30-20:00","image":"https://api.technopolis.bg/medias/1603.jpg?context=bWFzdGVyfHJvb3R8NjI5ODJ8aW1hZ2UvanBlZ3xhRFl5TDJnM01TOHhNVEF3T0RJNU56TXdOREE1TkM1cWNHY3w5NmI1ZTkwMDkyMmY5YjAzMjUzZTk5Zjg5YTU5NTM1NGRjMDRjYzZiNTMwYTgyZTRkYTcyODYyY2YzMzRmZjEy","brand":"Praktiker","brand:wikidata":"Q110399491","nsi_id":"praktiker-6499aa"},"coordinates":[42.126499,24.757916]},"dist":72.841,"tags_mismatch":false},{"osm":{"type":"way","id":760578350,"tags":{"addr:city":"Враца","addr:housenumber":"150","addr:postcode":"3001","addr:street":"бул. Втори юни","air_conditioning":"yes","brand":"Praktiker","brand:wikidata":"Q110399491","building":"yes","building:levels":"1","building:material":"plaster","currency:BGN":"yes","email":"eshop@praktiker.bg","opening_hours":"Mo-Sa 08:00-20:00; Su 08:30-19:30","payment:cash":"yes","payment:contactless":"yes","payment:credit_cards":"yes","payment:leasing":"yes","phone":"+359 92 920 000","roof:colour":"black","shop":"doityourself","smoking":"outside","stroller":"yes","wheelchair":"yes"},"wikidata":"Q110399491","coordinates":[43.1868643,23.5797125]},"atp":{"id":"nTpl1y2ZrA9Ludr-PlZ1dB20GzE=","tags":{"ref":"1616","@source_uri":"https://api.praktiker.bg/videoluxcommercewebservices/v2/praktiker/mapbox/customerpreferedstore","@spider":"praktiker_bg","shop":"doityourself","addr:street_address":"бул. Втори юни 150","addr:city":"Враца","addr:postcode":"3001","addr:country":"BG","opening_hours":"Mo-Sa 08:00-20:00; Su 08:30-19:30","image":"https://api.technopolis.bg/medias/11504754524190.jpg?context=bWFzdGVyfHJvb3R8NjI5ODJ8aW1hZ2UvanBlZ3xhR1JqTDJnd05DOHhNVFV3TlRJd09UUTNOVEV3TWk1cWNHY3w2MjY5OTM1YWUzY2RjYzM4ODllNDk2NjY2YTgwMjY3NGQxOWVmZDQ0ZGQzYTY0YTc5MTA2ZDY1NzAxNDM0MDZi","brand":"Praktiker","brand:wikidata":"Q110399491","nsi_id":"praktiker-6499aa"},"coordinates":[43.187482,23.580266]},"dist":82.045,"tags_mismatch":false},{"osm":{"type":"way","id":838090048,"tags":{"addr:city":"Пазарджик","addr:housenumber":"13","addr:street":"бул. Стефан Стамболов","brand":"Praktiker","brand:wikidata":"Q110399491","building":"yes","opening_hours":"Mo-Sa 08:00-20:00; Su 08:30-19:30","phone":"+359 34 989 400","shop":"doityourself"},"wikidata":"Q110399491","coordinates":[42.1813701,24.3453719]},"atp":{"id":"ZSsAGTmi_GsWeKR-Exw8kNBFAr8=","tags":{"ref":"1613","@source_uri":"https://api.praktiker.bg/videoluxcommercewebservices/v2/praktiker/mapbox/customerpreferedstore","@spider":"praktiker_bg","shop":"doityourself","addr:street_address":"бул. Стефан Стамболов 13","addr:city":"Пазарджик","addr:postcode":"4400","addr:country":"BG","opening_hours":"Mo-Sa 08:00-20:00; Su 08:30-19:30","image":"https://api.technopolis.bg/medias/praktiker-Pazardzhik-stores.jpg?context=bWFzdGVyfHJvb3R8MTIwODc1fGltYWdlL2pwZWd8YUdFNEwyaGxaUzh4TXpNME56ZzFPVFkyTURnek1DNXFjR2N8MzAyMmIwZGE1NGE0MmNlYzE0YzQwOGU0MTZjMmMwZjQ3MDk3MzYwMjhkNzI0ZGY0NzliZGQ5YTVlNjgxYjk4YQ","brand":"Praktiker","brand:wikidata":"Q110399491","nsi_id":"praktiker-6499aa"},"coordinates":[42.181997,24.345972]},"dist":85.465,"tags_mismatch":false},{"osm":{"type":"way","id":1087544199,"tags":{"brand":"Praktiker","brand:wikidata":"Q110399491","building":"yes","shop":"doityourself"},"wikidata":"Q110399491","coordinates":[43.5502842,27.8387464]},"atp":{"id":"412l7VdS6iFof2ZR5HwVlM_lWaw=","tags":{"ref":"1617","@source_uri":"https://api.praktiker.bg/videoluxcommercewebservices/v2/praktiker/mapbox/customerpreferedstore","@spider":"praktiker_bg","shop":"doityourself","addr:street_address":"ул. \"Околовръстен път Дружба 4\" 2a","addr:city":"Добрич","addr:postcode":"9300","addr:country":"BG","opening_hours":"Mo-Sa 08:00-21:00; Su 08:30-20:00","image":"https://api.technopolis.bg/medias/1617.jpg?context=bWFzdGVyfHJvb3R8Nzk2NjZ8aW1hZ2UvanBlZ3xhREkxTDJneVppOHhNems1TVRrNU1UWTNNamcyTWk1cWNHY3w2OGY4NTdjNjJmMGRkODRiMTljYTU1ODI4ZWE3MWZlNTU1ZmI1YzY0ZDNmYTA4ZGIwNzAwNTc3MGVhMzQwNmVk","brand":"Praktiker","brand:wikidata":"Q110399491","nsi_id":"praktiker-6499aa"},"coordinates":[43.550282,27.838109]},"dist":51.369,"tags_mismatch":true},{"osm":{"type":"way","id":1283566524,"tags":{"addr:city":"София","addr:housenumber":"149 B","addr:street":"бул. Никола Мушанов","brand":"Praktiker","brand:wikidata":"Q110399491","building":"yes","opening_date":"2024-04-11","opening_hours":"Mo-Sa 08:00-20:00; Su 08:30-19:30","shop":"doityourself","website":"https://praktiker.bg/","wheelchair":"yes"},"wikidata":"Q110399491","coordinates":[42.6881302,23.2779409]},"atp":{"id":"p4ocaPeyL42N31YSkuoAm93SXdA=","tags":{"ref":"1618","@source_uri":"https://api.praktiker.bg/videoluxcommercewebservices/v2/praktiker/mapbox/customerpreferedstore","@spider":"praktiker_bg","shop":"doityourself","addr:street_address":"бул. Никола Мушанов 149Б","addr:city":"София","addr:postcode":"1373","addr:country":"BG","opening_hours":"Mo-Sa 08:00-21:00; Su 08:30-20:00","image":"https://api.technopolis.bg/medias/1618.jpg?context=bWFzdGVyfGltYWdlc3w2ODE3NXxpbWFnZS9qcGVnfGFEVXpMMmhsTVM4ek16WTVNamt3T0RjME9EZ3pNQzh4TmpFNExtcHdad3wwYmNjMmQxYWNjOGQ3OWNiZjBhYTFkMDEyYWNmNTExMGQwMGYxOGZlMDEzNmNjMTViODQ3NDAzOWRjYTBiM2I5","brand":"Praktiker","brand:wikidata":"Q110399491","nsi_id":"praktiker-6499aa"},"coordinates":[42.68779719248034,23.277180401192215]},"dist":72.352,"tags_mismatch":true},{"osm":{"type":"way","id":1341612145,"tags":{"addr:city":"София","addr:housenumber":"323","addr:postcode":"1582","addr:street":"бул. Цариградско шосе","brand":"Praktiker","brand:wikidata":"Q110399491","building":"yes","opening_hours":"Mo-Sa 08:00-20:00; Su 08:30-19:30","shop":"doityourself","website":"https://praktiker.bg"},"wikidata":"Q110399491","coordinates":[42.6408553,23.4098721]},"atp":{"id":"uMrgsEaQBSzQCo5GlfB6X7agHsI=","tags":{"ref":"1609","@source_uri":"https://api.praktiker.bg/videoluxcommercewebservices/v2/praktiker/mapbox/customerpreferedstore","@spider":"praktiker_bg","shop":"doityourself","addr:street_address":"бул. \"Цариградско шосе\" 323","addr:city":"София","addr:postcode":"1582","addr:country":"BG","opening_hours":"Mo-Sa 08:00-21:00; Su 08:30-20:00","image":"https://api.technopolis.bg/medias/Untitled-1.jpg?context=bWFzdGVyfHJvb3R8NzMwOTV8aW1hZ2UvanBlZ3xhR0poTDJoak1pOHhNVFl3TlRNMk1UQXpNekkwTmk1cWNHY3wwMGVmYmUyYzlkZjhjY2RlZTUyNTk1OTFmNDk4NzUwYzJlNjg2NzM0ZTEzOTc1MmZlNWRmMjQ0NzZhM2M5ZjI5","brand":"Praktiker","brand:wikidata":"Q110399491","nsi_id":"praktiker-6499aa"},"coordinates":[42.640536,23.409659]},"dist":39.553,"tags_mismatch":true},{"osm":false,"atp":false,"tags_mismatch":false,"dist":0},{"osm":false,"atp":false,"tags_mismatch":false,"dist":0},{"osm":false,"atp":false,"tags_mismatch":false,"dist":0},{"osm":false,"atp":false,"tags_mismatch":false,"dist":0},{"osm":false,"atp":false,"tags_mismatch":false,"dist":0},{"osm":false,"atp":false,"tags_mismatch":false,"dist":0},{"osm":false,"atp":false,"tags_mismatch":false,"dist":0},{"osm":false,"atp":false,"tags_mismatch":false,"dist":0},{"osm":false,"atp":false,"tags_mismatch":false,"dist":0},{"osm":false,"atp":false,"tags_mismatch":false,"dist":0},{"osm":false,"atp":false,"tags_mismatch":false,"dist":0},{"osm":false,"atp":false,"tags_mismatch":false,"dist":0},{"osm":false,"atp":false,"tags_mismatch":false,"dist":0},{"osm":false,"atp":false,"tags_mismatch":false,"dist":0},{"osm":false,"atp":false,"tags_mismatch":false,"dist":0},{"osm":false,"atp":false,"tags_mismatch":false,"dist":0},{"osm":false,"atp":false,"tags_mismatch":false,"dist":0}]}