{"metadata":{"name":"Технополис","key":"shop","value":"electronics","compare_keys":["opening_hours","ref"]},"data":[{"osm":{"type":"node","id":2644801092,"tags":{"brand":"Technopolis","brand:wikidata":"Q28056752","opening_hours":"Mo-Sa 09:30-20:00; Su 10:00-19:00","shop":"electronics"},"wikidata":"Q28056752","coordinates":[42.7170438,23.3177318]},"atp":{"id":"jsgh4B1FSapm7jtunrUKKkwgRkc=","tags":{"ref":"1322","@source_uri":"https://api.technopolis.bg/videoluxcommercewebservices/v2/technopolis-bg/mapbox/customerpreferedstore","@spider":"technopolis_bg","shop":"electronics","addr:street_address":"бул. История Славянобългарска 13","addr:city":"София","addr:postcode":"1229","addr:country":"BG","opening_hours":"Mo-Sa 09:30-20:00; Su 10:00-19:00","image":"https://api.technopolis.bg/medias/1322.jpg?context=bWFzdGVyfHJvb3R8NjgzNDl8aW1hZ2UvanBlZ3xhR0psTDJnNU55OHhNVEF3T0RFMU9UZ3dPVFUyTmk1cWNHY3w2N2U0ZWY5YTZmMGFiYmVhMzAwMDNhOWI2NmJjMjRiZThkYTY4MjMxNjU2ODg3MDExZmJkMTMxYjVmMTZiMmU0","brand":"Technopolis","brand:wikidata":"Q28056752","nsi_id":"technopolis-47dfb8"},"coordinates":[42.716913,23.317554]},"dist":20.556,"tags_mismatch":true},{"osm":{"type":"node","id":5685787309,"tags":{"brand":"Technopolis","brand:wikidata":"Q28056752","level":"1","opening_hours":"Mo-Sa 10:00-22:00","shop":"electronics"},"wikidata":"Q28056752","coordinates":[42.6913225,23.3531547]},"atp":{"id":"Iaq6gmXlKmvuIiHLE6mxLfopue0=","tags":{"ref":"1332","@source_uri":"https://api.technopolis.bg/videoluxcommercewebservices/v2/technopolis-bg/mapbox/customerpreferedstore","@spider":"technopolis_bg","shop":"electronics","addr:street_address":"бул. Ситняково 48","addr:city":"София","addr:postcode":"1000","addr:country":"BG","opening_hours":"Mo-Su 10:00-22:00","image":"https://api.technopolis.bg/medias/1332.jpg?context=bWFzdGVyfHJvb3R8Nzg5NzF8aW1hZ2UvanBlZ3xhREJrTDJnNFl5OHhNVEF3T0RFMk1qWXlOell4TkM1cWNHY3xlMzdlOTNmMDMyOWY3MmEyZDY0OWQzOGY5OTEzNGI4MDMyZGU4MjBmNDdmZTE5ZDZhNmI5ZDVhMDEwOTUzZmFk","brand":"Technopolis","brand:wikidata":"Q28056752","nsi_id":"technopolis-47dfb8"},"coordinates":[42.691139,23.353056]},"dist":21.941,"tags_mismatch":true},{"osm":{"type":"node","id":10249380625,"tags":{"brand":"Technopolis","brand:wikidata":"Q28056752","level":"0","shop":"electronics"},"wikidata":"Q28056752","coordinates":[42.6607141,23.3839046]},"atp":{"id":"b2br71s3EYxxCHIVWI28ESxtYdY=","tags":{"ref":"1333","@source_uri":"https://api.technopolis.bg/videoluxcommercewebservices/v2/technopolis-bg/mapbox/customerpreferedstore","@spider":"technopolis_bg","shop":"electronics","addr:street_address":"бул. Цариградско шосе 115","addr:city":"София","addr:postcode":"1000","addr:country":"BG","opening_hours":"Mo-Su 10:00-22:00","image":"https://api.technopolis.bg/medias/1333.jpg?context=bWFzdGVyfHJvb3R8OTM0ODB8aW1hZ2UvanBlZ3xhREU1TDJoa05pOHhNVEF3T0RFMk1qYzFPRFk0Tmk1cWNHY3xmM2IzZjdiZDQzMDVmZDZjOGQzMGIzNDYwMDhjNGM3YjNmOTFjYWY5M2ViNjVlNmM1OTFhY2NhMjQxYmUxNWY1","brand":"Technopolis","brand:wikidata":"Q28056752","nsi_id":"technopolis-47dfb8"},"coordinates":[42.660806,23.383111]},"dist":65.693,"tags_mismatch":true},{"osm":{"type":"node","id":10816052895,"tags":{"brand":"Technopolis","brand:wikidata":"Q28056752","shop":"electronics"},"wikidata":"Q28056752","coordinates":[43.2772393,26.9506839]},"atp":{"id":"uW6R6cO-Vnl5uYbfqZU2vsBpFzE=","tags":{"ref":"1310","@source_uri":"https://api.technopolis.bg/videoluxcommercewebservices/v2/technopolis-bg/mapbox/customerpreferedstore","@spider":"technopolis_bg","shop":"electronics","addr:street_address":"бул. Цар Симеон Велики 5","addr:city":"Шумен","addr:country":"BG","opening_hours":"Mo-Fr 09:30-20:00; Sa-Su 09:30-19:00","image":"https://api.technopolis.bg/medias/1310.jpg?context=bWFzdGVyfHJvb3R8NzA2NzF8aW1hZ2UvanBlZ3xhR0l4TDJobVpDOHhNVEF3T0RFek5EZzNNekV4T0M1cWNHY3w1OTE3NjQ1OTQ5M2NjODlmZWJmZDZkZGY2ZWJkZjMzMjJhY2Q3MzgxNTVlNTkxYzcxYWI0MjE5MGFkODdjNmMz","brand":"Technopolis","brand:wikidata":"Q28056752","nsi_id":"technopolis-47dfb8"},"coordinates":[43.2771424,26.9507572]},"dist":12.301,"tags_mismatch":true},{"osm":{"type":"node","id":11283788069,"tags":{"brand":"Technopolis","brand:wikidata":"Q28056752","level":"-1","opening_hours":"Mo-Su 10:00-22:00","shop":"electronics"},"wikidata":"Q28056752","coordinates":[42.6575626,23.3133557]},"atp":{"id":"17k9t3YAXZDKb2A-xGoJjPXFhaU=","tags":{"ref":"1337","@source_uri":"https://api.technopolis.bg/videoluxcommercewebservices/v2/technopolis-bg/mapbox/customerpreferedstore","@spider":"technopolis_bg","shop":"electronics","addr:street_address":"бул. Черни връх 100","addr:city":"София","addr:postcode":"1000","addr:country":"BG","opening_hours":"Mo-Su 10:00-22:00","image":"https://api.technopolis.bg/medias/1337.jpg?context=bWFzdGVyfHJvb3R8Njc2MDh8aW1hZ2UvanBlZ3xhRFkyTDJnd1lpOHhNVEF3T0RFMk5EYzVNRE13TWk1cWNHY3xkY2JlOWI4NTk3Y2UxNzFlNDJkNTQ2NjcxZWExZjBiN2MwYzMwMDFkNTQ4OTQ0ZjljMmFmY2I5YzhkNzEyNDE2","brand":"Technopolis","brand:wikidata":"Q28056752","nsi_id":"technopolis-47dfb8"},"coordinates":[42.658386,23.316198]},"dist":249.81,"tags_mismatch":true},{"osm":{"type":"way","id":26672720,"tags":{"brand":"Technopolis","brand:wikidata":"Q28056752","building":"retail","shop":"electronics","wheelchair":"yes"},"wikidata":"Q28056752","coordinates":[42.7194876,23.2574244]},"atp":{"id":"CyV8KFaE9vyFctMYi0-xDT8sUh8=","tags":{"ref":"1303","@source_uri":"https://api.technopolis.bg/videoluxcommercewebservices/v2/technopolis-bg/mapbox/customerpreferedstore","@spider":"technopolis_bg","shop":"electronics","addr:street_address":"кв. Люлин - бул. Царица Йоанна 70","addr:city":"София","addr:postcode":"1766","addr:country":"BG","opening_hours":"Mo-Fr 09:00-21:00; Sa-Su 09:30-20:00","image":"https://api.technopolis.bg/medias/1303.jpg?context=bWFzdGVyfHJvb3R8NDk3NTR8aW1hZ2UvanBlZ3xhREUwTDJnNFl5OHhNVEF3T0RBNE5EQXhOekU0TWk1cWNHY3w2ODRiZmY0OGJmMjg3NTYyYzM1OGFmYWYzZTIwN2ViNjAyYmNjYTIzZjllNTYyOWU1ZDYyODAwYmUwZDJhNzI2","brand":"Technopolis","brand:wikidata":"Q28056752","nsi_id":"technopolis-47dfb8"},"coordinates":[42.7193328,23.2571111]},"dist":30.844,"tags_mismatch":true},{"osm":{"type":"way","id":39659620,"tags":{"brand":"Technopolis","brand:wikidata":"Q28056752","building":"yes","shop":"electronics"},"wikidata":"Q28056752","coordinates":[42.5213394,27.4557056]},"atp":{"id":"iiQ6Oj9iERe9xjb2RbD0rf_I_uQ=","tags":{"ref":"1308","@source_uri":"https://api.technopolis.bg/videoluxcommercewebservices/v2/technopolis-bg/mapbox/customerpreferedstore","@spider":"technopolis_bg","shop":"electronics","addr:street_address":"к-с Славейков 94","addr:city":"Бургас","addr:country":"BG","opening_hours":"Mo-Fr 09:30-20:30; Sa-Su 09:30-19:30","image":"https://api.technopolis.bg/medias/1308.jpg?context=bWFzdGVyfHJvb3R8NjQyODB8aW1hZ2UvanBlZ3xhR000TDJobE5TOHhNVEF3T0RFeU1UTXdOekUyTmk1cWNHY3xkYzc1MDU4YWM2ZGIyMjRiNTg0ZDI0YWYzMjM0YWM5ZTdkMDdjNzMyNTUzZWYyNWE0NGU4MTcxMzhkYWMyOGIz","brand":"Technopolis","brand:wikidata":"Q28056752","nsi_id":"technopolis-47dfb8"},"coordinates":[42.521448,27.455977]},"dist":25.309,"tags_mismatch":true},{"osm":{"type":"way","id":39974019,"tags":{"brand":"Technopolis","brand:wikidata":"Q28056752","building":"yes","shop":"electronics"},"wikidata":"Q28056752","coordinates":[42.5285302,27.453303]},"atp":{"id":"Yk1tk91hYsmFiVFCbfA-T5OTBUI=","tags":{"ref":"1329","@source_uri":"https://api.technopolis.bg/videoluxcommercewebservices/v2/technopolis-bg/mapbox/customerpreferedstore","@spider":"technopolis_bg","shop":"electronics","addr:street_address":"бул. Транспортна 53","addr:city":"Бургас","addr:postcode":"8001","addr:country":"BG","opening_hours":"Mo-Fr 09:30-20:30; Sa-Su 09:30-19:30","image":"https://api.technopolis.bg/medias/1329.jpg?context=bWFzdGVyfHJvb3R8NDI1NzV8aW1hZ2UvanBlZ3xhRGxpTDJobFlTOHhNVEF3T0RFMk1qTTJOVFEzTUM1cWNHY3w5YTBlYzExMDQ5NTg5MWVlOTEyNTQ4YTkzNzQ2ZTk2ZjNlM2U3NmFiYjFlZGFlN2Q2MTEwN2RlZTExMjQ1NTZk","brand":"Technopolis","brand:wikidata":"Q28056752","nsi_id":"technopolis-47dfb8"},"coordinates":[42.528145,27.453589]},"dist":48.825,"tags_mismatch":true},{"osm":{"type":"way","id":42083669,"tags":{"brand":"Technopolis","brand:wikidata":"Q28056752","building":"yes","shop":"electronics","wheelchair":"yes"},"wikidata":"Q28056752","coordinates":[43.2324426,27.8648848]},"atp":{"id":"RM1JyLsQ9aUbTiXPjuWL9xu7Hkk=","tags":{"ref":"1338","@source_uri":"https://api.technopolis.bg/videoluxcommercewebservices/v2/technopolis-bg/mapbox/customerpreferedstore","@spider":"technopolis_bg","shop":"electronics","addr:street_address":"бул. Цар Освободител 267","addr:city":"Варна","addr:postcode":"9004","addr:country":"BG","opening_hours":"Mo-Fr 09:30-20:30; Sa-Su 09:30-19:30","image":"https://api.technopolis.bg/medias/1338.jpg?context=bWFzdGVyfHJvb3R8NDg5MTd8aW1hZ2UvanBlZ3xhR1JtTDJnNU1TOHhNVEF3T0RFMk5Ea3lNVE0zTkM1cWNHY3wzOWJlOTViOTQ0NjJjM2MwMmYxNTYwNTM3NDNhYTc0NzA2NDJmMjc4YWEyYmM2YzRiZWYyZTM5ZTdiNTE0M2Ey","brand":"Technopolis","brand:wikidata":"Q28056752","nsi_id":"technopolis-47dfb8"},"coordinates":[43.232665,27.864851]},"dist":24.881,"tags_mismatch":true},{"osm":{"type":"way","id":72431585,"tags":{"addr:city":"Стара Загора","addr:housenumber":"50","addr:street":"бул. Никола Петков","brand":"Technopolis","brand:wikidata":"Q28056752","building":"yes","ref:vatin":"BG130858590","shop":"electronics"},"wikidata":"Q28056752","coordinates":[42.4281818,25.6626842]},"atp":{"id":"-zfvzbaZgg1OfEdmBct6ABMgWoY=","tags":{"ref":"1306","@source_uri":"https://api.technopolis.bg/videoluxcommercewebservices/v2/technopolis-bg/mapbox/customerpreferedstore","@spider":"technopolis_bg","shop":"electronics","addr:street_address":"бул. Никола Петков 50","addr:city":"Стара Загора","addr:country":"BG","opening_hours":"Mo-Fr 09:30-20:30; Sa-Su 09:30-19:30","image":"https://api.technopolis.bg/medias/11008087490590.jpg?context=bWFzdGVyfHJvb3R8MTcyMjE3fGltYWdlL2pwZWd8YUdNM0wyZzVOUzh6TWpVNE1UY3lNRFl3TkRjd01pNXFjR2N8NDdiNTMwODY3YjY2ZTk4ZDU2OWMxNGM4ZDc3ZjhhMTc0YzM1ZDdlMjdjMjUyYzA4MTk3MTZlZmFlODI2NTE0Mg","brand":"Technopolis","brand:wikidata":"Q28056752","nsi_id":"technopolis-47dfb8"},"coordinates":[42.428254,25.66253434]},"dist":14.688,"tags_mismatch":true},{"osm":{"type":"way","id":75543438,"tags":{"addr:housenumber":"133","addr:postcode":"4023","addr:street":"бул. Санкт Петербург","brand":"Technopolis","brand:wikidata":"Q28056752","building":"yes","opening_hours":"Mo-Sa 09:30-20:30; Su 09:30-19:30","shop":"electronics"},"wikidata":"Q28056752","coordinates":[42.1424151,24.781186]},"atp":{"id":"N3KfXzAxeDQGnT99vclVgEDYJlU=","tags":{"ref":"1305","@source_uri":"https://api.technopolis.bg/videoluxcommercewebservices/v2/technopolis-bg/mapbox/customerpreferedstore","@spider":"technopolis_bg","shop":"electronics","addr:street_address":"бул. Санкт Петербург 133","addr:city":"Пловдив","addr:postcode":"4000","addr:country":"BG","opening_hours":"Mo-Sa 09:30-20:30; Su 09:30-19:30","image":"https://api.technopolis.bg/medias/1305.jpg?context=bWFzdGVyfHJvb3R8NjU5NzV8aW1hZ2UvanBlZ3xhR0ZoTDJnMFlTOHhNVEF3T0RBNE5qVTNNekE0Tmk1cWNHY3w3NmQ5Njk3M2I2OWYwZTMzZjg0NTY0ZTY0MGY0ZGJkY2NhNTc2N2Y0NmFhOTFmNzFiNDllMjRkZTkwNDk1NGU1","brand":"Technopolis","brand:wikidata":"Q28056752","nsi_id":"technopolis-47dfb8"},"coordinates":[42.1426409,24.7801835]},"dist":86.384,"tags_mismatch":true},{"osm":{"type":"way","id":106368059,"tags":{"addr:city":"Ямбол","addr:housenumber":"173-175","addr:postcode":"8600","addr:street":"бул. Граф Игнатиев","brand":"Technopolis","brand:wikidata":"Q28056752","building":"yes","opening_hours":"Mo-Fr 10:00-20:00; Sa-Su 10:00-19:00","shop":"electronics"},"wikidata":"Q28056752","coordinates":[42.468294,26.5257656]},"atp":{"id":"k6K29onw1dGEJ4fefi0lEWk0jxY=","tags":{"ref":"1317","@source_uri":"https://api.technopolis.bg/videoluxcommercewebservices/v2/technopolis-bg/mapbox/customerpreferedstore","@spider":"technopolis_bg","shop":"electronics","addr:street_address":"бул. Граф Игнатиев 173-175","addr:city":"Ямбол","addr:country":"BG","opening_hours":"Mo-Fr 10:00-20:00; Sa-Su 10:00-19:00","image":"https://api.technopolis.bg/medias/1317.jpg?context=bWFzdGVyfHJvb3R8NDUwNjd8aW1hZ2UvanBlZ3xhRE5sTDJnM05pOHhNVEF3T0RFMU9URTFOREl3Tmk1cWNHY3w1OTFlMWY1OWZhODQ3YWUxYzdmZWQ3Njc4OTVlZDNiMGQ3MWI0MWY3OGI3MmI3NzdhMDE2YzI0NDA1MGVkNTQz","brand":"Technopolis","brand:wikidata":"Q28056752","nsi_id":"technopolis-47dfb8"},"coordinates":[42.468351,26.525322]},"dist":36.933,"tags_mismatch":true},{"osm":{"type":"way","id":116742951,"tags":{"brand":"Technopolis","brand:wikidata":"Q28056752","building":"retail","shop":"electronics"},"wikidata":"Q28056752","coordinates":[43.4142889,24.6329901]},"atp":{"id":"eboVlguxInFHTZf02Mqv3aanlDU=","tags":{"ref":"1311","@source_uri":"https://api.technopolis.bg/videoluxcommercewebservices/v2/technopolis-bg/mapbox/customerpreferedstore","@spider":"technopolis_bg","shop":"electronics","addr:street_address":"бул. Георги Кочев 4","addr:city":"Плевен","addr:country":"BG","opening_hours":"Mo-Fr 09:30-20:00; Sa 09:30-19:00","image":"https://api.technopolis.bg/medias/1311.jpg?context=bWFzdGVyfHJvb3R8NTk5ODB8aW1hZ2UvanBlZ3xhR1pqTDJoaE1DOHhNVEF3T0RFME1URTVOek0wTWk1cWNHY3w4NzkwOGVlMTQ5YzI1MGEwYjNiOTEwM2NlZjA4ZDNkYmE5NDhjOWM5MWQyNmE4ZDhiMDhlMGVkOTcxNjllN2I3","brand":"Technopolis","brand:wikidata":"Q28056752","nsi_id":"technopolis-47dfb8"},"coordinates":[43.4139448,24.6328509]},"dist":39.88,"tags_mismatch":true},{"osm":{"type":"way","id":135765393,"tags":{"brand":"Technopolis","brand:wikidata":"Q28056752","building":"yes","check_date":"2024-09-11","opening_hours":"Mo-Fr 10:00-20:00; Sa-Su 10:00-19:00","phone":"+359 58 653 131","shop":"electronics"},"wikidata":"Q28056752","coordinates":[43.5507359,27.8360154]},"atp":{"id":"3pz0W_IufKnANIdufL2KxRnKVvo=","tags":{"ref":"1314","@source_uri":"https://api.technopolis.bg/videoluxcommercewebservices/v2/technopolis-bg/mapbox/customerpreferedstore","@spider":"technopolis_bg","shop":"electronics","addr:street_address":"кръстовището на Околовръстен път и ул. Батовска 54","addr:city":"Добрич","addr:country":"BG","opening_hours":"Mo-Fr 10:00-20:00; Sa-Su 10:00-19:00","image":"https://api.technopolis.bg/medias/1314.jpg?context=bWFzdGVyfHJvb3R8NTIyNTd8aW1hZ2UvanBlZ3xhR1F3TDJoaE9DOHhNVEF3T0RFMU9ESTJPVFEzTUM1cWNHY3xjYWVhMjk2YzA1YzY3ZjQxODYwNDNhMTQzMWY2Zjc2NWE3OThkOWRhM2Q1NmU4NWYyNTg5NmI4NDk2YjJmN2E2","brand":"Technopolis","brand:wikidata":"Q28056752","nsi_id":"technopolis-47dfb8"},"coordinates":[43.550726,27.836075]},"dist":4.928,"tags_mismatch":true},{"osm":{"type":"way","id":160562733,"tags":{"brand":"Technopolis","brand:wikidata":"Q28056752","building":"retail","opening_hours":"Mo-Sa 10:00-20:00; Su 10:00-19:00","shop":"electronics","wheelchair":"limited"},"wikidata":"Q28056752","coordinates":[42.1823455,24.3466551]},"atp":{"id":"xs5j711-ZS8I0CXD3eQEkQ7ZP_A=","tags":{"ref":"1319","@source_uri":"https://api.technopolis.bg/videoluxcommercewebservices/v2/technopolis-bg/mapbox/customerpreferedstore","@spider":"technopolis_bg","shop":"electronics","addr:street_address":"бул. Стефан Стамболов 13","addr:city":"Пазарджик","addr:postcode":"4400","addr:country":"BG","opening_hours":"Mo-Fr 10:00-20:00; Sa-Su 10:00-19:00","image":"https://api.technopolis.bg/medias/1319.jpg?context=bWFzdGVyfHJvb3R8ODA2ODB8aW1hZ2UvanBlZ3xhRGMwTDJnMU9DOHhNVEF3T0RFMU9UUXhOak0xTUM1cWNHY3wxZmRjZDY2YTZmMDk4ODZhZmQyZjFlYzY0N2Y0YmFlM2EzNGNmMTY1ZmIwYzM1MjBjZGVjMTlhYTZlMGU5YjAw","brand":"Technopolis","brand:wikidata":"Q28056752","nsi_id":"technopolis-47dfb8"},"coordinates":[42.182308,24.346658]},"dist":4.177,"tags_mismatch":true},{"osm":{"type":"way","id":169951215,"tags":{"addr:city":"Силистра","brand":"Technopolis","brand:wikidata":"Q28056752","building":"retail","shop":"electronics","wheelchair":"yes"},"wikidata":"Q28056752","coordinates":[44.1143282,27.2736083]},"atp":{"id":"WHIleJU-MMbiI0MX6WT6tKpNyrU=","tags":{"ref":"1323","@source_uri":"https://api.technopolis.bg/videoluxcommercewebservices/v2/technopolis-bg/mapbox/customerpreferedstore","@spider":"technopolis_bg","shop":"electronics","addr:street_address":"бул. 7-ми септември 23","addr:city":"Силистра","addr:country":"BG","opening_hours":"Mo-Fr 10:00-19:30; Sa 10:00-19:00","image":"https://api.technopolis.bg/medias/1323.jpg?context=bWFzdGVyfHJvb3R8NjY2MzR8aW1hZ2UvanBlZ3xhREUxTDJobVlpOHhNVEF3T0RFMU9UazBNRFl6T0M1cWNHY3w0NmE5MmU2NTc3OWExZTE0ZDlhOGIyMzdkY2NmYWUzNGVhM2YwNTk1ODVhNjQyZDRjODljNjBhZmQ1ZjY5MTQ0","brand":"Technopolis","brand:wikidata":"Q28056752","nsi_id":"technopolis-47dfb8"},"coordinates":[44.114306,27.273534]},"dist":6.425,"tags_mismatch":true},{"osm":{"type":"way","id":201256367,"tags":{"addr:city":"Сандански","branch":"Сандански","brand":"Technopolis","brand:wikidata":"Q28056752","building":"yes","shop":"electronics"},"wikidata":"Q28056752","coordinates":[41.5074611,23.2756536]},"atp":{"id":"SOyz6u9wGKLkVGK2K3H622Lj1vY=","tags":{"ref":"1339","@source_uri":"https://api.technopolis.bg/videoluxcommercewebservices/v2/technopolis-bg/mapbox/customerpreferedstore","@spider":"technopolis_bg","shop":"electronics","addr:street_address":"Магистрален път Е-79 (разклона за с. Дамяница)","addr:city":"Сандански","addr:postcode":"2800","addr:country":"BG","opening_hours":"Mo-Sa 10:00-20:00; Su 10:00-18:00","image":"https://api.technopolis.bg/medias/1339.jpg?context=bWFzdGVyfHJvb3R8NTM3MzB8aW1hZ2UvanBlZ3xhRFZpTDJoak9DOHhNVEF3T0RFMk5UQTFNalEwTmk1cWNHY3wyYjQxOTRlYmY1NjU2MmU3N2ZjZGYxYmM2ZjhiYmVhYTJjNTEwNDBlODdiYjRhZWRlMDFkNzc0MTk4OWJhOGMy","brand":"Technopolis","brand:wikidata":"Q28056752","nsi_id":"technopolis-47dfb8"},"coordinates":[41.507406,23.275581]},"dist":8.607,"tags_mismatch":true},{"osm":{"type":"way","id":219501022,"tags":{"brand":"Technopolis","brand:wikidata":"Q28056752","building":"yes","shop":"electronics"},"wikidata":"Q28056752","coordinates":[43.5211338,26.5392703]},"atp":{"id":"XNqEgwDLq3fp5h0WEr51tksqxNs=","tags":{"ref":"1331","@source_uri":"https://api.technopolis.bg/videoluxcommercewebservices/v2/technopolis-bg/mapbox/customerpreferedstore","@spider":"technopolis_bg","shop":"electronics","addr:street_address":"бул. Априлско въстание 66","addr:city":"Разград","addr:postcode":"7200","addr:country":"BG","opening_hours":"Mo-Fr 10:00-19:30; Sa 10:00-19:00","image":"https://api.technopolis.bg/medias/1331.jpg?context=bWFzdGVyfHJvb3R8ODI3OTh8aW1hZ2UvanBlZ3xhR1UwTDJnMU9DOHhNVEF3T0RFMk1qUTVOalUwTWk1cWNHY3w3OWM3ZTgyZjhhZDI5MWRmZDZmNmIzN2NkMzFmMjgyMzVlZTBlMWEwYzQ5ZGNlNzNiNjJlMDU3NTI2OTRjYzg3","brand":"Technopolis","brand:wikidata":"Q28056752","nsi_id":"technopolis-47dfb8"},"coordinates":[43.521408,26.539369]},"dist":31.511,"tags_mismatch":true},{"osm":{"type":"way","id":220573909,"tags":{"addr:city":"София","addr:housenumber":"265","addr:postcode":"1715","addr:street":"Околовръстен път","addr:suburb":"ж.к. Младост 4","brand":"Technopolis","brand:wikidata":"Q28056752","building":"retail","check_date":"2025-04-06","opening_hours":"Mo-Fr 09:00-21:00; Sa-Su 09:30-20:00","payment:mastercard":"yes","payment:visa":"yes","shop":"electronics","website":"https://www.technopolis.bg","wheelchair":"yes"},"wikidata":"Q28056752","coordinates":[42.624359,23.3792515]},"atp":{"id":"t4oZA_YLugW9NcNhxGWLje2K9_E=","tags":{"ref":"1302","@source_uri":"https://api.technopolis.bg/videoluxcommercewebservices/v2/technopolis-bg/mapbox/customerpreferedstore","@spider":"technopolis_bg","shop":"electronics","addr:street_address":"Околовръстен път 265","addr:city":"София","addr:postcode":"1766","addr:country":"BG","opening_hours":"Mo-Fr 09:00-21:00; Sa-Su 09:30-20:00","image":"https://api.technopolis.bg/medias/1302.jpg?context=bWFzdGVyfHJvb3R8NjkzNTV8aW1hZ2UvanBlZ3xhRFl4TDJobU5pOHhNVEF3TnpnMU1qa3pOekkwTmk1cWNHY3w4MjBlOTZhMWMxNDcyNzAwMWNhMjIwYWRlOTZmMDc0NWZhMDUzZmI1YWM1YTA2YmMxZDI5MzIwZWI3ZGU2ZjA5","brand":"Technopolis","brand:wikidata":"Q28056752","nsi_id":"technopolis-47dfb8"},"coordinates":[42.6240158,23.3786348]},"dist":63.264,"tags_mismatch":true},{"osm":{"type":"way","id":223672983,"tags":{"addr:city":"Велико Търново","brand":"Technopolis","brand:wikidata":"Q28056752","building":"retail","phone":"+359 62 610 016","shop":"electronics","source":"Bing"},"wikidata":"Q28056752","coordinates":[43.0719463,25.639089]},"atp":{"id":"KXEu4779H78MDvbMga6dmaHkhN4=","tags":{"ref":"1328","@source_uri":"https://api.technopolis.bg/videoluxcommercewebservices/v2/technopolis-bg/mapbox/customerpreferedstore","@spider":"technopolis_bg","shop":"electronics","addr:street_address":"ул. Магистрална 4","addr:city":"Великo Търново","addr:postcode":"5000","addr:country":"BG","opening_hours":"Mo-Fr 10:00-20:00; Sa-Su 10:00-19:00","image":"https://api.technopolis.bg/medias/1328.jpg?context=bWFzdGVyfHJvb3R8NTg2MDN8aW1hZ2UvanBlZ3xhRFZqTDJnNE1TOHhNVEF3T0RFMk1qSXpORE01T0M1cWNHY3w5NDZlNjNiNmQ2NTJjZDQ2ZDkzMDkxYmYwNWIxOTE0YTYxNWE1MzMzYjRjODg3N2VhZTE5MzA5ZjhhODBlY2Jl","brand":"Technopolis","brand:wikidata":"Q28056752","nsi_id":"technopolis-47dfb8"},"coordinates":[43.071949,25.638961]},"dist":10.401,"tags_mismatch":true},{"osm":{"type":"way","id":230415539,"tags":{"brand":"Technopolis","brand:wikidata":"Q28056752","building":"yes","building:levels":"1","height":"5 m","opening_hours":"Mo-Fr 09:30-20:30; Sa,Su 09:30-19:30","shop":"electronics","wheelchair":"yes"},"wikidata":"Q28056752","coordinates":[43.8314183,25.9701368]},"atp":{"id":"VZfkLV9dDXs7k70nRFn4539JEtg=","tags":{"ref":"1307","@source_uri":"https://api.technopolis.bg/videoluxcommercewebservices/v2/technopolis-bg/mapbox/customerpreferedstore","@spider":"technopolis_bg","shop":"electronics","addr:street_address":"бул. Христо Ботев 38","addr:city":"Русе","addr:country":"BG","opening_hours":"Mo-Fr 09:30-20:30; Sa-Su 09:30-19:30","image":"https://api.technopolis.bg/medias/1307.jpg?context=bWFzdGVyfHJvb3R8NjUyNjN8aW1hZ2UvanBlZ3xhRFkyTDJnNE9TOHhNVEF3T0RBNE9EUTNNell6TUM1cWNHY3xhMGY2MzQ2ZjNhYmRmNGMzZGY0NGY4OGUxOTBkYzI4M2I0NDA1M2M5MTk5NDk1ZWQzNWE4MTMwMWNlZTgzMzhi","brand":"Technopolis","brand:wikidata":"Q28056752","nsi_id":"technopolis-47dfb8"},"coordinates":[43.831628,25.970078]},"dist":23.79,"tags_mismatch":true},{"osm":{"type":"way","id":234243644,"tags":{"brand":"Technopolis","brand:wikidata":"Q28056752","building":"yes","shop":"electronics"},"wikidata":"Q28056752","coordinates":[44.0071901,22.8813562]},"atp":{"id":"8EF5jIhxkXbmR9FB-Mf5POwAbFo=","tags":{"ref":"1325","@source_uri":"https://api.technopolis.bg/videoluxcommercewebservices/v2/technopolis-bg/mapbox/customerpreferedstore","@spider":"technopolis_bg","shop":"electronics","addr:street_address":"Бул. Панония","addr:city":"Видин","addr:postcode":"3700","addr:country":"BG","opening_hours":"Mo-Fr 10:00-20:00; Sa-Su 10:00-19:00","image":"https://api.technopolis.bg/medias/1325.jpg?context=bWFzdGVyfHJvb3R8NjA2OTB8aW1hZ2UvanBlZ3xhREpqTDJnMVlpOHhNVEF3T0RFMk1URTFNekExTkM1cWNHY3wwZTNlNmI3Y2Y4ZTI3MjkxODY5MTAzZDA0MWEyYjkzNjgyNzNiMjAwMTJiMWYxMDBlOGU0ZGVhYjk1OTg1YzVj","brand":"Technopolis","brand:wikidata":"Q28056752","nsi_id":"technopolis-47dfb8"},"coordinates":[44.007147,22.881311]},"dist":6.003,"tags_mismatch":true},{"osm":{"type":"way","id":291922460,"tags":{"addr:city":"Сливен","brand":"Technopolis","brand:wikidata":"Q28056752","building":"yes","shop":"electronics"},"wikidata":"Q28056752","coordinates":[42.6640413,26.3252532]},"atp":{"id":"eBciFQ-vYIM5flqptVIzXdsi18Y=","tags":{"ref":"1312","@source_uri":"https://api.technopolis.bg/videoluxcommercewebservices/v2/technopolis-bg/mapbox/customerpreferedstore","@spider":"technopolis_bg","shop":"electronics","addr:street_address":"бул. Стефан Караджа 6","addr:city":"Сливен","addr:postcode":"8800","addr:country":"BG","opening_hours":"Mo-Fr 10:00-20:00; Sa-Su 10:00-19:00","image":"https://api.technopolis.bg/medias/1312.jpg?context=bWFzdGVyfHJvb3R8NDI0OTF8aW1hZ2UvanBlZ3xhRGsxTDJneE15OHhNVEF3T0RFME56azBOelUxTUM1cWNHY3xmMzQxODEwMTc4MDJlYWFhMjRjNGFmNmE0ZWQ4Y2U0MWRmMjE2MjQwNDAyOTM0MzNkN2NmNzg1NWJiZjQ3ZTk5","brand":"Technopolis","brand:wikidata":"Q28056752","nsi_id":"technopolis-47dfb8"},"coordinates":[42.663795,26.325218]},"dist":27.538,"tags_mismatch":true},{"osm":{"type":"way","id":308896851,"tags":{"addr:street":"м. Ак-Баш","brand":"Technopolis","brand:wikidata":"Q28056752","building":"yes","note:cadastre:id":"337.55.1","shop":"electronics"},"wikidata":"Q28056752","coordinates":[41.9314627,25.6058542]},"atp":{"id":"Tui-ERVNIrTrJV4ciSxsv7Pt0rE=","tags":{"ref":"1334","@source_uri":"https://api.technopolis.bg/videoluxcommercewebservices/v2/technopolis-bg/mapbox/customerpreferedstore","@spider":"technopolis_bg","shop":"electronics","addr:street_address":"бул. Съединение 79","addr:city":"Хасково","addr:postcode":"6300","addr:country":"BG","opening_hours":"Mo-Fr 10:00-20:00; Sa-Su 10:00-19:00","image":"https://api.technopolis.bg/medias/1334.jpg?context=bWFzdGVyfHJvb3R8NTc4OTV8aW1hZ2UvanBlZ3xhREpsTDJnNU9DOHhNVEF3T0RFMk1qZzRPVGMxT0M1cWNHY3wyOGFhNzNlZTRhOWRhOTBjNjU4Njg3MWRhOTFjZDY4ZTZkODY0NTcwYThlNjM2OGI5MjRkNjM3ZTAwZjYyZDcx","brand":"Technopolis","brand:wikidata":"Q28056752","nsi_id":"technopolis-47dfb8"},"coordinates":[41.931381,25.60567]},"dist":17.74,"tags_mismatch":true},{"osm":{"type":"way","id":329730863,"tags":{"addr:city":"Кърджали","addr:housenumber":"4","addr:postcode":"6600","addr:street":"бул. Беломорски","brand":"Technopolis","brand:wikidata":"Q28056752","building":"yes","opening_hours":"09:00-20:00","phone":"+359 700 12340","shop":"electronics"},"wikidata":"Q28056752","coordinates":[41.6303592,25.3770803]},"atp":{"id":"1dCQEl8-yRQeuP8qwlHNsqdtviM=","tags":{"ref":"1320","@source_uri":"https://api.technopolis.bg/videoluxcommercewebservices/v2/technopolis-bg/mapbox/customerpreferedstore","@spider":"technopolis_bg","shop":"electronics","addr:street_address":"бул. Беломорски 4","addr:city":"Кърджали","addr:postcode":"6600","addr:country":"BG","opening_hours":"Mo-Fr 09:00-20:00; Sa-Su 09:00-19:00","image":"https://api.technopolis.bg/medias/1320.jpg?context=bWFzdGVyfHJvb3R8NjQ4MTR8aW1hZ2UvanBlZ3xhRFF6TDJnek9TOHhNVEF3T0RFMU9UVTBOelF5TWk1cWNHY3wxYzgzNDQwNjIyYTAzMzU3YzA0NTYzYTUwODFhYjc0MWYzZDNkNWJlOTY1OTc2YTEzNWMwN2IyMDI5YzA0ZTYw","brand":"Technopolis","brand:wikidata":"Q28056752","nsi_id":"technopolis-47dfb8"},"coordinates":[41.630435,25.377224]},"dist":14.618,"tags_mismatch":true},{"osm":{"type":"way","id":386127111,"tags":{"brand":"Technopolis","brand:wikidata":"Q28056752","building":"yes","shop":"electronics"},"wikidata":"Q28056752","coordinates":[43.2211797,27.8737166]},"atp":{"id":"rpncBJgvPjYXhkIYKTIUxpOgcV8=","tags":{"ref":"1304","@source_uri":"https://api.technopolis.bg/videoluxcommercewebservices/v2/technopolis-bg/mapbox/customerpreferedstore","@spider":"technopolis_bg","shop":"electronics","addr:street_address":"бул. Владислав Варненчик 277","addr:city":"Варна","addr:country":"BG","opening_hours":"Mo-Fr 09:30-20:30; Sa-Su 09:30-19:30","image":"https://api.technopolis.bg/medias/1304.jpg?context=bWFzdGVyfHJvb3R8ODU3Nzl8aW1hZ2UvanBlZ3xhREl3TDJnd01DOHhNVEF3T0RBNE5UUXlOakl3Tmk1cWNHY3xkODNlZGU1YmExMjM3NzQ0MjUzNTE4MDY1NDQ2MjcyMDFkN2UzOWJjZjJiY2Q4YWUzYzVjMDc2ZDBkZTAxZjk1","brand":"Technopolis","brand:wikidata":"Q28056752","nsi_id":"technopolis-47dfb8"},"coordinates":[43.221329,27.873873]},"dist":20.886,"tags_mismatch":true},{"osm":{"type":"way","id":469475838,"tags":{"addr:city":"Габрово","addr:housenumber":"10","addr:street":"Идустриална","brand":"Technopolis","brand:wikidata":"Q28056752","building":"yes","building:levels":"1","check_date":"2012-10-30","note:cadastre:building_use":"Сграда за тьрговия","note:cadastre:id":"14218.502.672.8","shop":"electronics","source:geometry":"http://gis.gabrovo.bg:6080/arcgis/rest/services/BaseMap/MapServer/7","source:geometry:date":"2017-01-12","source:geometry:ref":"381674"},"wikidata":"Q28056752","coordinates":[42.8990086,25.3266859]},"atp":{"id":"HAQbmfYXc_EZavPmHdkH2j-_Xbg=","tags":{"ref":"1336","@source_uri":"https://api.technopolis.bg/videoluxcommercewebservices/v2/technopolis-bg/mapbox/customerpreferedstore","@spider":"technopolis_bg","shop":"electronics","addr:street_address":"ул. Индустриална 10","addr:city":"Габрово","addr:postcode":"5300","addr:country":"BG","opening_hours":"Mo-Fr 10:00-20:00; Sa-Su 10:00-19:00","image":"https://api.technopolis.bg/medias/1336.jpg?context=bWFzdGVyfHJvb3R8OTQ1OTN8aW1hZ2UvanBlZ3xhRGhoTDJoa09TOHhNVEF3T0RFMk16a3dOVFUyTmk1cWNHY3wyNDA4YjA1OTMwMGRiNTI4ZTljMGViYTZlNDJjNzNhZDY0ZDlmNjZjOWMzZTZhODJhNmI3ZTg2NGY4MDEzMjhm","brand":"Technopolis","brand:wikidata":"Q28056752","nsi_id":"technopolis-47dfb8"},"coordinates":[42.899531,25.32701]},"dist":63.806,"tags_mismatch":true},{"osm":{"type":"way","id":487434002,"tags":{"addr:city":"Враца","addr:housenumber":"152","addr:neighbourhood":"Източна промишлена зона","addr:postcode":"3001","addr:street":"бул. Втори юни","air_conditioning":"yes","brand":"Technopolis","brand:wikidata":"Q28056752","building":"commercial","building:levels":"1","building:levels:underground":"1","building:material":"metal","currency:BGN":"yes","email":"eshop@technopolis.bg","internet_access":"wlan","level":"1","opening_hours":"Mo-Su 10:00-20:00","payment:cash":"yes","payment:contactless":"yes","payment:credit_cards":"yes","phone":"+359 92 668 766","repair":"yes","shop":"electronics","smoking":"outside","stroller":"yes","wheelchair":"yes"},"wikidata":"Q28056752","coordinates":[43.186925,23.5805005]},"atp":{"id":"m1d8RxqqQi9Q7YOkO8x93pD1h8Y=","tags":{"ref":"1309","@source_uri":"https://api.technopolis.bg/videoluxcommercewebservices/v2/technopolis-bg/mapbox/customerpreferedstore","@spider":"technopolis_bg","shop":"electronics","addr:street_address":"бул.Втори юни 152","addr:city":"Враца","addr:country":"BG","opening_hours":"Mo-Fr 10:00-20:00; Sa-Su 10:00-19:00","image":"https://api.technopolis.bg/medias/1309.jpg?context=bWFzdGVyfHJvb3R8NzYyMjl8aW1hZ2UvanBlZ3xhRFV5TDJnME1pOHhNVEF3T0RFeU56VXpNekE0Tmk1cWNHY3xkYmI1NzUzMGQ1ZDlmNjI0YWYzMzdhZTVkZjk1YTg3OGEyODQ1ZjQ5MDYyODc1YjQ3ZDBhOTlmYjdlMGM4NTc2","brand":"Technopolis","brand:wikidata":"Q28056752","nsi_id":"technopolis-47dfb8"},"coordinates":[43.187139,23.58075]},"dist":31.232,"tags_mismatch":true},{"osm":{"type":"way","id":509179341,"tags":{"brand":"Technopolis","brand:wikidata":"Q28056752","building":"yes","shop":"electronics"},"wikidata":"Q28056752","coordinates":[42.6104842,23.0388497]},"atp":{"id":"NlY8mMcoZwjFndbDQLwEeIoNBDU=","tags":{"ref":"1321","@source_uri":"https://api.technopolis.bg/videoluxcommercewebservices/v2/technopolis-bg/mapbox/customerpreferedstore","@spider":"technopolis_bg","shop":"electronics","addr:street_address":"бул. Св.Св.Кирил и Методий 21","addr:city":"Перник","addr:postcode":"1766","addr:country":"BG","opening_hours":"Mo-Fr 10:00-20:00; Sa-Su 10:00-19:00","image":"https://api.technopolis.bg/medias/1321.jpg?context=bWFzdGVyfHJvb3R8NjY0ODl8aW1hZ2UvanBlZ3xhRFJtTDJnNE15OHhNVEF3T0RFMU9UWTNPRFE1TkM1cWNHY3w5MmE0NmUyNjY1MjBhZjU0MTdiOWJmMjYxYzRiMDgwZDZlMzdjOGRkMjU5OTEyMGM5NzdmNTY2ZWI3MWRkNTBk","brand":"Technopolis","brand:wikidata":"Q28056752","nsi_id":"technopolis-47dfb8"},"coordinates":[42.610251,23.038627]},"dist":31.695,"tags_mismatch":true},{"osm":{"type":"way","id":534684030,"tags":{"addr:street":"Свети Димитър Солунски","brand":"Technopolis","brand:wikidata":"Q28056752","building":"yes","shop":"electronics"},"wikidata":"Q28056752","coordinates":[42.009516,23.0933512]},"atp":{"id":"U36opcpYXdQkwTIf-EGdz8v-HkQ=","tags":{"ref":"1313","@source_uri":"https://api.technopolis.bg/videoluxcommercewebservices/v2/technopolis-bg/mapbox/customerpreferedstore","@spider":"technopolis_bg","shop":"electronics","addr:street_address":"ул. Св. Димитър Солунски 5","addr:city":"Благоевград","addr:country":"BG","opening_hours":"Mo-Fr 10:00-20:00; Sa-Su 10:00-19:00","image":"https://api.technopolis.bg/medias/1313.jpg?context=bWFzdGVyfHJvb3R8NzAyNzN8aW1hZ2UvanBlZ3xhRFUyTDJnNU9DOHhNVEF3T0RFMU5ESTNNVGMzTkM1cWNHY3wzZmQ4NDVhZTgzOThlNWEwNGY1M2RhYjMwM2JkOTVhYWZkMmVhNDViN2EyZDc4Y2ZhOWZhOTdmZjIzZDc0YzE1","brand":"Technopolis","brand:wikidata":"Q28056752","nsi_id":"technopolis-47dfb8"},"coordinates":[42.009628,23.093431]},"dist":14.091,"tags_mismatch":true},{"osm":{"type":"way","id":686143858,"tags":{"addr:city":"Монтана","brand":"Technopolis","brand:wikidata":"Q28056752","building":"yes","shop":"electronics"},"wikidata":"Q28056752","coordinates":[43.4220682,23.2289349]},"atp":{"id":"1cnp1dKZGTXceKuuA5GpnXCDHYc=","tags":{"ref":"1324","@source_uri":"https://api.technopolis.bg/videoluxcommercewebservices/v2/technopolis-bg/mapbox/customerpreferedstore","@spider":"technopolis_bg","shop":"electronics","addr:street_address":"бул. 3-ти март 216А","addr:city":"Монтана","addr:country":"BG","opening_hours":"Mo-Fr 10:00-20:00; Sa-Su 10:00-19:00","image":"https://api.technopolis.bg/medias/1324.jpg?context=bWFzdGVyfHJvb3R8NjQ2ODF8aW1hZ2UvanBlZ3xhRGd6TDJneFlTOHhNVEF3T0RFMk1EQTNNVGN4TUM1cWNHY3wyYTAxMDZlOWNlNGU2MDY1MGYxZjZiMzc3ZGM2ZjZkMTA5NTRlN2RkZGRmZjYzZjg3Y2RiYTgzYTgyZmM3ZWRi","brand":"Technopolis","brand:wikidata":"Q28056752","nsi_id":"technopolis-47dfb8"},"coordinates":[43.422109,23.228813]},"dist":10.84,"tags_mismatch":true},{"osm":{"type":"way","id":977364700,"tags":{"brand":"Technopolis","brand:wikidata":"Q28056752","building":"yes","opening_hours":"Mo-Fr 10:00-19:30; Sa 10:00-19:00","ref":"1318","shop":"electronics"},"wikidata":"Q28056752","coordinates":[42.2741707,22.6683402]},"atp":{"id":"wGcVeXKB0liH0uEbGq4iLMlHbrw=","tags":{"ref":"1318","@source_uri":"https://api.technopolis.bg/videoluxcommercewebservices/v2/technopolis-bg/mapbox/customerpreferedstore","@spider":"technopolis_bg","shop":"electronics","addr:street_address":"Гюешевско шосе 5","addr:city":"Кюстендил","addr:country":"BG","opening_hours":"Mo-Fr 10:00-19:30; Sa 10:00-19:00","image":"https://api.technopolis.bg/medias/1318.jpg?context=bWFzdGVyfHJvb3R8NTk4MDJ8aW1hZ2UvanBlZ3xhRFJoTDJoak1DOHhNVEF3T0RFMU9USTROVEkzT0M1cWNHY3xlZGRjMmI1NTBjN2Y0OGI0N2ZkMDhiMDc0ZTQ2NzA3ZTI4Yzg4ODY2YWYwMGQ1MjhjOWI3NTM4YzY1ZDdhNTBh","brand":"Technopolis","brand:wikidata":"Q28056752","nsi_id":"technopolis-47dfb8"},"coordinates":[42.274692,22.668497]},"dist":59.384,"tags_mismatch":false},{"osm":false,"atp":false,"tags_mismatch":false,"dist":0},{"osm":false,"atp":false,"tags_mismatch":false,"dist":0},{"osm":false,"atp":false,"tags_mismatch":false,"dist":0},{"osm":false,"atp":false,"tags_mismatch":false,"dist":0},{"osm":false,"atp":false,"tags_mismatch":false,"dist":0},{"osm":false,"atp":false,"tags_mismatch":false,"dist":0},{"osm":false,"atp":false,"tags_mismatch":false,"dist":0},{"osm":false,"atp":false,"tags_mismatch":false,"dist":0},{"osm":false,"atp":false,"tags_mismatch":false,"dist":0},{"osm":false,"atp":false,"tags_mismatch":false,"dist":0},{"osm":false,"atp":false,"tags_mismatch":false,"dist":0},{"osm":false,"atp":false,"tags_mismatch":false,"dist":0},{"osm":false,"atp":{"id":"mOtDYDa1gC_FdgeIl5S-qeTUQts=","tags":{"ref":"1343","shop":"electronics","addr:street_address":"ул. Княз Имеретински до Lidl","addr:city":"Ловеч","addr:postcode":"5502","addr:country":"BG","name":"Технополис Ловеч","opening_hours":"Mo-Fr 10:00-20:00; Sa-Su 10:00-19:00","image":"https://api.technopolis.bg/medias/1343.jpg?context=bWFzdGVyfGltYWdlc3wxMTg1NjV8aW1hZ2UvanBlZ3xhR1kxTDJnME5pODBOVEUyTmpReE1USTRORFV4TUM4eE16UXpMbXB3Wnd8MzEwMmM5OTA1MzQxOGM2OTFhYWQ5MmY0MjUyYmI3ZTIwOTE1MzE4YzY2Yjk1YjFlZjZmMWYxNTMzMGRkY2Y2YQ","brand":"Technopolis","brand:wikidata":"Q28056752"},"coordinates":[43.145206,24.71269]},"tags_mismatch":false,"dist":0},{"osm":false,"atp":false,"tags_mismatch":false,"dist":0},{"osm":false,"atp":false,"tags_mismatch":false,"dist":0},{"osm":false,"atp":false,"tags_mismatch":false,"dist":0},{"osm":false,"atp":false,"tags_mismatch":false,"dist":0},{"osm":false,"atp":false,"tags_mismatch":false,"dist":0},{"osm":false,"atp":{"id":"BzWi_3hPoltCWdL2nzQDZ-Vocxg=","tags":{"ref":"1341","shop":"electronics","addr:street_address":"бул. Коматевско шосе 24","addr:city":"Пловдив","addr:postcode":"4004","addr:country":"BG","name":"Технополис Пловдив 2","opening_hours":"Mo-Sa 09:30-20:30; Su 09:30-19:30","image":"https://api.technopolis.bg/medias/1341-Store-image-plovdiv2.jpg?context=bWFzdGVyfHJvb3R8ODIxMzJ8aW1hZ2UvanBlZ3xhRGs0TDJneFlTOHlOek0xTVRJeE5qa3hORFEyTWk1cWNHY3wxNjBhYTBkN2E3NmMzZDI4ZWQ1NzdkYWE1YmQxOGFhZTFlMjM0MzVmMjg2YjNlNWQ1ZWUxMDkxNTk5Y2I2OWY1","brand":"Technopolis","brand:wikidata":"Q28056752"},"coordinates":[42.127486,24.721018]},"tags_mismatch":false,"dist":0},{"osm":false,"atp":false,"tags_mismatch":false,"dist":0},{"osm":false,"atp":false,"tags_mismatch":false,"dist":0},{"osm":false,"atp":false,"tags_mismatch":false,"dist":0},{"osm":false,"atp":false,"tags_mismatch":false,"dist":0},{"osm":false,"atp":false,"tags_mismatch":false,"dist":0},{"osm":false,"atp":false,"tags_mismatch":false,"dist":0},{"osm":false,"atp":false,"tags_mismatch":false,"dist":0},{"osm":false,"atp":false,"tags_mismatch":false,"dist":0},{"osm":false,"atp":{"id":"FjfDv-9OZpUG0-woSrV6_PVgyyo=","tags":{"ref":"1335","shop":"electronics","addr:street_address":"бул. България 69","addr:city":"София","addr:postcode":"1000","addr:country":"BG","name":"Технополис София МОЛ България","opening_hours":"Mo-Su 10:00-21:00","image":"https://api.technopolis.bg/medias/1335.jpg?context=bWFzdGVyfHJvb3R8OTAxNTl8aW1hZ2UvanBlZ3xhR1ZtTDJnNU1TOHhNVEF3T0RFMk16QXlNRGd6TUM1cWNHY3xlYjU1ZTAzNGQ1NTdkMGY5NzRmMzc3ZGQzZmFkMmQxMjRiYjJkYjQyNzQ0OTY5YmIzNzY5ZTcxYmU2NGM5N2Nh","brand":"Technopolis","brand:wikidata":"Q28056752"},"coordinates":[42.664136,23.289138]},"tags_mismatch":false,"dist":0},{"osm":false,"atp":false,"tags_mismatch":false,"dist":0},{"osm":false,"atp":false,"tags_mismatch":false,"dist":0},{"osm":false,"atp":false,"tags_mismatch":false,"dist":0},{"osm":false,"atp":false,"tags_mismatch":false,"dist":0},{"osm":false,"atp":false,"tags_mismatch":false,"dist":0},{"osm":false,"atp":false,"tags_mismatch":false,"dist":0},{"osm":false,"atp":false,"tags_mismatch":false,"dist":0}]}