{"metadata":{"name":"Техномаркет","key":"shop","value":"electronics","compare_keys":["opening_hours","website"]},"data":[{"osm":{"type":"node","id":470821071,"tags":{"brand":"Техномаркет","brand:wikidata":"Q7692633","opening_hours":"Mo-Sa 10:00-19:00; Su 10:00-18:00","shop":"electronics","website":"https://www.technomarket.bg/magazini/sevlievo/tehnomarket-sevlievo"},"wikidata":"Q7692633","coordinates":[43.0296833,25.0924747]},"atp":{"id":"odXNaxGN2ZjNFm1qsz2l0UGBD0w=","tags":{"ref":"0000078","@source_uri":"https://www.technomarket.bg/api/frontend/stores","@spider":"technomarket_bg","shop":"electronics","addr:street_address":"ул. Стефан Пешев 90А","addr:country":"BG","phone":"+359 67 585 080","website":"https://www.technomarket.bg/magazini/sevlievo/tehnomarket-sevlievo","email":"tmsevlievo@technomarket.bg","opening_hours":"Mo-Sa 10:00-19:00; Su 10:00-18:00","brand":"Техномаркет","brand:wikidata":"Q7692633","nsi_id":"technomarket-47dfb8"},"coordinates":[43.029479,25.092194]},"dist":32.197,"tags_mismatch":false},{"osm":{"type":"node","id":2916075350,"tags":{"addr:city":"София","addr:housenumber":"92","addr:street":"бул. Цариградско шосе","brand":"Техномаркет","brand:wikidata":"Q7692633","email":"tmsofia3@technomarket.bg","opening_hours":"Mo-Su 09:30-20:30","phone":"+359 2 970 4888","shop":"electronics","website":"https://www.technomarket.bg/magazini/sofiq/tehnomarket-sofiq-carigradsko-shose"},"wikidata":"Q7692633","coordinates":[42.645002,23.3942843]},"atp":{"id":"aHhzmF-OI4WJA_HIR1tP3QKpjEc=","tags":{"ref":"0000102","@source_uri":"https://www.technomarket.bg/api/frontend/stores","@spider":"technomarket_bg","shop":"electronics","addr:street_address":"бул. Цариградско шосе 92","addr:country":"BG","phone":"+359 2 970 4888","website":"https://www.technomarket.bg/magazini/sofiq/tehnomarket-sofiq-carigradsko-shose","email":"tmsofia3@technomarket.bg","opening_hours":"Mo-Su 09:30-20:30","brand":"Техномаркет","brand:wikidata":"Q7692633","nsi_id":"technomarket-47dfb8"},"coordinates":[42.645153,23.394451]},"dist":21.629,"tags_mismatch":false},{"osm":{"type":"node","id":3412751251,"tags":{"branch":"3","brand":"Техномаркет","brand:wikidata":"Q7692633","opening_hours":"Mo-Sa 10:00-20:00; Su 10:00-18:00","shop":"electronics","website":"https://www.technomarket.bg/magazini/burgas/tehnomarket-burgas-3"},"wikidata":"Q7692633","coordinates":[42.4721087,27.4325014]},"atp":{"id":"fdf6Jy537G4B408NDLB1EcwKgBc=","tags":{"ref":"0300004","@source_uri":"https://www.technomarket.bg/api/frontend/stores","@spider":"technomarket_bg","shop":"electronics","addr:street_address":"бул.Захари Стоянов 1","addr:country":"BG","phone":"+359 56 598 200","website":"https://www.technomarket.bg/magazini/burgas/tehnomarket-burgas-3","email":"tmburgas3@technomarket.bg","opening_hours":"Mo-Sa 10:00-20:00; Su 10:00-18:00","brand":"Техномаркет","brand:wikidata":"Q7692633","nsi_id":"technomarket-47dfb8"},"coordinates":[42.47228,27.432354]},"dist":22.56,"tags_mismatch":false},{"osm":{"type":"node","id":3522548945,"tags":{"branch":"Парк Център София","brand":"Техномаркет","brand:wikidata":"Q7692633","contact:phone":"+359 2 964 2490","email":"tmhemus@technomarket.bg","level":"2","opening_hours":"Mo-Su 10:00-21:00","phone":"+359 2 964 2490","shop":"electronics","website":"https://www.technomarket.bg/magazini/sofiq/tehnomarket-park-centyr-sofiq"},"wikidata":"Q7692633","coordinates":[42.6783678,23.3198779]},"atp":{"id":"U_PAkHkRdGo3xZA07la0x_swfiY=","tags":{"ref":"0000030","@source_uri":"https://www.technomarket.bg/api/frontend/stores","@spider":"technomarket_bg","shop":"electronics","addr:street_address":"ъгъла на бул. Черни връх и бул. Арсеналски","addr:country":"BG","phone":"+359 2 964 2490","website":"https://www.technomarket.bg/magazini/sofiq/tehnomarket-park-centyr-sofiq","email":"tmhemus@technomarket.bg","opening_hours":"Mo-Su 10:00-21:00","brand":"Техномаркет","brand:wikidata":"Q7692633","nsi_id":"technomarket-47dfb8"},"coordinates":[42.678533,23.3211]},"dist":101.578,"tags_mismatch":false},{"osm":{"type":"node","id":3918857567,"tags":{"brand":"Техномаркет","brand:wikidata":"Q7692633","opening_hours":"Mo-Sa 10:00-20:00; Su 10:00-19:30","shop":"electronics","website":"https://www.technomarket.bg/magazini/veliko-tyrnovo/tehnomarket-veliko-tyrnovo"},"wikidata":"Q7692633","coordinates":[43.0730125,25.6148742]},"atp":{"id":"XnsZM7gA3JFDwzhaWJJUyrd5pss=","tags":{"ref":"0800002","@source_uri":"https://www.technomarket.bg/api/frontend/stores","@spider":"technomarket_bg","shop":"electronics","addr:street_address":"ул. Магистрална 17","addr:country":"BG","phone":"+359 62 614 242","website":"https://www.technomarket.bg/magazini/veliko-tyrnovo/tehnomarket-veliko-tyrnovo","email":"tmvelikotarnovo@technomarket.bg","opening_hours":"Mo-Sa 10:00-20:00; Su 10:00-19:30","brand":"Техномаркет","brand:wikidata":"Q7692633","nsi_id":"technomarket-47dfb8"},"coordinates":[43.07325,25.614917]},"dist":26.637,"tags_mismatch":false},{"osm":{"type":"node","id":4224262278,"tags":{"brand":"Техномаркет","brand:wikidata":"Q7692633","opening_hours":"Mo-Sa 10:00-19:00; Su 10:00-17:00","shop":"electronics","website":"https://www.technomarket.bg/magazini/asenovgrad/tehnomarket-asenovgrad"},"wikidata":"Q7692633","coordinates":[42.0189224,24.8635396]},"atp":{"id":"x2EkmGRF6aIAlm4gnJpR8NTi1Rc=","tags":{"ref":"0000097","@source_uri":"https://www.technomarket.bg/api/frontend/stores","@spider":"technomarket_bg","shop":"electronics","addr:street_address":"бул. България 68","addr:country":"BG","phone":"+359 89 669 1371","website":"https://www.technomarket.bg/magazini/asenovgrad/tehnomarket-asenovgrad","email":"tmasenovgrad@technomarket.bg","opening_hours":"Mo-Sa 10:00-19:00; Su 10:00-17:00","brand":"Техномаркет","brand:wikidata":"Q7692633","nsi_id":"technomarket-47dfb8"},"coordinates":[42.018458,24.863881]},"dist":58.839,"tags_mismatch":false},{"osm":{"type":"node","id":5099016710,"tags":{"brand":"Техномаркет","brand:wikidata":"Q7692633","opening_hours":"Mo-Sa 09:00-19:00; Su 10:00-17:00","shop":"electronics","website":"https://www.technomarket.bg/magazini/kazanlyk/tehnomarket-kazanlyk"},"wikidata":"Q7692633","coordinates":[42.616733,25.3683734]},"atp":{"id":"zFplTK5hCRJgE9k77xjSMQnEEu8=","tags":{"ref":"0000099","@source_uri":"https://www.technomarket.bg/api/frontend/stores","@spider":"technomarket_bg","shop":"electronics","addr:street_address":"бул. 23-ти пехотен шипченски полк 80","addr:country":"BG","phone":"+359 431 701 30","website":"https://www.technomarket.bg/magazini/kazanlyk/tehnomarket-kazanlyk","email":"tmkazanlyk@technomarket.bg","opening_hours":"Mo-Sa 09:00-19:00; Su 10:00-17:00","brand":"Техномаркет","brand:wikidata":"Q7692633","nsi_id":"technomarket-47dfb8"},"coordinates":[42.616754,25.370239]},"dist":152.677,"tags_mismatch":false},{"osm":{"type":"node","id":5250453974,"tags":{"addr:city":"Бургас","addr:housenumber":"29","addr:postcode":"8008","addr:street":"Транспортна","brand":"Техномаркет","brand:wikidata":"Q7692633","email":"tmburgas1@technomarket.bg","opening_hours":"Mo-Sa 10:00-20:00; Su 10:00-19:30","phone":"+359 56 860 700","shop":"electronics","website":"https://www.technomarket.bg/magazini/burgas/tehnomarket-burgas","wheelchair":"limited"},"wikidata":"Q7692633","coordinates":[42.5304815,27.4600866]},"atp":{"id":"O6zPJBjBCglsxpF-73Ug83BAp3Q=","tags":{"ref":"0300002","@source_uri":"https://www.technomarket.bg/api/frontend/stores","@spider":"technomarket_bg","shop":"electronics","addr:street_address":"бул. Транспортна 31, Гранд Плаза МОЛ","addr:country":"BG","phone":"+359 56 860 700","website":"https://www.technomarket.bg/magazini/burgas/tehnomarket-burgas","email":"tmburgas1@technomarket.bg","opening_hours":"Mo-Su 10:00-21:00","brand":"Техномаркет","brand:wikidata":"Q7692633","nsi_id":"technomarket-47dfb8"},"coordinates":[42.5306799828,27.4566939263]},"dist":278.875,"tags_mismatch":true},{"osm":{"type":"node","id":5613450974,"tags":{"addr:city":"София","addr:housenumber":"2А","addr:street":"бул. Ломско шосе","branch":"София Надежда","brand":"Техномаркет","brand:wikidata":"Q7692633","contact:email":"tmnadezhda@technomarket.bg","contact:phone":"+359 2 907 8870","level":"1","opening_hours":"Mo-Sa 10:00-20:00; Su 10:00-19:00","shop":"electronics","website":"https://www.technomarket.bg/magazini/sofiq/tehnomarket-sofiq-nadezhda"},"wikidata":"Q7692633","coordinates":[42.72413,23.3062701]},"atp":{"id":"212RcFW_xc_p81GIuMJsyNjlRcc=","tags":{"ref":"0000003","@source_uri":"https://www.technomarket.bg/api/frontend/stores","@spider":"technomarket_bg","shop":"electronics","addr:street_address":"Търговски център Надежда, жк. Надежда, бул. Ломско шосе 2 А","addr:country":"BG","phone":"+359 2 907 8870","website":"https://www.technomarket.bg/magazini/sofiq/tehnomarket-sofiq-nadezhda","email":"tmnadezhda@technomarket.bg","opening_hours":"Mo-Sa 10:00-20:00; Su 10:00-19:00","brand":"Техномаркет","brand:wikidata":"Q7692633","nsi_id":"technomarket-47dfb8"},"coordinates":[42.7239023,23.3055143]},"dist":66.729,"tags_mismatch":false},{"osm":{"type":"node","id":6053379487,"tags":{"brand":"Техномаркет","brand:wikidata":"Q7692633","check_date":"2023-02-25","internet_access":"no","opening_hours":"Mo-Sa 09:00-19:00; Su 10:00-17:00","payment:cash":"yes","payment:mastercard":"yes","payment:visa":"yes","shop":"electronics","website":"https://www.technomarket.bg/magazini/dimitrovgrad/tehnomarket-dimitrovgrad","wheelchair":"yes"},"wikidata":"Q7692633","coordinates":[42.0582189,25.5875895]},"atp":{"id":"3u0gRnupcNcWyqO2jiEQkHIq7Mc=","tags":{"ref":"0000046","@source_uri":"https://www.technomarket.bg/api/frontend/stores","@spider":"technomarket_bg","shop":"electronics","addr:street_address":"бул.Стефан Стамболов 4А","addr:country":"BG","phone":"+359 39 129 700","website":"https://www.technomarket.bg/magazini/dimitrovgrad/tehnomarket-dimitrovgrad","email":"tmdimitrovgrad@technomarket.bg","opening_hours":"Mo-Sa 09:00-19:00; Su 10:00-17:00","brand":"Техномаркет","brand:wikidata":"Q7692633","nsi_id":"technomarket-47dfb8"},"coordinates":[42.05894,25.585501]},"dist":190.154,"tags_mismatch":false},{"osm":{"type":"node","id":6665451465,"tags":{"branch":"Mall of Sofia","brand":"Техномаркет","brand:wikidata":"Q7692633","email":"tmmallofsofia@technomarket.bg","level":"-2","opening_hours":"Mo-Su 10:00-21:00","phone":"+359 2 920 9580","shop":"electronics","website":"https://www.technomarket.bg/magazini/sofiq/tehnomarket-sofiq-mall-of-sofia","wheelchair":"yes"},"wikidata":"Q7692633","coordinates":[42.6982474,23.308165]},"atp":{"id":"0gBNFnBB6YoYWGjR5wLvaTj-wn8=","tags":{"ref":"0000061","@source_uri":"https://www.technomarket.bg/api/frontend/stores","@spider":"technomarket_bg","shop":"electronics","addr:street_address":"бул. Ал.Стамболийски 101, етаж -2","addr:country":"BG","phone":"+359 2 981 7996","website":"https://www.technomarket.bg/magazini/sofiq/tehnomarket-sofiq-mall-of-sofia","email":"tmmallofsofia@technomarket.bg","opening_hours":"Mo-Su 10:00-21:00","brand":"Техномаркет","brand:wikidata":"Q7692633","nsi_id":"technomarket-47dfb8"},"coordinates":[42.698267,23.308605]},"dist":36.023,"tags_mismatch":false},{"osm":{"type":"node","id":7762313434,"tags":{"brand":"Техномаркет","brand:wikidata":"Q7692633","shop":"electronics"},"wikidata":"Q7692633","coordinates":[42.1450735,24.7800612]},"atp":{"id":"rvdT27zc-_geyWpoRAc1O5sygIE=","tags":{"ref":"0000902","@source_uri":"https://www.technomarket.bg/api/frontend/stores","@spider":"technomarket_bg","shop":"electronics","addr:street_address":"Ул.Георги Странски 3 Плаза Мол","addr:country":"BG","phone":"+359 32 207 470","website":"https://www.technomarket.bg/magazini/plovdiv/tehnomarket-plovdiv-2","email":"tmplovdiv2@technomarket.bg","opening_hours":"Mo-Su 10:00-20:00","brand":"Техномаркет","brand:wikidata":"Q7692633","nsi_id":"technomarket-47dfb8"},"coordinates":[42.144937,24.780397]},"dist":31.573,"tags_mismatch":true},{"osm":{"type":"node","id":7832351131,"tags":{"addr:city":"София","addr:housenumber":"171","addr:street":"бул. Европа","branch":"София Люлин","brand":"Техномаркет","brand:wikidata":"Q7692633","opening_hours":"Mo-Sa 10:00-20:00; Su 10:00-19:00","phone":"+359 2 925 0556","shop":"electronics","website":"https://www.technomarket.bg/magazini/sofiq/tehnomarket-sofiq-lyulin"},"wikidata":"Q7692633","coordinates":[42.7336334,23.247829]},"atp":{"id":"gVDrtXYKSFXHhkyYu1MKEo_6ouA=","tags":{"ref":"0000004","@source_uri":"https://www.technomarket.bg/api/frontend/stores","@spider":"technomarket_bg","shop":"electronics","addr:street_address":"Бул.Европа 171 Комплекс Мосю Бриколаж Люлин","addr:country":"BG","phone":"+359 2 925 0556","website":"https://www.technomarket.bg/magazini/sofiq/tehnomarket-sofiq-lyulin","email":"tmlyulin@technomarket.bg","opening_hours":"Mo-Sa 10:00-20:00; Su 10:00-19:00","brand":"Техномаркет","brand:wikidata":"Q7692633","nsi_id":"technomarket-47dfb8"},"coordinates":[42.7336185,23.2481717]},"dist":28.039,"tags_mismatch":false},{"osm":{"type":"node","id":7832454416,"tags":{"addr:city":"София","addr:housenumber":"216","addr:street":"Околовръстен път","brand":"Техномаркет","brand:wikidata":"Q7692633","check_date":"2022-10-31","email":"tmringmall@technomarket.bg","opening_hours":"Mo-Su 10:00-22:00","phone":"+359 2 902 4900","shop":"electronics","website":"https://www.technomarket.bg/magazini/sofiq/tehnomarket-ring-mol"},"wikidata":"Q7692633","coordinates":[42.624532,23.3533228]},"atp":{"id":"mnxS2XqexegGG7O8vY9LaLiXtBU=","tags":{"ref":"0000232","@source_uri":"https://www.technomarket.bg/api/frontend/stores","@spider":"technomarket_bg","shop":"electronics","addr:street_address":"RING MALL ОКОЛОВРЪСТЕН ПЪТ 216","addr:country":"BG","phone":"+359 2 902 4900","website":"https://www.technomarket.bg/magazini/sofiq/tehnomarket-ring-mol","email":"tmringmall@technomarket.bg","opening_hours":"Mo-Su 10:00-22:00","brand":"Техномаркет","brand:wikidata":"Q7692633","nsi_id":"technomarket-47dfb8"},"coordinates":[42.624141,23.352072]},"dist":111.191,"tags_mismatch":false},{"osm":{"type":"node","id":7924074847,"tags":{"brand":"Техномаркет","brand:wikidata":"Q7692633","opening_hours":"Mo-Su 10:00-19:00","shop":"electronics","website":"https://www.technomarket.bg/magazini/gabrovo/tehnomarket-gabrovo"},"wikidata":"Q7692633","coordinates":[42.8672474,25.3170145]},"atp":{"id":"eE-zbs5_T53AmuF543KQ3CmygDE=","tags":{"ref":"0000502","@source_uri":"https://www.technomarket.bg/api/frontend/stores","@spider":"technomarket_bg","shop":"electronics","addr:street_address":"МОЛ Габрово, ниво 2, бул. „Васил Априлов“ 40","addr:country":"BG","phone":"+359 87 996 7765","website":"https://www.technomarket.bg/magazini/gabrovo/tehnomarket-gabrovo","email":"tmgabrovo@technomarket.bg","opening_hours":"Mo-Su 10:00-19:00","brand":"Техномаркет","brand:wikidata":"Q7692633","nsi_id":"technomarket-47dfb8"},"coordinates":[42.8674641264,25.3170807479]},"dist":24.696,"tags_mismatch":false},{"osm":{"type":"node","id":8500719679,"tags":{"brand":"Техномаркет","brand:wikidata":"Q7692633","opening_hours":"Mo-Su 10:00-20:00","shop":"electronics","website":"https://www.technomarket.bg/magazini/qmbol/tehnomarket-qmbol"},"wikidata":"Q7692633","coordinates":[42.4776876,26.5135988]},"atp":{"id":"k7tMBnX_14_qoXOzrSt0PBwrZL8=","tags":{"ref":"0000012","@source_uri":"https://www.technomarket.bg/api/frontend/stores","@spider":"technomarket_bg","shop":"electronics","addr:street_address":"ул. ''БИТОЛЯ'' № 37","addr:country":"BG","phone":"+359 89 669 1516","website":"https://www.technomarket.bg/magazini/qmbol/tehnomarket-qmbol","email":"tmyambol@technomarket.bg","opening_hours":"Mo-Su 10:00-20:00","brand":"Техномаркет","brand:wikidata":"Q7692633","nsi_id":"technomarket-47dfb8"},"coordinates":[42.477694,26.513778]},"dist":14.714,"tags_mismatch":false},{"osm":{"type":"node","id":9729652505,"tags":{"brand":"Техномаркет","brand:wikidata":"Q7692633","opening_hours":"Mo-Sa 09:00-19:00; Su 10:00-17:00","shop":"electronics","website":"https://www.technomarket.bg/magazini/goce-delchev/tehnomarket-goce-delchev"},"wikidata":"Q7692633","coordinates":[41.5755667,23.7426715]},"atp":{"id":"8QdErumvthnsmeHs4qGMGxHHMpk=","tags":{"ref":"0000112","@source_uri":"https://www.technomarket.bg/api/frontend/stores","@spider":"technomarket_bg","shop":"electronics","addr:street_address":"Бул. Панаирски ливади №1","addr:country":"BG","phone":"+359 89 669 1407","website":"https://www.technomarket.bg/magazini/goce-delchev/tehnomarket-goce-delchev","email":"tmgdelchev@technomarket.bg","opening_hours":"Mo-Sa 09:00-19:00; Su 10:00-17:00","brand":"Техномаркет","brand:wikidata":"Q7692633","nsi_id":"technomarket-47dfb8"},"coordinates":[41.5756632166,23.7426929]},"dist":10.879,"tags_mismatch":false},{"osm":{"type":"node","id":9792476419,"tags":{"brand":"Техномаркет","brand:wikidata":"Q7692633","opening_hours":"Mo-Sa 09:00-19:00; Su 10:00-17:00","shop":"electronics","website":"https://www.technomarket.bg/magazini/pyrvomaj/tehnomarket-pyrvomaj"},"wikidata":"Q7692633","coordinates":[42.0902429,25.2113367]},"atp":{"id":"rAGULDk8kRSHZqgguwZqzbpqu0M=","tags":{"ref":"0000131","@source_uri":"https://www.technomarket.bg/api/frontend/stores","@spider":"technomarket_bg","shop":"electronics","addr:street_address":"ул., Княз Борис I“ 51 В","addr:country":"BG","phone":"+359 33 662 419","website":"https://www.technomarket.bg/magazini/pyrvomaj/tehnomarket-pyrvomaj","email":"tmparvomai@technomarket.bg","opening_hours":"Mo-Sa 10:00-19:00; Su 10:00-17:00","brand":"Техномаркет","brand:wikidata":"Q7692633","nsi_id":"technomarket-47dfb8"},"coordinates":[42.09013,25.21099]},"dist":31.242,"tags_mismatch":true},{"osm":{"type":"node","id":10080107738,"tags":{"brand":"Техномаркет","brand:wikidata":"Q7692633","opening_hours":"Mo-Sa 10:00-20:00; Su 10:00-19:00","shop":"electronics","website":"https://www.technomarket.bg/magazini/pernik/tehnomarket-pernik"},"wikidata":"Q7692633","coordinates":[42.6062042,23.0557043]},"atp":{"id":"x71hszMR3WsJBJaUSO0FzygkEO4=","tags":{"ref":"0000223","@source_uri":"https://www.technomarket.bg/api/frontend/stores","@spider":"technomarket_bg","shop":"electronics","addr:street_address":"ул. „Юрий Гагарин“ №2А","addr:country":"BG","phone":"+359 89 669 1340","website":"https://www.technomarket.bg/magazini/pernik/tehnomarket-pernik","email":"tmpernik@technomarket.bg","opening_hours":"Mo-Sa 10:00-20:00; Su 10:00-19:00","brand":"Техномаркет","brand:wikidata":"Q7692633","nsi_id":"technomarket-47dfb8"},"coordinates":[42.6069446385,23.0561749736]},"dist":90.899,"tags_mismatch":false},{"osm":{"type":"node","id":10180061017,"tags":{"brand":"Техномаркет","brand:wikidata":"Q7692633","email":"tmdobrich@technomarket.bg","opening_hours":"Mo-Su 10:00-20:00","shop":"electronics","website":"https://www.technomarket.bg/magazini/dobrich/tehnomarket-dobrich"},"wikidata":"Q7692633","coordinates":[43.5654917,27.8393902]},"atp":{"id":"pksHzjaYZh6fWPtDTHwkEhbZSdQ=","tags":{"ref":"0000040","@source_uri":"https://www.technomarket.bg/api/frontend/stores","@spider":"technomarket_bg","shop":"electronics","addr:street_address":"ул. Дунав N 53","addr:country":"BG","phone":"+359 89 669 1349","website":"https://www.technomarket.bg/magazini/dobrich/tehnomarket-dobrich","email":"tmdobrich@technomarket.bg","opening_hours":"Mo-Su 10:00-20:00","brand":"Техномаркет","brand:wikidata":"Q7692633","nsi_id":"technomarket-47dfb8"},"coordinates":[43.566048,27.840143]},"dist":86.632,"tags_mismatch":false},{"osm":{"type":"node","id":10309151267,"tags":{"brand":"Техномаркет","brand:wikidata":"Q7692633","opening_hours":"Mo-Sa 10:00-20:00; Su 10:00-19:30","shop":"electronics","website":"https://www.technomarket.bg/magazini/plovdiv/tehnomarket-plovdiv"},"wikidata":"Q7692633","coordinates":[42.1556452,24.7070584]},"atp":{"id":"ot6cZJnnsI8bJUjPah8O5bEl3NA=","tags":{"ref":"0500002","@source_uri":"https://www.technomarket.bg/api/frontend/stores","@spider":"technomarket_bg","shop":"electronics","addr:street_address":"бул. България (4-ти километър)","addr:country":"BG","phone":"+359 32 905 060","website":"https://www.technomarket.bg/magazini/plovdiv/tehnomarket-plovdiv","email":"tmplovdiv1@technomarket.bg","opening_hours":"Mo-Sa 10:00-20:00; Su 10:00-19:30","brand":"Техномаркет","brand:wikidata":"Q7692633","nsi_id":"technomarket-47dfb8"},"coordinates":[42.155367,24.707133]},"dist":31.54,"tags_mismatch":false},{"osm":{"type":"node","id":11254567599,"tags":{"brand":"Техномаркет","brand:wikidata":"Q7692633","opening_hours":"Mo-Sa 10:00-19:00; Su 10:00-17:00","shop":"electronics","website":"https://www.technomarket.bg/magazini/samokov/tehnomarket-samokov"},"wikidata":"Q7692633","coordinates":[42.3449508,23.5519998]},"atp":{"id":"Gqe643kqlxChvvOSGpZ2BGVctLM=","tags":{"ref":"0000109","@source_uri":"https://www.technomarket.bg/api/frontend/stores","@spider":"technomarket_bg","shop":"electronics","addr:street_address":"ул. Софийско шосе 30А","addr:country":"BG","phone":"+359 72 260 578","website":"https://www.technomarket.bg/magazini/samokov/tehnomarket-samokov","email":"tmsamokov@technomarket.bg","opening_hours":"Mo-Sa 10:00-19:00; Su 10:00-17:00","brand":"Техномаркет","brand:wikidata":"Q7692633","nsi_id":"technomarket-47dfb8"},"coordinates":[42.344898,23.552257]},"dist":21.938,"tags_mismatch":false},{"osm":{"type":"node","id":11254584997,"tags":{"brand":"Техномаркет","brand:wikidata":"Q7692633","opening_hours":"Mo-Fr 09:30-19:00; Sa-Su 10:00-18:00","shop":"electronics","website":"https://www.technomarket.bg/magazini/vraca/tehnomarket-vraca"},"wikidata":"Q7692633","coordinates":[43.184877,23.586835]},"atp":false,"tags_mismatch":false},{"osm":{"type":"node","id":11254816944,"tags":{"brand":"Техномаркет","brand:wikidata":"Q7692633","opening_hours":"Mo-Sa 10:00-20:00; Su 10:00-18:00","shop":"electronics","website":"https://www.technomarket.bg/magazini/sliven/tehnomarket-sliven"},"wikidata":"Q7692633","coordinates":[42.6823096,26.339347]},"atp":{"id":"skgc0aoik2rj8V_uboRGjHxdwXM=","tags":{"ref":"0000602","@source_uri":"https://www.technomarket.bg/api/frontend/stores","@spider":"technomarket_bg","shop":"electronics","addr:street_address":"бул. Георги Данчев 24 Ритейл Парк Сливен","addr:country":"BG","phone":"+359 89 669 1347","website":"https://www.technomarket.bg/magazini/sliven/tehnomarket-sliven","email":"tmsliven@technomarket.bg","opening_hours":"Mo-Sa 10:00-20:00; Su 10:00-18:00","brand":"Техномаркет","brand:wikidata":"Q7692633","nsi_id":"technomarket-47dfb8"},"coordinates":[42.6821999513,26.3391670416]},"dist":19.106,"tags_mismatch":false},{"osm":{"type":"node","id":11276749897,"tags":{"brand":"Техномаркет","brand:wikidata":"Q7692633","contact:email":"tmsvilengrad@technomarket.bg","contact:phone":"+359 37 963 444","opening_hours":"Mo-Sa 10:00-19:00; Su 10:00-17:00","shop":"electronics","website":"https://www.technomarket.bg/magazini/svilengrad/tehnomarket-svilengrad","wheelchair":"yes"},"wikidata":"Q7692633","coordinates":[41.7709316,26.1992564]},"atp":{"id":"AqLCmlessCNvuKpDy61VDFVvKEU=","tags":{"ref":"0000230","@source_uri":"https://www.technomarket.bg/api/frontend/stores","@spider":"technomarket_bg","shop":"electronics","addr:street_address":"ул. Гео Милев № 2, Търговски парк \"Сити","addr:country":"BG","phone":"0379;63444","website":"https://www.technomarket.bg/magazini/svilengrad/tehnomarket-svilengrad","email":"tmsvilengrad@technomarket.bg","opening_hours":"Mo-Sa 10:00-19:00; Su 10:00-17:00","brand":"Техномаркет","brand:wikidata":"Q7692633","nsi_id":"technomarket-47dfb8"},"coordinates":[41.770994,26.198982]},"dist":23.79,"tags_mismatch":false},{"osm":{"type":"node","id":11324280410,"tags":{"brand":"Техномаркет","brand:wikidata":"Q7692633","check_date":"2024-12-02","internet_access":"no","level":"1","opening_hours":"Mo-Su 10:00-20:00","payment:cash":"yes","payment:credit_cards":"yes","payment:debit_cards":"yes","shop":"electronics","website":"https://www.technomarket.bg/magazini/sofiq/tehnomarket-sofiq-knqzhevo","wheelchair":"yes"},"wikidata":"Q7692633","coordinates":[42.6600944,23.2446645]},"atp":{"id":"9uV3sush7eV9AdOnQb3obvR5S6s=","tags":{"ref":"0000022","@source_uri":"https://www.technomarket.bg/api/frontend/stores","@spider":"technomarket_bg","shop":"electronics","addr:street_address":"кв. Княжево, бул. „Цар Борис ІІІ“ № 272","addr:country":"BG","phone":"+359 88 204 9502","website":"https://www.technomarket.bg/magazini/sofiq/tehnomarket-sofiq-knqzhevo","email":"tmknyazhevo@technomarket.bg","opening_hours":"Mo-Su 10:00-20:00","brand":"Техномаркет","brand:wikidata":"Q7692633","nsi_id":"technomarket-47dfb8"},"coordinates":[42.660191,23.245148]},"dist":40.97,"tags_mismatch":false},{"osm":{"type":"node","id":11326080119,"tags":{"brand":"Техномаркет","brand:wikidata":"Q7692633","shop":"electronics"},"wikidata":"Q7692633","coordinates":[42.4196577,25.6083461]},"atp":false,"tags_mismatch":false},{"osm":{"type":"node","id":11463250787,"tags":{"brand":"Техномаркет","brand:wikidata":"Q7692633","shop":"electronics"},"wikidata":"Q7692633","coordinates":[43.2794076,26.9272302]},"atp":{"id":"UWCBef3z7tpp8rVGv4mQRqhhEcQ=","tags":{"ref":"0000702","@source_uri":"https://www.technomarket.bg/api/frontend/stores","@spider":"technomarket_bg","shop":"electronics","addr:street_address":"ул. КРАЛЕВИЧЕ № 1","addr:country":"BG","phone":"+359 88 271 5523","website":"https://www.technomarket.bg/magazini/shumen/tehnomarket-shumen","email":"tmshumen@technomarket.bg","opening_hours":"Mo-Su 10:00-20:00","brand":"Техномаркет","brand:wikidata":"Q7692633","nsi_id":"technomarket-47dfb8"},"coordinates":[43.279486,26.927254]},"dist":8.928,"tags_mismatch":true},{"osm":{"type":"node","id":11509482767,"tags":{"addr:city":"Дупница","addr:postcode":"2600","brand":"Техномаркет","brand:wikidata":"Q7692633","opening_hours":"Mo-Sa 09:00-19:00; Su 10:00-17:00","shop":"electronics","website":"https://www.technomarket.bg/magazini/dupnica/tehnomarket-dupnica"},"wikidata":"Q7692633","coordinates":[42.2672357,23.1139642]},"atp":{"id":"9gKyRooQKUTBmKajiQrrUcRGnZc=","tags":{"ref":"0000228","@source_uri":"https://www.technomarket.bg/api/frontend/stores","@spider":"technomarket_bg","shop":"electronics","addr:street_address":"ул.Иван Вазов № 30","addr:country":"BG","phone":"+359 701 552 00","website":"https://www.technomarket.bg/magazini/dupnica/tehnomarket-dupnica","email":"tmdupnica@technomarket.bg","opening_hours":"Mo-Sa 09:00-19:00; Su 10:00-17:00","brand":"Техномаркет","brand:wikidata":"Q7692633","nsi_id":"technomarket-47dfb8"},"coordinates":[42.2670743,23.113473]},"dist":44.224,"tags_mismatch":false},{"osm":{"type":"node","id":11509493365,"tags":{"brand":"Техномаркет","brand:wikidata":"Q7692633","shop":"electronics"},"wikidata":"Q7692633","coordinates":[42.7036967,24.1626498]},"atp":{"id":"hK9HkMEEwVAZihRn5CjdKBd_-SM=","tags":{"ref":"0000017","@source_uri":"https://www.technomarket.bg/api/frontend/stores","@spider":"technomarket_bg","shop":"electronics","addr:street_address":"Подбалкански път, разклонът за гр. Пирдоп","addr:country":"BG","phone":"+359 88 483 6312","website":"https://www.technomarket.bg/magazini/pirdop/tehnomarket-pirdop","email":"tmpirdop@technomarket.bg","opening_hours":"Mo-Su 09:00-19:00","brand":"Техномаркет","brand:wikidata":"Q7692633","nsi_id":"technomarket-47dfb8"},"coordinates":[42.703778,24.163167]},"dist":43.218,"tags_mismatch":true},{"osm":{"type":"node","id":11685130818,"tags":{"brand":"Техномаркет","brand:wikidata":"Q7692633","shop":"electronics"},"wikidata":"Q7692633","coordinates":[41.572397,24.7160632]},"atp":{"id":"EmsQH9ZaxHYzX_SFSzR4jbiymkc=","tags":{"ref":"0000108","@source_uri":"https://www.technomarket.bg/api/frontend/stores","@spider":"technomarket_bg","shop":"electronics","addr:street_address":"ул. „Белия камък“ 24","addr:country":"BG","phone":"+359 30 181 337","website":"https://www.technomarket.bg/magazini/smolqn/tehnomarket-smolqn","email":"tmsmolian@technomarket.bg","opening_hours":"Mo-Sa 10:00-19:00; Su 10:00-17:00","brand":"Техномаркет","brand:wikidata":"Q7692633","nsi_id":"technomarket-47dfb8"},"coordinates":[41.5722164465,24.7156322738]},"dist":41.087,"tags_mismatch":true},{"osm":{"type":"node","id":11723449704,"tags":{"brand":"Техномаркет","brand:wikidata":"Q7692633","shop":"electronics"},"wikidata":"Q7692633","coordinates":[42.6553912,23.5900822]},"atp":{"id":"ji5qXNcY_0Y7n73SRrGROJweDic=","tags":{"ref":"0000021","@source_uri":"https://www.technomarket.bg/api/frontend/stores","@spider":"technomarket_bg","shop":"electronics","addr:street_address":"Републикански път 105","addr:country":"BG","phone":"+359 89 669 1159","website":"https://www.technomarket.bg/magazini/elin-pelin/tehnomarket-elin-pelin","email":"tmelinpelin@technomarket.bg","opening_hours":"Mo-Su 10:00-20:00","brand":"Техномаркет","brand:wikidata":"Q7692633","nsi_id":"technomarket-47dfb8"},"coordinates":[42.656793,23.5908997]},"dist":169.604,"tags_mismatch":true},{"osm":{"type":"node","id":11874807941,"tags":{"addr:city":"Равда","addr:housenumber":"2","addr:postcode":"8238","addr:street":"Местност Чатал Тепе","branch":"Несебър","brand":"Техномаркет","brand:wikidata":"Q7692633","email":"tmnesebar@technomarket.bg","internet_access":"wlan","opening_hours":"Mo-Su 10:00-20:00","outdoor_seating":"no","phone":"+359896691202","shop":"electronics","website":"https://www.technomarket.bg/magazini/nesebyr/tehnomarket-nesebyr"},"wikidata":"Q7692633","coordinates":[42.6527587,27.672484]},"atp":{"id":"vtMUIWUR_BIWGF-q9jtQn329t1U=","tags":{"ref":"0300005","@source_uri":"https://www.technomarket.bg/api/frontend/stores","@spider":"technomarket_bg","shop":"electronics","addr:street_address":"с.Равда, м. ЧАТАЛ ТЕПЕ № 2","addr:country":"BG","phone":"+359 89 669 1202","website":"https://www.technomarket.bg/magazini/nesebyr/tehnomarket-nesebyr","email":"tmnesebar@technomarket.bg","opening_hours":"Mo-Su 10:00-20:00","brand":"Техномаркет","brand:wikidata":"Q7692633","nsi_id":"technomarket-47dfb8"},"coordinates":[42.652783,27.672336]},"dist":12.402,"tags_mismatch":false},{"osm":{"type":"node","id":12396636743,"tags":{"brand":"Техномаркет","brand:wikidata":"Q7692633","shop":"electronics"},"wikidata":"Q7692633","coordinates":[42.9088623,23.8024381]},"atp":{"id":"25FF6ZPNwVku3FvyfK1uFjaZwu8=","tags":{"ref":"0000225","@source_uri":"https://www.technomarket.bg/api/frontend/stores","@spider":"technomarket_bg","shop":"electronics","addr:street_address":"бул. Цар Освободител 24А","addr:country":"BG","phone":"+359 89 669 1791;+359 89 669 1344","website":"https://www.technomarket.bg/magazini/botevgrad/tehnomarket-botevgrad","email":"tmbotevgrad@technomarket.bg","opening_hours":"Mo-Sa 09:30-19:30; Su 10:00-19:00","brand":"Техномаркет","brand:wikidata":"Q7692633","nsi_id":"technomarket-47dfb8"},"coordinates":[42.90868,23.801949]},"dist":44.695,"tags_mismatch":true},{"osm":{"type":"way","id":116742967,"tags":{"brand":"Техномаркет","brand:wikidata":"Q7692633","building":"yes","opening_hours":"Mo-Fr 10:00-20:00; Sa-Su 10:00-19:00","shop":"electronics","website":"https://www.technomarket.bg/magazini/pleven/tehnomarket-pleven"},"wikidata":"Q7692633","coordinates":[43.4080609,24.6367471]},"atp":{"id":"7BVp6L5yqT1JA8RjyQAI3GoLmIs=","tags":{"ref":"0000038","@source_uri":"https://www.technomarket.bg/api/frontend/stores","@spider":"technomarket_bg","shop":"electronics","addr:street_address":"бул. Европа 6","addr:country":"BG","phone":"+359 64 892 360","website":"https://www.technomarket.bg/magazini/pleven/tehnomarket-pleven","email":"tmpleven@technomarket.bg","opening_hours":"Mo-Fr 10:00-20:00; Sa-Su 10:00-19:00","brand":"Техномаркет","brand:wikidata":"Q7692633","nsi_id":"technomarket-47dfb8"},"coordinates":[43.407877,24.636347]},"dist":38.246,"tags_mismatch":false},{"osm":{"type":"way","id":190979536,"tags":{"brand":"Техномаркет","brand:wikidata":"Q7692633","building":"yes","opening_hours":"Mo-Sa 10:00-20:00; Su 10:00-19:00","shop":"electronics","website":"https://www.technomarket.bg/magazini/blagoevgrad/tehnomarket-blagoevgrad"},"wikidata":"Q7692633","coordinates":[41.9974409,23.0882729]},"atp":{"id":"iL55jJ051YwWmJ2QpZRhWnsBK4c=","tags":{"ref":"0000302","@source_uri":"https://www.technomarket.bg/api/frontend/stores","@spider":"technomarket_bg","shop":"electronics","addr:street_address":"ж.к. Струмско, бул. Яне Сандански","addr:country":"BG","phone":"+359 89 669 1330","website":"https://www.technomarket.bg/magazini/blagoevgrad/tehnomarket-blagoevgrad","email":"tmblagoevgrad@technomarket.bg","opening_hours":"Mo-Sa 10:00-20:00; Su 10:00-19:00","brand":"Техномаркет","brand:wikidata":"Q7692633","nsi_id":"technomarket-47dfb8"},"coordinates":[41.99745,23.087867]},"dist":33.558,"tags_mismatch":false},{"osm":{"type":"way","id":214446895,"tags":{"brand":"Техномаркет","brand:wikidata":"Q7692633","building":"yes","opening_hours":"Mo-Sa 09:30-19:30; Su 10:00-17:00","shop":"electronics","website":"https://www.technomarket.bg/magazini/sandanski/tehnomarket-sandanski"},"wikidata":"Q7692633","coordinates":[41.5553566,23.2767376]},"atp":{"id":"qBnpMZ2CAtBGG9LIiHcenZ1oYkU=","tags":{"ref":"0000402","@source_uri":"https://www.technomarket.bg/api/frontend/stores","@spider":"technomarket_bg","shop":"electronics","addr:street_address":"ул.Тодор Каблешков 7","addr:country":"BG","phone":"+359 74 634 600","website":"https://www.technomarket.bg/magazini/sandanski/tehnomarket-sandanski","email":"tmsandanski@technomarket.bg","opening_hours":"Mo-Sa 09:30-19:30; Su 10:00-17:00","brand":"Техномаркет","brand:wikidata":"Q7692633","nsi_id":"technomarket-47dfb8"},"coordinates":[41.5550821,23.2766425]},"dist":31.532,"tags_mismatch":false},{"osm":{"type":"way","id":309045473,"tags":{"addr:city":"Хасково","addr:housenumber":"77","addr:postcode":"6300","addr:street":"бул. Съединение","brand":"Техномаркет","brand:wikidata":"Q7692633","building:part":"yes","opening_hours":"Mo-Sa 10:00-19:00; Su 10:00-18:00","shop":"electronics","website":"https://www.technomarket.bg/magazini/haskovo/tehnomarket-haskovo"},"wikidata":"Q7692633","coordinates":[41.9316032,25.604385]},"atp":{"id":"dTWiDYyucV8rSP_DXPsraJx_U6Q=","tags":{"ref":"0000202","@source_uri":"https://www.technomarket.bg/api/frontend/stores","@spider":"technomarket_bg","shop":"electronics","addr:street_address":"бул. Съединение 77","addr:country":"BG","phone":"+359 38 609 000","website":"https://www.technomarket.bg/magazini/haskovo/tehnomarket-haskovo","email":"tmhaskovo@technomarket.bg","opening_hours":"Mo-Sa 10:00-19:00; Su 10:00-18:00","brand":"Техномаркет","brand:wikidata":"Q7692633","nsi_id":"technomarket-47dfb8"},"coordinates":[41.931616,25.604517]},"dist":11.012,"tags_mismatch":false},{"osm":{"type":"way","id":394448573,"tags":{"brand":"Техномаркет","brand:wikidata":"Q7692633","building":"yes","shop":"electronics"},"wikidata":"Q7692633","coordinates":[43.4049772,23.241462]},"atp":false,"tags_mismatch":false},{"osm":{"type":"way","id":424708438,"tags":{"addr:city":"Кърджали","addr:postcode":"6600","brand":"Техномаркет","brand:wikidata":"Q7692633","building":"yes","opening_hours":"Mo-Sa 09:00-19:00; Su 10:00-19:00","shop":"electronics","website":"https://www.technomarket.bg/magazini/kyrdzhali/tehnomarket-kyrdzhali"},"wikidata":"Q7692633","coordinates":[41.6319609,25.378802]},"atp":{"id":"IHYSshWlZ0Qnua2BKLpRPBwXQyw=","tags":{"ref":"0000045","@source_uri":"https://www.technomarket.bg/api/frontend/stores","@spider":"technomarket_bg","shop":"electronics","addr:street_address":"бул.Беломорски № 68","addr:country":"BG","phone":"+359 36 121 160","website":"https://www.technomarket.bg/magazini/kyrdzhali/tehnomarket-kyrdzhali","email":"tmkardjali@technomarket.bg","opening_hours":"Mo-Sa 09:00-19:00; Su 10:00-19:00","brand":"Техномаркет","brand:wikidata":"Q7692633","nsi_id":"technomarket-47dfb8"},"coordinates":[41.63278,25.378288]},"dist":100.6,"tags_mismatch":false},{"osm":{"type":"way","id":435324436,"tags":{"brand":"Техномаркет","brand:wikidata":"Q7692633","building":"yes","opening_hours":"Mo-Sa 10:00-20:00; Su 10:00-19:30","shop":"electronics","website":"https://www.technomarket.bg/magazini/varna/tehnomarket-varna","wheelchair":"yes"},"wikidata":"Q7692633","coordinates":[43.2324404,27.8661279]},"atp":{"id":"sYFWoGkZxIuCHGhYMObAqY2OFtE=","tags":{"ref":"0200002","@source_uri":"https://www.technomarket.bg/api/frontend/stores","@spider":"technomarket_bg","shop":"electronics","addr:street_address":"ул. Коево 2","addr:country":"BG","phone":"052;574191","website":"https://www.technomarket.bg/magazini/varna/tehnomarket-varna","email":"tmvarna1@technomarket.bg","opening_hours":"Mo-Sa 10:00-20:00; Su 10:00-19:30","brand":"Техномаркет","brand:wikidata":"Q7692633","nsi_id":"technomarket-47dfb8"},"coordinates":[43.232355,27.866251]},"dist":13.771,"tags_mismatch":false},{"osm":{"type":"way","id":450126859,"tags":{"brand":"Техномаркет","brand:wikidata":"Q7692633","building":"yes","email":"tmbansko@technomarket.bg","opening_hours":"Mo-Sa 10:00-19:00; Su 10:00-17:00","phone":"+359 89 669 1263","shop":"electronics","website":"https://www.technomarket.bg/magazini/bansko/tehnomarket-bansko"},"wikidata":"Q7692633","coordinates":[41.8458476,23.483291]},"atp":{"id":"SZGOYbxRr9Vfo_lcFRtxx3K3zQA=","tags":{"ref":"0000224","@source_uri":"https://www.technomarket.bg/api/frontend/stores","@spider":"technomarket_bg","shop":"electronics","addr:street_address":"ул. Патриарх Евтимий 4","addr:country":"BG","phone":"+359 89 669 1263","website":"https://www.technomarket.bg/magazini/bansko/tehnomarket-bansko","email":"tmbansko@technomarket.bg","opening_hours":"Mo-Sa 10:00-19:00; Su 10:00-17:00","brand":"Техномаркет","brand:wikidata":"Q7692633","nsi_id":"technomarket-47dfb8"},"coordinates":[41.845637,23.483458]},"dist":27.198,"tags_mismatch":false},{"osm":{"type":"way","id":1081128636,"tags":{"brand":"Техномаркет","brand:wikidata":"Q7692633","building":"yes","opening_hours":"Mo-Sa 09:30-19:30; Su 10:00-19:00","shop":"electronics","website":"https://www.technomarket.bg/magazini/pazardzhik/tehnomarket-pazardzhik"},"wikidata":"Q7692633","coordinates":[42.1835145,24.3166455]},"atp":{"id":"i8UyHyQNcj7C8wTcaPyIFllcSos=","tags":{"ref":"0000010","@source_uri":"https://www.technomarket.bg/api/frontend/stores","@spider":"technomarket_bg","shop":"electronics","addr:street_address":"ул.Христо Касабвелев №8","addr:country":"BG","phone":"+359 34 405 840","website":"https://www.technomarket.bg/magazini/pazardzhik/tehnomarket-pazardzhik","email":"tmpazardjik@technomarket.bg","opening_hours":"Mo-Sa 10:00-20:00; Su 10:00-19:00","brand":"Техномаркет","brand:wikidata":"Q7692633","nsi_id":"technomarket-47dfb8"},"coordinates":[42.18329,24.316745]},"dist":26.275,"tags_mismatch":true},{"osm":{"type":"way","id":1204015076,"tags":{"brand":"Техномаркет","brand:wikidata":"Q7692633","building":"yes","opening_hours":"Mo-Sa 10:00-19:00; Su 09:30-17:00","shop":"electronics","website":"https://www.technomarket.bg/magazini/velingrad/tehnomarket-velingrad"},"wikidata":"Q7692633","coordinates":[42.0290913,24.0074258]},"atp":false,"tags_mismatch":false},{"osm":{"type":"way","id":1317448950,"tags":{"brand":"Техномаркет","brand:wikidata":"Q7692633","building":"yes","opening_hours":"Mo-Sa 10:00-19:00; Su 10:00-17:00","shop":"electronics","website":"https://www.technomarket.bg/magazini/troqn/tehnomarket-troqn"},"wikidata":"Q7692633","coordinates":[42.8915737,24.7166172]},"atp":{"id":"gAYwVneukUwU8GnOglfD40lMex8=","tags":{"ref":"0000015","@source_uri":"https://www.technomarket.bg/api/frontend/stores","@spider":"technomarket_bg","shop":"electronics","addr:street_address":"ул. „Академик Ангел Балевски“ 1","addr:country":"BG","phone":"+359 88 258 9975","website":"https://www.technomarket.bg/magazini/troqn/tehnomarket-troqn","email":"tmtroyan@technomarket.bg","opening_hours":"Mo-Sa 10:00-19:00; Su 10:00-17:00","brand":"Техномаркет","brand:wikidata":"Q7692633","nsi_id":"technomarket-47dfb8"},"coordinates":[42.891904,24.715747]},"dist":79.841,"tags_mismatch":false},{"osm":false,"atp":false,"tags_mismatch":false,"dist":0},{"osm":false,"atp":false,"tags_mismatch":false,"dist":0},{"osm":false,"atp":false,"tags_mismatch":false,"dist":0},{"osm":false,"atp":{"id":"N2EjHvAOCC1MJNut0fsjiRxpr1k=","tags":{"ref":"0000024","shop":"electronics","addr:street_address":"бул. „Липник“ 121Д, Мол Русе","addr:country":"BG","name":"ТЕХНОМАРКЕТ РУСЕ","phone":"+359 82 280 046","website":"https://www.technomarket.bg/magazini/ruse/tehnomarket-ruse","email":"tmruse@technomarket.bg","opening_hours":"Mo-Sa 10:00-20:00; Su 10:00-19:30","brand":"Техномаркет","brand:wikidata":"Q7692633"},"coordinates":[43.85313,25.99027]},"tags_mismatch":false,"dist":0},{"osm":false,"atp":false,"tags_mismatch":false,"dist":0},{"osm":false,"atp":false,"tags_mismatch":false,"dist":0},{"osm":false,"atp":false,"tags_mismatch":false,"dist":0},{"osm":false,"atp":false,"tags_mismatch":false,"dist":0},{"osm":false,"atp":false,"tags_mismatch":false,"dist":0},{"osm":false,"atp":false,"tags_mismatch":false,"dist":0},{"osm":false,"atp":{"id":"coWphO6utExncxzuqoW6g-W3YLk=","tags":{"ref":"0000095","shop":"electronics","addr:street_address":"местност „Кантона“ 219","addr:country":"BG","name":"ТЕХНОМАРКЕТ КАРЛОВО","phone":"+359 89 669 1362","website":"https://www.technomarket.bg/magazini/karlovo/tehnomarket-karlovo","email":"tmkarlovo@technomarket.bg","opening_hours":"Mo-Sa 09:30-19:30; Su 10:00-19:00","brand":"Техномаркет","brand:wikidata":"Q7692633"},"coordinates":[42.6433827,24.7886981]},"tags_mismatch":false,"dist":0},{"osm":false,"atp":false,"tags_mismatch":false,"dist":0},{"osm":false,"atp":false,"tags_mismatch":false,"dist":0},{"osm":false,"atp":false,"tags_mismatch":false,"dist":0},{"osm":false,"atp":false,"tags_mismatch":false,"dist":0},{"osm":false,"atp":false,"tags_mismatch":false,"dist":0},{"osm":false,"atp":false,"tags_mismatch":false,"dist":0},{"osm":false,"atp":{"id":"VXowVFgvNRqCbkvPIRmA7fVJT9Q=","tags":{"ref":"0000114","shop":"electronics","addr:street_address":"ул. Петър Ангелов 28","addr:country":"BG","name":"ТЕХНОМАРКЕТ СВИЩОВ","phone":"+359 63 164 003","website":"https://www.technomarket.bg/magazini/svishtov/tehnomarket-svishtov","email":"tmsvishtov@technomarket.bg","opening_hours":"Mo-Sa 09:00-19:00; Su 09:00-16:00","brand":"Техномаркет","brand:wikidata":"Q7692633"},"coordinates":[43.615262,25.343721]},"tags_mismatch":false,"dist":0},{"osm":false,"atp":{"id":"qTTpt9ZF61pPZSvTu-f4gkgWrik=","tags":{"ref":"0000121","shop":"electronics","addr:street_address":"ул.Цар Освободител № 128","addr:country":"BG","name":"ТЕХНОМАРКЕТ ИХТИМАН","phone":"+359 72 482 228","website":"https://www.technomarket.bg/magazini/ihtiman/tehnomarket-ihtiman","email":"tmihtiman@technomarket.bg","opening_hours":"Mo-Sa 09:00-19:00","brand":"Техномаркет","brand:wikidata":"Q7692633"},"coordinates":[42.435224,23.817458]},"tags_mismatch":false,"dist":0},{"osm":false,"atp":{"id":"jhs_L_sfwTIEL35bOm4XTxjOtac=","tags":{"ref":"0000126","shop":"electronics","addr:street_address":"бул. Ал. Стамболийски 42","addr:country":"BG","name":"ТЕХНОМАРКЕТ ТЪРГОВИЩЕ","phone":"+359 60 165 554","website":"https://www.technomarket.bg/magazini/tyrgovishte/tehnomarket-tyrgovishte","email":"tmtargovishte@technomarket.bg","opening_hours":"Mo-Sa 10:00-19:00; Su 10:00-18:00","brand":"Техномаркет","brand:wikidata":"Q7692633"},"coordinates":[43.247396,26.559423]},"tags_mismatch":false,"dist":0},{"osm":false,"atp":false,"tags_mismatch":false,"dist":0},{"osm":false,"atp":false,"tags_mismatch":false,"dist":0},{"osm":false,"atp":false,"tags_mismatch":false,"dist":0},{"osm":false,"atp":false,"tags_mismatch":false,"dist":0},{"osm":false,"atp":false,"tags_mismatch":false,"dist":0},{"osm":false,"atp":false,"tags_mismatch":false,"dist":0},{"osm":false,"atp":false,"tags_mismatch":false,"dist":0},{"osm":false,"atp":false,"tags_mismatch":false,"dist":0},{"osm":false,"atp":false,"tags_mismatch":false,"dist":0},{"osm":false,"atp":false,"tags_mismatch":false,"dist":0},{"osm":false,"atp":false,"tags_mismatch":false,"dist":0},{"osm":false,"atp":false,"tags_mismatch":false,"dist":0},{"osm":false,"atp":false,"tags_mismatch":false,"dist":0},{"osm":false,"atp":{"id":"XlmwxZBbSSmV5nh8mqsTymru19w=","tags":{"ref":"0200003","shop":"electronics","addr:street_address":"бул. Андрей Сахаров 2, Гранд Мол Варна","addr:country":"BG","name":"ТЕХНОМАРКЕТ ВАРНА 2 ГРАНД МОЛ","phone":"+359 52 702 400","website":"https://www.technomarket.bg/magazini/varna/tehnomarket-varna-2-grand-mol","email":"varna2-grandmall@technomarket.bg","opening_hours":"Mo-Su 10:00-21:00","brand":"Техномаркет","brand:wikidata":"Q7692633"},"coordinates":[43.217998,27.898016]},"tags_mismatch":false,"dist":0},{"osm":false,"atp":false,"tags_mismatch":false,"dist":0},{"osm":false,"atp":false,"tags_mismatch":false,"dist":0},{"osm":false,"atp":false,"tags_mismatch":false,"dist":0},{"osm":false,"atp":{"id":"lPlMsB4cPZdsCEpnkKyqzph8PKY=","tags":{"ref":"0500004","shop":"electronics","addr:street_address":"Бул. Руски 52, 4000 Пловдив, Мол Марково Тепе","addr:country":"BG","name":"ТМ ПЛОВДИВ МАРКОВО ТЕПЕ","phone":"+359 32 203 320","website":"https://www.technomarket.bg/magazini/plovdiv/tm-plovdiv-markovo-tepe","email":"tmmarkovotepe@technomarket.bg","opening_hours":"Mo-Su 10:00-20:00","brand":"Техномаркет","brand:wikidata":"Q7692633"},"coordinates":[42.141311,24.741076]},"tags_mismatch":false,"dist":0},{"osm":false,"atp":{"id":"tVzaZ7FO0zC61RonE5gGP_HNdlU=","tags":{"ref":"0600021","shop":"electronics","addr:street_address":"ул. Хан Аспарух 30 Mall Galleria","addr:country":"BG","name":"ТЕХНОМАРКЕТ СТАРА ЗАГОРА 2","phone":"+359 42 298 102","website":"https://www.technomarket.bg/magazini/stara-zagora/tehnomarket-stara-zagora-2","email":"tmstarazagora2@technomarket.bg","opening_hours":"Mo-Su 10:00-20:00","brand":"Техномаркет","brand:wikidata":"Q7692633"},"coordinates":[42.437594,25.632981]},"tags_mismatch":false,"dist":0},{"osm":false,"atp":false,"tags_mismatch":false,"dist":0},{"osm":false,"atp":{"id":"vjntGh_x_u2YX5yNOJ0MSlKhY5A=","tags":{"ref":"0000011","shop":"electronics","addr:street_address":"ул. Хан Аспарух 2–В, Г","addr:country":"BG","name":"ТЕХНОМАРКЕТ ВЕЛИНГРАД","phone":"+359 35 069 029","website":"https://www.technomarket.bg/magazini/velingrad/tehnomarket-velingrad","email":"tmvelingrad@technomarket.bg","opening_hours":"Mo-Su 10:00-19:00","brand":"Техномаркет","brand:wikidata":"Q7692633"},"coordinates":[42.0312100973,24.0033845114]},"tags_mismatch":false,"dist":0},{"osm":false,"atp":false,"tags_mismatch":false,"dist":0},{"osm":false,"atp":{"id":"ba2NdOAKI9YSKO2ZODUofgUhRTI=","tags":{"ref":"0000014","shop":"electronics","addr:street_address":"ул. ''Места'' № 3","addr:country":"BG","name":"ТЕХНОМАРКЕТ ПЕТРИЧ","phone":"+359 89 669 1279","website":"https://www.technomarket.bg/magazini/petrich/tehnomarket-petrich","email":"tmpetrich@technomarket.bg","opening_hours":"Mo-Sa 09:30-19:30; Su 10:00-17:00","brand":"Техномаркет","brand:wikidata":"Q7692633"},"coordinates":[41.405788,23.201918]},"tags_mismatch":false,"dist":0},{"osm":false,"atp":false,"tags_mismatch":false,"dist":0},{"osm":false,"atp":false,"tags_mismatch":false,"dist":0},{"osm":false,"atp":false,"tags_mismatch":false,"dist":0},{"osm":false,"atp":{"id":"2FglyElyK756wVQ7ZDLIFjs9hTw=","tags":{"ref":"0200004","shop":"electronics","addr:street_address":"бул. Андрей Сахаров 2","addr:country":"BG","name":"ТЕХНОМАРКЕТ@ХОУМ ВАРНА","phone":"+359 89 669 1115","website":"https://www.technomarket.bg/magazini/varna/tehnomarket@houm-varna","email":"atmyhomevarna2@technomarket.bg","opening_hours":"Mo-Su 10:00-21:00","brand":"Техномаркет","brand:wikidata":"Q7692633"},"coordinates":[43.2174,27.8994]},"tags_mismatch":false,"dist":0},{"osm":false,"atp":false,"tags_mismatch":false,"dist":0},{"osm":false,"atp":false,"tags_mismatch":false,"dist":0},{"osm":false,"atp":{"id":"G_J7W0xxmNWawDar8RYN8kItjmo=","tags":{"ref":"0000025","shop":"electronics","addr:street_address":"Бул. \"Липник\" 1","addr:country":"BG","name":"ТЕХНОМАРКЕТ РУСЕ АРЕНА","phone":"+359 88 513 0875","website":"https://www.technomarket.bg/magazini/ruse/tehnomarket-ruse-arena","email":"tmrusearena@technomarket.bg","opening_hours":"Mo-Su 10:00-20:00","brand":"Техномаркет","brand:wikidata":"Q7692633"},"coordinates":[43.8475512324,25.9618027554]},"tags_mismatch":false,"dist":0},{"osm":false,"atp":false,"tags_mismatch":false,"dist":0},{"osm":false,"atp":false,"tags_mismatch":false,"dist":0},{"osm":false,"atp":false,"tags_mismatch":false,"dist":0},{"osm":false,"atp":{"id":"xwORJGJ_TQF56ti97i-iisWzdoM=","tags":{"ref":"0500005","shop":"electronics","addr:street_address":"Южна промишлена зона, бул.Кукленско шосе 8Б","addr:country":"BG","name":"ТЕХНОМАРКЕТ ПЛОВДИВ КУКЛЕНСКО ШОСЕ","phone":"+359 89 669 1711","website":"https://www.technomarket.bg/magazini/plovdiv/tehnomarket-plovdiv-kuklensko-shose","email":"tmplovdiv4@technomarket.bg","opening_hours":"Mo-Su 10:00-20:00","brand":"Техномаркет","brand:wikidata":"Q7692633"},"coordinates":[42.122482,24.758106]},"tags_mismatch":false,"dist":0},{"osm":false,"atp":{"id":"9-L40UnSKeLK15oMerJiG3T4jiA=","tags":{"ref":"0000023","shop":"electronics","addr:street_address":"СОФИЯ, БУЛ. БОТЕВГРАДСКО ШОСЕ 515 - 525","addr:country":"BG","name":"ТЕХНОМАРКЕТ СОФИЯ БОТЕВГРАДСКО ШОСЕ","phone":"+359 89 669 1388","website":"https://www.technomarket.bg/magazini/sofiq/tehnomarket-sofiq-botevgradsko-shose","email":"tmbotevgradskoshose@technomarket.bg","opening_hours":"Mo-Su 10:00-20:00","brand":"Техномаркет","brand:wikidata":"Q7692633"},"coordinates":[42.710064,23.451356]},"tags_mismatch":false,"dist":0}]}