{"metadata":{"type":"brand","wikidata":"Q537781","name":"Billa","compare_keys":["opening_hours","phone"],"key":"shop","value":"supermarket"},"data":[{"osm":{"type":"node","id":297415801,"tags":{"addr:city":"Бургас","addr:postcode":"8005","brand":"Billa","brand:wikidata":"Q537781","opening_hours":"Mo-Su 07:30-22:00","phone":"+359 56 879 810","shop":"supermarket","wheelchair":"yes"},"wikidata":"Q537781","coordinates":[42.5175202,27.4529584]},"atp":{"id":"ZqNnL3VisHO2lpVyDDYiQbiAj98=","tags":{"ref":"38-504","capacity:motorcar":"141","@source_uri":"https://www.billa.bg/api/stores","@spider":"billa","shop":"supermarket","addr:street":"Ж.К. П. Р. Славейков 111","addr:city":"Бургас","addr:state":"Бургас","addr:postcode":"8005","addr:country":"BG","phone":"+359 56 879 810","opening_hours":"Mo-Su 07:30-22:00","brand":"Billa","brand:wikidata":"Q537781","nsi_id":"billa-3380c4"},"coordinates":[42.51742,27.45276]},"dist":19.712,"tags_mismatch":false},{"osm":{"type":"node","id":389017207,"tags":{"addr:city":"Казанлък","addr:postcode":"6100","brand":"Billa","brand:wikidata":"Q537781","internet_access":"wlan","opening_hours":"Mo-Su 07:30-22:00","phone":"+359 431 670 40","shop":"supermarket","website":"https://www.billa.bg/"},"wikidata":"Q537781","coordinates":[42.6147145,25.3904677]},"atp":{"id":"O_pD__LVkSzFNHOKlk9QTwWR6Sk=","tags":{"ref":"38-407","capacity:motorcar":"63","@source_uri":"https://www.billa.bg/api/stores","@spider":"billa","shop":"supermarket","addr:street":"Ул. Бачо Киро 6","addr:city":"Казанлък","addr:state":"Стара Загора","addr:postcode":"6100","addr:country":"BG","phone":"+359 431 670 40","opening_hours":"Mo-Su 07:30-22:00","brand":"Billa","brand:wikidata":"Q537781","nsi_id":"billa-3380c4"},"coordinates":[42.61471,25.39053]},"dist":5.123,"tags_mismatch":false},{"osm":{"type":"node","id":470821080,"tags":{"addr:city":"Севлиево","addr:postcode":"5400","brand":"Billa","brand:wikidata":"Q537781","name:ro":"Billa","opening_hours":"Mo-Su 07:30-22:00","phone":"+359 67 585 110","shop":"supermarket","wheelchair":"limited"},"wikidata":"Q537781","coordinates":[43.0296689,25.092142]},"atp":{"id":"KDbFriImFiRJycddm5d-9EfEiWA=","tags":{"ref":"38-709","capacity:motorcar":"37","@source_uri":"https://www.billa.bg/api/stores","@spider":"billa","shop":"supermarket","addr:street":"Ул. Стефан Пешев 90а","addr:city":"Севлиево","addr:state":"Габрово","addr:postcode":"5400","addr:country":"BG","phone":"+359 67 585 110","opening_hours":"Mo-Su 07:30-22:00","brand":"Billa","brand:wikidata":"Q537781","nsi_id":"billa-3380c4"},"coordinates":[43.02932,25.09265]},"dist":56.658,"tags_mismatch":false},{"osm":{"type":"node","id":493758187,"tags":{"addr:city":"Бургас","addr:postcode":"8001","brand":"Billa","brand:wikidata":"Q537781","opening_hours":"Mo-Su 07:30-22:00","phone":"+359 56 858 860","shop":"supermarket"},"wikidata":"Q537781","coordinates":[42.5037791,27.4601963]},"atp":{"id":"WdnxxZ5vxx7sSCLEzoFucil34LE=","tags":{"ref":"38-501","capacity:motorcar":"193","@source_uri":"https://www.billa.bg/api/stores","@spider":"billa","shop":"supermarket","addr:street":"Ул. Гочо Иванов 30","addr:city":"Бургас","addr:state":"Бургас","addr:postcode":"8001","addr:country":"BG","phone":"+359 56 858 860","opening_hours":"Mo-Su 07:30-22:00","brand":"Billa","brand:wikidata":"Q537781","nsi_id":"billa-3380c4"},"coordinates":[42.5039,27.46]},"dist":20.969,"tags_mismatch":false},{"osm":{"type":"node","id":798529496,"tags":{"addr:city":"Варна","addr:postcode":"9000","brand":"Billa","brand:wikidata":"Q537781","opening_hours":"Mo-Su 07:30-22:00","phone":"+359 52 668 440","shop":"supermarket"},"wikidata":"Q537781","coordinates":[43.2096092,27.902585]},"atp":{"id":"FRQsepy92Cf1CT-DuWLAK8fOMOE=","tags":{"ref":"38-506","capacity:motorcar":"50","@source_uri":"https://www.billa.bg/api/stores","@spider":"billa","shop":"supermarket","addr:street":"Ул. Цар Иван Страцимир 2","addr:city":"Варна","addr:state":"Варна","addr:postcode":"9000","addr:country":"BG","phone":"+359 52 668 440","opening_hours":"Mo-Su 07:30-22:00","brand":"Billa","brand:wikidata":"Q537781","nsi_id":"billa-3380c4"},"coordinates":[43.2094,27.90236]},"dist":29.557,"tags_mismatch":false},{"osm":{"type":"node","id":848905412,"tags":{"addr:city":"София","addr:housenumber":"38","addr:postcode":"1505","addr:street":"Черковна","brand":"Billa","brand:wikidata":"Q537781","opening_hours":"Mo-Su 07:30-22:00","phone":"+359 2 942 5710","shop":"supermarket","source":"Bing","website":"https://www.billa.bg/","wheelchair":"yes"},"wikidata":"Q537781","coordinates":[42.6974669,23.3515345]},"atp":{"id":"g0FUykhJ4i3Goy9bqZiEBBfeNGs=","tags":{"ref":"38-127","capacity:motorcar":"12","@source_uri":"https://www.billa.bg/api/stores","@spider":"billa","shop":"supermarket","addr:street":"Ул. Черковна 38","addr:city":"София","addr:state":"София","addr:postcode":"1505","addr:country":"BG","phone":"+359 2 942 5710","opening_hours":"Mo-Su 07:30-22:00","brand":"Billa","brand:wikidata":"Q537781","nsi_id":"billa-3380c4"},"coordinates":[42.69706,23.35155]},"dist":45.263,"tags_mismatch":false},{"osm":{"type":"node","id":851349159,"tags":{"addr:city":"София","addr:postcode":"1505","brand":"Billa","brand:wikidata":"Q537781","opening_hours":"Mo-Su 07:30-22:00","phone":"+359 2 814 0010","shop":"supermarket","survey:date":"2021-05-25","website":"https://www.billa.bg/","wheelchair":"yes"},"wikidata":"Q537781","coordinates":[42.7019254,23.3534817]},"atp":false,"tags_mismatch":false},{"osm":{"type":"node","id":960782664,"tags":{"addr:city":"Бургас","addr:postcode":"8011","brand":"Billa","brand:wikidata":"Q537781","opening_hours":"Mo-Su 07:30-22:00","phone":"+359 56 563 320","shop":"supermarket","wheelchair":"yes"},"wikidata":"Q537781","coordinates":[42.4611389,27.4163958]},"atp":{"id":"HXofQSzMo2cZEw8Qoe8pE_TmXzU=","tags":{"ref":"38-514","capacity:motorcar":"93","@source_uri":"https://www.billa.bg/api/stores","@spider":"billa","shop":"supermarket","addr:street":"Ж.К. Меден Рудник, Зона А, 171","addr:city":"Бургас","addr:state":"Бургас","addr:postcode":"8011","addr:country":"BG","phone":"+359 56 563 320","opening_hours":"Mo-Su 07:30-22:00","brand":"Billa","brand:wikidata":"Q537781","nsi_id":"billa-3380c4"},"coordinates":[42.4612,27.4163]},"dist":10.388,"tags_mismatch":false},{"osm":{"type":"node","id":1270802060,"tags":{"addr:city":"Варна","addr:postcode":"9000","brand":"Billa","brand:wikidata":"Q537781","old_name":"Образцов дом","opening_hours":"Mo-Su 07:30-22:00","phone":"+359 52 664 310","shop":"supermarket"},"wikidata":"Q537781","coordinates":[43.2094928,27.909059]},"atp":{"id":"xrnEpqP6sQDZB0E5ugBVgF21rHU=","tags":{"ref":"38-517","capacity:motorcar":"0","@source_uri":"https://www.billa.bg/api/stores","@spider":"billa","shop":"supermarket","addr:street":"Бул. Владислав Варненчик 48","addr:city":"Варна","addr:state":"Варна","addr:postcode":"9000","addr:country":"BG","phone":"+359 52 664 310","opening_hours":"Mo-Su 07:30-22:00","brand":"Billa","brand:wikidata":"Q537781","nsi_id":"billa-3380c4"},"coordinates":[43.20946,27.9091]},"dist":4.934,"tags_mismatch":false},{"osm":{"type":"node","id":1286535639,"tags":{"addr:city":"София","addr:postcode":"1000","brand":"Billa","brand:wikidata":"Q537781","opening_hours":"Mo-Su 07:30-22:00","phone":"+359 2 906 8050","shop":"supermarket","website":"https://www.billa.bg/"},"wikidata":"Q537781","coordinates":[42.6716814,23.3596192]},"atp":{"id":"II9VCVxA1ydd7XAWxTIrpdgHXFQ=","tags":{"ref":"38-263","capacity:motorcar":"9","@source_uri":"https://www.billa.bg/api/stores","@spider":"billa","shop":"supermarket","addr:street":"Ул. Райко Алексиев 40","addr:city":"София","addr:state":"София","addr:postcode":"1000","addr:country":"BG","phone":"+359 2 906 8050","opening_hours":"Mo-Su 07:30-22:00","brand":"Billa","brand:wikidata":"Q537781","nsi_id":"billa-3380c4"},"coordinates":[42.671671,23.359657]},"dist":3.3,"tags_mismatch":false},{"osm":{"type":"node","id":1311509992,"tags":{"addr:city":"Стара Загора","addr:housenumber":"93","addr:postcode":"6000","addr:street":"Св. Княз Борис","brand":"Billa","brand:wikidata":"Q537781","note":"Билла 419","opening_hours":"Mo-Su 07:30-22:00","phone":"+359 42 697 820","shop":"supermarket","website":"https://billa.bg/","wheelchair":"limited"},"wikidata":"Q537781","coordinates":[42.4270163,25.6338729]},"atp":{"id":"vO-I957xaX5HBoK0OZGoWWcdPIU=","tags":{"ref":"38-419","capacity:motorcar":"0","@source_uri":"https://www.billa.bg/api/stores","@spider":"billa","shop":"supermarket","addr:street":"Ул. Св. Княз Борис 93","addr:city":"Стара Загора","addr:state":"Стара Загора","addr:postcode":"6000","addr:country":"BG","phone":"+359 42 697 820","opening_hours":"Mo-Su 07:30-22:00","brand":"Billa","brand:wikidata":"Q537781","nsi_id":"billa-3380c4"},"coordinates":[42.4270573,25.6338598]},"dist":4.684,"tags_mismatch":false},{"osm":{"type":"node","id":1337201840,"tags":{"addr:city":"Варна","addr:postcode":"9010","brand":"Billa","brand:wikidata":"Q537781","opening_hours":"Mo-Su 07:30-22:00","phone":"+359 52 386 510","shop":"supermarket"},"wikidata":"Q537781","coordinates":[43.2204874,27.9361406]},"atp":{"id":"MVVPMaJaUDJ5hrgj__oFrdh643Q=","tags":{"ref":"38-510","capacity:motorcar":"0","@source_uri":"https://www.billa.bg/api/stores","@spider":"billa","shop":"supermarket","addr:street":"Ул. Димитър Икономов 36","addr:city":"Варна","addr:state":"Варна","addr:postcode":"9010","addr:country":"BG","phone":"+359 52 386 510","opening_hours":"Mo-Su 07:30-22:00","brand":"Billa","brand:wikidata":"Q537781","nsi_id":"billa-3380c4"},"coordinates":[43.220383,27.935816]},"dist":28.75,"tags_mismatch":false},{"osm":{"type":"node","id":1552047260,"tags":{"addr:city":"Стара Загора","addr:postcode":"6003","brand":"Billa","brand:wikidata":"Q537781","opening_hours":"Mo-Su 07:30-22:00","phone":"+359 42 298 410","shop":"supermarket"},"wikidata":"Q537781","coordinates":[42.4246724,25.616326]},"atp":{"id":"c7Vn_cbOlrbF3Y5Z3_DEGnKgypo=","tags":{"ref":"38-416","capacity:motorcar":"150","@source_uri":"https://www.billa.bg/api/stores","@spider":"billa","shop":"supermarket","addr:street":"Бул. Княз Ал. Батенберг 28","addr:city":"Стара Загора","addr:state":"Стара Загора","addr:postcode":"6003","addr:country":"BG","phone":"+359 42 298 410","opening_hours":"Mo-Su 07:30-22:00","brand":"Billa","brand:wikidata":"Q537781","nsi_id":"billa-3380c4"},"coordinates":[42.42477,25.61647]},"dist":16.046,"tags_mismatch":false},{"osm":{"type":"node","id":1674801924,"tags":{"addr:city":"София","brand":"Billa","brand:wikidata":"Q537781","opening_hours":"Mo-Su 07:30-22:00","phone":"+359 2 906 0070","shop":"supermarket","website":"https://www.billa.bg/"},"wikidata":"Q537781","coordinates":[42.7123008,23.248401]},"atp":{"id":"7SLWF71ynJwD7rLIoSTctwYgkVQ=","tags":{"ref":"38-136","capacity:motorcar":"68","@source_uri":"https://www.billa.bg/api/stores","@spider":"billa","shop":"supermarket","addr:street":"Бул. Панчо Владигеров 15","addr:city":"София","addr:state":"София","addr:postcode":"1000","addr:country":"BG","phone":"+359 2 906 0070","opening_hours":"Mo-Su 07:30-22:00","brand":"Billa","brand:wikidata":"Q537781","nsi_id":"billa-3380c4"},"coordinates":[42.71202,23.24865]},"dist":37.266,"tags_mismatch":false},{"osm":{"type":"node","id":1979590453,"tags":{"addr:city":"София","addr:housenumber":"6","addr:postcode":"1326","addr:street":"Дико Илиев","brand":"Billa","brand:wikidata":"Q537781","opening_hours":"Mo-Su 07:30-22:00","phone":"+359 2 902 3460","shop":"supermarket","website":"https://www.billa.bg/"},"wikidata":"Q537781","coordinates":[42.7433203,23.2796782]},"atp":{"id":"fLucbqL36QqVsdgv1Mn0lH7KN5g=","tags":{"ref":"38-197","capacity:motorcar":"16","@source_uri":"https://www.billa.bg/api/stores","@spider":"billa","shop":"supermarket","addr:street":"Ж.К. Обеля Ул. Дико Илиев 6","addr:city":"София","addr:state":"София","addr:postcode":"1326","addr:country":"BG","phone":"+359 2 902 3460","opening_hours":"Mo-Su 07:30-22:00","brand":"Billa","brand:wikidata":"Q537781","nsi_id":"billa-3380c4"},"coordinates":[42.7432857,23.2798362]},"dist":13.464,"tags_mismatch":false},{"osm":{"type":"node","id":2186724182,"tags":{"addr:city":"София","addr:postcode":"1729","addr:street":"бул. Александър Малинов","brand":"Billa","brand:wikidata":"Q537781","contact:phone":"+359 2 970 4970","opening_hours":"Mo-Su 07:30-22:00","phone":"+359 2 970 4970","self_checkout":"yes","shop":"supermarket","website":"https://www.billa.bg/"},"wikidata":"Q537781","coordinates":[42.6479561,23.3794129]},"atp":{"id":"AP7ZXwf0W1THtJkS2QVnnDlcXNQ=","tags":{"ref":"38-104","capacity:motorcar":"254","@source_uri":"https://www.billa.bg/api/stores","@spider":"billa","shop":"supermarket","addr:street":"Бул.Александър Малинов","addr:city":"София","addr:state":"София","addr:postcode":"1729","addr:country":"BG","phone":"+359 2 970 4970","opening_hours":"Mo-Su 07:30-22:00","brand":"Billa","brand:wikidata":"Q537781","nsi_id":"billa-3380c4"},"coordinates":[42.64792,23.37936]},"dist":5.902,"tags_mismatch":false},{"osm":{"type":"node","id":2188508503,"tags":{"addr:city":"София","addr:postcode":"1309","brand":"Billa","brand:wikidata":"Q537781","opening_hours":"Mo-Su 07:30-22:00","phone":"+359 2 890 7940","shop":"supermarket","website":"https://www.billa.bg/","wheelchair":"yes"},"wikidata":"Q537781","coordinates":[42.7074341,23.295492]},"atp":{"id":"pmtKSEHecTBqfXARXAE_4nN1ppM=","tags":{"ref":"38-134","capacity:motorcar":"64","@source_uri":"https://www.billa.bg/api/stores","@spider":"billa","shop":"supermarket","addr:street":"Ул. Цар Иван Александър 27","addr:city":"София","addr:state":"София","addr:postcode":"1309","addr:country":"BG","phone":"+359 2 890 7940","opening_hours":"Mo-Su 07:30-22:00","brand":"Billa","brand:wikidata":"Q537781","nsi_id":"billa-3380c4"},"coordinates":[42.7074323,23.295425]},"dist":5.478,"tags_mismatch":false},{"osm":{"type":"node","id":2208025069,"tags":{"addr:city":"София","addr:postcode":"1202","brand":"Billa","brand:wikidata":"Q537781","opening_hours":"Mo-Su 07:30-22:00","phone":"+359 2 902 6760","shop":"supermarket","website":"https://www.billa.bg/","wheelchair":"yes"},"wikidata":"Q537781","coordinates":[42.711499,23.3220749]},"atp":{"id":"t6UXZyhWtE5ZPO1Qvo_pDlfQ3HU=","tags":{"ref":"38-140","capacity:motorcar":"0","@source_uri":"https://www.billa.bg/api/stores","@spider":"billa","shop":"supermarket","addr:street":"Бул. Княгиня М. Луиза 102","addr:city":"София","addr:state":"София","addr:postcode":"1202","addr:country":"BG","phone":"+359 2 902 6760","opening_hours":"Mo-Su 07:30-22:00","brand":"Billa","brand:wikidata":"Q537781","nsi_id":"billa-3380c4"},"coordinates":[42.711529,23.322046]},"dist":4.087,"tags_mismatch":false},{"osm":{"type":"node","id":2321778282,"tags":{"addr:city":"Велико Търново","addr:postcode":"5008","brand":"Billa","brand:wikidata":"Q537781","opening_hours":"Mo-Su 07:30-22:00","phone":"+359 62 610 760","shop":"supermarket"},"wikidata":"Q537781","coordinates":[43.0695265,25.6072241]},"atp":{"id":"u9oV63sbUPiEo-Ru4X4JwRU2YcI=","tags":{"ref":"38-705","capacity:motorcar":"18","@source_uri":"https://www.billa.bg/api/stores","@spider":"billa","shop":"supermarket","addr:street":"Ул. Георги Измирлиев 13а","addr:city":"Велико Търново","addr:state":"Велико Търново","addr:postcode":"5008","addr:country":"BG","phone":"+359 62 610 760","opening_hours":"Mo-Su 07:30-22:00","brand":"Billa","brand:wikidata":"Q537781","nsi_id":"billa-3380c4"},"coordinates":[43.069576,25.607195]},"dist":5.99,"tags_mismatch":false},{"osm":{"type":"node","id":2498853743,"tags":{"brand":"Billa","brand:wikidata":"Q537781","opening_hours":"Mo-Su 07:30-22:00","phone":"+359 2 917 0860","shop":"supermarket","website":"https://www.billa.bg/"},"wikidata":"Q537781","coordinates":[42.6900022,23.2486947]},"atp":{"id":"dp8Y74khPToLwPHplsWZJIwpMkY=","tags":{"ref":"38-120","capacity:motorcar":"60","@source_uri":"https://www.billa.bg/api/stores","@spider":"billa","shop":"supermarket","addr:street":"Бул. Президент Линкълн 72","addr:city":"София","addr:state":"София","addr:postcode":"1632","addr:country":"BG","phone":"+359 2 917 0860","opening_hours":"Mo-Su 07:30-22:00","brand":"Billa","brand:wikidata":"Q537781","nsi_id":"billa-3380c4"},"coordinates":[42.6900056,23.248742]},"dist":3.884,"tags_mismatch":false},{"osm":{"type":"node","id":2549837484,"tags":{"addr:city":"Враца","addr:postcode":"3002","brand":"Billa","brand:wikidata":"Q537781","internet_access":"wlan","opening_hours":"Mo-Su 07:30-22:00","phone":"+359 92 668 960","shop":"supermarket"},"wikidata":"Q537781","coordinates":[43.2046428,23.5553947]},"atp":{"id":"fb3aVYU2xdutYnewrLymiMAQxCw=","tags":{"ref":"38-801","capacity:motorcar":"68","@source_uri":"https://www.billa.bg/api/stores","@spider":"billa","shop":"supermarket","addr:street":"Ул. Илия Кръстеняков 1","addr:city":"Враца","addr:state":"Враца","addr:postcode":"3002","addr:country":"BG","phone":"+359 92 668 960","opening_hours":"Mo-Su 07:30-22:00","brand":"Billa","brand:wikidata":"Q537781","nsi_id":"billa-3380c4"},"coordinates":[43.20458,23.55548]},"dist":9.827,"tags_mismatch":false},{"osm":{"type":"node","id":2552160577,"tags":{"addr:city":"София","addr:housenumber":"35","addr:postcode":"1303","addr:street":"Опълченска","brand":"Billa","brand:wikidata":"Q537781","check_date":"2023-09-03","contact:phone":"+359 2 810 8110","opening_hours":"Mo-Su 07:30-22:00","phone":"+359 2 810 8110","shop":"supermarket","website":"https://www.billa.bg/","wheelchair":"yes"},"wikidata":"Q537781","coordinates":[42.70391,23.3105364]},"atp":{"id":"sVsft9U7q8F22nkzkoS-nwPVQ2Y=","tags":{"ref":"38-106","capacity:motorcar":"106","@source_uri":"https://www.billa.bg/api/stores","@spider":"billa","shop":"supermarket","addr:street":"Ул. Опълченска 35","addr:city":"София","addr:state":"София","addr:postcode":"1303","addr:country":"BG","phone":"+359 2 810 8110","opening_hours":"Mo-Su 07:30-22:00","brand":"Billa","brand:wikidata":"Q537781","nsi_id":"billa-3380c4"},"coordinates":[42.70384,23.31062]},"dist":10.356,"tags_mismatch":false},{"osm":{"type":"node","id":2633618411,"tags":{"addr:city":"Свищов","addr:postcode":"5250","brand":"Billa","brand:wikidata":"Q537781","opening_hours":"Mo-Su 07:30-22:00","phone":"+359 63 168 550","shop":"supermarket","wheelchair":"yes"},"wikidata":"Q537781","coordinates":[43.615662,25.3518392]},"atp":{"id":"YNRhNINR8ACFtP6FNktOFFcByro=","tags":{"ref":"38-706","capacity:motorcar":"36","@source_uri":"https://www.billa.bg/api/stores","@spider":"billa","shop":"supermarket","addr:street":"Площад Свобода 2","addr:city":"Свищов","addr:state":"Велико Търново","addr:postcode":"5250","addr:country":"BG","phone":"+359 63 168 550","opening_hours":"Mo-Su 07:30-22:00","brand":"Billa","brand:wikidata":"Q537781","nsi_id":"billa-3380c4"},"coordinates":[43.615665,25.351778]},"dist":4.938,"tags_mismatch":false},{"osm":{"type":"node","id":2647647886,"tags":{"addr:city":"София","addr:housenumber":"41","addr:postcode":"1510","addr:street":"Скайлер","brand":"Billa","brand:wikidata":"Q537781","opening_hours":"Mo-Su 07:30-22:00","phone":"+359 2 905 7010","shop":"supermarket","website":"https://www.billa.bg/","wheelchair":"yes"},"wikidata":"Q537781","coordinates":[42.706316,23.3485788]},"atp":{"id":"wfKAtm4ww8BuxEo_okN5yBa-ibk=","tags":{"ref":"38-186","capacity:motorcar":"38","@source_uri":"https://www.billa.bg/api/stores","@spider":"billa","shop":"supermarket","addr:street":"Ул. Скайлер 41","addr:city":"София","addr:state":"София","addr:postcode":"1510","addr:country":"BG","phone":"+359 2 905 7010","opening_hours":"Mo-Su 07:30-22:00","brand":"Billa","brand:wikidata":"Q537781","nsi_id":"billa-3380c4"},"coordinates":[42.706065,23.348885]},"dist":37.483,"tags_mismatch":false},{"osm":{"type":"node","id":2923432701,"tags":{"addr:city":"София","addr:postcode":"1202","brand":"Billa","brand:wikidata":"Q537781","opening_hours":"Mo-Su 07:30-22:00","phone":"+359 2 903 6380","shop":"supermarket","website":"https://www.billa.bg/"},"wikidata":"Q537781","coordinates":[42.7045952,23.3233101]},"atp":{"id":"tp7_fMvvl_IdyjJCfzhObztWTsM=","tags":{"ref":"38-164","@source_uri":"https://www.billa.bg/api/stores","@spider":"billa","shop":"supermarket","addr:street":"Пл. Лъвов Мост 2","addr:city":"София","addr:state":"София","addr:postcode":"1202","addr:country":"BG","phone":"+359 2 903 6380","opening_hours":"Mo-Su 07:30-22:00","brand":"Billa","brand:wikidata":"Q537781","nsi_id":"billa-3380c4"},"coordinates":[42.7045658,23.3233109]},"dist":3.27,"tags_mismatch":false},{"osm":{"type":"node","id":3002833641,"tags":{"addr:city":"София","addr:housenumber":"94","addr:postcode":"1407","addr:street":"бул. Черни връх","brand":"Billa","brand:wikidata":"Q537781","opening_hours":"Mo-Su 07:30-22:00","phone":"+359 2 902 4710","self_checkout":"yes","shop":"supermarket","website":"https://www.billa.bg/"},"wikidata":"Q537781","coordinates":[42.6562315,23.3148501]},"atp":{"id":"bsUnqpHAIdDC2qhwzOLyleZ-thA=","tags":{"ref":"38-126","capacity:motorcar":"101","@source_uri":"https://www.billa.bg/api/stores","@spider":"billa","shop":"supermarket","addr:street":"Бул. Черни Връх 94","addr:city":"София","addr:state":"София","addr:postcode":"1407","addr:country":"BG","phone":"+359 2 902 4710","opening_hours":"Mo-Su 07:30-22:00","brand":"Billa","brand:wikidata":"Q537781","nsi_id":"billa-3380c4"},"coordinates":[42.6561768,23.315035]},"dist":16.298,"tags_mismatch":false},{"osm":{"type":"node","id":3154751468,"tags":{"addr:city":"Стара Загора","addr:postcode":"6000","brand":"Billa","brand:wikidata":"Q537781","opening_hours":"Mo-Su 07:30-22:00","phone":"+359 42 298 440","shop":"supermarket"},"wikidata":"Q537781","coordinates":[42.4245965,25.6248693]},"atp":false,"tags_mismatch":false},{"osm":{"type":"node","id":3193699504,"tags":{"addr:city":"София","addr:housenumber":"55","addr:postcode":"1404","addr:street":"бул. България","branch":"на България","brand":"Billa","brand:wikidata":"Q537781","check_date":"2024-11-10","contact:phone":"+359 2 818 8139","opening_hours":"Mo-Su 07:30-23:00","self_checkout":"yes","shop":"supermarket","website":"https://www.billa.bg/","wheelchair":"yes"},"wikidata":"Q537781","coordinates":[42.6651181,23.2895126]},"atp":{"id":"LUbCpHxam2__DqLB1z3ch0Qcrzg=","tags":{"ref":"38-101","capacity:motorcar":"236","@source_uri":"https://www.billa.bg/api/stores","@spider":"billa","shop":"supermarket","addr:street":"Бул.България 55","addr:city":"София","addr:state":"София","addr:postcode":"1404","addr:country":"BG","phone":"+359 2 818 8139","opening_hours":"Mo-Su 07:30-23:00","brand":"Billa","brand:wikidata":"Q537781","nsi_id":"billa-3380c4"},"coordinates":[42.66526,23.28927]},"dist":25.346,"tags_mismatch":true},{"osm":{"type":"node","id":3364181144,"tags":{"addr:city":"Плевен","addr:postcode":"5800","addr:street":"Васил Левски","brand":"Billa","brand:wikidata":"Q537781","check_date":"2022-12-25","check_date:opening_hours":"2022-12-25","internet_access":"no","opening_hours":"Mo-Su 07:30-21:00","payment:mastercard":"yes","payment:visa":"yes","phone":"+359 64 678 710","shop":"supermarket","website":"https://billa.bg","wheelchair":"yes"},"wikidata":"Q537781","coordinates":[43.4098841,24.6182272]},"atp":{"id":"tgBcC2MT7wNc4HHI9jTbUF8HF1w=","tags":{"ref":"38-715","@source_uri":"https://www.billa.bg/api/stores","@spider":"billa","shop":"supermarket","addr:street":"Площад Свободата 25","addr:city":"Плевен","addr:state":"Плевен","addr:postcode":"5800","addr:country":"BG","phone":"+359 64 678 710","opening_hours":"Mo-Su 07:30-21:00","brand":"Billa","brand:wikidata":"Q537781","nsi_id":"billa-3380c4"},"coordinates":[43.40955,24.6180699]},"dist":39.263,"tags_mismatch":false},{"osm":{"type":"node","id":3377206528,"tags":{"addr:city":"Бургас","addr:postcode":"8000","addr:street":"Александровска","brand":"Billa","brand:wikidata":"Q537781","check_date":"2022-11-04","level":"0","opening_hours":"Mo-Su 07:30-22:00","payment:mastercard":"yes","payment:visa":"yes","phone":"+359 56 598 560","shop":"supermarket","wheelchair":"yes"},"wikidata":"Q537781","coordinates":[42.4957963,27.4712752]},"atp":{"id":"2HfI1B4y-G78_GduovRHd_2X4xM=","tags":{"ref":"38-526","capacity:motorcar":"0","@source_uri":"https://www.billa.bg/api/stores","@spider":"billa","shop":"supermarket","addr:street":"Ул. Александровска 58","addr:city":"Бургас","addr:state":"Бургас","addr:postcode":"8000","addr:country":"BG","phone":"+359 56 598 560","opening_hours":"Mo-Su 07:30-22:00","brand":"Billa","brand:wikidata":"Q537781","nsi_id":"billa-3380c4"},"coordinates":[42.4957919,27.4712822]},"dist":0.754,"tags_mismatch":false},{"osm":{"type":"node","id":3422733983,"tags":{"addr:city":"Бургас","addr:housenumber":"бл. 180","addr:postcode":"8008","brand":"Billa","brand:wikidata":"Q537781","check_date":"2022-11-03","opening_hours":"Mo-Su 07:30-22:00","payment:mastercard":"yes","payment:visa":"yes","phone":"+359 56 563 360","shop":"supermarket"},"wikidata":"Q537781","coordinates":[42.5227483,27.4618702]},"atp":{"id":"u_rN9y-HMbLANELXOIvK2vAFtWw=","tags":{"ref":"38-519","capacity:motorcar":"0","@source_uri":"https://www.billa.bg/api/stores","@spider":"billa","shop":"supermarket","addr:street":"Кв. Изгрев Бл. 178 179 180","addr:city":"Бургас","addr:state":"Бургас","addr:postcode":"8008","addr:country":"BG","phone":"+359 56 563 360","opening_hours":"Mo-Su 07:30-22:00","brand":"Billa","brand:wikidata":"Q537781","nsi_id":"billa-3380c4"},"coordinates":[42.5226726,27.4618089]},"dist":9.803,"tags_mismatch":false},{"osm":{"type":"node","id":3502610339,"tags":{"addr:city":"Варна","addr:housenumber":"46","addr:postcode":"9010","addr:street":"Дубровник","brand":"Billa","brand:wikidata":"Q537781","check_date":"2024-05-04","internet_access":"no","opening_hours":"Mo-Su 07:30-22:00","payment:coins":"yes","payment:mastercard":"yes","payment:notes":"yes","payment:visa":"yes","phone":"+359 52 705 010","shop":"supermarket","wheelchair":"yes"},"wikidata":"Q537781","coordinates":[43.223392,27.9252389]},"atp":{"id":"2neHelOHCiw5Ay8zmi7VDWPBGQk=","tags":{"ref":"38-530","@source_uri":"https://www.billa.bg/api/stores","@spider":"billa","shop":"supermarket","addr:street":"Ул. Дубровник 48","addr:city":"Варна","addr:state":"Варна","addr:postcode":"9010","addr:country":"BG","phone":"+359 52 705 010","opening_hours":"Mo-Su 07:30-22:00","brand":"Billa","brand:wikidata":"Q537781","nsi_id":"billa-3380c4"},"coordinates":[43.22355,27.92516]},"dist":18.696,"tags_mismatch":false},{"osm":{"type":"node","id":3522548196,"tags":{"brand":"Billa","brand:wikidata":"Q537781","level":"-2","opening_hours":"Mo-Su 08:00-22:00","self_checkout":"yes","shop":"supermarket"},"wikidata":"Q537781","coordinates":[42.6788332,23.3207658]},"atp":{"id":"Ltg5VM_2KtSWKqaWfRic9093Olk=","tags":{"ref":"38-260","@source_uri":"https://www.billa.bg/api/stores","@spider":"billa","shop":"supermarket","addr:street":"Бул. Арсеналски 2","addr:city":"София","addr:state":"София","addr:postcode":"1421","addr:country":"BG","phone":"+359 2 907 8280","opening_hours":"Mo-Su 08:00-22:00","brand":"Billa","brand:wikidata":"Q537781","nsi_id":"billa-3380c4"},"coordinates":[42.678878,23.320787]},"dist":5.274,"tags_mismatch":true},{"osm":{"type":"node","id":3530182780,"tags":{"addr:city":"Пловдив","addr:postcode":"4000","brand":"Billa","brand:wikidata":"Q537781","opening_hours":"Mo-Su 07:30-22:00","phone":"+359 32 202 030","shop":"supermarket"},"wikidata":"Q537781","coordinates":[42.1488487,24.7478899]},"atp":{"id":"G2c42g_wnJb9zJ_JsFP_jpHUgL8=","tags":{"ref":"38-324","capacity:motorcar":"0","@source_uri":"https://www.billa.bg/api/stores","@spider":"billa","shop":"supermarket","addr:street":"Ул. Райко Даскалов 8","addr:city":"Пловдив","addr:state":"Пловдив","addr:postcode":"4000","addr:country":"BG","phone":"+359 32 202 030","opening_hours":"Mo-Su 07:30-22:00","brand":"Billa","brand:wikidata":"Q537781","nsi_id":"billa-3380c4"},"coordinates":[42.14884,24.74797]},"dist":6.674,"tags_mismatch":false},{"osm":{"type":"node","id":3540100354,"tags":{"addr:city":"София","addr:housenumber":"116","addr:postcode":"1000","addr:street":"Георги С. Раковски","brand":"Billa","brand:wikidata":"Q537781","contact:phone":"+359 2 902 5430","opening_hours":"Mo-Su 07:30-22:00","phone":"+359 2 902 5430","self_checkout":"yes","shop":"supermarket","wheelchair":"no"},"wikidata":"Q537781","coordinates":[42.6917718,23.325333]},"atp":{"id":"pu3W1xb4dMZ2wyr8DZ_0eAZzTGY=","tags":{"ref":"38-149","capacity:motorcar":"0","@source_uri":"https://www.billa.bg/api/stores","@spider":"billa","shop":"supermarket","addr:street":"Ул. Раковски 116","addr:city":"София","addr:state":"София","addr:postcode":"1000","addr:country":"BG","phone":"+359 2 902 5430","opening_hours":"Mo-Su 07:30-22:00","brand":"Billa","brand:wikidata":"Q537781","nsi_id":"billa-3380c4"},"coordinates":[42.69176,23.32518]},"dist":12.573,"tags_mismatch":false},{"osm":{"type":"node","id":3651425760,"tags":{"addr:city":"София","addr:postcode":"1164","brand":"Billa","brand:wikidata":"Q537781","contact:phone":"+359 2 904 8140","opening_hours":"Mo-Su 07:30-22:00","phone":"+359 2 904 8140","self_checkout":"yes","shop":"supermarket","website":"https://www.billa.bg/","wheelchair":"yes"},"wikidata":"Q537781","coordinates":[42.6737418,23.3332345]},"atp":{"id":"jLJZMHs83kp3-EdAySlVpNygCVY=","tags":{"ref":"38-179","capacity:motorcar":"115","@source_uri":"https://www.billa.bg/api/stores","@spider":"billa","shop":"supermarket","addr:street":"Ул. Златовръх 4","addr:city":"София","addr:state":"София","addr:postcode":"1164","addr:country":"BG","phone":"+359 2 904 8140","opening_hours":"Mo-Su 07:30-22:00","brand":"Billa","brand:wikidata":"Q537781","nsi_id":"billa-3380c4"},"coordinates":[42.673767,23.3332014]},"dist":3.895,"tags_mismatch":false},{"osm":{"type":"node","id":3688585530,"tags":{"addr:city":"София","addr:housenumber":"22","addr:postcode":"1000","addr:street":"бул. Цар Освободител","brand":"Billa","brand:wikidata":"Q537781","contact:phone":"+359 2 939 6040","level":"-1","opening_hours":"Mo-Su 07:30-22:00","phone":"+359 2 939 6040","self_checkout":"yes","shop":"supermarket"},"wikidata":"Q537781","coordinates":[42.6928138,23.3342852]},"atp":{"id":"v0QTPjxzoGE_xtYDdP8-U8tUxQ8=","tags":{"ref":"38-131","capacity:motorcar":"0","@source_uri":"https://www.billa.bg/api/stores","@spider":"billa","shop":"supermarket","addr:street":"Бул. Цар Освободител 22","addr:city":"София","addr:state":"София","addr:postcode":"1000","addr:country":"BG","phone":"+359 2 939 6040","opening_hours":"Mo-Su 07:30-22:00","brand":"Billa","brand:wikidata":"Q537781","nsi_id":"billa-3380c4"},"coordinates":[42.6927672,23.3344745]},"dist":16.316,"tags_mismatch":false},{"osm":{"type":"node","id":3816770557,"tags":{"addr:city":"Пловдив","addr:postcode":"4000","brand":"Billa","brand:wikidata":"Q537781","opening_hours":"Mo-Su 07:30-22:00","phone":"+359 32 658 120","shop":"supermarket"},"wikidata":"Q537781","coordinates":[42.1534689,24.7618868]},"atp":{"id":"T5g9hhimRw5hJUaKmzqGCrbv-eg=","tags":{"ref":"38-302","capacity:motorcar":"272","@source_uri":"https://www.billa.bg/api/stores","@spider":"billa","shop":"supermarket","addr:street":"Бул. 6 Септември 221","addr:city":"Пловдив","addr:state":"Пловдив","addr:postcode":"4000","addr:country":"BG","phone":"+359 32 658 120","opening_hours":"Mo-Su 07:30-22:00","brand":"Billa","brand:wikidata":"Q537781","nsi_id":"billa-3380c4"},"coordinates":[42.1535604,24.7616854]},"dist":19.472,"tags_mismatch":false},{"osm":{"type":"node","id":3877079792,"tags":{"addr:city":"Варна","addr:postcode":"9003","brand":"Billa","brand:wikidata":"Q537781","opening_hours":"Mo-Su 07:30-22:00","phone":"+359 52 703 940","shop":"supermarket"},"wikidata":"Q537781","coordinates":[43.1848541,27.8891563]},"atp":{"id":"q0D_zBXCyZlkVTXzry7CpuhDEoA=","tags":{"ref":"38-532","capacity:motorcar":"99","@source_uri":"https://www.billa.bg/api/stores","@spider":"billa","shop":"supermarket","addr:street":"Бул. Народни Будители 6","addr:city":"Варна","addr:state":"Варна","addr:postcode":"9003","addr:country":"BG","phone":"+359 52 703 940","opening_hours":"Mo-Su 07:30-22:00","brand":"Billa","brand:wikidata":"Q537781","nsi_id":"billa-3380c4"},"coordinates":[43.184746,27.889247]},"dist":14.091,"tags_mismatch":false},{"osm":{"type":"node","id":3959262038,"tags":{"brand":"Billa","brand:wikidata":"Q537781","opening_hours":"Mo-Su 07:30-22:00","phone":"+359 52 707 750","shop":"supermarket"},"wikidata":"Q537781","coordinates":[43.2356202,27.8773627]},"atp":{"id":"NF5CXJFIX-GaeHCiAgNF7ll6yts=","tags":{"ref":"38-558","capacity:motorcar":"52","@source_uri":"https://www.billa.bg/api/stores","@spider":"billa","shop":"supermarket","addr:street":"Ул. Ана Феликсова 12","addr:city":"Варна","addr:state":"Варна","addr:postcode":"9020","addr:country":"BG","phone":"+359 52 707 750","opening_hours":"Mo-Su 07:30-22:00","brand":"Billa","brand:wikidata":"Q537781","nsi_id":"billa-3380c4"},"coordinates":[43.2358795,27.8772574]},"dist":30.068,"tags_mismatch":false},{"osm":{"type":"node","id":4119608363,"tags":{"addr:city":"София","addr:postcode":"1000","brand":"Billa","brand:wikidata":"Q537781","check_date":"2024-09-02","opening_hours":"Mo-Su 07:30-22:00","phone":"+359 2 902 6020","shop":"supermarket","website":"https://www.billa.bg/"},"wikidata":"Q537781","coordinates":[42.699402,23.3205978]},"atp":{"id":"-mPs64XN2CWVTj-pLSNQ5g5lXaA=","tags":{"ref":"38-169","@source_uri":"https://www.billa.bg/api/stores","@spider":"billa","shop":"supermarket","addr:street":"Ул. Пиротска 9","addr:city":"София","addr:state":"София","addr:postcode":"1000","addr:country":"BG","phone":"+359 2 902 6020","opening_hours":"Mo-Su 07:30-22:00","brand":"Billa","brand:wikidata":"Q537781","nsi_id":"billa-3380c4"},"coordinates":[42.6993842,23.3203025]},"dist":24.213,"tags_mismatch":false},{"osm":{"type":"node","id":4120114758,"tags":{"addr:city":"София","addr:postcode":"1373","brand":"Billa","brand:wikidata":"Q537781","opening_hours":"Mo-Su 07:30-22:00","phone":"+359 2 904 5020","shop":"supermarket","website":"https://www.billa.bg/","wheelchair":"yes"},"wikidata":"Q537781","coordinates":[42.6968976,23.2806263]},"atp":false,"tags_mismatch":false},{"osm":{"type":"node","id":4443396590,"tags":{"brand":"Billa","brand:wikidata":"Q537781","opening_hours":"Mo-Su 07:30-22:00","shop":"supermarket"},"wikidata":"Q537781","coordinates":[42.5665571,27.6218969]},"atp":{"id":"xkXWZxeB-tIS2LhfvPkd1dBD7J4=","tags":{"ref":"38-533","capacity:motorcar":"94","@source_uri":"https://www.billa.bg/api/stores","@spider":"billa","shop":"supermarket","addr:street":"Ул. Княз Борис I 104","addr:city":"Поморие","addr:state":"Бургас","addr:postcode":"8200","addr:country":"BG","phone":"+359 59 626 710","opening_hours":"Mo-Su 08:00-21:00","brand":"Billa","brand:wikidata":"Q537781","nsi_id":"billa-3380c4"},"coordinates":[42.5666519,27.6220229]},"dist":14.751,"tags_mismatch":true},{"osm":{"type":"node","id":4484489734,"tags":{"addr:city":"София","addr:housename":"Сан Стефано плаза","addr:housenumber":"22","addr:postcode":"1504","addr:street":"Сан Стефано","brand":"Billa","brand:wikidata":"Q537781","opening_hours":"Mo-Su 07:30-22:00","shop":"supermarket","toilets:wheelchair":"yes","website":"https://www.billa.bg/","wheelchair":"yes"},"wikidata":"Q537781","coordinates":[42.6919352,23.337904]},"atp":{"id":"Aj-nFHcWwMOX7gmioTKm9ZBXF7Q=","tags":{"ref":"38-192","@source_uri":"https://www.billa.bg/api/stores","@spider":"billa","shop":"supermarket","addr:street":"Ул. Сан Стефано 22","addr:city":"София","addr:state":"София","addr:postcode":"1504","addr:country":"BG","phone":"+359 2 904 0860","opening_hours":"Mo-Su 07:30-22:00","brand":"Billa","brand:wikidata":"Q537781","nsi_id":"billa-3380c4"},"coordinates":[42.691595,23.3379799]},"dist":38.334,"tags_mismatch":true},{"osm":{"type":"node","id":4488335751,"tags":{"addr:city":"Бургас","addr:postcode":"8000","brand":"Billa","brand:wikidata":"Q537781","opening_hours":"Mo-Su 07:30-22:00","phone":"+359 56 955 540","shop":"supermarket"},"wikidata":"Q537781","coordinates":[42.5197076,27.4618735]},"atp":{"id":"2oqAAtQeAXqQugi2H17TF_nJNWo=","tags":{"ref":"38-536","@source_uri":"https://www.billa.bg/api/stores","@spider":"billa","shop":"supermarket","addr:street":"Ж.К. Изгрев 147","addr:city":"Бургас","addr:state":"Бургас","addr:postcode":"8000","addr:country":"BG","phone":"+359 56 955 540","opening_hours":"Mo-Su 07:30-22:00","brand":"Billa","brand:wikidata":"Q537781","nsi_id":"billa-3380c4"},"coordinates":[42.519738,27.46198]},"dist":9.36,"tags_mismatch":false},{"osm":{"type":"node","id":4618634689,"tags":{"addr:city":"София","addr:housenumber":"5А","addr:postcode":"1612","addr:street":"Житница","brand":"Billa","brand:wikidata":"Q537781","opening_hours":"Mo-Su 07:30-22:00","phone":"+359 2 905 8830","shop":"supermarket","website":"https://www.billa.bg/","wheelchair":"yes"},"wikidata":"Q537781","coordinates":[42.6796613,23.2818481]},"atp":{"id":"2uFWLXY-JiX_A_TuMT_S41TmxNY=","tags":{"ref":"38-199","capacity:motorcar":"53","@source_uri":"https://www.billa.bg/api/stores","@spider":"billa","shop":"supermarket","addr:street":"Ул. Житница 5a","addr:city":"София","addr:state":"София","addr:postcode":"1612","addr:country":"BG","phone":"+359 2 905 8830","opening_hours":"Mo-Su 07:30-22:00","brand":"Billa","brand:wikidata":"Q537781","nsi_id":"billa-3380c4"},"coordinates":[42.6798995,23.2822176]},"dist":40.173,"tags_mismatch":false},{"osm":{"type":"node","id":4716486813,"tags":{"addr:city":"Сандански","addr:postcode":"2800","brand":"Billa","brand:wikidata":"Q537781","opening_hours":"Mo-Su 07:30-22:00","phone":"+359 74 634 940","shop":"supermarket"},"wikidata":"Q537781","coordinates":[41.5605954,23.280641]},"atp":{"id":"Vhx__wSc83FlYz5yFX3pjGJt7xw=","tags":{"ref":"38-205","capacity:motorcar":"26","@source_uri":"https://www.billa.bg/api/stores","@spider":"billa","shop":"supermarket","addr:street":"Ул. Малашевска 13","addr:city":"Сандански","addr:state":"Благоевград","addr:postcode":"2800","addr:country":"BG","phone":"+359 74 634 940","opening_hours":"Mo-Su 07:30-22:00","brand":"Billa","brand:wikidata":"Q537781","nsi_id":"billa-3380c4"},"coordinates":[41.56049,23.28065]},"dist":11.744,"tags_mismatch":false},{"osm":{"type":"node","id":5028381654,"tags":{"brand":"Billa","brand:wikidata":"Q537781","opening_hours":"Mo-Su 07:30-22:00","shop":"supermarket","website":"https://www.billa.bg/","wheelchair":"yes"},"wikidata":"Q537781","coordinates":[42.6609396,23.3659662]},"atp":{"id":"MH860PWyhlzi-ptq_lZRJuJ-5hk=","tags":{"ref":"38-194","@source_uri":"https://www.billa.bg/api/stores","@spider":"billa","shop":"supermarket","addr:street":"Ул. Полк. Г. Янков 17","addr:city":"София","addr:state":"София","addr:postcode":"1797","addr:country":"BG","phone":"+359 2 905 7880","opening_hours":"Mo-Su 07:30-22:00","brand":"Billa","brand:wikidata":"Q537781","nsi_id":"billa-3380c4"},"coordinates":[42.661047,23.36589]},"dist":13.47,"tags_mismatch":true},{"osm":{"type":"node","id":5327747870,"tags":{"brand":"Billa","brand:wikidata":"Q537781","opening_hours":"Mo-Su 07:30-22:00","shop":"supermarket"},"wikidata":"Q537781","coordinates":[43.8386886,25.9539797]},"atp":{"id":"-SfKELTenWEMw-CuYe-i9h2-B04=","tags":{"ref":"38-603","capacity:motorcar":"19","@source_uri":"https://www.billa.bg/api/stores","@spider":"billa","shop":"supermarket","addr:street":"Бул. Неофит Бозвели 18","addr:city":"Русе","addr:state":"Русе","addr:postcode":"7012","addr:country":"BG","phone":"+359 82 817 520","opening_hours":"Mo-Su 07:30-22:00","brand":"Billa","brand:wikidata":"Q537781","nsi_id":"billa-3380c4"},"coordinates":[43.83882,25.95351]},"dist":40.406,"tags_mismatch":true},{"osm":{"type":"node","id":5333211174,"tags":{"addr:city":"София","addr:housenumber":"2А","addr:postcode":"1229","addr:street":"бул. Ломско шосе","brand":"Billa","brand:wikidata":"Q537781","contact:phone":"+359 2 903 5910","level":"0","opening_hours":"Mo-Su 07:30-22:00","phone":"+359 2 903 5910","shop":"supermarket","website":"https://www.billa.bg/"},"wikidata":"Q537781","coordinates":[42.7241454,23.306428]},"atp":{"id":"hRStE2WMRuBjthOUcX34_AWf3zo=","tags":{"ref":"38-160","@source_uri":"https://www.billa.bg/api/stores","@spider":"billa","shop":"supermarket","addr:street":"Бул. Ломско Шосе 2a","addr:city":"София","addr:state":"София","addr:postcode":"1229","addr:country":"BG","phone":"+359 2 903 5910","opening_hours":"Mo-Su 07:30-22:00","brand":"Billa","brand:wikidata":"Q537781","nsi_id":"billa-3380c4"},"coordinates":[42.7239574,23.3063985]},"dist":21.043,"tags_mismatch":false},{"osm":{"type":"node","id":5647351221,"tags":{"addr:city":"Варна","addr:housenumber":"2","addr:postcode":"9000","addr:street":"Цар Иван Страцимир","brand":"Billa","brand:wikidata":"Q537781","shop":"supermarket"},"wikidata":"Q537781","coordinates":[43.209813,27.9021214]},"atp":false,"tags_mismatch":false},{"osm":{"type":"node","id":5831909286,"tags":{"addr:city":"Варна","addr:postcode":"9002","brand":"Billa","brand:wikidata":"Q537781","opening_hours":"Mo-Su 07:30-22:00","phone":"+359 52 705 220","shop":"supermarket"},"wikidata":"Q537781","coordinates":[43.2105858,27.9298311]},"atp":{"id":"hGrlu1LgMstkQOqa2lBAN0hD5q4=","tags":{"ref":"38-531","capacity:motorcar":"20","@source_uri":"https://www.billa.bg/api/stores","@spider":"billa","shop":"supermarket","addr:street":"Бул. Княз Борис I N 99","addr:city":"Варна","addr:state":"Варна","addr:postcode":"9002","addr:country":"BG","phone":"+359 52 705 220","opening_hours":"Mo-Su 07:30-22:00","brand":"Billa","brand:wikidata":"Q537781","nsi_id":"billa-3380c4"},"coordinates":[43.210827,27.930217]},"dist":41.2,"tags_mismatch":false},{"osm":{"type":"node","id":5941930841,"tags":{"addr:city":"Благоевград","addr:postcode":"2700","brand":"Billa","brand:wikidata":"Q537781","opening_hours":"Mo-Su 07:30-22:00","phone":"+359 73 828 420","shop":"supermarket"},"wikidata":"Q537781","coordinates":[42.0176703,23.0969654]},"atp":{"id":"Eqf78isZSRTDf2CsIZr2OafP734=","tags":{"ref":"38-218","capacity:motorcar":"0","@source_uri":"https://www.billa.bg/api/stores","@spider":"billa","shop":"supermarket","addr:street":"Ул. Крали Марко 1","addr:city":"Благоевград","addr:state":"Благоевград","addr:postcode":"2700","addr:country":"BG","phone":"+359 73 828 420","opening_hours":"Mo-Su 07:30-22:00","brand":"Billa","brand:wikidata":"Q537781","nsi_id":"billa-3380c4"},"coordinates":[42.01756,23.09686]},"dist":15.041,"tags_mismatch":false},{"osm":{"type":"node","id":6045824942,"tags":{"addr:city":"София","addr:postcode":"1303","brand":"Billa","brand:wikidata":"Q537781","opening_hours":"Mo-Su 07:30-22:00","phone":"+359 2 904 0520","shop":"supermarket","website":"https://www.billa.bg/"},"wikidata":"Q537781","coordinates":[42.6970932,23.3019955]},"atp":{"id":"NDw1gnlYzt74q1kvXw978nXNmlQ=","tags":{"ref":"38-198","capacity:motorcar":"32","@source_uri":"https://www.billa.bg/api/stores","@spider":"billa","shop":"supermarket","addr:street":"Ул. Гюешево 14","addr:city":"София","addr:state":"София","addr:postcode":"1303","addr:country":"BG","phone":"+359 2 904 0520","opening_hours":"Mo-Su 07:30-22:00","brand":"Billa","brand:wikidata":"Q537781","nsi_id":"billa-3380c4"},"coordinates":[42.69668,23.30233]},"dist":53.463,"tags_mismatch":false},{"osm":{"type":"node","id":6283494838,"tags":{"addr:city":"София","addr:postcode":"1715","brand":"Billa","brand:wikidata":"Q537781","opening_hours":"Mo-Su 07:30-22:00","shop":"supermarket","website":"https://www.billa.bg/","wheelchair":"yes"},"wikidata":"Q537781","coordinates":[42.622739,23.3704402]},"atp":{"id":"Qd48mt2e82UBBreqC1wcXkc74XI=","tags":{"ref":"38-266","@source_uri":"https://www.billa.bg/api/stores","@spider":"billa","shop":"supermarket","addr:street":"Ул. Донка Ушлинова 2","addr:city":"София","addr:state":"София","addr:postcode":"1715","addr:country":"BG","opening_hours":"Mo-Su 07:30-22:00","brand":"Billa","brand:wikidata":"Q537781","nsi_id":"billa-3380c4"},"coordinates":[42.622754,23.370689]},"dist":20.425,"tags_mismatch":false},{"osm":{"type":"node","id":6561150313,"tags":{"addr:city":"Костинброд","addr:postcode":"2230","brand":"Billa","brand:wikidata":"Q537781","opening_hours":"Mo-Su 07:30-22:00","phone":"+359 72 160 830","shop":"supermarket","website":"https://www.billa.bg/","wheelchair":"yes"},"wikidata":"Q537781","coordinates":[42.8091655,23.2127123]},"atp":{"id":"5Ymu7k-WbxzEhJ8IAEX55qinTRQ=","tags":{"ref":"38-224","capacity:motorcar":"99","@source_uri":"https://www.billa.bg/api/stores","@spider":"billa","shop":"supermarket","addr:street":"Ул. Славянска 34","addr:city":"Костинброд","addr:state":"София-област","addr:postcode":"2230","addr:country":"BG","phone":"+359 72 160 830","opening_hours":"Mo-Su 07:30-22:00","brand":"Billa","brand:wikidata":"Q537781","nsi_id":"billa-3380c4"},"coordinates":[42.808924,23.212835]},"dist":28.658,"tags_mismatch":false},{"osm":{"type":"node","id":6569454457,"tags":{"addr:city":"София","addr:postcode":"1407","brand":"Billa","brand:wikidata":"Q537781","check_date":"2022-12-05","internet_access":"no","level":"-1","opening_hours":"Mo-Su 08:00-22:00","payment:mastercard":"yes","payment:visa":"yes","self_checkout":"yes","shop":"supermarket","website":"https://www.billa.bg/","wheelchair":"yes"},"wikidata":"Q537781","coordinates":[42.6573457,23.3134201]},"atp":{"id":"DfIg_ElFLseaTFDbtMpKRvHtE4I=","tags":{"ref":"38-259","@source_uri":"https://www.billa.bg/api/stores","@spider":"billa","shop":"supermarket","addr:street":"Бул. Черни Връх 100","addr:city":"София","addr:state":"София","addr:postcode":"1407","addr:country":"BG","opening_hours":"Mo-Su 08:00-22:00","brand":"Billa","brand:wikidata":"Q537781","nsi_id":"billa-3380c4"},"coordinates":[42.657862,23.314836]},"dist":129.236,"tags_mismatch":false},{"osm":{"type":"node","id":6620752333,"tags":{"brand":"Billa","brand:wikidata":"Q537781","opening_hours":"Mo-Su 07:30-22:00","self_checkout":"yes","shop":"supermarket","website":"https://www.billa.bg/"},"wikidata":"Q537781","coordinates":[42.6982097,23.3274541]},"atp":{"id":"gQ-DcO4akB1D-78jOZkx69Q4w8s=","tags":{"ref":"38-175","@source_uri":"https://www.billa.bg/api/stores","@spider":"billa","shop":"supermarket","addr:street":"Бул. Дондуков 11","addr:city":"София","addr:state":"София","addr:postcode":"1000","addr:country":"BG","opening_hours":"Mo-Su 07:30-22:00","brand":"Billa","brand:wikidata":"Q537781","nsi_id":"billa-3380c4"},"coordinates":[42.698214,23.3274548]},"dist":0.482,"tags_mismatch":false},{"osm":{"type":"node","id":6638604285,"tags":{"addr:city":"Хасково","addr:postcode":"6300","brand":"Billa","brand:wikidata":"Q537781","opening_hours":"Mo-Su 07:30-22:00","phone":"+359 38 691 010","shop":"supermarket"},"wikidata":"Q537781","coordinates":[41.9315996,25.5568674]},"atp":{"id":"7cf_wW7b4PKlOGdZb8nV58pjBhU=","tags":{"ref":"38-424","@source_uri":"https://www.billa.bg/api/stores","@spider":"billa","shop":"supermarket","addr:street":"Площад Общински 3","addr:city":"Хасково","addr:state":"Хасково","addr:postcode":"6300","addr:country":"BG","phone":"+359 38 691 010","opening_hours":"Mo-Su 07:30-22:00","brand":"Billa","brand:wikidata":"Q537781","nsi_id":"billa-3380c4"},"coordinates":[41.931515,25.557125]},"dist":23.293,"tags_mismatch":false},{"osm":{"type":"node","id":6640005471,"tags":{"addr:city":"Шумен","addr:housenumber":"30","addr:postcode":"9700","addr:street":"бул. Славянски","air_conditioning":"yes","brand":"Billa","brand:wikidata":"Q537781","currency:BGN":"yes","level":"0","opening_hours":"Mo-Su 07:30-22:00","payment:cash":"yes","payment:contactless":"yes","payment:credit_cards":"yes","payment:debit_cards":"yes","payment:mastercard":"yes","payment:visa":"yes","phone":"+359 54 818 160","shop":"supermarket","website":"https://www.billa.bg/","wheelchair":"yes"},"wikidata":"Q537781","coordinates":[43.2712744,26.9308023]},"atp":{"id":"CTrTWqPQEr3j7tEDbQ4oVVUNdE4=","tags":{"ref":"38-618","@source_uri":"https://www.billa.bg/api/stores","@spider":"billa","shop":"supermarket","addr:street":"Бул. Славянски 30","addr:city":"Шумен","addr:state":"Шумен","addr:postcode":"9700","addr:country":"BG","phone":"+359 54 818 160","opening_hours":"Mo-Su 07:30-22:00","brand":"Billa","brand:wikidata":"Q537781","nsi_id":"billa-3380c4"},"coordinates":[43.27121,26.93077]},"dist":7.624,"tags_mismatch":false},{"osm":{"type":"node","id":6760022097,"tags":{"brand":"Billa","brand:wikidata":"Q537781","opening_hours":"Mo-Su 07:30-22:00","phone":"+359 2 907 8260","self_checkout":"no","shop":"supermarket"},"wikidata":"Q537781","coordinates":[42.664788,23.348007]},"atp":{"id":"c78e_01CaCi_xMI4zrj9sLj7LBc=","tags":{"ref":"38-255","capacity:motorcar":"18","@source_uri":"https://www.billa.bg/api/stores","@spider":"billa","shop":"supermarket","addr:street":"Ул. Св. Пимен Зографски 38","addr:city":"София","addr:state":"София","addr:postcode":"1172","addr:country":"BG","phone":"+359 2 907 8260","opening_hours":"Mo-Su 07:30-22:00","brand":"Billa","brand:wikidata":"Q537781","nsi_id":"billa-3380c4"},"coordinates":[42.664853,23.348123]},"dist":11.925,"tags_mismatch":false},{"osm":{"type":"node","id":6828325785,"tags":{"addr:city":"Пловдив","addr:postcode":"4027","brand":"Billa","brand:wikidata":"Q537781","opening_hours":"Mo-Su 07:30-22:00","phone":"+359 32 203 850","shop":"supermarket"},"wikidata":"Q537781","coordinates":[42.1554353,24.731638]},"atp":{"id":"b5Y6Ecyeu3_yf9bfokAQ4gbYxAI=","tags":{"ref":"38-316","capacity:motorcar":"54","@source_uri":"https://www.billa.bg/api/stores","@spider":"billa","shop":"supermarket","addr:street":"Бул. Васил Априлов 124а","addr:city":"Пловдив","addr:state":"Пловдив","addr:postcode":"4027","addr:country":"BG","phone":"+359 32 203 850","opening_hours":"Mo-Su 07:30-22:00","brand":"Billa","brand:wikidata":"Q537781","nsi_id":"billa-3380c4"},"coordinates":[42.155341,24.731734]},"dist":13.137,"tags_mismatch":false},{"osm":{"type":"node","id":7006797363,"tags":{"addr:city":"София","addr:housename":"Mall of Sofia","addr:housenumber":"101","addr:postcode":"1303","addr:street":"бул. Александър Стамболийски","brand":"Billa","brand:wikidata":"Q537781","level":"-2","opening_hours":"Mo-Su 08:00-22:00","phone":"+359 2 907 8250","self_checkout":"yes","shop":"supermarket","website":"https://www.billa.bg/","wheelchair":"yes"},"wikidata":"Q537781","coordinates":[42.6983257,23.3089516]},"atp":{"id":"UHqPhiw64O2UuAnh6TC3lxNdJ8Y=","tags":{"ref":"38-261","@source_uri":"https://www.billa.bg/api/stores","@spider":"billa","shop":"supermarket","addr:street":"Бул. Александър Стамболийски 101","addr:city":"София","addr:state":"София","addr:postcode":"1303","addr:country":"BG","phone":"+359 2 907 8250","opening_hours":"Mo-Su 08:00-22:00","brand":"Billa","brand:wikidata":"Q537781","nsi_id":"billa-3380c4"},"coordinates":[42.69859,23.30941]},"dist":47.613,"tags_mismatch":false},{"osm":{"type":"node","id":7714060495,"tags":{"addr:city":"Пловдив","addr:postcode":"4000","brand":"Billa","brand:wikidata":"Q537781","opening_hours":"Mo-Su 08:00-22:00","self_checkout":"yes","shop":"supermarket"},"wikidata":"Q537781","coordinates":[42.1407891,24.7411129]},"atp":{"id":"SgxfJ2L1CTL4VAQytMUSVGEnbrw=","tags":{"ref":"38-304","@source_uri":"https://www.billa.bg/api/stores","@spider":"billa","shop":"supermarket","addr:street":"Бул. Руски 54","addr:city":"Пловдив","addr:state":"Пловдив","addr:postcode":"4000","addr:country":"BG","opening_hours":"Mo-Su 08:00-22:00","brand":"Billa","brand:wikidata":"Q537781","nsi_id":"billa-3380c4"},"coordinates":[42.1414,24.74136]},"dist":70.918,"tags_mismatch":false},{"osm":{"type":"node","id":8112698217,"tags":{"addr:city":"Варна","addr:postcode":"9000","brand":"Billa","brand:wikidata":"Q537781","opening_hours":"Mo-Su 07:30-22:00","shop":"supermarket","survey:date":"2020-11-08","website":"https://billa.bg/","wheelchair":"yes"},"wikidata":"Q537781","coordinates":[43.2156624,27.9021935]},"atp":{"id":"Lo-iXkWVLRY6aeCuoSFoUQqqilQ=","tags":{"ref":"38-540","@source_uri":"https://www.billa.bg/api/stores","@spider":"billa","shop":"supermarket","addr:street":"Ул. 8-Ми Март 2","addr:city":"Варна","addr:state":"Варна","addr:postcode":"9000","addr:country":"BG","opening_hours":"Mo-Su 07:30-22:00","brand":"Billa","brand:wikidata":"Q537781","nsi_id":"billa-3380c4"},"coordinates":[43.215717,27.902237]},"dist":7.02,"tags_mismatch":false},{"osm":{"type":"node","id":8173094961,"tags":{"addr:city":"София","addr:housenumber":"15","addr:postcode":"1324","addr:street":"бул. Царица Йоанна","brand":"Billa","brand:wikidata":"Q537781","internet_access":"wlan","level":"-1","opening_hours":"Mo-Su 07:30-21:00","organic":"yes","payment:cash":"yes","payment:credit_cards":"yes","payment:debit_cards":"yes","phone":"+359 2 903 9830","shop":"supermarket","stroller":"yes","wheelchair":"yes"},"wikidata":"Q537781","coordinates":[42.7102466,23.2715185]},"atp":{"id":"RG6vebmjyAz_O1-latlNFZe3fmA=","tags":{"ref":"38-122","capacity:motorcar":"0","@source_uri":"https://www.billa.bg/api/stores","@spider":"billa","shop":"supermarket","addr:street":"Бул. Царица Йоана 15","addr:city":"София","addr:state":"София","addr:postcode":"1505","addr:country":"BG","phone":"+359 2 903 9830","opening_hours":"Mo-Su 07:30-21:00","brand":"Billa","brand:wikidata":"Q537781","nsi_id":"billa-3380c4"},"coordinates":[42.7102585,23.2712018]},"dist":25.91,"tags_mismatch":false},{"osm":{"type":"node","id":8205205274,"tags":{"branch":"Мол България","brand":"Billa","brand:wikidata":"Q537781","contact:phone":"+359 2 818 8139","level":"-2","opening_hours":"Mo-Su 07:30-21:00","phone":"+359 2 904 0670","shop":"supermarket","website":"https://www.billa.bg/","wheelchair":"yes"},"wikidata":"Q537781","coordinates":[42.6639816,23.2885934]},"atp":{"id":"YQY4gqmKkk9mPtchDeskEMcpFJQ=","tags":{"ref":"38-264","@source_uri":"https://www.billa.bg/api/stores","@spider":"billa","shop":"supermarket","addr:street":"Бул. България 69","addr:city":"София","addr:state":"София","addr:postcode":"1404","addr:country":"BG","phone":"+359 2 904 0670","opening_hours":"Mo-Su 07:30-21:00","brand":"Billa","brand:wikidata":"Q537781","nsi_id":"billa-3380c4"},"coordinates":[42.664288,23.288485]},"dist":35.204,"tags_mismatch":false},{"osm":{"type":"node","id":8644281117,"tags":{"addr:city":"Харманли","addr:postcode":"6450","brand":"Billa","brand:wikidata":"Q537781","opening_hours":"Mo-Su 07:30-22:00","phone":"+359 37 380 210","shop":"supermarket"},"wikidata":"Q537781","coordinates":[41.9313762,25.9010118]},"atp":{"id":"aU-1ByNMeCy0x162VDJduXEBBk0=","tags":{"ref":"38-413","capacity:motorcar":"32","@source_uri":"https://www.billa.bg/api/stores","@spider":"billa","shop":"supermarket","addr:street":"Пл. Възраждане 21","addr:city":"Харманли","addr:state":"Хасково","addr:postcode":"6450","addr:country":"BG","phone":"+359 37 380 210","opening_hours":"Mo-Su 07:30-22:00","brand":"Billa","brand:wikidata":"Q537781","nsi_id":"billa-3380c4"},"coordinates":[41.930643,25.9002881]},"dist":101.148,"tags_mismatch":false},{"osm":{"type":"node","id":8737038018,"tags":{"addr:city":"София","addr:housenumber":"23А","addr:postcode":"1618","addr:street":"Монтевидео","brand":"Billa","brand:wikidata":"Q537781","opening_hours":"Mo-Su 07:30-22:00","phone":"+359 2 907 1540","shop":"supermarket","toilets:wheelchair":"yes","wheelchair":"yes"},"wikidata":"Q537781","coordinates":[42.679325,23.2540223]},"atp":{"id":"Pg_WmVFM_txO5YnsbLzcYVWS6RM=","tags":{"ref":"38-269","capacity:motorcar":"24","@source_uri":"https://www.billa.bg/api/stores","@spider":"billa","shop":"supermarket","addr:street":"Ул. Монтевидео 23a","addr:city":"София","addr:state":"София","addr:postcode":"1618","addr:country":"BG","phone":"+359 2 907 1540","opening_hours":"Mo-Su 07:30-22:00","brand":"Billa","brand:wikidata":"Q537781","nsi_id":"billa-3380c4"},"coordinates":[42.679325,23.254168]},"dist":11.91,"tags_mismatch":false},{"osm":{"type":"node","id":9218949291,"tags":{"addr:city":"Пловдив","addr:housenumber":"157","addr:postcode":"4023","addr:street":"бул. Освобождение","brand":"Billa","brand:wikidata":"Q537781","opening_hours":"Mo-Su 07:30-22:00","shop":"supermarket"},"wikidata":"Q537781","coordinates":[42.1273614,24.7710401]},"atp":{"id":"j39nCBduNQVB_efpQ7Ep2kgkYH0=","tags":{"ref":"38-331","capacity:motorcar":"140","@source_uri":"https://www.billa.bg/api/stores","@spider":"billa","shop":"supermarket","addr:street":"Бул. Освобождение 157","addr:city":"Пловдив","addr:state":"Пловдив","addr:postcode":"4023","addr:country":"BG","opening_hours":"Mo-Su 07:30-22:00","brand":"Billa","brand:wikidata":"Q537781","nsi_id":"billa-3380c4"},"coordinates":[42.12691,24.771266]},"dist":53.539,"tags_mismatch":false},{"osm":{"type":"node","id":9333763001,"tags":{"addr:city":"Пловдив","addr:postcode":"4000","addr:street":"бул. Васил Левски","brand":"Billa","brand:wikidata":"Q537781","opening_hours":"Mo-Su 07:30-22:00","phone":"+359 32 202 320","shop":"supermarket"},"wikidata":"Q537781","coordinates":[42.16196,24.7425936]},"atp":{"id":"NLrX979UaYRgLONDByQV26D2cQI=","tags":{"ref":"38-326","@source_uri":"https://www.billa.bg/api/stores","@spider":"billa","shop":"supermarket","addr:street":"Ул. Черешово Топче 2","addr:city":"Пловдив","addr:state":"Пловдив","addr:postcode":"4000","addr:country":"BG","phone":"+359 32 202 320","opening_hours":"Mo-Su 07:30-22:00","brand":"Billa","brand:wikidata":"Q537781","nsi_id":"billa-3380c4"},"coordinates":[42.161995,24.742305]},"dist":24.104,"tags_mismatch":false},{"osm":{"type":"node","id":9604574849,"tags":{"addr:city":"Варна","addr:housenumber":"45","addr:postcode":"9003","addr:street":"Св. Св. Кирил и Методий","brand":"Billa","brand:wikidata":"Q537781","opening_hours":"Mo-Su 07:30-22:00","payment:cash":"yes","payment:mastercard":"yes","payment:visa":"yes","phone":"+359 52 385 510","shop":"supermarket"},"wikidata":"Q537781","coordinates":[43.1801052,27.8975989]},"atp":{"id":"WFYmLDwfxUrnuJMSQ_GiUzNH8wE=","tags":{"ref":"38-515","capacity:motorcar":"0","@source_uri":"https://www.billa.bg/api/stores","@spider":"billa","shop":"supermarket","addr:street":"Ул. Кирил И Методиий 45","addr:city":"Варна","addr:state":"Варна","addr:postcode":"9003","addr:country":"BG","phone":"+359 52 385 510","opening_hours":"Mo-Su 07:30-22:00","brand":"Billa","brand:wikidata":"Q537781","nsi_id":"billa-3380c4"},"coordinates":[43.18009,27.8977]},"dist":8.37,"tags_mismatch":false},{"osm":{"type":"node","id":9744122943,"tags":{"brand":"Billa","brand:wikidata":"Q537781","check_date":"2024-02-03","opening_hours":"Mo-Su 07:30-22:00","shop":"supermarket"},"wikidata":"Q537781","coordinates":[42.6627222,23.3551297]},"atp":{"id":"wmhw30UYmn8OggsehWP_q6UAyWY=","tags":{"ref":"38-270","@source_uri":"https://www.billa.bg/api/stores","@spider":"billa","shop":"supermarket","addr:street":"Жк. Дианабад Бл. 65 Вход В","addr:city":"София","addr:state":"София","addr:postcode":"1000","addr:country":"BG","opening_hours":"Mo-Su 07:30-22:00","brand":"Billa","brand:wikidata":"Q537781","nsi_id":"billa-3380c4"},"coordinates":[42.662801,23.35525]},"dist":13.173,"tags_mismatch":false},{"osm":{"type":"node","id":9792476420,"tags":{"addr:city":"Първомай","addr:postcode":"4270","brand":"Billa","brand:wikidata":"Q537781","opening_hours":"Mo-Su 07:30-22:00","phone":"+359 33 969 920","shop":"supermarket"},"wikidata":"Q537781","coordinates":[42.090296,25.21141]},"atp":{"id":"MvIga9liNinCrIpM8Cp4r2ROopA=","tags":{"ref":"38-334","@source_uri":"https://www.billa.bg/api/stores","@spider":"billa","shop":"supermarket","addr:street":"Ул. Княз Борис I 51b","addr:city":"Първомай","addr:state":"Пловдив","addr:postcode":"4270","addr:country":"BG","phone":"+359 33 969 920","opening_hours":"Mo-Su 07:30-22:00","brand":"Billa","brand:wikidata":"Q537781","nsi_id":"billa-3380c4"},"coordinates":[42.090655,25.211982]},"dist":61.817,"tags_mismatch":false},{"osm":{"type":"node","id":10080107725,"tags":{"addr:city":"Перник","addr:housenumber":"2А","addr:postcode":"2300","addr:street":"Юрий Гагарин","brand":"Billa","brand:wikidata":"Q537781","opening_hours":"Mo-Su 07:30-22:00","payment:cash":"yes","payment:mastercard":"yes","payment:visa":"yes","phone":"+359 76 658 030","shop":"supermarket"},"wikidata":"Q537781","coordinates":[42.607175,23.0564875]},"atp":{"id":"8HIznOse2EaY9DgZcT_Rb5lDVmY=","tags":{"ref":"38-229","@source_uri":"https://www.billa.bg/api/stores","@spider":"billa","shop":"supermarket","addr:street":"Перник Плаза Ритейл Парк","addr:city":"Перник","addr:state":"Перник","addr:postcode":"2300","addr:country":"BG","phone":"+359 76 658 030","opening_hours":"Mo-Su 07:30-22:00","brand":"Billa","brand:wikidata":"Q537781","nsi_id":"billa-3380c4"},"coordinates":[42.607163,23.056201]},"dist":23.485,"tags_mismatch":false},{"osm":{"type":"node","id":10140133167,"tags":{"addr:city":"Пловдив","addr:postcode":"4004","brand":"Billa","brand:wikidata":"Q537781","opening_hours":"Mo-Su 07:30-22:00","phone":"+359 32 202 110","shop":"supermarket"},"wikidata":"Q537781","coordinates":[42.1246954,24.7202709]},"atp":{"id":"yXtp8W_HX1Wd8f6JIbcE1r7EFP8=","tags":{"ref":"38-330","capacity:motorcar":"175","@source_uri":"https://www.billa.bg/api/stores","@spider":"billa","shop":"supermarket","addr:street":"Бул. Александър Стамболийски 131","addr:city":"Пловдив","addr:state":"Пловдив","addr:postcode":"4004","addr:country":"BG","phone":"+359 32 202 110","opening_hours":"Mo-Su 07:30-22:00","brand":"Billa","brand:wikidata":"Q537781","nsi_id":"billa-3380c4"},"coordinates":[42.124845,24.720736]},"dist":41.809,"tags_mismatch":false},{"osm":{"type":"node","id":10184381032,"tags":{"brand":"Billa","brand:wikidata":"Q537781","shop":"supermarket"},"wikidata":"Q537781","coordinates":[42.4944091,24.1877091]},"atp":{"id":"8uTbz0mGFRx_Ae1XEIDOahpSxjs=","tags":{"ref":"38-336","capacity:motorcar":"60","@source_uri":"https://www.billa.bg/api/stores","@spider":"billa","shop":"supermarket","addr:street":"Ул. Георги Бенковски 67","addr:city":"Панагюрище","addr:state":"Пазарджик","addr:postcode":"4500","addr:country":"BG","opening_hours":"Mo-Su 08:00-21:00","brand":"Billa","brand:wikidata":"Q537781","nsi_id":"billa-3380c4"},"coordinates":[42.49468,24.187386]},"dist":40.114,"tags_mismatch":true},{"osm":{"type":"node","id":10249381132,"tags":{"addr:city":"София","addr:postcode":"1784","brand":"Billa","brand:wikidata":"Q537781","level":"-2","opening_hours":"Mo-Su 08:00-22:00","self_checkout":"yes","shop":"supermarket"},"wikidata":"Q537781","coordinates":[42.6612059,23.3830958]},"atp":{"id":"Wlm6V1h7axzjRyjD8myoP0bmBmo=","tags":{"ref":"38-265","@source_uri":"https://www.billa.bg/api/stores","@spider":"billa","shop":"supermarket","addr:street":"Бул. Цариградско Шосе 115 З","addr:city":"София","addr:state":"София","addr:postcode":"1784","addr:country":"BG","opening_hours":"Mo-Su 08:30-22:00","brand":"Billa","brand:wikidata":"Q537781","nsi_id":"billa-3380c4"},"coordinates":[42.660654,23.382496]},"dist":78.559,"tags_mismatch":true},{"osm":{"type":"node","id":10298161628,"tags":{"addr:city":"София","addr:postcode":"1000","brand":"Billa","brand:wikidata":"Q537781","opening_hours":"Mo-Su 07:30-22:00","payment:cash":"yes","payment:credit_cards":"yes","phone":"+359 2 906 5640","shop":"supermarket"},"wikidata":"Q537781","coordinates":[42.7010966,23.2915242]},"atp":{"id":"t7PtUhFmmBR-R2RY7k8II07dTHw=","tags":{"ref":"38-273","@source_uri":"https://www.billa.bg/api/stores","@spider":"billa","shop":"supermarket","addr:street":"Бул. Ал. Стамболийски 247 B","addr:city":"София","addr:state":"София","addr:postcode":"1000","addr:country":"BG","phone":"+359 2 906 5640","opening_hours":"Mo-Su 07:30-22:00","brand":"Billa","brand:wikidata":"Q537781","nsi_id":"billa-3380c4"},"coordinates":[42.700842,23.291662]},"dist":30.468,"tags_mismatch":false},{"osm":{"type":"node","id":10740801890,"tags":{"addr:city":"Карлово","addr:postcode":"4300","brand":"Billa","brand:wikidata":"Q537781","opening_hours":"Mo-Su 07:30-22:00","phone":"+359 33 969 940","shop":"supermarket"},"wikidata":"Q537781","coordinates":[42.6433928,24.7881764]},"atp":{"id":"vxKXuv37B0SeAjViIDOy-52c1tg=","tags":{"ref":"38-337","@source_uri":"https://www.billa.bg/api/stores","@spider":"billa","shop":"supermarket","addr:street":"Местност Кантона 219","addr:city":"Карлово","addr:state":"Пловдив","addr:postcode":"4300","addr:country":"BG","phone":"+359 33 969 940","opening_hours":"Mo-Su 07:30-22:00","brand":"Billa","brand:wikidata":"Q537781","nsi_id":"billa-3380c4"},"coordinates":[42.64371,24.788229]},"dist":35.532,"tags_mismatch":false},{"osm":{"type":"node","id":10806881085,"tags":{"addr:city":"Дупница","addr:postcode":"2600","brand":"Billa","brand:wikidata":"Q537781","opening_hours":"Mo-Su 07:30-22:00","phone":"+359 701 552 70","shop":"supermarket"},"wikidata":"Q537781","coordinates":[42.273079,23.1299523]},"atp":{"id":"Vwsuno00L6psqEDnAUI2DLDo0eA=","tags":{"ref":"38-226","capacity:motorcar":"145","@source_uri":"https://www.billa.bg/api/stores","@spider":"billa","shop":"supermarket","addr:street":"Ул. Отовица 1","addr:city":"Дупница","addr:state":"Кюстендил","addr:postcode":"2600","addr:country":"BG","phone":"+359 701 552 70","opening_hours":"Mo-Su 07:30-22:00","brand":"Billa","brand:wikidata":"Q537781","nsi_id":"billa-3380c4"},"coordinates":[42.2731644,23.1304421]},"dist":41.404,"tags_mismatch":false},{"osm":{"type":"node","id":10926066605,"tags":{"addr:city":"Созопол","addr:postcode":"8130","brand":"Billa","brand:wikidata":"Q537781","opening_hours":"Mo-Su 07:30-22:00","phone":"+359 55 045 210","shop":"supermarket","website":"https://www.billa.bg/"},"wikidata":"Q537781","coordinates":[42.419316,27.6931812]},"atp":{"id":"ZrHm1M30bC_Gg3vScUSFRvKJ9cY=","tags":{"ref":"38-551","@source_uri":"https://www.billa.bg/api/stores","@spider":"billa","shop":"supermarket","addr:street":"Ул. Индустриална 3","addr:city":"Созопол","addr:state":"Бургас","addr:postcode":"8130","addr:country":"BG","phone":"+359 55 045 210","opening_hours":"Mo-Su 08:00-21:00","brand":"Billa","brand:wikidata":"Q537781","nsi_id":"billa-3380c4"},"coordinates":[42.41914,27.693007]},"dist":24.238,"tags_mismatch":true},{"osm":{"type":"node","id":11064711736,"tags":{"brand":"Billa","brand:wikidata":"Q537781","shop":"supermarket"},"wikidata":"Q537781","coordinates":[42.1279194,24.7206549]},"atp":false,"tags_mismatch":false},{"osm":{"type":"node","id":11175217509,"tags":{"addr:city":"София","addr:housenumber":"5","addr:postcode":"1592","addr:street":"Туше Делииванов","brand":"Billa","brand:wikidata":"Q537781","opening_hours":"Mo-Su 07:30-22:00","phone":"+359 2 906 8080","shop":"supermarket","website":"https://billa.bg"},"wikidata":"Q537781","coordinates":[42.6687504,23.3974533]},"atp":{"id":"LQxDVm9fta0NkWzZlrxD9MzDzhE=","tags":{"ref":"38-268","capacity:motorcar":"55","@source_uri":"https://www.billa.bg/api/stores","@spider":"billa","shop":"supermarket","addr:street":"Ул. Туше Делииванов 5","addr:city":"София","addr:state":"София","addr:postcode":"1592","addr:country":"BG","phone":"+359 2 906 8080","opening_hours":"Mo-Su 07:30-22:00","brand":"Billa","brand:wikidata":"Q537781","nsi_id":"billa-3380c4"},"coordinates":[42.668696,23.397635]},"dist":16.04,"tags_mismatch":false},{"osm":{"type":"node","id":11254747835,"tags":{"addr:city":"Сливен","addr:postcode":"8800","brand":"Billa","brand:wikidata":"Q537781","opening_hours":"Mo-Su 07:30-22:00","phone":"+359 44 699 150","shop":"supermarket"},"wikidata":"Q537781","coordinates":[42.6826555,26.3408244]},"atp":{"id":"cd3kDN-RMgSIbjh-Ig--I-dHQa0=","tags":{"ref":"38-427","@source_uri":"https://www.billa.bg/api/stores","@spider":"billa","shop":"supermarket","addr:street":"Бул. Георги Данчев 26","addr:city":"Сливен","addr:state":"Сливен","addr:postcode":"8800","addr:country":"BG","phone":"+359 44 699 150","opening_hours":"Mo-Su 07:30-22:00","brand":"Billa","brand:wikidata":"Q537781","nsi_id":"billa-3380c4"},"coordinates":[42.68256,26.340601]},"dist":21.124,"tags_mismatch":false},{"osm":{"type":"node","id":11324280409,"tags":{"addr:city":"София","addr:postcode":"1619","brand":"Billa","brand:wikidata":"Q537781","level":"0","opening_hours":"Mo-Su 07:30-22:00","phone":"+359 2 906 5090","shop":"supermarket"},"wikidata":"Q537781","coordinates":[42.6603055,23.2455952]},"atp":{"id":"kZ-1RhWKeF31EHyfeCR7E6ZkJ8c=","tags":{"ref":"38-257","@source_uri":"https://www.billa.bg/api/stores","@spider":"billa","shop":"supermarket","addr:street":"Бул. Цар Борис Iii 272","addr:city":"София","addr:state":"София","addr:postcode":"1619","addr:country":"BG","phone":"+359 2 906 5090","opening_hours":"Mo-Su 07:30-22:00","brand":"Billa","brand:wikidata":"Q537781","nsi_id":"billa-3380c4"},"coordinates":[42.66011,23.2460701]},"dist":44.504,"tags_mismatch":false},{"osm":{"type":"node","id":11401475082,"tags":{"brand":"Billa","brand:wikidata":"Q537781","shop":"supermarket"},"wikidata":"Q537781","coordinates":[43.28079,26.9266377]},"atp":{"id":"FFP5c9B2Iy8FNo0LNgd3i8-KSus=","tags":{"ref":"38-629","@source_uri":"https://www.billa.bg/api/stores","@spider":"billa","shop":"supermarket","addr:street":"Ул. Кралевиче 1","addr:city":"Шумен","addr:state":"Шумен","addr:postcode":"9700","addr:country":"BG","phone":"+359 54 818 250","opening_hours":"Mo-Su 07:30-22:00","brand":"Billa","brand:wikidata":"Q537781","nsi_id":"billa-3380c4"},"coordinates":[43.280635,26.92666]},"dist":17.329,"tags_mismatch":true},{"osm":{"type":"node","id":11509493361,"tags":{"addr:city":"Пирдоп","addr:postcode":"2070","brand":"Billa","brand:wikidata":"Q537781","opening_hours":"Mo-Su 07:30-22:00","shop":"supermarket"},"wikidata":"Q537781","coordinates":[42.703584,24.1634865]},"atp":{"id":"pj5ip3PDeh1VnO-zui1wJsT-if4=","tags":{"ref":"38-335","capacity:motorcar":"103","@source_uri":"https://www.billa.bg/api/stores","@spider":"billa","shop":"supermarket","addr:street":"М. Декилиташ - Гп I-6 Km 195 Дясно 1 Обект 6","addr:city":"Пирдоп","addr:state":"София-област","addr:postcode":"2070","addr:country":"BG","opening_hours":"Mo-Su 07:30-22:00","brand":"Billa","brand:wikidata":"Q537781","nsi_id":"billa-3380c4"},"coordinates":[42.703563,24.163381]},"dist":8.931,"tags_mismatch":false},{"osm":{"type":"node","id":11579666833,"tags":{"addr:city":"Стара Загора","addr:housenumber":"30","addr:street":"Хан Аспарух","brand":"Billa","brand:wikidata":"Q537781","ref:vatin":"BG130007884","shop":"supermarket"},"wikidata":"Q537781","coordinates":[42.438147,25.6330155]},"atp":{"id":"lMFgNrwweBymgzhphUXbQHp2fJY=","tags":{"ref":"38-426","@source_uri":"https://www.billa.bg/api/stores","@spider":"billa","shop":"supermarket","addr:street":"Ул. Хан Аспарух 30","addr:city":"Стара Загора","addr:state":"Стара Загора","addr:postcode":"6000","addr:country":"BG","opening_hours":"Mo-Su 08:00-22:00","brand":"Billa","brand:wikidata":"Q537781","nsi_id":"billa-3380c4"},"coordinates":[42.43807,25.6316751]},"dist":110.329,"tags_mismatch":true},{"osm":{"type":"node","id":11581796841,"tags":{"addr:city":"Хасково","addr:housenumber":"59","addr:postcode":"6300","addr:street":"Банска","brand":"Billa","brand:wikidata":"Q537781","opening_hours":"Mo-Su 07:30-22:00","shop":"supermarket"},"wikidata":"Q537781","coordinates":[41.936138,25.5352926]},"atp":{"id":"27Lng7QrXzBRfMbG4eCHcw_ay3M=","tags":{"ref":"38-429","@source_uri":"https://www.billa.bg/api/stores","@spider":"billa","shop":"supermarket","addr:street":"Ул. Банска 59","addr:city":"Хасково","addr:state":"Хасково","addr:postcode":"6300","addr:country":"BG","phone":"+359 38 691 060","opening_hours":"Mo-Su 07:30-22:00","brand":"Billa","brand:wikidata":"Q537781","nsi_id":"billa-3380c4"},"coordinates":[41.936374,25.535758]},"dist":46.59,"tags_mismatch":true},{"osm":{"type":"node","id":11685130820,"tags":{"brand":"Billa","brand:wikidata":"Q537781","shop":"supermarket"},"wikidata":"Q537781","coordinates":[41.5722255,24.7165369]},"atp":{"id":"0j8H3XQxAEsyX1g7vlguMjorzzI=","tags":{"ref":"38-338","@source_uri":"https://www.billa.bg/api/stores","@spider":"billa","shop":"supermarket","addr:street":"Ул. Белия Камък 24","addr:city":"Смолян","addr:state":"Смолян","addr:postcode":"4700","addr:country":"BG","opening_hours":"Mo-Su 07:30-22:00","brand":"Billa","brand:wikidata":"Q537781","nsi_id":"billa-3380c4"},"coordinates":[41.572018,24.71589]},"dist":58.552,"tags_mismatch":true},{"osm":{"type":"node","id":11701089602,"tags":{"brand":"Billa","brand:wikidata":"Q537781","check_date":"2024-03-07","level":"1","shop":"supermarket"},"wikidata":"Q537781","coordinates":[42.690695,23.4138078]},"atp":false,"tags_mismatch":false},{"osm":{"type":"node","id":12180402093,"tags":{"brand":"Billa","brand:wikidata":"Q537781","opening_hours":"Mo-Su 07:30-22:00","shop":"supermarket"},"wikidata":"Q537781","coordinates":[42.6933025,23.3288606]},"atp":{"id":"f7IHMa6R6-CFLuVScxHt7LuoOJM=","tags":{"ref":"38-191","@source_uri":"https://www.billa.bg/api/stores","@spider":"billa","shop":"supermarket","addr:street":"Ул. Славянска 5","addr:city":"София","addr:state":"София","addr:postcode":"1000","addr:country":"BG","phone":"+359 2 904 0610","opening_hours":"Mo-Su 07:30-22:00","brand":"Billa","brand:wikidata":"Q537781","nsi_id":"billa-3380c4"},"coordinates":[42.693494,23.328589]},"dist":30.759,"tags_mismatch":true},{"osm":{"type":"node","id":12248601691,"tags":{"brand":"Billa","brand:wikidata":"Q537781","opening_hours":"Mo-Su 07:30-22:00","phone":"+359 82 890 510","shop":"supermarket"},"wikidata":"Q537781","coordinates":[43.8505794,25.9663148]},"atp":{"id":"Eugbb7tGcSQ7okvpjYNonNUVv4U=","tags":{"ref":"38-607","capacity:motorcar":"10","@source_uri":"https://www.billa.bg/api/stores","@spider":"billa","shop":"supermarket","addr:street":"Ул. Солун 12","addr:city":"Русе","addr:state":"Русе","addr:postcode":"7020","addr:country":"BG","phone":"+359 82 890 510","opening_hours":"Mo-Su 07:30-22:00","brand":"Billa","brand:wikidata":"Q537781","nsi_id":"billa-3380c4"},"coordinates":[43.84939,25.96737]},"dist":157.007,"tags_mismatch":false},{"osm":{"type":"node","id":12366997053,"tags":{"brand":"Billa","brand:wikidata":"Q537781","opening_hours":"Mo-Su 07:30-22:00","phone":"+359 52 702 420","shop":"supermarket"},"wikidata":"Q537781","coordinates":[43.2149797,27.8938449]},"atp":{"id":"4R9p3MikTNoRfAnPPXue9vlKu6Y=","tags":{"ref":"38-513","capacity:motorcar":"20","@source_uri":"https://www.billa.bg/api/stores","@spider":"billa","shop":"supermarket","addr:street":"Ул. Капитан Райчо Николов 101","addr:city":"Варна","addr:state":"Варна","addr:postcode":"9009","addr:country":"BG","phone":"+359 52 702 420","opening_hours":"Mo-Su 07:30-22:00","brand":"Billa","brand:wikidata":"Q537781","nsi_id":"billa-3380c4"},"coordinates":[43.21463,27.89422]},"dist":49.356,"tags_mismatch":false},{"osm":{"type":"node","id":12442402142,"tags":{"brand":"Billa","brand:wikidata":"Q537781","shop":"supermarket"},"wikidata":"Q537781","coordinates":[42.4996792,27.475053]},"atp":{"id":"9jreu9bG3j3O6dP8xIHJpSzXR1E=","tags":{"ref":"38-554","capacity:motorcar":"5","@source_uri":"https://www.billa.bg/api/stores","@spider":"billa","shop":"supermarket","addr:street":"Ул. Оборище","addr:city":"Бургас","addr:state":"Бургас","addr:postcode":"8000","addr:country":"BG","phone":"+359 56 599 350","opening_hours":"Mo-Su 07:30-22:00","brand":"Billa","brand:wikidata":"Q537781","nsi_id":"billa-3380c4"},"coordinates":[42.497575,27.476975]},"dist":282.088,"tags_mismatch":true},{"osm":{"type":"way","id":46838700,"tags":{"brand":"Billa","brand:wikidata":"Q537781","building":"retail","check_date":"2022-12-25","internet_access":"no","opening_hours":"Mo-Su 07:30-22:00","payment:mastercard":"yes","payment:visa":"yes","shop":"supermarket","website":"https://billa.bg","wheelchair":"yes"},"wikidata":"Q537781","coordinates":[43.4178403,24.6124769]},"atp":{"id":"XMcCS0Qzy4Z8w2rZfpCl7Q3szqY=","tags":{"ref":"38-702","capacity:motorcar":"125","@source_uri":"https://www.billa.bg/api/stores","@spider":"billa","shop":"supermarket","addr:street":"Ул.Асен Халачев 2","addr:city":"Плевен","addr:state":"Плевен","addr:postcode":"5805","addr:country":"BG","phone":"+359 64 885 510","opening_hours":"Mo-Su 07:30-22:00","brand":"Billa","brand:wikidata":"Q537781","nsi_id":"billa-3380c4"},"coordinates":[43.41775,24.61272]},"dist":22.053,"tags_mismatch":true},{"osm":{"type":"way","id":67711900,"tags":{"addr:city":"Стара Загора","addr:postcode":"6010","brand":"Billa","brand:wikidata":"Q537781","building":"yes","opening_hours":"Mo-Su 07:30-22:00","phone":"+359 42 613 320","shop":"supermarket"},"wikidata":"Q537781","coordinates":[42.419908,25.6083239]},"atp":{"id":"4nyhJ92gMBn9poA-78QbkFPZcEs=","tags":{"ref":"38-403","capacity:motorcar":"118","@source_uri":"https://www.billa.bg/api/stores","@spider":"billa","shop":"supermarket","addr:street":"Ул. Кап.Петко Войвода No:20","addr:city":"Стара Загора","addr:state":"Стара Загора","addr:postcode":"6010","addr:country":"BG","phone":"+359 42 613 320","opening_hours":"Mo-Su 07:30-22:00","brand":"Billa","brand:wikidata":"Q537781","nsi_id":"billa-3380c4"},"coordinates":[42.41985,25.608]},"dist":27.359,"tags_mismatch":false},{"osm":{"type":"way","id":76743142,"tags":{"addr:city":"Стара Загора","addr:housenumber":"218","addr:postcode":"6009","addr:street":"бул. Цар Симеон Велики","brand":"Billa","brand:wikidata":"Q537781","building":"retail","opening_hours":"Mo-Su 07:30-22:00","phone":"+359 42 280 310","ref:vatin":"BG130007884","shop":"supermarket","wheelchair":"yes"},"wikidata":"Q537781","coordinates":[42.4277457,25.6473559]},"atp":{"id":"PhdaifAkcteclrov6SaReoVYbyg=","tags":{"ref":"38-411","capacity:motorcar":"50","@source_uri":"https://www.billa.bg/api/stores","@spider":"billa","shop":"supermarket","addr:street":"Бул. Цар Симеон Велики 218","addr:city":"Стара Загора","addr:state":"Стара Загора","addr:postcode":"6009","addr:country":"BG","phone":"+359 42 280 310","opening_hours":"Mo-Su 07:30-22:00","brand":"Billa","brand:wikidata":"Q537781","nsi_id":"billa-3380c4"},"coordinates":[42.42782,25.64732]},"dist":8.771,"tags_mismatch":false},{"osm":{"type":"way","id":87408912,"tags":{"addr:city":"Пловдив","addr:housenumber":"2","addr:postcode":"4013","addr:street":"бул. Македония","brand":"Billa","brand:wikidata":"Q537781","building":"yes","opening_hours":"Mo-Su 07:30-22:00","phone":"+359 32 657 010","shop":"supermarket"},"wikidata":"Q537781","coordinates":[42.1332132,24.7439165]},"atp":{"id":"M3loUjTW_X4EIa_-YqUQG-C40RI=","tags":{"ref":"38-303","capacity:motorcar":"99","@source_uri":"https://www.billa.bg/api/stores","@spider":"billa","shop":"supermarket","addr:street":"Бул.Македония 2","addr:city":"Пловдив","addr:state":"Пловдив","addr:postcode":"4013","addr:country":"BG","phone":"+359 32 657 010","opening_hours":"Mo-Su 07:30-22:00","brand":"Billa","brand:wikidata":"Q537781","nsi_id":"billa-3380c4"},"coordinates":[42.13317,24.74417]},"dist":21.449,"tags_mismatch":false},{"osm":{"type":"way","id":88525244,"tags":{"addr:city":"София","addr:housenumber":"72","addr:postcode":"1336","addr:street":"бул. Царица Йоанна","brand":"Billa","brand:wikidata":"Q537781","building":"retail","contact:phone":"+359 2 921 4910","opening_hours":"Mo-Su 07:30-23:00","phone":"+359 2 921 4910","shop":"supermarket","website":"https://www.billa.bg/","wheelchair":"yes"},"wikidata":"Q537781","coordinates":[42.7197988,23.2566915]},"atp":{"id":"lDh1Ny4UJKX1mMSpTZ0AN-uSh-c=","tags":{"ref":"38-103","capacity:motorcar":"232","@source_uri":"https://www.billa.bg/api/stores","@spider":"billa","shop":"supermarket","addr:street":"Бул.Царица Йоана N72","addr:city":"София","addr:state":"София","addr:postcode":"1336","addr:country":"BG","phone":"+359 2 921 4910","opening_hours":"Mo-Su 07:30-23:00","brand":"Billa","brand:wikidata":"Q537781","nsi_id":"billa-3380c4"},"coordinates":[42.71972,23.2566]},"dist":11.517,"tags_mismatch":false},{"osm":{"type":"way","id":96054030,"tags":{"addr:city":"Ямбол","addr:country":"BG","addr:housenumber":"7","addr:postcode":"8600","addr:street":"Арда","brand":"Billa","brand:wikidata":"Q537781","building":"yes","opening_hours":"Mo-Su 07:30-22:00","phone":"+359 46 684 060","shop":"supermarket"},"wikidata":"Q537781","coordinates":[42.4876289,26.5018]},"atp":{"id":"wYWlOTezi0gySLFO5K_LSVVNuCM=","tags":{"ref":"38-404","capacity:motorcar":"67","@source_uri":"https://www.billa.bg/api/stores","@spider":"billa","shop":"supermarket","addr:street":"Ул. Арда 7","addr:city":"Ямбол","addr:state":"Ямбол","addr:postcode":"8600","addr:country":"BG","phone":"+359 46 684 060","opening_hours":"Mo-Su 07:30-22:00","brand":"Billa","brand:wikidata":"Q537781","nsi_id":"billa-3380c4"},"coordinates":[42.48762,26.50227]},"dist":38.552,"tags_mismatch":false},{"osm":{"type":"way","id":113522652,"tags":{"addr:city":"София","addr:housenumber":"12","addr:postcode":"1113","addr:street":"Фредерик Жолио Кюри","brand":"Billa","brand:wikidata":"Q537781","building":"retail","building:levels":"2","check_date":"2025-03-22","contact:phone":"+359 2 892 9010","opening_hours":"Mo-Su 07:30-22:00","payment:cash":"yes","payment:credit_cards":"yes","phone":"+359 2 892 9010","self_checkout":"yes","shop":"supermarket","website":"https://www.billa.bg/","wheelchair":"yes"},"wikidata":"Q537781","coordinates":[42.6752896,23.3576803]},"atp":{"id":"QeFUK-hRlVvMWVVhHC_EQCnTUks=","tags":{"ref":"38-141","capacity:motorcar":"0","@source_uri":"https://www.billa.bg/api/stores","@spider":"billa","shop":"supermarket","addr:street":"Бул. Цариградско Шосе 12","addr:city":"София","addr:state":"София","addr:postcode":"1113","addr:country":"BG","phone":"+359 2 892 9010","opening_hours":"Mo-Su 07:30-22:00","brand":"Billa","brand:wikidata":"Q537781","nsi_id":"billa-3380c4"},"coordinates":[42.67531,23.35777]},"dist":7.676,"tags_mismatch":false},{"osm":{"type":"way","id":137088198,"tags":{"addr:city":"Добрич","addr:postcode":"9300","brand":"Billa","brand:wikidata":"Q537781","building":"retail","building:levels":"2","opening_hours":"Mo-Su 07:30-21:00","phone":"+359 58 653 710","shop":"supermarket"},"wikidata":"Q537781","coordinates":[43.5691374,27.8307099]},"atp":{"id":"ZmLEmqf-RpxHaGs3QE5AA_VyX1s=","tags":{"ref":"38-614","capacity:motorcar":"50","@source_uri":"https://www.billa.bg/api/stores","@spider":"billa","shop":"supermarket","addr:street":"Площад Свобода 6","addr:city":"Добрич","addr:state":"Добрич","addr:postcode":"9300","addr:country":"BG","phone":"+359 58 653 710","opening_hours":"Mo-Su 07:30-21:00","brand":"Billa","brand:wikidata":"Q537781","nsi_id":"billa-3380c4"},"coordinates":[43.56922,27.83035]},"dist":30.415,"tags_mismatch":false},{"osm":{"type":"way","id":138916973,"tags":{"addr:city":"София","addr:housenumber":"4","addr:postcode":"1612","addr:street":"Софийски герой","branch":"Хиподрума","brand":"Billa","brand:wikidata":"Q537781","building":"retail","building:levels":"2","check_date":"2024-04-25","contact:phone":"+359 2 915 5910","internet_access":"no","opening_hours":"Mo-Su 07:30-23:00","payment:cash":"yes","payment:credit_cards":"yes","payment:debit_cards":"yes","payment:mastercard":"yes","payment:visa":"yes","phone":"+359 2 915 5910","self_checkout":"yes","shop":"supermarket","website":"https://www.billa.bg/","wheelchair":"yes"},"wikidata":"Q537781","coordinates":[42.6833796,23.2970225]},"atp":{"id":"1e3NdxqTfAmMJlV-3-nvRiII5XY=","tags":{"ref":"38-102","capacity:motorcar":"170","@source_uri":"https://www.billa.bg/api/stores","@spider":"billa","shop":"supermarket","addr:street":"Софийски Герой No:4","addr:city":"София","addr:state":"София","addr:postcode":"1612","addr:country":"BG","phone":"+359 2 915 5910","opening_hours":"Mo-Su 07:30-23:00","brand":"Billa","brand:wikidata":"Q537781","nsi_id":"billa-3380c4"},"coordinates":[42.6835,23.29718]},"dist":18.574,"tags_mismatch":false},{"osm":{"type":"way","id":139382731,"tags":{"addr:city":"Добрич","addr:postcode":"9300","brand":"Billa","brand:wikidata":"Q537781","building":"yes","opening_hours":"Mo-Su 07:30-22:00","phone":"+359 58 653 810","shop":"supermarket"},"wikidata":"Q537781","coordinates":[43.5644994,27.8211422]},"atp":{"id":"abJZsdck8lt-OasN5W4CUKUVguU=","tags":{"ref":"38-605","capacity:motorcar":"47","@source_uri":"https://www.billa.bg/api/stores","@spider":"billa","shop":"supermarket","addr:street":"Ул. Кирил И Методий 41","addr:city":"Добрич","addr:state":"Добрич","addr:postcode":"9300","addr:country":"BG","phone":"+359 58 653 810","opening_hours":"Mo-Su 07:30-22:00","brand":"Billa","brand:wikidata":"Q537781","nsi_id":"billa-3380c4"},"coordinates":[43.56471,27.82104]},"dist":24.823,"tags_mismatch":false},{"osm":{"type":"way","id":147855295,"tags":{"addr:city":"София","addr:housenumber":"171","addr:postcode":"1229","addr:street":"бул. Ломско шосе","addr:suburb":"ж.к. Връбница 1","branch":"Бели Дунав","brand":"Billa","brand:wikidata":"Q537781","building":"yes","opening_hours":"Mo-Su 07:30-22:00","phone":"+359 2 930 0060","shop":"supermarket","website":"https://www.billa.bg/","wheelchair":"yes"},"wikidata":"Q537781","coordinates":[42.7355808,23.2915402]},"atp":{"id":"1mUYHcCxHhJpRYJwR3rudHHRepQ=","tags":{"ref":"38-105","capacity:motorcar":"104","@source_uri":"https://www.billa.bg/api/stores","@spider":"billa","shop":"supermarket","addr:street":"Бул. Ломско Шосе 171","addr:city":"София","addr:state":"София","addr:postcode":"1229","addr:country":"BG","phone":"+359 2 930 0060","opening_hours":"Mo-Su 07:30-22:00","brand":"Billa","brand:wikidata":"Q537781","nsi_id":"billa-3380c4"},"coordinates":[42.7355683,23.2915926]},"dist":4.5,"tags_mismatch":false},{"osm":{"type":"way","id":159749546,"tags":{"addr:city":"Пловдив","addr:housenumber":"132А","addr:postcode":"4004","addr:street":"Димитър Талев","brand":"Billa","brand:wikidata":"Q537781","building":"yes","opening_hours":"Mo-Su 07:30-22:00","shop":"supermarket"},"wikidata":"Q537781","coordinates":[42.1188116,24.7349351]},"atp":{"id":"Nq7j2xVSdAvSjuJC0NQ_hC9V5Zg=","tags":{"ref":"38-315","capacity:motorcar":"0","@source_uri":"https://www.billa.bg/api/stores","@spider":"billa","shop":"supermarket","addr:street":"Ул. Димитър Талев 132а","addr:city":"Пловдив","addr:state":"Пловдив","addr:postcode":"4004","addr:country":"BG","phone":"+359 32 277 020","opening_hours":"Mo-Su 07:30-22:00","brand":"Billa","brand:wikidata":"Q537781","nsi_id":"billa-3380c4"},"coordinates":[42.11871,24.7351]},"dist":17.681,"tags_mismatch":true},{"osm":{"type":"way","id":160140394,"tags":{"addr:city":"Пазарджик","addr:housenumber":"1","addr:street":"Любен Боянов","brand":"Billa","brand:wikidata":"Q537781","building":"supermarket","int_name":"Billa","opening_hours":"Mo-Su 07:30-22:00","shop":"supermarket","wheelchair":"yes"},"wikidata":"Q537781","coordinates":[42.1865055,24.3200904]},"atp":{"id":"i5z5JXSxG1gKr1_zJ5W14MvLiJ8=","tags":{"ref":"38-301","capacity:motorcar":"294","@source_uri":"https://www.billa.bg/api/stores","@spider":"billa","shop":"supermarket","addr:street":"Любен Боянов 1","addr:city":"Пазарджик","addr:state":"Пазарджик","addr:postcode":"4400","addr:country":"BG","phone":"+359 34 405 410","opening_hours":"Mo-Su 07:30-22:00","brand":"Billa","brand:wikidata":"Q537781","nsi_id":"billa-3380c4"},"coordinates":[42.18673,24.32017]},"dist":25.81,"tags_mismatch":true},{"osm":{"type":"way","id":165879111,"tags":{"addr:city":"Перник","addr:postcode":"2300","brand":"Billa","brand:wikidata":"Q537781","building":"yes","opening_hours":"Mo-Su 07:30-22:00","phone":"+359 76 686 410","shop":"supermarket"},"wikidata":"Q537781","coordinates":[42.6095661,23.0996077]},"atp":{"id":"-mmNBtdVf1N9zIbdB1qIQkrAl_c=","tags":{"ref":"38-214","capacity:motorcar":"128","@source_uri":"https://www.billa.bg/api/stores","@spider":"billa","shop":"supermarket","addr:street":"Кв. Изток, Ул. Юрий Гагарин 1","addr:city":"Перник","addr:state":"Перник","addr:postcode":"2300","addr:country":"BG","phone":"+359 76 686 410","opening_hours":"Mo-Su 07:30-22:00","brand":"Billa","brand:wikidata":"Q537781","nsi_id":"billa-3380c4"},"coordinates":[42.61005,23.09966]},"dist":53.977,"tags_mismatch":false},{"osm":{"type":"way","id":166924258,"tags":{"addr:city":"София","addr:housenumber":"45","addr:postcode":"1000","addr:street":"Александър Екзарх","brand":"Billa","brand:wikidata":"Q537781","building":"yes","building:levels":"1","internet_access":"wlan","opening_hours":"Mo-Su 07:30-22:00","roof:shape":"flat","shop":"supermarket"},"wikidata":"Q537781","coordinates":[42.7025445,23.3592527]},"atp":{"id":"m00XPHpDfO_FaUSUqQ_H9cHroZI=","tags":{"ref":"38-274","@source_uri":"https://www.billa.bg/api/stores","@spider":"billa","shop":"supermarket","addr:street":"Ул. Александър Екзарх 45","addr:city":"София","addr:state":"София","addr:postcode":"1000","addr:country":"BG","opening_hours":"Mo-Su 07:30-22:00","brand":"Billa","brand:wikidata":"Q537781","nsi_id":"billa-3380c4"},"coordinates":[42.702502,23.359401]},"dist":13.007,"tags_mismatch":false},{"osm":{"type":"way","id":168596894,"tags":{"addr:city":"Пазарджик","addr:housenumber":"12","addr:postcode":"4400","addr:street":"Георги Бенковски","brand":"Billa","brand:wikidata":"Q537781","building":"supermarket","opening_hours":"Mo-Su 07:30-22:00","phone":"+359 434 050 10","shop":"supermarket","wheelchair":"yes"},"wikidata":"Q537781","coordinates":[42.1961365,24.3348421]},"atp":{"id":"t9WQuirT9lfmGH9WVdawVaq7ngw=","tags":{"ref":"38-328","capacity:motorcar":"77","@source_uri":"https://www.billa.bg/api/stores","@spider":"billa","shop":"supermarket","addr:street":"Бул. Георги Бенковски 12","addr:city":"Пазарджик","addr:state":"Пазарджик","addr:postcode":"4400","addr:country":"BG","phone":"+359 434 050 10","opening_hours":"Mo-Su 07:30-22:00","brand":"Billa","brand:wikidata":"Q537781","nsi_id":"billa-3380c4"},"coordinates":[42.1961236,24.3348001]},"dist":3.745,"tags_mismatch":false},{"osm":{"type":"way","id":184060391,"tags":{"addr:city":"Разград","addr:postcode":"7200","brand":"Billa","brand:wikidata":"Q537781","building":"yes","opening_hours":"Mo-Su 07:30-22:00","phone":"+359 84 616 060","shop":"supermarket"},"wikidata":"Q537781","coordinates":[43.5296364,26.5208827]},"atp":{"id":"chaSZa-PW1FabAM5kjm88DodlWw=","tags":{"ref":"38-604","capacity:motorcar":"56","@source_uri":"https://www.billa.bg/api/stores","@spider":"billa","shop":"supermarket","addr:street":"Ул. Дунав 40","addr:city":"Разград","addr:state":"Разград","addr:postcode":"7200","addr:country":"BG","phone":"+359 84 616 060","opening_hours":"Mo-Su 07:30-22:00","brand":"Billa","brand:wikidata":"Q537781","nsi_id":"billa-3380c4"},"coordinates":[43.52965,26.52083]},"dist":4.51,"tags_mismatch":false},{"osm":{"type":"way","id":206514351,"tags":{"addr:city":"Самоков","addr:housenumber":"2","addr:postcode":"2000","addr:street":"Искър","brand":"Billa","brand:wikidata":"Q537781","building":"supermarket","check_date":"2024-02-25","internet_access":"wlan","internet_access:fee":"customers","opening_hours":"Mo-Su 07:30-22:00","payment:cash":"yes","payment:credit_cards":"yes","payment:debit_cards":"yes","phone":"+359 72 268 870","shop":"supermarket","website":"https://billa.bg","wheelchair":"yes"},"wikidata":"Q537781","coordinates":[42.334832,23.5551326]},"atp":{"id":"jN-AbTokGwU7xmMhP7q5QrafTsk=","tags":{"ref":"38-207","capacity:motorcar":"63","@source_uri":"https://www.billa.bg/api/stores","@spider":"billa","shop":"supermarket","addr:street":"Ул. Искър 2","addr:city":"Самоков","addr:state":"София-област","addr:postcode":"2000","addr:country":"BG","phone":"+359 72 268 870","opening_hours":"Mo-Su 07:30-22:00","brand":"Billa","brand:wikidata":"Q537781","nsi_id":"billa-3380c4"},"coordinates":[42.3348514,23.5553975]},"dist":21.881,"tags_mismatch":false},{"osm":{"type":"way","id":207275535,"tags":{"addr:city":"София","addr:housenumber":"18","addr:postcode":"1225","addr:street":"Железопътна","brand":"Billa","brand:wikidata":"Q537781","building":"yes","opening_hours":"Mo-Su 07:30-22:00","phone":"+359 2 902 3310","shop":"supermarket","website":"https://www.billa.bg/"},"wikidata":"Q537781","coordinates":[42.7182548,23.3433919]},"atp":{"id":"QeugFqGGZyT-nkWgi-y8bIS5TAo=","tags":{"ref":"38-117","capacity:motorcar":"40","@source_uri":"https://www.billa.bg/api/stores","@spider":"billa","shop":"supermarket","addr:street":"Ул. Железопътна 18","addr:city":"София","addr:state":"София","addr:postcode":"1225","addr:country":"BG","phone":"+359 2 902 3310","opening_hours":"Mo-Su 07:30-22:00","brand":"Billa","brand:wikidata":"Q537781","nsi_id":"billa-3380c4"},"coordinates":[42.718117,23.343443]},"dist":15.881,"tags_mismatch":false},{"osm":{"type":"way","id":212735376,"tags":{"addr:city":"Русе","addr:postcode":"7005","brand":"Billa","brand:wikidata":"Q537781","building":"retail","building:levels":"1","opening_hours":"Mo-Su 07:30-22:00","phone":"+359 82 299 260","shop":"supermarket"},"wikidata":"Q537781","coordinates":[43.8539909,25.9787659]},"atp":{"id":"LJwAY4-OwnaDlHM4bc89n5lPd3k=","tags":{"ref":"38-621","@source_uri":"https://www.billa.bg/api/stores","@spider":"billa","shop":"supermarket","addr:street":"Ул. Тулча 19","addr:city":"Русе","addr:state":"Русе","addr:postcode":"7005","addr:country":"BG","phone":"+359 82 299 260","opening_hours":"Mo-Su 07:30-22:00","brand":"Billa","brand:wikidata":"Q537781","nsi_id":"billa-3380c4"},"coordinates":[43.853893,25.978971]},"dist":19.722,"tags_mismatch":false},{"osm":{"type":"way","id":221188178,"tags":{"addr:city":"София","addr:housenumber":"14","addr:postcode":"1715","addr:street":"Проф. Александър Танев","addr:suburb":"ж.к. Младост 4","brand":"Billa","brand:wikidata":"Q537781","building":"retail","building:levels":"1","check_date":"2024-08-28","contact:phone":"+359 2 976 8060","internet_access":"no","opening_hours":"Mo-Su 07:30-22:00","payment:mastercard":"yes","payment:visa":"yes","phone":"+359 2 976 8060","shop":"supermarket","website":"https://www.billa.bg/","wheelchair":"yes"},"wikidata":"Q537781","coordinates":[42.6298091,23.3810285]},"atp":{"id":"7w6odQ_80yTyT4cWYgwj5f2LluA=","tags":{"ref":"38-123","capacity:motorcar":"40","@source_uri":"https://www.billa.bg/api/stores","@spider":"billa","shop":"supermarket","addr:street":"Жк. Младост 4, Ул. 406-Та N 14","addr:city":"София","addr:state":"София","addr:postcode":"1715","addr:country":"BG","phone":"+359 2 976 8060","opening_hours":"Mo-Su 07:30-22:00","brand":"Billa","brand:wikidata":"Q537781","nsi_id":"billa-3380c4"},"coordinates":[42.62978,23.38105]},"dist":3.683,"tags_mismatch":false},{"osm":{"type":"way","id":230957147,"tags":{"addr:housenumber":"7","addr:street":"пл. Свобода","brand":"Billa","brand:wikidata":"Q537781","building":"retail","building:levels":"9","building:part":"yes","opening_hours":"Mo-Su 07:30-21:00","shop":"supermarket"},"wikidata":"Q537781","coordinates":[43.8487028,25.9552138]},"atp":{"id":"oU6dYH3MfITYZALS0fES8O4lAaQ=","tags":{"ref":"38-613","capacity:motorcar":"0","@source_uri":"https://www.billa.bg/api/stores","@spider":"billa","shop":"supermarket","addr:street":"Площад Свобода 7","addr:city":"Русе","addr:state":"Русе","addr:postcode":"7000","addr:country":"BG","phone":"+359 82 815 470","opening_hours":"Mo-Su 07:30-21:00","brand":"Billa","brand:wikidata":"Q537781","nsi_id":"billa-3380c4"},"coordinates":[43.8486,25.95488]},"dist":29.106,"tags_mismatch":true},{"osm":{"type":"way","id":237730268,"tags":{"addr:city":"Нова Загора","addr:housenumber":"68","addr:postcode":"8900","addr:street":"Ангел Кънчев","brand":"Billa","brand:wikidata":"Q537781","building":"retail","building:levels":"1","diet:halal":"no","diet:kosher":"no","note":"Билла 405","opening_hours":"Mo-Su 07:30-22:00","phone":"+359 45 761 210","roof:shape":"flat","shop":"supermarket","wheelchair":"yes"},"wikidata":"Q537781","coordinates":[42.4999784,26.0111465]},"atp":{"id":"evIIetHfFQr63RBIpRj274Dzvfo=","tags":{"ref":"38-405","capacity:motorcar":"70","@source_uri":"https://www.billa.bg/api/stores","@spider":"billa","shop":"supermarket","addr:street":"Ул. Ангел Кънчев 68","addr:city":"Нова Загора","addr:state":"Стара Загора","addr:postcode":"8900","addr:country":"BG","phone":"+359 45 761 210","opening_hours":"Mo-Su 07:30-22:00","brand":"Billa","brand:wikidata":"Q537781","nsi_id":"billa-3380c4"},"coordinates":[42.50009,26.0111605]},"dist":12.462,"tags_mismatch":false},{"osm":{"type":"way","id":238503583,"tags":{"addr:city":"Русе","addr:postcode":"7000","brand":"Billa","brand:wikidata":"Q537781","building":"yes","opening_hours":"Mo-Su 07:30-22:00","phone":"+359 82 818 730","roof:colour":"maroon","roof:height":"3","roof:material":"roof_tiles","roof:shape":"hipped","shop":"supermarket"},"wikidata":"Q537781","coordinates":[43.8306864,25.9510776]},"atp":{"id":"MMyQ28NzWcfoxoHFF8rz21IDySU=","tags":{"ref":"38-622","capacity:motorcar":"66","@source_uri":"https://www.billa.bg/api/stores","@spider":"billa","shop":"supermarket","addr:street":"Ул. Стефан Стамболов 99","addr:city":"Русе","addr:state":"Русе","addr:postcode":"7000","addr:country":"BG","phone":"+359 82 818 730","opening_hours":"Mo-Su 07:30-22:00","brand":"Billa","brand:wikidata":"Q537781","nsi_id":"billa-3380c4"},"coordinates":[43.830673,25.950897]},"dist":14.563,"tags_mismatch":false},{"osm":{"type":"way","id":247420497,"tags":{"addr:city":"Кърджали","addr:housenumber":"115","addr:postcode":"6610","addr:street":"бул. България","brand":"Billa","brand:wikidata":"Q537781","building":"yes","building:levels":"1","opening_hours":"Mo-Su 07:30-22:00","phone":"+359 361 21 010","shop":"supermarket"},"wikidata":"Q537781","coordinates":[41.6337387,25.3803879]},"atp":{"id":"7jIu8UfU-CtEW9ntL9SWJuBViLY=","tags":{"ref":"38-408","capacity:motorcar":"104","@source_uri":"https://www.billa.bg/api/stores","@spider":"billa","shop":"supermarket","addr:street":"Бул. България 115","addr:city":"Кърджали","addr:state":"Кърджали","addr:postcode":"6610","addr:country":"BG","phone":"+359 36 121 010","opening_hours":"Mo-Su 07:30-22:00","brand":"Billa","brand:wikidata":"Q537781","nsi_id":"billa-3380c4"},"coordinates":[41.63373,25.38035]},"dist":3.295,"tags_mismatch":true},{"osm":{"type":"way","id":249595592,"tags":{"addr:city":"Смолян","addr:postcode":"4700","brand":"Billa","brand:wikidata":"Q537781","building":"yes","opening_hours":"Mo-Su 07:30-22:00","phone":"+359 30 127 010","shop":"supermarket"},"wikidata":"Q537781","coordinates":[41.5758438,24.7063095]},"atp":{"id":"IGLU3syFf2mGNWdGwMYAWJJoqvk=","tags":{"ref":"38-312","capacity:motorcar":"29","@source_uri":"https://www.billa.bg/api/stores","@spider":"billa","shop":"supermarket","addr:street":"Бул. България 11","addr:city":"Смолян","addr:state":"Смолян","addr:postcode":"4700","addr:country":"BG","phone":"+359 30 127 010","opening_hours":"Mo-Su 07:30-22:00","brand":"Billa","brand:wikidata":"Q537781","nsi_id":"billa-3380c4"},"coordinates":[41.57594,24.70613]},"dist":18.368,"tags_mismatch":false},{"osm":{"type":"way","id":258548985,"tags":{"addr:city":"Шумен","addr:housenumber":"34","addr:postcode":"9700","addr:street":"бул. Симеон Велики","air_conditioning":"yes","brand":"Billa","brand:wikidata":"Q537781","building":"yes","building:levels":"1","currency:BGN":"yes","opening_hours":"Mo-Su 07:30-22:00","payment:cash":"yes","payment:contactless":"yes","payment:credit_cards":"yes","payment:debit_cards":"yes","payment:mastercard":"yes","payment:visa":"yes","phone":"+359 54 850 660","shop":"supermarket","website":"https://www.billa.bg/","wheelchair":"yes"},"wikidata":"Q537781","coordinates":[43.2749718,26.936836]},"atp":{"id":"HyfvHcx4FJU_ZpStFNMHYXYjEzk=","tags":{"ref":"38-601","capacity:motorcar":"219","@source_uri":"https://www.billa.bg/api/stores","@spider":"billa","shop":"supermarket","addr:street":"Бул.Симеон Велики No:34","addr:city":"Шумен","addr:state":"Шумен","addr:postcode":"9700","addr:country":"BG","phone":"+359 54 850 660","opening_hours":"Mo-Su 07:30-22:00","brand":"Billa","brand:wikidata":"Q537781","nsi_id":"billa-3380c4"},"coordinates":[43.27484,26.93675]},"dist":16.225,"tags_mismatch":false},{"osm":{"type":"way","id":275265609,"tags":{"addr:city":"Пещера","addr:housenumber":"406","addr:postcode":"4550","addr:street":"Георги Кьосеиванов","brand":"Billa","brand:wikidata":"Q537781","building":"retail","int_name":"Billa","opening_hours":"Mo-Su 07:30-22:00","phone":"+359 35 060 660","shop":"supermarket"},"wikidata":"Q537781","coordinates":[42.0322151,24.3052933]},"atp":{"id":"I8hUtmg6chvxCDHi-Q9ag2spJ0k=","tags":{"ref":"38-309","capacity:motorcar":"41","@source_uri":"https://www.billa.bg/api/stores","@spider":"billa","shop":"supermarket","addr:street":"Ул. Георги Кьосеиванов 40б","addr:city":"Пещера","addr:state":"Пазарджик","addr:postcode":"4550","addr:country":"BG","phone":"+359 35 060 660","opening_hours":"Mo-Su 07:30-22:00","brand":"Billa","brand:wikidata":"Q537781","nsi_id":"billa-3380c4"},"coordinates":[42.032238,24.305188]},"dist":9.062,"tags_mismatch":false},{"osm":{"type":"way","id":284577264,"tags":{"addr:city":"Асеновград","addr:postcode":"4230","brand":"Billa","brand:wikidata":"Q537781","building":"supermarket","opening_hours":"Mo-Su 07:30-22:00","phone":"+359 33 120 520","shop":"supermarket"},"wikidata":"Q537781","coordinates":[42.0129337,24.8717853]},"atp":{"id":"jQyF0xbrKBOyVbeuuVeTL-JL2-c=","tags":{"ref":"38-317","capacity:motorcar":"35","@source_uri":"https://www.billa.bg/api/stores","@spider":"billa","shop":"supermarket","addr:street":"Бул. Васил Левски 16","addr:city":"Асеновград","addr:state":"Пловдив","addr:postcode":"4230","addr:country":"BG","phone":"+359 33 120 520","opening_hours":"Mo-Su 07:30-22:00","brand":"Billa","brand:wikidata":"Q537781","nsi_id":"billa-3380c4"},"coordinates":[42.0129421,24.8716741]},"dist":9.234,"tags_mismatch":false},{"osm":{"type":"way","id":291142364,"tags":{"addr:city":"Сливен","addr:housenumber":"27","addr:postcode":"8801","addr:street":"бул. Братя Миладинови","brand":"Billa","brand:wikidata":"Q537781","building":"yes","opening_hours":"Mo-Su 07:30-22:00","phone":"+359 44 610 710","shop":"supermarket"},"wikidata":"Q537781","coordinates":[42.6757521,26.3211538]},"atp":{"id":"qEU6kCPIgf9CJz9mJNyICz3KlDY=","tags":{"ref":"38-401","capacity:motorcar":"301","@source_uri":"https://www.billa.bg/api/stores","@spider":"billa","shop":"supermarket","addr:street":"Ул. Братя Миладинови N 25","addr:city":"Сливен","addr:state":"Сливен","addr:postcode":"8801","addr:country":"BG","phone":"+359 44 610 710","opening_hours":"Mo-Su 07:30-22:00","brand":"Billa","brand:wikidata":"Q537781","nsi_id":"billa-3380c4"},"coordinates":[42.67614,26.32105]},"dist":43.959,"tags_mismatch":false},{"osm":{"type":"way","id":299121993,"tags":{"addr:city":"София","addr:postcode":"1836","addr:street":"бул. Владимир Вазов","brand":"Billa","brand:wikidata":"Q537781","building":"retail","opening_hours":"Mo-Su 07:30-22:00","phone":"+359 2 801 3960","shop":"supermarket","website":"https://www.billa.bg/"},"wikidata":"Q537781","coordinates":[42.7100312,23.3808479]},"atp":{"id":"dcFvua5ev7KV3MF6qAUMB6lmWGc=","tags":{"ref":"38-115","capacity:motorcar":"42","@source_uri":"https://www.billa.bg/api/stores","@spider":"billa","shop":"supermarket","addr:street":"Бул. Владимир Вазов 70","addr:city":"София","addr:state":"София","addr:postcode":"1836","addr:country":"BG","phone":"+359 2 801 3960","opening_hours":"Mo-Su 07:30-22:00","brand":"Billa","brand:wikidata":"Q537781","nsi_id":"billa-3380c4"},"coordinates":[42.71017,23.38088]},"dist":15.655,"tags_mismatch":false},{"osm":{"type":"way","id":339184765,"tags":{"addr:city":"София","addr:housenumber":"104","addr:postcode":"1359","addr:street":"бул. Д-р Петър Дертлиев","brand":"Billa","brand:wikidata":"Q537781","building":"yes","building:levels":"1","opening_hours":"Mo-Su 07:30-22:00","phone":"+359 2 904 0960","shop":"supermarket","website":"https://www.billa.bg/"},"wikidata":"Q537781","coordinates":[42.7132431,23.239909]},"atp":{"id":"EYnsyVc4JC6bmgIg8BZpUPEvEOA=","tags":{"ref":"38-195","capacity:motorcar":"43","@source_uri":"https://www.billa.bg/api/stores","@spider":"billa","shop":"supermarket","addr:street":"Бул. Д-Р Петър Дертлиев 104","addr:city":"София","addr:state":"София","addr:postcode":"1359","addr:country":"BG","phone":"+359 2 904 0960","opening_hours":"Mo-Su 07:30-22:00","brand":"Billa","brand:wikidata":"Q537781","nsi_id":"billa-3380c4"},"coordinates":[42.7130799,23.2398363]},"dist":19.094,"tags_mismatch":false},{"osm":{"type":"way","id":343719861,"tags":{"addr:city":"Велинград","addr:postcode":"4600","brand":"Billa","brand:wikidata":"Q537781","building":"yes","opening_hours":"Mo-Su 07:30-22:00","phone":"+359 35 920 060","shop":"supermarket"},"wikidata":"Q537781","coordinates":[42.0237639,23.9953638]},"atp":{"id":"EqMrQLlVquvZtSihy_op6Xiuzao=","tags":{"ref":"38-325","capacity:motorcar":"64","@source_uri":"https://www.billa.bg/api/stores","@spider":"billa","shop":"supermarket","addr:street":"Ул. Патриарх Евтимий 2б","addr:city":"Велинград","addr:state":"Пазарджик","addr:postcode":"4600","addr:country":"BG","phone":"+359 35 920 060","opening_hours":"Mo-Su 07:30-22:00","brand":"Billa","brand:wikidata":"Q537781","nsi_id":"billa-3380c4"},"coordinates":[42.0234654,23.9948622]},"dist":53.089,"tags_mismatch":false},{"osm":{"type":"way","id":406286315,"tags":{"brand":"Billa","brand:wikidata":"Q537781","building":"yes","check_date:opening_hours":"2024-07-27","nonsquare":"yes","opening_hours":"Mo-Su 07:30-22:00","self_checkout":"yes","shop":"supermarket"},"wikidata":"Q537781","coordinates":[42.6143929,23.3391721]},"atp":{"id":"yd4lgVeQwVZcw1IeNizoSBNPp50=","tags":{"ref":"38-174","capacity:motorcar":"27","@source_uri":"https://www.billa.bg/api/stores","@spider":"billa","shop":"supermarket","addr:street":"Бул. Симеоновско Шосе 211","addr:city":"София","addr:state":"София","addr:postcode":"1000","addr:country":"BG","phone":"+359 2 904 5060","opening_hours":"Mo-Su 07:30-22:00","brand":"Billa","brand:wikidata":"Q537781","nsi_id":"billa-3380c4"},"coordinates":[42.6144215,23.3391209]},"dist":5.26,"tags_mismatch":true},{"osm":{"type":"way","id":413357323,"tags":{"addr:city":"Кюстендил","addr:postcode":"2500","brand":"Billa","brand:wikidata":"Q537781","building":"yes","building:levels":"3","opening_hours":"Mo-Su 07:30-22:00","phone":"+359 78 538 010","shop":"supermarket"},"wikidata":"Q537781","coordinates":[42.2797345,22.6900615]},"atp":{"id":"opXN4BUEXA0bixRTAdOoazFZLZA=","tags":{"ref":"38-221","@source_uri":"https://www.billa.bg/api/stores","@spider":"billa","shop":"supermarket","addr:street":"Ул. Пауталия 10","addr:city":"Кюстендил","addr:state":"Кюстендил","addr:postcode":"2500","addr:country":"BG","phone":"+359 78 538 010","opening_hours":"Mo-Su 07:30-22:00","brand":"Billa","brand:wikidata":"Q537781","nsi_id":"billa-3380c4"},"coordinates":[42.2798,22.6902802]},"dist":19.411,"tags_mismatch":false},{"osm":{"type":"way","id":428993875,"tags":{"addr:city":"София","addr:housenumber":"96","addr:postcode":"1618","addr:street":"бул. Братя Бъкстон","brand":"Billa","brand:wikidata":"Q537781","building":"yes","building:levels":"1","opening_hours":"Mo-Su 07:30-22:00","phone":"+359 2 903 6260","self_checkout":"yes","shop":"supermarket","website":"https://www.billa.bg/"},"wikidata":"Q537781","coordinates":[42.6585775,23.2716389]},"atp":{"id":"PXC6aNrBvrmBzHyIKbv5HpgDLP4=","tags":{"ref":"38-155","capacity:motorcar":"62","@source_uri":"https://www.billa.bg/api/stores","@spider":"billa","shop":"supermarket","addr:street":"Бул. Братя Бъкстон 96","addr:city":"София","addr:state":"София","addr:postcode":"1618","addr:country":"BG","phone":"+359 2 903 6260","opening_hours":"Mo-Su 07:30-22:00","brand":"Billa","brand:wikidata":"Q537781","nsi_id":"billa-3380c4"},"coordinates":[42.6585714,23.2722066]},"dist":46.428,"tags_mismatch":false},{"osm":{"type":"way","id":442772485,"tags":{"addr:city":"Варна","addr:postcode":"9000","brand":"Billa","brand:wikidata":"Q537781","building":"yes","opening_hours":"Mo-Su 07:30-22:00","phone":"+359 52 705 930","shop":"supermarket"},"wikidata":"Q537781","coordinates":[43.227042,27.9185567]},"atp":{"id":"R5Z1Rhx--aHMPiv9HocKfdxbzow=","tags":{"ref":"38-534","capacity:motorcar":"65","@source_uri":"https://www.billa.bg/api/stores","@spider":"billa","shop":"supermarket","addr:street":"Ул. Подвис 25","addr:city":"Варна","addr:state":"Варна","addr:postcode":"9000","addr:country":"BG","phone":"+359 52 705 930","opening_hours":"Mo-Su 07:30-22:00","brand":"Billa","brand:wikidata":"Q537781","nsi_id":"billa-3380c4"},"coordinates":[43.227154,27.918432]},"dist":16.037,"tags_mismatch":false},{"osm":{"type":"way","id":468098039,"tags":{"addr:city":"Ловеч","addr:housenumber":"30","addr:postcode":"5501","addr:street":"Съйко Съев","brand":"Billa","brand:wikidata":"Q537781","building":"yes","opening_hours":"Mo-Su 07:30-22:00","phone":"+359 68 689 710","shop":"supermarket"},"wikidata":"Q537781","coordinates":[43.1348081,24.7093361]},"atp":{"id":"EYpl96OYv1-EjhAOY6buYlmic7Y=","tags":{"ref":"38-704","capacity:motorcar":"60","@source_uri":"https://www.billa.bg/api/stores","@spider":"billa","shop":"supermarket","addr:street":"Ул. Д-Р Съйко Съев 30","addr:city":"Ловеч","addr:state":"Ловеч","addr:postcode":"5501","addr:country":"BG","phone":"+359 68 689 710","opening_hours":"Mo-Su 07:30-22:00","brand":"Billa","brand:wikidata":"Q537781","nsi_id":"billa-3380c4"},"coordinates":[43.134745,24.709437]},"dist":10.783,"tags_mismatch":false},{"osm":{"type":"way","id":469477820,"tags":{"addr:city":"Габрово","addr:housenumber":"119","addr:postcode":"5308","addr:street":"Орловска","addr:street:en":"Orlovska","brand":"Billa","brand:wikidata":"Q537781","building":"commercial","building:levels":"1","note:cadastre:building_use":"Сграда за тьрговия","opening_hours":"Mo-Su 07:30-22:00","phone":"+359 66 816 010","shop":"supermarket","website":"https://www.billa.bg/","wheelchair":"yes"},"wikidata":"Q537781","coordinates":[42.8809343,25.3201218]},"atp":{"id":"Rbk16IHgC8odA7IuoMM1vjDDoos=","tags":{"ref":"38-701","capacity:motorcar":"91","@source_uri":"https://www.billa.bg/api/stores","@spider":"billa","shop":"supermarket","addr:street":"Ул. Орловска 119","addr:city":"Габрово","addr:state":"Габрово","addr:postcode":"5308","addr:country":"BG","phone":"+359 66 816 010","opening_hours":"Mo-Su 07:30-22:00","brand":"Billa","brand:wikidata":"Q537781","nsi_id":"billa-3380c4"},"coordinates":[42.88085,25.32037]},"dist":22.29,"tags_mismatch":false},{"osm":{"type":"way","id":502183159,"tags":{"addr:city":"София","addr:housenumber":"1","addr:postcode":"1407","addr:street":"Сердикийски събор","brand":"Billa","brand:wikidata":"Q537781","building":"retail","opening_hours":"Mo-Su 07:30-22:00","phone":"+359 2 902 0210","self_checkout":"yes","shop":"supermarket"},"wikidata":"Q537781","coordinates":[42.6693092,23.3133325]},"atp":{"id":"oPg1shVcYPy-Wuvs9hGhzH1lWXs=","tags":{"ref":"38-145","capacity:motorcar":"39","@source_uri":"https://www.billa.bg/api/stores","@spider":"billa","shop":"supermarket","addr:street":"Ул. Сердикийски Събор 1","addr:city":"София","addr:state":"София","addr:postcode":"1407","addr:country":"BG","phone":"+359 2 902 0210","opening_hours":"Mo-Su 07:30-22:00","brand":"Billa","brand:wikidata":"Q537781","nsi_id":"billa-3380c4"},"coordinates":[42.6693528,23.3134586]},"dist":11.393,"tags_mismatch":false},{"osm":{"type":"way","id":509179343,"tags":{"addr:city":"Перник","addr:postcode":"2300","brand":"Billa","brand:wikidata":"Q537781","building":"yes","opening_hours":"Mo-Su 07:30-22:00","phone":"+359 76 688 510","shop":"supermarket","website":"https://www.billa.bg/"},"wikidata":"Q537781","coordinates":[42.6103445,23.0416718]},"atp":{"id":"1rk3Oa2k1z0POLt-E7jXeswu310=","tags":{"ref":"38-201","capacity:motorcar":"64","@source_uri":"https://www.billa.bg/api/stores","@spider":"billa","shop":"supermarket","addr:street":"Ул. Св.Св.Кирил И Методий 29","addr:city":"Перник","addr:state":"Перник","addr:postcode":"2300","addr:country":"BG","phone":"+359 76 688 510","opening_hours":"Mo-Su 07:30-22:00","brand":"Billa","brand:wikidata":"Q537781","nsi_id":"billa-3380c4"},"coordinates":[42.61043,23.04154]},"dist":14.378,"tags_mismatch":false},{"osm":{"type":"way","id":589617817,"tags":{"addr:city":"София","addr:housenumber":"22","addr:postcode":"1582","addr:street":"бул. Копенхаген","brand":"Billa","brand:wikidata":"Q537781","building":"retail","opening_hours":"Mo-Su 07:30-22:00","phone":"+359 2 907 8270","shop":"supermarket","website":"https://www.billa.bg/"},"wikidata":"Q537781","coordinates":[42.6468144,23.4041967]},"atp":{"id":"XHxd6xlbPwU3vz0_kACOAlPfSHo=","tags":{"ref":"38-132","capacity:motorcar":"40","@source_uri":"https://www.billa.bg/api/stores","@spider":"billa","shop":"supermarket","addr:street":"Бул. Копенхаген 22","addr:city":"София","addr:state":"София","addr:postcode":"1582","addr:country":"BG","phone":"+359 2 907 8270","opening_hours":"Mo-Su 07:30-22:00","brand":"Billa","brand:wikidata":"Q537781","nsi_id":"billa-3380c4"},"coordinates":[42.646859,23.403873]},"dist":26.935,"tags_mismatch":false},{"osm":{"type":"way","id":627544011,"tags":{"addr:city":"Враца","addr:country":"BG","addr:housenumber":"12A","addr:neighbourhood":"кв. Медковец","addr:postcode":"3000","addr:street":"Кръстьо Бързаков","air_conditioning":"yes","brand":"Billa","brand:wikidata":"Q537781","building":"yes","currency:BGN":"yes","internet_access":"no","opening_hours":"Mo-Su 07:30-22:00","payment:cash":"yes","payment:contactless":"yes","payment:coupon":"yes","payment:credit_cards":"yes","phone":"+359 92 678 270","shop":"supermarket","stroller":"yes"},"wikidata":"Q537781","coordinates":[43.1944824,23.5664988]},"atp":{"id":"ROJAyziluAegjWqR8oIkaVOHG2Q=","tags":{"ref":"38-812","capacity:motorcar":"119","@source_uri":"https://www.billa.bg/api/stores","@spider":"billa","shop":"supermarket","addr:street":"Ул. Кръстьо Бързаков 14 А","addr:city":"Враца","addr:state":"Враца","addr:postcode":"3000","addr:country":"BG","phone":"+359 92 678 270","opening_hours":"Mo-Su 07:30-22:00","brand":"Billa","brand:wikidata":"Q537781","nsi_id":"billa-3380c4"},"coordinates":[43.19396,23.56704]},"dist":72.795,"tags_mismatch":false},{"osm":{"type":"way","id":685966068,"tags":{"addr:city":"Монтана","addr:postcode":"3400","brand":"Billa","brand:wikidata":"Q537781","building":"yes","opening_hours":"Mo-Su 07:30-22:00","phone":"+359 96 393 310","shop":"supermarket"},"wikidata":"Q537781","coordinates":[43.4095885,23.2270494]},"atp":{"id":"ZQXB1UKJOyHzD022HnOdXPNls-I=","tags":{"ref":"38-803","capacity:motorcar":"72","@source_uri":"https://www.billa.bg/api/stores","@spider":"billa","shop":"supermarket","addr:street":"Ул. Св. Климент Охридски 5","addr:city":"Монтана","addr:state":"Монтана","addr:postcode":"3400","addr:country":"BG","phone":"+359 96 393 310","opening_hours":"Mo-Su 07:30-22:00","brand":"Billa","brand:wikidata":"Q537781","nsi_id":"billa-3380c4"},"coordinates":[43.40965,23.22706]},"dist":6.892,"tags_mismatch":false},{"osm":{"type":"way","id":686131347,"tags":{"addr:city":"Монтана","addr:postcode":"3400","brand":"Billa","brand:wikidata":"Q537781","building":"yes","opening_hours":"Mo-Su 07:30-22:00","phone":"+359 96 399 550","shop":"supermarket"},"wikidata":"Q537781","coordinates":[43.4198583,23.2222489]},"atp":{"id":"-pkEdaiKDR4hW-xZAjPv5W1sR6c=","tags":{"ref":"38-810","capacity:motorcar":"80","@source_uri":"https://www.billa.bg/api/stores","@spider":"billa","shop":"supermarket","addr:street":"Бул. Акад. И. Дуриданов 2","addr:city":"Монтана","addr:state":"Монтана","addr:postcode":"3400","addr:country":"BG","phone":"+359 96 399 550","opening_hours":"Mo-Su 07:30-22:00","brand":"Billa","brand:wikidata":"Q537781","nsi_id":"billa-3380c4"},"coordinates":[43.419508,23.221827]},"dist":51.752,"tags_mismatch":false},{"osm":{"type":"way","id":798857475,"tags":{"addr:city":"Петрич","addr:postcode":"2850","brand":"Billa","brand:wikidata":"Q537781","building":"yes","capacity":"20","fee":"yes","opening_hours":"Mo-Su 07:30-22:00","parking":"surface","shop":"supermarket","surface":"dirt"},"wikidata":"Q537781","coordinates":[41.3950059,23.2062734]},"atp":{"id":"o54ghA2J5r6LE-r2oGxYVRI0Lyg=","tags":{"ref":"38-227","capacity:motorcar":"20","@source_uri":"https://www.billa.bg/api/stores","@spider":"billa","shop":"supermarket","addr:street":"Ул. Връх Китка 2a","addr:city":"Петрич","addr:state":"Благоевград","addr:postcode":"2850","addr:country":"BG","opening_hours":"Mo-Su 07:30-22:00","brand":"Billa","brand:wikidata":"Q537781","nsi_id":"billa-3380c4"},"coordinates":[41.394952,23.206266]},"dist":6.025,"tags_mismatch":false},{"osm":{"type":"way","id":1016681733,"tags":{"brand":"Billa","brand:wikidata":"Q537781","building":"retail","landuse":"commercial","shop":"supermarket"},"wikidata":"Q537781","coordinates":[43.2209814,27.8985994]},"atp":{"id":"W9OY9apjc7G0FORM3UyfE5Rdixo=","tags":{"ref":"38-546","@source_uri":"https://www.billa.bg/api/stores","@spider":"billa","shop":"supermarket","addr:street":"Ул. Ак. Андрей Сахаров 3","addr:city":"Варна","addr:state":"Варна","addr:postcode":"9000","addr:country":"BG","opening_hours":"Mo-Su 07:30-22:00","brand":"Billa","brand:wikidata":"Q537781","nsi_id":"billa-3380c4"},"coordinates":[43.220657,27.898653]},"dist":36.332,"tags_mismatch":true},{"osm":{"type":"way","id":1019669511,"tags":{"addr:city":"Банско","addr:housenumber":"28","addr:postcode":"2770","addr:street":"Цар Симеон","brand":"Billa","brand:wikidata":"Q537781","building":"supermarket","building:levels":"1","building:levels:underground":"1","check_date:opening_hours":"2025-03-09","opening_hours":"Mo-Su 07:30-22:00","roof:levels":"0","shop":"supermarket","website":"https://www.billa.bg"},"wikidata":"Q537781","coordinates":[41.8402375,23.4847336]},"atp":{"id":"8ANSZ_J5qdBKwdKT0ilOk1LWb20=","tags":{"ref":"38-225","capacity:motorcar":"88","@source_uri":"https://www.billa.bg/api/stores","@spider":"billa","shop":"supermarket","addr:street":"Ул. Цар Симеон 28","addr:city":"Банско","addr:state":"Благоевград","addr:postcode":"2770","addr:country":"BG","opening_hours":"Mo-Su 07:30-22:00","brand":"Billa","brand:wikidata":"Q537781","nsi_id":"billa-3380c4"},"coordinates":[41.840375,23.484746]},"dist":15.324,"tags_mismatch":false},{"osm":{"type":"way","id":1075963274,"tags":{"addr:city":"Свиленград","addr:postcode":"6500","brand":"Billa","brand:wikidata":"Q537781","building":"yes","opening_hours":"Mo-Su 07:30-22:00","phone":"+359 37 960 210","shop":"supermarket"},"wikidata":"Q537781","coordinates":[41.7676618,26.2048787]},"atp":{"id":"QLzokekABBH2IFWGwnqjAYsrOZ8=","tags":{"ref":"38-412","capacity:motorcar":"43","@source_uri":"https://www.billa.bg/api/stores","@spider":"billa","shop":"supermarket","addr:street":"Ул. Димитър Благоев 5","addr:city":"Свиленград","addr:state":"Хасково","addr:postcode":"6500","addr:country":"BG","phone":"+359 37 960 210","opening_hours":"Mo-Su 07:30-22:00","brand":"Billa","brand:wikidata":"Q537781","nsi_id":"billa-3380c4"},"coordinates":[41.7675821,26.2049373]},"dist":10.107,"tags_mismatch":false},{"osm":{"type":"way","id":1126950975,"tags":{"brand":"Billa","brand:wikidata":"Q537781","building":"yes","opening_hours":"Mo-Su 07:00-22:30","shop":"supermarket"},"wikidata":"Q537781","coordinates":[42.7186119,23.2783078]},"atp":{"id":"xxEhn0CySNTsYYRbm9K77z12VNM=","tags":{"ref":"38-251","capacity:motorcar":"76","@source_uri":"https://www.billa.bg/api/stores","@spider":"billa","shop":"supermarket","addr:street":"Бул. Сливница 284","addr:city":"София","addr:state":"София","addr:postcode":"1000","addr:country":"BG","phone":"+359 2 906 2210","opening_hours":"Mo-Su 07:30-22:00","brand":"Billa","brand:wikidata":"Q537781","nsi_id":"billa-3380c4"},"coordinates":[42.718536,23.278286]},"dist":8.626,"tags_mismatch":true},{"osm":{"type":"way","id":1182333114,"tags":{"addr:city":"Бургас","addr:postcode":"8000","brand":"Billa","brand:wikidata":"Q537781","building":"commercial","opening_hours":"Mo-Su 07:30-23:00","phone":"+359 56 599 240","shop":"supermarket"},"wikidata":"Q537781","coordinates":[42.5632729,27.5195001]},"atp":{"id":"xOmgdQsttre_st5NAWZYw_ASQJI=","tags":{"ref":"38-550","capacity:motorcar":"19","@source_uri":"https://www.billa.bg/api/stores","@spider":"billa","shop":"supermarket","addr:street":"Кв. Сарафово Ул. Слънце 30","addr:city":"Бургас","addr:state":"Бургас","addr:postcode":"8000","addr:country":"BG","phone":"+359 56 599 240","opening_hours":"Mo-Su 07:30-23:00","brand":"Billa","brand:wikidata":"Q537781","nsi_id":"billa-3380c4"},"coordinates":[42.563195,27.51931]},"dist":17.816,"tags_mismatch":false},{"osm":{"type":"way","id":1208210598,"tags":{"addr:city":"Варна","addr:postcode":"9000","brand":"Billa","brand:wikidata":"Q537781","building":"yes","opening_hours":"Mo-Su 07:30-22:00","shop":"supermarket"},"wikidata":"Q537781","coordinates":[43.232446,27.8895271]},"atp":{"id":"Ccx9-NOXHwScAaH1PDzB3RcNK_0=","tags":{"ref":"38-548","@source_uri":"https://www.billa.bg/api/stores","@spider":"billa","shop":"supermarket","addr:street":"Бул. Цар Освободител 205","addr:city":"Варна","addr:state":"Варна","addr:postcode":"9000","addr:country":"BG","opening_hours":"Mo-Su 07:30-22:00","brand":"Billa","brand:wikidata":"Q537781","nsi_id":"billa-3380c4"},"coordinates":[43.232544,27.889714]},"dist":18.655,"tags_mismatch":false},{"osm":{"type":"way","id":1221272168,"tags":{"addr:city":"Благоевград","addr:housenumber":"2","addr:postcode":"2700","addr:street":"Борис Ангелушев","brand":"Billa","brand:wikidata":"Q537781","building":"yes","payment:cash":"yes","payment:debit_cards":"yes","payment:maestro":"yes","payment:visa":"yes","shop":"supermarket"},"wikidata":"Q537781","coordinates":[42.0027448,23.1008635]},"atp":{"id":"OWWPbMd5WCWlu3MG6ELMVu_jrM0=","tags":{"ref":"38-228","capacity:motorcar":"53","@source_uri":"https://www.billa.bg/api/stores","@spider":"billa","shop":"supermarket","addr:street":"Ул. Борис Ангелушев 2","addr:city":"Благоевград","addr:state":"Благоевград","addr:postcode":"2700","addr:country":"BG","phone":"+359 73 818 490","opening_hours":"Mo-Su 07:30-22:00","brand":"Billa","brand:wikidata":"Q537781","nsi_id":"billa-3380c4"},"coordinates":[42.00272,23.101421]},"dist":46.149,"tags_mismatch":true},{"osm":{"type":"way","id":1317534336,"tags":{"brand":"Billa","brand:wikidata":"Q537781","building":"yes","shop":"supermarket"},"wikidata":"Q537781","coordinates":[42.8854503,24.713447]},"atp":{"id":"7Sjp6YbFo3VdOqFgfcvoPeRQ1MY=","tags":{"ref":"38-717","capacity:motorcar":"48","@source_uri":"https://www.billa.bg/api/stores","@spider":"billa","shop":"supermarket","addr:street":"Ул. Г.С.Раковски 2","addr:city":"Троян","addr:state":"Ловеч","addr:postcode":"5600","addr:country":"BG","phone":"+359 67 061 750","opening_hours":"Mo-Su 07:30-22:00","brand":"Billa","brand:wikidata":"Q537781","nsi_id":"billa-3380c4"},"coordinates":[42.885439,24.713413]},"dist":3.042,"tags_mismatch":true},{"osm":{"type":"way","id":1346126633,"tags":{"addr:city":"Горна Оряховица","addr:postcode":"5100","brand":"Billa","brand:wikidata":"Q537781","building":"construction","shop":"supermarket"},"wikidata":"Q537781","coordinates":[43.1202726,25.6909039]},"atp":false,"tags_mismatch":false},{"osm":false,"atp":false,"tags_mismatch":false,"dist":0},{"osm":false,"atp":false,"tags_mismatch":false,"dist":0},{"osm":false,"atp":false,"tags_mismatch":false,"dist":0},{"osm":false,"atp":{"id":"ol7EScSawgXYVDRwMuDFWzyUENg=","tags":{"ref":"38-181","shop":"supermarket","addr:street":"Ул. Висарион Белински 2б","addr:city":"София","addr:state":"София","addr:postcode":"1700","addr:country":"BG","name":"Billa","phone":"+359 2 904 8110","opening_hours":"Mo-Su 07:30-23:00","brand":"Billa","brand:wikidata":"Q537781"},"coordinates":[42.6535934,23.3436956]},"tags_mismatch":false,"dist":0},{"osm":false,"atp":false,"tags_mismatch":false,"dist":0},{"osm":false,"atp":false,"tags_mismatch":false,"dist":0},{"osm":false,"atp":{"id":"BXJvhEr3TSMJ20c4bYxipIWjt_o=","tags":{"ref":"38-723","capacity:motorcar":"16","shop":"supermarket","addr:street":"Бул. Христо Ботев 140","addr:city":"Плевен","addr:state":"Плевен","addr:postcode":"5800","addr:country":"BG","name":"Billa","phone":"+359 64 679 640","opening_hours":"Mo-Su 07:30-22:00","brand":"Billa","brand:wikidata":"Q537781"},"coordinates":[43.40399,24.625021]},"tags_mismatch":false,"dist":0},{"osm":false,"atp":false,"tags_mismatch":false,"dist":0},{"osm":false,"atp":false,"tags_mismatch":false,"dist":0},{"osm":false,"atp":false,"tags_mismatch":false,"dist":0},{"osm":false,"atp":false,"tags_mismatch":false,"dist":0},{"osm":false,"atp":false,"tags_mismatch":false,"dist":0},{"osm":false,"atp":false,"tags_mismatch":false,"dist":0},{"osm":false,"atp":false,"tags_mismatch":false,"dist":0},{"osm":false,"atp":false,"tags_mismatch":false,"dist":0},{"osm":false,"atp":false,"tags_mismatch":false,"dist":0},{"osm":false,"atp":false,"tags_mismatch":false,"dist":0},{"osm":false,"atp":false,"tags_mismatch":false,"dist":0},{"osm":false,"atp":false,"tags_mismatch":false,"dist":0},{"osm":false,"atp":false,"tags_mismatch":false,"dist":0},{"osm":false,"atp":false,"tags_mismatch":false,"dist":0},{"osm":false,"atp":false,"tags_mismatch":false,"dist":0},{"osm":false,"atp":false,"tags_mismatch":false,"dist":0},{"osm":false,"atp":false,"tags_mismatch":false,"dist":0},{"osm":false,"atp":false,"tags_mismatch":false,"dist":0},{"osm":false,"atp":false,"tags_mismatch":false,"dist":0},{"osm":false,"atp":false,"tags_mismatch":false,"dist":0},{"osm":false,"atp":false,"tags_mismatch":false,"dist":0},{"osm":false,"atp":false,"tags_mismatch":false,"dist":0},{"osm":false,"atp":false,"tags_mismatch":false,"dist":0},{"osm":false,"atp":false,"tags_mismatch":false,"dist":0},{"osm":false,"atp":false,"tags_mismatch":false,"dist":0},{"osm":false,"atp":false,"tags_mismatch":false,"dist":0},{"osm":false,"atp":false,"tags_mismatch":false,"dist":0},{"osm":false,"atp":false,"tags_mismatch":false,"dist":0},{"osm":false,"atp":false,"tags_mismatch":false,"dist":0},{"osm":false,"atp":false,"tags_mismatch":false,"dist":0},{"osm":false,"atp":false,"tags_mismatch":false,"dist":0},{"osm":false,"atp":false,"tags_mismatch":false,"dist":0},{"osm":false,"atp":false,"tags_mismatch":false,"dist":0},{"osm":false,"atp":false,"tags_mismatch":false,"dist":0},{"osm":false,"atp":false,"tags_mismatch":false,"dist":0},{"osm":false,"atp":false,"tags_mismatch":false,"dist":0},{"osm":false,"atp":false,"tags_mismatch":false,"dist":0},{"osm":false,"atp":false,"tags_mismatch":false,"dist":0},{"osm":false,"atp":false,"tags_mismatch":false,"dist":0},{"osm":false,"atp":false,"tags_mismatch":false,"dist":0},{"osm":false,"atp":false,"tags_mismatch":false,"dist":0},{"osm":false,"atp":false,"tags_mismatch":false,"dist":0},{"osm":false,"atp":false,"tags_mismatch":false,"dist":0},{"osm":false,"atp":false,"tags_mismatch":false,"dist":0},{"osm":false,"atp":false,"tags_mismatch":false,"dist":0},{"osm":false,"atp":false,"tags_mismatch":false,"dist":0},{"osm":false,"atp":false,"tags_mismatch":false,"dist":0},{"osm":false,"atp":false,"tags_mismatch":false,"dist":0},{"osm":false,"atp":false,"tags_mismatch":false,"dist":0},{"osm":false,"atp":false,"tags_mismatch":false,"dist":0},{"osm":false,"atp":false,"tags_mismatch":false,"dist":0},{"osm":false,"atp":false,"tags_mismatch":false,"dist":0},{"osm":false,"atp":false,"tags_mismatch":false,"dist":0},{"osm":false,"atp":false,"tags_mismatch":false,"dist":0},{"osm":false,"atp":false,"tags_mismatch":false,"dist":0},{"osm":false,"atp":false,"tags_mismatch":false,"dist":0},{"osm":false,"atp":false,"tags_mismatch":false,"dist":0},{"osm":false,"atp":false,"tags_mismatch":false,"dist":0},{"osm":false,"atp":false,"tags_mismatch":false,"dist":0},{"osm":false,"atp":false,"tags_mismatch":false,"dist":0},{"osm":false,"atp":false,"tags_mismatch":false,"dist":0},{"osm":false,"atp":false,"tags_mismatch":false,"dist":0},{"osm":false,"atp":false,"tags_mismatch":false,"dist":0},{"osm":false,"atp":false,"tags_mismatch":false,"dist":0},{"osm":false,"atp":false,"tags_mismatch":false,"dist":0},{"osm":false,"atp":false,"tags_mismatch":false,"dist":0},{"osm":false,"atp":false,"tags_mismatch":false,"dist":0},{"osm":false,"atp":{"id":"KAYhhG2TL7s9x4HgR996TST_dew=","tags":{"ref":"38-625","shop":"supermarket","addr:street":"Бул. Добруджа 4","addr:city":"Добрич","addr:state":"Добрич","addr:postcode":"9300","addr:country":"BG","name":"Billa","opening_hours":"Mo-Su 07:30-22:00","brand":"Billa","brand:wikidata":"Q537781"},"coordinates":[43.568688,27.847224]},"tags_mismatch":false,"dist":0},{"osm":false,"atp":{"id":"jtuOiSA5gvCvxGTGFejq6kEqBmA=","tags":{"ref":"38-724","shop":"supermarket","addr:street":"Ул. Цар Самуил 34","addr:city":"Плевен","addr:state":"Плевен","addr:postcode":"5800","addr:country":"BG","name":"Billa","phone":"+359 64 679 650","opening_hours":"Mo-Su 07:30-22:00","brand":"Billa","brand:wikidata":"Q537781"},"coordinates":[43.42366,24.595026]},"tags_mismatch":false,"dist":0},{"osm":false,"atp":false,"tags_mismatch":false,"dist":0},{"osm":false,"atp":false,"tags_mismatch":false,"dist":0},{"osm":false,"atp":false,"tags_mismatch":false,"dist":0},{"osm":false,"atp":false,"tags_mismatch":false,"dist":0},{"osm":false,"atp":false,"tags_mismatch":false,"dist":0},{"osm":false,"atp":false,"tags_mismatch":false,"dist":0},{"osm":false,"atp":false,"tags_mismatch":false,"dist":0},{"osm":false,"atp":{"id":"HWNq6HVHfJx2k0CIIvhxOxJRbzQ=","tags":{"ref":"38-423","shop":"supermarket","addr:street":"Бул. Цар Освободител 1 Б","addr:city":"Сливен","addr:state":"Сливен","addr:postcode":"8800","addr:country":"BG","name":"Billa","phone":"+359 44 699 060","opening_hours":"Mo-Su 07:30-22:00","brand":"Billa","brand:wikidata":"Q537781"},"coordinates":[42.68009,26.314336]},"tags_mismatch":false,"dist":0},{"osm":false,"atp":false,"tags_mismatch":false,"dist":0},{"osm":false,"atp":false,"tags_mismatch":false,"dist":0},{"osm":false,"atp":false,"tags_mismatch":false,"dist":0},{"osm":false,"atp":false,"tags_mismatch":false,"dist":0},{"osm":false,"atp":false,"tags_mismatch":false,"dist":0},{"osm":false,"atp":false,"tags_mismatch":false,"dist":0},{"osm":false,"atp":false,"tags_mismatch":false,"dist":0},{"osm":false,"atp":false,"tags_mismatch":false,"dist":0},{"osm":false,"atp":false,"tags_mismatch":false,"dist":0},{"osm":false,"atp":false,"tags_mismatch":false,"dist":0},{"osm":false,"atp":{"id":"pPjEsuc-TmsyYYofyBc0UiSg3m0=","tags":{"ref":"38-542","shop":"supermarket","addr:street":"Бул. Сливница 185","addr:city":"Варна","addr:state":"Варна","addr:postcode":"9000","addr:country":"BG","name":"Billa","opening_hours":"Mo-Su 07:30-22:00","brand":"Billa","brand:wikidata":"Q537781"},"coordinates":[43.227139,27.87497]},"tags_mismatch":false,"dist":0},{"osm":false,"atp":false,"tags_mismatch":false,"dist":0},{"osm":false,"atp":false,"tags_mismatch":false,"dist":0},{"osm":false,"atp":false,"tags_mismatch":false,"dist":0},{"osm":false,"atp":false,"tags_mismatch":false,"dist":0},{"osm":false,"atp":false,"tags_mismatch":false,"dist":0},{"osm":false,"atp":false,"tags_mismatch":false,"dist":0},{"osm":false,"atp":false,"tags_mismatch":false,"dist":0},{"osm":false,"atp":false,"tags_mismatch":false,"dist":0},{"osm":false,"atp":false,"tags_mismatch":false,"dist":0},{"osm":false,"atp":{"id":"lQLMtUAZIPgUhvPBpEF6ltdXFz4=","tags":{"ref":"38-624","shop":"supermarket","addr:street":"Ул. Христо Ботев 40","addr:city":"Добрич","addr:state":"Добрич","addr:postcode":"9300","addr:country":"BG","name":"Billa","phone":"+359 58 899 000","opening_hours":"Mo-Su 07:30-22:00","brand":"Billa","brand:wikidata":"Q537781"},"coordinates":[43.5742,27.841595]},"tags_mismatch":false,"dist":0},{"osm":false,"atp":false,"tags_mismatch":false,"dist":0},{"osm":false,"atp":false,"tags_mismatch":false,"dist":0},{"osm":false,"atp":false,"tags_mismatch":false,"dist":0},{"osm":false,"atp":{"id":"AGgN0uGPPW178DHI94KLD01Bxfk=","tags":{"ref":"38-714","capacity:motorcar":"112","shop":"supermarket","addr:street":"Бул. Могильов 47","addr:city":"Габрово","addr:state":"Габрово","addr:postcode":"5300","addr:country":"BG","name":"Billa","phone":"+359 66 840 450","opening_hours":"Mo-Su 07:30-21:00","brand":"Billa","brand:wikidata":"Q537781"},"coordinates":[42.88584,25.31283]},"tags_mismatch":false,"dist":0},{"osm":false,"atp":false,"tags_mismatch":false,"dist":0},{"osm":false,"atp":{"id":"9yqi4IS2diXqFyrSBwOxsh0l_iY=","tags":{"ref":"38-332","capacity:motorcar":"10","shop":"supermarket","addr:street":"Бул. 6-Ти Септември 42","addr:city":"Пловдив","addr:state":"Пловдив","addr:postcode":"4000","addr:country":"BG","name":"Billa","phone":"+359 32 229 230","opening_hours":"Mo-Su 07:30-22:00","brand":"Billa","brand:wikidata":"Q537781"},"coordinates":[42.146026,24.723954]},"tags_mismatch":false,"dist":0},{"osm":false,"atp":false,"tags_mismatch":false,"dist":0},{"osm":false,"atp":false,"tags_mismatch":false,"dist":0},{"osm":false,"atp":false,"tags_mismatch":false,"dist":0},{"osm":false,"atp":false,"tags_mismatch":false,"dist":0},{"osm":false,"atp":false,"tags_mismatch":false,"dist":0},{"osm":false,"atp":false,"tags_mismatch":false,"dist":0},{"osm":false,"atp":false,"tags_mismatch":false,"dist":0},{"osm":false,"atp":false,"tags_mismatch":false,"dist":0},{"osm":false,"atp":false,"tags_mismatch":false,"dist":0},{"osm":false,"atp":false,"tags_mismatch":false,"dist":0},{"osm":false,"atp":false,"tags_mismatch":false,"dist":0},{"osm":false,"atp":false,"tags_mismatch":false,"dist":0},{"osm":false,"atp":false,"tags_mismatch":false,"dist":0},{"osm":false,"atp":{"id":"OX5kwBTEhKONZ3mZgKB0iDN5_oM=","tags":{"ref":"38-253","shop":"supermarket","addr:street":"Бул. Ситняково 48","addr:city":"София","addr:state":"София","addr:postcode":"1505","addr:country":"BG","name":"Billa","phone":"+359 2 907 8560","opening_hours":"Mo-Su 08:30-22:00","brand":"Billa","brand:wikidata":"Q537781"},"coordinates":[42.691516,23.353555]},"tags_mismatch":false,"dist":0},{"osm":false,"atp":false,"tags_mismatch":false,"dist":0},{"osm":false,"atp":false,"tags_mismatch":false,"dist":0},{"osm":false,"atp":false,"tags_mismatch":false,"dist":0},{"osm":false,"atp":false,"tags_mismatch":false,"dist":0},{"osm":false,"atp":false,"tags_mismatch":false,"dist":0},{"osm":false,"atp":false,"tags_mismatch":false,"dist":0},{"osm":false,"atp":false,"tags_mismatch":false,"dist":0},{"osm":false,"atp":false,"tags_mismatch":false,"dist":0},{"osm":false,"atp":{"id":"elsJ6SMaslMREHjQi73QgBvwgYY=","tags":{"ref":"38-721","capacity:motorcar":"28","shop":"supermarket","addr:street":"Ул Пенка Михайлова 10","addr:city":"Тетевен","addr:state":"Ловеч","addr:postcode":"5700","addr:country":"BG","name":"Billa","phone":"+359 67 857 900","opening_hours":"Mo-Su 07:30-22:00","brand":"Billa","brand:wikidata":"Q537781"},"coordinates":[42.919712,24.2511]},"tags_mismatch":false,"dist":0},{"osm":false,"atp":false,"tags_mismatch":false,"dist":0},{"osm":false,"atp":false,"tags_mismatch":false,"dist":0},{"osm":false,"atp":false,"tags_mismatch":false,"dist":0},{"osm":false,"atp":{"id":"AGtdb2SUe_0sRuYKQCAChJMG_10=","tags":{"ref":"38-626","shop":"supermarket","addr:street":"Бул. Цар Симеон Велики 25","addr:city":"Силистра","addr:state":"Силистра","addr:postcode":"7500","addr:country":"BG","name":"Billa","phone":"08 825020","opening_hours":"Mo-Su 07:30-22:00","brand":"Billa","brand:wikidata":"Q537781"},"coordinates":[44.1165953,27.2594349]},"tags_mismatch":false,"dist":0},{"osm":false,"atp":{"id":"ro5RE9OQypXddDd_XkqD8Luw-4s=","tags":{"ref":"38-816","capacity:motorcar":"28","shop":"supermarket","addr:street":"Ул.Независимост 12","addr:city":"Враца","addr:state":"Враца","addr:postcode":"3000","addr:country":"BG","name":"Billa","phone":"+359 92 678 320","opening_hours":"Mo-Su 07:30-22:00","brand":"Billa","brand:wikidata":"Q537781"},"coordinates":[43.21178,23.5428599]},"tags_mismatch":false,"dist":0},{"osm":false,"atp":false,"tags_mismatch":false,"dist":0},{"osm":false,"atp":false,"tags_mismatch":false,"dist":0},{"osm":false,"atp":false,"tags_mismatch":false,"dist":0},{"osm":false,"atp":{"id":"ccAGGWp8frQFIxEY0PN3l2y47bA=","tags":{"ref":"38-333","capacity:motorcar":"90","shop":"supermarket","addr:street":"Ул. Клокотница 2","addr:city":"Стамболийски","addr:state":"Пловдив","addr:postcode":"4210","addr:country":"BG","name":"Billa","opening_hours":"Mo-Su 07:30-22:00","brand":"Billa","brand:wikidata":"Q537781"},"coordinates":[42.137199,24.54368]},"tags_mismatch":false,"dist":0},{"osm":false,"atp":{"id":"7HTRXysa3Zqo7Zf44nHStcho_TA=","tags":{"ref":"38-339","capacity:motorcar":"20","shop":"supermarket","addr:street":"Ул Карловско Шосе 93","addr:city":"Граф Игнатиево","addr:state":"Пловдив","addr:postcode":"4198","addr:country":"BG","name":"Billa","phone":"+359 31 183 490","opening_hours":"Mo-Su 07:30-22:00","brand":"Billa","brand:wikidata":"Q537781"},"coordinates":[42.282875,24.7329]},"tags_mismatch":false,"dist":0},{"osm":false,"atp":{"id":"Nqg1yl3SpVvxZacL9LN4xsGuBIE=","tags":{"ref":"38-428","shop":"supermarket","addr:street":"Ул. Георги Димитров 87","addr:city":"Чирпан","addr:state":"Стара Загора","addr:postcode":"6200","addr:country":"BG","name":"Billa","phone":"+359 41 690 820","opening_hours":"Mo-Su 07:30-22:00","brand":"Billa","brand:wikidata":"Q537781"},"coordinates":[42.19945,25.334461]},"tags_mismatch":false,"dist":0},{"osm":false,"atp":false,"tags_mismatch":false,"dist":0},{"osm":false,"atp":false,"tags_mismatch":false,"dist":0},{"osm":false,"atp":false,"tags_mismatch":false,"dist":0},{"osm":false,"atp":{"id":"STAHF6j_k0pGCRI5bEgaHaAZNSo=","tags":{"ref":"38-425","shop":"supermarket","addr:street":"Кв. Възрожденци, Ул. Христо Ботев 73","addr:city":"Кърджали","addr:state":"София","addr:postcode":"6600","addr:country":"BG","name":"Billa","phone":"+359 36 132 460","opening_hours":"Mo-Su 07:30-22:00","brand":"Billa","brand:wikidata":"Q537781"},"coordinates":[41.636719,25.35459]},"tags_mismatch":false,"dist":0},{"osm":false,"atp":false,"tags_mismatch":false,"dist":0},{"osm":false,"atp":false,"tags_mismatch":false,"dist":0},{"osm":false,"atp":false,"tags_mismatch":false,"dist":0},{"osm":false,"atp":false,"tags_mismatch":false,"dist":0},{"osm":false,"atp":{"id":"hH9qkq5nomRuS0yj6eai494hvg4=","tags":{"ref":"38-718","capacity:motorcar":"39","shop":"supermarket","addr:street":"Ул. Беляковско Шосе 1","addr:city":"Велико Търново","addr:state":"Велико Търново","addr:postcode":"5000","addr:country":"BG","name":"Billa","opening_hours":"Mo-Su 07:30-22:00","brand":"Billa","brand:wikidata":"Q537781"},"coordinates":[43.082671,25.6113923]},"tags_mismatch":false,"dist":0},{"osm":false,"atp":false,"tags_mismatch":false,"dist":0},{"osm":false,"atp":false,"tags_mismatch":false,"dist":0},{"osm":false,"atp":false,"tags_mismatch":false,"dist":0},{"osm":false,"atp":false,"tags_mismatch":false,"dist":0},{"osm":false,"atp":false,"tags_mismatch":false,"dist":0},{"osm":false,"atp":false,"tags_mismatch":false,"dist":0},{"osm":false,"atp":false,"tags_mismatch":false,"dist":0},{"osm":false,"atp":false,"tags_mismatch":false,"dist":0}]}