{"metadata":{"type":"brand","wikidata":"Q111764460","name":"Lilly","compare_keys":["opening_hours","phone"],"key":"shop","value":"chemist"},"data":[{"osm":{"type":"node","id":696847332,"tags":{"addr:city":"Варна","addr:housenumber":"2","addr:postcode":"9000","addr:street":"Баба Рада","brand":"Lilly","brand:wikidata":"Q111764460","check_date":"2024-12-14","check_date:opening_hours":"2024-12-14","internet_access":"no","opening_hours":"08:00-20:00","payment:cash":"yes","payment:mastercard":"yes","payment:visa":"yes","phone":"+359 52 915 683","shop":"chemist","website":"https://www.lillydrogerie.bg/","wheelchair":"limited"},"wikidata":"Q111764460","coordinates":[43.2049475,27.919056]},"atp":{"id":"fO_1PEjz0qoG_81fFma1TXaqW-M=","tags":{"ref":"97","@source_uri":"https://www.lillydrogerie.bg/bg/stores","@spider":"lilly_bg","shop":"chemist","addr:full":"ул.Баба Рада №2","addr:country":"BG","phone":"+359 52 915 683","opening_hours":"Mo-Su 08:00-20:00","brand":"Lilly","brand:wikidata":"Q111764460","nsi_id":"lilly-22ddb5"},"coordinates":[43.20489094021708,27.919216927189325]},"dist":14.48,"tags_mismatch":true},{"osm":{"type":"node","id":2378140708,"tags":{"brand":"Lilly","brand:wikidata":"Q111764460","check_date:opening_hours":"2025-01-17","opening_hours":"Mo-Fr 08:00-20:00; Sa 09:00-18:00; Su 10:00-18:00","shop":"chemist","website":"https://www.lillydrogerie.bg/"},"wikidata":"Q111764460","coordinates":[42.6851767,23.303392]},"atp":{"id":"carHWAvZo0d6oM6EeGMS3Shtio4=","tags":{"ref":"13","@source_uri":"https://www.lillydrogerie.bg/bg/stores","@spider":"lilly_bg","shop":"chemist","addr:full":"ул. ”Георги Софийски” № 56","addr:country":"BG","phone":"+359 2 413 8915","opening_hours":"Mo-Fr 08:00-20:00; Sa 09:00-18:00; Su 10:00-18:00","brand":"Lilly","brand:wikidata":"Q111764460","nsi_id":"lilly-22ddb5"},"coordinates":[42.685161,23.303495]},"dist":8.598,"tags_mismatch":true},{"osm":{"type":"node","id":2424463700,"tags":{"addr:city":"София","addr:housenumber":"62","addr:street":"бул. Княз Александър Дондуков","brand":"Lilly","brand:wikidata":"Q111764460","opening_hours":"Mo-Fr 08:00-20:00;Sa 09:00-20:00;Su 10:00-18:00","phone":"+359 2 413 8993","shop":"chemist","website":"https://www.lillydrogerie.bg/"},"wikidata":"Q111764460","coordinates":[42.6988613,23.3388621]},"atp":{"id":"BNo0JiJVdfbq1WhhqN9XAtXLZFg=","tags":{"ref":"95","@source_uri":"https://www.lillydrogerie.bg/bg/stores","@spider":"lilly_bg","shop":"chemist","addr:full":"район Оборище, бул. Александър Дондуков №62","addr:country":"BG","phone":"+359 2 413 8993","opening_hours":"Mo-Fr 08:00-20:00; Sa 09:00-20:00; Su 10:00-18:00","brand":"Lilly","brand:wikidata":"Q111764460","nsi_id":"lilly-22ddb5"},"coordinates":[42.698963,23.339181]},"dist":28.408,"tags_mismatch":true},{"osm":{"type":"node","id":2923433101,"tags":{"addr:city":"София","addr:housenumber":"1","addr:place":"пл. Лъвов мост","brand":"Lilly","brand:wikidata":"Q111764460","opening_hours":"Mo-Fr 08:00-20:00; Sa 09:00-20:00; Su 10:00-18:00","phone":"+359 2 987 0592","shop":"chemist","website":"https://www.lillydrogerie.bg/"},"wikidata":"Q111764460","coordinates":[42.7045321,23.3234067]},"atp":{"id":"4B0UnpeTo5uVJ0zRWWryONNzoJs=","tags":{"ref":"86","@source_uri":"https://www.lillydrogerie.bg/bg/stores","@spider":"lilly_bg","shop":"chemist","addr:full":"пл. ”Лъвов мост” № 1","addr:country":"BG","phone":"+359 2 413 8911","opening_hours":"Mo-Fr 08:00-20:00; Sa 09:00-20:00; Su 10:00-18:00","brand":"Lilly","brand:wikidata":"Q111764460","nsi_id":"lilly-22ddb5"},"coordinates":[42.704566,23.323346]},"dist":6.23,"tags_mismatch":true},{"osm":{"type":"node","id":3007528254,"tags":{"addr:housenumber":"бл. 129-130","addr:place":"ж.к. Илинден","brand":"Lilly","brand:wikidata":"Q111764460","opening_hours":"Mo-Fr 08:00-20:00; Sa 09:00-20:00; Su 10:00-18:00","shop":"chemist","website":"https://www.lillydrogerie.bg/"},"wikidata":"Q111764460","coordinates":[42.7066662,23.2859074]},"atp":{"id":"136a_vfuqPsJ_Qtnwo2BpDDLAmQ=","tags":{"ref":"32","@source_uri":"https://www.lillydrogerie.bg/bg/stores","@spider":"lilly_bg","shop":"chemist","addr:full":"ул.“Виктор Павлов“, №129-130","addr:country":"BG","phone":"+359 2 413 8955","opening_hours":"Mo-Fr 08:00-20:00; Sa 09:00-20:00; Su 10:00-18:00","brand":"Lilly","brand:wikidata":"Q111764460","nsi_id":"lilly-22ddb5"},"coordinates":[42.706612,23.285392]},"dist":42.542,"tags_mismatch":true},{"osm":{"type":"node","id":3514853661,"tags":{"brand":"Lilly","brand:wikidata":"Q111764460","opening_hours":"Mo-Fr 08:00-20:00; Sa 09:00-20:00; Su 10:00-18:00","shop":"chemist","website":"https://www.lillydrogerie.bg/"},"wikidata":"Q111764460","coordinates":[43.8499718,25.9545756]},"atp":{"id":"4MmpMM7vAja5vO-m9vwQkrCeZak=","tags":{"ref":"47","@source_uri":"https://www.lillydrogerie.bg/bg/stores","@spider":"lilly_bg","shop":"chemist","addr:full":"ул. ”Александровска” № 48","addr:country":"BG","phone":"+359 82 599 253","opening_hours":"Mo-Fr 08:00-20:00; Sa 09:00-20:00; Su 10:00-18:00","brand":"Lilly","brand:wikidata":"Q111764460","nsi_id":"lilly-22ddb5"},"coordinates":[43.850083,25.954636]},"dist":13.28,"tags_mismatch":true},{"osm":{"type":"node","id":3522548946,"tags":{"brand":"Lilly","brand:wikidata":"Q111764460","check_date:opening_hours":"2023-01-11","contact:phone":"+359 2 964 3153","level":"-2","opening_hours":"Mo-Su 10:00-22:00","shop":"chemist","website":"https://www.lillydrogerie.bg/"},"wikidata":"Q111764460","coordinates":[42.6787729,23.3202333]},"atp":{"id":"FN56cVPISL1CiM7yi3K3Vdz-lVk=","tags":{"ref":"11","@source_uri":"https://www.lillydrogerie.bg/bg/stores","@spider":"lilly_bg","shop":"chemist","addr:full":"бул. ”Арсеналски” № 2, ет. -2","addr:country":"BG","phone":"+359 2 413 8908","opening_hours":"Mo-Su 10:00-21:00","brand":"Lilly","brand:wikidata":"Q111764460","nsi_id":"lilly-22ddb5"},"coordinates":[42.6787,23.3202]},"dist":8.551,"tags_mismatch":true},{"osm":{"type":"node","id":3540008817,"tags":{"brand":"Lilly","brand:wikidata":"Q111764460","contact:phone":"+359 2 980 2233","opening_hours":"Mo-Su 09:00-21:00","phone":"+359 2 413 8926","shop":"chemist"},"wikidata":"Q111764460","coordinates":[42.6919959,23.3201503]},"atp":{"id":"4IMw4CwgSDr_p0wzKD67V_Ixn8g=","tags":{"ref":"19","@source_uri":"https://www.lillydrogerie.bg/bg/stores","@spider":"lilly_bg","shop":"chemist","addr:full":"бул. „Витоша“ № 41","addr:country":"BG","phone":"+359 2 413 8926","opening_hours":"Mo-Su 09:00-21:00","brand":"Lilly","brand:wikidata":"Q111764460","nsi_id":"lilly-22ddb5"},"coordinates":[42.692006,23.320186]},"dist":3.126,"tags_mismatch":false},{"osm":{"type":"node","id":3540737653,"tags":{"brand":"Lilly","brand:wikidata":"Q111764460","contact:phone":"+359 2 987 0490","opening_hours":"Mo-Fr 08:00-20:00; Sa 09:00-20:00; Su 10:00-18:00","phone":"+359 2 413 8901","shop":"chemist"},"wikidata":"Q111764460","coordinates":[42.6918579,23.3258217]},"atp":{"id":"OZK8WER2ohmjv_NyYZfLbOjS878=","tags":{"ref":"7","@source_uri":"https://www.lillydrogerie.bg/bg/stores","@spider":"lilly_bg","shop":"chemist","addr:full":"ул. Георги С. Раковски №147","addr:country":"BG","phone":"+359 2 413 8901","opening_hours":"Mo-Fr 08:00-20:00; Sa 09:00-20:00; Su 10:00-18:00","brand":"Lilly","brand:wikidata":"Q111764460","nsi_id":"lilly-22ddb5"},"coordinates":[42.691855,23.325728]},"dist":7.665,"tags_mismatch":false},{"osm":{"type":"node","id":3944047300,"tags":{"brand":"Lilly","brand:wikidata":"Q111764460","opening_hours":"Mo-Fr 08:00-20:00; Sa, Su 10:00-20:00","shop":"chemist","website":"https://www.lillydrogerie.bg/"},"wikidata":"Q111764460","coordinates":[42.6809192,23.3319346]},"atp":{"id":"iP9rupFrX7dOcu6lcqKpG6oT64U=","tags":{"ref":"108","@source_uri":"https://www.lillydrogerie.bg/bg/stores","@spider":"lilly_bg","shop":"chemist","addr:country":"BG","phone":"+359 2 413 8907","opening_hours":"Mo-Fr 08:00-20:00; Sa-Su 10:00-20:00","brand":"Lilly","brand:wikidata":"Q111764460","nsi_id":"lilly-22ddb5"},"coordinates":[42.680896418671445,23.332020393302738]},"dist":7.457,"tags_mismatch":true},{"osm":{"type":"node","id":4012958045,"tags":{"addr:city":"Карлово","addr:place":"Ритейл парк","addr:postcode":"4303","brand":"Lilly","brand:wikidata":"Q111764460","opening_hours":"Mo-Fr 08:00-20:00; Sa 09:00-20:00; Su 10:00-18:00","payment:cash":"yes","payment:mastercard":"yes","payment:visa":"yes","phone":"+359 89 708 9204","shop":"chemist","website":"https://www.lillydrogerie.bg/"},"wikidata":"Q111764460","coordinates":[42.6432163,24.788595]},"atp":{"id":"sGIAZZBEHl-hGhknqh1rPC7p3HI=","tags":{"ref":"115","@source_uri":"https://www.lillydrogerie.bg/bg/stores","@spider":"lilly_bg","shop":"chemist","addr:full":"Ритейл парк Карлово, местност Кантон 219","addr:country":"BG","phone":"+359 89 708 9204","opening_hours":"Mo-Fr 08:00-20:00; Sa 09:00-20:00; Su 10:00-18:00","brand":"Lilly","brand:wikidata":"Q111764460","nsi_id":"lilly-22ddb5"},"coordinates":[42.64353574328563,24.788287729959833]},"dist":43.513,"tags_mismatch":false},{"osm":{"type":"node","id":4039277485,"tags":{"brand":"Lilly","brand:wikidata":"Q111764460","contact:phone":"+359 2 836 2023","opening_hours":"Mo-Fr 08:00-20:00","shop":"chemist","website":"https://www.lillydrogerie.bg/"},"wikidata":"Q111764460","coordinates":[42.7256289,23.3037273]},"atp":{"id":"p28aWLjIg8-CUkZx70u3z_T3cxQ=","tags":{"ref":"21","@source_uri":"https://www.lillydrogerie.bg/bg/stores","@spider":"lilly_bg","shop":"chemist","addr:full":"ж.к. Надежда 2, бул. Ломско шосе 24","addr:country":"BG","phone":"+359 88 442 3406","opening_hours":"Mo-Fr 08:00-20:00; Sa 09:00-20:00; Su 10:00-18:00","brand":"Lilly","brand:wikidata":"Q111764460","nsi_id":"lilly-22ddb5"},"coordinates":[42.725664,23.303762]},"dist":4.824,"tags_mismatch":true},{"osm":{"type":"node","id":4230594954,"tags":{"addr:city":"Кърджали","addr:housenumber":"41","addr:postcode":"6600","addr:street":"Републиканска","brand":"Lilly","brand:wikidata":"Q111764460","opening_hours":"Mo-Fr 08:00-20:00; Sa 09:00-20:00; Su 10:00-18:00","payment:cash":"yes","payment:mastercard":"yes","payment:visa":"yes","phone":"+359 361 52 503","shop":"chemist","website":"https://www.lillydrogerie.bg/"},"wikidata":"Q111764460","coordinates":[41.6434306,25.3665973]},"atp":{"id":"tfnneGxfSUX6a1PKb6sCoiuy5qo=","tags":{"ref":"77","@source_uri":"https://www.lillydrogerie.bg/bg/stores","@spider":"lilly_bg","shop":"chemist","addr:full":"ул.“Републиканска“, №41","addr:country":"BG","phone":"+359 36 152 503","opening_hours":"Mo-Fr 08:00-20:00; Sa 09:00-20:00; Su 10:00-18:00","brand":"Lilly","brand:wikidata":"Q111764460","nsi_id":"lilly-22ddb5"},"coordinates":[41.643397,25.3668]},"dist":17.253,"tags_mismatch":true},{"osm":{"type":"node","id":4391365389,"tags":{"addr:street":"Любляна","brand":"Lilly","brand:wikidata":"Q111764460","opening_hours":"Mo-Fr 08:00-20:00; Sa 09:00-20:00; Su 10:00-18:00","shop":"chemist","website":"https://www.lillydrogerie.bg/"},"wikidata":"Q111764460","coordinates":[42.6713455,23.2592046]},"atp":{"id":"oYSjdgpOJFI8pqUl-xkatXyjwX4=","tags":{"ref":"33","@source_uri":"https://www.lillydrogerie.bg/bg/stores","@spider":"lilly_bg","shop":"chemist","addr:full":"ул.“Любляна“, № 38","addr:country":"BG","phone":"+359 2 413 8957","opening_hours":"Mo-Fr 08:00-20:00; Sa 09:00-20:00; Su 10:00-18:00","brand":"Lilly","brand:wikidata":"Q111764460","nsi_id":"lilly-22ddb5"},"coordinates":[42.671333,23.258971]},"dist":19.149,"tags_mismatch":true},{"osm":{"type":"node","id":4420290815,"tags":{"addr:city":"Добрич","addr:housenumber":"2","addr:postcode":"9300","addr:street":"Независимост","brand":"Lilly","brand:wikidata":"Q111764460","opening_hours":"Mo-Fr 08:00-20:00; Sa 09:00-20:00; Su 10:00-18:00","payment:cash":"yes","payment:mastercard":"yes","payment:visa":"yes","phone":"+359 58 593 023","shop":"chemist","website":"https://www.lillydrogerie.bg/"},"wikidata":"Q111764460","coordinates":[43.5699329,27.8289051]},"atp":{"id":"vAUvbh54OzhFTMgpFTgzyzr1Dhc=","tags":{"ref":"70","@source_uri":"https://www.lillydrogerie.bg/bg/stores","@spider":"lilly_bg","shop":"chemist","addr:full":"ул. ”Независимост” № 2, ет. 1","addr:country":"BG","phone":"+359 58 593 023","opening_hours":"Mo-Fr 08:00-20:00; Sa 09:00-20:00; Su 10:00-18:00","brand":"Lilly","brand:wikidata":"Q111764460","nsi_id":"lilly-22ddb5"},"coordinates":[43.569822,27.828709]},"dist":20.042,"tags_mismatch":false},{"osm":{"type":"node","id":4511278791,"tags":{"addr:housenumber":"16","addr:street":"Граф Игнатиев","brand":"Lilly","brand:wikidata":"Q111764460","contact:facebook":"https://www.facebook.com/orsay.bg/","opening_hours":"Mo-Fr 08:00-20:00; Sa 10:00-20:00; Su 10:00-18:00","phone":"+359 2 987 9891","shop":"chemist","website":"https://www.lillydrogerie.bg/"},"wikidata":"Q111764460","coordinates":[42.693046,23.3232465]},"atp":{"id":"NZSOIMInjgvDwnEyzI2WQvbnPuc=","tags":{"ref":"122","@source_uri":"https://www.lillydrogerie.bg/bg/stores","@spider":"lilly_bg","shop":"chemist","addr:full":"ул. ”Граф Игнатиев” № 16","addr:country":"BG","phone":"+359 2 413 8917","opening_hours":"Mo-Fr 08:00-20:00; Sa 10:00-20:00; Su 10:00-18:00","brand":"Lilly","brand:wikidata":"Q111764460","nsi_id":"lilly-22ddb5"},"coordinates":[42.69316935023034,23.323182980230538]},"dist":14.665,"tags_mismatch":true},{"osm":{"type":"node","id":4745452725,"tags":{"brand":"Lilly","brand:wikidata":"Q111764460","check_date:opening_hours":"2024-12-21","opening_hours":"Mo-Su 09:00-20:00","shop":"chemist","wheelchair":"yes"},"wikidata":"Q111764460","coordinates":[42.6648359,23.3626728]},"atp":{"id":"21ljsss-LgaUpNilEZzIJOPlW7o=","tags":{"ref":"29","@source_uri":"https://www.lillydrogerie.bg/bg/stores","@spider":"lilly_bg","shop":"chemist","addr:full":"бул.“Г.М. Димитров“, №45, ж.к. Младост 1","addr:country":"BG","phone":"+359 2 413 8950","opening_hours":"Mo-Fr 08:00-20:00; Sa 09:00-20:00; Su 10:00-18:00","brand":"Lilly","brand:wikidata":"Q111764460","nsi_id":"lilly-22ddb5"},"coordinates":[42.665064,23.362119]},"dist":51.901,"tags_mismatch":true},{"osm":{"type":"node","id":4944691050,"tags":{"addr:city":"Велико Търново","addr:housenumber":"14-16","addr:postcode":"5000","addr:street":"бул. Васил Левски","brand":"Lilly","brand:wikidata":"Q111764460","opening_hours":"Mo-Fr 08:00-20:00; Sa 09:00-20:00; Su 10:00-18:00","payment:cash":"yes","payment:mastercard":"yes","payment:visa":"yes","phone":"+359 62 593 689","shop":"chemist","website":"https://www.lillydrogerie.bg/"},"wikidata":"Q111764460","coordinates":[43.0790911,25.6279058]},"atp":{"id":"2ymmhVSTUKEFbRWXIy5ZZD2F_gs=","tags":{"ref":"75","@source_uri":"https://www.lillydrogerie.bg/bg/stores","@spider":"lilly_bg","shop":"chemist","addr:full":"бул. ”Васил Левски”, Sky Center, партер","addr:country":"BG","phone":"+359 62 593 689","opening_hours":"Mo-Fr 08:00-20:00; Sa 09:00-20:00; Su 10:00-18:00","brand":"Lilly","brand:wikidata":"Q111764460","nsi_id":"lilly-22ddb5"},"coordinates":[43.079068,25.627934]},"dist":3.441,"tags_mismatch":false},{"osm":{"type":"node","id":4976719413,"tags":{"addr:street":"Ген. Никола Жеков","brand":"Lilly","brand:wikidata":"Q111764460","opening_hours":"Mo-Fr 08:00-21:00; Sa,Su 09:00-21:00","phone":"+359 2 413 8944","shop":"chemist","website":"https://www.lillydrogerie.bg/"},"wikidata":"Q111764460","coordinates":[42.7362101,23.3056495]},"atp":{"id":"4q2Nq5Ogoo7UHjgZY2s_gAR6C6U=","tags":{"ref":"27","@source_uri":"https://www.lillydrogerie.bg/bg/stores","@spider":"lilly_bg","shop":"chemist","addr:full":"бул. ”Генерал Никола Жеков” до бл 12 (ЦБА)","addr:country":"BG","phone":"+359 2 413 8944","opening_hours":"Mo 08:00-21:00; Sa-Su 09:00-21:00","brand":"Lilly","brand:wikidata":"Q111764460","nsi_id":"lilly-22ddb5"},"coordinates":[42.73586,23.305282]},"dist":49.156,"tags_mismatch":true},{"osm":{"type":"node","id":4991181105,"tags":{"brand":"Lilly","brand:wikidata":"Q111764460","check_date":"2024-10-29","check_date:opening_hours":"2024-05-23","contact:facebook":"LillyDrogerieBG","contact:instagram":"lillydrogerie.bg","contact:phone":"+35924138916","opening_hours":"Mo-Fr 08:00-20:00; Sa 09:00-20:00; Su 10:00-18:00","shop":"chemist","website":"https://www.lillydrogerie.bg/"},"wikidata":"Q111764460","coordinates":[42.6714529,23.2953986]},"atp":{"id":"urHgarCgvGWsmxQXDFhpnHj7hxU=","tags":{"ref":"14","@source_uri":"https://www.lillydrogerie.bg/bg/stores","@spider":"lilly_bg","shop":"chemist","addr:full":"бул. ”Гоце Делчев” № 105","addr:country":"BG","phone":"+359 2 413 8916","opening_hours":"Mo-Fr 08:00-20:00; Sa 09:00-20:00; Su 10:00-18:00","brand":"Lilly","brand:wikidata":"Q111764460","nsi_id":"lilly-22ddb5"},"coordinates":[42.671462,23.295381]},"dist":1.759,"tags_mismatch":true},{"osm":{"type":"node","id":5008406414,"tags":{"brand":"Lilly","brand:wikidata":"Q111764460","check_date":"2024-09-12","opening_hours":"Mo-Fr 08:00-20:00; Sa 09:00-20:00; Su 10:00-18:00","second_hand":"yes","shop":"chemist","website":"https://www.lillydrogerie.bg/","wheelchair":"yes"},"wikidata":"Q111764460","coordinates":[42.6695701,23.3029025]},"atp":{"id":"cI-60N3z6PBONgw7pg5oFBDbf_c=","tags":{"ref":"40","@source_uri":"https://www.lillydrogerie.bg/bg/stores","@spider":"lilly_bg","shop":"chemist","addr:full":"ул. „Нишава“ бл.6, 1404 ж.к. Стрелбище","addr:country":"BG","phone":"+359 2 413 8979","opening_hours":"Mo-Fr 08:00-20:00; Sa 09:00-20:00; Su 10:00-18:00","brand":"Lilly","brand:wikidata":"Q111764460","nsi_id":"lilly-22ddb5"},"coordinates":[42.669605,23.303311]},"dist":33.623,"tags_mismatch":true},{"osm":{"type":"node","id":5012859877,"tags":{"brand":"Lilly","brand:wikidata":"Q111764460","opening_hours":"Mo-Fr 08:00-20:00; Sa-Su 09:00-20:00","phone":"+359 2 413 8965","shop":"chemist","wheelchair":"yes"},"wikidata":"Q111764460","coordinates":[42.6687657,23.2787958]},"atp":{"id":"3QxDbqL6uRyqip351S7Ri9MTX68=","tags":{"ref":"35","@source_uri":"https://www.lillydrogerie.bg/bg/stores","@spider":"lilly_bg","shop":"chemist","addr:full":"бул. ”Тодор Каблешков” ТЦ Борово","addr:country":"BG","phone":"+359 2 413 8965","opening_hours":"Mo-Fr 08:00-20:00; Sa-Su 09:00-20:00","brand":"Lilly","brand:wikidata":"Q111764460","nsi_id":"lilly-22ddb5"},"coordinates":[42.668662,23.278841]},"dist":12.109,"tags_mismatch":false},{"osm":{"type":"node","id":5025051764,"tags":{"brand":"Lilly","brand:wikidata":"Q111764460","shop":"chemist","website":"https://www.lillydrogerie.bg/"},"wikidata":"Q111764460","coordinates":[42.619377,25.3920084]},"atp":{"id":"j9GbvQLE7YxquqgvPQWrN7tIfho=","tags":{"ref":"68","@source_uri":"https://www.lillydrogerie.bg/bg/stores","@spider":"lilly_bg","shop":"chemist","addr:full":"бул. ”Княз Александър Батенберг” № 1","addr:country":"BG","phone":"+359 431 590 78","opening_hours":"Mo-Fr 08:00-20:00; Sa 09:00-20:00; Su 10:00-18:00","brand":"Lilly","brand:wikidata":"Q111764460","nsi_id":"lilly-22ddb5"},"coordinates":[42.618671,25.393939]},"dist":176.403,"tags_mismatch":true},{"osm":{"type":"node","id":5025115674,"tags":{"addr:city":"София","addr:housenumber":"53","addr:street":"бул. България","brand":"Lilly","brand:wikidata":"Q111764460","check_date":"2024-10-09","check_date:opening_hours":"2023-10-25","contact:phone":"+359 2 850 4500","opening_hours":"Mo-Su 09:00-21:00","payment:mastercard":"yes","payment:visa":"yes","shop":"chemist","website":"https://www.lillydrogerie.bg/","wheelchair":"limited"},"wikidata":"Q111764460","coordinates":[42.6657772,23.289518]},"atp":{"id":"DnUzyhKidPmfA2JWy11JLmiOjr4=","tags":{"ref":"45","@source_uri":"https://www.lillydrogerie.bg/bg/stores","@spider":"lilly_bg","shop":"chemist","addr:full":"бул. „България“ № 53","addr:country":"BG","phone":"+359 2 413 8929","opening_hours":"Mo-Su 09:00-21:00","brand":"Lilly","brand:wikidata":"Q111764460","nsi_id":"lilly-22ddb5"},"coordinates":[42.665674,23.289584]},"dist":12.681,"tags_mismatch":true},{"osm":{"type":"node","id":5115594915,"tags":{"brand":"Lilly","brand:wikidata":"Q111764460","shop":"chemist","website":"https://www.lillydrogerie.bg/"},"wikidata":"Q111764460","coordinates":[42.156202,24.7441225]},"atp":{"id":"_ReZL706gkojVzBc0ri_KlHnA30=","tags":{"ref":"60","@source_uri":"https://www.lillydrogerie.bg/bg/stores","@spider":"lilly_bg","shop":"chemist","addr:full":"ул.“Сливница“, № 6А","addr:country":"BG","phone":"+359 32 599 654","opening_hours":"Mo-Fr 08:00-20:00; Sa 09:00-20:00; Su 10:00-18:00","brand":"Lilly","brand:wikidata":"Q111764460","nsi_id":"lilly-22ddb5"},"coordinates":[42.156201,24.744146]},"dist":1.94,"tags_mismatch":true},{"osm":{"type":"node","id":5745495168,"tags":{"addr:city":"София","addr:housenumber":"73","addr:street":"Мелник","brand":"Lilly","brand:wikidata":"Q111764460","opening_hours":"Mo-Fr 08:00-20:00; Sa 09:00-18:00; Su 10:00-18:00","phone":"+359 2 828 4875","shop":"chemist","website":"https://www.lillydrogerie.bg/"},"wikidata":"Q111764460","coordinates":[42.710898,23.2929388]},"atp":{"id":"2tLGflmT1DB2Nfft3LpbkTbQzv0=","tags":{"ref":"10","@source_uri":"https://www.lillydrogerie.bg/bg/stores","@spider":"lilly_bg","shop":"chemist","addr:full":"ул. \"Мелник \" 73","addr:country":"BG","phone":"+359 2 413 8904","opening_hours":"Mo-Fr 08:00-20:00; Sa 09:00-18:00; Su 10:00-18:00","brand":"Lilly","brand:wikidata":"Q111764460","nsi_id":"lilly-22ddb5"},"coordinates":[42.710992,23.292925]},"dist":10.513,"tags_mismatch":true},{"osm":{"type":"node","id":5766401660,"tags":{"brand":"Lilly","brand:wikidata":"Q111764460","check_date":"2023-02-24","internet_access":"no","opening_hours":"Mo-Fr 08:00-20:00; Sa 09:00-20:00; Su 10:00-18:00","payment:mastercard":"yes","payment:visa":"yes","phone":"+359 2 995 0303","shop":"chemist","website":"https://www.lillydrogerie.bg/","wheelchair":"yes"},"wikidata":"Q111764460","coordinates":[42.6350568,23.3751968]},"atp":{"id":"orbYcqhRdIZgmwTGR7eZ5Yw-Ek4=","tags":{"ref":"26","@source_uri":"https://www.lillydrogerie.bg/bg/stores","@spider":"lilly_bg","shop":"chemist","addr:full":"ж.к.Младост, ул. ”Атанас Москов” № 5","addr:country":"BG","phone":"+359 2 413 8942","opening_hours":"Mo-Fr 08:00-20:00; Sa 09:00-20:00","brand":"Lilly","brand:wikidata":"Q111764460","nsi_id":"lilly-22ddb5"},"coordinates":[42.635049,23.375154]},"dist":3.607,"tags_mismatch":true},{"osm":{"type":"node","id":5906691582,"tags":{"brand":"Lilly","brand:wikidata":"Q111764460","opening_hours":"Mo-Fr 08:00-20:00; Sa 09:00-20:00; Su 09:00-20:00","shop":"chemist","website":"https://www.lillydrogerie.bg/"},"wikidata":"Q111764460","coordinates":[42.6965424,23.3516299]},"atp":{"id":"uQGZr7-Ho6to6y7xvjpMoEFX1Aw=","tags":{"ref":"38","@source_uri":"https://www.lillydrogerie.bg/bg/stores","@spider":"lilly_bg","shop":"chemist","addr:full":"бул. „Мадрид“ №40","addr:country":"BG","phone":"+359 2 413 8973","opening_hours":"Mo-Fr 08:00-20:00; Sa-Su 09:00-20:00","brand":"Lilly","brand:wikidata":"Q111764460","nsi_id":"lilly-22ddb5"},"coordinates":[42.696504,23.351303]},"dist":27.054,"tags_mismatch":true},{"osm":{"type":"node","id":6260690770,"tags":{"addr:city":"София","addr:housenumber":"11","addr:street":"бул. Тодор Александров","brand":"Lilly","brand:wikidata":"Q111764460","opening_hours":"Mo-Fr 08:00-20:00; Sa 09:00-20:00","phone":"+359 2 987 9891","shop":"chemist","website":"https://www.lillydrogerie.bg/"},"wikidata":"Q111764460","coordinates":[42.6980172,23.319392]},"atp":{"id":"0tB_O25r392uHIaah0Q2t158bAk=","tags":{"ref":"34","@source_uri":"https://www.lillydrogerie.bg/bg/stores","@spider":"lilly_bg","shop":"chemist","addr:full":"бул. „Тодор Александров“ № 11","addr:country":"BG","phone":"+359 2 413 8962","opening_hours":"Mo-Fr 08:00-20:00; Sa 09:00-20:00","brand":"Lilly","brand:wikidata":"Q111764460","nsi_id":"lilly-22ddb5"},"coordinates":[42.697956,23.31942]},"dist":7.18,"tags_mismatch":true},{"osm":{"type":"node","id":6323243191,"tags":{"brand":"Lilly","brand:wikidata":"Q111764460","shop":"chemist","website":"https://www.lillydrogerie.bg/"},"wikidata":"Q111764460","coordinates":[42.7019079,23.3011165]},"atp":{"id":"yMNeJQmMcm5Hs3Tm95B8qkIA87s=","tags":{"ref":"28","@source_uri":"https://www.lillydrogerie.bg/bg/stores","@spider":"lilly_bg","shop":"chemist","addr:full":"ул. ”Димитър Петков” № 77","addr:country":"BG","phone":"+359 2 413 8946","opening_hours":"Mo-Su 08:00-20:00","brand":"Lilly","brand:wikidata":"Q111764460","nsi_id":"lilly-22ddb5"},"coordinates":[42.701901,23.301046]},"dist":5.812,"tags_mismatch":true},{"osm":{"type":"node","id":6343700185,"tags":{"addr:housenumber":"97","addr:street":"бул. Джеймс Баучер","brand":"Lilly","brand:wikidata":"Q111764460","check_date:opening_hours":"2025-01-12","opening_hours":"Mo-Fr 08:00-20:00; Sa 09:00-18:00; Su 10:00-18:00","phone":"+359 2 843 0849","shop":"chemist","website":"https://www.lillydrogerie.bg/"},"wikidata":"Q111764460","coordinates":[42.6704113,23.3149893]},"atp":{"id":"Hd4y4pTKNZnXR6pwOCcMeMCQpss=","tags":{"ref":"15","@source_uri":"https://www.lillydrogerie.bg/bg/stores","@spider":"lilly_bg","shop":"chemist","addr:full":"бул. „Джеймс Баучер“ № 95-97","addr:country":"BG","phone":"+359 2 413 8918","opening_hours":"Mo-Fr 08:00-20:00; Sa 09:00-18:00; Su 10:00-18:00","brand":"Lilly","brand:wikidata":"Q111764460","nsi_id":"lilly-22ddb5"},"coordinates":[42.670402,23.314967]},"dist":2.096,"tags_mismatch":true},{"osm":{"type":"node","id":6357572979,"tags":{"brand":"Lilly","brand:wikidata":"Q111764460","check_date":"2024-11-01","check_date:opening_hours":"2023-10-26","internet_access":"no","opening_hours":"Mo-Fr 08:00-20:00; Sa 09:00-18:00","payment:mastercard":"yes","payment:visa":"yes","phone":"+359 2 851 0417","shop":"chemist","website":"https://www.lillydrogerie.bg/","wheelchair":"yes"},"wikidata":"Q111764460","coordinates":[42.6890877,23.3080269]},"atp":{"id":"Z477lHVlCmuIim-JNttf5fs5Dbs=","tags":{"ref":"12","@source_uri":"https://www.lillydrogerie.bg/bg/stores","@spider":"lilly_bg","shop":"chemist","addr:full":"ул. ”Пенчо Славейков” № 5","addr:country":"BG","phone":"+359 2 413 8913","opening_hours":"Mo-Fr 08:00-20:00; Sa 09:00-18:00","brand":"Lilly","brand:wikidata":"Q111764460","nsi_id":"lilly-22ddb5"},"coordinates":[42.689003,23.308093]},"dist":10.858,"tags_mismatch":true},{"osm":{"type":"node","id":6381991179,"tags":{"addr:city":"София","addr:housenumber":"184","addr:postcode":"1408","addr:street":"бул. Витоша","brand":"Lilly","brand:wikidata":"Q111764460","check_date":"2024-10-15","opening_hours":"Mo-Fr 08:00-20:00; Sa 09:00-20:00; Su 10:00-18:00","payment:mastercard":"yes","payment:visa":"yes","phone":"+359 2 413 8927","shop":"chemist","website":"https://www.lillydrogerie.bg/","wheelchair":"yes"},"wikidata":"Q111764460","coordinates":[42.6771519,23.3095215]},"atp":{"id":"N0LUuBKEmdkR5QkNFHUmhMCEHG8=","tags":{"ref":"20","@source_uri":"https://www.lillydrogerie.bg/bg/stores","@spider":"lilly_bg","shop":"chemist","addr:full":"бул. „Витоша“ № 184","addr:country":"BG","phone":"+359 2 413 8927","opening_hours":"Mo-Fr 08:00-20:00; Sa 09:00-20:00; Su 10:00-18:00","brand":"Lilly","brand:wikidata":"Q111764460","nsi_id":"lilly-22ddb5"},"coordinates":[42.677153,23.309508]},"dist":1.11,"tags_mismatch":false},{"osm":{"type":"node","id":6388300357,"tags":{"addr:city":"София","branch":"Дрогерие","brand":"Lilly","brand:wikidata":"Q111764460","fixme":"phone","opening_hours":"Mo-Fr 08:00-20:00; Sa 09:00-20:00; Su 10:00-18:00","phone":"+359-987-98-91","shop":"chemist","website":"https://www.lillydrogerie.bg/"},"wikidata":"Q111764460","coordinates":[42.7129369,23.2701592]},"atp":{"id":"WFh3Ciri2AQc1xs59mbc3B_vvUY=","tags":{"ref":"18","@source_uri":"https://www.lillydrogerie.bg/bg/stores","@spider":"lilly_bg","shop":"chemist","addr:full":"ТЦ „Леандър“, партер","addr:country":"BG","phone":"+359 2 413 8925","opening_hours":"Mo-Fr 08:00-20:00; Sa 09:00-20:00; Su 10:00-18:00","brand":"Lilly","brand:wikidata":"Q111764460","nsi_id":"lilly-22ddb5"},"coordinates":[42.712965,23.270158]},"dist":3.126,"tags_mismatch":true},{"osm":{"type":"node","id":6416381054,"tags":{"addr:city":"София","addr:housenumber":"39","addr:postcode":"1407","addr:street":"бул. Черни връх","brand":"Lilly","brand:wikidata":"Q111764460","opening_hours":"Su 10:00-18:00; Mo-Fr 08:00-20:00; Sa 09:00-18:00","shop":"chemist","website":"https://www.lillydrogerie.bg/"},"wikidata":"Q111764460","coordinates":[42.6681033,23.3195238]},"atp":{"id":"-SFJ7RXwjA0g2zK4MxFrbvTgClk=","tags":{"ref":"36","@source_uri":"https://www.lillydrogerie.bg/bg/stores","@spider":"lilly_bg","shop":"chemist","addr:full":"бул. ”Черни връх” № 39","addr:country":"BG","phone":"+359 2 413 8969","opening_hours":"Mo-Fr 08:00-20:00; Sa 09:00-18:00; Su 10:00-18:00","brand":"Lilly","brand:wikidata":"Q111764460","nsi_id":"lilly-22ddb5"},"coordinates":[42.668202,23.319417]},"dist":14.025,"tags_mismatch":true},{"osm":{"type":"node","id":6572567077,"tags":{"brand":"Lilly","brand:wikidata":"Q111764460","check_date":"2024-12-12","opening_hours":"Mo-Fr 08:00-20:00; Sa 09:00-20:00; Su 10:00-18:00","shop":"chemist","website":"https://lillydrogerie.bg/"},"wikidata":"Q111764460","coordinates":[42.6999126,23.3182614]},"atp":{"id":"5y04zbUX_nWurevVXAFpYk6DgQQ=","tags":{"ref":"25","@source_uri":"https://www.lillydrogerie.bg/bg/stores","@spider":"lilly_bg","shop":"chemist","addr:full":"ул. ”Пиротска” № 20","addr:country":"BG","phone":"+359 2 413 8938","opening_hours":"Mo-Fr 08:00-20:00; Sa 09:00-20:00; Su 10:00-18:00","brand":"Lilly","brand:wikidata":"Q111764460","nsi_id":"lilly-22ddb5"},"coordinates":[42.699951,23.31828]},"dist":4.532,"tags_mismatch":true},{"osm":{"type":"node","id":6585089291,"tags":{"brand":"Lilly","brand:wikidata":"Q111764460","opening_hours":"Mo-Fr 08:00-20:00;Sa 09:00-20:00;Su 10:00-18:00","shop":"chemist"},"wikidata":"Q111764460","coordinates":[42.6592073,23.3158755]},"atp":{"id":"C_eron-7lE5uuvSd8s8SH-KQoOk=","tags":{"ref":"112","@source_uri":"https://www.lillydrogerie.bg/bg/stores","@spider":"lilly_bg","shop":"chemist","addr:full":"ул. \"Хенрик Ибсън\" №17","addr:country":"BG","phone":"+359 89 708 9273","opening_hours":"Mo-Fr 08:00-20:00; Sa 09:00-20:00; Su 10:00-18:00","brand":"Lilly","brand:wikidata":"Q111764460","nsi_id":"lilly-22ddb5"},"coordinates":[42.659384729017866,23.315809026985345]},"dist":20.464,"tags_mismatch":true},{"osm":{"type":"node","id":6641052019,"tags":{"addr:city":"Шумен","addr:housenumber":"23","addr:postcode":"9700","addr:street":"бул. Славянски","air_conditioning":"yes","brand":"Lilly","brand:wikidata":"Q111764460","currency:BGN":"yes","email":"office@lillydrogerie.bg","level":"0","opening_hours":"Mo-Fr 08:00-20:00; Sa 09:00-18:00; Su 10:00-18:00","payment:cash":"yes","payment:contactless":"yes","payment:credit_cards":"yes","payment:debit_cards":"yes","payment:mastercard":"yes","payment:visa":"yes","phone":"+359 54 993 036","shop":"chemist","website":"https://lillydrogerie.bg","wheelchair":"yes"},"wikidata":"Q111764460","coordinates":[43.2713603,26.9320233]},"atp":{"id":"t7zsO8s3_CUMsPQ2ui6pnWouNRw=","tags":{"ref":"85","@source_uri":"https://www.lillydrogerie.bg/bg/stores","@spider":"lilly_bg","shop":"chemist","addr:full":"бул. „Славянски“ 24, Шумен Център","addr:country":"BG","phone":"+359 54 993 036","opening_hours":"Mo-Fr 08:00-20:00; Sa 09:00-18:00; Su 10:00-18:00","brand":"Lilly","brand:wikidata":"Q111764460","nsi_id":"lilly-22ddb5"},"coordinates":[43.271357,26.931976]},"dist":3.847,"tags_mismatch":false},{"osm":{"type":"node","id":6742085418,"tags":{"addr:city":"Хасково","addr:housenumber":"3А","addr:postcode":"6300","addr:street":"Климент Охридски","brand":"Lilly","brand:wikidata":"Q111764460","opening_hours":"Mo-Fr 08:00-20:00; Sa 09:00-20:00; Su 10:00-18:00","phone":"+359 38 590 927","shop":"chemist","website":"https://www.lillydrogerie.bg/"},"wikidata":"Q111764460","coordinates":[41.9322171,25.5547199]},"atp":{"id":"cGjvMlOvEV3OdtdDLg7mM7O03LI=","tags":{"ref":"71","@source_uri":"https://www.lillydrogerie.bg/bg/stores","@spider":"lilly_bg","shop":"chemist","addr:full":"ул. ”Климент Охридски” № 3 – А","addr:country":"BG","phone":"+359 38 590 927","opening_hours":"Mo-Sa 09:00-20:00; Su 10:00-18:00","brand":"Lilly","brand:wikidata":"Q111764460","nsi_id":"lilly-22ddb5"},"coordinates":[41.932156,25.554733]},"dist":6.88,"tags_mismatch":true},{"osm":{"type":"node","id":6927327385,"tags":{"addr:city":"Пловдив","addr:street":"Княз Александър I Батенберг","brand":"Lilly","brand:wikidata":"Q111764460","check_date":"2023-02-19","opening_hours":"Mo-Sa 09:00-21:00; Su 10:30-21:00","shop":"chemist","website":"https://www.lillydrogerie.bg/"},"wikidata":"Q111764460","coordinates":[42.1467656,24.7482165]},"atp":{"id":"QghW8q7InkC9GvGDWO_xCnKNfd0=","tags":{"ref":"58","@source_uri":"https://www.lillydrogerie.bg/bg/stores","@spider":"lilly_bg","shop":"chemist","addr:full":"ул. „Княз Александър 1“ №14, ет.1","addr:country":"BG","phone":"+359 32 599 652","opening_hours":"Mo-Sa 09:00-21:00; Su 10:30-21:00","brand":"Lilly","brand:wikidata":"Q111764460","nsi_id":"lilly-22ddb5"},"coordinates":[42.147343,24.748295]},"dist":64.529,"tags_mismatch":true},{"osm":{"type":"node","id":7179870254,"tags":{"brand":"Lilly","brand:wikidata":"Q111764460","check_date":"2024-11-07","opening_hours":"Mo-Fr 08:00-20:00; Sa 09:00-20:00; Su 10:00-18:00","phone":"+359 2 413 8981","shop":"chemist","website":"https://www.lillydrogerie.bg/"},"wikidata":"Q111764460","coordinates":[42.7251712,23.2552464]},"atp":{"id":"9iDrZhCYKxjrQc8hvrIuVQkMhM8=","tags":{"ref":"41","@source_uri":"https://www.lillydrogerie.bg/bg/stores","@spider":"lilly_bg","shop":"chemist","addr:full":"ж.к. Люлин 2 ул. „проф. д-р Александър Станишев“ 17","addr:country":"BG","phone":"+359 2 413 8981","opening_hours":"Mo-Fr 08:00-20:00; Sa 09:00-20:00; Su 10:00-18:00","brand":"Lilly","brand:wikidata":"Q111764460","nsi_id":"lilly-22ddb5"},"coordinates":[42.725285,23.254743]},"dist":43.023,"tags_mismatch":false},{"osm":{"type":"node","id":7232173982,"tags":{"addr:city":"София","addr:housenumber":"17","addr:street":"бул. Захари Стоянов","brand":"Lilly","brand:wikidata":"Q111764460","opening_hours":"Mo-Fr 08:00-20:00; Sa 09:00-20:00; Su 10:00-18:00","phone":"+359 88 295 6601","shop":"chemist","website":"https://www.lillydrogerie.bg/"},"wikidata":"Q111764460","coordinates":[42.7184351,23.2469939]},"atp":{"id":"qqnb0xmPe41oB6ddiMFqNOWfeDw=","tags":{"ref":"117","@source_uri":"https://www.lillydrogerie.bg/bg/stores","@spider":"lilly_bg","shop":"chemist","addr:full":"бул. „Захари Стоянов“ № 17","addr:country":"BG","phone":"+359 88 295 6601","opening_hours":"Mo-Fr 08:00-20:00; Sa 09:00-20:00; Su 10:00-18:00","brand":"Lilly","brand:wikidata":"Q111764460","nsi_id":"lilly-22ddb5"},"coordinates":[42.71862693159699,23.247106346022257]},"dist":23.225,"tags_mismatch":false},{"osm":{"type":"node","id":7365241337,"tags":{"addr:city":"София","addr:housenumber":"21","addr:street":"бул. Панчо Владигеров","brand":"Lilly","brand:wikidata":"Q111764460","opening_hours":"Mo-Sa 09:00-19:00; Su 10:00-18:00","phone":"+359 2 413 8982","shop":"chemist","website":"https://www.lillydrogerie.bg/"},"wikidata":"Q111764460","coordinates":[42.7136207,23.2484879]},"atp":{"id":"GAGZ5RLUyiJZYLcRElwrrvW-cqU=","tags":{"ref":"42","@source_uri":"https://www.lillydrogerie.bg/bg/stores","@spider":"lilly_bg","shop":"chemist","addr:full":"ж.к. Люлин 4, бул. „Панчо Владигеров“ 21","addr:country":"BG","phone":"+359 2 413 8982","opening_hours":"Mo-Fr 08:00-20:00; Sa 09:00-20:00; Su 10:00-18:00","brand":"Lilly","brand:wikidata":"Q111764460","nsi_id":"lilly-22ddb5"},"coordinates":[42.712973,23.248834]},"dist":77.373,"tags_mismatch":true},{"osm":{"type":"node","id":7728116416,"tags":{"brand":"Lilly","brand:wikidata":"Q111764460","shop":"chemist","website":"https://www.lillydrogerie.bg/"},"wikidata":"Q111764460","coordinates":[42.4233044,25.6223095]},"atp":{"id":"Yw7fkp4fPefs6nALEtyESEmMY0I=","tags":{"ref":"49","@source_uri":"https://www.lillydrogerie.bg/bg/stores","@spider":"lilly_bg","shop":"chemist","addr:full":"бул. ”Цар Симеон Велики” № 80","addr:country":"BG","phone":"+359 42 990 026","opening_hours":"Mo-Fr 08:00-20:00; Sa 09:00-18:00; Su 10:00-18:00","brand":"Lilly","brand:wikidata":"Q111764460","nsi_id":"lilly-22ddb5"},"coordinates":[42.42333,25.62233]},"dist":3.307,"tags_mismatch":true},{"osm":{"type":"node","id":8033255366,"tags":{"addr:housenumber":"13","addr:street":"Коста Лулчев","brand":"Lilly","brand:wikidata":"Q111764460","check_date":"2025-02-01","opening_hours":"Mo-Sa 09:00-20:00; Su 10:00-18:00","phone":"+359 2 413 8952","shop":"chemist","website":"https://www.lillydrogerie.bg/"},"wikidata":"Q111764460","coordinates":[42.6761876,23.3602032]},"atp":{"id":"xUAQqE_h60hBE3h5WQ2DLgN0nv4=","tags":{"ref":"30","@source_uri":"https://www.lillydrogerie.bg/bg/stores","@spider":"lilly_bg","shop":"chemist","addr:full":"ул.“Коста Лулчев“, №13","addr:country":"BG","phone":"+359 2 413 8952","opening_hours":"Mo-Fr 08:00-20:00; Sa 09:00-20:00; Su 10:00-18:00","brand":"Lilly","brand:wikidata":"Q111764460","nsi_id":"lilly-22ddb5"},"coordinates":[42.676194,23.360144]},"dist":4.892,"tags_mismatch":true},{"osm":{"type":"node","id":8818234193,"tags":{"addr:city":"Варна","addr:housenumber":"186","addr:postcode":"9000","addr:street":"бул. Владислав Варненчик","brand":"Lilly","brand:wikidata":"Q111764460","note":"Партер, магазинн 31","opening_hours":"10:00 - 20:00","payment:cash":"yes","payment:mastercard":"yes","payment:visa":"yes","phone":"+359 52 999 625","shop":"chemist","website":"https://www.lillydrogerie.bg/"},"wikidata":"Q111764460","coordinates":[43.2084027,27.9096701]},"atp":{"id":"Y4iCL0XED0ownRyrQNnv1RQxxvg=","tags":{"ref":"55","@source_uri":"https://www.lillydrogerie.bg/bg/stores","@spider":"lilly_bg","shop":"chemist","addr:full":"бул.“Владислав Варненчик“, № 38","addr:country":"BG","phone":"+359 52 999 627","opening_hours":"Mo-Fr 08:00-20:00; Sa 09:00-20:00; Su 10:00-18:00","brand":"Lilly","brand:wikidata":"Q111764460","nsi_id":"lilly-22ddb5"},"coordinates":[43.208827,27.909449]},"dist":50.468,"tags_mismatch":true},{"osm":{"type":"node","id":8844290026,"tags":{"addr:floor":"G","addr:housenumber":"4","addr:postcode":"9000","addr:street":"Фредерик Шопен","brand":"Lilly","brand:wikidata":"Q111764460","check_date":"2024-08-30","internet_access":"no","opening_hours":"08:00 -20:00","payment:cash":"yes","payment:mastercard":"yes","payment:visa":"yes","phone":"+359 52 915 684","shop":"chemist","website":"https://www.lillydrogerie.bg/","wheelchair":"yes"},"wikidata":"Q111764460","coordinates":[43.2039218,27.9130512]},"atp":{"id":"BsxnFWuZg6NaKHlSUeanGMVG368=","tags":{"ref":"98","@source_uri":"https://www.lillydrogerie.bg/bg/stores","@spider":"lilly_bg","shop":"chemist","addr:full":"район Одесос, ул. Шопен 4","addr:country":"BG","phone":"+359 52 915 684","opening_hours":"Mo-Su 08:00-20:00","brand":"Lilly","brand:wikidata":"Q111764460","nsi_id":"lilly-22ddb5"},"coordinates":[43.203650866911076,27.91321483810496]},"dist":32.917,"tags_mismatch":true},{"osm":{"type":"node","id":9604574850,"tags":{"addr:city":"Варна","addr:housenumber":"45","addr:postcode":"9003","addr:street":"Св. Св. Кирил и Методий","branch":"в. Аспарухово","brand":"Lilly","brand:wikidata":"Q111764460","opening_hours":"Mo-Fr 08:00-20:00; Sa 09:00-20:00; Su10:00-18:00","payment:cash":"yes","payment:mastercard":"yes","payment:visa":"yes","phone":"+359 52 999 626","shop":"chemist","website":"https://lillydrogerie.bg/"},"wikidata":"Q111764460","coordinates":[43.1802812,27.8977571]},"atp":{"id":"DD6z8PUgQ1F3WiCb5ZS50ON3AEg=","tags":{"ref":"54","@source_uri":"https://www.lillydrogerie.bg/bg/stores","@spider":"lilly_bg","shop":"chemist","addr:full":"кв. Аспарухово, ул. ”Св. Св. Кирил и Методий” № 45","addr:country":"BG","phone":"+359 52 999 626","opening_hours":"Mo-Fr 08:00-20:00; Sa 09:00-20:00; Su 10:00-18:00","brand":"Lilly","brand:wikidata":"Q111764460","nsi_id":"lilly-22ddb5"},"coordinates":[43.180412,27.897615]},"dist":18.555,"tags_mismatch":true},{"osm":{"type":"node","id":9891964517,"tags":{"branch":"Дрогерие","brand":"Lilly","brand:wikidata":"Q111764460","email":"shop@lillydrogerie.bg","opening_hours":"Mo-Fr 08:00-20:00; Sa 09:00-18:00","phone":"+359 2 413 8999","shop":"chemist","website":"https://shop.lillydrogerie.bg/"},"wikidata":"Q111764460","coordinates":[42.6991491,23.3258274]},"atp":{"id":"i71GpLemGWOe4xhhCdmJecWHQNA=","tags":{"ref":"17","@source_uri":"https://www.lillydrogerie.bg/bg/stores","@spider":"lilly_bg","shop":"chemist","addr:full":"ул. „Веслец“ № 14, ет. 1","addr:country":"BG","phone":"+359 2 413 8923","opening_hours":"Mo-Fr 08:00-20:00; Sa 09:00-18:00","brand":"Lilly","brand:wikidata":"Q111764460","nsi_id":"lilly-22ddb5"},"coordinates":[42.699131,23.325959]},"dist":10.941,"tags_mismatch":true},{"osm":{"type":"node","id":9953359655,"tags":{"addr:housenumber":"2","addr:street":"Донка Ушлинова","brand":"Lilly","brand:wikidata":"Q111764460","check_date":"2022-10-21","currency:BGN":"yes","payment:cash":"yes","payment:credit_cards":"yes","payment:debit_cards":"yes","shop":"chemist","website":"https://www.lillydrogerie.bg","wheelchair":"yes"},"wikidata":"Q111764460","coordinates":[42.6227325,23.3706048]},"atp":false,"tags_mismatch":false},{"osm":{"type":"node","id":9984580882,"tags":{"addr:city":"Казанлък","addr:housenumber":"1","addr:postcode":"6100","addr:street":"Княз Александър Батенберг","brand":"Lilly","brand:wikidata":"Q111764460","opening_hours":"Mo-Fr 08:00-20:00; Sa 09:00-20:00; Su 10:00-18:00","payment:cash":"yes","payment:mastercard":"yes","payment:visa":"yes","phone":"+359 431 59 078","shop":"chemist","website":"https://lillydrogerie.bg/"},"wikidata":"Q111764460","coordinates":[42.6185876,25.3940305]},"atp":false,"tags_mismatch":false},{"osm":{"type":"node","id":10080107726,"tags":{"addr:city":"Перник","addr:housenumber":"2А","addr:postcode":"2300","addr:street":"Юрий Гагарин","brand":"Lilly","brand:wikidata":"Q111764460","opening_hours":"09:00-20:00","payment:cash":"yes","payment:mastercard":"yes","payment:visa":"yes","phone":"+359 76 593 026","shop":"chemist","website":"https://www.lillydrogerie.bg"},"wikidata":"Q111764460","coordinates":[42.607036,23.0565151]},"atp":{"id":"ksWFDlGA96GlkPDjJjXbGdXHmfg=","tags":{"ref":"111","@source_uri":"https://www.lillydrogerie.bg/bg/stores","@spider":"lilly_bg","shop":"chemist","addr:full":"ул. \"Юрий Гагарин\", №2А","addr:country":"BG","phone":"+359 76 593 026","opening_hours":"Mo-Su 09:00-20:00","brand":"Lilly","brand:wikidata":"Q111764460","nsi_id":"lilly-22ddb5"},"coordinates":[42.607237105753,23.055914028564278]},"dist":54.036,"tags_mismatch":true},{"osm":{"type":"node","id":10119109671,"tags":{"brand":"Lilly","brand:wikidata":"Q111764460","check_date":"2025-03-04","internet_access":"no","opening_hours":"09:00-21:00","payment:mastercard":"yes","payment:visa":"yes","shop":"chemist","website":"https://www.lillydrogerie.bg","wheelchair":"yes"},"wikidata":"Q111764460","coordinates":[42.6538119,23.3458216]},"atp":{"id":"u7VmGhzpoTRtTug_sI0KkgaEVfo=","tags":{"ref":"22","@source_uri":"https://www.lillydrogerie.bg/bg/stores","@spider":"lilly_bg","shop":"chemist","addr:full":"ул. ”Йордан Йосифов” № 4","addr:country":"BG","phone":"+359 2 413 8932","opening_hours":"Mo-Su 09:00-21:00","brand":"Lilly","brand:wikidata":"Q111764460","nsi_id":"lilly-22ddb5"},"coordinates":[42.653815,23.345806]},"dist":1.322,"tags_mismatch":true},{"osm":{"type":"node","id":10140133162,"tags":{"brand":"Lilly","brand:wikidata":"Q111764460","shop":"chemist","website":"https://www.lillydrogerie.bg"},"wikidata":"Q111764460","coordinates":[42.1245273,24.7211038]},"atp":{"id":"29Bs_iXfhueJpYcId63uJc-ZMEo=","tags":{"ref":"87","@source_uri":"https://www.lillydrogerie.bg/bg/stores","@spider":"lilly_bg","shop":"chemist","addr:full":"гр. Пловдив, бул. „Александър Стамболийски“ 135, 4004 ж.к. Остромила, Търговски център ЮГ","addr:country":"BG","phone":"+359 32 329 766","opening_hours":"Mo-Fr 08:00-20:00; Sa 09:00-20:00; Su 10:00-18:00","brand":"Lilly","brand:wikidata":"Q111764460","nsi_id":"lilly-22ddb5"},"coordinates":[42.124661,24.720823]},"dist":27.519,"tags_mismatch":true},{"osm":{"type":"node","id":10154537258,"tags":{"addr:city":"Бургас","addr:housenumber":"бл. 130","addr:place":"ж.к. Изгрев","addr:postcode":"8000","brand":"Lilly","brand:wikidata":"Q111764460","check_date":"2022-11-03","opening_hours":"Mo-Fr 08:00-20:00; Sa 09:00-20:00; Su 10:00-20:00","payment:cash":"yes","payment:mastercard":"yes","payment:visa":"yes","phone":"+359 56 999 987","shop":"chemist","website":"https://www.lillydrogerie.bg"},"wikidata":"Q111764460","coordinates":[42.5226169,27.4623025]},"atp":{"id":"r2274M4buzMgDntuJPGyxSlSCcA=","tags":{"ref":"66","@source_uri":"https://www.lillydrogerie.bg/bg/stores","@spider":"lilly_bg","shop":"chemist","addr:full":"Квартал Изгрев бл. 130","addr:country":"BG","phone":"+359 56 999 987","opening_hours":"Mo-Fr 08:00-20:00; Sa 09:00-20:00; Su 10:00-18:00","brand":"Lilly","brand:wikidata":"Q111764460","nsi_id":"lilly-22ddb5"},"coordinates":[42.522774,27.462186]},"dist":19.908,"tags_mismatch":true},{"osm":{"type":"node","id":10157390119,"tags":{"addr:city":"Бургас","addr:housenumber":"4","addr:place":"Площад Тройката","addr:postcode":"8000","brand":"Lilly","brand:wikidata":"Q111764460","check_date":"2022-11-04","opening_hours":"08:00-20:00","phone":"+359 56 999 986","shop":"chemist","website":"https://www.lillydrogerie.bg"},"wikidata":"Q111764460","coordinates":[42.4967503,27.4707055]},"atp":{"id":"GHiL8XIJ4AhRtLMR9Viijk-XaRo=","tags":{"ref":"65","@source_uri":"https://www.lillydrogerie.bg/bg/stores","@spider":"lilly_bg","shop":"chemist","addr:full":"пл. „Тройката“ № 4","addr:country":"BG","phone":"+359 56 999 986","opening_hours":"Mo-Su 08:00-20:00","brand":"Lilly","brand:wikidata":"Q111764460","nsi_id":"lilly-22ddb5"},"coordinates":[42.496782,27.470707]},"dist":3.527,"tags_mismatch":true},{"osm":{"type":"node","id":10184381030,"tags":{"addr:city":"Панагюрище","addr:housenumber":"67","addr:postcode":"4500","addr:street":"Георги Бенковски","brand":"Lilly","brand:wikidata":"Q111764460","opening_hours":"Mo-Fr 09:00-20:00; Sa-Su 10:00-20:00","payment:cash":"yes","payment:mastercard":"yes","payment:visa":"yes","phone":"+359 357 94 976","shop":"chemist"},"wikidata":"Q111764460","coordinates":[42.4945139,24.1877574]},"atp":{"id":"Mx_wMTHDlHhUPSm_mofbqB6Y31I=","tags":{"ref":"107","@source_uri":"https://www.lillydrogerie.bg/bg/stores","@spider":"lilly_bg","shop":"chemist","addr:full":"ул. \"Георги Бенковски\" 67","addr:country":"BG","phone":"+359 35 794 976","opening_hours":"Mo-Fr 09:00-20:00; Sa-Su 10:00-20:00","brand":"Lilly","brand:wikidata":"Q111764460","nsi_id":"lilly-22ddb5"},"coordinates":[42.495145960352886,24.187323455509343]},"dist":78.774,"tags_mismatch":true},{"osm":{"type":"node","id":10249380717,"tags":{"brand":"Lilly","brand:wikidata":"Q111764460","level":"0","shop":"chemist","website":"https://www.lillydrogerie.bg"},"wikidata":"Q111764460","coordinates":[42.6606499,23.3828195]},"atp":{"id":"mSKZ_CYvNMEVBssHI8NW9RA_RYM=","tags":{"ref":"8","@source_uri":"https://www.lillydrogerie.bg/bg/stores","@spider":"lilly_bg","shop":"chemist","addr:full":"бул. „Цариградско шосе” № 115 З, ет. 1, м-н 47","addr:country":"BG","phone":"+359 2 413 8902","opening_hours":"Mo-Su 10:00-22:00","brand":"Lilly","brand:wikidata":"Q111764460","nsi_id":"lilly-22ddb5"},"coordinates":[42.660917,23.382083]},"dist":67.149,"tags_mismatch":true},{"osm":{"type":"node","id":10285661960,"tags":{"air_conditioning":"yes","branch":"Магазин 112","brand":"Lilly","brand:wikidata":"Q111764460","check_date":"2022-12-25","internet_access":"no","level":"0","opening_hours":"Mo-Fr 08:00-20:00","payment:mastercard":"yes","payment:visa":"yes","shop":"chemist","website":"https://www.lillydrogerie.bg","wheelchair":"yes"},"wikidata":"Q111764460","coordinates":[43.4177926,24.6127859]},"atp":{"id":"uL1hOgGcXIDmNDvQqZwcW_yYaUI=","tags":{"ref":"116","@source_uri":"https://www.lillydrogerie.bg/bg/stores","@spider":"lilly_bg","shop":"chemist","addr:full":"ул Асен Халачев №2","addr:country":"BG","phone":"+359 89 708 9257","opening_hours":"Mo-Su 08:00-20:00","brand":"Lilly","brand:wikidata":"Q111764460","nsi_id":"lilly-22ddb5"},"coordinates":[43.41775040594235,24.612725389938173]},"dist":6.775,"tags_mismatch":true},{"osm":{"type":"node","id":10293134229,"tags":{"brand":"Lilly","brand:wikidata":"Q111764460","shop":"chemist","website":"https://www.lillydrogerie.bg"},"wikidata":"Q111764460","coordinates":[42.3454283,27.181431]},"atp":false,"tags_mismatch":false},{"osm":{"type":"node","id":10297336102,"tags":{"addr:housenumber":"17","addr:street":"Св. Пимен Зографски","brand":"Lilly","brand:wikidata":"Q111764460","opening_hours":"Mo-Fr 08:00-20:00; Sa 09:00-20:00; Su 10:00-18:00","shop":"chemist","website":"https://www.lillydrogerie.bg/"},"wikidata":"Q111764460","coordinates":[42.6634623,23.3447141]},"atp":false,"tags_mismatch":false},{"osm":{"type":"node","id":10565155494,"tags":{"brand":"Lilly","brand:wikidata":"Q111764460","opening_hours":"Mo-Fr 08:00-20:00; Sa 09:00-20:00; Su 10:00-18:00","shop":"chemist","website":"https://www.lillydrogerie.bg/"},"wikidata":"Q111764460","coordinates":[42.6707217,23.3527052]},"atp":{"id":"ty_xuGQ3K0vfTsk-UY0-xlz6RCo=","tags":{"ref":"103","@source_uri":"https://www.lillydrogerie.bg/bg/stores","@spider":"lilly_bg","shop":"chemist","addr:full":"гр. София, ул. „Николай Хайтов“ 6, 1113 ж.к. Изток","addr:country":"BG","phone":"+359 2 413 8906","opening_hours":"Mo-Fr 08:00-20:00; Sa 09:00-20:00; Su 10:00-18:00","brand":"Lilly","brand:wikidata":"Q111764460","nsi_id":"lilly-22ddb5"},"coordinates":[42.670641962491224,23.3527675546398]},"dist":10.228,"tags_mismatch":true},{"osm":{"type":"node","id":10599957288,"tags":{"addr:city":"Ямбол","addr:postcode":"8600","addr:street":"Търговска","brand":"Lilly","brand:wikidata":"Q111764460","opening_hours":"Mo-Sa 09:00-20:00; Su 09:00-18:00","shop":"chemist","website":"https://www.lillydrogerie.bg"},"wikidata":"Q111764460","coordinates":[42.4817631,26.5131678]},"atp":{"id":"YhdPfo8TJTqPQcrbH0Qbif7daXE=","tags":{"ref":"73","@source_uri":"https://www.lillydrogerie.bg/bg/stores","@spider":"lilly_bg","shop":"chemist","addr:full":"ул. ”Търговска” № 35","addr:country":"BG","phone":"+359 46 993 026","opening_hours":"Mo-Sa 09:00-20:00; Su 09:00-18:00","brand":"Lilly","brand:wikidata":"Q111764460","nsi_id":"lilly-22ddb5"},"coordinates":[42.481842,26.512814]},"dist":30.311,"tags_mismatch":true},{"osm":{"type":"node","id":10671878311,"tags":{"addr:city":"Дупница","addr:housenumber":"1","addr:postcode":"2600","addr:street":"Св. Иван Рилски","brand":"Lilly","brand:wikidata":"Q111764460","opening_hours":"Mo-Fr 09:00-19:00; Sa-Su 09:00-18:00","payment:cash":"yes","payment:mastercard":"yes","payment:visa":"yes","phone":"+359 701 99 950","shop":"chemist","website":"https://www.lillydrogerie.bg/"},"wikidata":"Q111764460","coordinates":[42.2641439,23.1156534]},"atp":{"id":"b5UspoX-2uYVIr_Z942CQFj4O1o=","tags":{"ref":"104","@source_uri":"https://www.lillydrogerie.bg/bg/stores","@spider":"lilly_bg","shop":"chemist","addr:full":"ул. „Св. Иван Рилски“ 1, 2600 Център, Дупница Търговски център","addr:country":"BG","phone":"+359 701 999 50","opening_hours":"Mo-Fr 09:00-19:00; Sa-Su 09:00-18:00","brand":"Lilly","brand:wikidata":"Q111764460","nsi_id":"lilly-22ddb5"},"coordinates":[42.26415971759354,23.115792749096798]},"dist":11.601,"tags_mismatch":true},{"osm":{"type":"node","id":10687649020,"tags":{"addr:city":"Ботевград","addr:housenumber":"1","addr:postcode":"2140","addr:street":"бул.3-ти март","brand":"Lilly","brand:wikidata":"Q111764460","opening_hours":"Mo-Sa 10:00-20:00; Su 10:00-20:00","shop":"chemist","website":"https://www.lillydrogerie.bg/"},"wikidata":"Q111764460","coordinates":[42.9003845,23.7921837]},"atp":{"id":"LY_yZ8IfnCE6SIO-0EoUikhb3ug=","tags":{"ref":"82","@source_uri":"https://www.lillydrogerie.bg/bg/stores","@spider":"lilly_bg","shop":"chemist","addr:full":"бул. ”Трети март” №68","addr:country":"BG","phone":"+359 72 399 900","opening_hours":"Mo-Sa 08:00-20:00; Su 10:00-20:00","brand":"Lilly","brand:wikidata":"Q111764460","nsi_id":"lilly-22ddb5"},"coordinates":[42.900784,23.792763]},"dist":64.807,"tags_mismatch":true},{"osm":{"type":"node","id":10687658818,"tags":{"addr:city":"Благоевград","addr:housenumber":"2","addr:postcode":"2700","addr:street":"Тодор Александров","brand":"Lilly","brand:wikidata":"Q111764460","opening_hours":"Mo-Sa 09:00-20:00; Su 10:00-20:00","payment:cash":"yes","payment:mastercard":"yes","payment:visa":"yes","phone":"+359 73 590 917","shop":"chemist","website":"https://www.lillydrogerie.bg/"},"wikidata":"Q111764460","coordinates":[42.0200712,23.1005705]},"atp":{"id":"101zmJaM-OOXE4t4fRgDRYpFm-g=","tags":{"ref":"67","@source_uri":"https://www.lillydrogerie.bg/bg/stores","@spider":"lilly_bg","shop":"chemist","addr:full":"ул. ”Тодор Александров” № 2","addr:country":"BG","phone":"+359 73 590 917","opening_hours":"Mo-Sa 09:00-20:00; Su 10:00-18:00","brand":"Lilly","brand:wikidata":"Q111764460","nsi_id":"lilly-22ddb5"},"coordinates":[42.020457,23.100097]},"dist":58.054,"tags_mismatch":true},{"osm":{"type":"node","id":10687719268,"tags":{"addr:city":"Бургас","addr:housenumber":"6","addr:postcode":"8000","addr:street":"Янко Комитов","brand":"Lilly","brand:wikidata":"Q111764460","contact:phone":"+359 56 999 988","description":"Партер, м-н 0.010.","opening_hours":"10:00-22:00","shop":"chemist","website":"https://www.lillydrogerie.bg/"},"wikidata":"Q111764460","coordinates":[42.5130758,27.4542645]},"atp":{"id":"kQ6p7jIeSCgfX3KaVz87ycZPxIQ=","tags":{"ref":"64","@source_uri":"https://www.lillydrogerie.bg/bg/stores","@spider":"lilly_bg","shop":"chemist","addr:full":"МОЛ „Галерия Бургас“, ул. ”Янко Комитов” № 6, партер, м-н 0.010","addr:country":"BG","phone":"+359 56 999 988","opening_hours":"Mo-Su 10:00-22:00","brand":"Lilly","brand:wikidata":"Q111764460","nsi_id":"lilly-22ddb5"},"coordinates":[42.512747,27.45422]},"dist":36.742,"tags_mismatch":true},{"osm":{"type":"node","id":10687818854,"tags":{"addr:city":"Варна","addr:housenumber":"2, ТЦ Маркет Варна","addr:postcode":"9000","addr:street":"Цар Иван Страцимир","brand":"Lilly","brand:wikidata":"Q111764460","opening_hours":"Mo-Fr 08:00-20:00; Sa 09:00-20:00; Su 10:00-18:00","payment:cash":"yes","payment:mastercard":"yes","payment:visa":"yes","phone":"+359 52 999 790","shop":"chemist"},"wikidata":"Q111764460","coordinates":[43.2095537,27.9025364]},"atp":{"id":"mErnjQjnLP3jcpc1eogMRfCDNCU=","tags":{"ref":"92","@source_uri":"https://www.lillydrogerie.bg/bg/stores","@spider":"lilly_bg","shop":"chemist","addr:full":"гр. Варна, ул. Иван Страцимир 2, ТЦ Маркет Варна","addr:country":"BG","phone":"+359 52 999 790","opening_hours":"Mo-Fr 08:00-20:00; Sa 09:00-20:00; Su 10:00-18:00","brand":"Lilly","brand:wikidata":"Q111764460","nsi_id":"lilly-22ddb5"},"coordinates":[43.209863,27.902075]},"dist":50.805,"tags_mismatch":false},{"osm":{"type":"node","id":10687838616,"tags":{"addr:city":"Варна","addr:housenumber":"186","addr:postcode":"9000","addr:street":"бул. Владислав Варненчик","branch":"Mall Varna","brand":"Lilly","brand:wikidata":"Q111764460","opening_hours":"10:00 - 20:00","payment:cash":"yes","payment:mastercard":"yes","payment:visa":"yes","phone":"+359 52 999 625","shop":"chemist","website":"https://www.lillydrogerie.bg/"},"wikidata":"Q111764460","coordinates":[43.2200799,27.8895247]},"atp":{"id":"6s7K2rrzGReHHR35FJLwl8pv3EA=","tags":{"ref":"53","@source_uri":"https://www.lillydrogerie.bg/bg/stores","@spider":"lilly_bg","shop":"chemist","addr:full":"бул. „Владислав Варненчик” № 186, партер, м-н 31","addr:country":"BG","phone":"+359 52 999 625","opening_hours":"Mo-Su 09:00-20:00","brand":"Lilly","brand:wikidata":"Q111764460","nsi_id":"lilly-22ddb5"},"coordinates":[43.220259,27.889717]},"dist":25.287,"tags_mismatch":true},{"osm":{"type":"node","id":10687945291,"tags":{"addr:city":"Велико Търново","addr:housenumber":"18","addr:street":"Оборище","brand":"Lilly","brand:wikidata":"Q111764460","opening_hours":"10:00 - 21:00","payment:cash":"yes","payment:mastercard":"yes","payment:visa":"yes","phone":"+359 62 593 650","shop":"chemist","website":"https://www.lillydrogerie.bg/"},"wikidata":"Q111764460","coordinates":[43.079002,25.5999135]},"atp":{"id":"kJIfWFT0dm30fVRb2wZ7yfc7bhE=","tags":{"ref":"76","@source_uri":"https://www.lillydrogerie.bg/bg/stores","@spider":"lilly_bg","shop":"chemist","addr:full":"ул. „Оборище“ №18 МОЛ Търново, ет.2, м-н 3.18","addr:country":"BG","phone":"+359 62 593 650","opening_hours":"Mo-Su 10:00-21:00","brand":"Lilly","brand:wikidata":"Q111764460","nsi_id":"lilly-22ddb5"},"coordinates":[43.079132,25.600452]},"dist":46.063,"tags_mismatch":true},{"osm":{"type":"node","id":10688013855,"tags":{"addr:city":"Враца","addr:housenumber":"1","addr:postcode":"3000","addr:street":"бул. Никола Войводов","brand":"Lilly","brand:wikidata":"Q111764460","opening_hours":"Mo-Fr 08:00-20:00; Sa 09:00-20:00; Su 10:00-18:00","payment:cash":"yes","payment:mastercard":"yes","payment:visa":"yes","phone":"+359 92 993 099","shop":"chemist","website":"https://www.lillydrogerie.bg/"},"wikidata":"Q111764460","coordinates":[43.2047221,23.5498599]},"atp":{"id":"FanjEX6XOqN0DS6CVOTczwTUhdU=","tags":{"ref":"78","@source_uri":"https://www.lillydrogerie.bg/bg/stores","@spider":"lilly_bg","shop":"chemist","addr:full":"бул. „Никола Войводов“ №1","addr:country":"BG","phone":"+359 92 993 099","opening_hours":"Mo-Fr 08:00-20:00; Sa 09:00-20:00; Su 10:00-18:00","brand":"Lilly","brand:wikidata":"Q111764460","nsi_id":"lilly-22ddb5"},"coordinates":[43.204708,23.550366]},"dist":41.05,"tags_mismatch":false},{"osm":{"type":"node","id":10688021081,"tags":{"addr:city":"Габрово","addr:housenumber":"1","addr:postcode":"5300","addr:street":"Константин Иречек","brand":"Lilly","brand:wikidata":"Q111764460","opening_hours":"Mo-Fr 08:00-20:00; Sa 09:00-20:00; Su 10:00-18:00","payment:cash":"yes","payment:mastercard":"yes","payment:visa":"yes","phone":"+359 669 90 093","ref:vatin":"BG201035329","shop":"chemist","website":"https://www.lillydrogerie.bg/"},"wikidata":"Q111764460","coordinates":[42.8716568,25.3193113]},"atp":{"id":"TawDCPGwGg4_lPwOPaZbDF9HUSk=","tags":{"ref":"69","@source_uri":"https://www.lillydrogerie.bg/bg/stores","@spider":"lilly_bg","shop":"chemist","addr:full":"ул. ”Константин Иречек” № 1 – А","addr:country":"BG","phone":"+359 66 990 093","opening_hours":"Mo-Fr 08:00-20:00; Sa 09:00-20:00; Su 10:00-18:00","brand":"Lilly","brand:wikidata":"Q111764460","nsi_id":"lilly-22ddb5"},"coordinates":[42.871651,25.319239]},"dist":5.927,"tags_mismatch":true},{"osm":{"type":"node","id":10688040506,"tags":{"addr:city":"Димитровград","addr:housenumber":"5","addr:postcode":"6400","addr:street":"Петър Парапанов","brand":"Lilly","brand:wikidata":"Q111764460","payment:cash":"yes","payment:mastercard":"yes","payment:visa":"yes","phone":"+359 89 708 9270","shop":"chemist","source":"survey"},"wikidata":"Q111764460","coordinates":[42.0585921,25.586255]},"atp":{"id":"4MXColS4ja-pNheh6tIIDL1m7qY=","tags":{"ref":"113","@source_uri":"https://www.lillydrogerie.bg/bg/stores","@spider":"lilly_bg","shop":"chemist","addr:full":"ул Петър Парапанов 5","addr:country":"BG","phone":"+359 89 708 9270","opening_hours":"Mo-Fr 08:00-20:00; Sa 09:00-20:00; Su 10:00-18:00","brand":"Lilly","brand:wikidata":"Q111764460","nsi_id":"lilly-22ddb5"},"coordinates":[42.05851481229454,25.586218669039386]},"dist":9.102,"tags_mismatch":true},{"osm":{"type":"node","id":10716164442,"tags":{"addr:city":"Кюстендил","addr:housenumber":"107","addr:postcode":"2500","addr:street":"бул. Цар Освободител","brand":"Lilly","brand:wikidata":"Q111764460","opening_hours":"Mo-Su 08:00-20:00","payment:cash":"yes","payment:mastercard":"yes","payment:visa":"yes","phone":"+359 78 920 069","shop":"chemist","website":"https://lillydrogerie.bg/"},"wikidata":"Q111764460","coordinates":[42.2795852,22.6912373]},"atp":{"id":"W578X3yP-hxOh1UAWyqM1m18rfo=","tags":{"ref":"83","@source_uri":"https://www.lillydrogerie.bg/bg/stores","@spider":"lilly_bg","shop":"chemist","addr:full":"бул. ”Цар Освободител” №107","addr:country":"BG","phone":"+359 78 920 069","opening_hours":"Mo-Su 08:00-20:00","brand":"Lilly","brand:wikidata":"Q111764460","nsi_id":"lilly-22ddb5"},"coordinates":[42.279645,22.69134]},"dist":10.752,"tags_mismatch":false},{"osm":{"type":"node","id":10716223299,"tags":{"addr:city":"Монтана","addr:housenumber":"1","addr:postcode":"3400","addr:street":"Славянска","brand":"Lilly","brand:wikidata":"Q111764460","check_date":"2023-05-07","internet_access":"no","opening_hours":"Mo-Sa 09:00-20:00; Su 10:00-19:00","payment:cash":"yes","payment:mastercard":"yes","payment:visa":"yes","phone":"+359 96 520 030","shop":"chemist","website":"https://lillydrogerie.bg/","wheelchair":"yes"},"wikidata":"Q111764460","coordinates":[43.4064681,23.2249718]},"atp":{"id":"zs48H1Mg5Ev-evM4GrNOZNdSQ1U=","tags":{"ref":"81","@source_uri":"https://www.lillydrogerie.bg/bg/stores","@spider":"lilly_bg","shop":"chemist","addr:full":"ул. Славянска №1","addr:country":"BG","phone":"+359 96 520 030","opening_hours":"Mo-Sa 09:00-20:00; Su 10:00-19:00","brand":"Lilly","brand:wikidata":"Q111764460","nsi_id":"lilly-22ddb5"},"coordinates":[43.406538,23.224787]},"dist":16.831,"tags_mismatch":false},{"osm":{"type":"node","id":10716237663,"tags":{"addr:city":"Нова Загора","addr:place":"пл. Свобода","addr:postcode":"8900","brand":"Lilly","brand:wikidata":"Q111764460","opening_hours":"Mo-Fr 08:00-20:00; Sa 09:00-20:00; Su 10:00-18:00","payment:cash":"yes","payment:mastercard":"yes","payment:visa":"yes","phone":"+359 457 50 051","shop":"chemist","website":"https://lillydrogerie.bg/"},"wikidata":"Q111764460","coordinates":[42.4930805,26.0126221]},"atp":{"id":"SBrKMALgNG7px8b-Dzi6Io7kZgg=","tags":{"ref":"91","@source_uri":"https://www.lillydrogerie.bg/bg/stores","@spider":"lilly_bg","shop":"chemist","addr:full":"пл. Свобода 9","addr:country":"BG","phone":"+359 45 750 051","opening_hours":"Mo-Fr 08:00-20:00; Sa 09:00-20:00; Su 10:00-18:00","brand":"Lilly","brand:wikidata":"Q111764460","nsi_id":"lilly-22ddb5"},"coordinates":[42.492948,26.011135]},"dist":122.815,"tags_mismatch":true},{"osm":{"type":"node","id":10716277924,"tags":{"addr:city":"Пазарджик","addr:housenumber":"12","addr:postcode":"4400","addr:street":"Константин Величков","brand":"Lilly","brand:wikidata":"Q111764460","opening_hours":"Mo-Fr 08:00-20:00; Sa 09:00-20:00; Su 10:00-18:00","payment:cash":"yes","payment:mastercard":"yes","payment:visa":"yes","phone":"+359 34 990 030","shop":"chemist","website":"https://lillydrogerie.bg/"},"wikidata":"Q111764460","coordinates":[42.1911927,24.3323657]},"atp":{"id":"WLELRQALETAWRqLwsDcVvw7KGEs=","tags":{"ref":"74","@source_uri":"https://www.lillydrogerie.bg/bg/stores","@spider":"lilly_bg","shop":"chemist","addr:full":"ул. ”Константин Величков” № 12","addr:country":"BG","phone":"+359 34 990 030","opening_hours":"Mo-Fr 08:00-20:00; Sa 09:00-20:00; Su 10:00-18:00","brand":"Lilly","brand:wikidata":"Q111764460","nsi_id":"lilly-22ddb5"},"coordinates":[42.191226,24.332401]},"dist":4.708,"tags_mismatch":false},{"osm":{"type":"node","id":10716282654,"tags":{"addr:city":"Перник","addr:housenumber":"35","addr:postcode":"2300","addr:street":"Търговска","brand":"Lilly","brand:wikidata":"Q111764460","opening_hours":"Mo-Fr 08:00-20:00; Sa 09:00-20:00; Su 10:00-18:00","payment:cash":"yes","payment:mastercard":"yes","payment:visa":"yes","phone":"+359 76 593 022","shop":"chemist","website":"https://lillydrogerie.bg/"},"wikidata":"Q111764460","coordinates":[42.6024506,23.0299474]},"atp":{"id":"BD1I5xxK_Ggoro3wK9Bra-TRPHc=","tags":{"ref":"72","@source_uri":"https://www.lillydrogerie.bg/bg/stores","@spider":"lilly_bg","shop":"chemist","addr:full":"ул. ”Търговска” № 35","addr:country":"BG","phone":"+359 76 593 022","opening_hours":"Mo-Fr 08:00-20:00; Sa 09:00-20:00; Su 10:00-18:00","brand":"Lilly","brand:wikidata":"Q111764460","nsi_id":"lilly-22ddb5"},"coordinates":[42.602437,23.029863]},"dist":7.071,"tags_mismatch":false},{"osm":{"type":"node","id":10810502979,"tags":{"addr:housenumber":"128","addr:street":"Гео Милев","brand":"Lilly","brand:wikidata":"Q111764460","opening_hours":"Mo-Fr 08:00-20:00; Sa 09:00-20:00; Su 10:00-18:00","shop":"chemist","website":"https://www.lillydrogerie.bg/"},"wikidata":"Q111764460","coordinates":[42.6802962,23.3723826]},"atp":{"id":"CCMj7lv94VpShrFGoqNlHHEYAoQ=","tags":{"ref":"96","@source_uri":"https://www.lillydrogerie.bg/bg/stores","@spider":"lilly_bg","shop":"chemist","addr:full":"жк.Христо Смирненски ул.Гео Милев № 128","addr:country":"BG","opening_hours":"Mo-Fr 08:00-20:00; Sa 09:00-20:00; Su 10:00-18:00","brand":"Lilly","brand:wikidata":"Q111764460","nsi_id":"lilly-22ddb5"},"coordinates":[42.680187,23.372435]},"dist":12.876,"tags_mismatch":false},{"osm":{"type":"node","id":10895802846,"tags":{"brand":"Lilly","brand:wikidata":"Q111764460","check_date":"2023-05-14","shop":"chemist"},"wikidata":"Q111764460","coordinates":[42.6427371,23.3805052]},"atp":{"id":"x2C2axLUOSljbW8Yt5EMIW-8zQI=","tags":{"ref":"100","@source_uri":"https://www.lillydrogerie.bg/bg/stores","@spider":"lilly_bg","shop":"chemist","addr:full":"ул. „Филип Аврамов“ 375, 712 ж.к. Младост 3, София","addr:country":"BG","phone":"+359 2 413 8996","opening_hours":"Mo-Fr 09:00-21:00; Sa 09:00-20:00; Su 10:00-18:00","brand":"Lilly","brand:wikidata":"Q111764460","nsi_id":"lilly-22ddb5"},"coordinates":[42.642934,23.380244]},"dist":30.591,"tags_mismatch":true},{"osm":{"type":"node","id":11064711742,"tags":{"brand":"Lilly","brand:wikidata":"Q111764460","shop":"chemist"},"wikidata":"Q111764460","coordinates":[42.1275986,24.720405]},"atp":false,"tags_mismatch":false},{"osm":{"type":"node","id":11098987391,"tags":{"brand":"Lilly","brand:wikidata":"Q111764460","shop":"chemist"},"wikidata":"Q111764460","coordinates":[42.1331854,24.7952373]},"atp":{"id":"_RKKqMIH9cu5Rrp6K-LuO3g4n7E=","tags":{"ref":"56","@source_uri":"https://www.lillydrogerie.bg/bg/stores","@spider":"lilly_bg","shop":"chemist","addr:full":"ж.к. Тракия, ул. „Съединение“ № 41, ет.1, м-н 12","addr:country":"BG","phone":"+359 32 599 650","opening_hours":"Mo-Fr 08:00-20:00; Sa 09:00-20:00; Su 10:00-18:00","brand":"Lilly","brand:wikidata":"Q111764460","nsi_id":"lilly-22ddb5"},"coordinates":[42.133183,24.79515]},"dist":7.204,"tags_mismatch":true},{"osm":{"type":"node","id":11175263899,"tags":{"addr:city":"София","addr:housenumber":"5","addr:postcode":"1592","addr:street":"Туше Делииванов","brand":"Lilly","brand:wikidata":"Q111764460","opening_hours":"Mo-Su 08:00-20:00","phone":"+359 2 413 8988","shop":"chemist","website":"https://lillydrogerie.bg"},"wikidata":"Q111764460","coordinates":[42.668862,23.3975491]},"atp":{"id":"xpU_-orlf3H0HDzicdYFP-vnb0w=","tags":{"ref":"89","@source_uri":"https://www.lillydrogerie.bg/bg/stores","@spider":"lilly_bg","shop":"chemist","addr:full":"жк Дружба, ул. Туше Делииванов 5","addr:country":"BG","phone":"+359 2 413 8988","opening_hours":"Mo-Su 08:00-20:00","brand":"Lilly","brand:wikidata":"Q111764460","nsi_id":"lilly-22ddb5"},"coordinates":[42.668904,23.396515]},"dist":84.677,"tags_mismatch":false},{"osm":{"type":"node","id":11283788184,"tags":{"brand":"Lilly","brand:wikidata":"Q111764460","level":"-1","opening_hours":"Mo-Su 10:00-22:00","shop":"chemist"},"wikidata":"Q111764460","coordinates":[42.6573822,23.3139686]},"atp":{"id":"VYwChaznq_a53-v7CNydlUtEbpc=","tags":{"ref":"44","@source_uri":"https://www.lillydrogerie.bg/bg/stores","@spider":"lilly_bg","shop":"chemist","addr:full":"Мол Парадайс, бул. Черни връх 100, ет.-1, обект 1C.048","addr:country":"BG","phone":"+359 2 413 8984","opening_hours":"Mo-Su 10:00-22:00","brand":"Lilly","brand:wikidata":"Q111764460","nsi_id":"lilly-22ddb5"},"coordinates":[42.658222,23.314627]},"dist":107.791,"tags_mismatch":true},{"osm":{"type":"node","id":11324749163,"tags":{"brand":"Lilly","brand:wikidata":"Q111764460","opening_hours":"Mo-Fr 08:00-20:00; Sa 09:00-20:00; Su 10:00-18:00","phone":"+359 64 990 003","shop":"chemist"},"wikidata":"Q111764460","coordinates":[43.4134947,24.6171966]},"atp":{"id":"xlF-8xu8oj6ZyhYg5pSXZsGPJ10=","tags":{"ref":"46","@source_uri":"https://www.lillydrogerie.bg/bg/stores","@spider":"lilly_bg","shop":"chemist","addr:full":"бул. ”Данаил Попов” № 17","addr:country":"BG","phone":"+359 64 990 003","opening_hours":"Mo-Fr 08:00-20:00; Sa 09:00-20:00; Su 10:00-18:00","brand":"Lilly","brand:wikidata":"Q111764460","nsi_id":"lilly-22ddb5"},"coordinates":[43.413524,24.617242]},"dist":4.905,"tags_mismatch":false},{"osm":{"type":"node","id":11324753531,"tags":{"brand":"Lilly","brand:wikidata":"Q111764460","opening_hours":"Mo-Fr 08:00-20:00; Sa 09:00-18:00; Su 10:00-17:00","phone":"+359 63 199 910","shop":"chemist"},"wikidata":"Q111764460","coordinates":[43.6171878,25.3469116]},"atp":{"id":"auf7YGYLBUJDOSCDFSGG-3hgI6E=","tags":{"ref":"80","@source_uri":"https://www.lillydrogerie.bg/bg/stores","@spider":"lilly_bg","shop":"chemist","addr:full":"ул. Цар Освободител №1А","addr:country":"BG","phone":"+359 63 199 910","opening_hours":"Mo-Fr 08:00-20:00; Sa 09:00-18:00; Su 10:00-17:00","brand":"Lilly","brand:wikidata":"Q111764460","nsi_id":"lilly-22ddb5"},"coordinates":[43.617233,25.346867]},"dist":6.177,"tags_mismatch":false},{"osm":{"type":"node","id":11324754526,"tags":{"brand":"Lilly","brand:wikidata":"Q111764460","opening_hours":"Mo-Fr 08:00-20:00; Sa 09:00-20:00; Su 10:00-18:00","phone":"+359 32 599 653","shop":"chemist"},"wikidata":"Q111764460","coordinates":[42.1307243,24.7500518]},"atp":{"id":"CUAfRqPqo-5z79xPibSiHnqQpR4=","tags":{"ref":"59","@source_uri":"https://www.lillydrogerie.bg/bg/stores","@spider":"lilly_bg","shop":"chemist","addr:full":"ул.“Архимандрит Евлоги“, обект. ”Събота пазар”","addr:country":"BG","phone":"+359 32 599 653","opening_hours":"Mo-Fr 08:00-20:00; Sa 09:00-20:00; Su 10:00-18:00","brand":"Lilly","brand:wikidata":"Q111764460","nsi_id":"lilly-22ddb5"},"coordinates":[42.130847,24.750145]},"dist":15.659,"tags_mismatch":false},{"osm":{"type":"node","id":11324756825,"tags":{"brand":"Lilly","brand:wikidata":"Q111764460","check_date":"2021-03-08","opening_hours":"Mo-Fr 09:00-20:00; Sa-Su 10:00-19:00","phone":"+359 2 413 8933","shop":"chemist"},"wikidata":"Q111764460","coordinates":[42.6554073,23.3987209]},"atp":{"id":"jD6mnc2AXKa9666rPF5xJe8CzOo=","tags":{"ref":"23","@source_uri":"https://www.lillydrogerie.bg/bg/stores","@spider":"lilly_bg","shop":"chemist","addr:full":"ж.к. Дружба 2, бул. Професор Цветан Лазаров № 114","addr:country":"BG","phone":"+359 2 413 8933","opening_hours":"Mo-Fr 09:00-20:00; Sa-Su 10:00-19:00","brand":"Lilly","brand:wikidata":"Q111764460","nsi_id":"lilly-22ddb5"},"coordinates":[42.655413,23.398624]},"dist":7.95,"tags_mismatch":false},{"osm":{"type":"node","id":11324771656,"tags":{"brand":"Lilly","brand:wikidata":"Q111764460","opening_hours":"Mo-Fr 08:00-20:00; Sa 09:00-20:00; Su 10:00-18:00","phone":"+359 52 999 624","shop":"chemist"},"wikidata":"Q111764460","coordinates":[43.2121574,27.9235132]},"atp":{"id":"oyMttAwgfnFxXAib_BQEv-EI7qY=","tags":{"ref":"52","@source_uri":"https://www.lillydrogerie.bg/bg/stores","@spider":"lilly_bg","shop":"chemist","addr:full":"бул. „8 Приморки полк” № 105-107","addr:country":"BG","phone":"+359 52 999 624","opening_hours":"Mo-Fr 08:00-20:00; Sa 09:00-20:00; Su 10:00-18:00","brand":"Lilly","brand:wikidata":"Q111764460","nsi_id":"lilly-22ddb5"},"coordinates":[43.212195,27.923387]},"dist":11.049,"tags_mismatch":false},{"osm":{"type":"node","id":11325714831,"tags":{"brand":"Lilly","brand:wikidata":"Q111764460","opening_hours":"Mo-Fr 08:00-20:00; Sa 09:00-20:00; Su 10:00-18:00","phone":"+359 60 179 076","shop":"chemist"},"wikidata":"Q111764460","coordinates":[43.2510898,26.5710579]},"atp":{"id":"W0Fmm4bZFHE0soZSNyBXCMCrUWs=","tags":{"ref":"79","@source_uri":"https://www.lillydrogerie.bg/bg/stores","@spider":"lilly_bg","shop":"chemist","addr:full":"ул. „Цар Симеон“ №1","addr:country":"BG","phone":"+359 60 179 076","opening_hours":"Mo-Fr 08:00-20:00; Sa 09:00-20:00; Su 10:00-18:00","brand":"Lilly","brand:wikidata":"Q111764460","nsi_id":"lilly-22ddb5"},"coordinates":[43.251119,26.571056]},"dist":3.251,"tags_mismatch":false},{"osm":{"type":"node","id":11326087125,"tags":{"brand":"Lilly","brand:wikidata":"Q111764460","opening_hours":"Mo-Fr 08:00-20:00; Sa 09:00-20:00; Su 10:00-18:00","phone":"+359 2 413 8905","shop":"chemist"},"wikidata":"Q111764460","coordinates":[42.7423204,23.2780595]},"atp":{"id":"UDXAI4gtOXo-OkIXHhB5XzGSZRg=","tags":{"ref":"102","@source_uri":"https://www.lillydrogerie.bg/bg/stores","@spider":"lilly_bg","shop":"chemist","addr:full":"гр. София, ул. „Акад. Димитрий Лихачов“ 1745, 1387 ж.к. Обеля 2, София","addr:country":"BG","phone":"+359 2 413 8905","opening_hours":"Mo-Fr 08:00-20:00; Sa 09:00-20:00; Su 10:00-18:00","brand":"Lilly","brand:wikidata":"Q111764460","nsi_id":"lilly-22ddb5"},"coordinates":[42.742402,23.277647]},"dist":34.887,"tags_mismatch":false},{"osm":{"type":"node","id":11408128102,"tags":{"brand":"Lilly","brand:wikidata":"Q111764460","shop":"chemist"},"wikidata":"Q111764460","coordinates":[43.2807501,26.9273359]},"atp":{"id":"rAu3BCu7KTkx7kO1HOSgZsaoVSw=","tags":{"ref":"126","@source_uri":"https://www.lillydrogerie.bg/bg/stores","@spider":"lilly_bg","shop":"chemist","addr:full":"ул. ”Кралевиче“ №1","addr:country":"BG","opening_hours":"Mo-Fr 08:00-20:00; Sa-Su 09:00-20:00","brand":"Lilly","brand:wikidata":"Q111764460","nsi_id":"lilly-22ddb5"},"coordinates":[43.27994547454432,26.928033568239176]},"dist":105.804,"tags_mismatch":true},{"osm":{"type":"node","id":11728383740,"tags":{"brand":"Lilly","brand:wikidata":"Q111764460","shop":"chemist"},"wikidata":"Q111764460","coordinates":[42.1453815,24.7819827]},"atp":{"id":"W8zetgybb_3Lafz4gwqDRyycarg=","tags":{"ref":"63","@source_uri":"https://www.lillydrogerie.bg/bg/stores","@spider":"lilly_bg","shop":"chemist","addr:full":"ул. Георги Странски 3, Мол Пловдив Плаза, Помещение 2.033","addr:country":"BG","phone":"+359 32 599 656","opening_hours":"Mo-Su 10:00-21:00","brand":"Lilly","brand:wikidata":"Q111764460","nsi_id":"lilly-22ddb5"},"coordinates":[42.145046,24.782525]},"dist":58.23,"tags_mismatch":true},{"osm":{"type":"node","id":11981360598,"tags":{"brand":"Lilly","brand:wikidata":"Q111764460","shop":"chemist"},"wikidata":"Q111764460","coordinates":[42.4247403,25.6302963]},"atp":{"id":"7EAbrzU5yNO3THkJFkezZJvd59s=","tags":{"ref":"50","@source_uri":"https://www.lillydrogerie.bg/bg/stores","@spider":"lilly_bg","shop":"chemist","addr:full":"бул. Цар Симеон Велики 112, ТЦ Сити","addr:country":"BG","phone":"+359 42 990 052","opening_hours":"Mo-Fr 08:00-20:00; Sa 09:00-20:00; Su 10:00-18:00","brand":"Lilly","brand:wikidata":"Q111764460","nsi_id":"lilly-22ddb5"},"coordinates":[42.424651,25.630336]},"dist":10.451,"tags_mismatch":true},{"osm":{"type":"node","id":11984880291,"tags":{"brand":"Lilly","brand:wikidata":"Q111764460","opening_hours":"Mo-Fr 08:00-20:00; Sa 09:00-20:00; Su 10:00-18:00","phone":"+359 2 413 8977","shop":"chemist"},"wikidata":"Q111764460","coordinates":[42.6415449,23.3344033]},"atp":{"id":"j0Vu9040THXQ7y3KX4BJYE87cxk=","tags":{"ref":"39","@source_uri":"https://www.lillydrogerie.bg/bg/stores","@spider":"lilly_bg","shop":"chemist","addr:full":"бул. Симеоновско шосе 110 до магазин Вис Виталис","addr:country":"BG","phone":"+359 2 413 8977","opening_hours":"Mo-Fr 08:00-20:00; Sa 09:00-20:00; Su 10:00-18:00","brand":"Lilly","brand:wikidata":"Q111764460","nsi_id":"lilly-22ddb5"},"coordinates":[42.641623,23.334349]},"dist":9.754,"tags_mismatch":false},{"osm":{"type":"node","id":11984935080,"tags":{"brand":"Lilly","brand:wikidata":"Q111764460","opening_hours":"Mo-Fr 09:00-20:00; Sa-Su 10:00-19:00","phone":"+359 2 413 8972","shop":"chemist"},"wikidata":"Q111764460","coordinates":[42.7025449,23.3594401]},"atp":{"id":"UKIqAyRsBDkNgQiMwf66DdAe_tQ=","tags":{"ref":"37","@source_uri":"https://www.lillydrogerie.bg/bg/stores","@spider":"lilly_bg","shop":"chemist","addr:full":"ул. „Александър Екзарх“ №45","addr:country":"BG","phone":"+359 2 413 8972","opening_hours":"Mo-Fr 09:00-20:00; Sa-Su 10:00-19:00","brand":"Lilly","brand:wikidata":"Q111764460","nsi_id":"lilly-22ddb5"},"coordinates":[42.702465,23.359306]},"dist":14.107,"tags_mismatch":false},{"osm":{"type":"node","id":12087027915,"tags":{"addr:city":"Царево","brand":"Lilly","brand:wikidata":"Q111764460","fixme":"approximate location due to oudated satellite imagery","shop":"chemist"},"wikidata":"Q111764460","coordinates":[42.165659,27.8452217]},"atp":{"id":"jFbcAXNVLLBSg4_QB1pzz0X3nQY=","tags":{"ref":"134","@source_uri":"https://www.lillydrogerie.bg/bg/stores","@spider":"lilly_bg","shop":"chemist","addr:country":"BG","brand":"Lilly","brand:wikidata":"Q111764460","nsi_id":"lilly-22ddb5"},"coordinates":[42.16549705104697,27.84541055736745]},"dist":23.803,"tags_mismatch":false},{"osm":{"type":"node","id":12346405489,"tags":{"brand":"Lilly","brand:wikidata":"Q111764460","check_date":"2025-03-22","opening_hours":"Mo-Fr 08:00-20:00; Sa-Su 09:00-20:00","shop":"chemist"},"wikidata":"Q111764460","coordinates":[42.6787288,23.3606484]},"atp":{"id":"cNwU1HFRUDxFI33d-i-js4pzGVY=","tags":{"ref":"93","@source_uri":"https://www.lillydrogerie.bg/bg/stores","@spider":"lilly_bg","shop":"chemist","addr:full":"Слатина, бул. Шипченски проход 18, ТЦ Галакси Трейд","addr:country":"BG","phone":"+359 2 413 8991","opening_hours":"Mo-Fr 08:00-20:00; Sa 09:00-20:00; Su 10:00-20:00","brand":"Lilly","brand:wikidata":"Q111764460","nsi_id":"lilly-22ddb5"},"coordinates":[42.678747,23.360581]},"dist":5.87,"tags_mismatch":true},{"osm":{"type":"node","id":12398447566,"tags":{"brand":"Lilly","brand:wikidata":"Q111764460","shop":"chemist"},"wikidata":"Q111764460","coordinates":[42.9108775,23.8049573]},"atp":false,"tags_mismatch":false},{"osm":{"type":"node","id":12646682247,"tags":{"brand":"Lilly","brand:wikidata":"Q111764460","opening_hours":"Mo-Sa 09:00-20:00","shop":"chemist","website":"https://www.lillydrogerie.bg"},"wikidata":"Q111764460","coordinates":[41.8816417,23.4710106]},"atp":{"id":"DigMVjbRGwML51eSrDBwU0DvleY=","tags":{"ref":"131","@source_uri":"https://www.lillydrogerie.bg/bg/stores","@spider":"lilly_bg","shop":"chemist","addr:country":"BG","opening_hours":"Mo-Su 09:00-20:00","brand":"Lilly","brand:wikidata":"Q111764460","nsi_id":"lilly-22ddb5"},"coordinates":[41.88170200769307,23.47104777729824]},"dist":7.378,"tags_mismatch":true},{"osm":{"type":"way","id":1152362301,"tags":{"brand":"Lilly","brand:wikidata":"Q111764460","check_date":"2023-03-16","level":"1","opening_hours":"10:00-22:00","payment:cash":"yes","payment:mastercard":"yes","payment:visa":"yes","shop":"chemist","website":"https://www.lillydrogerie.bg","wheelchair":"yes"},"wikidata":"Q111764460","coordinates":[42.6240768,23.3518817]},"atp":{"id":"RE3mDOgpVBrd1hrJmyDoFnajAEg=","tags":{"ref":"24","@source_uri":"https://www.lillydrogerie.bg/bg/stores","@spider":"lilly_bg","shop":"chemist","addr:full":"ул. ”Околовръстен път” № 216, партер, м-н 1.15","addr:country":"BG","phone":"+359 2 413 8936","opening_hours":"Mo-Su 10:00-22:00","brand":"Lilly","brand:wikidata":"Q111764460","nsi_id":"lilly-22ddb5"},"coordinates":[42.62488,23.352449]},"dist":100.653,"tags_mismatch":true},{"osm":false,"atp":{"id":"quYWxyyej8YcZ47iy2JNF2vxfKU=","tags":{"ref":"9","shop":"chemist","addr:full":"бул. ”Ситняково“ № 48, ет.1, магазин 12","addr:country":"BG","name":"Lilly","phone":"+359 2 413 8903","opening_hours":"Mo-Su 10:00-22:00","brand":"Lilly","brand:wikidata":"Q111764460"},"coordinates":[42.691901,23.3534]},"tags_mismatch":false,"dist":0},{"osm":false,"atp":false,"tags_mismatch":false,"dist":0},{"osm":false,"atp":false,"tags_mismatch":false,"dist":0},{"osm":false,"atp":false,"tags_mismatch":false,"dist":0},{"osm":false,"atp":false,"tags_mismatch":false,"dist":0},{"osm":false,"atp":false,"tags_mismatch":false,"dist":0},{"osm":false,"atp":false,"tags_mismatch":false,"dist":0},{"osm":false,"atp":false,"tags_mismatch":false,"dist":0},{"osm":false,"atp":false,"tags_mismatch":false,"dist":0},{"osm":false,"atp":false,"tags_mismatch":false,"dist":0},{"osm":false,"atp":false,"tags_mismatch":false,"dist":0},{"osm":false,"atp":false,"tags_mismatch":false,"dist":0},{"osm":false,"atp":false,"tags_mismatch":false,"dist":0},{"osm":false,"atp":false,"tags_mismatch":false,"dist":0},{"osm":false,"atp":false,"tags_mismatch":false,"dist":0},{"osm":false,"atp":false,"tags_mismatch":false,"dist":0},{"osm":false,"atp":false,"tags_mismatch":false,"dist":0},{"osm":false,"atp":false,"tags_mismatch":false,"dist":0},{"osm":false,"atp":false,"tags_mismatch":false,"dist":0},{"osm":false,"atp":false,"tags_mismatch":false,"dist":0},{"osm":false,"atp":false,"tags_mismatch":false,"dist":0},{"osm":false,"atp":false,"tags_mismatch":false,"dist":0},{"osm":false,"atp":false,"tags_mismatch":false,"dist":0},{"osm":false,"atp":false,"tags_mismatch":false,"dist":0},{"osm":false,"atp":false,"tags_mismatch":false,"dist":0},{"osm":false,"atp":false,"tags_mismatch":false,"dist":0},{"osm":false,"atp":false,"tags_mismatch":false,"dist":0},{"osm":false,"atp":false,"tags_mismatch":false,"dist":0},{"osm":false,"atp":false,"tags_mismatch":false,"dist":0},{"osm":false,"atp":false,"tags_mismatch":false,"dist":0},{"osm":false,"atp":false,"tags_mismatch":false,"dist":0},{"osm":false,"atp":false,"tags_mismatch":false,"dist":0},{"osm":false,"atp":false,"tags_mismatch":false,"dist":0},{"osm":false,"atp":false,"tags_mismatch":false,"dist":0},{"osm":false,"atp":false,"tags_mismatch":false,"dist":0},{"osm":false,"atp":false,"tags_mismatch":false,"dist":0},{"osm":false,"atp":false,"tags_mismatch":false,"dist":0},{"osm":false,"atp":false,"tags_mismatch":false,"dist":0},{"osm":false,"atp":{"id":"lxu7VQrt9AfjFjMs_38NwP_HI3I=","tags":{"ref":"48","shop":"chemist","addr:full":"ул. „Янтра“ №12","addr:country":"BG","name":"Lilly","opening_hours":"Mo-Fr 08:00-20:00; Sa 09:00-18:00; Su 10:00-18:00","brand":"Lilly","brand:wikidata":"Q111764460"},"coordinates":[43.855286,25.969178]},"tags_mismatch":false,"dist":0},{"osm":false,"atp":false,"tags_mismatch":false,"dist":0},{"osm":false,"atp":false,"tags_mismatch":false,"dist":0},{"osm":false,"atp":false,"tags_mismatch":false,"dist":0},{"osm":false,"atp":false,"tags_mismatch":false,"dist":0},{"osm":false,"atp":false,"tags_mismatch":false,"dist":0},{"osm":false,"atp":false,"tags_mismatch":false,"dist":0},{"osm":false,"atp":false,"tags_mismatch":false,"dist":0},{"osm":false,"atp":false,"tags_mismatch":false,"dist":0},{"osm":false,"atp":false,"tags_mismatch":false,"dist":0},{"osm":false,"atp":false,"tags_mismatch":false,"dist":0},{"osm":false,"atp":{"id":"wIyxLJJjL0QU8j13NjiinhLrCTM=","tags":{"ref":"62","shop":"chemist","addr:full":"бул. „Руски“ № 54","addr:country":"BG","name":"Lilly","phone":"+359 32 599 655","opening_hours":"Mo-Su 11:00-20:00","brand":"Lilly","brand:wikidata":"Q111764460"},"coordinates":[42.141648,24.741131]},"tags_mismatch":false,"dist":0},{"osm":false,"atp":false,"tags_mismatch":false,"dist":0},{"osm":false,"atp":false,"tags_mismatch":false,"dist":0},{"osm":false,"atp":false,"tags_mismatch":false,"dist":0},{"osm":false,"atp":false,"tags_mismatch":false,"dist":0},{"osm":false,"atp":false,"tags_mismatch":false,"dist":0},{"osm":false,"atp":false,"tags_mismatch":false,"dist":0},{"osm":false,"atp":false,"tags_mismatch":false,"dist":0},{"osm":false,"atp":false,"tags_mismatch":false,"dist":0},{"osm":false,"atp":false,"tags_mismatch":false,"dist":0},{"osm":false,"atp":false,"tags_mismatch":false,"dist":0},{"osm":false,"atp":false,"tags_mismatch":false,"dist":0},{"osm":false,"atp":false,"tags_mismatch":false,"dist":0},{"osm":false,"atp":false,"tags_mismatch":false,"dist":0},{"osm":false,"atp":false,"tags_mismatch":false,"dist":0},{"osm":false,"atp":false,"tags_mismatch":false,"dist":0},{"osm":false,"atp":false,"tags_mismatch":false,"dist":0},{"osm":false,"atp":false,"tags_mismatch":false,"dist":0},{"osm":false,"atp":false,"tags_mismatch":false,"dist":0},{"osm":false,"atp":false,"tags_mismatch":false,"dist":0},{"osm":false,"atp":false,"tags_mismatch":false,"dist":0},{"osm":false,"atp":false,"tags_mismatch":false,"dist":0},{"osm":false,"atp":{"id":"eXKNcJ5Pd1Jf2ICXyZ2YQ-fathk=","tags":{"ref":"84","shop":"chemist","addr:full":"ул. „Цар Освободител “ 1, „S mall” ниво- партер","addr:country":"BG","name":"Lilly","phone":"+359 44 590 093","opening_hours":"Mo-Fr 08:00-20:00; Sa 08:30-20:00; Su 09:00-18:00","brand":"Lilly","brand:wikidata":"Q111764460"},"coordinates":[42.680253,26.315243]},"tags_mismatch":false,"dist":0},{"osm":false,"atp":false,"tags_mismatch":false,"dist":0},{"osm":false,"atp":false,"tags_mismatch":false,"dist":0},{"osm":false,"atp":false,"tags_mismatch":false,"dist":0},{"osm":false,"atp":{"id":"zZXalQwtjo9nsyX245jjVSj5RI4=","tags":{"ref":"90","shop":"chemist","addr:full":"жк Младост, ул. Самара 4, Младост Адванс Бизнес център","addr:country":"BG","name":"Lilly","phone":"+359 2 413 8987","opening_hours":"Mo-Fr 08:00-20:00; Sa 09:00-20:00","brand":"Lilly","brand:wikidata":"Q111764460"},"coordinates":[42.634032,23.374976]},"tags_mismatch":false,"dist":0},{"osm":false,"atp":false,"tags_mismatch":false,"dist":0},{"osm":false,"atp":false,"tags_mismatch":false,"dist":0},{"osm":false,"atp":false,"tags_mismatch":false,"dist":0},{"osm":false,"atp":false,"tags_mismatch":false,"dist":0},{"osm":false,"atp":{"id":"-R8tN2SWMOR9qNT1r8q-XovAxvA=","tags":{"ref":"94","shop":"chemist","addr:full":"ул. Симеон Велики 29","addr:country":"BG","name":"Lilly","phone":"+359 86 522 990","opening_hours":"Mo-Fr 08:00-20:00; Sa 09:00-20:00; Su 10:00-18:00","brand":"Lilly","brand:wikidata":"Q111764460"},"coordinates":[44.118794,27.260516]},"tags_mismatch":false,"dist":0},{"osm":false,"atp":false,"tags_mismatch":false,"dist":0},{"osm":false,"atp":false,"tags_mismatch":false,"dist":0},{"osm":false,"atp":false,"tags_mismatch":false,"dist":0},{"osm":false,"atp":false,"tags_mismatch":false,"dist":0},{"osm":false,"atp":{"id":"aO4AdDhaaiCVd_a92I7wGx4h1l0=","tags":{"ref":"99","shop":"chemist","addr:full":"бул. България № 58-Б","addr:country":"BG","name":"Lilly","phone":"+359 30 142 120","opening_hours":"Mo-Fr 08:00-20:00; Sa 09:00-20:00; Su 10:00-18:00","brand":"Lilly","brand:wikidata":"Q111764460"},"coordinates":[41.577881435038684,24.697896796978792]},"tags_mismatch":false,"dist":0},{"osm":false,"atp":false,"tags_mismatch":false,"dist":0},{"osm":false,"atp":{"id":"_DL5eHPOLUG4u5P9BlzZar-e28k=","tags":{"ref":"101","shop":"chemist","addr:full":"гр. Сандански, ул. \"Македония\" 6 – 8 (пл. България), 2800 Център, Сандански","addr:country":"BG","name":"Lilly","phone":"+359 74 690 008","opening_hours":"Mo-Fr 08:00-20:00; Sa 09:00-20:00; Su 10:00-18:00","brand":"Lilly","brand:wikidata":"Q111764460"},"coordinates":[41.561975660079476,23.278369854397045]},"tags_mismatch":false,"dist":0},{"osm":false,"atp":false,"tags_mismatch":false,"dist":0},{"osm":false,"atp":false,"tags_mismatch":false,"dist":0},{"osm":false,"atp":false,"tags_mismatch":false,"dist":0},{"osm":false,"atp":{"id":"p5Q_LM_wNvTnuSJj-PQioljOieQ=","tags":{"ref":"105","shop":"chemist","addr:full":"ул. “Цар Борис III “ № 20","addr:country":"BG","name":"Lilly","phone":"+359 74 590 021","opening_hours":"Mo-Sa 09:00-20:00; Su 10:00-18:00","brand":"Lilly","brand:wikidata":"Q111764460"},"coordinates":[41.3944568091921,23.20738772819003]},"tags_mismatch":false,"dist":0},{"osm":false,"atp":{"id":"V9PzjyVMFBu3wArVM6E2QdBzY_Q=","tags":{"ref":"106","shop":"chemist","addr:full":"ул. \"Капитан Петко Войвода\" 20","addr:country":"BG","name":"Lilly","phone":"+359 42 990 243","opening_hours":"Mo-Sa 10:00-22:00; Su 10:00-18:00","brand":"Lilly","brand:wikidata":"Q111764460"},"coordinates":[42.41976400435188,25.608241397836544]},"tags_mismatch":false,"dist":0},{"osm":false,"atp":false,"tags_mismatch":false,"dist":0},{"osm":false,"atp":false,"tags_mismatch":false,"dist":0},{"osm":false,"atp":{"id":"8gaC-9iiwTVRXxqWxRnQlWTVU2o=","tags":{"ref":"109","shop":"chemist","addr:full":"ул. Свети Пимен Зографски № 17, вход А","addr:country":"BG","name":"Lilly","opening_hours":"Mo-Fr 08:00-20:00; Sa 09:00-20:00; Su 10:00-18:00","brand":"Lilly","brand:wikidata":"Q111764460"},"coordinates":[42.66533119675019,23.34980398434991]},"tags_mismatch":false,"dist":0},{"osm":false,"atp":{"id":"aC2CxlZdiwaxJzCthHG5e8XAb3Q=","tags":{"ref":"110","shop":"chemist","addr:full":"ул \"Кръстьо Раковски\" № 27 бл В","addr:country":"BG","name":"Lilly","phone":"+359 32 329 424","opening_hours":"Mo-Fr 08:00-20:00; Sa 09:00-20:00; Su 10:00-18:00","brand":"Lilly","brand:wikidata":"Q111764460"},"coordinates":[42.14006543916827,24.723504491344155]},"tags_mismatch":false,"dist":0},{"osm":false,"atp":false,"tags_mismatch":false,"dist":0},{"osm":false,"atp":false,"tags_mismatch":false,"dist":0},{"osm":false,"atp":false,"tags_mismatch":false,"dist":0},{"osm":false,"atp":{"id":"ZotNLBTgOjchQKcYZY2lpFZfOdU=","tags":{"ref":"114","shop":"chemist","addr:full":"ул. Джон Ленън 2","addr:country":"BG","name":"Lilly","phone":"+359 89 708 9259","opening_hours":"Mo-Su 09:00-21:00","brand":"Lilly","brand:wikidata":"Q111764460"},"coordinates":[42.65220111474374,23.342317345363888]},"tags_mismatch":false,"dist":0},{"osm":false,"atp":false,"tags_mismatch":false,"dist":0},{"osm":false,"atp":false,"tags_mismatch":false,"dist":0},{"osm":false,"atp":false,"tags_mismatch":false,"dist":0},{"osm":false,"atp":{"id":"GJlqBptakHwgrpb_GPMSWeLne4o=","tags":{"ref":"118","shop":"chemist","addr:full":"ул. \"Янко Сакъзов\" 1","addr:country":"BG","name":"Lilly","phone":"+359 37 399 117","opening_hours":"Mo-Fr 08:00-20:00; Sa 09:00-20:00; Su 10:00-18:00","brand":"Lilly","brand:wikidata":"Q111764460"},"coordinates":[41.93144263500679,25.900726549066825]},"tags_mismatch":false,"dist":0},{"osm":false,"atp":{"id":"XlyZeUYfVmCCNscifZimJGUjnB0=","tags":{"ref":"119","shop":"chemist","addr:full":"улица „Академик Андрей Сахаров“ № 3","addr:country":"BG","name":"Lilly","phone":"+359 52 999 623","opening_hours":"Mo-Fr 08:00-20:00; Sa-Su 09:00-20:00","brand":"Lilly","brand:wikidata":"Q111764460"},"coordinates":[43.218778557620475,27.898108192153224]},"tags_mismatch":false,"dist":0},{"osm":false,"atp":{"id":"c4XLVF4HA-JciddF3QdUDeCJ0Tg=","tags":{"ref":"120","shop":"chemist","addr:full":"ул. \"Железни врата\" 42","addr:country":"BG","name":"Lilly","phone":"+359 52 999 645","opening_hours":"Mo-Su 08:00-20:00","brand":"Lilly","brand:wikidata":"Q111764460"},"coordinates":[43.223710619771865,27.924744487514403]},"tags_mismatch":false,"dist":0},{"osm":false,"atp":{"id":"5855T9ob5ewTt5lb02Tsv6UzxJo=","tags":{"ref":"121","shop":"chemist","addr:full":"ул.\"Търговска\" № 20","addr:country":"BG","name":"Lilly","phone":"+359 68 520 091","opening_hours":"Mo-Fr 08:00-20:00; Sa 09:00-20:00; Su 10:00-18:00","brand":"Lilly","brand:wikidata":"Q111764460"},"coordinates":[43.134242523373906,24.716877897859373]},"tags_mismatch":false,"dist":0},{"osm":false,"atp":false,"tags_mismatch":false,"dist":0},{"osm":false,"atp":{"id":"VMRlXHtvRSCE4CQdVXQ-VQPDEGY=","tags":{"ref":"123","shop":"chemist","addr:full":"бул. „Александър Стамболийски“ № 27","addr:country":"BG","name":"Lilly","phone":"+359 60 179 077","opening_hours":"Mo-Fr 08:00-20:00; Sa 09:00-20:00; Su 10:00-18:00","brand":"Lilly","brand:wikidata":"Q111764460"},"coordinates":[43.24933573513101,26.555945139404304]},"tags_mismatch":false,"dist":0},{"osm":false,"atp":{"id":"Ox-alyETs6YRtWf2lBgc6VfgIX0=","tags":{"ref":"124","shop":"chemist","addr:full":"ул. „Княз Борис I“ 51 В","addr:country":"BG","name":"Lilly","phone":"+359 33 690 056","opening_hours":"Mo-Fr 08:00-22:00; Sa-Su 09:00-19:00","brand":"Lilly","brand:wikidata":"Q111764460"},"coordinates":[42.09021886654459,25.211060085899348]},"tags_mismatch":false,"dist":0},{"osm":false,"atp":{"id":"IufoSAmbqH0eJtE46rxvVY6kQUw=","tags":{"ref":"125","shop":"chemist","addr:full":"ул. \"Граф Игнатиев\" Ямбол парк","addr:country":"BG","name":"Lilly","opening_hours":"Mo-Su 09:00-20:00","brand":"Lilly","brand:wikidata":"Q111764460"},"coordinates":[42.4693970050686,26.5218081624234]},"tags_mismatch":false,"dist":0},{"osm":false,"atp":false,"tags_mismatch":false,"dist":0},{"osm":false,"atp":{"id":"sftTAwXa6tyJbNrfxzT-xAtarEg=","tags":{"ref":"127","shop":"chemist","addr:full":"бул. 25-ти Септември 70","addr:country":"BG","name":"Lilly","opening_hours":"Mo-Su 09:00-20:00","brand":"Lilly","brand:wikidata":"Q111764460"},"coordinates":[43.57806367693102,27.829991539091942]},"tags_mismatch":false,"dist":0},{"osm":false,"atp":{"id":"C8dALwwdk5BsSSzlW-yVRd3JRhU=","tags":{"ref":"128","shop":"chemist","addr:full":"бул. \"Панония\" 43","addr:country":"BG","name":"Lilly","phone":"+359 89 895 2428","opening_hours":"Mo-Su 09:00-20:00","brand":"Lilly","brand:wikidata":"Q111764460"},"coordinates":[43.99444104987561,22.866775496915764]},"tags_mismatch":false,"dist":0},{"osm":false,"atp":{"id":"2Dt1AJMajk-QsRG-NdYmOtB8heU=","tags":{"ref":"129","shop":"chemist","addr:full":"ул.\"Дойранска епопея\" 19","addr:country":"BG","name":"Lilly","phone":"+359 35 099 140","opening_hours":"Mo-Fr 08:00-20:00; Sa 09:00-20:00; Su 10:00-18:00","brand":"Lilly","brand:wikidata":"Q111764460"},"coordinates":[42.03306479621887,24.303149144125545]},"tags_mismatch":false,"dist":0},{"osm":false,"atp":{"id":"t94y6vuoddPxvox-o1UGeqjFddE=","tags":{"ref":"130","shop":"chemist","addr:full":"ул. \"Седми септември\"","addr:country":"BG","name":"Lilly","phone":"+359 86 522 991","opening_hours":"Mo-Su 10:00-20:00","brand":"Lilly","brand:wikidata":"Q111764460"},"coordinates":[44.11465298233014,27.273330099764365]},"tags_mismatch":false,"dist":0},{"osm":false,"atp":false,"tags_mismatch":false,"dist":0},{"osm":false,"atp":{"id":"COoCwZVIUvUW7oL4uoOLuThW5ZI=","tags":{"ref":"132","shop":"chemist","addr:full":"кв. Лъджене, ул.\"Георги Кирков\" 92","addr:country":"BG","name":"Lilly","phone":"+359 89 413 5864","opening_hours":"Mo-Su 09:00-20:00","brand":"Lilly","brand:wikidata":"Q111764460"},"coordinates":[42.033818061406755,24.00236085307935]},"tags_mismatch":false,"dist":0},{"osm":false,"atp":{"id":"oVsTT6Tu9dAjEUXOxCr10CITglk=","tags":{"ref":"133","shop":"chemist","addr:full":"ул. Бачо Киро 4","addr:country":"BG","name":"Lilly","phone":"+359 89 376 2083","opening_hours":"Mo-Fr 08:00-20:00; Sa 09:00-20:00; Su 10:00-18:00","brand":"Lilly","brand:wikidata":"Q111764460"},"coordinates":[42.61461828845128,25.391120181284467]},"tags_mismatch":false,"dist":0},{"osm":false,"atp":false,"tags_mismatch":false,"dist":0},{"osm":false,"atp":{"id":"vBN4WFBQy3BqDjCIqRO0hITpqFY=","tags":{"ref":"135","shop":"chemist","addr:country":"BG","name":"Lilly","brand":"Lilly","brand:wikidata":"Q111764460"},"coordinates":[42.464537978260154,27.420658583889725]},"tags_mismatch":false,"dist":0}]}