{"metadata":{"name":"Kaufland","key":"shop","value":"supermarket","compare_keys":["opening_hours","website","ref"]},"data":[{"osm":{"type":"node","id":357281500,"tags":{"addr:city":"Бургас","addr:postcode":"8000","addr:street":"Янко Комитов","branch":"Славейков","brand":"Kaufland","brand:wikidata":"Q685967","opening_hours":"Mo-Su 07:00-22:00","ref":"BG4000","shop":"supermarket","toilets:wheelchair":"yes","website":"https://www.kaufland.bg/moyat-kaufland/uslugi/filiali/burgas-slavejkov-4000.html","wheelchair":"yes"},"wikidata":"Q685967","coordinates":[42.515138,27.4500901]},"atp":{"id":"9vg2sC4Uyiu5KAEf4semypDGFhQ=","tags":{"ref":"BG4000","start_date":"2009-03-11T00:00:00.000Z","toilets":"yes","shop":"supermarket","@source_uri":"https://www.kaufland.bg/.klstorefinder.json","@spider":"kaufland","addr:street_address":"ул. \"Янко Комитов\" 8","addr:city":"Бургас","addr:postcode":"8000","addr:country":"BG","branch":"Бургас-Славейков","phone":"+359 800 12 220","website":"https://www.kaufland.bg/moyat-kaufland/uslugi/filiali/burgas-slaveykov-4000.html","opening_hours":"Mo-Sa 07:00-22:00; Su 08:00-22:00","brand":"Kaufland","brand:wikidata":"Q685967","nsi_id":"kaufland-56b425"},"coordinates":[42.5148254,27.4499997]},"dist":35.54,"tags_mismatch":true},{"osm":{"type":"node","id":852991369,"tags":{"addr:city":"София","addr:housenumber":"1","addr:postcode":"1592","addr:street":"Хайделберг","branch":"Дружба","brand":"Kaufland","brand:wikidata":"Q685967","contact:phone":"+359 2 401 3400","opening_hours":"Mo-Su 07:00-22:00","ref":"BG1100","shop":"supermarket","website":"https://www.kaufland.bg/moyat-kaufland/uslugi/filiali/sofia-druzhba-1100.html","wheelchair":"yes"},"wikidata":"Q685967","coordinates":[42.6563014,23.3994018]},"atp":{"id":"Xqcz_xyJLJq1Z7SgI1saq9l2pd8=","tags":{"ref":"BG1100","start_date":"2006-12-13T00:00:00.000Z","toilets":"yes","shop":"supermarket","@source_uri":"https://www.kaufland.bg/.klstorefinder.json","@spider":"kaufland","addr:street_address":"ул. \"Хайделберг\" 1","addr:city":"София","addr:postcode":"1592","addr:country":"BG","branch":"София-Дружба","phone":"+359 800 12 220","website":"https://www.kaufland.bg/moyat-kaufland/uslugi/filiali/sofija-druzhba-1100.html","opening_hours":"Mo-Su 07:00-22:00","brand":"Kaufland","brand:wikidata":"Q685967","nsi_id":"kaufland-56b425"},"coordinates":[42.6562376,23.3995924]},"dist":17.125,"tags_mismatch":true},{"osm":{"type":"node","id":1310997066,"tags":{"addr:city":"Монтана","addr:housenumber":"139","addr:postcode":"3400","addr:street":"бул. Трети март","branch":"Монтана","brand":"Kaufland","brand:wikidata":"Q685967","opening_hours":"Mo-Sa 07:00-21:00; Su 08:00-21:00","ref":"BG2400","shop":"supermarket","website":"https://www.kaufland.bg/moyat-kaufland/uslugi/filiali/montana-2400.html"},"wikidata":"Q685967","coordinates":[43.4215862,23.227293]},"atp":{"id":"5UArfUKzeMspl6x1EnyZABRvxgM=","tags":{"ref":"BG2400","start_date":"2007-08-08T00:00:00.000Z","toilets":"yes","shop":"supermarket","@source_uri":"https://www.kaufland.bg/.klstorefinder.json","@spider":"kaufland","addr:street_address":"бул. \"Трети март\" 139","addr:city":"Монтана","addr:postcode":"3400","addr:country":"BG","branch":"Монтана","phone":"+359 800 12 220","website":"https://www.kaufland.bg/moyat-kaufland/uslugi/filiali/montana-2400.html","opening_hours":"Mo-Sa 07:00-21:30; Su 08:00-21:00","brand":"Kaufland","brand:wikidata":"Q685967","nsi_id":"kaufland-56b425"},"coordinates":[43.4216427,23.2269421]},"dist":29.028,"tags_mismatch":true},{"osm":{"type":"node","id":1888455739,"tags":{"addr:city":"София","addr:postcode":"1324","branch":"Петър Дертлиев","brand":"Kaufland","brand:wikidata":"Q685967","opening_hours":"Mo-Su 07:00-22:00","ref":"BG3700","shop":"supermarket","website":"https://www.kaufland.bg/moyat-kaufland/uslugi/filiali/sofia-lyulin-petar-dertliev-3700.html"},"wikidata":"Q685967","coordinates":[42.7102145,23.2580855]},"atp":{"id":"rD5hHaor69alogRfJ56UAMpMWcg=","tags":{"ref":"BG3700","start_date":"2010-06-09T00:00:00.000Z","toilets":"yes","shop":"supermarket","@source_uri":"https://www.kaufland.bg/.klstorefinder.json","@spider":"kaufland","addr:street_address":"бул. \"Петър Дертлиев\" 56","addr:city":"София","addr:postcode":"1324","addr:country":"BG","branch":"София-Люлин, Петър Дертлиев","phone":"+359 800 12 220","website":"https://www.kaufland.bg/moyat-kaufland/uslugi/filiali/sofija-ljulin-petr-dertliev-3700.html","opening_hours":"Mo-Su 07:00-22:00","brand":"Kaufland","brand:wikidata":"Q685967","nsi_id":"kaufland-56b425"},"coordinates":[42.7102595,23.2588502]},"dist":62.68,"tags_mismatch":true},{"osm":{"type":"node","id":2186724183,"tags":{"addr:city":"София","addr:housenumber":"3","addr:postcode":"1712","addr:street":"Филип Аврамов","branch":"Младост","brand":"Kaufland","brand:wikidata":"Q685967","check_date:opening_hours":"2020-12-08","contact:phone":"+359 2 401 5400","opening_hours":"Mo-Su 07:00-22:00","ref":"BG1000","shop":"supermarket","website":"https://www.kaufland.bg/moyat-kaufland/uslugi/filiali/sofia-mladost-filip-avramov-1000.html","wheelchair":"yes"},"wikidata":"Q685967","coordinates":[42.6459651,23.3792558]},"atp":{"id":"8aLTNOWo00rGI1n4WYB7Nr3BXE0=","tags":{"ref":"BG1000","start_date":"2006-07-13T00:00:00.000Z","toilets":"yes","shop":"supermarket","@source_uri":"https://www.kaufland.bg/.klstorefinder.json","@spider":"kaufland","addr:street_address":"ул. \"Филип Аврамов\" 3","addr:city":"София","addr:postcode":"1712","addr:country":"BG","branch":"София-Младост","phone":"+359 800 12 220","website":"https://www.kaufland.bg/moyat-kaufland/uslugi/filiali/sofija-mladost-1000.html","opening_hours":"Mo-Su 07:00-22:00","brand":"Kaufland","brand:wikidata":"Q685967","nsi_id":"kaufland-56b425"},"coordinates":[42.6453868,23.3784502]},"dist":92.068,"tags_mismatch":true},{"osm":{"type":"node","id":2328187709,"tags":{"addr:city":"Пловдив","addr:postcode":"4003","branch":"Гагарин","brand":"Kaufland","brand:wikidata":"Q685967","check_date:opening_hours":"2023-04-20","opening_hours":"Mo-Su 07:00-22:00","ref":"BG4200","shop":"supermarket","website":"https://www.kaufland.bg/moyat-kaufland/uslugi/filiali/plovdiv-gagarin-4200.html"},"wikidata":"Q685967","coordinates":[42.1665746,24.7491084]},"atp":{"id":"UT_ivjlDygvJQYvYODS2F78mx8U=","tags":{"ref":"BG4200","start_date":"2010-01-20T00:00:00.000Z","toilets":"yes","shop":"supermarket","@source_uri":"https://www.kaufland.bg/.klstorefinder.json","@spider":"kaufland","addr:street_address":"ул. \"Брезовско шосе\" 127","addr:city":"Пловдив","addr:postcode":"4003","addr:country":"BG","branch":"Пловдив-Гагарин","phone":"+359 800 12 220","website":"https://www.kaufland.bg/moyat-kaufland/uslugi/filiali/plovdiv-gagarin-4200.html","opening_hours":"Mo-Sa 07:00-22:00; Su 08:00-22:00","brand":"Kaufland","brand:wikidata":"Q685967","nsi_id":"kaufland-56b425"},"coordinates":[42.1669686,24.7498575]},"dist":75.704,"tags_mismatch":true},{"osm":{"type":"node","id":3766181129,"tags":{"addr:city":"София","addr:housenumber":"20","addr:postcode":"1000","addr:street":"Проф. д-р Иван Странски","branch":"Малинова долина","brand":"Kaufland","brand:wikidata":"Q685967","check_date":"2023-05-23","contact:phone":"+359 2 904 8800","internet_access":"no","opening_hours":"Mo-Su 07:00-22:00","payment:contactless":"yes","payment:credit_cards":"yes","ref":"BG5800","shop":"supermarket","toilets:wheelchair":"yes","website":"https://www.kaufland.bg/moyat-kaufland/uslugi/filiali/sofia-malinova-dolina-5800.html","wheelchair":"yes"},"wikidata":"Q685967","coordinates":[42.6417802,23.336214]},"atp":{"id":"RgTrcEkiXsxt-HRVk19Jxg--04c=","tags":{"ref":"BG5800","start_date":"2015-09-02T00:00:00.000Z","toilets":"yes","shop":"supermarket","@source_uri":"https://www.kaufland.bg/.klstorefinder.json","@spider":"kaufland","addr:street_address":"ул. \"Проф. д-р Ив. Странски\" 20","addr:city":"София","addr:postcode":"1000","addr:country":"BG","branch":"София-Малинова долина","phone":"+359 800 12 220","website":"https://www.kaufland.bg/moyat-kaufland/uslugi/filiali/sofija-malinova-dolina-5800.html","opening_hours":"Mo-Su 07:00-22:00","brand":"Kaufland","brand:wikidata":"Q685967","nsi_id":"kaufland-56b425"},"coordinates":[42.6428659,23.3369686]},"dist":135.588,"tags_mismatch":true},{"osm":{"type":"node","id":3814518898,"tags":{"addr:city":"Бургас","addr:housenumber":"23","addr:postcode":"8000","addr:street":"Транспортна","branch":"Изгрев","brand":"Kaufland","brand:wikidata":"Q685967","opening_hours":"Mo-Sa 07:00-22:00; Su 08:00-22:00","ref":"BG7300","shop":"supermarket","website":"https://www.kaufland.bg/moyat-kaufland/uslugi/filiali/burgas-izgrev-7300.html"},"wikidata":"Q685967","coordinates":[42.5320719,27.4610567]},"atp":{"id":"-25nE_MoOmq7-WR5gxh6m4hZFfs=","tags":{"ref":"BG7300","start_date":"2015-11-11T00:00:00.000Z","toilets":"yes","shop":"supermarket","@source_uri":"https://www.kaufland.bg/.klstorefinder.json","@spider":"kaufland","addr:street_address":"ул. \"Транспортна\" 23","addr:city":"Бургас","addr:postcode":"8000","addr:country":"BG","branch":"Бургас-Изгрев","phone":"+359 800 12 220","website":"https://www.kaufland.bg/moyat-kaufland/uslugi/filiali/burgas-izgrev-7300.html","opening_hours":"Mo-Sa 07:00-22:00; Su 08:00-22:00","brand":"Kaufland","brand:wikidata":"Q685967","nsi_id":"kaufland-56b425"},"coordinates":[42.5315977,27.4612957]},"dist":56.248,"tags_mismatch":false},{"osm":{"type":"node","id":4328324489,"tags":{"addr:city":"Силистра","addr:postcode":"7500","addr:street":"Никола Й. Вапцаров","branch":"Силистра","brand":"Kaufland","brand:wikidata":"Q685967","opening_hours":"Mo-Sa 07:00-21:00; Su 08:00-21:00","ref":"BG5000","shop":"supermarket","website":"https://www.kaufland.bg/moyat-kaufland/uslugi/filiali/silistra-5000.html","wheelchair":"yes"},"wikidata":"Q685967","coordinates":[44.1115382,27.2519977]},"atp":{"id":"UqE_ryMEbD8s0di8AzdQykUKYBo=","tags":{"ref":"BG5000","start_date":"2010-08-11T00:00:00.000Z","toilets":"yes","shop":"supermarket","@source_uri":"https://www.kaufland.bg/.klstorefinder.json","@spider":"kaufland","addr:street_address":"ул. \"Н. Й. Вапцаров\" 8","addr:city":"Силистра","addr:postcode":"7500","addr:country":"BG","branch":"Силистра","phone":"+359 800 12 220","website":"https://www.kaufland.bg/moyat-kaufland/uslugi/filiali/silistra-5000.html","opening_hours":"Mo-Sa 07:00-21:30; Su 08:00-21:00","brand":"Kaufland","brand:wikidata":"Q685967","nsi_id":"kaufland-56b425"},"coordinates":[44.1121424,27.2530563]},"dist":107.965,"tags_mismatch":true},{"osm":{"type":"node","id":6535254985,"tags":{"addr:city":"Дупница","addr:postcode":"2600","branch":"Дупница","brand":"Kaufland","brand:wikidata":"Q685967","opening_hours":"Mo-Su 07:00-21:00","ref":"BG6800","shop":"supermarket","website":"https://www.kaufland.bg/moyat-kaufland/uslugi/filiali/dupnitza-6800.html"},"wikidata":"Q685967","coordinates":[42.2581723,23.10364]},"atp":{"id":"bSufD7TCWi6uhVSGdbN08QTkxEo=","tags":{"ref":"BG6800","start_date":"2015-08-12T00:00:00.000Z","toilets":"yes","shop":"supermarket","@source_uri":"https://www.kaufland.bg/.klstorefinder.json","@spider":"kaufland","addr:street_address":"ул. \"Свети Иван Рилски\" 96А","addr:city":"Дупница","addr:postcode":"2600","addr:country":"BG","branch":"Дупница","phone":"+359 800 12 220","website":"https://www.kaufland.bg/moyat-kaufland/uslugi/filiali/dupnitsa-6800.html","opening_hours":"Mo-Sa 07:00-21:30; Su 08:00-21:00","brand":"Kaufland","brand:wikidata":"Q685967","nsi_id":"kaufland-56b425"},"coordinates":[42.2590756,23.1041855]},"dist":110.018,"tags_mismatch":true},{"osm":{"type":"node","id":9093654119,"tags":{"addr:city":"Пловдив","addr:postcode":"4000","branch":"Христо Ботев Юг","brand":"Kaufland","brand:wikidata":"Q685967","opening_hours":"Mo-Su 07:00-22:00","ref":"BG2700","shop":"supermarket","website":"https://www.kaufland.bg/moyat-kaufland/uslugi/filiali/plovdiv-hristo-botev-yug-2700.html"},"wikidata":"Q685967","coordinates":[42.1221937,24.7412351]},"atp":{"id":"VEAoHDqYrZGolhxaTCHOtRa5SaM=","tags":{"ref":"BG2700","start_date":"2011-03-02T00:00:00.000Z","toilets":"yes","shop":"supermarket","@source_uri":"https://www.kaufland.bg/.klstorefinder.json","@spider":"kaufland","addr:street_address":"ул. \"Македония\" 97Б","addr:city":"Пловдив","addr:postcode":"4000","addr:country":"BG","branch":"Пловдив-Христо Ботев, Юг","phone":"+359 800 12 220","website":"https://www.kaufland.bg/moyat-kaufland/uslugi/filiali/plovdiv-hristo-botev-jug-2700.html","opening_hours":"Mo-Sa 07:00-22:00; Su 08:00-22:00","brand":"Kaufland","brand:wikidata":"Q685967","nsi_id":"kaufland-56b425"},"coordinates":[42.1221244,24.7411932]},"dist":8.445,"tags_mismatch":true},{"osm":{"type":"node","id":9655856369,"tags":{"addr:city":"Петрич","addr:postcode":"2850","branch":"Петрич","brand":"Kaufland","brand:wikidata":"Q685967","opening_hours":"Mo-Su 07:00-22:00","ref":"BG5400","shop":"supermarket","website":"https://www.kaufland.bg/moyat-kaufland/uslugi/filiali/petrich-5400.html"},"wikidata":"Q685967","coordinates":[41.3979825,23.1920926]},"atp":{"id":"cVhgH2oS1SzfZneJrSPOWUlVcJk=","tags":{"ref":"BG5400","start_date":"2021-12-15T00:00:00.000Z","toilets":"yes","shop":"supermarket","@source_uri":"https://www.kaufland.bg/.klstorefinder.json","@spider":"kaufland","addr:street_address":"ул. \"Първомайски път\" 1","addr:city":"Петрич","addr:postcode":"2850","addr:country":"BG","branch":"Петрич","phone":"+359 800 12 220","website":"https://www.kaufland.bg/moyat-kaufland/uslugi/filiali/petrich-5400.html","opening_hours":"Mo-Sa 07:00-22:00; Su 08:00-22:00","brand":"Kaufland","brand:wikidata":"Q685967","nsi_id":"kaufland-56b425"},"coordinates":[41.3971282,23.1934912]},"dist":150.444,"tags_mismatch":true},{"osm":{"type":"node","id":10035527922,"tags":{"addr:city":"София","addr:housenumber":"2","addr:postcode":"1000","addr:street":"Владичина ливада","branch":"Горубляне","brand":"Kaufland","brand:wikidata":"Q685967","opening_hours":"Mo-Su 07:00-22:00","ref":"BG6300","shop":"supermarket","start_date":"2022-09-29","website":"https://www.kaufland.bg/moyat-kaufland/uslugi/filiali/sofia-gorublyane-6300.html"},"wikidata":"Q685967","coordinates":[42.6344562,23.4071349]},"atp":{"id":"ZtYiXNsCrjEav4-wbuGsXh5uHKU=","tags":{"ref":"BG6300","start_date":"2022-09-28T00:00:00.000Z","toilets":"yes","shop":"supermarket","@source_uri":"https://www.kaufland.bg/.klstorefinder.json","@spider":"kaufland","addr:street_address":"ул. Владичина ливада №2","addr:city":"София","addr:postcode":"1000","addr:country":"BG","branch":"Sofia-Gorublyane","phone":"+359 800 12 220","website":"https://www.kaufland.bg/moyat-kaufland/uslugi/filiali/sofia-gorublyane-6300.html","opening_hours":"Mo-Th 07:00-22:00; Fr 07:00-21:00; Sa-Su 07:00-22:00","brand":"Kaufland","brand:wikidata":"Q685967","nsi_id":"kaufland-56b425"},"coordinates":[42.6343932,23.4069655]},"dist":15.528,"tags_mismatch":true},{"osm":{"type":"way","id":23569938,"tags":{"addr:city":"Русе","addr:postcode":"7020","addr:street":"бул. Липник","branch":"Ялта","brand":"Kaufland","brand:wikidata":"Q685967","building":"commercial","building:levels":"2","opening_hours":"Mo-Su 07:00-22:00","ref":"BG1500","roof:levels":"1","shop":"supermarket","website":"https://www.kaufland.bg/moyat-kaufland/uslugi/filiali/ruse-yalta-1500.html","wheelchair":"yes"},"wikidata":"Q685967","coordinates":[43.8452453,25.9662104]},"atp":{"id":"XwCL4UNEMa4hNuTC0DKUzUoyueg=","tags":{"ref":"BG1500","start_date":"2006-08-10T00:00:00.000Z","toilets":"yes","shop":"supermarket","@source_uri":"https://www.kaufland.bg/.klstorefinder.json","@spider":"kaufland","addr:street_address":"бул. \"Липник\" 8","addr:city":"Русе","addr:postcode":"7020","addr:country":"BG","branch":"Русе-Ялта","phone":"+359 800 12 220","website":"https://www.kaufland.bg/moyat-kaufland/uslugi/filiali/ruse-jalta-1500.html","opening_hours":"Mo-Sa 07:00-22:00; Su 08:00-22:00","brand":"Kaufland","brand:wikidata":"Q685967","nsi_id":"kaufland-56b425"},"coordinates":[43.8452664,25.9661422]},"dist":5.951,"tags_mismatch":true},{"osm":{"type":"way","id":35001384,"tags":{"addr:city":"Варна","addr:postcode":"9020","branch":"Възраждане","brand":"Kaufland","brand:wikidata":"Q685967","building":"yes","opening_hours":"Mo-Su 07:00-22:00","ref":"BG1300","shop":"supermarket","website":"https://www.kaufland.bg/moyat-kaufland/uslugi/filiali/varna-vazrazhdane-1300.html","wheelchair":"yes"},"wikidata":"Q685967","coordinates":[43.2351945,27.8814449]},"atp":{"id":"keRqwpnsZ-i69BsKrE9VU2q5JVQ=","tags":{"ref":"BG1300","start_date":"2006-09-07T00:00:00.000Z","toilets":"yes","shop":"supermarket","@source_uri":"https://www.kaufland.bg/.klstorefinder.json","@spider":"kaufland","addr:street_address":"бул. \"Република\" 60","addr:city":"Варна","addr:postcode":"9020","addr:country":"BG","branch":"Варна-Възраждане","phone":"+359 800 12 220","website":"https://www.kaufland.bg/moyat-kaufland/uslugi/filiali/varna-vzrazhdane-1300.html","opening_hours":"Mo-Sa 07:00-22:00; Su 08:00-22:00","brand":"Kaufland","brand:wikidata":"Q685967","nsi_id":"kaufland-56b425"},"coordinates":[43.2353073,27.8814384]},"dist":12.554,"tags_mismatch":true},{"osm":{"type":"way","id":40610172,"tags":{"addr:city":"Ямбол","addr:country":"BG","addr:housenumber":"30","addr:postcode":"8600","addr:street":"бул. Граф Игнатиев","branch":"Ямбол","brand":"Kaufland","brand:wikidata":"Q685967","building":"yes","opening_hours":"Mo-Sa 07:00-21:30; Su 08:00-21:00","ref":"BG2000","shop":"supermarket","website":"https://www.kaufland.bg/moyat-kaufland/uslugi/filiali/yambol-2000.html","wheelchair":"yes"},"wikidata":"Q685967","coordinates":[42.4772158,26.5182395]},"atp":{"id":"c-ltb5xyArG5EctSfh92OYdBZgw=","tags":{"ref":"BG2000","start_date":"2006-09-14T00:00:00.000Z","toilets":"yes","shop":"supermarket","@source_uri":"https://www.kaufland.bg/.klstorefinder.json","@spider":"kaufland","addr:street_address":"ул. \"Граф Игнатиев\" 30","addr:city":"Ямбол","addr:postcode":"8600","addr:country":"BG","branch":"Ямбол","phone":"+359 800 12 220","website":"https://www.kaufland.bg/moyat-kaufland/uslugi/filiali/jambol-2000.html","opening_hours":"Mo-Sa 07:00-21:30; Su 08:00-21:00","brand":"Kaufland","brand:wikidata":"Q685967","nsi_id":"kaufland-56b425"},"coordinates":[42.4773107,26.5183527]},"dist":14.055,"tags_mismatch":true},{"osm":{"type":"way","id":48337730,"tags":{"addr:city":"София","addr:housenumber":"25","addr:street":"бул. Княгиня Мария Луиза","alt_name":"Centralni Hali","alt_name:bg":"Централни софийски хали","alt_name:de":"Zentralmarkthalle","alt_name:en":"Central Market Hall","alt_name:es":"Mercado central","alt_name:fr":"Marché central","branch":"София-Център","brand":"Kaufland","brand:wikidata":"Q685967","building":"marketplace","building:wikidata":"Q190675","building:wikimedia_commons":"Category:Central Market Hall in Sofia","building:wikipedia":"bg:Централни софийски хали","opening_date":"2024-05-23","opening_hours":"Mo-Su 07:00-23:00","ref":"BG6400","self_checkout":"yes","shop":"supermarket","website":"https://www.kaufland.bg/moyat-kaufland/uslugi/filiali/sofia-zentrum-6400.html","wheelchair":"yes"},"wikidata":"Q685967","coordinates":[42.6999866,23.3217957]},"atp":{"id":"dPDtdiZGpPtMEB7XhYlx9CHhEMM=","tags":{"ref":"BG6400","start_date":"2024-05-22T00:00:00.000Z","toilets":"yes","shop":"supermarket","@source_uri":"https://www.kaufland.bg/.klstorefinder.json","@spider":"kaufland","addr:street_address":"бул. \"Княгиня Мария Луиза\" 25","addr:city":"София","addr:postcode":"1000","addr:country":"BG","branch":"Sofia-Center","phone":"+359 800 12 220","website":"https://www.kaufland.bg/moyat-kaufland/uslugi/filiali/sofia-center-6400.html","opening_hours":"Mo-Su 07:00-23:00","brand":"Kaufland","brand:wikidata":"Q685967","nsi_id":"kaufland-56b425"},"coordinates":[42.6999877,23.3219203]},"dist":10.183,"tags_mismatch":true},{"osm":{"type":"way","id":70384331,"tags":{"addr:city":"Стара Загора","addr:postcode":"6000","branch":"Казански","brand":"Kaufland","brand:wikidata":"Q685967","building":"commercial","opening_hours":"Mo-Sa 07:00-21:30; Su 08:00-21:30","ref":"BG3900","shop":"supermarket","website":"https://www.kaufland.bg/moyat-kaufland/uslugi/filiali/stara-zagora-kazanski-3900.html"},"wikidata":"Q685967","coordinates":[42.4154681,25.6204123]},"atp":{"id":"wshGKHBXefOwP3PxwuoQRGRWRYQ=","tags":{"ref":"BG3900","start_date":"2009-05-27T00:00:00.000Z","toilets":"yes","shop":"supermarket","@source_uri":"https://www.kaufland.bg/.klstorefinder.json","@spider":"kaufland","addr:street_address":"ул. \"Стамо Пулев\" 2","addr:city":"Стара Загора","addr:postcode":"6000","addr:country":"BG","branch":"Стара Загора-Казански","phone":"+359 800 12 220","website":"https://www.kaufland.bg/moyat-kaufland/uslugi/filiali/stara-zagora-kazanski-3900.html","opening_hours":"Mo-Sa 07:00-21:30; Su 08:00-21:30","brand":"Kaufland","brand:wikidata":"Q685967","nsi_id":"kaufland-56b425"},"coordinates":[42.4161315,25.6207548]},"dist":78.943,"tags_mismatch":false},{"osm":{"type":"way","id":76254816,"tags":{"addr:city":"Плевен","addr:postcode":"5800","branch":"Кайлъка","brand":"Kaufland","brand:wikidata":"Q685967","building":"yes","level":"1","opening_hours":"Mo-Sa 07:00-21:00; Su 08:00-21:00","organic":"yes","ref":"BG3300","shop":"supermarket","toilets":"yes","toilets:access":"customers","toilets:wheelchair":"yes","website":"https://www.kaufland.bg/moyat-kaufland/uslugi/filiali/pleven-kaylaka-3300.html","wheelchair":"yes"},"wikidata":"Q685967","coordinates":[43.3949681,24.6208232]},"atp":{"id":"m6TTGwyLHFNVMOwoqCqbU9TKaA4=","tags":{"ref":"BG3300","start_date":"2007-08-15T00:00:00.000Z","toilets":"yes","shop":"supermarket","@source_uri":"https://www.kaufland.bg/.klstorefinder.json","@spider":"kaufland","addr:street_address":"ул. \"Сан Стефано\" 80","addr:city":"Плевен","addr:postcode":"5800","addr:country":"BG","branch":"Плевен-Кайлъка","phone":"+359 800 12 220","website":"https://www.kaufland.bg/moyat-kaufland/uslugi/filiali/pleven-kaylka-3300.html","opening_hours":"Mo-Sa 07:00-21:30; Su 08:00-21:00","brand":"Kaufland","brand:wikidata":"Q685967","nsi_id":"kaufland-56b425"},"coordinates":[43.3951386,24.6220567]},"dist":101.452,"tags_mismatch":true},{"osm":{"type":"way","id":87404374,"tags":{"addr:city":"Пловдив","addr:postcode":"4023","branch":"Тракия","brand":"Kaufland","brand:wikidata":"Q685967","building":"yes","opening_hours":"Mo-Su 07:00-22:00","ref":"BG1200","shop":"supermarket","website":"https://www.kaufland.bg/moyat-kaufland/uslugi/filiali/plovdiv-trakia-osvobozhdenie-1200.html"},"wikidata":"Q685967","coordinates":[42.1332611,24.7899744]},"atp":{"id":"fT8Jg2Faek7MNXG93rv5c8dbaSY=","tags":{"ref":"BG1200","start_date":"2006-03-09T00:00:00.000Z","toilets":"yes","shop":"supermarket","@source_uri":"https://www.kaufland.bg/.klstorefinder.json","@spider":"kaufland","addr:street_address":"бул. \"Освобождение\" 47","addr:city":"Пловдив","addr:postcode":"4023","addr:country":"BG","branch":"Пловдив-Тракия, Освобождение","phone":"+359 800 12 220","website":"https://www.kaufland.bg/moyat-kaufland/uslugi/filiali/plovdiv-trakija-osvobozhdenie-1200.html","opening_hours":"Mo-Sa 07:00-22:00; Su 08:00-22:00","brand":"Kaufland","brand:wikidata":"Q685967","nsi_id":"kaufland-56b425"},"coordinates":[42.1332028,24.7898593]},"dist":11.494,"tags_mismatch":true},{"osm":{"type":"way","id":103438166,"tags":{"addr:city":"Варна","addr:housenumber":"2","addr:postcode":"9000","addr:street":"бул. Христо Смирненски","branch":"Трошево","brand":"Kaufland","brand:wikidata":"Q685967","building":"retail","building:levels":"2","check_date":"2024-08-29","int_name":"Kaufland","internet_access":"no","opening_hours":"Mo-Su 07:00-22:00","payment:cash":"yes","payment:credit_cards":"yes","payment:debit_cards":"yes","ref":"BG1400","shop":"supermarket","website":"https://www.kaufland.bg/moyat-kaufland/uslugi/filiali/varna-troshevo-1400.html","wheelchair":"yes"},"wikidata":"Q685967","coordinates":[43.2212612,27.8908067]},"atp":{"id":"BDQQ8eCFO4PbTgdCyvIAZf6IV3k=","tags":{"ref":"BG1400","start_date":"2010-08-18T00:00:00.000Z","toilets":"yes","shop":"supermarket","@source_uri":"https://www.kaufland.bg/.klstorefinder.json","@spider":"kaufland","addr:street_address":"ул. \"Христо Смирненски\" 2","addr:city":"Варна","addr:postcode":"9000","addr:country":"BG","branch":"Варна-Трошево","phone":"+359 800 12 220","website":"https://www.kaufland.bg/moyat-kaufland/uslugi/filiali/varna-troshevo-1400.html","opening_hours":"Mo-Sa 07:00-22:00; Su 08:00-22:00","brand":"Kaufland","brand:wikidata":"Q685967","nsi_id":"kaufland-56b425"},"coordinates":[43.2212548,27.8907471]},"dist":4.882,"tags_mismatch":true},{"osm":{"type":"way","id":135765391,"tags":{"addr:city":"Добрич","addr:postcode":"9300","branch":"Добрич","brand":"Kaufland","brand:wikidata":"Q685967","building":"yes","opening_hours":"Mo-Sa 07:00-21:30; Su 08:00-21:00","ref":"BG4300","shop":"supermarket","website":"https://www.kaufland.bg/moyat-kaufland/uslugi/filiali/dobrich-4300.html"},"wikidata":"Q685967","coordinates":[43.5666888,27.8394896]},"atp":{"id":"azmAR0jrxT_qZg-xhoh49BI6UDw=","tags":{"ref":"BG4300","start_date":"2008-05-28T00:00:00.000Z","toilets":"yes","shop":"supermarket","@source_uri":"https://www.kaufland.bg/.klstorefinder.json","@spider":"kaufland","addr:street_address":"ул. \"Дунав\" 55","addr:city":"Добрич","addr:postcode":"9300","addr:country":"BG","branch":"Добрич","phone":"+359 800 12 220","website":"https://www.kaufland.bg/moyat-kaufland/uslugi/filiali/dobrich-4300.html","opening_hours":"Mo-Sa 07:00-21:30; Su 08:00-21:30","brand":"Kaufland","brand:wikidata":"Q685967","nsi_id":"kaufland-56b425"},"coordinates":[43.5656482,27.8397493]},"dist":117.586,"tags_mismatch":true},{"osm":{"type":"way","id":146542080,"tags":{"addr:city":"София","addr:housenumber":"61","addr:postcode":"1229","addr:street":"Хан Кубрат","branch":"Надежда","brand":"Kaufland","brand:wikidata":"Q685967","building":"yes","opening_hours":"Mo-Su 07:00-22:00","ref":"BG3000","shop":"supermarket","website":"https://www.kaufland.bg/moyat-kaufland/uslugi/filiali/sofia-nadezhda-3000.html","wheelchair":"yes"},"wikidata":"Q685967","coordinates":[42.7279447,23.2858741]},"atp":{"id":"9JZiWjRLOc6cDnHaKKbBTO87sN0=","tags":{"ref":"BG3000","start_date":"2011-04-20T00:00:00.000Z","toilets":"yes","shop":"supermarket","@source_uri":"https://www.kaufland.bg/.klstorefinder.json","@spider":"kaufland","addr:street_address":"ул. \"Хан Кубрат\" 61","addr:city":"София","addr:postcode":"1229","addr:country":"BG","branch":"София-Надежда","phone":"+359 800 12 220","website":"https://www.kaufland.bg/moyat-kaufland/uslugi/filiali/sofija-nadezhda-3000.html","opening_hours":"Mo-Su 07:00-22:00","brand":"Kaufland","brand:wikidata":"Q685967","nsi_id":"kaufland-56b425"},"coordinates":[42.7293291,23.286192]},"dist":156.113,"tags_mismatch":true},{"osm":{"type":"way","id":147119718,"tags":{"addr:city":"София","addr:postcode":"1233","branch":"Банишора","brand":"Kaufland","brand:wikidata":"Q685967","building":"retail","layer":"1","opening_hours":"Mo-Su 07:00-22:00","ref":"BG2800","shop":"supermarket","website":"https://www.kaufland.bg/moyat-kaufland/uslugi/filiali/sofia-banishora-2800.html"},"wikidata":"Q685967","coordinates":[42.7109575,23.3027922]},"atp":{"id":"ESoBgGQaJgVKn_9nalpav-Sost4=","tags":{"ref":"BG2800","start_date":"2008-06-11T00:00:00.000Z","toilets":"yes","shop":"supermarket","@source_uri":"https://www.kaufland.bg/.klstorefinder.json","@spider":"kaufland","addr:street_address":"ул. \"Скопие\" 1","addr:city":"София","addr:postcode":"1233","addr:country":"BG","branch":"София-Банишора","phone":"+359 800 12 220","website":"https://www.kaufland.bg/moyat-kaufland/uslugi/filiali/sofija-banishora-2800.html","opening_hours":"Mo-Su 07:00-22:00","brand":"Kaufland","brand:wikidata":"Q685967","nsi_id":"kaufland-56b425"},"coordinates":[42.7110323,23.3027212]},"dist":10.141,"tags_mismatch":true},{"osm":{"type":"way","id":160562736,"tags":{"addr:city":"Пазарджик","addr:housenumber":"3","addr:postcode":"4400","addr:street":"Димчо Дебелянов","branch":"Пазарджик","brand":"Kaufland","brand:wikidata":"Q685967","building":"supermarket","opening_hours":"Mo-Sa 07:00-21:30; Su 08:00-21:30","ref":"BG4100","shop":"supermarket","toilets:wheelchair":"yes","website":"https://www.kaufland.bg/moyat-kaufland/uslugi/filiali/pazardzhik-4100.html","wheelchair":"yes"},"wikidata":"Q685967","coordinates":[42.1863404,24.3463047]},"atp":{"id":"DDnmOHBSCfI8Bbq8PeNFl0tjYHo=","tags":{"ref":"BG4100","start_date":"2008-08-06T00:00:00.000Z","toilets":"yes","shop":"supermarket","@source_uri":"https://www.kaufland.bg/.klstorefinder.json","@spider":"kaufland","addr:street_address":"ул. \"Димчо Дебелянов\" 3","addr:city":"Пазарджик","addr:postcode":"4400","addr:country":"BG","branch":"Пазарджик","phone":"+359 800 12 220","website":"https://www.kaufland.bg/moyat-kaufland/uslugi/filiali/pazardzhik-4100.html","opening_hours":"Mo-Sa 07:00-22:00; Su 08:00-21:30","brand":"Kaufland","brand:wikidata":"Q685967","nsi_id":"kaufland-56b425"},"coordinates":[42.1863348,24.3462852]},"dist":1.723,"tags_mismatch":true},{"osm":{"type":"way","id":166213061,"tags":{"addr:city":"София","addr:housenumber":"3","addr:postcode":"1618","addr:street":"Тодор Каблешков","branch":"Витоша","brand":"Kaufland","brand:wikidata":"Q685967","building":"yes","opening_hours":"Mo-Su 07:00-22:00","ref":"BG6000","self_checkout":"yes","shop":"supermarket","website":"https://www.kaufland.bg/moyat-kaufland/uslugi/filiali/sofia-vitosha-6000.html"},"wikidata":"Q685967","coordinates":[42.6703876,23.2734768]},"atp":{"id":"0bCCXnk9kYJlqO1RKTPMv7z1Wwc=","tags":{"ref":"BG6000","start_date":"2013-12-04T00:00:00.000Z","toilets":"yes","shop":"supermarket","@source_uri":"https://www.kaufland.bg/.klstorefinder.json","@spider":"kaufland","addr:street_address":"бул. \"Тодор Каблешков\" 3","addr:city":"София","addr:postcode":"1618","addr:country":"BG","branch":"София-Витоша","phone":"+359 800 12 220","website":"https://www.kaufland.bg/moyat-kaufland/uslugi/filiali/sofija-vitosha-6000.html","opening_hours":"Mo-Su 07:00-22:00","brand":"Kaufland","brand:wikidata":"Q685967","nsi_id":"kaufland-56b425"},"coordinates":[42.6704284,23.2734381]},"dist":5.531,"tags_mismatch":true},{"osm":{"type":"way","id":166368484,"tags":{"addr:city":"Хасково","addr:housenumber":"44","addr:postcode":"6300","addr:street":"бул. Съединение","branch":"Хасково","brand":"Kaufland","brand:wikidata":"Q685967","building":"retail","opening_hours":"Mo-Sa 07:00-21:30; Su 08:00-21:00","payment:cash":"yes","payment:contactless":"yes","payment:credit_cards":"yes","payment:debit_cards":"yes","ref":"BG1900","shop":"supermarket","website":"https://www.kaufland.bg/moyat-kaufland/uslugi/filiali/haskovo-1900.html"},"wikidata":"Q685967","coordinates":[41.9304739,25.565912]},"atp":{"id":"phjl1u_3oUlIoG2Otth7dDREN7Q=","tags":{"ref":"BG1900","start_date":"2006-07-20T00:00:00.000Z","toilets":"yes","shop":"supermarket","@source_uri":"https://www.kaufland.bg/.klstorefinder.json","@spider":"kaufland","addr:street_address":"бул. \"Съединение\" 44","addr:city":"Хасково","addr:postcode":"6300","addr:country":"BG","branch":"Хасково","phone":"+359 800 12 220","website":"https://www.kaufland.bg/moyat-kaufland/uslugi/filiali/haskovo-1900.html","opening_hours":"Mo-Sa 07:00-21:30; Su 08:00-21:00","brand":"Kaufland","brand:wikidata":"Q685967","nsi_id":"kaufland-56b425"},"coordinates":[41.9306504,25.565702]},"dist":26.21,"tags_mismatch":false},{"osm":{"type":"way","id":178354411,"tags":{"addr:city":"Търговище","addr:postcode":"7700","branch":"Търговище","brand":"Kaufland","brand:wikidata":"Q685967","building":"retail","opening_hours":"Mo-Sa 07:00-21:00; Su 08:00-21:00","ref":"BG4800","shop":"supermarket","website":"https://www.kaufland.bg/moyat-kaufland/uslugi/filiali/targovishte-4800.html"},"wikidata":"Q685967","coordinates":[43.2493286,26.5586305]},"atp":{"id":"EI0ymco9w-veOj_c7l_vz9kjb5k=","tags":{"ref":"BG4800","start_date":"2009-08-12T00:00:00.000Z","toilets":"yes","shop":"supermarket","@source_uri":"https://www.kaufland.bg/.klstorefinder.json","@spider":"kaufland","addr:street_address":"ул. \"Ал. Стамболийски\" 27","addr:city":"Търговище","addr:postcode":"7700","addr:country":"BG","branch":"Търговище","phone":"+359 800 12 220","website":"https://www.kaufland.bg/moyat-kaufland/uslugi/filiali/trgovische-4800.html","opening_hours":"Mo-Sa 07:00-21:30; Su 08:00-21:00","brand":"Kaufland","brand:wikidata":"Q685967","nsi_id":"kaufland-56b425"},"coordinates":[43.248316,26.5578398]},"dist":129.534,"tags_mismatch":true},{"osm":{"type":"way","id":179047793,"tags":{"addr:city":"Плевен","addr:housenumber":"119","addr:postcode":"5800","addr:street":"Гренадирска","branch":"Воден","brand":"Kaufland","brand:wikidata":"Q685967","building":"commercial","building:levels":"1","building:material":"metal","check_date":"2025-02-21","internet_access":"no","opening_hours":"Mo-Sa 07:00-21:00; Su 08:00-21:00","payment:cash":"yes","payment:credit_cards":"yes","payment:debit_cards":"yes","ref":"BG5200","roof:shape":"flat","shop":"supermarket","website":"https://www.kaufland.bg/moyat-kaufland/uslugi/filiali/pleven-voden-5200.html","wheelchair":"yes"},"wikidata":"Q685967","coordinates":[43.4190993,24.6275154]},"atp":{"id":"gqTBMWMA5SJ_LorpilAuiBO9y2A=","tags":{"ref":"BG5200","start_date":"2010-09-01T00:00:00.000Z","toilets":"yes","shop":"supermarket","@source_uri":"https://www.kaufland.bg/.klstorefinder.json","@spider":"kaufland","addr:street_address":"ул. \"Гренадерска\" 119","addr:city":"Плевен","addr:postcode":"5800","addr:country":"BG","branch":"Плевен-Воден","phone":"+359 800 12 220","website":"https://www.kaufland.bg/moyat-kaufland/uslugi/filiali/pleven-voden-5200.html","opening_hours":"Mo-Sa 07:00-21:30; Su 08:00-21:00","brand":"Kaufland","brand:wikidata":"Q685967","nsi_id":"kaufland-56b425"},"coordinates":[43.4191748,24.6273377]},"dist":16.627,"tags_mismatch":true},{"osm":{"type":"way","id":179105093,"tags":{"addr:city":"Димитровград","addr:housenumber":"7","addr:postcode":"6400","addr:street":"Ромен Ролан","branch":"Асеновград","brand":"Kaufland","brand:wikidata":"Q685967","building":"yes","building:levels":"1","check_date":"2023-02-25","opening_hours":"Mo-Sa 07:00-21:00; Su 08:00-21:00","ref":"BG4600","shop":"supermarket","website":"https://www.kaufland.bg/moyat-kaufland/uslugi/filiali/dimitrovgrad-4600.html","wheelchair":"yes"},"wikidata":"Q685967","coordinates":[42.0589892,25.5869723]},"atp":{"id":"xZH344hZFVXWXJPTkPgO0GL1gW4=","tags":{"ref":"BG4600","start_date":"2009-09-02T00:00:00.000Z","toilets":"yes","shop":"supermarket","@source_uri":"https://www.kaufland.bg/.klstorefinder.json","@spider":"kaufland","addr:street_address":"ул. \"Ромен Ролан\" 7","addr:city":"Димитровград","addr:postcode":"6400","addr:country":"BG","branch":"Димитровград","phone":"+359 800 12 220","website":"https://www.kaufland.bg/moyat-kaufland/uslugi/filiali/dimitrovgrad-4600.html","opening_hours":"Mo-Sa 07:00-21:00; Su 08:00-21:00","brand":"Kaufland","brand:wikidata":"Q685967","nsi_id":"kaufland-56b425"},"coordinates":[42.0589381,25.5869884]},"dist":5.835,"tags_mismatch":false},{"osm":{"type":"way","id":184673258,"tags":{"addr:city":"Казанлък","addr:postcode":"6100","branch":"Казанлък","brand":"Kaufland","brand:wikidata":"Q685967","building":"retail","opening_hours":"Mo-Sa 07:00-21:30; Su 08:00-21:00","ref":"BG5100","shop":"supermarket","source":"knowledge, aerial photography","website":"https://www.kaufland.bg/moyat-kaufland/uslugi/filiali/kazanlak-5100.html"},"wikidata":"Q685967","coordinates":[42.6181101,25.369234]},"atp":{"id":"kSzSE90d2N0OTnXQO4ZRwSAKdVo=","tags":{"ref":"BG5100","start_date":"2009-12-16T00:00:00.000Z","toilets":"yes","shop":"supermarket","@source_uri":"https://www.kaufland.bg/.klstorefinder.json","@spider":"kaufland","addr:street_address":"бул. \"23.Шипченски пех. полк\" 153","addr:city":"Казанлък","addr:postcode":"6100","addr:country":"BG","branch":"Казанлък","phone":"+359 800 12 220","website":"https://www.kaufland.bg/moyat-kaufland/uslugi/filiali/kazanlk-5100.html","opening_hours":"Mo-Sa 07:00-21:30; Su 08:00-21:30","brand":"Kaufland","brand:wikidata":"Q685967","nsi_id":"kaufland-56b425"},"coordinates":[42.6178198,25.3692352]},"dist":32.28,"tags_mismatch":true},{"osm":{"type":"way","id":214446894,"tags":{"addr:city":"Сандански","addr:postcode":"2800","branch":"Сандански","brand":"Kaufland","brand:wikidata":"Q685967","building":"yes","check_date":"2023-06-03","opening_hours":"Mo-Sa 07:00-21:00; Su 08:00-21:00","payment:mastercard":"yes","payment:visa":"yes","ref":"BG4700","shop":"supermarket","website":"https://www.kaufland.bg/moyat-kaufland/uslugi/filiali/sandanski-4700.html","wheelchair":"yes"},"wikidata":"Q685967","coordinates":[41.549964,23.2707006]},"atp":{"id":"RK27AyTJ_WNQFEBz7pBWt5zuvO4=","tags":{"ref":"BG4700","start_date":"2013-01-16T00:00:00.000Z","toilets":"yes","shop":"supermarket","@source_uri":"https://www.kaufland.bg/.klstorefinder.json","@spider":"kaufland","addr:street_address":"ул. \"Свобода\" 55","addr:city":"Сандански","addr:postcode":"2800","addr:country":"BG","branch":"Сандански","phone":"+359 800 12 220","website":"https://www.kaufland.bg/moyat-kaufland/uslugi/filiali/sandanski-4700.html","opening_hours":"Mo-Sa 07:00-21:00; Su 08:00-21:00","brand":"Kaufland","brand:wikidata":"Q685967","nsi_id":"kaufland-56b425"},"coordinates":[41.550682,23.2700662]},"dist":95.714,"tags_mismatch":false},{"osm":{"type":"way","id":218443849,"tags":{"addr:city":"Варна","addr:housenumber":"77","addr:postcode":"9023","addr:street":"бул. 3-ти март","branch":"Владислав Варненчик","brand":"Kaufland","brand:wikidata":"Q685967","building":"yes","opening_hours":"Mo-Sa 07:00-21:30; Su 08:00-21:00","phone":"+359 52 905 200","ref":"BG3400","shop":"supermarket","website":"https://www.kaufland.bg/moyat-kaufland/uslugi/filiali/varna-vladislav-varnenchik-3400.html"},"wikidata":"Q685967","coordinates":[43.241636,27.8507363]},"atp":{"id":"Mw0npVN0nEeoYzIrxQqTlq5Idog=","tags":{"ref":"BG3400","start_date":"2011-05-25T00:00:00.000Z","toilets":"yes","shop":"supermarket","@source_uri":"https://www.kaufland.bg/.klstorefinder.json","@spider":"kaufland","addr:street_address":"бул. \"Трети март\" 77","addr:city":"Варна","addr:postcode":"9023","addr:country":"BG","branch":"Варна-Владислав Варненчик","phone":"+359 800 12 220","website":"https://www.kaufland.bg/moyat-kaufland/uslugi/filiali/varna-vladislav-varnenchik-3400.html","opening_hours":"Mo-Sa 07:00-21:30; Su 08:00-21:00","brand":"Kaufland","brand:wikidata":"Q685967","nsi_id":"kaufland-56b425"},"coordinates":[43.2420112,27.8497074]},"dist":93.202,"tags_mismatch":false},{"osm":{"type":"way","id":225064115,"tags":{"addr:city":"София","addr:postcode":"1574","branch":"Слатина","brand":"Kaufland","brand:wikidata":"Q685967","building":"retail","building:levels":"2","nohousenumber":"yes","opening_hours":"Mo-Su 07:00-22:00","ref":"BG5900","shop":"supermarket","website":"https://www.kaufland.bg/moyat-kaufland/uslugi/filiali/sofia-slatina-5900.html"},"wikidata":"Q685967","coordinates":[42.6745018,23.3831495]},"atp":{"id":"7zGHaxSlx32TL4Y-leZbmB2rFoc=","tags":{"ref":"BG5900","start_date":"2012-02-15T00:00:00.000Z","toilets":"yes","shop":"supermarket","@source_uri":"https://www.kaufland.bg/.klstorefinder.json","@spider":"kaufland","addr:street_address":"ул. \"Асен Йорданов\" 7","addr:city":"София","addr:postcode":"1574","addr:country":"BG","branch":"София-Слатина","phone":"+359 800 12 220","website":"https://www.kaufland.bg/moyat-kaufland/uslugi/filiali/sofija-slatina-5900.html","opening_hours":"Mo-Su 07:00-22:00","brand":"Kaufland","brand:wikidata":"Q685967","nsi_id":"kaufland-56b425"},"coordinates":[42.6749331,23.3820745]},"dist":100.117,"tags_mismatch":true},{"osm":{"type":"way","id":230415538,"tags":{"addr:city":"Русе","addr:housenumber":"38","addr:postcode":"7020","addr:street":"бул. Христо Ботев","branch":"Дружба","brand":"Kaufland","brand:wikidata":"Q685967","building":"commercial","building:levels":"1","height":"5","internet_access":"wlan","opening_hours":"Mo-Sa 07:00-22:00; Su 08:00-22:00","ref":"BG1600","shop":"supermarket","website":"https://www.kaufland.bg/moyat-kaufland/uslugi/filiali/ruse-druzhba-1600.html","wheelchair":"yes"},"wikidata":"Q685967","coordinates":[43.8321247,25.9684854]},"atp":{"id":"BBUreeWf-7Ue80F6widvZIif5hg=","tags":{"ref":"BG1600","start_date":"2007-06-13T00:00:00.000Z","toilets":"yes","shop":"supermarket","@source_uri":"https://www.kaufland.bg/.klstorefinder.json","@spider":"kaufland","addr:street_address":"бул. \"Христо Ботев\" 38","addr:city":"Русе","addr:postcode":"7020","addr:country":"BG","branch":"Русе-Дружба","phone":"+359 800 12 220","website":"https://www.kaufland.bg/moyat-kaufland/uslugi/filiali/ruse-druzhba-1600.html","opening_hours":"Mo-Sa 07:00-22:00; Su 08:00-22:00","brand":"Kaufland","brand:wikidata":"Q685967","nsi_id":"kaufland-56b425"},"coordinates":[43.8321604,25.969904]},"dist":113.859,"tags_mismatch":false},{"osm":{"type":"way","id":232474607,"tags":{"addr:city":"Разград","addr:housename":"Кауфланд","addr:housenumber":"3А","addr:postcode":"7200","addr:street":"бул. Априлско въстание","branch":"Разград","brand":"Kaufland","brand:wikidata":"Q685967","building":"yes","opening_hours":"Mo-Sa 07:00-21:00; Su 08:00-21:00","ref":"BG4400","shop":"supermarket","website":"https://www.kaufland.bg/moyat-kaufland/uslugi/filiali/razgrad-4400.html"},"wikidata":"Q685967","coordinates":[43.53046,26.5120204]},"atp":{"id":"yrLSyu51FOhL9RMgBq_7qTJx_hk=","tags":{"ref":"BG4400","start_date":"2009-08-26T00:00:00.000Z","toilets":"yes","shop":"supermarket","@source_uri":"https://www.kaufland.bg/.klstorefinder.json","@spider":"kaufland","addr:street_address":"бул. \"Априлско въстание\" 3A","addr:city":"Разград","addr:postcode":"7200","addr:country":"BG","branch":"Разград","phone":"+359 800 12 220","website":"https://www.kaufland.bg/moyat-kaufland/uslugi/filiali/razgrad-4400.html","opening_hours":"Mo-Sa 07:00-21:30; Su 08:00-21:00","brand":"Kaufland","brand:wikidata":"Q685967","nsi_id":"kaufland-56b425"},"coordinates":[43.5301795,26.5117501]},"dist":38.048,"tags_mismatch":true},{"osm":{"type":"way","id":234242109,"tags":{"addr:city":"Видин","addr:postcode":"3700","branch":"Видин","brand":"Kaufland","brand:wikidata":"Q685967","building":"yes","opening_hours":"Mo-Sa 07:00-21:00; Su 08:00-21:00","ref":"BG2200","shop":"supermarket","toilets:wheelchair":"yes","website":"https://www.kaufland.bg/moyat-kaufland/uslugi/filiali/vidin-2200.html","wheelchair":"yes"},"wikidata":"Q685967","coordinates":[44.0002193,22.8689903]},"atp":{"id":"QLuH3Cu0ma00FhG_XjauIFcowMA=","tags":{"ref":"BG2200","start_date":"2010-02-03T00:00:00.000Z","toilets":"yes","shop":"supermarket","@source_uri":"https://www.kaufland.bg/.klstorefinder.json","@spider":"kaufland","addr:street_address":"бул. \"Панония\" 41","addr:city":"Видин","addr:postcode":"3700","addr:country":"BG","branch":"Видин","phone":"+359 800 12 220","website":"https://www.kaufland.bg/moyat-kaufland/uslugi/filiali/vidin-2200.html","opening_hours":"Mo-Sa 07:00-21:30; Su 08:00-21:00","brand":"Kaufland","brand:wikidata":"Q685967","nsi_id":"kaufland-56b425"},"coordinates":[44.0002055,22.8691442]},"dist":12.405,"tags_mismatch":true},{"osm":{"type":"way","id":245791985,"tags":{"addr:city":"София","addr:housenumber":"7Б","addr:postcode":"1510","addr:street":"Резбарска","branch":"Хаджи Димитър","brand":"Kaufland","brand:wikidata":"Q685967","building":"yes","opening_hours":"Mo-Su 07:00-22:00","payment:cash":"yes","payment:credit_cards":"yes","ref":"BG5600","shop":"supermarket","website":"https://www.kaufland.bg/moyat-kaufland/uslugi/filiali/sofia-hadzhi-dimitar-5600.html"},"wikidata":"Q685967","coordinates":[42.7137897,23.3536226]},"atp":{"id":"7HmfKNexPmmzNBugj7YfmO_pl1o=","tags":{"ref":"BG5600","start_date":"2011-11-30T00:00:00.000Z","toilets":"yes","shop":"supermarket","@source_uri":"https://www.kaufland.bg/.klstorefinder.json","@spider":"kaufland","addr:street_address":"ул. \"Резбарска\" 7Б","addr:city":"София","addr:postcode":"1510","addr:country":"BG","branch":"София-Хаджи Димитър","phone":"+359 800 12 220","website":"https://www.kaufland.bg/moyat-kaufland/uslugi/filiali/sofija-hadzhi-dimitr-5600.html","opening_hours":"Mo-Su 07:00-22:00","brand":"Kaufland","brand:wikidata":"Q685967","nsi_id":"kaufland-56b425"},"coordinates":[42.712897,23.3550617]},"dist":153.875,"tags_mismatch":true},{"osm":{"type":"way","id":252948273,"tags":{"addr:city":"Горна Оряховица","addr:postcode":"5100","branch":"Горна Оряховица","brand":"Kaufland","brand:wikidata":"Q685967","building":"yes","opening_hours":"Mo-Sa 07:00-21:00; Su 08:00-21:00","ref":"BG4500","shop":"supermarket","website":"https://www.kaufland.bg/moyat-kaufland/uslugi/filiali/gorna-orjachovitza-4500.html"},"wikidata":"Q685967","coordinates":[43.1226828,25.6833738]},"atp":{"id":"JwdAb_dAHHtUJ-VQJNdDPeg3rtQ=","tags":{"ref":"BG4500","start_date":"2009-09-09T00:00:00.000Z","toilets":"yes","shop":"supermarket","@source_uri":"https://www.kaufland.bg/.klstorefinder.json","@spider":"kaufland","addr:street_address":"ул. \"Мано Тодоров\" 7A","addr:city":"Горна Оряховица","addr:postcode":"5100","addr:country":"BG","branch":"Горна Оряховица","phone":"+359 800 12 220","website":"https://www.kaufland.bg/moyat-kaufland/uslugi/filiali/gorna-orjahovitsa-4500.html","opening_hours":"Mo-Sa 07:00-21:00; Su 08:00-21:00","brand":"Kaufland","brand:wikidata":"Q685967","nsi_id":"kaufland-56b425"},"coordinates":[43.1233054,25.6833516]},"dist":69.253,"tags_mismatch":true},{"osm":{"type":"way","id":260125972,"tags":{"addr:city":"Ботевград","addr:postcode":"2140","branch":"Ботевград","brand":"Kaufland","brand:wikidata":"Q685967","building":"yes","opening_hours":"Mo-Sa 07:00-21:00; Su 08:00-21:00","ref":"BG5300","shop":"supermarket","website":"https://www.kaufland.bg/moyat-kaufland/uslugi/filiali/botevgrad-5300.html"},"wikidata":"Q685967","coordinates":[42.9114062,23.8044213]},"atp":{"id":"o2pq0aK0RrEnsdISI8u2jxo9Ajg=","tags":{"ref":"BG5300","start_date":"2010-12-08T00:00:00.000Z","toilets":"yes","shop":"supermarket","@source_uri":"https://www.kaufland.bg/.klstorefinder.json","@spider":"kaufland","addr:street_address":"бул. \"Цар Освободител\" 35Б","addr:city":"Ботевград","addr:postcode":"2140","addr:country":"BG","branch":"Ботевград","phone":"+359 800 12 220","website":"https://www.kaufland.bg/moyat-kaufland/uslugi/filiali/botevgrad-5300.html","opening_hours":"Mo-Sa 07:00-21:00; Su 08:00-21:00","brand":"Kaufland","brand:wikidata":"Q685967","nsi_id":"kaufland-56b425"},"coordinates":[42.9113777,23.8045271]},"dist":9.181,"tags_mismatch":false},{"osm":{"type":"way","id":268474732,"tags":{"addr:city":"Пловдив","addr:postcode":"4000","branch":"Христо Смирненски","brand":"Kaufland","brand:wikidata":"Q685967","building":"supermarket","opening_hours":"Mo-Su 07:00-22:00","ref":"BG6900","shop":"supermarket","website":"https://www.kaufland.bg/moyat-kaufland/uslugi/filiali/plovdiv-hristo-smirnenski-6900.html"},"wikidata":"Q685967","coordinates":[42.1400826,24.7244053]},"atp":{"id":"d3b6Gh8Sfl5tbsun65QBxKYlg58=","tags":{"ref":"BG6900","start_date":"2014-04-30T00:00:00.000Z","toilets":"yes","shop":"supermarket","@source_uri":"https://www.kaufland.bg/.klstorefinder.json","@spider":"kaufland","addr:street_address":"бул. \"Пещерско шосе\" 36","addr:city":"Пловдив","addr:postcode":"4000","addr:country":"BG","branch":"Пловдив - Христо Смирненски","phone":"+359 800 12 220","website":"https://www.kaufland.bg/moyat-kaufland/uslugi/filiali/plovdiv-hristo-smirnenski-6900.html","opening_hours":"Mo-Sa 07:00-22:00; Su 08:00-22:00","brand":"Kaufland","brand:wikidata":"Q685967","nsi_id":"kaufland-56b425"},"coordinates":[42.1400282,24.7243817]},"dist":6.354,"tags_mismatch":true},{"osm":{"type":"way","id":276983337,"tags":{"addr:city":"Карлово","addr:postcode":"4300","branch":"Карлово","brand":"Kaufland","brand:wikidata":"Q685967","building":"yes","opening_hours":"Mo-Su 07:00-21:00","ref":"BG5500","shop":"supermarket","website":"https://www.kaufland.bg/moyat-kaufland/uslugi/filiali/karlovo-5500.html"},"wikidata":"Q685967","coordinates":[42.6330678,24.8179261]},"atp":{"id":"dO-i1oB9ADJJyBYNGWJDM1QWoXE=","tags":{"ref":"BG5500","start_date":"2014-02-26T00:00:00.000Z","toilets":"yes","shop":"supermarket","@source_uri":"https://www.kaufland.bg/.klstorefinder.json","@spider":"kaufland","addr:street_address":"ул. \"Теофан Райнов\" 72","addr:city":"Карлово","addr:postcode":"4300","addr:country":"BG","branch":"Карлово","phone":"+359 800 12 220","website":"https://www.kaufland.bg/moyat-kaufland/uslugi/filiali/karlovo-5500.html","opening_hours":"Mo-Sa 07:00-21:30; Su 08:00-21:00","brand":"Kaufland","brand:wikidata":"Q685967","nsi_id":"kaufland-56b425"},"coordinates":[42.6335119,24.817013]},"dist":89.545,"tags_mismatch":true},{"osm":{"type":"way","id":290849023,"tags":{"addr:city":"Сливен","addr:postcode":"8800","addr:street":"бул. Георги Данчев","branch":"Младост","brand":"Kaufland","brand:wikidata":"Q685967","building":"yes","opening_hours":"Mo-Sa 07:00-21:30; Su 08:00-20:30","ref":"BG1700","shop":"supermarket","website":"https://www.kaufland.bg/moyat-kaufland/uslugi/filiali/sliven-mladost-1700.html"},"wikidata":"Q685967","coordinates":[42.6827248,26.341941]},"atp":{"id":"gHAZYcecw9EHQg43IM9Z4zcUvCQ=","tags":{"ref":"BG1700","start_date":"2006-10-12T00:00:00.000Z","toilets":"yes","shop":"supermarket","@source_uri":"https://www.kaufland.bg/.klstorefinder.json","@spider":"kaufland","addr:street_address":"бул. \"Георги Данчев\" 30","addr:city":"Сливен","addr:postcode":"8800","addr:country":"BG","branch":"Сливен-Младост","phone":"+359 800 12 220","website":"https://www.kaufland.bg/moyat-kaufland/uslugi/filiali/sliven-mladost-1700.html","opening_hours":"Mo-Sa 07:00-21:30; Su 08:00-21:00","brand":"Kaufland","brand:wikidata":"Q685967","nsi_id":"kaufland-56b425"},"coordinates":[42.682801,26.3419777]},"dist":8.988,"tags_mismatch":true},{"osm":{"type":"way","id":293882184,"tags":{"addr:city":"София","addr:housenumber":"3","addr:postcode":"1618","addr:street":"Кукуряк","branch":"Овча купел","brand":"Kaufland","brand:wikidata":"Q685967","building":"retail","building:levels":"1","contact:phone":"+359 2 403 2900","opening_hours":"Mo-Su 07:00-22:00","ref":"BG2900","shop":"supermarket","website":"https://www.kaufland.bg/moyat-kaufland/uslugi/filiali/sofia-ovcha-kupel-2900.html"},"wikidata":"Q685967","coordinates":[42.6831178,23.2672115]},"atp":{"id":"95Tl2qP_VNi2bay5DsuJ9pezO1Q=","tags":{"ref":"BG2900","start_date":"2008-06-25T00:00:00.000Z","toilets":"yes","shop":"supermarket","@source_uri":"https://www.kaufland.bg/.klstorefinder.json","@spider":"kaufland","addr:street_address":"ул. \"Кукуряк\" 3","addr:city":"София","addr:postcode":"1618","addr:country":"BG","branch":"София-Овча Купел","phone":"+359 800 12 220","website":"https://www.kaufland.bg/moyat-kaufland/uslugi/filiali/sofija-ovcha-kupel-2900.html","opening_hours":"Mo-Su 07:00-22:00","brand":"Kaufland","brand:wikidata":"Q685967","nsi_id":"kaufland-56b425"},"coordinates":[42.6838704,23.2676309]},"dist":90.435,"tags_mismatch":true},{"osm":{"type":"way","id":304379431,"tags":{"addr:city":"Пловдив","addr:postcode":"4000","branch":"Пловдив Цариградско шосе","brand":"Kaufland","brand:wikidata":"Q685967","building":"retail","opening_hours":"Mo-Su 07:00-22:00","ref":"BG2600","shop":"supermarket","website":"https://www.kaufland.bg/moyat-kaufland/uslugi/filiali/plovdiv-trakia-tsarigradsko-schosse-2600.html"},"wikidata":"Q685967","coordinates":[42.1473541,24.7841632]},"atp":{"id":"-jvtWLw1xVWCJGSHfBDaQs2Wpo8=","tags":{"ref":"BG2600","start_date":"2012-11-14T00:00:00.000Z","toilets":"yes","shop":"supermarket","@source_uri":"https://www.kaufland.bg/.klstorefinder.json","@spider":"kaufland","addr:street_address":"бул. \"Цариградско шосе\" 94","addr:city":"Пловдив","addr:postcode":"4000","addr:country":"BG","branch":"Пловдив Цариградско шосе","phone":"+359 800 12 220","website":"https://www.kaufland.bg/moyat-kaufland/uslugi/filiali/plovdiv-tsarigradsko-shose-2600.html","opening_hours":"Mo-Sa 07:00-22:00; Su 08:00-22:00","brand":"Kaufland","brand:wikidata":"Q685967","nsi_id":"kaufland-56b425"},"coordinates":[42.1482953,24.7841114]},"dist":104.744,"tags_mismatch":true},{"osm":{"type":"way","id":306344386,"tags":{"addr:city":"Шумен","addr:housenumber":"28","addr:postcode":"9700","addr:street":"бул. Симеон Велики","air_conditioning":"yes","branch":"Тракия","brand":"Kaufland","brand:wikidata":"Q685967","building":"yes","building:levels":"1","opening_hours":"Mo-Sa 07:00-21:30; Su 07:00-21:00","payment:cash":"yes","payment:contactless":"yes","payment:credit_cards":"yes","payment:debit_cards":"yes","payment:mastercard":"yes","payment:visa":"yes","phone":"+359 800 12220","ref":"BG1800","shop":"supermarket","website":"https://www.kaufland.bg/moyat-kaufland/uslugi/filiali/shumen-trakia-1800.html","wheelchair":"yes"},"wikidata":"Q685967","coordinates":[43.2765581,26.9427677]},"atp":{"id":"QhJyTvyzdCqJeX-VGtmYxDCbxgY=","tags":{"ref":"BG1800","start_date":"2007-02-28T00:00:00.000Z","toilets":"yes","shop":"supermarket","@source_uri":"https://www.kaufland.bg/.klstorefinder.json","@spider":"kaufland","addr:street_address":"бул. \"Симеон Велики\" 28","addr:city":"Шумен","addr:postcode":"9700","addr:country":"BG","branch":"Шумен-Тракия","phone":"+359 800 12 220","website":"https://www.kaufland.bg/moyat-kaufland/uslugi/filiali/shumen-trakija-1800.html","opening_hours":"Mo-Sa 07:00-21:30; Su 08:00-21:00","brand":"Kaufland","brand:wikidata":"Q685967","nsi_id":"kaufland-56b425"},"coordinates":[43.2757788,26.9424565]},"dist":90.242,"tags_mismatch":true},{"osm":{"type":"way","id":320344022,"tags":{"addr:city":"Севлиево","addr:housenumber":"78","addr:postcode":"5400","addr:street":"Стара планина","branch":"Севлиево","brand":"Kaufland","brand:wikidata":"Q685967","building":"yes","opening_hours":"Mo-Sa 07:00-20:30; Su 08:00-20:30","phone":"+359 675 90 200","ref":"BG3200","shop":"supermarket","website":"https://www.kaufland.bg/moyat-kaufland/uslugi/filiali/sevlievo-3200.html"},"wikidata":"Q685967","coordinates":[43.0217086,25.0954281]},"atp":{"id":"9c8hf5nzAeBoHjTXbhVpDx2Ru08=","tags":{"ref":"BG3200","start_date":"2010-02-10T00:00:00.000Z","toilets":"yes","shop":"supermarket","@source_uri":"https://www.kaufland.bg/.klstorefinder.json","@spider":"kaufland","addr:street_address":"ул. \"Стара планина\" 78","addr:city":"Севлиево","addr:postcode":"5400","addr:country":"BG","branch":"Севлиево","phone":"+359 800 12 220","website":"https://www.kaufland.bg/moyat-kaufland/uslugi/filiali/sevlievo-3200.html","opening_hours":"Mo-Sa 07:00-20:30; Su 08:00-20:30","brand":"Kaufland","brand:wikidata":"Q685967","nsi_id":"kaufland-56b425"},"coordinates":[43.0216466,25.0955895]},"dist":14.822,"tags_mismatch":false},{"osm":{"type":"way","id":334339471,"tags":{"addr:city":"Бургас","addr:housenumber":"45","addr:postcode":"8011","addr:street":"Матей Миткалото","branch":"Меден рудник","brand":"Kaufland","brand:wikidata":"Q685967","building":"yes","internet_access":"wlan","opening_hours":"Mo-Sa 07:00-21:30; Su 08:00-21:00","ref":"BG5700","shop":"supermarket","website":"https://www.kaufland.bg/moyat-kaufland/uslugi/filiali/burgas-meden-rudnik-5700.html"},"wikidata":"Q685967","coordinates":[42.463597,27.4102463]},"atp":{"id":"FcuFvdv8sA8jUKPCIaiCNWOr_iE=","tags":{"ref":"BG5700","start_date":"2012-06-06T00:00:00.000Z","toilets":"yes","shop":"supermarket","@source_uri":"https://www.kaufland.bg/.klstorefinder.json","@spider":"kaufland","addr:street_address":"ул. \"Отец Матей Миткалото\" 45","addr:city":"Бургас","addr:postcode":"8011","addr:country":"BG","branch":"Бургас Меден Рудник","phone":"+359 800 12 220","website":"https://www.kaufland.bg/moyat-kaufland/uslugi/filiali/burgas-meden-rudnik-5700.html","opening_hours":"Mo-Sa 07:00-21:30; Su 08:00-21:00","brand":"Kaufland","brand:wikidata":"Q685967","nsi_id":"kaufland-56b425"},"coordinates":[42.462843,27.4099728]},"dist":86.791,"tags_mismatch":false},{"osm":{"type":"way","id":340828521,"tags":{"addr:city":"Сливен","addr:postcode":"8800","branch":"Промишлена зона","brand":"Kaufland","brand:wikidata":"Q685967","building":"yes","opening_hours":"Mo-Tu 07:00-21:30; We 07:00-21:00; Th-Sa 07:00-21:30; Su 07:00-20:30","ref":"BG7100","shop":"supermarket","website":"https://www.kaufland.bg/moyat-kaufland/uslugi/filiali/sliven-promishlena-zona-7100.html","wheelchair":"yes"},"wikidata":"Q685967","coordinates":[42.6737993,26.3236394]},"atp":{"id":"zF0wpKnpHfPIKTYfFJAs9PTskug=","tags":{"ref":"BG7100","start_date":"2015-01-14T00:00:00.000Z","toilets":"yes","shop":"supermarket","@source_uri":"https://www.kaufland.bg/.klstorefinder.json","@spider":"kaufland","addr:street_address":"бул. \"Цар Симеон\" 39","addr:city":"Сливен","addr:postcode":"8800","addr:country":"BG","branch":"Сливен - Промишлена зона","phone":"+359 800 12 220","website":"https://www.kaufland.bg/moyat-kaufland/uslugi/filiali/sliven-promishlena-zona-7100.html","opening_hours":"Mo-Sa 07:00-21:30; Su 08:00-21:00","brand":"Kaufland","brand:wikidata":"Q685967","nsi_id":"kaufland-56b425"},"coordinates":[42.674655,26.323519]},"dist":95.657,"tags_mismatch":true},{"osm":{"type":"way","id":370954971,"tags":{"addr:city":"Шумен","addr:housenumber":"1","addr:postcode":"9700","addr:street":"Бели Лом","air_conditioning":"yes","branch":"Боян Българанов","brand":"Kaufland","brand:wikidata":"Q685967","building":"yes","building:levels":"1","currency:BGN":"yes","opening_hours":"Mo-Sa 07:00-21:30; Su 07:00-21:00","payment:cash":"yes","payment:contactless":"yes","payment:credit_cards":"yes","payment:debit_cards":"yes","payment:mastercard":"yes","payment:visa":"yes","phone":"+359 800 12220","ref":"BG7700","shop":"supermarket","website":"https://www.kaufland.bg/moyat-kaufland/uslugi/filiali/shumen-boyan-bulgaranov-7700.html","wheelchair":"yes"},"wikidata":"Q685967","coordinates":[43.2786026,26.9138407]},"atp":{"id":"30JBYkMrJWeEkdnN5dVjbBGeg9o=","tags":{"ref":"BG7700","start_date":"2015-02-11T00:00:00.000Z","toilets":"yes","shop":"supermarket","@source_uri":"https://www.kaufland.bg/.klstorefinder.json","@spider":"kaufland","addr:street_address":"ул. \"Бели Лом\" 1","addr:city":"Шумен","addr:postcode":"9700","addr:country":"BG","branch":"Шумен - Боян Българанов","phone":"+359 800 12 220","website":"https://www.kaufland.bg/moyat-kaufland/uslugi/filiali/shumen-bojan-blgaranov-7700.html","opening_hours":"Mo-Sa 07:00-21:30; Su 08:00-21:00","brand":"Kaufland","brand:wikidata":"Q685967","nsi_id":"kaufland-56b425"},"coordinates":[43.2781589,26.9148729]},"dist":97.038,"tags_mismatch":true},{"osm":{"type":"way","id":376655142,"tags":{"addr:city":"Асеновград","addr:postcode":"4230","branch":"Асеновград","brand":"Kaufland","brand:wikidata":"Q685967","building":"supermarket","opening_hours":"Mo-Sa 07:00-21:30; Su 08:00-21:00","ref":"BG7200","shop":"supermarket","website":"https://www.kaufland.bg/moyat-kaufland/uslugi/filiali/asenovgrad-7200.html"},"wikidata":"Q685967","coordinates":[42.0185713,24.8606158]},"atp":{"id":"-PNgOLDwTp0WR-ZbKWdzpnJfbPg=","tags":{"ref":"BG7200","start_date":"2015-04-08T00:00:00.000Z","toilets":"yes","shop":"supermarket","@source_uri":"https://www.kaufland.bg/.klstorefinder.json","@spider":"kaufland","addr:street_address":"ул. \"Хаджи Димитър Стоилов\" 1","addr:city":"Асеновград","addr:postcode":"4230","addr:country":"BG","branch":"Асеновград","phone":"+359 800 12 220","website":"https://www.kaufland.bg/moyat-kaufland/uslugi/filiali/asenovgrad-7200.html","opening_hours":"Mo-Sa 07:00-21:30; Su 08:00-21:00","brand":"Kaufland","brand:wikidata":"Q685967","nsi_id":"kaufland-56b425"},"coordinates":[42.0191255,24.861352]},"dist":86.581,"tags_mismatch":false},{"osm":{"type":"way","id":378129410,"tags":{"addr:city":"Стара Загора","addr:housenumber":"2","addr:postcode":"6000","addr:street":"Иван Вазов","branch":"Бедечка","brand":"Kaufland","brand:wikidata":"Q685967","building":"retail","building:levels":"1","height":"5","opening_hours":"Mo-Sa 07:00-21:30; Su 08:00-21:30","ref":"BG4900","ref:vatin":"BG131129282","shop":"supermarket","website":"https://www.kaufland.bg/moyat-kaufland/uslugi/filiali/stara-zagora-bedechka-4900.html"},"wikidata":"Q685967","coordinates":[42.4327578,25.6389796]},"atp":{"id":"K51bzNrWRWsnjZAeVhGpm4KrIdI=","tags":{"ref":"BG4900","start_date":"2016-05-18T00:00:00.000Z","toilets":"yes","shop":"supermarket","@source_uri":"https://www.kaufland.bg/.klstorefinder.json","@spider":"kaufland","addr:street_address":"ул. \"Иван Вазов\" 2","addr:city":"Стара Загора","addr:postcode":"6000","addr:country":"BG","branch":"Стара Загора  - Бедечка","phone":"+359 800 12 220","website":"https://www.kaufland.bg/moyat-kaufland/uslugi/filiali/stara-zagora--bedechka-4900.html","opening_hours":"Mo-Sa 07:00-21:30; Su 08:00-21:30","brand":"Kaufland","brand:wikidata":"Q685967","nsi_id":"kaufland-56b425"},"coordinates":[42.4320982,25.6393373]},"dist":79.001,"tags_mismatch":true},{"osm":{"type":"way","id":443185153,"tags":{"addr:city":"София","addr:housenumber":"36","addr:postcode":"1606","addr:street":"бул. Ген. Тотлебен","branch":"Крива река","brand":"Kaufland","brand:wikidata":"Q685967","building":"retail","contact:phone":"+359 2 905 1200","opening_hours":"Mo-Su 07:00-22:00","ref":"BG7800","self_checkout":"yes","shop":"supermarket","website":"https://www.kaufland.bg/moyat-kaufland/uslugi/filiali/sofia-kriva-reka-7800.html","wheelchair":"yes"},"wikidata":"Q685967","coordinates":[42.6901246,23.301858]},"atp":{"id":"jP_aF_P2Qd6r-vub5_s-r0DpDLU=","tags":{"ref":"BG7800","start_date":"2017-02-15T00:00:00.000Z","toilets":"yes","shop":"supermarket","@source_uri":"https://www.kaufland.bg/.klstorefinder.json","@spider":"kaufland","addr:street_address":"бул. \"Ген. Тотлебен\" 36","addr:city":"София","addr:postcode":"1606","addr:country":"BG","branch":"София - Крива река","phone":"+359 800 12 220","website":"https://www.kaufland.bg/moyat-kaufland/uslugi/filiali/sofija-kriva-reka-7800.html","opening_hours":"Mo-Su 07:00-22:00","brand":"Kaufland","brand:wikidata":"Q685967","nsi_id":"kaufland-56b425"},"coordinates":[42.6885777,23.3025513]},"dist":181.101,"tags_mismatch":true},{"osm":{"type":"way","id":461333938,"tags":{"addr:city":"Кюстендил","addr:postcode":"2500","branch":"Кюстендил","brand":"Kaufland","brand:wikidata":"Q685967","building":"yes","opening_hours":"Mo-Su 07:00-22:00","ref":"BG2300","shop":"supermarket","website":"https://www.kaufland.bg/moyat-kaufland/uslugi/filiali/kyustendil-2300.html"},"wikidata":"Q685967","coordinates":[42.2831438,22.6805732]},"atp":{"id":"7yO2Jfv4pzJdS7aM9SUFYAbJjJk=","tags":{"ref":"BG2300","start_date":"2009-02-18T00:00:00.000Z","toilets":"yes","shop":"supermarket","@source_uri":"https://www.kaufland.bg/.klstorefinder.json","@spider":"kaufland","addr:street_address":"бул. \"Македония\" 10","addr:city":"Кюстендил","addr:postcode":"2500","addr:country":"BG","branch":"Кюстендил","phone":"+359 800 12 220","website":"https://www.kaufland.bg/moyat-kaufland/uslugi/filiali/kjustendil-2300.html","opening_hours":"Mo-Sa 07:00-22:00; Su 08:00-22:00","brand":"Kaufland","brand:wikidata":"Q685967","nsi_id":"kaufland-56b425"},"coordinates":[42.2833699,22.6819047]},"dist":112.384,"tags_mismatch":true},{"osm":{"type":"way","id":469477883,"tags":{"addr:city":"Габрово","addr:housenumber":"6","addr:postcode":"5300","addr:street":"Ивайло","addr:street:en":"Ivaylo","branch":"Габрово","brand":"Kaufland","brand:wikidata":"Q685967","building":"commercial","building:levels":"1","contact:website":"https://www.kaufland.bg/moyat-kaufland/uslugi/filiali/gabrovo-6700.html","note:cadastre:building_use":"Сграда за тьрговия","opening_hours":"Mo-Sa 07:00-21:00; Su 08:00-21:00","ref":"BG6700","shop":"supermarket","website":"https://www.kaufland.bg/moyat-kaufland/uslugi/filiali/gabrovo-6700.html","wheelchair":"yes"},"wikidata":"Q685967","coordinates":[42.8831852,25.3212193]},"atp":{"id":"cCty7fJ-98GqwIpy63AjqmdBKYE=","tags":{"ref":"BG6700","start_date":"2012-12-05T00:00:00.000Z","toilets":"yes","shop":"supermarket","@source_uri":"https://www.kaufland.bg/.klstorefinder.json","@spider":"kaufland","addr:street_address":"ул. \"Ивайло\" 6","addr:city":"Габрово","addr:postcode":"5300","addr:country":"BG","branch":"Габрово","phone":"+359 800 12 220","website":"https://www.kaufland.bg/moyat-kaufland/uslugi/filiali/gabrovo-6700.html","opening_hours":"Mo-Sa 07:00-21:00; Su 08:00-21:00","brand":"Kaufland","brand:wikidata":"Q685967","nsi_id":"kaufland-56b425"},"coordinates":[42.8832472,25.3213794]},"dist":14.754,"tags_mismatch":false},{"osm":{"type":"way","id":507287204,"tags":{"addr:city":"Перник","addr:postcode":"2300","branch":"Изток","brand":"Kaufland","brand:wikidata":"Q685967","building":"yes","opening_hours":"Mo-Su 07:00-22:00","ref":"BG3600","shop":"supermarket","website":"https://www.kaufland.bg/moyat-kaufland/uslugi/filiali/pernik-iztok-3600.html"},"wikidata":"Q685967","coordinates":[42.6060798,23.1162107]},"atp":{"id":"HR0SXCKKMo2HuXVHpDpvdQByT48=","tags":{"ref":"BG3600","start_date":"2013-10-16T00:00:00.000Z","toilets":"yes","shop":"supermarket","@source_uri":"https://www.kaufland.bg/.klstorefinder.json","@spider":"kaufland","addr:street_address":"ул. \"Овар\" 1","addr:city":"Перник","addr:postcode":"2300","addr:country":"BG","branch":"Перник-Изток","phone":"+359 800 12 220","website":"https://www.kaufland.bg/moyat-kaufland/uslugi/filiali/pernik-iztok-3600.html","opening_hours":"Mo-Sa 07:00-22:00; Su 08:00-22:00","brand":"Kaufland","brand:wikidata":"Q685967","nsi_id":"kaufland-56b425"},"coordinates":[42.6063445,23.1145196]},"dist":141.498,"tags_mismatch":true},{"osm":{"type":"way","id":508481647,"tags":{"addr:city":"Варна","addr:postcode":"9010","branch":"Бриз","brand":"Kaufland","brand:wikidata":"Q685967","building":"yes","building:colour":"grey","building:levels":"1","building:material":"metal","height":"10 m","opening_hours":"Mo-Su 07:00-22:00","ref":"BG8200","shop":"supermarket","website":"https://www.kaufland.bg/moyat-kaufland/uslugi/filiali/varna-briz-8200.html"},"wikidata":"Q685967","coordinates":[43.2223427,27.9406327]},"atp":{"id":"CpP3BLKw-gdw2SFhSPkV2HsO1bw=","tags":{"ref":"BG8200","start_date":"2017-10-12T00:00:00.000Z","toilets":"yes","shop":"supermarket","@source_uri":"https://www.kaufland.bg/.klstorefinder.json","@spider":"kaufland","addr:street_address":"ул. \"Д-р Петър Скорчев\" 2","addr:city":"Варна","addr:postcode":"9010","addr:country":"BG","branch":"Варна-Бриз","phone":"+359 800 12 220","website":"https://www.kaufland.bg/moyat-kaufland/uslugi/filiali/varna-briz-8200.html","opening_hours":"Mo-Sa 07:00-22:00; Su 08:00-22:00","brand":"Kaufland","brand:wikidata":"Q685967","nsi_id":"kaufland-56b425"},"coordinates":[43.2224447,27.9397499]},"dist":72.425,"tags_mismatch":true},{"osm":{"type":"way","id":509179339,"tags":{"addr:city":"Перник","addr:postcode":"2300","branch":"Христо Смирненски","brand":"Kaufland","brand:wikidata":"Q685967","building":"yes","opening_hours":"Mo-Su 07:00-22:00","ref":"BG3100","shop":"supermarket","website":"https://www.kaufland.bg/moyat-kaufland/uslugi/filiali/pernik-hristo-smirnenski-3100.html"},"wikidata":"Q685967","coordinates":[42.6082063,23.0369498]},"atp":{"id":"SHa1UWF9opWIYGVRFqS0M_NjMAQ=","tags":{"ref":"BG3100","start_date":"2007-07-04T00:00:00.000Z","toilets":"yes","shop":"supermarket","@source_uri":"https://www.kaufland.bg/.klstorefinder.json","@spider":"kaufland","addr:street_address":"ул. \"6-ти май\" 1","addr:city":"Перник","addr:postcode":"2300","addr:country":"BG","branch":"Перник-Христо Смирненски","phone":"+359 800 12 220","website":"https://www.kaufland.bg/moyat-kaufland/uslugi/filiali/pernik-hristo-smirnenski-3100.html","opening_hours":"Mo-Sa 07:00-22:00; Su 08:00-21:00","brand":"Kaufland","brand:wikidata":"Q685967","nsi_id":"kaufland-56b425"},"coordinates":[42.6089174,23.0361636]},"dist":101.941,"tags_mismatch":true},{"osm":{"type":"way","id":611995148,"tags":{"addr:city":"Благоевград","addr:housenumber":"11","addr:postcode":"2700","addr:street":"Свети Димитър Солунски","branch":"Благоевград","brand":"Kaufland","brand:wikidata":"Q685967","building":"yes","opening_hours":"Mo-Sa 07:00-21:30; Su 08:00-21:00","payment:cash":"yes","payment:credit_cards":"yes","payment:debit_cards":"yes","ref":"BG3800","shop":"supermarket","toilets":"yes","website":"https://www.kaufland.bg/moyat-kaufland/uslugi/filiali/blagoevgrad-3800.html"},"wikidata":"Q685967","coordinates":[42.0108721,23.0938673]},"atp":{"id":"x--mGf4sAaJMtRqAQIm-t-dJ-yM=","tags":{"ref":"BG3800","start_date":"2008-04-02T00:00:00.000Z","toilets":"yes","shop":"supermarket","@source_uri":"https://www.kaufland.bg/.klstorefinder.json","@spider":"kaufland","addr:street_address":"бул. \"Св. Димитър Солунски\" 21","addr:city":"Благоевград","addr:postcode":"2700","addr:country":"BG","branch":"Благоевград","phone":"+359 800 12 220","website":"https://www.kaufland.bg/moyat-kaufland/uslugi/filiali/blagoevgrad-3800.html","opening_hours":"Mo-Sa 07:00-21:30; Su 08:00-21:00","brand":"Kaufland","brand:wikidata":"Q685967","nsi_id":"kaufland-56b425"},"coordinates":[42.0108015,23.0938705]},"dist":7.855,"tags_mismatch":false},{"osm":{"type":"way","id":627597964,"tags":{"addr:city":"Враца","addr:housenumber":"7","addr:postcode":"3000","addr:street":"Оборище","branch":"Враца","brand":"Kaufland","brand:wikidata":"Q685967","building":"yes","opening_hours":"Mo-Sa 07:00-21:00; Su 08:00-21:00","ref":"BG2100","shop":"supermarket","website":"https://www.kaufland.bg/moyat-kaufland/uslugi/filiali/vratsa-2100.html"},"wikidata":"Q685967","coordinates":[43.207027,23.5449731]},"atp":{"id":"11g9AU019hkSW423ox44rEX1wDY=","tags":{"ref":"BG2100","start_date":"2006-12-20T00:00:00.000Z","toilets":"yes","shop":"supermarket","@source_uri":"https://www.kaufland.bg/.klstorefinder.json","@spider":"kaufland","addr:street_address":"ул. \"Оборище\" 7","addr:city":"Враца","addr:postcode":"3000","addr:country":"BG","branch":"Враца-Център","phone":"+359 800 12 220","website":"https://www.kaufland.bg/moyat-kaufland/uslugi/filiali/vratsa-tsentr-2100.html","opening_hours":"Mo-Sa 07:00-21:00; Su 08:00-21:00","brand":"Kaufland","brand:wikidata":"Q685967","nsi_id":"kaufland-56b425"},"coordinates":[43.2080582,23.5453856]},"dist":119.439,"tags_mismatch":true},{"osm":{"type":"way","id":684456307,"tags":{"addr:city":"Велико Търново","addr:housenumber":"2Б","addr:postcode":"5000","addr:street":"Краков","branch":"Велико Търново","brand":"Kaufland","brand:wikidata":"Q685967","building":"retail","opening_hours":"Mo-Sa 07:00-21:30; Su 08:00-21:30","ref":"BG8600","shop":"supermarket","website":"https://www.kaufland.bg/moyat-kaufland/uslugi/filiali/veliko-tarnovo-8600.html"},"wikidata":"Q685967","coordinates":[43.075471,25.6122985]},"atp":{"id":"KR-OoXiYQ6Glh0Vm0ZRa4aOOCwo=","tags":{"ref":"BG8600","start_date":"2019-02-27T00:00:00.000Z","toilets":"yes","shop":"supermarket","@source_uri":"https://www.kaufland.bg/.klstorefinder.json","@spider":"kaufland","addr:street_address":"ул. \"Краков\" 2Б","addr:city":"Велико Търново","addr:postcode":"5000","addr:country":"BG","branch":"Велико Търново","phone":"+359 800 12 220","website":"https://www.kaufland.bg/moyat-kaufland/uslugi/filiali/veliko-trnovo-8600.html","opening_hours":"Mo-Sa 07:00-21:30; Su 08:00-21:30","brand":"Kaufland","brand:wikidata":"Q685967","nsi_id":"kaufland-56b425"},"coordinates":[43.0758026,25.6114939]},"dist":75.036,"tags_mismatch":true},{"osm":{"type":"way","id":806283766,"tags":{"addr:city":"Варна","addr:housenumber":"24","addr:postcode":"9020","addr:street":"Девня","branch":"Одесос","brand":"Kaufland","brand:wikidata":"Q685967","building":"yes","check_date":"2024-08-29","internet_access":"no","layer":"1","opening_hours":"Mo-Su 07:00-22:00","payment:cash":"yes","payment:credit_cards":"yes","payment:debit_cards":"yes","phone":"+359080012220","ref":"BG8300","shop":"supermarket","website":"https://www.kaufland.bg/moyat-kaufland/uslugi/filiali/varna-odesos-8300.html","wheelchair":"yes"},"wikidata":"Q685967","coordinates":[43.2023737,27.9012671]},"atp":{"id":"rRf48_bJs73pXH-0XczBIXbi6Mw=","tags":{"ref":"BG8300","start_date":"2020-01-22T00:00:00.000Z","toilets":"yes","shop":"supermarket","@source_uri":"https://www.kaufland.bg/.klstorefinder.json","@spider":"kaufland","addr:street_address":"ул. \"Девня\" 24","addr:city":"Варна","addr:postcode":"9020","addr:country":"BG","branch":"Варна-Одесос","phone":"+359 800 12 220","website":"https://www.kaufland.bg/moyat-kaufland/uslugi/filiali/varna-odesos-8300.html","opening_hours":"Mo-Sa 07:00-22:00; Su 08:00-22:00","brand":"Kaufland","brand:wikidata":"Q685967","nsi_id":"kaufland-56b425"},"coordinates":[43.2027823,27.9019578]},"dist":72.101,"tags_mismatch":true},{"osm":{"type":"way","id":1052494001,"tags":{"addr:city":"София","addr:housenumber":"271","addr:street":"Околовръстен път","branch":"Младост 4","brand":"Kaufland","brand:wikidata":"Q685967","building":"yes","opening_date":"2022-06-23","opening_hours":"Mo-Su 07:00-22:00","ref":"BG8800","shop":"supermarket","start_date":"2022-06-23","website":"https://www.kaufland.bg/moyat-kaufland/uslugi/filiali/sofia-mladost-okolovrasten-pat-8800.html","wheelchair":"yes"},"wikidata":"Q685967","coordinates":[42.6241848,23.3837043]},"atp":{"id":"MRrI5Nx_6w95iQqYrN10HpTGZqA=","tags":{"ref":"BG8800","start_date":"2022-06-22T00:00:00.000Z","toilets":"yes","shop":"supermarket","@source_uri":"https://www.kaufland.bg/.klstorefinder.json","@spider":"kaufland","addr:street_address":"ул. Околовръстен път 271","addr:city":"София","addr:postcode":"1000","addr:country":"BG","branch":"Sofia-Mladost Okolovrasten pat","phone":"+359 800 12 220","website":"https://www.kaufland.bg/moyat-kaufland/uslugi/filiali/sofia-mladost-okolovrasten-pat-8800.html","opening_hours":"Mo-Su 07:00-22:00","brand":"Kaufland","brand:wikidata":"Q685967","nsi_id":"kaufland-56b425"},"coordinates":[42.624226,23.3838341]},"dist":11.566,"tags_mismatch":false},{"osm":{"type":"way","id":1159504619,"tags":{"addr:city":"Кърджали","addr:housenumber":"13","addr:postcode":"6600","addr:street":"Здравец","branch":"Кърджали","brand":"Kaufland","brand:wikidata":"Q685967","building":"yes","opening_hours":"Mo-Sa 07:00-21:00; Su 08:00-21:00","phone":"+359 800 12220","ref":"BG7000","shop":"supermarket","website":"https://www.kaufland.bg/moyat-kaufland/uslugi/filiali/kardzhali-7000.html"},"wikidata":"Q685967","coordinates":[41.6351221,25.3798022]},"atp":{"id":"Yo8wk2JXK18HU6vXpSmKGPHaVV8=","tags":{"ref":"BG7000","start_date":"2014-02-12T00:00:00.000Z","toilets":"yes","shop":"supermarket","@source_uri":"https://www.kaufland.bg/.klstorefinder.json","@spider":"kaufland","addr:street_address":"ул. \"Здравец\" 13","addr:city":"Кърджали","addr:postcode":"6600","addr:country":"BG","branch":"Кърджали","phone":"+359 800 12 220","website":"https://www.kaufland.bg/moyat-kaufland/uslugi/filiali/krdzhali-7000.html","opening_hours":"Mo-Sa 07:00-21:30; Su 08:00-21:00","brand":"Kaufland","brand:wikidata":"Q685967","nsi_id":"kaufland-56b425"},"coordinates":[41.6344939,25.379012]},"dist":95.875,"tags_mismatch":true},{"osm":{"type":"way","id":1199513638,"tags":{"addr:city":"София","addr:housenumber":"61","addr:postcode":"1404","addr:street":"Васил Стефанов","branch":"Манастирски ливади - изток","brand":"Kaufland","brand:wikidata":"Q685967","building":"retail","building:levels":"2","building:material":"concrete","building:material:concrete":"panels","check_date":"2024-10-28","internet_access":"wlan","internet_access:fee":"no","opening_date":"2023-11-02","opening_hours":"Mo-Su 07:00-22:00","payment:cash":"yes","payment:mastercard":"yes","payment:visa":"yes","phone":"+359 800 122 20","ref":"BG6500","roof:shape":"flat","self_checkout":"yes","shop":"supermarket","website":"https://www.kaufland.bg/moyat-kaufland/uslugi/filiali/sofia-manastirski-livadi-6500.html","wheelchair":"yes"},"wikidata":"Q685967","coordinates":[42.6553175,23.2874075]},"atp":{"id":"tU7FkVeqiNkSeN2FT8veglmbLZo=","tags":{"ref":"BG6500","start_date":"2023-11-01T00:00:00.000Z","toilets":"yes","shop":"supermarket","@source_uri":"https://www.kaufland.bg/.klstorefinder.json","@spider":"kaufland","addr:street_address":"ул. \"Васил Стефанов\" 61","addr:city":"София","addr:postcode":"1404","addr:country":"BG","branch":"Sofia-Manastirski livadi","phone":"+359 800 12 220","website":"https://www.kaufland.bg/moyat-kaufland/uslugi/filiali/sofia-manastirski-livadi-6500.html","opening_hours":"Mo-Su 07:00-22:00","brand":"Kaufland","brand:wikidata":"Q685967","nsi_id":"kaufland-56b425"},"coordinates":[42.6553912,23.2873198]},"dist":10.89,"tags_mismatch":false},{"osm":{"type":"way","id":1201109017,"tags":{"addr:city":"София","addr:housenumber":"97","addr:postcode":"1343","addr:street":"бул. Царица Йоанна","brand":"Kaufland","brand:wikidata":"Q685967","building":"retail","building:levels":"1","opening_date":"2023-10-12","opening_hours":"Mo-Su 07:00-22:00","ref":"BG1040","roof:levels":"0","roof:shape":"flat","self_checkout":"yes","shop":"supermarket","website":"https://www.kaufland.bg/moyat-kaufland/uslugi/filiali/sofia-lyulin-tsaritsa-yoanna-1040.html"},"wikidata":"Q685967","coordinates":[42.7253755,23.2415652]},"atp":{"id":"j8lz4HAAN_sPYw1_kRsGtIA636Y=","tags":{"ref":"BG1040","start_date":"2023-10-11T00:00:00.000Z","toilets":"yes","shop":"supermarket","@source_uri":"https://www.kaufland.bg/.klstorefinder.json","@spider":"kaufland","addr:street_address":"бул. \"Царица Йоанна\" 97","addr:city":"София","addr:postcode":"1343","addr:country":"BG","branch":"София-Люлин, Царица Йоанна","phone":"+359 800 12 220","website":"https://www.kaufland.bg/moyat-kaufland/uslugi/filiali/sofija-ljulin-tsaritsa-yoanna-1040.html","opening_hours":"Mo-Su 07:00-22:00","brand":"Kaufland","brand:wikidata":"Q685967","nsi_id":"kaufland-56b425"},"coordinates":[42.7258602,23.241851]},"dist":58.735,"tags_mismatch":true},{"osm":{"type":"way","id":1344531907,"tags":{"branch":"Изгрев","brand":"Kaufland","brand:wikidata":"Q685967","building":"yes","fixme":"rough shape","opening_date":"2024-12-18","opening_hours":"Mo-Su 07:00-22:00","self_checkout":"yes","shop":"supermarket"},"wikidata":"Q685967","coordinates":[42.6678136,23.3650982]},"atp":{"id":"AA4YH7-RPyfPbqp5BNaKSmA-75c=","tags":{"ref":"BG8400","start_date":"2024-12-18T00:00:00.000Z","toilets":"yes","shop":"supermarket","@source_uri":"https://www.kaufland.bg/.klstorefinder.json","@spider":"kaufland","addr:street_address":"бул. \"Д-р Г. М. Димитров\" 12","addr:city":"София","addr:postcode":"1000","addr:country":"BG","branch":"София Изгрев","phone":"+359 800 12 220","website":"https://www.kaufland.bg/moyat-kaufland/uslugi/filiali/sofija-izgrev-8400.html","opening_hours":"Mo-Su 07:00-22:00","brand":"Kaufland","brand:wikidata":"Q685967","nsi_id":"kaufland-56b425"},"coordinates":[42.667942,23.3653313]},"dist":23.813,"tags_mismatch":true},{"osm":{"type":"way","id":1348382457,"tags":{"addr:city":"София","addr:housenumber":"515","addr:street":"бул. Ботевградско шосе","brand":"Kaufland","brand:wikidata":"Q685967","building":"retail","fixme":"rough shape","opening_hours":"Mo-Su 08:00-21:00","shop":"supermarket"},"wikidata":"Q685967","coordinates":[42.7094798,23.455366]},"atp":{"id":"w6zNWkOk1m6wR1dQA6O1w8VzKqA=","tags":{"ref":"BG1090","start_date":"2025-03-12T00:00:00.000Z","toilets":"yes","shop":"supermarket","@source_uri":"https://www.kaufland.bg/.klstorefinder.json","@spider":"kaufland","addr:street_address":"бул. \"Ботевградско шосе\" 515","addr:city":"София","addr:postcode":"1849","addr:country":"BG","branch":"София#XOPark","phone":"+359 800 12 220","website":"https://www.kaufland.bg/moyat-kaufland/uslugi/filiali/sofija-xopark-1090.html","opening_hours":"Mo-Su 08:00-21:00","brand":"Kaufland","brand:wikidata":"Q685967","nsi_id":"kaufland-56b425"},"coordinates":[42.7094172,23.4554879]},"dist":12.151,"tags_mismatch":true},{"osm":false,"atp":false,"tags_mismatch":false,"dist":0},{"osm":false,"atp":false,"tags_mismatch":false,"dist":0},{"osm":false,"atp":false,"tags_mismatch":false,"dist":0},{"osm":false,"atp":false,"tags_mismatch":false,"dist":0},{"osm":false,"atp":false,"tags_mismatch":false,"dist":0},{"osm":false,"atp":false,"tags_mismatch":false,"dist":0},{"osm":false,"atp":false,"tags_mismatch":false,"dist":0},{"osm":false,"atp":false,"tags_mismatch":false,"dist":0},{"osm":false,"atp":false,"tags_mismatch":false,"dist":0},{"osm":false,"atp":false,"tags_mismatch":false,"dist":0},{"osm":false,"atp":false,"tags_mismatch":false,"dist":0},{"osm":false,"atp":false,"tags_mismatch":false,"dist":0},{"osm":false,"atp":false,"tags_mismatch":false,"dist":0},{"osm":false,"atp":false,"tags_mismatch":false,"dist":0},{"osm":false,"atp":false,"tags_mismatch":false,"dist":0},{"osm":false,"atp":false,"tags_mismatch":false,"dist":0},{"osm":false,"atp":false,"tags_mismatch":false,"dist":0},{"osm":false,"atp":false,"tags_mismatch":false,"dist":0},{"osm":false,"atp":false,"tags_mismatch":false,"dist":0},{"osm":false,"atp":false,"tags_mismatch":false,"dist":0},{"osm":false,"atp":false,"tags_mismatch":false,"dist":0},{"osm":false,"atp":false,"tags_mismatch":false,"dist":0},{"osm":false,"atp":false,"tags_mismatch":false,"dist":0},{"osm":false,"atp":false,"tags_mismatch":false,"dist":0},{"osm":false,"atp":false,"tags_mismatch":false,"dist":0},{"osm":false,"atp":false,"tags_mismatch":false,"dist":0},{"osm":false,"atp":false,"tags_mismatch":false,"dist":0},{"osm":false,"atp":false,"tags_mismatch":false,"dist":0},{"osm":false,"atp":false,"tags_mismatch":false,"dist":0},{"osm":false,"atp":false,"tags_mismatch":false,"dist":0},{"osm":false,"atp":false,"tags_mismatch":false,"dist":0},{"osm":false,"atp":false,"tags_mismatch":false,"dist":0},{"osm":false,"atp":false,"tags_mismatch":false,"dist":0},{"osm":false,"atp":false,"tags_mismatch":false,"dist":0},{"osm":false,"atp":false,"tags_mismatch":false,"dist":0},{"osm":false,"atp":false,"tags_mismatch":false,"dist":0},{"osm":false,"atp":false,"tags_mismatch":false,"dist":0},{"osm":false,"atp":false,"tags_mismatch":false,"dist":0},{"osm":false,"atp":false,"tags_mismatch":false,"dist":0},{"osm":false,"atp":false,"tags_mismatch":false,"dist":0},{"osm":false,"atp":false,"tags_mismatch":false,"dist":0},{"osm":false,"atp":false,"tags_mismatch":false,"dist":0},{"osm":false,"atp":false,"tags_mismatch":false,"dist":0},{"osm":false,"atp":false,"tags_mismatch":false,"dist":0},{"osm":false,"atp":false,"tags_mismatch":false,"dist":0},{"osm":false,"atp":false,"tags_mismatch":false,"dist":0},{"osm":false,"atp":false,"tags_mismatch":false,"dist":0},{"osm":false,"atp":false,"tags_mismatch":false,"dist":0},{"osm":false,"atp":false,"tags_mismatch":false,"dist":0},{"osm":false,"atp":false,"tags_mismatch":false,"dist":0},{"osm":false,"atp":false,"tags_mismatch":false,"dist":0},{"osm":false,"atp":false,"tags_mismatch":false,"dist":0},{"osm":false,"atp":false,"tags_mismatch":false,"dist":0},{"osm":false,"atp":false,"tags_mismatch":false,"dist":0},{"osm":false,"atp":false,"tags_mismatch":false,"dist":0},{"osm":false,"atp":false,"tags_mismatch":false,"dist":0},{"osm":false,"atp":false,"tags_mismatch":false,"dist":0},{"osm":false,"atp":false,"tags_mismatch":false,"dist":0},{"osm":false,"atp":false,"tags_mismatch":false,"dist":0},{"osm":false,"atp":false,"tags_mismatch":false,"dist":0},{"osm":false,"atp":false,"tags_mismatch":false,"dist":0},{"osm":false,"atp":false,"tags_mismatch":false,"dist":0},{"osm":false,"atp":false,"tags_mismatch":false,"dist":0},{"osm":false,"atp":false,"tags_mismatch":false,"dist":0},{"osm":false,"atp":false,"tags_mismatch":false,"dist":0},{"osm":false,"atp":false,"tags_mismatch":false,"dist":0},{"osm":false,"atp":false,"tags_mismatch":false,"dist":0},{"osm":false,"atp":false,"tags_mismatch":false,"dist":0}]}