{"metadata":{"type":"brand","wikidata":"Q7937522","name":"Vivacom","compare_keys":["opening_hours","phone"]},"data":[{"osm":{"type":"node","id":1378846607,"tags":{"brand":"Vivacom","brand:wikidata":"Q7937522","opening_hours":"Mo-Fr 09:00-18:30; Sa 10:00-17:00","phone":"+359 42 600 466","shop":"telecommunication"},"wikidata":"Q7937522","coordinates":[42.426367,25.6304031]},"atp":{"id":"OXJJT7CEr0FMxBLkT_7vsce96Bw=","tags":{"ref":"105","@source_uri":"https://www.vivacom.bg/bg/stores/xhr?method=getJSON","@spider":"vivacom_bg","shop":"telecommunication","addr:country":"BG","phone":"+359 42 600 466","opening_hours":"Mo-Fr 09:00-18:30; Sa 10:00-17:00","brand":"Vivacom","brand:wikidata":"Q7937522","nsi_id":"vivacom-5ceaa9"},"coordinates":[42.4249,25.63216]},"dist":217.725,"tags_mismatch":false},{"osm":{"type":"node","id":1391113144,"tags":{"addr:city":"Пловдив","addr:housenumber":"63","addr:postcode":"4000","addr:street":"бул. България","brand":"Vivacom","brand:wikidata":"Q7937522","opening_hours":"Mo-Fr 09:00-18:30","phone":"+359 32 950 035","shop":"telecommunication"},"wikidata":"Q7937522","coordinates":[42.1588836,24.7384155]},"atp":{"id":"By2_joxJB-hXufRmj4L5P3zSRQ4=","tags":{"ref":"138","@source_uri":"https://www.vivacom.bg/bg/stores/xhr?method=getJSON","@spider":"vivacom_bg","shop":"telecommunication","addr:country":"BG","phone":"+359 32 950 035","opening_hours":"Mo-Fr 09:00-19:00","brand":"Vivacom","brand:wikidata":"Q7937522","nsi_id":"vivacom-5ceaa9"},"coordinates":[42.1593386833,24.7373633663]},"dist":100.408,"tags_mismatch":true},{"osm":{"type":"node","id":1496406575,"tags":{"brand":"Vivacom","brand:wikidata":"Q7937522","opening_hours":"Mo-Fr 09:00-18:00","phone":"+359 32 260 384","shop":"telecommunication"},"wikidata":"Q7937522","coordinates":[42.1447435,24.755621]},"atp":false,"tags_mismatch":false},{"osm":{"type":"node","id":1504852234,"tags":{"brand":"Vivacom","brand:wikidata":"Q7937522","opening_hours":"Mo-Fr 09:00-19:00","phone":"+359 58 600 228","shop":"telecommunication"},"wikidata":"Q7937522","coordinates":[43.5693388,27.8275171]},"atp":{"id":"FBSU3_RgMyCHzD5A7Gp1oN6ZMqg=","tags":{"ref":"2302","@source_uri":"https://www.vivacom.bg/bg/stores/xhr?method=getJSON","@spider":"vivacom_bg","shop":"telecommunication","addr:country":"BG","phone":"+359 58 600 350","opening_hours":"Mo-Fr 09:00-19:00; Sa 10:00-17:00","brand":"Vivacom","brand:wikidata":"Q7937522","nsi_id":"vivacom-5ceaa9"},"coordinates":[43.568417517483,27.83004505323]},"dist":227.979,"tags_mismatch":true},{"osm":{"type":"node","id":1798420577,"tags":{"brand":"Vivacom","brand:wikidata":"Q7937522","opening_hours":"Mo-Fr 09:00-19:30; Sa 10:00-17:00","phone":"+359 32 674 001","shop":"telecommunication"},"wikidata":"Q7937522","coordinates":[42.1249775,24.7384688]},"atp":{"id":"HYpb4Fc5G0LcY70RikVpE6IEe8w=","tags":{"ref":"5301","@source_uri":"https://www.vivacom.bg/bg/stores/xhr?method=getJSON","@spider":"vivacom_bg","shop":"telecommunication","addr:country":"BG","phone":"+359 32 674 001","opening_hours":"Mo-Fr 09:00-19:00; Sa 10:00-17:00","brand":"Vivacom","brand:wikidata":"Q7937522","nsi_id":"vivacom-5ceaa9"},"coordinates":[42.125007878907,24.738444172257]},"dist":3.942,"tags_mismatch":true},{"osm":{"type":"node","id":2620923730,"tags":{"addr:housenumber":"98","addr:postcode":"1463","addr:street":"бул. Патриарх Евтимий","brand":"Vivacom","brand:wikidata":"Q7937522","check_date":"2025-02-13","opening_hours":"Mo-Fr 09:00-19:30","phone":"+359 2 953 3864","shop":"telecommunication"},"wikidata":"Q7937522","coordinates":[42.6895726,23.3142082]},"atp":{"id":"BmBnxCiG4KggeUkp8u6jbC1OzEg=","tags":{"ref":"2325","@source_uri":"https://www.vivacom.bg/bg/stores/xhr?method=getJSON","@spider":"vivacom_bg","shop":"telecommunication","addr:country":"BG","phone":"+359 2 953 3864","opening_hours":"Mo-Fr 09:00-19:00","brand":"Vivacom","brand:wikidata":"Q7937522","nsi_id":"vivacom-5ceaa9"},"coordinates":[42.68959139441,23.314215868667]},"dist":2.182,"tags_mismatch":true},{"osm":{"type":"node","id":3166457155,"tags":{"brand":"Vivacom","brand:wikidata":"Q7937522","opening_hours":"Mo-Fr 09:00-19:30; Sa 10:00-17:00","phone":"+359 52 600 850","shop":"telecommunication"},"wikidata":"Q7937522","coordinates":[43.2090593,27.9193633]},"atp":{"id":"1FPIGdrWq44C0ut90Y8cySXQxkM=","tags":{"ref":"2308","@source_uri":"https://www.vivacom.bg/bg/stores/xhr?method=getJSON","@spider":"vivacom_bg","shop":"telecommunication","addr:country":"BG","phone":"+359 52 600 850","opening_hours":"Mo-Fr 09:00-19:00; Sa 10:00-17:00","brand":"Vivacom","brand:wikidata":"Q7937522","nsi_id":"vivacom-5ceaa9"},"coordinates":[43.2092386,27.9195772]},"dist":26.42,"tags_mismatch":true},{"osm":{"type":"node","id":3179877680,"tags":{"brand":"Vivacom","brand:wikidata":"Q7937522","contact:phone":"+359 2 987 7474","level":"0","note":"Node position is not indicative of position within the mall","opening_hours":"Mo-Su 10:00-21:00","phone":"+359 2 987 7474","shop":"telecommunication","wheelchair":"yes"},"wikidata":"Q7937522","coordinates":[42.698133,23.3091215]},"atp":{"id":"GH5yB7rYqzX_WQdC8C_eIjQyEF0=","tags":{"ref":"115","@source_uri":"https://www.vivacom.bg/bg/stores/xhr?method=getJSON","@spider":"vivacom_bg","shop":"telecommunication","addr:country":"BG","phone":"+359 2 987 7474","opening_hours":"Mo-Su 10:00-21:00","brand":"Vivacom","brand:wikidata":"Q7937522","nsi_id":"vivacom-5ceaa9"},"coordinates":[42.6985935281,23.3080017974]},"dist":104.858,"tags_mismatch":false},{"osm":{"type":"node","id":3284865963,"tags":{"addr:city":"София","addr:housenumber":"171","addr:postcode":"1220","addr:street":"бул. Ломско шосе","brand":"Vivacom","brand:wikidata":"Q7937522","opening_hours":"Mo-Fr 09:00-19:30; Sa 10:00-17:00","phone":"+359 2 836 1189","shop":"telecommunication"},"wikidata":"Q7937522","coordinates":[42.7260586,23.302323]},"atp":{"id":"xwnA7xgn0EiS60ZH6PoPnzwYak4=","tags":{"ref":"219","@source_uri":"https://www.vivacom.bg/bg/stores/xhr?method=getJSON","@spider":"vivacom_bg","shop":"telecommunication","addr:country":"BG","phone":"+359 2 836 1189","opening_hours":"Mo-Fr 09:00-19:00; Sa 10:00-17:00","brand":"Vivacom","brand:wikidata":"Q7937522","nsi_id":"vivacom-5ceaa9"},"coordinates":[42.7261240296,23.3024297839]},"dist":11.358,"tags_mismatch":true},{"osm":{"type":"node","id":3456976875,"tags":{"brand":"Vivacom","brand:wikidata":"Q7937522","opening_hours":"Mo-Fr 09:00-18:00","phone":"+359 30 412 129","shop":"telecommunication"},"wikidata":"Q7937522","coordinates":[41.7428074,24.3986926]},"atp":{"id":"02j7DKNoHXlThkq_3GmA87NyUIY=","tags":{"ref":"213","@source_uri":"https://www.vivacom.bg/bg/stores/xhr?method=getJSON","@spider":"vivacom_bg","shop":"telecommunication","addr:country":"BG","phone":"+359 30 412 129","opening_hours":"Mo-Fr 09:00-18:00","brand":"Vivacom","brand:wikidata":"Q7937522","nsi_id":"vivacom-5ceaa9"},"coordinates":[41.7426477304,24.3993663483]},"dist":58.651,"tags_mismatch":false},{"osm":{"type":"node","id":3511850495,"tags":{"addr:housenumber":"113","addr:postcode":"1000","addr:street":"Георги С. Раковски","brand":"Vivacom","brand:wikidata":"Q7937522","contact:phone":"+359 2 981 9268","opening_hours":"Mo-Fr 09:00-19:30; Sa-Su off","shop":"telecommunication"},"wikidata":"Q7937522","coordinates":[42.6980704,23.3300772]},"atp":false,"tags_mismatch":false},{"osm":{"type":"node","id":3545560019,"tags":{"brand":"Vivacom","brand:wikidata":"Q7937522","opening_hours":"Mo-Fr 09:00-19:00","shop":"telecommunication"},"wikidata":"Q7937522","coordinates":[42.6893707,23.3193209]},"atp":{"id":"3eJe3chrYj91acwt1fAct4LFEyw=","tags":{"ref":"6140","@source_uri":"https://www.vivacom.bg/bg/stores/xhr?method=getJSON","@spider":"vivacom_bg","shop":"telecommunication","addr:country":"BG","phone":"+359 2 995 1559","opening_hours":"Mo-Fr 09:00-19:30","brand":"Vivacom","brand:wikidata":"Q7937522","nsi_id":"vivacom-5ceaa9"},"coordinates":[42.6893924,23.3193598]},"dist":3.991,"tags_mismatch":true},{"osm":{"type":"node","id":3688564858,"tags":{"brand":"Vivacom","brand:wikidata":"Q7937522","check_date":"2024-09-20","opening_hours":"Mo-Fr 09:00-19:30","shop":"telecommunication"},"wikidata":"Q7937522","coordinates":[42.6748664,23.3585916]},"atp":{"id":"W-hgH6_AS7gnbIJwDGVQNJRQE_k=","tags":{"ref":"540","@source_uri":"https://www.vivacom.bg/bg/stores/xhr?method=getJSON","@spider":"vivacom_bg","shop":"telecommunication","addr:country":"BG","phone":"02;+359 96 765 15","opening_hours":"Mo-Fr 09:00-19:00","brand":"Vivacom","brand:wikidata":"Q7937522","nsi_id":"vivacom-5ceaa9"},"coordinates":[42.674791850556,23.358571734918]},"dist":8.447,"tags_mismatch":true},{"osm":{"type":"node","id":3750974055,"tags":{"brand":"Vivacom","brand:wikidata":"Q7937522","opening_hours":"Mo-Fr 09:00-19:00; Sa 10:00-17:00","phone":"+359 62 670 056","shop":"telecommunication"},"wikidata":"Q7937522","coordinates":[43.0748351,25.6185508]},"atp":{"id":"xVyp4mGZIknnOEqo_00_A3_xadQ=","tags":{"ref":"2363","@source_uri":"https://www.vivacom.bg/bg/stores/xhr?method=getJSON","@spider":"vivacom_bg","shop":"telecommunication","addr:country":"BG","phone":"+359 62 670 056","opening_hours":"Mo-Fr 09:00-19:00","brand":"Vivacom","brand:wikidata":"Q7937522","nsi_id":"vivacom-5ceaa9"},"coordinates":[43.073212126962,25.620389688967]},"dist":234.26,"tags_mismatch":true},{"osm":{"type":"node","id":3828171772,"tags":{"brand":"Vivacom","brand:wikidata":"Q7937522","shop":"telecommunication"},"wikidata":"Q7937522","coordinates":[42.4932447,27.4700148]},"atp":false,"tags_mismatch":false},{"osm":{"type":"node","id":3840789392,"tags":{"addr:city":"Бургас","brand":"Vivacom","brand:wikidata":"Q7937522","opening_hours":"Mo-Fr 09:00-19:30; Sa 10:00-17:00","phone":"+359 56 820 256","shop":"telecommunication"},"wikidata":"Q7937522","coordinates":[42.4954168,27.4718529]},"atp":{"id":"upaHvcep4sMo1dqOJl0jwqRewRw=","tags":{"ref":"217","@source_uri":"https://www.vivacom.bg/bg/stores/xhr?method=getJSON","@spider":"vivacom_bg","shop":"telecommunication","addr:country":"BG","phone":"+359 56 820 256","opening_hours":"Mo-Fr 09:00-19:00; Sa 10:00-17:00","brand":"Vivacom","brand:wikidata":"Q7937522","nsi_id":"vivacom-5ceaa9"},"coordinates":[42.49555,27.47201]},"dist":19.628,"tags_mismatch":true},{"osm":{"type":"node","id":3841520920,"tags":{"brand":"Vivacom","brand:wikidata":"Q7937522","opening_hours":"Mo-Fr 09:00-18:00","phone":"+359 32 260 853","shop":"telecommunication"},"wikidata":"Q7937522","coordinates":[42.1439759,24.7496569]},"atp":{"id":"uNHIX_rNvJ7x8ov7JvjGZIbNYi0=","tags":{"ref":"5281","@source_uri":"https://www.vivacom.bg/bg/stores/xhr?method=getJSON","@spider":"vivacom_bg","shop":"telecommunication","addr:country":"BG","phone":"+359 32 260 853","opening_hours":"Mo-Fr 09:00-18:00","brand":"Vivacom","brand:wikidata":"Q7937522","nsi_id":"vivacom-5ceaa9"},"coordinates":[42.144007292972,24.749791928047]},"dist":11.667,"tags_mismatch":false},{"osm":{"type":"node","id":3848532800,"tags":{"brand":"Vivacom","brand:wikidata":"Q7937522","opening_hours":"Mo-Fr 09:00-19:30","phone":"+359 56 581 080","shop":"telecommunication"},"wikidata":"Q7937522","coordinates":[42.5172929,27.4546552]},"atp":{"id":"85Cub9ZCyPzXFpqreDpZIklW3oA=","tags":{"ref":"131","@source_uri":"https://www.vivacom.bg/bg/stores/xhr?method=getJSON","@spider":"vivacom_bg","shop":"telecommunication","addr:country":"BG","phone":"+359 56 581 080","opening_hours":"Mo-Fr 09:00-19:00","brand":"Vivacom","brand:wikidata":"Q7937522","nsi_id":"vivacom-5ceaa9"},"coordinates":[42.5172805392,27.4545704357]},"dist":7.082,"tags_mismatch":true},{"osm":{"type":"node","id":4103526489,"tags":{"brand":"Vivacom","brand:wikidata":"Q7937522","opening_hours":"Mo-Fr 09:00-19:00","phone":"+359 55 422 200","shop":"telecommunication"},"wikidata":"Q7937522","coordinates":[42.6938618,27.7090919]},"atp":{"id":"2_laJmSvP1WPXrJDXUA1G1YeggI=","tags":{"ref":"113","@source_uri":"https://www.vivacom.bg/bg/stores/xhr?method=getJSON","@spider":"vivacom_bg","shop":"telecommunication","addr:country":"BG","phone":"+359 55 422 200","opening_hours":"Mo-Fr 09:00-18:00","brand":"Vivacom","brand:wikidata":"Q7937522","nsi_id":"vivacom-5ceaa9"},"coordinates":[42.6937821542,27.708621855]},"dist":39.423,"tags_mismatch":true},{"osm":{"type":"node","id":4105536915,"tags":{"brand":"Vivacom","brand:wikidata":"Q7937522","shop":"telecommunication"},"wikidata":"Q7937522","coordinates":[42.1456864,24.7315547]},"atp":false,"tags_mismatch":false},{"osm":{"type":"node","id":4230872807,"tags":{"addr:city":"Кърджали","addr:postcode":"6600","brand":"Vivacom","brand:wikidata":"Q7937522","opening_hours":"Mo-Fr 09:00-19:00; Sa 10:00-17:00","phone":"+359 36 161 068","shop":"telecommunication"},"wikidata":"Q7937522","coordinates":[41.6443514,25.3686342]},"atp":{"id":"sUdR1WTw6X_eZu6odK4VquToZ-8=","tags":{"ref":"5283","@source_uri":"https://www.vivacom.bg/bg/stores/xhr?method=getJSON","@spider":"vivacom_bg","shop":"telecommunication","addr:country":"BG","phone":"+359 36 161 068","opening_hours":"Mo-Fr 09:00-19:00; Sa 10:00-17:00","brand":"Vivacom","brand:wikidata":"Q7937522","nsi_id":"vivacom-5ceaa9"},"coordinates":[41.644382097189,25.368698247189]},"dist":6.323,"tags_mismatch":false},{"osm":{"type":"node","id":4281515595,"tags":{"addr:postcode":"8900","addr:street":"Васил Левски","brand":"Vivacom","brand:wikidata":"Q7937522","internet_access":"wlan","opening_hours":"Mo-Fr 09:00-19:00","phone":"+359 45 762 112","shop":"telecommunication","wheelchair":"yes"},"wikidata":"Q7937522","coordinates":[42.4943249,26.0121181]},"atp":{"id":"FTz_lPx4q-8trATFpgFAFr34WhM=","tags":{"ref":"2361","@source_uri":"https://www.vivacom.bg/bg/stores/xhr?method=getJSON","@spider":"vivacom_bg","shop":"telecommunication","addr:country":"BG","phone":"+359 45 762 112","opening_hours":"Mo-Fr 09:00-18:00","brand":"Vivacom","brand:wikidata":"Q7937522","nsi_id":"vivacom-5ceaa9"},"coordinates":[42.494741878824,26.011894651169]},"dist":49.854,"tags_mismatch":true},{"osm":{"type":"node","id":4430676214,"tags":{"brand":"Vivacom","brand:wikidata":"Q7937522","opening_hours":"Mo-Sa 09:00-19:00; Su 10:00-17:00","phone":"+359 58 600 350","shop":"telecommunication"},"wikidata":"Q7937522","coordinates":[43.5692803,27.8302325]},"atp":false,"tags_mismatch":false},{"osm":{"type":"node","id":4588824094,"tags":{"addr:street":"бул. Царица Йоанна","brand":"Vivacom","brand:wikidata":"Q7937522","internet_access":"wlan","opening_hours":"Mo-Fr 09:00-19:30","phone":"+359 2 824 1928","shop":"telecommunication","wheelchair":"no"},"wikidata":"Q7937522","coordinates":[42.7127509,23.2685705]},"atp":{"id":"kgCAwhZPFHz69tkxoy-dSr4zF3w=","tags":{"ref":"2326","@source_uri":"https://www.vivacom.bg/bg/stores/xhr?method=getJSON","@spider":"vivacom_bg","shop":"telecommunication","addr:country":"BG","phone":"+359 2 824 1928","opening_hours":"Mo-Fr 09:00-19:30","brand":"Vivacom","brand:wikidata":"Q7937522","nsi_id":"vivacom-5ceaa9"},"coordinates":[42.71272792389,23.268633931875]},"dist":5.778,"tags_mismatch":false},{"osm":{"type":"node","id":4748458453,"tags":{"brand":"Vivacom","brand:wikidata":"Q7937522","opening_hours":"Mo-Fr 09:00-18:00","phone":"+359 91 582 137","shop":"telecommunication","wheelchair":"no"},"wikidata":"Q7937522","coordinates":[43.470171,23.9441767]},"atp":{"id":"bj_5Pnuku4p8W-nOS3W36yl4kjQ=","tags":{"ref":"2260","@source_uri":"https://www.vivacom.bg/bg/stores/xhr?method=getJSON","@spider":"vivacom_bg","shop":"telecommunication","addr:country":"BG","phone":"+359 91 582 137","opening_hours":"Mo-Fr 09:00-18:00","brand":"Vivacom","brand:wikidata":"Q7937522","nsi_id":"vivacom-5ceaa9"},"coordinates":[43.4690132,23.9457856]},"dist":182.843,"tags_mismatch":false},{"osm":{"type":"node","id":4947500436,"tags":{"brand":"Vivacom","brand:wikidata":"Q7937522","check_date":"2024-02-17","opening_hours":"Mo-Fr 09:00-19:30; Sa 10:00-17:00","phone":"+359 2 832 1168","shop":"telecommunication"},"wikidata":"Q7937522","coordinates":[42.706769,23.3238505]},"atp":{"id":"_W47-PPziTmJ3p2_ZWFjYHmtOPA=","tags":{"ref":"2318","@source_uri":"https://www.vivacom.bg/bg/stores/xhr?method=getJSON","@spider":"vivacom_bg","shop":"telecommunication","addr:country":"BG","phone":"+359 2 832 1168","opening_hours":"Mo-Fr 09:00-19:00","brand":"Vivacom","brand:wikidata":"Q7937522","nsi_id":"vivacom-5ceaa9"},"coordinates":[42.7066462,23.3238726]},"dist":13.774,"tags_mismatch":true},{"osm":{"type":"node","id":5632399422,"tags":{"brand":"Vivacom","brand:wikidata":"Q7937522","opening_hours":"Mo-Fr 09:00-18:00","phone":"+359 86 422 150","shop":"telecommunication"},"wikidata":"Q7937522","coordinates":[43.8256307,27.141245]},"atp":{"id":"OT2Dd_3vX30YNjLfQsI2ZSwn1iw=","tags":{"ref":"183","@source_uri":"https://www.vivacom.bg/bg/stores/xhr?method=getJSON","@spider":"vivacom_bg","shop":"telecommunication","addr:country":"BG","phone":"+359 86 422 150","opening_hours":"Mo-Fr 09:00-18:00","brand":"Vivacom","brand:wikidata":"Q7937522","nsi_id":"vivacom-5ceaa9"},"coordinates":[43.82518,27.14096]},"dist":55.084,"tags_mismatch":false},{"osm":{"type":"node","id":6033866458,"tags":{"addr:housenumber":"10","addr:place":"Бизнес Парк София","brand":"Vivacom","brand:wikidata":"Q7937522","check_date":"2024-12-04","internet_access":"wlan","internet_access:fee":"customers","opening_hours":"Mo-Fr 09:00-19:00; PH off","payment:cash":"yes","payment:mastercard":"yes","payment:visa":"yes","shop":"telecommunication","wheelchair":"yes"},"wikidata":"Q7937522","coordinates":[42.6260691,23.3767962]},"atp":{"id":"HErOu0-PZuewosBJM4zJAAqGJvU=","tags":{"ref":"232","@source_uri":"https://www.vivacom.bg/bg/stores/xhr?method=getJSON","@spider":"vivacom_bg","shop":"telecommunication","addr:country":"BG","phone":"+359 2 974 2000","opening_hours":"Mo-Fr 09:00-19:00","brand":"Vivacom","brand:wikidata":"Q7937522","nsi_id":"vivacom-5ceaa9"},"coordinates":[42.6260969154,23.3766569627]},"dist":11.804,"tags_mismatch":true},{"osm":{"type":"node","id":6179649342,"tags":{"addr:city":"София","addr:housenumber":"47","addr:street":"Граф Игнатиев","brand":"Vivacom","brand:wikidata":"Q7937522","check_date:opening_hours":"2023-05-09","opening_hours":"Mo-Fr 09:00-19:00","phone":"+359 2 988 5997","shop":"telecommunication"},"wikidata":"Q7937522","coordinates":[42.6876726,23.3296801]},"atp":{"id":"BWKWfiytuMn7cQpOet_9k0oDSME=","tags":{"ref":"146","@source_uri":"https://www.vivacom.bg/bg/stores/xhr?method=getJSON","@spider":"vivacom_bg","shop":"telecommunication","addr:country":"BG","phone":"+359 2 988 5997","opening_hours":"Mo-Fr 09:00-19:00","brand":"Vivacom","brand:wikidata":"Q7937522","nsi_id":"vivacom-5ceaa9"},"coordinates":[42.6876690908,23.3298921875]},"dist":17.339,"tags_mismatch":false},{"osm":{"type":"node","id":6296611459,"tags":{"brand":"Vivacom","brand:wikidata":"Q7937522","shop":"telecommunication","wheelchair":"limited"},"wikidata":"Q7937522","coordinates":[42.8084727,23.2012868]},"atp":false,"tags_mismatch":false},{"osm":{"type":"node","id":6578551681,"tags":{"brand":"Vivacom","brand:wikidata":"Q7937522","opening_hours":"Mo-Fr 09:00-19:00","phone":"+359 77 780 031","shop":"telecommunication"},"wikidata":"Q7937522","coordinates":[42.5475245,22.9650017]},"atp":{"id":"O3Js8KG3ZoZps6EPI8dTzw_O7pQ=","tags":{"ref":"192","@source_uri":"https://www.vivacom.bg/bg/stores/xhr?method=getJSON","@spider":"vivacom_bg","shop":"telecommunication","addr:country":"BG","phone":"+359 77 780 031","opening_hours":"Mo-Fr 09:00-18:00","brand":"Vivacom","brand:wikidata":"Q7937522","nsi_id":"vivacom-5ceaa9"},"coordinates":[42.5472488396,22.9649555867]},"dist":30.884,"tags_mismatch":true},{"osm":{"type":"node","id":6588421621,"tags":{"brand":"Vivacom","brand:wikidata":"Q7937522","opening_hours":"Mo-Su 08:00-21:00","phone":"+359 2 833 5555","shop":"telecommunication"},"wikidata":"Q7937522","coordinates":[42.7114787,23.3025441]},"atp":{"id":"tD2euZKblvABn8KwUQ15bFUbBCE=","tags":{"ref":"2312","@source_uri":"https://www.vivacom.bg/bg/stores/xhr?method=getJSON","@spider":"vivacom_bg","shop":"telecommunication","addr:country":"BG","phone":"+359 2 833 5555","opening_hours":"Mo-Su 08:00-21:00","brand":"Vivacom","brand:wikidata":"Q7937522","nsi_id":"vivacom-5ceaa9"},"coordinates":[42.7113463,23.3024911]},"dist":15.346,"tags_mismatch":false},{"osm":{"type":"node","id":6901820241,"tags":{"addr:entrance":"вх.Б","brand":"Vivacom","brand:wikidata":"Q7937522","opening_hours":"Mo-Fr 09:00-19:30; Sa 10:00-17:00","phone":"+359 2 994 2193","shop":"telecommunication"},"wikidata":"Q7937522","coordinates":[42.715421,23.251339]},"atp":{"id":"1-5sP39hoOGWARxl34X24NsNl4s=","tags":{"ref":"223","@source_uri":"https://www.vivacom.bg/bg/stores/xhr?method=getJSON","@spider":"vivacom_bg","shop":"telecommunication","addr:country":"BG","phone":"+359 2 994 2193","opening_hours":"Mo-Fr 09:00-19:30; Sa 10:00-17:00","brand":"Vivacom","brand:wikidata":"Q7937522","nsi_id":"vivacom-5ceaa9"},"coordinates":[42.7150398832,23.2516081231]},"dist":47.742,"tags_mismatch":false},{"osm":{"type":"node","id":6914572781,"tags":{"brand":"Vivacom","brand:wikidata":"Q7937522","check_date":"2023-10-05","opening_hours":"Mo-Fr 09:00-19:30; Sa 10:00-17:00","phone":"+359 2 958 4560","shop":"telecommunication"},"wikidata":"Q7937522","coordinates":[42.6778054,23.286496]},"atp":{"id":"L4s89W__jLL8V5TIrFYxsV56XTg=","tags":{"ref":"2315","@source_uri":"https://www.vivacom.bg/bg/stores/xhr?method=getJSON","@spider":"vivacom_bg","shop":"telecommunication","addr:country":"BG","phone":"+359 2 958 4560","opening_hours":"Mo-Fr 09:00-19:30; Sa 10:00-17:00","brand":"Vivacom","brand:wikidata":"Q7937522","nsi_id":"vivacom-5ceaa9"},"coordinates":[42.677809677589,23.286510117764]},"dist":1.248,"tags_mismatch":false},{"osm":{"type":"node","id":6929954787,"tags":{"brand":"Vivacom","brand:wikidata":"Q7937522","opening_hours":"Mo-Fr 09:00-19:30","phone":"+359 32 622 007","shop":"telecommunication"},"wikidata":"Q7937522","coordinates":[42.1492625,24.7473285]},"atp":{"id":"Xezr18cNY1Sn1lokLj3AJJ0l5G4=","tags":{"ref":"140","@source_uri":"https://www.vivacom.bg/bg/stores/xhr?method=getJSON","@spider":"vivacom_bg","shop":"telecommunication","addr:country":"BG","phone":"+359 32 622 007","opening_hours":"Mo-Fr 09:00-18:00","brand":"Vivacom","brand:wikidata":"Q7937522","nsi_id":"vivacom-5ceaa9"},"coordinates":[42.15025609,24.7472331064]},"dist":110.762,"tags_mismatch":true},{"osm":{"type":"node","id":7067162568,"tags":{"addr:city":"Хасково","addr:housenumber":"5","addr:postcode":"6300","addr:street":"Сан Стефано","brand":"Vivacom","brand:wikidata":"Q7937522","shop":"telecommunication"},"wikidata":"Q7937522","coordinates":[41.9318089,25.5587977]},"atp":false,"tags_mismatch":false},{"osm":{"type":"node","id":7365241339,"tags":{"addr:city":"София","addr:housenumber":"28","addr:street":"бул. Панчо Владигеров","brand":"Vivacom","brand:wikidata":"Q7937522","phone":"+359 2 999 2628","shop":"telecommunication"},"wikidata":"Q7937522","coordinates":[42.7134093,23.2482942]},"atp":false,"tags_mismatch":false},{"osm":{"type":"node","id":7822048685,"tags":{"brand":"Vivacom","brand:wikidata":"Q7937522","opening_hours":"Mo-Fr 09:00-18:00","phone":"+359 45 342 029","shop":"telecommunication"},"wikidata":"Q7937522","coordinates":[42.8894656,26.4459273]},"atp":false,"tags_mismatch":false},{"osm":{"type":"node","id":7828580086,"tags":{"brand":"Vivacom","brand:wikidata":"Q7937522","opening_hours":"Mo-Fr 09:00-18:00","phone":"+359 60 562 094","shop":"telecommunication"},"wikidata":"Q7937522","coordinates":[43.1080064,26.4181294]},"atp":{"id":"zjiXW3glsgKHnYMIK7bENYa3WPE=","tags":{"ref":"181","@source_uri":"https://www.vivacom.bg/bg/stores/xhr?method=getJSON","@spider":"vivacom_bg","shop":"telecommunication","addr:country":"BG","phone":"+359 60 562 094","opening_hours":"Mo-Fr 09:00-18:00","brand":"Vivacom","brand:wikidata":"Q7937522","nsi_id":"vivacom-5ceaa9"},"coordinates":[43.10785,26.41881]},"dist":57.923,"tags_mismatch":false},{"osm":{"type":"node","id":7953425365,"tags":{"brand":"Vivacom","brand:wikidata":"Q7937522","opening_hours":"Mo-Fr 09:00-19:00","phone":"+359 84 620 050","shop":"telecommunication"},"wikidata":"Q7937522","coordinates":[43.5249124,26.525397]},"atp":{"id":"hSk_i0HqTCmNVUVbe7NjpxBSjO8=","tags":{"ref":"5311","@source_uri":"https://www.vivacom.bg/bg/stores/xhr?method=getJSON","@spider":"vivacom_bg","shop":"telecommunication","addr:country":"BG","phone":"+359 84 620 050","opening_hours":"Mo-Fr 09:00-19:00","brand":"Vivacom","brand:wikidata":"Q7937522","nsi_id":"vivacom-5ceaa9"},"coordinates":[43.524896162955,26.525384187698]},"dist":2.08,"tags_mismatch":false},{"osm":{"type":"node","id":8974106300,"tags":{"brand":"Vivacom","brand:wikidata":"Q7937522","opening_hours":"Mo-Fr 09:00-19:00","phone":"+359 35 922 221","shop":"telecommunication"},"wikidata":"Q7937522","coordinates":[42.0258098,23.9911879]},"atp":{"id":"G8Td7WFOIFyoRWj3M55oZsVS5_s=","tags":{"ref":"2298","@source_uri":"https://www.vivacom.bg/bg/stores/xhr?method=getJSON","@spider":"vivacom_bg","shop":"telecommunication","addr:country":"BG","phone":"+359 35 922 221","opening_hours":"Mo-Fr 09:00-18:30","brand":"Vivacom","brand:wikidata":"Q7937522","nsi_id":"vivacom-5ceaa9"},"coordinates":[42.0268517,23.991217]},"dist":115.879,"tags_mismatch":true},{"osm":{"type":"node","id":9159388739,"tags":{"brand":"Vivacom","brand:wikidata":"Q7937522","check_date":"2024-10","opening_hours":"Mo-Fr 09:00-19:30; Sa 10:00-17:00","phone":"+359 2 955 5555","shop":"telecommunication"},"wikidata":"Q7937522","coordinates":[42.6714611,23.2726283]},"atp":{"id":"v1LVv_0BppMUiK3kAOsSWLVuYEs=","tags":{"ref":"2311","@source_uri":"https://www.vivacom.bg/bg/stores/xhr?method=getJSON","@spider":"vivacom_bg","shop":"telecommunication","addr:country":"BG","phone":"+359 2 955 5555","opening_hours":"Mo-Fr 09:00-18:30","brand":"Vivacom","brand:wikidata":"Q7937522","nsi_id":"vivacom-5ceaa9"},"coordinates":[42.6713754,23.2725628]},"dist":10.931,"tags_mismatch":true},{"osm":{"type":"node","id":9365509564,"tags":{"brand":"Vivacom","brand:wikidata":"Q7937522","opening_hours":"Mo-Fr 09:00-19:00","phone":"+359 55 444 470","shop":"telecommunication"},"wikidata":"Q7937522","coordinates":[42.6640612,27.7161834]},"atp":{"id":"QB--QVDg9ux3qFoS_L2CRF3kLeg=","tags":{"ref":"159","@source_uri":"https://www.vivacom.bg/bg/stores/xhr?method=getJSON","@spider":"vivacom_bg","shop":"telecommunication","addr:country":"BG","phone":"+359 55 444 470","opening_hours":"Mo-Fr 09:00-18:00","brand":"Vivacom","brand:wikidata":"Q7937522","nsi_id":"vivacom-5ceaa9"},"coordinates":[42.66425,27.71539]},"dist":68.185,"tags_mismatch":true},{"osm":{"type":"node","id":9443073239,"tags":{"brand":"Vivacom","brand:wikidata":"Q7937522","shop":"telecommunication"},"wikidata":"Q7937522","coordinates":[43.2714094,26.9330931]},"atp":{"id":"WlHJRFZRrytNk9GpMxqMxtdDDWc=","tags":{"ref":"2283","@source_uri":"https://www.vivacom.bg/bg/stores/xhr?method=getJSON","@spider":"vivacom_bg","shop":"telecommunication","addr:country":"BG","phone":"+359 54 810 525","opening_hours":"Mo-Fr 09:00-19:00","brand":"Vivacom","brand:wikidata":"Q7937522","nsi_id":"vivacom-5ceaa9"},"coordinates":[43.271398813252,26.933043338417]},"dist":4.197,"tags_mismatch":true},{"osm":{"type":"node","id":9665959421,"tags":{"addr:city":"Поморие","addr:housenumber":"59","addr:street":"Княз Борис I","brand":"Vivacom","brand:wikidata":"Q7937522","opening_hours":"Mo-Fr 09:00-19:00","phone":"+359 596 22 115","shop":"telecommunication"},"wikidata":"Q7937522","coordinates":[42.5571335,27.6398753]},"atp":false,"tags_mismatch":false},{"osm":{"type":"node","id":9683404180,"tags":{"brand":"Vivacom","brand:wikidata":"Q7937522","shop":"telecommunication"},"wikidata":"Q7937522","coordinates":[42.7020081,23.359543]},"atp":{"id":"X_1ywSMVX_356UOFvr-80sr30NY=","tags":{"ref":"2317","@source_uri":"https://www.vivacom.bg/bg/stores/xhr?method=getJSON","@spider":"vivacom_bg","shop":"telecommunication","addr:country":"BG","phone":"+359 2 945 4891","opening_hours":"Mo-Fr 09:00-19:00","brand":"Vivacom","brand:wikidata":"Q7937522","nsi_id":"vivacom-5ceaa9"},"coordinates":[42.702011811339,23.359540700912]},"dist":0.453,"tags_mismatch":true},{"osm":{"type":"node","id":9689924140,"tags":{"brand":"Vivacom","brand:wikidata":"Q7937522","opening_hours":"Mo-Fr 09:00-19:00","phone":"+359 51 846 072","shop":"telecommunication"},"wikidata":"Q7937522","coordinates":[43.1784056,27.4431266]},"atp":{"id":"FD4IrqFoGFGciVMP0SDVZWK8gOg=","tags":{"ref":"109","@source_uri":"https://www.vivacom.bg/bg/stores/xhr?method=getJSON","@spider":"vivacom_bg","shop":"telecommunication","addr:country":"BG","phone":"+359 51 846 072","opening_hours":"Mo-Fr 09:00-18:30","brand":"Vivacom","brand:wikidata":"Q7937522","nsi_id":"vivacom-5ceaa9"},"coordinates":[43.1773364385,27.443966285]},"dist":137.002,"tags_mismatch":true},{"osm":{"type":"node","id":9741554244,"tags":{"brand":"Vivacom","brand:wikidata":"Q7937522","opening_hours":"Mo-Fr 09:00-19:00","phone":"+359 2 821 0455","shop":"telecommunication"},"wikidata":"Q7937522","coordinates":[42.7105755,23.2920029]},"atp":{"id":"bgxqnUOSW1WM7mq9hVzOwNTf3z0=","tags":{"ref":"520","@source_uri":"https://www.vivacom.bg/bg/stores/xhr?method=getJSON","@spider":"vivacom_bg","shop":"telecommunication","addr:country":"BG","phone":"+359 2 821 0455","opening_hours":"Mo-Fr 09:00-19:00","brand":"Vivacom","brand:wikidata":"Q7937522","nsi_id":"vivacom-5ceaa9"},"coordinates":[42.710182801286,23.291963268262]},"dist":43.786,"tags_mismatch":false},{"osm":{"type":"node","id":9990790950,"tags":{"brand":"Vivacom","brand:wikidata":"Q7937522","opening_hours":"Mo-Sa 08:00-20:00; Su 09:00-20:00","phone":"+359 39 122 318","shop":"telecommunication"},"wikidata":"Q7937522","coordinates":[42.0588265,25.5873712]},"atp":{"id":"usRGspmRbC89wwDp8Bvqqux_13I=","tags":{"ref":"1780","@source_uri":"https://www.vivacom.bg/bg/stores/xhr?method=getJSON","@spider":"vivacom_bg","shop":"telecommunication","addr:country":"BG","phone":"+359 39 122 318","opening_hours":"Mo-Su 09:00-20:00","brand":"Vivacom","brand:wikidata":"Q7937522","nsi_id":"vivacom-5ceaa9"},"coordinates":[42.0583801,25.5886998]},"dist":120.395,"tags_mismatch":true},{"osm":{"type":"node","id":10067701468,"tags":{"brand":"Vivacom","brand:wikidata":"Q7937522","opening_hours":"Mo-Sa 08:00-21:00; Su 09:00-20:00","phone":"+359 2 836 0182","shop":"telecommunication","wheelchair":"yes"},"wikidata":"Q7937522","coordinates":[42.7283695,23.2861894]},"atp":{"id":"k2uqizeWBH7ySdP8Qnfw0O79OZs=","tags":{"ref":"2140","@source_uri":"https://www.vivacom.bg/bg/stores/xhr?method=getJSON","@spider":"vivacom_bg","shop":"telecommunication","addr:country":"BG","phone":"+359 2 836 0182","opening_hours":"Mo-Sa 08:00-21:00; Su 09:00-20:00","brand":"Vivacom","brand:wikidata":"Q7937522","nsi_id":"vivacom-5ceaa9"},"coordinates":[42.7282214,23.2861464]},"dist":16.838,"tags_mismatch":false},{"osm":{"type":"node","id":10096784558,"tags":{"brand":"Vivacom","brand:wikidata":"Q7937522","opening_hours":"Mo-Fr 09:00-19:30; Sa 10:00-17:00","phone":"+359 52 602 215","shop":"telecommunication"},"wikidata":"Q7937522","coordinates":[43.2089862,27.9041783]},"atp":{"id":"eqQJ3hRZVnmCz_ZwelqmbrvYs2s=","tags":{"ref":"621","@source_uri":"https://www.vivacom.bg/bg/stores/xhr?method=getJSON","@spider":"vivacom_bg","shop":"telecommunication","addr:country":"BG","phone":"+359 52 602 215","opening_hours":"Mo-Fr 09:00-19:00; Sa 10:00-17:00","brand":"Vivacom","brand:wikidata":"Q7937522","nsi_id":"vivacom-5ceaa9"},"coordinates":[43.2086994,27.903313]},"dist":77.04,"tags_mismatch":true},{"osm":{"type":"node","id":10170822370,"tags":{"brand":"Vivacom","brand:wikidata":"Q7937522","shop":"telecommunication"},"wikidata":"Q7937522","coordinates":[42.9179692,24.2630272]},"atp":{"id":"wmaZG4jev1iMX1gB6rx1y8wbOKg=","tags":{"ref":"5310","@source_uri":"https://www.vivacom.bg/bg/stores/xhr?method=getJSON","@spider":"vivacom_bg","shop":"telecommunication","addr:country":"BG","phone":"+359 67 852 322","opening_hours":"Mo-Fr 09:00-18:00","brand":"Vivacom","brand:wikidata":"Q7937522","nsi_id":"vivacom-5ceaa9"},"coordinates":[42.917954655184,24.262924790382]},"dist":8.495,"tags_mismatch":true},{"osm":{"type":"node","id":10249380635,"tags":{"brand":"Vivacom","brand:wikidata":"Q7937522","level":"0","opening_hours":"Mo-Su 10:00-22:00","phone":"+359 2 878 7844","shop":"telecommunication"},"wikidata":"Q7937522","coordinates":[42.6607938,23.3825982]},"atp":{"id":"6VjVbRpMBaIL1tpzUbyWHSzi748=","tags":{"ref":"203","@source_uri":"https://www.vivacom.bg/bg/stores/xhr?method=getJSON","@spider":"vivacom_bg","shop":"telecommunication","addr:country":"BG","phone":"+359 2 878 7844","opening_hours":"Mo-Su 10:00-22:00","brand":"Vivacom","brand:wikidata":"Q7937522","nsi_id":"vivacom-5ceaa9"},"coordinates":[42.6609231685,23.3834842099]},"dist":73.864,"tags_mismatch":false},{"osm":{"type":"node","id":10633926732,"tags":{"addr:city":"Ямбол","addr:housenumber":"58","addr:postcode":"8600","addr:street":"Търговска","brand":"Vivacom","brand:wikidata":"Q7937522","opening_hours":"Mo-Fr 09:00-19:00","phone":"+359 46 666 200","shop":"telecommunication"},"wikidata":"Q7937522","coordinates":[42.4814804,26.5131811]},"atp":{"id":"USbWhNEhQWN5hF_Ui2MwBB03_VU=","tags":{"ref":"2289","@source_uri":"https://www.vivacom.bg/bg/stores/xhr?method=getJSON","@spider":"vivacom_bg","shop":"telecommunication","addr:country":"BG","phone":"+359 46 666 200","opening_hours":"Mo-Fr 09:00-19:00","brand":"Vivacom","brand:wikidata":"Q7937522","nsi_id":"vivacom-5ceaa9"},"coordinates":[42.4814765,26.5130026]},"dist":14.644,"tags_mismatch":false},{"osm":{"type":"node","id":10678506661,"tags":{"addr:city":"Стара Загора","addr:housenumber":"124","addr:street":"бул. Цар Симеон Велики","brand":"Vivacom","brand:wikidata":"Q7937522","opening_hours":"Mo-Fr 09:00-19:00; Sa 10:00-17:00","phone":"+359 42 660 606","shop":"telecommunication"},"wikidata":"Q7937522","coordinates":[42.425062,25.6321195]},"atp":{"id":"E8HTaPf7_wEHUIIZK8ifGjcsT_g=","tags":{"ref":"5303","@source_uri":"https://www.vivacom.bg/bg/stores/xhr?method=getJSON","@spider":"vivacom_bg","shop":"telecommunication","addr:country":"BG","phone":"+359 42 660 606","opening_hours":"Mo-Fr 09:00-19:00; Sa 10:00-17:00","brand":"Vivacom","brand:wikidata":"Q7937522","nsi_id":"vivacom-5ceaa9"},"coordinates":[42.425629856932,25.633949943298]},"dist":162.971,"tags_mismatch":false},{"osm":{"type":"node","id":10687450726,"tags":{"brand":"Vivacom","brand:wikidata":"Q7937522","shop":"telecommunication"},"wikidata":"Q7937522","coordinates":[43.1918564,27.7076763]},"atp":false,"tags_mismatch":false},{"osm":{"type":"node","id":10776566813,"tags":{"brand":"Vivacom","brand:wikidata":"Q7937522","opening_hours":"Mo-Fr 09:00-19:00; Sa 10:00-17:00","phone":"+359 73 880 003","shop":"telecommunication"},"wikidata":"Q7937522","coordinates":[42.0201726,23.0943764]},"atp":{"id":"CuZlw4_Xi4i9CSkbsxykqZj1dHE=","tags":{"ref":"2293","@source_uri":"https://www.vivacom.bg/bg/stores/xhr?method=getJSON","@spider":"vivacom_bg","shop":"telecommunication","addr:country":"BG","phone":"+359 73 880 003","opening_hours":"Mo-Fr 09:00-19:00; Sa 10:00-17:00","brand":"Vivacom","brand:wikidata":"Q7937522","nsi_id":"vivacom-5ceaa9"},"coordinates":[42.0200953,23.0942986]},"dist":10.732,"tags_mismatch":false},{"osm":{"type":"node","id":10923976632,"tags":{"brand":"Vivacom","brand:wikidata":"Q7937522","check_date":"2023-05-24","internet_access":"wlan","internet_access:fee":"customers","opening_hours":"Mo-Fr 09:00-18:00","payment:mastercard":"yes","payment:visa":"yes","shop":"telecommunication","wheelchair":"limited"},"wikidata":"Q7937522","coordinates":[42.5038088,24.1882793]},"atp":{"id":"yqr-J-HILpd90G50raBWb6F8-8M=","tags":{"ref":"170","@source_uri":"https://www.vivacom.bg/bg/stores/xhr?method=getJSON","@spider":"vivacom_bg","shop":"telecommunication","addr:country":"BG","phone":"+359 35 761 912","opening_hours":"Mo-Fr 09:00-18:00","brand":"Vivacom","brand:wikidata":"Q7937522","nsi_id":"vivacom-5ceaa9"},"coordinates":[42.5026426917,24.1878902225]},"dist":133.531,"tags_mismatch":true},{"osm":{"type":"node","id":10994436257,"tags":{"brand":"Vivacom","brand:wikidata":"Q7937522","opening_hours":"Mo-Fr 09:00-19:00","phone":"+359 2 995 1756","shop":"telecommunication"},"wikidata":"Q7937522","coordinates":[42.6961354,23.348642]},"atp":false,"tags_mismatch":false},{"osm":{"type":"node","id":11166662657,"tags":{"brand":"Vivacom","brand:wikidata":"Q7937522","opening_hours":"Mo-Sa 09:00-20:00","phone":"+359 42 672 050","shop":"telecommunication"},"wikidata":"Q7937522","coordinates":[42.4196245,25.6082611]},"atp":{"id":"Ik6TZTqc21F6dO4uVKe3kKw9014=","tags":{"ref":"129","@source_uri":"https://www.vivacom.bg/bg/stores/xhr?method=getJSON","@spider":"vivacom_bg","shop":"telecommunication","addr:country":"BG","phone":"+359 42 672 050","opening_hours":"Mo-Fr 09:00-20:00; Sa-Su 10:00-18:00","brand":"Vivacom","brand:wikidata":"Q7937522","nsi_id":"vivacom-5ceaa9"},"coordinates":[42.4197711354,25.6082094918]},"dist":16.846,"tags_mismatch":true},{"osm":{"type":"node","id":11235788137,"tags":{"brand":"Vivacom","brand:wikidata":"Q7937522","shop":"telecommunication"},"wikidata":"Q7937522","coordinates":[43.1404344,24.7185677]},"atp":{"id":"GnhPSAcVXuj3CRPSwfWjTY3NiqM=","tags":{"ref":"2342","@source_uri":"https://www.vivacom.bg/bg/stores/xhr?method=getJSON","@spider":"vivacom_bg","shop":"telecommunication","addr:country":"BG","phone":"+359 68 600 223","opening_hours":"Mo-Fr 09:00-18:00","brand":"Vivacom","brand:wikidata":"Q7937522","nsi_id":"vivacom-5ceaa9"},"coordinates":[43.140450159325,24.718555775403]},"dist":2.002,"tags_mismatch":true},{"osm":{"type":"node","id":11257930397,"tags":{"brand":"Vivacom","brand:wikidata":"Q7937522","shop":"telecommunication","wheelchair":"no"},"wikidata":"Q7937522","coordinates":[42.4184135,27.6949903]},"atp":{"id":"yUsLtcuB07dFGSnQc2vSSq105P8=","tags":{"ref":"660","@source_uri":"https://www.vivacom.bg/bg/stores/xhr?method=getJSON","@spider":"vivacom_bg","shop":"telecommunication","addr:country":"BG","phone":"+359 55 022 109","opening_hours":"Mo-Fr 09:00-18:00","brand":"Vivacom","brand:wikidata":"Q7937522","nsi_id":"vivacom-5ceaa9"},"coordinates":[42.4183111,27.69522]},"dist":22.027,"tags_mismatch":true},{"osm":{"type":"node","id":11537933447,"tags":{"brand":"Vivacom","brand:wikidata":"Q7937522","check_date":"2019","shop":"telecommunication"},"wikidata":"Q7937522","coordinates":[42.6965455,23.2868653]},"atp":{"id":"5UHv4y0GNlLHzeW5YrhBpNJ8j00=","tags":{"ref":"202","@source_uri":"https://www.vivacom.bg/bg/stores/xhr?method=getJSON","@spider":"vivacom_bg","shop":"telecommunication","addr:country":"BG","phone":"+359 2 822 2999","opening_hours":"Mo-Fr 09:00-19:00","brand":"Vivacom","brand:wikidata":"Q7937522","nsi_id":"vivacom-5ceaa9"},"coordinates":[42.6959967351,23.2869842852]},"dist":61.79,"tags_mismatch":true},{"osm":{"type":"node","id":11550147169,"tags":{"brand":"Vivacom","brand:wikidata":"Q7937522","level":"0","opening_hours":"Mo-Su 10:00-22:00","shop":"telecommunication"},"wikidata":"Q7937522","coordinates":[42.6577562,23.3141947]},"atp":{"id":"By6PNxarfnQe2nPC-kGhnKqOAEc=","tags":{"ref":"230","@source_uri":"https://www.vivacom.bg/bg/stores/xhr?method=getJSON","@spider":"vivacom_bg","shop":"telecommunication","addr:country":"BG","phone":"+359 2 995 0001","opening_hours":"Mo-Su 10:00-22:00","brand":"Vivacom","brand:wikidata":"Q7937522","nsi_id":"vivacom-5ceaa9"},"coordinates":[42.65802,23.31576]},"dist":131.319,"tags_mismatch":true},{"osm":{"type":"node","id":11598742656,"tags":{"brand":"Vivacom","brand:wikidata":"Q7937522","level":"0","shop":"telecommunication"},"wikidata":"Q7937522","coordinates":[42.6644208,23.2885976]},"atp":{"id":"kx--nRViPbWiJ0CFucCo9_G6ShM=","tags":{"ref":"222","@source_uri":"https://www.vivacom.bg/bg/stores/xhr?method=getJSON","@spider":"vivacom_bg","shop":"telecommunication","addr:country":"BG","phone":"+359 2 995 0933","opening_hours":"Mo-Su 10:00-21:00","brand":"Vivacom","brand:wikidata":"Q7937522","nsi_id":"vivacom-5ceaa9"},"coordinates":[42.6647452879,23.2882242113]},"dist":47.265,"tags_mismatch":true},{"osm":{"type":"node","id":11728383765,"tags":{"brand":"Vivacom","brand:wikidata":"Q7937522","shop":"telecommunication"},"wikidata":"Q7937522","coordinates":[42.1451355,24.7814306]},"atp":{"id":"BeGmPEBz8O_jYDkRMg6VPLOZPPw=","tags":{"ref":"2220","@source_uri":"https://www.vivacom.bg/bg/stores/xhr?method=getJSON","@spider":"vivacom_bg","shop":"telecommunication","addr:country":"BG","phone":"+359 32 207 340","opening_hours":"Mo-Su 10:00-21:00","brand":"Vivacom","brand:wikidata":"Q7937522","nsi_id":"vivacom-5ceaa9"},"coordinates":[42.144705996499,24.78214499006]},"dist":75.828,"tags_mismatch":true},{"osm":{"type":"node","id":11961078299,"tags":{"brand":"Vivacom","brand:wikidata":"Q7937522","opening_hours":"Mo-Fr 09:00-18:30","shop":"telecommunication"},"wikidata":"Q7937522","coordinates":[43.2060414,24.1636707]},"atp":{"id":"XCoWAjk3m09jDHpHjV-c3IDMGd4=","tags":{"ref":"198","@source_uri":"https://www.vivacom.bg/bg/stores/xhr?method=getJSON","@spider":"vivacom_bg","shop":"telecommunication","addr:country":"BG","phone":"+359 69 750 008","opening_hours":"Mo-Fr 09:00-18:00","brand":"Vivacom","brand:wikidata":"Q7937522","nsi_id":"vivacom-5ceaa9"},"coordinates":[43.2070478294,24.1631221641]},"dist":120.417,"tags_mismatch":true},{"osm":{"type":"node","id":11969198227,"tags":{"brand":"Vivacom","brand:wikidata":"Q7937522","shop":"telecommunication"},"wikidata":"Q7937522","coordinates":[42.9070391,23.7925707]},"atp":{"id":"z9RUzc60HF9Kt1Lay25pJl3Wscc=","tags":{"ref":"2362","@source_uri":"https://www.vivacom.bg/bg/stores/xhr?method=getJSON","@spider":"vivacom_bg","shop":"telecommunication","addr:country":"BG","phone":"+359 72 366 660","opening_hours":"Mo-Fr 09:00-19:00","brand":"Vivacom","brand:wikidata":"Q7937522","nsi_id":"vivacom-5ceaa9"},"coordinates":[42.907112801316,23.793501370504]},"dist":76.241,"tags_mismatch":true},{"osm":{"type":"node","id":12152763366,"tags":{"brand":"Vivacom","brand:wikidata":"Q7937522","opening_hours":"Mo-Fr 09:00-19:00","shop":"telecommunication"},"wikidata":"Q7937522","coordinates":[42.6995839,23.3204714]},"atp":{"id":"cI67WGXOmUGv4-TKgAhiqofl0RE=","tags":{"ref":"2324","@source_uri":"https://www.vivacom.bg/bg/stores/xhr?method=getJSON","@spider":"vivacom_bg","shop":"telecommunication","addr:country":"BG","phone":"+359 2 995 0755","opening_hours":"Mo-Fr 09:00-19:00","brand":"Vivacom","brand:wikidata":"Q7937522","nsi_id":"vivacom-5ceaa9"},"coordinates":[42.6995609,23.3205334]},"dist":5.675,"tags_mismatch":true},{"osm":{"type":"node","id":12304427021,"tags":{"brand":"Vivacom","brand:wikidata":"Q7937522","shop":"telecommunication"},"wikidata":"Q7937522","coordinates":[42.87137,25.3194134]},"atp":{"id":"4DBVQjjWXOQw9M9fD8SavSwFFjI=","tags":{"ref":"2382","@source_uri":"https://www.vivacom.bg/bg/stores/xhr?method=getJSON","@spider":"vivacom_bg","shop":"telecommunication","addr:country":"BG","phone":"+359 66 860 490","opening_hours":"Mo-Fr 09:00-19:00","brand":"Vivacom","brand:wikidata":"Q7937522","nsi_id":"vivacom-5ceaa9"},"coordinates":[42.871372473649,25.319442160839]},"dist":2.36,"tags_mismatch":true},{"osm":{"type":"node","id":12466584359,"tags":{"brand":"Vivacom","brand:wikidata":"Q7937522","check_date":"2025-01-01","opening_hours":"Mo-Fr 09:00-18:00","payment:cash":"yes","payment:credit_cards":"yes","payment:debit_cards":"yes","shop":"telecommunication"},"wikidata":"Q7937522","coordinates":[42.8103408,23.2171097]},"atp":{"id":"Qh40ia2rH9oKLOlZ4szhR1Dv7cU=","tags":{"ref":"176","@source_uri":"https://www.vivacom.bg/bg/stores/xhr?method=getJSON","@spider":"vivacom_bg","shop":"telecommunication","addr:country":"BG","phone":"+359 72 161 053","opening_hours":"Mo-Fr 09:00-18:00","brand":"Vivacom","brand:wikidata":"Q7937522","nsi_id":"vivacom-5ceaa9"},"coordinates":[42.8105558,23.2167876]},"dist":35.523,"tags_mismatch":true},{"osm":false,"atp":false,"tags_mismatch":false,"dist":0},{"osm":false,"atp":{"id":"5yPyQi1bEj8xOdfu0fgciETk9-Y=","tags":{"ref":"106","shop":"telecommunication","addr:country":"BG","name":"VIVACOM Плевен, пл. Свобода 25, MALL Център","phone":"+359 64 801 803","opening_hours":"Mo-Fr 09:00-19:00","brand":"Vivacom","brand:wikidata":"Q7937522"},"coordinates":[43.4098139467,24.6183439394]},"tags_mismatch":false,"dist":0},{"osm":false,"atp":false,"tags_mismatch":false,"dist":0},{"osm":false,"atp":{"id":"pz0vgqUg4mlldRzWQeN_nH7Lwr8=","tags":{"ref":"110","shop":"telecommunication","addr:country":"BG","name":"VIVACOM Русе, бул. Липник 6, Кауфланд","phone":"+359 82 823 030","opening_hours":"Mo-Su 08:00-21:00","brand":"Vivacom","brand:wikidata":"Q7937522"},"coordinates":[43.845621055,25.9661220339]},"tags_mismatch":false,"dist":0},{"osm":false,"atp":{"id":"PLleAcCP01V3uS0zdnQfx7LEXF4=","tags":{"ref":"112","shop":"telecommunication","addr:country":"BG","name":"VIVACOM Силистра, пл. Свобода 6","phone":"+359 86 882 005","opening_hours":"Mo-Fr 09:00-19:00; Sa 10:00-17:00","brand":"Vivacom","brand:wikidata":"Q7937522"},"coordinates":[44.11998,27.26225]},"tags_mismatch":false,"dist":0},{"osm":false,"atp":false,"tags_mismatch":false,"dist":0},{"osm":false,"atp":false,"tags_mismatch":false,"dist":0},{"osm":false,"atp":{"id":"7LNHXoWNYYNeSWYC5hVvmwent4E=","tags":{"ref":"117","shop":"telecommunication","addr:country":"BG","name":"VIVACOM София, жк. Младост 3, ул. Филип Аврамов 3, Кауфланд","phone":"+359 2 975 4411","opening_hours":"Mo-Sa 08:00-21:00; Su 09:00-21:00","brand":"Vivacom","brand:wikidata":"Q7937522"},"coordinates":[42.64586,23.37952]},"tags_mismatch":false,"dist":0},{"osm":false,"atp":{"id":"N-JYkS3FZaPfQe5xUy_p2RO4KOk=","tags":{"ref":"118","shop":"telecommunication","addr:country":"BG","name":"VIVACOM София, кв. Гео Милев, ул. Коста Лулчев 52,Sky City","phone":"+359 2 870 2112","opening_hours":"Mo-Su 10:00-21:00","brand":"Vivacom","brand:wikidata":"Q7937522"},"coordinates":[42.6792384658,23.3678825]},"tags_mismatch":false,"dist":0},{"osm":false,"atp":{"id":"mqWaWPn2mrR3IeleQm7u-Fl6ctQ=","tags":{"ref":"119","shop":"telecommunication","addr:country":"BG","name":"VIVACOM София, жк. Дружба, ул. Хайделберг 1, Кауфланд","phone":"+359 2 974 5555","opening_hours":"Mo-Sa 08:00-21:00; Su 09:00-20:00","brand":"Vivacom","brand:wikidata":"Q7937522"},"coordinates":[42.6567343175,23.3988903125]},"tags_mismatch":false,"dist":0},{"osm":false,"atp":{"id":"ShpE1Bq09a43JrXx9Lu4pqnBDiM=","tags":{"ref":"122","shop":"telecommunication","addr:country":"BG","name":"VIVACOM Карлово, ул. Петко Събев 2А","phone":"+359 33 599 071","opening_hours":"Mo-Fr 09:00-19:00; Sa 10:00-17:00","brand":"Vivacom","brand:wikidata":"Q7937522"},"coordinates":[42.6436224572,24.8046078625]},"tags_mismatch":false,"dist":0},{"osm":false,"atp":{"id":"QdrB80JIgSuewWegGCm2YOAAMW4=","tags":{"ref":"123","shop":"telecommunication","addr:country":"BG","name":"VIVACOM Варна, бул.Вл.Варненчик 186, MALL Варна","phone":"+359 52 732 150","brand":"Vivacom","brand:wikidata":"Q7937522"},"coordinates":[43.2194953975,27.8896176737]},"tags_mismatch":false,"dist":0},{"osm":false,"atp":{"id":"m7wFqO-eBxm8r9gKTOWMJYoN2Uk=","tags":{"ref":"124","shop":"telecommunication","addr:country":"BG","name":"VIVACOM Бургас, ул. Александровска 114","phone":"+359 56 533 355","opening_hours":"Mo-Fr 09:00-19:00","brand":"Vivacom","brand:wikidata":"Q7937522"},"coordinates":[42.50213,27.46872]},"tags_mismatch":false,"dist":0},{"osm":false,"atp":{"id":"6yY3KXgmwH2B6Wj8jp5Cqyaerto=","tags":{"ref":"125","shop":"telecommunication","addr:country":"BG","name":"VIVACOM Перник, ул. Търговска 22","phone":"+359 76 640 255","opening_hours":"Mo-Fr 09:00-19:00","brand":"Vivacom","brand:wikidata":"Q7937522"},"coordinates":[42.60425,23.03016]},"tags_mismatch":false,"dist":0},{"osm":false,"atp":{"id":"O3qlAyWoeD4rB9stq5C_QqF3pKQ=","tags":{"ref":"126","shop":"telecommunication","addr:country":"BG","name":"VIVACOM София, МОЛ Сердика, бул. Ситняково","phone":"+359 2 944 2303","opening_hours":"Mo-Su 10:00-22:00","brand":"Vivacom","brand:wikidata":"Q7937522"},"coordinates":[42.6910188592,23.353795]},"tags_mismatch":false,"dist":0},{"osm":false,"atp":{"id":"ddz5BRB1f5fqbr_8NZoFFsh1xXs=","tags":{"ref":"128","shop":"telecommunication","addr:country":"BG","name":"VIVACOM Пазарджик, бул. България 5","phone":"+359 34 460 370","opening_hours":"Mo-Fr 09:00-19:00","brand":"Vivacom","brand:wikidata":"Q7937522"},"coordinates":[42.1883967899,24.3317214931]},"tags_mismatch":false,"dist":0},{"osm":false,"atp":false,"tags_mismatch":false,"dist":0},{"osm":false,"atp":{"id":"2lZ59_JYhWfj8LJa7dpZxwR1b0I=","tags":{"ref":"130","shop":"telecommunication","addr:country":"BG","name":"VIVACOM Монтана, ул. Славянска №2 / ул. Трети март №51","phone":"+359 96 300 119","opening_hours":"Mo-Fr 09:00-19:00; Sa 10:00-17:00","brand":"Vivacom","brand:wikidata":"Q7937522"},"coordinates":[43.4080275416,23.2276787377]},"tags_mismatch":false,"dist":0},{"osm":false,"atp":false,"tags_mismatch":false,"dist":0},{"osm":false,"atp":{"id":"GXunMLH-X49h0n6vyxvl7sojL3U=","tags":{"ref":"133","shop":"telecommunication","addr:country":"BG","name":"VIVACOM Варна, жк Владиславово, бул.Константин и Фружин 420","phone":"+359 52 521 510","opening_hours":"Mo-Fr 09:00-19:00; Sa 10:00-17:00","brand":"Vivacom","brand:wikidata":"Q7937522"},"coordinates":[43.246574565,27.8461628651]},"tags_mismatch":false,"dist":0},{"osm":false,"atp":{"id":"UvQuqpKkm20pNGZCTr1gq_ErCRA=","tags":{"ref":"134","shop":"telecommunication","addr:country":"BG","name":"VIVACOM Дупница, ул. Николаевска 2А","phone":"+359 701 411 20","opening_hours":"Mo-Fr 09:30-16:30","brand":"Vivacom","brand:wikidata":"Q7937522"},"coordinates":[42.26521,23.11866]},"tags_mismatch":false,"dist":0},{"osm":false,"atp":{"id":"cgZbPv5eTDlyCWrbKf3AW2La52Y=","tags":{"ref":"135","shop":"telecommunication","addr:country":"BG","name":"VIVACOM Елхово, ул. Търговска 19","phone":"+359 47 882 216","opening_hours":"Mo-Fr 09:00-18:00","brand":"Vivacom","brand:wikidata":"Q7937522"},"coordinates":[42.1721528373,26.5666806075]},"tags_mismatch":false,"dist":0},{"osm":false,"atp":{"id":"2Uszk83BMtU3VYvZAqCwgXXDCq4=","tags":{"ref":"136","shop":"telecommunication","addr:country":"BG","name":"VIVACOM Момчилград, ул. Гюмюрджинска 30","phone":"+359 36 316 664","opening_hours":"Mo-Fr 09:00-18:00","brand":"Vivacom","brand:wikidata":"Q7937522"},"coordinates":[41.5275523379,25.4093397033]},"tags_mismatch":false,"dist":0},{"osm":false,"atp":{"id":"8K7QbbJssnPsAbNoodlQIN6ZQI4=","tags":{"ref":"137","shop":"telecommunication","addr:country":"BG","name":"VIVACOM Пещера, Пещера пл. България","phone":"+359 35 066 651","opening_hours":"Mo-Fr 09:00-19:00","brand":"Vivacom","brand:wikidata":"Q7937522"},"coordinates":[42.0318583891,24.3007843531]},"tags_mismatch":false,"dist":0},{"osm":false,"atp":false,"tags_mismatch":false,"dist":0},{"osm":false,"atp":false,"tags_mismatch":false,"dist":0},{"osm":false,"atp":{"id":"RBiil1J2VC67moypU2vZaM0I_Rs=","tags":{"ref":"184","shop":"telecommunication","addr:country":"BG","name":"VIVACOM Поморие, ул. Княз Борис I 59","phone":"+359 59 622 115","opening_hours":"Mo-Fr 09:00-18:00","brand":"Vivacom","brand:wikidata":"Q7937522"},"coordinates":[42.573462545762,27.598196560669]},"tags_mismatch":false,"dist":0},{"osm":false,"atp":{"id":"fUWPrvRYAWrCapdmlwXQ1_8L4j0=","tags":{"ref":"185","shop":"telecommunication","addr:country":"BG","name":"VIVACOM Раднево, ул. Г.Димитров 3","phone":"+359 41 782 061","opening_hours":"Mo-Fr 09:00-18:00","brand":"Vivacom","brand:wikidata":"Q7937522"},"coordinates":[42.2897725986,25.9339970769]},"tags_mismatch":false,"dist":0},{"osm":false,"atp":{"id":"I1oCDivA4mKY-i3srJvmkamfxWE=","tags":{"ref":"187","shop":"telecommunication","addr:country":"BG","name":"VIVACOM Чепеларе, ул. Дичо Петров 2","phone":"+359 30 512 075","opening_hours":"Mo-Fr 09:00-18:00","brand":"Vivacom","brand:wikidata":"Q7937522"},"coordinates":[41.72546,24.68027]},"tags_mismatch":false,"dist":0},{"osm":false,"atp":{"id":"mA5hRVly6vKj81Nz1KZm_iQcM9c=","tags":{"ref":"188","shop":"telecommunication","addr:country":"BG","name":"VIVACOM Ихтиман, ул. Цар Освободител 109","phone":"+359 72 480 026","opening_hours":"Mo-Fr 09:00-18:00","brand":"Vivacom","brand:wikidata":"Q7937522"},"coordinates":[42.4380594894,23.8160656113]},"tags_mismatch":false,"dist":0},{"osm":false,"atp":{"id":"aMJGx-kyOxhpEvQuOddW3PTlmHo=","tags":{"ref":"189","shop":"telecommunication","addr:country":"BG","name":"VIVACOM Карнобат, ул. България 9","phone":"+359 55 922 036","opening_hours":"Mo-Fr 09:00-18:30","brand":"Vivacom","brand:wikidata":"Q7937522"},"coordinates":[42.6489511971,26.98419914]},"tags_mismatch":false,"dist":0},{"osm":false,"atp":{"id":"vE6fVZG1GG595gDwC8OsKF4KrSQ=","tags":{"ref":"190","shop":"telecommunication","addr:country":"BG","name":"VIVACOM Мадан, ул. Обединение 18","phone":"+359 30 822 035","opening_hours":"Mo-Fr 09:00-18:00","brand":"Vivacom","brand:wikidata":"Q7937522"},"coordinates":[41.5004261733,24.9393157825]},"tags_mismatch":false,"dist":0},{"osm":false,"atp":false,"tags_mismatch":false,"dist":0},{"osm":false,"atp":{"id":"jnNSuALs9_4Qb5r_c18fenb-Gus=","tags":{"ref":"193","shop":"telecommunication","addr:country":"BG","name":"VIVACOM Попово, бул.България № 68А","phone":"+359 60 840 094","opening_hours":"Mo-Fr 09:00-18:30","brand":"Vivacom","brand:wikidata":"Q7937522"},"coordinates":[43.3488821854,26.2276449813]},"tags_mismatch":false,"dist":0},{"osm":false,"atp":{"id":"ab5jhQHKzKtiOYGxqoO9Xc-MSjM=","tags":{"ref":"194","shop":"telecommunication","addr:country":"BG","name":"VIVACOM Велики Преслав, ул. Христо Ботев 2","phone":"+359 53 842 385","opening_hours":"Mo-Fr 09:00-19:00","brand":"Vivacom","brand:wikidata":"Q7937522"},"coordinates":[43.1612835699,26.8146963949]},"tags_mismatch":false,"dist":0},{"osm":false,"atp":{"id":"6HUS859pSBvhWdQSbFWsa1uva4o=","tags":{"ref":"196","shop":"telecommunication","addr:country":"BG","name":"VIVACOM Велико Търново, гр. Велико Търново Мол ул. Оборище 18","phone":"+359 62 600 486","opening_hours":"Mo-Su 10:00-20:00","brand":"Vivacom","brand:wikidata":"Q7937522"},"coordinates":[43.078911112062,25.599860514164]},"tags_mismatch":false,"dist":0},{"osm":false,"atp":{"id":"VwSFarGaUGpabgqSp_y_KVgKTgQ=","tags":{"ref":"197","shop":"telecommunication","addr:country":"BG","name":"VIVACOM Елин Пелин, бул. София 17","phone":"+359 72 566 021","opening_hours":"Mo-Fr 09:00-18:30","brand":"Vivacom","brand:wikidata":"Q7937522"},"coordinates":[42.6709730943,23.5997671153]},"tags_mismatch":false,"dist":0},{"osm":false,"atp":false,"tags_mismatch":false,"dist":0},{"osm":false,"atp":{"id":"18A4FYuQNNoTQOjwQYSym2thuDI=","tags":{"ref":"199","shop":"telecommunication","addr:country":"BG","name":"VIVACOM Нови пазар, ул. Раковска 4","phone":"+359 53 722 029","opening_hours":"Mo-Fr 09:00-18:30","brand":"Vivacom","brand:wikidata":"Q7937522"},"coordinates":[43.34541,27.19285]},"tags_mismatch":false,"dist":0},{"osm":false,"atp":{"id":"dgp3vEMrw3EDWH7BUlOaUi-Leyo=","tags":{"ref":"201","shop":"telecommunication","addr:country":"BG","name":"VIVACOM София, кв. Хаджи Димитър, ул. Резбарска 7Б, Кауфланд","phone":"+359 2 840 0419","opening_hours":"Mo-Su 08:00-21:00","brand":"Vivacom","brand:wikidata":"Q7937522"},"coordinates":[42.7130613743,23.3540627544]},"tags_mismatch":false,"dist":0},{"osm":false,"atp":false,"tags_mismatch":false,"dist":0},{"osm":false,"atp":false,"tags_mismatch":false,"dist":0},{"osm":false,"atp":{"id":"mMTYLtHPiCaiZIhQ0MB2h-hSpQg=","tags":{"ref":"204","shop":"telecommunication","addr:country":"BG","name":"VIVACOM Бяла, ул. Хаджи Димитър 11","phone":"+359 81 772 004","opening_hours":"Mo-Fr 09:00-18:00","brand":"Vivacom","brand:wikidata":"Q7937522"},"coordinates":[43.458801844,25.737629263]},"tags_mismatch":false,"dist":0},{"osm":false,"atp":{"id":"O-S5zDyScU5vixpW5PgByHi03CQ=","tags":{"ref":"205","shop":"telecommunication","addr:country":"BG","name":"VIVACOM Гълъбово, бул. Република 4","phone":"+359 41 860 238","opening_hours":"Mo-Fr 09:00-18:00","brand":"Vivacom","brand:wikidata":"Q7937522"},"coordinates":[42.1424526658,25.8761182887]},"tags_mismatch":false,"dist":0},{"osm":false,"atp":{"id":"tKjqQUsWUou7FTJI7rzu6m2xzvE=","tags":{"ref":"206","shop":"telecommunication","addr:country":"BG","name":"VIVACOM Етрополе, бул. Руски 112","phone":"+359 72 062 049","opening_hours":"Mo-Fr 09:00-18:00","brand":"Vivacom","brand:wikidata":"Q7937522"},"coordinates":[42.8323901917,23.9951045287]},"tags_mismatch":false,"dist":0},{"osm":false,"atp":{"id":"_jE7BJEEC6G7z8um4tWedak3zOw=","tags":{"ref":"207","shop":"telecommunication","addr:country":"BG","name":"VIVACOM Каварна, ул. България 59","phone":"+359 57 082 098","opening_hours":"Mo-Fr 09:00-18:00","brand":"Vivacom","brand:wikidata":"Q7937522"},"coordinates":[43.4359028519,28.338488987]},"tags_mismatch":false,"dist":0},{"osm":false,"atp":{"id":"6bzROwZJ7cWHq3uEZap1SDaJmxk=","tags":{"ref":"208","shop":"telecommunication","addr:country":"BG","name":"VIVACOM Балчик, ул. Черно море 5","phone":"+359 57 972 104","opening_hours":"Mo-Fr 09:00-18:00","brand":"Vivacom","brand:wikidata":"Q7937522"},"coordinates":[43.4057081083,28.1659249561]},"tags_mismatch":false,"dist":0},{"osm":false,"atp":{"id":"lRxpA9hR72EfmWsqY1-hOx_I-0U=","tags":{"ref":"209","shop":"telecommunication","addr:country":"BG","name":"VIVACOM Чирпан, ул. Димо Недев 1","phone":"+359 41 692 045","opening_hours":"Mo-Fr 09:00-18:00","brand":"Vivacom","brand:wikidata":"Q7937522"},"coordinates":[42.1984804403,25.3258207329]},"tags_mismatch":false,"dist":0},{"osm":false,"atp":{"id":"eSZaDeVqgMP2Go_0LC6AYD5kETE=","tags":{"ref":"210","shop":"telecommunication","addr:country":"BG","name":"VIVACOM Раковски, ул. Петър Богдан 75","phone":"+359 31 513 233","opening_hours":"Mo-Fr 09:00-18:00","brand":"Vivacom","brand:wikidata":"Q7937522"},"coordinates":[42.2715503708,24.9419181931]},"tags_mismatch":false,"dist":0},{"osm":false,"atp":{"id":"dJTJdwHa2kxjh6jtGLhq036m7Fw=","tags":{"ref":"212","shop":"telecommunication","addr:country":"BG","name":"VIVACOM Царево, ул.Хан Аспарух №30","phone":"+359 59 052 087","opening_hours":"Mo-Fr 09:00-18:00","brand":"Vivacom","brand:wikidata":"Q7937522"},"coordinates":[42.1713209092,27.8523461241]},"tags_mismatch":false,"dist":0},{"osm":false,"atp":false,"tags_mismatch":false,"dist":0},{"osm":false,"atp":{"id":"lCeUZQ_o_O72QlB8aRIrR2vEu5U=","tags":{"ref":"215","shop":"telecommunication","addr:country":"BG","name":"VIVACOM София, ж.к. Люлин-8, бул. Царица Йоана 70, бл. А","phone":"+359 2 824 1924","opening_hours":"Mo-Fr 09:00-19:00","brand":"Vivacom","brand:wikidata":"Q7937522"},"coordinates":[42.71871,23.25783]},"tags_mismatch":false,"dist":0},{"osm":false,"atp":{"id":"AscC-HPUK8y8maTgE7NNrM-QYlQ=","tags":{"ref":"216","shop":"telecommunication","addr:country":"BG","name":"VIVACOM Бургас, МОЛ Галерия, бул. Янко Комитов 6","phone":"+359 56 589 919","opening_hours":"Mo-Su 10:00-21:00","brand":"Vivacom","brand:wikidata":"Q7937522"},"coordinates":[42.5128834892,27.4538093953]},"tags_mismatch":false,"dist":0},{"osm":false,"atp":false,"tags_mismatch":false,"dist":0},{"osm":false,"atp":{"id":"SGqsgaztuE5XrzlPjlIL3trytsA=","tags":{"ref":"218","shop":"telecommunication","addr:country":"BG","name":"VIVACOM Сандански, ул. Македония 18","phone":"+359 74 630 327","opening_hours":"Mo-Fr 09:00-19:00; Sa 10:00-17:00","brand":"Vivacom","brand:wikidata":"Q7937522"},"coordinates":[41.5626596292,23.278855881]},"tags_mismatch":false,"dist":0},{"osm":false,"atp":false,"tags_mismatch":false,"dist":0},{"osm":false,"atp":{"id":"uxX5QSbTXgTDd9QMaSQgCw88brM=","tags":{"ref":"220","shop":"telecommunication","addr:country":"BG","name":"VIVACOM София, кв. Обеля, ул. Акад. Дмитрий Лихачов 58А","phone":"+359 2 834 1596","opening_hours":"Mo-Fr 09:00-19:00","brand":"Vivacom","brand:wikidata":"Q7937522"},"coordinates":[42.741895446601,23.277193087311]},"tags_mismatch":false,"dist":0},{"osm":false,"atp":false,"tags_mismatch":false,"dist":0},{"osm":false,"atp":false,"tags_mismatch":false,"dist":0},{"osm":false,"atp":{"id":"kiy_ud7uXUYrEmj-ADYpGGHSEsE=","tags":{"ref":"225","shop":"telecommunication","addr:country":"BG","name":"VIVACOM Кнежа, ул.\"Марин Боев\" № 62","phone":"+359 91 326 389","opening_hours":"Mo-Fr 09:00-18:00","brand":"Vivacom","brand:wikidata":"Q7937522"},"coordinates":[43.4955841229,24.0801389643]},"tags_mismatch":false,"dist":0},{"osm":false,"atp":{"id":"Zs1b4XiX30XXkXJ7WeDo9eCH0DI=","tags":{"ref":"139","shop":"telecommunication","addr:country":"BG","name":"VIVACOM Пловдив, ж.к. Тракия бл. 100, Търговския център","phone":"+359 32 210 312","opening_hours":"Mo-Fr 09:00-18:00","brand":"Vivacom","brand:wikidata":"Q7937522"},"coordinates":[42.131843605,24.7955508663]},"tags_mismatch":false,"dist":0},{"osm":false,"atp":false,"tags_mismatch":false,"dist":0},{"osm":false,"atp":{"id":"rKTf653T65Nh92bKZZNlzDpEJ-c=","tags":{"ref":"141","shop":"telecommunication","addr:country":"BG","name":"VIVACOM Разлог, ул. Шейново 8","phone":"+359 74 780 036","opening_hours":"Mo-Fr 09:00-18:30","brand":"Vivacom","brand:wikidata":"Q7937522"},"coordinates":[41.886059,23.466924]},"tags_mismatch":false,"dist":0},{"osm":false,"atp":{"id":"7K9IEKA_pSkHTz_KGLCehfeKXJ8=","tags":{"ref":"142","shop":"telecommunication","addr:country":"BG","name":"VIVACOM Самоков, бул. Искър 111","phone":"+359 72 260 066","opening_hours":"Mo-Fr 09:00-18:00","brand":"Vivacom","brand:wikidata":"Q7937522"},"coordinates":[42.3350316252,23.55612489]},"tags_mismatch":false,"dist":0},{"osm":false,"atp":{"id":"etxKSt6E3R2zzcELLGlsnMX6ot0=","tags":{"ref":"144","shop":"telecommunication","addr:country":"BG","name":"VIVACOM Харманли, бул.България 6","phone":"+359 37 382 003","opening_hours":"Mo-Fr 09:00-18:00","brand":"Vivacom","brand:wikidata":"Q7937522"},"coordinates":[41.9230968083,25.9186432124]},"tags_mismatch":false,"dist":0},{"osm":false,"atp":{"id":"UN5lr6zYiviXvu9W-97JO4nMdyU=","tags":{"ref":"145","shop":"telecommunication","addr:country":"BG","name":"VIVACOM Сливен, бул.\"Георги Данчев\" 30, Кауфланд","phone":"+359 44 668 077","opening_hours":"Mo-Sa 09:00-20:30; Su 09:00-19:30","brand":"Vivacom","brand:wikidata":"Q7937522"},"coordinates":[42.68302,26.34172]},"tags_mismatch":false,"dist":0},{"osm":false,"atp":false,"tags_mismatch":false,"dist":0},{"osm":false,"atp":{"id":"iEoAnGw7Fl64xopr6uueAffnqN0=","tags":{"ref":"147","shop":"telecommunication","addr:country":"BG","name":"VIVACOM Пловдив, ул.Перущица 8, MALL Пловдив","phone":"+359 32 250 292","opening_hours":"Mo-Su 10:00-21:00","brand":"Vivacom","brand:wikidata":"Q7937522"},"coordinates":[42.1416343708,24.7202467203]},"tags_mismatch":false,"dist":0},{"osm":false,"atp":{"id":"wSLcjrTiKTYpy_aJdK-jF9mcv-Q=","tags":{"ref":"149","shop":"telecommunication","addr:country":"BG","name":"VIVACOM Ямбол, ул. Търговска 16","phone":"+359 46 663 055","opening_hours":"Mo-Fr 09:00-19:00; Sa 10:00-17:00","brand":"Vivacom","brand:wikidata":"Q7937522"},"coordinates":[42.48281,26.50768]},"tags_mismatch":false,"dist":0},{"osm":false,"atp":{"id":"uQUHgQyW9Lw93faydynAFZASxeo=","tags":{"ref":"150","shop":"telecommunication","addr:country":"BG","name":"VIVACOM Бургас, бул. Транспортна Бургас, Плаза МОЛ","phone":"+359 56 590 699","opening_hours":"Mo-Su 10:00-21:00","brand":"Vivacom","brand:wikidata":"Q7937522"},"coordinates":[42.5303194511,27.4569320226]},"tags_mismatch":false,"dist":0},{"osm":false,"atp":{"id":"ovxnfprYfd6C-NAUATJ_9tOGU2g=","tags":{"ref":"154","shop":"telecommunication","addr:country":"BG","name":"VIVACOM Берковица, ул. Николаевска 4","phone":"+359 95 388 622","opening_hours":"Mo-Fr 09:00-18:00","brand":"Vivacom","brand:wikidata":"Q7937522"},"coordinates":[43.2378049667,23.1256250786]},"tags_mismatch":false,"dist":0},{"osm":false,"atp":{"id":"gcRmo8CZuV8ZlyjVaonuJHX_2R4=","tags":{"ref":"155","shop":"telecommunication","addr:country":"BG","name":"VIVACOM Видин, бул. Панония 41, хипермаркет Кауфланд","phone":"+359 94 600 310","opening_hours":"Mo-Su 09:00-20:00","brand":"Vivacom","brand:wikidata":"Q7937522"},"coordinates":[43.9999015421,22.869756819]},"tags_mismatch":false,"dist":0},{"osm":false,"atp":{"id":"C-iO3tkI-d00fOGCV11bBzbppgE=","tags":{"ref":"156","shop":"telecommunication","addr:country":"BG","name":"VIVACOM Габрово, бул. Могильов 47, Мол Терра","phone":"+359 66 800 032","opening_hours":"Mo-Su 10:00-20:00","brand":"Vivacom","brand:wikidata":"Q7937522"},"coordinates":[42.887012962,25.312925623]},"tags_mismatch":false,"dist":0},{"osm":false,"atp":{"id":"oPMu-x-UsQibQS6xDUG3ZR_3NGA=","tags":{"ref":"157","shop":"telecommunication","addr:country":"BG","name":"VIVACOM Перник, кв. Изток, ул. Ленински проспект 17","phone":"+359 76 671 012","opening_hours":"Mo-Fr 09:00-18:00","brand":"Vivacom","brand:wikidata":"Q7937522"},"coordinates":[42.6094931789,23.0994799106]},"tags_mismatch":false,"dist":0},{"osm":false,"atp":{"id":"N3rYEOTDa3o04YEh_YmPGf9uNfo=","tags":{"ref":"158","shop":"telecommunication","addr:country":"BG","name":"VIVACOM Казанлък, бул. Ал. Батенберг 1, Търг. комплекс ГУМ, търг. обекти No 12 и 14","phone":"+359 431 620 11","opening_hours":"Mo-Fr 09:00-19:00","brand":"Vivacom","brand:wikidata":"Q7937522"},"coordinates":[42.61855,25.39412]},"tags_mismatch":false,"dist":0},{"osm":false,"atp":false,"tags_mismatch":false,"dist":0},{"osm":false,"atp":{"id":"0nQ2-psZE8DOHdl2Gw0BGGxia0A=","tags":{"ref":"162","shop":"telecommunication","addr:country":"BG","name":"VIVACOM Лом, ул.Славянска 7 В","phone":"+359 97 161 311","opening_hours":"Mo-Fr 09:00-18:30","brand":"Vivacom","brand:wikidata":"Q7937522"},"coordinates":[43.81897,23.23843]},"tags_mismatch":false,"dist":0},{"osm":false,"atp":{"id":"h9k15pV1uskKLRahu8o_vk7lCyI=","tags":{"ref":"164","shop":"telecommunication","addr:country":"BG","name":"VIVACOM Пирдоп, ул. Цар Освободител бл. Б2","phone":"+359 71 815 810","opening_hours":"Mo-Fr 09:00-18:00","brand":"Vivacom","brand:wikidata":"Q7937522"},"coordinates":[42.69979,24.17828]},"tags_mismatch":false,"dist":0},{"osm":false,"atp":{"id":"phbXzbER7iGCFyBrVRpNUFcndW0=","tags":{"ref":"165","shop":"telecommunication","addr:country":"BG","name":"VIVACOM Гоце Делчев, ул. Кавала 1","phone":"+359 75 160 400","opening_hours":"Mo-Fr 09:00-19:00; Sa 10:00-17:00","brand":"Vivacom","brand:wikidata":"Q7937522"},"coordinates":[41.5710794647,23.7286582225]},"tags_mismatch":false,"dist":0},{"osm":false,"atp":{"id":"NEmAbRZk1JUoeaYFTvNBB--UUsI=","tags":{"ref":"167","shop":"telecommunication","addr:country":"BG","name":"VIVACOM Варна, кв. Аспарухово ул. Св.Св. Кирил и Методий 41","phone":"+359 52 370 105","opening_hours":"Mo-Fr 09:00-18:00","brand":"Vivacom","brand:wikidata":"Q7937522"},"coordinates":[43.1805,27.89795]},"tags_mismatch":false,"dist":0},{"osm":false,"atp":{"id":"3pB2eVQv1g9XwbWi1QdzRUeW85M=","tags":{"ref":"168","shop":"telecommunication","addr:country":"BG","name":"VIVACOM Русе, бул. Липник 121, Мол Русе","phone":"+359 82 890 404","opening_hours":"Mo-Su 10:00-20:00","brand":"Vivacom","brand:wikidata":"Q7937522"},"coordinates":[43.8520269,25.9887328]},"tags_mismatch":false,"dist":0},{"osm":false,"atp":{"id":"hNHXX0zgRilLj5YunJZt8ZxO4ds=","tags":{"ref":"169","shop":"telecommunication","addr:country":"BG","name":"VIVACOM Първомай, ул. Димитър Благоев 1","phone":"+359 33 662 018","opening_hours":"Mo-Fr 09:00-18:00","brand":"Vivacom","brand:wikidata":"Q7937522"},"coordinates":[42.0996336083,25.2233049807]},"tags_mismatch":false,"dist":0},{"osm":false,"atp":false,"tags_mismatch":false,"dist":0},{"osm":false,"atp":{"id":"0bmG2UJgT1JChuBlcRhjmO44ZbM=","tags":{"ref":"172","shop":"telecommunication","addr:country":"BG","name":"VIVACOM Кюстендил, ул. Демокрация 47","phone":"+359 78 520 610","opening_hours":"Mo-Fr 09:00-19:00","brand":"Vivacom","brand:wikidata":"Q7937522"},"coordinates":[42.2805,22.68983]},"tags_mismatch":false,"dist":0},{"osm":false,"atp":{"id":"qzhtBqxccswZZEGjRBDwrxeRZ7w=","tags":{"ref":"173","shop":"telecommunication","addr:country":"BG","name":"VIVACOM Стамболийски, бул. Търговски 60","phone":"+359 33 961 013","opening_hours":"Mo-Fr 09:00-18:00","brand":"Vivacom","brand:wikidata":"Q7937522"},"coordinates":[42.13248153,24.5332324234]},"tags_mismatch":false,"dist":0},{"osm":false,"atp":{"id":"L7RqjlLsivFoD5U4J-7A2Bt9uGg=","tags":{"ref":"174","shop":"telecommunication","addr:country":"BG","name":"VIVACOM Крумовград, ул. Съединение 8","phone":"+359 36 412 512","opening_hours":"Mo-Fr 09:00-18:00","brand":"Vivacom","brand:wikidata":"Q7937522"},"coordinates":[41.46953,25.65465]},"tags_mismatch":false,"dist":0},{"osm":false,"atp":{"id":"IPCP6fggb_IZcpLkHbNeeIKvRSE=","tags":{"ref":"175","shop":"telecommunication","addr:country":"BG","name":"VIVACOM Левски, ул. Ал. Стамболийски бл. Люляк 3","phone":"+359 65 080 000","opening_hours":"Mo-Fr 09:00-18:00","brand":"Vivacom","brand:wikidata":"Q7937522"},"coordinates":[43.3545704917,25.13986234]},"tags_mismatch":false,"dist":0},{"osm":false,"atp":false,"tags_mismatch":false,"dist":0},{"osm":false,"atp":{"id":"HfRy1i5VA-6rKD9XwFUHVvAYpHU=","tags":{"ref":"180","shop":"telecommunication","addr:country":"BG","name":"VIVACOM Айтос, ул. Цар Освободител 11","phone":"+359 55 826 100","opening_hours":"Mo-Fr 09:00-19:00","brand":"Vivacom","brand:wikidata":"Q7937522"},"coordinates":[42.70422,27.25159]},"tags_mismatch":false,"dist":0},{"osm":false,"atp":false,"tags_mismatch":false,"dist":0},{"osm":false,"atp":{"id":"0x5vSZp6Ano1kPOT_DF4rj4UrPk=","tags":{"ref":"182","shop":"telecommunication","addr:country":"BG","name":"VIVACOM Кубрат, пл. Възраждане 2","phone":"+359 84 872 019","opening_hours":"Mo-Fr 09:00-18:00","brand":"Vivacom","brand:wikidata":"Q7937522"},"coordinates":[43.7975989083,26.5001532464]},"tags_mismatch":false,"dist":0},{"osm":false,"atp":false,"tags_mismatch":false,"dist":0},{"osm":false,"atp":false,"tags_mismatch":false,"dist":0},{"osm":false,"atp":{"id":"B-ASQyvXDdtPvjxmPhqiM-iORQE=","tags":{"ref":"235","shop":"telecommunication","addr:country":"BG","name":"VIVACOM Пловдив, ул. 6-ти септември №150","phone":"+359 32 660 170","opening_hours":"Mo-Fr 09:00-19:00","brand":"Vivacom","brand:wikidata":"Q7937522"},"coordinates":[42.1509417,24.7456486]},"tags_mismatch":false,"dist":0},{"osm":false,"atp":false,"tags_mismatch":false,"dist":0},{"osm":false,"atp":false,"tags_mismatch":false,"dist":0},{"osm":false,"atp":{"id":"70F_9P8zNp5e1EzS7e_nr63-4tc=","tags":{"ref":"560","shop":"telecommunication","addr:country":"BG","name":"VIVACOM София, Околовръстен път 216, Ринг МОЛ","phone":"+359 2 862 2799","opening_hours":"Mo-Su 10:00-22:00","brand":"Vivacom","brand:wikidata":"Q7937522"},"coordinates":[42.6242974,23.3525568]},"tags_mismatch":false,"dist":0},{"osm":false,"atp":{"id":"ahRdFZkx-7leLS_vqFtRoIBe_gc=","tags":{"ref":"620","shop":"telecommunication","addr:country":"BG","name":"VIVACOM Павликени, пл. Свобода 37","phone":"+359 61 052 102","opening_hours":"Mo-Fr 09:00-18:00","brand":"Vivacom","brand:wikidata":"Q7937522"},"coordinates":[43.2387332,25.3065925]},"tags_mismatch":false,"dist":0},{"osm":false,"atp":{"id":"JPvZykyJqr6bJ_yfDQt6WwgKsYk=","tags":{"ref":"740","shop":"telecommunication","addr:country":"BG","name":"VIVACOM Аксаково, ул. Петко Войвода №2В - търг. Център","phone":"+359 52 762 061","opening_hours":"Mo-Fr 09:00-18:00","brand":"Vivacom","brand:wikidata":"Q7937522"},"coordinates":[43.258294,27.8152167]},"tags_mismatch":false,"dist":0},{"osm":false,"atp":false,"tags_mismatch":false,"dist":0},{"osm":false,"atp":{"id":"9D5qWzO1wtZvFOsos7QnZrU_MzY=","tags":{"ref":"2360","shop":"telecommunication","addr:country":"BG","name":"VIVACOM Благоевград, Благоевград, ул.Тодор Александров 24","phone":"+359 73 870 788","opening_hours":"Mo-Fr 09:00-19:00; Sa 10:00-17:00","brand":"Vivacom","brand:wikidata":"Q7937522"},"coordinates":[42.019028924712,23.099884696716]},"tags_mismatch":false,"dist":0},{"osm":false,"atp":false,"tags_mismatch":false,"dist":0},{"osm":false,"atp":{"id":"kryqwqmBU5Ulbs9CSBWsgpUnRwI=","tags":{"ref":"640","shop":"telecommunication","addr:country":"BG","name":"VIVACOM Плевен, Панорама МОЛ пл. Миндилков № 1","phone":"+359 64 801 288","opening_hours":"Mo-Su 10:00-21:00","brand":"Vivacom","brand:wikidata":"Q7937522"},"coordinates":[43.419582767898,24.614127874374]},"tags_mismatch":false,"dist":0},{"osm":false,"atp":false,"tags_mismatch":false,"dist":0},{"osm":false,"atp":{"id":"VCrEjRD6YGLHwUDz7qLRO6Ch7zg=","tags":{"ref":"680","shop":"telecommunication","addr:country":"BG","name":"VIVACOM Тервел, ул. Хан Аспарух № 32","phone":"+359 57 512 005","brand":"Vivacom","brand:wikidata":"Q7937522"},"coordinates":[43.7449871,27.4110196]},"tags_mismatch":false,"dist":0},{"osm":false,"atp":{"id":"kg_5nDr91XNAR2Xm6SUwPhZ5jFY=","tags":{"ref":"717","shop":"telecommunication","addr:country":"BG","name":"Техномаркет хоум Варна, бул. Андрей Сахаров 2, Гранд МОЛ Варна","phone":"+359 52 702 400","opening_hours":"ед 10:00-21:00","brand":"Vivacom","brand:wikidata":"Q7937522"},"coordinates":[43.216675007371,27.896468620029]},"tags_mismatch":false,"dist":0},{"osm":false,"atp":{"id":"OwGvzRYPzlLusfg8_Ry-gJK2QbQ=","tags":{"ref":"741","shop":"telecommunication","addr:country":"BG","name":"VIVACOM Русе, кв. Дружба, бул. Хр. Ботев № 38, Кауфланд","phone":"+359 82 240 036","opening_hours":"Mo-Su 08:00-21:00","brand":"Vivacom","brand:wikidata":"Q7937522"},"coordinates":[43.8331685,25.9683769]},"tags_mismatch":false,"dist":0},{"osm":false,"atp":false,"tags_mismatch":false,"dist":0},{"osm":false,"atp":false,"tags_mismatch":false,"dist":0},{"osm":false,"atp":{"id":"sEW01xFuIj5FPJwsYElmsZ9tbxE=","tags":{"ref":"1469","shop":"telecommunication","addr:country":"BG","name":"Lafka - САМОКОВ, гр.Самоков, бул.Искър, до маг. На Мтел в ПИ-65231.908.12","brand":"Vivacom","brand:wikidata":"Q7937522"},"coordinates":[42.3322016,23.5564578]},"tags_mismatch":false,"dist":0},{"osm":false,"atp":false,"tags_mismatch":false,"dist":0},{"osm":false,"atp":false,"tags_mismatch":false,"dist":0},{"osm":false,"atp":{"id":"MLdMaBj8u4GllmxwjMERFwEP3m0=","tags":{"ref":"2180","shop":"telecommunication","addr:country":"BG","name":"VIVACOM Варна, кв. Виница, ул. Димитър Солунски; ТЦ обект 4","phone":"+359 52 589 088","opening_hours":"Mo-Fr 09:00-18:00","brand":"Vivacom","brand:wikidata":"Q7937522"},"coordinates":[43.2462487,27.9793236]},"tags_mismatch":false,"dist":0},{"osm":false,"atp":false,"tags_mismatch":false,"dist":0},{"osm":false,"atp":{"id":"zHzkQ67bGZNtoU1HpvELq_HR5WQ=","tags":{"ref":"2319","shop":"telecommunication","addr:country":"BG","name":"VIVACOM София, София, бул. Арсеналски 2, Парк Център София","phone":"+359 2 964 3093","opening_hours":"Mo-Su 10:00-21:00","brand":"Vivacom","brand:wikidata":"Q7937522"},"coordinates":[42.6787145,23.3202799]},"tags_mismatch":false,"dist":0},{"osm":false,"atp":{"id":"QPObnWYS8qmy9AftCVakNcoAcdw=","tags":{"ref":"2322","shop":"telecommunication","addr:country":"BG","name":"VIVACOM София, София, ул.Г.С.Раковски 113","phone":"+359 2 981 9268","opening_hours":"Mo-Fr 09:00-19:00","brand":"Vivacom","brand:wikidata":"Q7937522"},"coordinates":[42.7599677,23.2054199]},"tags_mismatch":false,"dist":0},{"osm":false,"atp":{"id":"YUk4jgYvEz5QVctm7yfrfSBOU2A=","tags":{"ref":"2323","shop":"telecommunication","addr:country":"BG","name":"VIVACOM София, София, ж.к. Дружба 1, ул. Иван Арабаджията, до бл. 18-пазара","phone":"+359 2 879 4028","opening_hours":"Mo-Fr 09:00-19:00","brand":"Vivacom","brand:wikidata":"Q7937522"},"coordinates":[42.667911189391,23.395751126522]},"tags_mismatch":false,"dist":0},{"osm":false,"atp":false,"tags_mismatch":false,"dist":0},{"osm":false,"atp":{"id":"FOkjGO37V9bz1IScNXFuw983GWI=","tags":{"ref":"2240","shop":"telecommunication","addr:country":"BG","name":"VIVACOM Варна, бул. Сливница №185, МОЛ Делта Планет","phone":"+359 52 589 277","opening_hours":"Mo-Su 10:00-21:00","brand":"Vivacom","brand:wikidata":"Q7937522"},"coordinates":[43.22692807176,27.875779867172]},"tags_mismatch":false,"dist":0},{"osm":false,"atp":{"id":"wq6EwWgcdZJKCecEBOcJJQycdWI=","tags":{"ref":"2281","shop":"telecommunication","addr:country":"BG","name":"VIVACOM Хасково, ул. Отец Паисий 31","phone":"+359 38 660 064","opening_hours":"Mo-Fr 09:00-19:00; Sa 10:00-17:00","brand":"Vivacom","brand:wikidata":"Q7937522"},"coordinates":[41.9317697,25.5542963]},"tags_mismatch":false,"dist":0},{"osm":false,"atp":{"id":"b97olgjql3KmBRHWT22vgjTIEsg=","tags":{"ref":"2327","shop":"telecommunication","addr:country":"BG","name":"VIVACOM София, София, кв. Овча Купел 1 ул. &amp;amp;quot;Монтевидео&amp;amp;quot; бл. 419, до трафопоста","phone":"+359 2 956 0092","opening_hours":"Mo-Fr 09:00-19:30; Sa 10:00-17:00","brand":"Vivacom","brand:wikidata":"Q7937522"},"coordinates":[42.6723056,23.2515117]},"tags_mismatch":false,"dist":0},{"osm":false,"atp":{"id":"_r-vnfdhhFF1By0XI3jM5WvT024=","tags":{"ref":"2340","shop":"telecommunication","addr:country":"BG","name":"VIVACOM Варна, Гранд МОЛ Варна, ул. Акад. Сахаров № 2","phone":"+359 52 702 311","opening_hours":"Mo-Su 10:00-21:00","brand":"Vivacom","brand:wikidata":"Q7937522"},"coordinates":[43.103013503063,27.750062652344]},"tags_mismatch":false,"dist":0},{"osm":false,"atp":false,"tags_mismatch":false,"dist":0},{"osm":false,"atp":{"id":"iHuA59etSFC0BJhckcoTodvRHp4=","tags":{"ref":"2343","shop":"telecommunication","addr:country":"BG","name":"VIVACOM Костенец, Костенец, ул.Търговска 89","phone":"+359 71 422 404","opening_hours":"Mo-Fr 09:00-18:30","brand":"Vivacom","brand:wikidata":"Q7937522"},"coordinates":[42.308856089128,23.859676274893]},"tags_mismatch":false,"dist":0},{"osm":false,"atp":{"id":"DjocclcK4bb7Af-snARX3PKWfTw=","tags":{"ref":"2380","shop":"telecommunication","addr:country":"BG","name":"VIVACOM Свищов, Свищов, ул.Цар Освободител № 86","phone":"+359 63 164 400","opening_hours":"Mo-Fr 09:00-18:30","brand":"Vivacom","brand:wikidata":"Q7937522"},"coordinates":[43.61820067426,25.348807817671]},"tags_mismatch":false,"dist":0},{"osm":false,"atp":false,"tags_mismatch":false,"dist":0},{"osm":false,"atp":{"id":"hcuNyYPdnktgtXUluF-xrtpSVl8=","tags":{"ref":"2383","shop":"telecommunication","addr:country":"BG","name":"VIVACOM Сливен, Сливен, пл.Ал.Стамболийски №1","phone":"+359 44 630 055","opening_hours":"Mo-Fr 09:00-19:00; Sa 10:00-17:00","brand":"Vivacom","brand:wikidata":"Q7937522"},"coordinates":[42.679532755666,26.321313301271]},"tags_mismatch":false,"dist":0},{"osm":false,"atp":{"id":"2PLU7pueflVHmnJB4KkaDzWt3GY=","tags":{"ref":"2384","shop":"telecommunication","addr:country":"BG","name":"VIVACOM Кърджали, Кърджали, бул.Републиканска №31","phone":"+359 36 161 058","opening_hours":"Mo-Fr 09:00-18:00; Sa 10:00-17:00","brand":"Vivacom","brand:wikidata":"Q7937522"},"coordinates":[41.644609793317,25.367249854321]},"tags_mismatch":false,"dist":0},{"osm":false,"atp":{"id":"8pwm4120TpsM642wyV4PovcUw04=","tags":{"ref":"1800","shop":"telecommunication","addr:country":"BG","name":"VIVACOM Търговище, ул. Сюрен 1","phone":"+359 60 161 751","opening_hours":"Mo-Fr 09:00-19:00","brand":"Vivacom","brand:wikidata":"Q7937522"},"coordinates":[43.243002706829,26.562259197235]},"tags_mismatch":false,"dist":0},{"osm":false,"atp":{"id":"gbb3m5JHOS312ccTKsQdUCttLUA=","tags":{"ref":"1961","shop":"telecommunication","addr:country":"BG","name":"VIVACOM Пловдив, ул. ”Кап. Райчо” № 56, ет.1, обект 1-69 ТЦ Гранд","phone":"+359 32 660 610","opening_hours":"Mo-Fr 09:00-19:00","brand":"Vivacom","brand:wikidata":"Q7937522"},"coordinates":[42.1417052,24.7563447]},"tags_mismatch":false,"dist":0},{"osm":false,"atp":{"id":"7gwHuus0zZZpCTUGBNTARy8gDCs=","tags":{"ref":"2120","shop":"telecommunication","addr:country":"BG","name":"VIVACOM Варна, кв. Бриз-юг, Кауфланд, бул. &amp;amp;quot;Осми приморски полк&amp;amp;quot;","phone":"+359 52 589 250","opening_hours":"Mo-Sa 08:00-21:00; Su 09:00-20:00","brand":"Vivacom","brand:wikidata":"Q7937522"},"coordinates":[43.2263339,27.950121]},"tags_mismatch":false,"dist":0},{"osm":false,"atp":false,"tags_mismatch":false,"dist":0},{"osm":false,"atp":false,"tags_mismatch":false,"dist":0},{"osm":false,"atp":false,"tags_mismatch":false,"dist":0},{"osm":false,"atp":{"id":"MDWaaA_R-hxcHu1ldN1iegKAUGw=","tags":{"ref":"2291","shop":"telecommunication","addr:country":"BG","name":"VIVACOM Враца, Враца, ул. Никола Войводов 10","phone":"+359 92 630 436","opening_hours":"Mo-Fr 09:00-19:00; Sa 10:00-17:00","brand":"Vivacom","brand:wikidata":"Q7937522"},"coordinates":[43.2046152,23.55171]},"tags_mismatch":false,"dist":0},{"osm":false,"atp":{"id":"yJ1AXdURiwP7446BOwbRWnTD1CM=","tags":{"ref":"2299","shop":"telecommunication","addr:country":"BG","name":"VIVACOM Горна Оряховица, Горна Оряховица, ул.Св.Княз Борис І №1 вход А-Б","phone":"+359 61 860 525","opening_hours":"Mo-Fr 09:00-19:00; Sa 10:00-17:00","brand":"Vivacom","brand:wikidata":"Q7937522"},"coordinates":[43.1223192,25.6909731]},"tags_mismatch":false,"dist":0},{"osm":false,"atp":false,"tags_mismatch":false,"dist":0},{"osm":false,"atp":false,"tags_mismatch":false,"dist":0},{"osm":false,"atp":{"id":"d5tRWeCJhlIsx6HmN148Jm86lTo=","tags":{"ref":"2320","shop":"telecommunication","addr:country":"BG","name":"VIVACOM София, София, бул.Акад.Борис Стефанов 20","phone":"+359 2 962 2321","opening_hours":"Mo-Fr 09:00-19:00","brand":"Vivacom","brand:wikidata":"Q7937522"},"coordinates":[42.6437774,23.3414705]},"tags_mismatch":false,"dist":0},{"osm":false,"atp":false,"tags_mismatch":false,"dist":0},{"osm":false,"atp":{"id":"zIkmQ-XuRQkoVUbGcMvxDUnTkho=","tags":{"ref":"1940","shop":"telecommunication","addr:country":"BG","name":"VIVACOM София, ж.к. Хаджи Димитър, ул. Макгахан, Пазар - павилион 45/3","phone":"+359 2 967 6370","opening_hours":"Mo-Fr 09:00-19:00","brand":"Vivacom","brand:wikidata":"Q7937522"},"coordinates":[42.706939126393,23.350871754631]},"tags_mismatch":false,"dist":0},{"osm":false,"atp":{"id":"S8KtxgQqRrLvaOjrXwPromqu9wc=","tags":{"ref":"2295","shop":"telecommunication","addr:country":"BG","name":"VIVACOM Исперих, Исперих, ул.Васил Левски № 36","phone":"+359 84 312 241","opening_hours":"Mo-Fr 09:00-18:00","brand":"Vivacom","brand:wikidata":"Q7937522"},"coordinates":[43.7200925,26.8310076]},"tags_mismatch":false,"dist":0},{"osm":false,"atp":{"id":"j1oRjn7x4fiWnKDmT59Zqe5lAgw=","tags":{"ref":"2301","shop":"telecommunication","addr:country":"BG","name":"VIVACOM Червен Бряг, Червен бряг, ул.Търговска 2","phone":"+359 65 992 400","opening_hours":"Mo-Fr 09:00-18:00","brand":"Vivacom","brand:wikidata":"Q7937522"},"coordinates":[43.2814333,24.0805172]},"tags_mismatch":false,"dist":0},{"osm":false,"atp":false,"tags_mismatch":false,"dist":0},{"osm":false,"atp":{"id":"DMSmO4trMfajsIH3yhs7EmxzleQ=","tags":{"ref":"1880","shop":"telecommunication","addr:country":"BG","name":"VIVACOM Монтана, бул. 3 март № 139А Кауфланд","phone":"+359 96 300 108","opening_hours":"Mo-Sa 09:00-20:00; Su 09:00-19:00","brand":"Vivacom","brand:wikidata":"Q7937522"},"coordinates":[43.4196418,23.2273101]},"tags_mismatch":false,"dist":0},{"osm":false,"atp":{"id":"dSrpPfF0fsiPf5Hayrk38-_gWlo=","tags":{"ref":"1920","shop":"telecommunication","addr:country":"BG","name":"VIVACOM Пловдив, Пловдив МОЛ, Марково тепе, бул. Руски №54","phone":"+359 32 207 293","opening_hours":"Mo-Su 10:00-21:00","brand":"Vivacom","brand:wikidata":"Q7937522"},"coordinates":[42.1466376,24.7410831]},"tags_mismatch":false,"dist":0},{"osm":false,"atp":false,"tags_mismatch":false,"dist":0},{"osm":false,"atp":{"id":"ZkhljYMK0k-bMsjFZMVBaQYGF90=","tags":{"ref":"2284","shop":"telecommunication","addr:country":"BG","name":"VIVACOM Козлодуй, Козлoдуй, ул. Христо Ботев 15","phone":"+359 97 380 084","opening_hours":"Mo-Fr 09:00-18:30","brand":"Vivacom","brand:wikidata":"Q7937522"},"coordinates":[43.7784258,23.7271958]},"tags_mismatch":false,"dist":0},{"osm":false,"atp":{"id":"1I7nJCis44PpuxaFVfnjErrY_Es=","tags":{"ref":"2286","shop":"telecommunication","addr:country":"BG","name":"VIVACOM Банско, Банско, пл.Никола Вапцаров № 6","phone":"+359 74 984 131","opening_hours":"Mo-Fr 09:00-18:00","brand":"Vivacom","brand:wikidata":"Q7937522"},"coordinates":[41.8370995,23.4882126]},"tags_mismatch":false,"dist":0},{"osm":false,"atp":{"id":"zI8ahm35wynvMTYLr8uGvHCJ7GE=","tags":{"ref":"2287","shop":"telecommunication","addr:country":"BG","name":"VIVACOM Свиленград, Свиленград, бул.България 87","phone":"+359 37 977 721","opening_hours":"Mo-Fr 09:00-18:00","brand":"Vivacom","brand:wikidata":"Q7937522"},"coordinates":[41.7665444,26.1993601]},"tags_mismatch":false,"dist":0},{"osm":false,"atp":{"id":"WOl0N96I-KSyTFBHCh5pBZhVu98=","tags":{"ref":"2288","shop":"telecommunication","addr:country":"BG","name":"VIVACOM Своге, Своге, ул Цар Симеон 18 B","phone":"+359 72 622 300","opening_hours":"Mo-Fr 09:00-18:00","brand":"Vivacom","brand:wikidata":"Q7937522"},"coordinates":[42.9607091,23.3454636]},"tags_mismatch":false,"dist":0},{"osm":false,"atp":{"id":"HYF0HRFQwauJbvhzAVHzcIKRfIk=","tags":{"ref":"2290","shop":"telecommunication","addr:country":"BG","name":"VIVACOM Казанлък, Казанлък, ул. Генерал Скобелев 8","phone":"+359 431 650 30","opening_hours":"Mo-Fr 09:00-19:00; Sa 10:00-17:00","brand":"Vivacom","brand:wikidata":"Q7937522"},"coordinates":[42.6201334,25.3914755]},"tags_mismatch":false,"dist":0},{"osm":false,"atp":false,"tags_mismatch":false,"dist":0},{"osm":false,"atp":{"id":"oSG-Lu7eVf9-ZWCmqvofRY-ai-Y=","tags":{"ref":"2294","shop":"telecommunication","addr:country":"BG","name":"VIVACOM Севлиево, Севлиево, ул.Христо Спиридонов 9","phone":"+359 67 581 717","opening_hours":"Mo-Fr 09:00-19:00; Sa 10:00-17:00","brand":"Vivacom","brand:wikidata":"Q7937522"},"coordinates":[43.02651,25.10364]},"tags_mismatch":false,"dist":0},{"osm":false,"atp":{"id":"F0vO69FnfrlSa7H8H8R-CmCur74=","tags":{"ref":"2282","shop":"telecommunication","addr:country":"BG","name":"VIVACOM Шумен, ул. Любен Каравелов №1","phone":"+359 54 830 880","opening_hours":"Mo-Fr 09:00-19:00","brand":"Vivacom","brand:wikidata":"Q7937522"},"coordinates":[43.2712398,26.9361286]},"tags_mismatch":false,"dist":0},{"osm":false,"atp":{"id":"oxnl_M35D7pcXsSx36QFnZHK57E=","tags":{"ref":"2297","shop":"telecommunication","addr:country":"BG","name":"VIVACOM Смолян, Смолян, бул.България № 97","phone":"+359 30 168 666","opening_hours":"Mo-Fr 09:00-19:00","brand":"Vivacom","brand:wikidata":"Q7937522"},"coordinates":[41.5804512,24.6884446]},"tags_mismatch":false,"dist":0},{"osm":false,"atp":false,"tags_mismatch":false,"dist":0},{"osm":false,"atp":{"id":"DPa1f-MvhTPwQeiya-5BzPxR0tU=","tags":{"ref":"2300","shop":"telecommunication","addr:country":"BG","name":"VIVACOM Мездра, Мездра, ул.Хр.Ботев 28","phone":"+359 91 092 332","opening_hours":"Mo-Fr 09:00-18:30","brand":"Vivacom","brand:wikidata":"Q7937522"},"coordinates":[43.1425798,23.7138922]},"tags_mismatch":false,"dist":0},{"osm":false,"atp":false,"tags_mismatch":false,"dist":0},{"osm":false,"atp":{"id":"o6JhvBEwloOojJJmY_-3iJa0Yes=","tags":{"ref":"2303","shop":"telecommunication","addr:country":"BG","name":"VIVACOM Велико Търново, Велико Търново, ул Васил Левски 12 и 12 А","phone":"+359 62 600 481","opening_hours":"Mo-Fr 09:00-19:00; Sa 10:00-17:00","brand":"Vivacom","brand:wikidata":"Q7937522"},"coordinates":[43.0798547,25.6291585]},"tags_mismatch":false,"dist":0},{"osm":false,"atp":{"id":"zJPIyRlaaz1RKMnurQEVcHTOcJI=","tags":{"ref":"2304","shop":"telecommunication","addr:country":"BG","name":"VIVACOM Варна, Варна, бул.Владислав Варненчик 18","phone":"+359 52 640 424","opening_hours":"Mo-Fr 09:00-19:00; Sa 10:00-17:00","brand":"Vivacom","brand:wikidata":"Q7937522"},"coordinates":[43.2071372,27.9104453]},"tags_mismatch":false,"dist":0},{"osm":false,"atp":{"id":"3vXgcGOpVVamgrk6_qqlOD8up_M=","tags":{"ref":"2305","shop":"telecommunication","addr:country":"BG","name":"VIVACOM Добрич, бул. 25 ти Септември № 70 &quot;Търговски парк Добрич&quot;","phone":"+359 58 600 228","opening_hours":"Mo-Su 10:00-20:00","brand":"Vivacom","brand:wikidata":"Q7937522"},"coordinates":[43.579364993107,27.830671335927]},"tags_mismatch":false,"dist":0},{"osm":false,"atp":{"id":"ho3nmOatXbReQBLYOGCoyVyyIq8=","tags":{"ref":"2306","shop":"telecommunication","addr:country":"BG","name":"VIVACOM Варна, Варна, кв. Възраждане ул.Република 60, Кауфланд","phone":"+359 52 599 630","opening_hours":"Mo-Sa 08:00-21:00; Su 09:00-20:00","brand":"Vivacom","brand:wikidata":"Q7937522"},"coordinates":[43.222816091266,27.923097320312]},"tags_mismatch":false,"dist":0},{"osm":false,"atp":false,"tags_mismatch":false,"dist":0},{"osm":false,"atp":{"id":"oItsoCfPMfSCfdE1_pnpNjr2y3w=","tags":{"ref":"2310","shop":"telecommunication","addr:country":"BG","name":"VIVACOM Варна, Варна, ул. Ян Палах №10,  Варна Палас Център","phone":"+359 52 334 435","opening_hours":"Mo-Fr 09:00-19:00; Sa 10:00-17:00","brand":"Vivacom","brand:wikidata":"Q7937522"},"coordinates":[43.2197812,27.9146633]},"tags_mismatch":false,"dist":0},{"osm":false,"atp":false,"tags_mismatch":false,"dist":0},{"osm":false,"atp":false,"tags_mismatch":false,"dist":0},{"osm":false,"atp":{"id":"KxssVtj-YqD-7zJRIYj_EMwHVAA=","tags":{"ref":"5280","shop":"telecommunication","addr:country":"BG","name":"VIVACOM Видин, Видин, ул. Железарска № 2","phone":"+359 94 601 515","opening_hours":"Mo-Fr 09:00-18:00","brand":"Vivacom","brand:wikidata":"Q7937522"},"coordinates":[43.985153057051,22.875641294235]},"tags_mismatch":false,"dist":0},{"osm":false,"atp":false,"tags_mismatch":false,"dist":0},{"osm":false,"atp":{"id":"uxFfzqfyqoF_qb1bHMIpxjStV34=","tags":{"ref":"5307","shop":"telecommunication","addr:country":"BG","name":"VIVACOM Плевен, Плевен, пл. Възраждане 3","phone":"+359 64 803 305","opening_hours":"Mo-Fr 09:00-19:00","brand":"Vivacom","brand:wikidata":"Q7937522"},"coordinates":[43.407216925874,24.620827688995]},"tags_mismatch":false,"dist":0},{"osm":false,"atp":{"id":"JyiiW8PvZ_-PWfrWYsWcK9iJCvY=","tags":{"ref":"5285","shop":"telecommunication","addr:country":"BG","name":"VIVACOM Троян, Троян, ул. Васил Левски 102","phone":"+359 67 054 500","opening_hours":"Mo-Fr 09:00-19:00; Sa 10:00-17:00","brand":"Vivacom","brand:wikidata":"Q7937522"},"coordinates":[42.887905925848,24.713133573532]},"tags_mismatch":false,"dist":0},{"osm":false,"atp":{"id":"zDItNA33vq-MNXqUei6RZmfCtkc=","tags":{"ref":"5381","shop":"telecommunication","addr:country":"BG","name":"VIVACOM Хасково, Хасково, бул.\"Съединение\"44, Кауфланд","phone":"+359 38 660 550","opening_hours":"Mo-Sa 09:00-20:30; Su 09:00-20:00","brand":"Vivacom","brand:wikidata":"Q7937522"},"coordinates":[41.931584391371,25.566891431808]},"tags_mismatch":false,"dist":0},{"osm":false,"atp":false,"tags_mismatch":false,"dist":0},{"osm":false,"atp":{"id":"85DCNloXhO7p-7AGu4xJnndbvJI=","tags":{"ref":"5360","shop":"telecommunication","addr:country":"BG","name":"VIVACOM София, София, Пазар Хаджи Димитър, ул. Макгахaн пав. 45/3","phone":"+359 2 967 6370","opening_hours":"Mo-Fr 09:00-19:00","brand":"Vivacom","brand:wikidata":"Q7937522"},"coordinates":[42.707103327098,23.353083426575]},"tags_mismatch":false,"dist":0},{"osm":false,"atp":{"id":"DFAey6bI68hiaC4jnsRQiOQsHeA=","tags":{"ref":"5300","shop":"telecommunication","addr:country":"BG","name":"VIVACOM Пловдив, бул. България 17","phone":"+359 32 965 599","opening_hours":"Mo-Fr 09:00-19:00","brand":"Vivacom","brand:wikidata":"Q7937522"},"coordinates":[42.157168704017,24.76149263749]},"tags_mismatch":false,"dist":0},{"osm":false,"atp":{"id":"zdDFqdZiKfMdsMAFcgQSFqUUUnw=","tags":{"ref":"5282","shop":"telecommunication","addr:country":"BG","name":"VIVACOM Асеновград, Асеновград, пл. Акад.Николай Хайтов  № 3","phone":"+359 33 165 060","opening_hours":"Mo-Fr 09:00-19:00","brand":"Vivacom","brand:wikidata":"Q7937522"},"coordinates":[42.008854098128,24.875292487854]},"tags_mismatch":false,"dist":0},{"osm":false,"atp":{"id":"ve2cT0B97kkDXqZxpGIBjtEpXYA=","tags":{"ref":"5304","shop":"telecommunication","addr:country":"BG","name":"VIVACOM Стара Загора, бул. Цар Симеон Велики № 93","phone":"+359 42 230 403","opening_hours":"Mo-Fr 09:00-19:00; Sa 10:00-17:00","brand":"Vivacom","brand:wikidata":"Q7937522"},"coordinates":[42.424066651002,25.622867055649]},"tags_mismatch":false,"dist":0},{"osm":false,"atp":{"id":"JUAJjFFaRTLtQxZb0KTpyyEunKQ=","tags":{"ref":"5320","shop":"telecommunication","addr:country":"BG","name":"VIVACOM Петрич, Петрич, ул. Цар Борис III № 20","phone":"+359 74 560 350","opening_hours":"Mo-Fr 09:00-19:00; Sa 10:00-17:00","brand":"Vivacom","brand:wikidata":"Q7937522"},"coordinates":[41.394789308149,23.207306563854]},"tags_mismatch":false,"dist":0},{"osm":false,"atp":{"id":"6Gsfk5VI3FRRUPebX0QVV5EOexc=","tags":{"ref":"5380","shop":"telecommunication","addr:country":"BG","name":"VIVACOM Пловдив, Пловдив, ж.к. Тракия, бул.Освобождение 47, Кауфланд","phone":"+359 32 994 400","opening_hours":"Mo-Sa 08:00-21:00; Su 09:00-21:00","brand":"Vivacom","brand:wikidata":"Q7937522"},"coordinates":[42.132893979653,24.789571166039]},"tags_mismatch":false,"dist":0},{"osm":false,"atp":{"id":"0C-YxpNI1VuVr1JyzFVm_T55vd4=","tags":{"ref":"5342","shop":"telecommunication","addr:country":"BG","name":"VIVACOM Плевен, Плевен, ул. Сан Стефано №80 Кауфланд","phone":"+359 64 610 474","opening_hours":"Mo-Sa 09:00-20:00; Su 09:00-19:00","brand":"Vivacom","brand:wikidata":"Q7937522"},"coordinates":[43.395202043609,24.620844125748]},"tags_mismatch":false,"dist":0},{"osm":false,"atp":{"id":"6VCLDiNZSE0QTwjHhu_NjXM8vbw=","tags":{"ref":"5302","shop":"telecommunication","addr:country":"BG","name":"VIVACOM Пазарджик, Пазарджик, ул. Асен Златаров  №23","phone":"+359 34 460 366","opening_hours":"Mo-Fr 09:00-19:00; Sa 10:00-17:00","brand":"Vivacom","brand:wikidata":"Q7937522"},"coordinates":[42.18838901954,24.487433430458]},"tags_mismatch":false,"dist":0},{"osm":false,"atp":{"id":"Dx50GWy8n1OfBIQ2VnpLkkjEvAk=","tags":{"ref":"5305","shop":"telecommunication","addr:country":"BG","name":"VIVACOM Русе, Русе, пл. Средец 1","phone":"+359 82 828 782","opening_hours":"Mo-Fr 09:00-19:00","brand":"Vivacom","brand:wikidata":"Q7937522"},"coordinates":[43.848718124436,25.951178439611]},"tags_mismatch":false,"dist":0},{"osm":false,"atp":{"id":"D6yGIJls2lapL58Tla5tqFF7Lpc=","tags":{"ref":"5341","shop":"telecommunication","addr:country":"BG","name":"VIVACOM Благоевград, Благоевград,  бул. Св.Димитър Солунски 21, Кауфланд","phone":"+359 73 830 728","opening_hours":"Mo-Sa 09:00-22:00; Su 09:00-19:00","brand":"Vivacom","brand:wikidata":"Q7937522"},"coordinates":[42.010661536518,23.093908735031]},"tags_mismatch":false,"dist":0},{"osm":false,"atp":{"id":"_AiUawR9uT1CFJ9Uw-Jp6HbYGs4=","tags":{"ref":"5382","shop":"telecommunication","addr:country":"BG","name":"VIVACOM Перник, Перник, ул. 6-ти май № 1, Кауфланд","phone":"+359 76 600 247","opening_hours":"Mo-Sa 09:00-21:00; Su 08:00-20:00","brand":"Vivacom","brand:wikidata":"Q7937522"},"coordinates":[42.60812694645,23.036785125732]},"tags_mismatch":false,"dist":0},{"osm":false,"atp":{"id":"Pb0qoxN7CE8JBtadJRoSgKjHAAY=","tags":{"ref":"5286","shop":"telecommunication","addr:country":"BG","name":"VIVACOM Пловдив, Пловдив, бул. „Македония“ 47-49","phone":"+359 32 680 072","opening_hours":"Mo-Fr 09:00-18:00","brand":"Vivacom","brand:wikidata":"Q7937522"},"coordinates":[42.129106617005,24.743748307228]},"tags_mismatch":false,"dist":0},{"osm":false,"atp":false,"tags_mismatch":false,"dist":0},{"osm":false,"atp":{"id":"OId1NUjm7J8oeZICVGgx6C-OxZU=","tags":{"ref":"5284","shop":"telecommunication","addr:country":"BG","name":"VIVACOM Търговище, Търговище, ул. Васил Левски 28","phone":"+359 60 169 300","opening_hours":"Mo-Fr 09:00-19:00","brand":"Vivacom","brand:wikidata":"Q7937522"},"coordinates":[43.247775998516,26.57266945433]},"tags_mismatch":false,"dist":0},{"osm":false,"atp":{"id":"DK2-SWX-E-BNrXZeKwk48qSux5Q=","tags":{"ref":"5309","shop":"telecommunication","addr:country":"BG","name":"VIVACOM Плевен, Плевен, ул. Данаил Попов 13","phone":"+359 64 822 100","opening_hours":"Mo-Fr 09:00-19:00; Sa 10:00-17:00","brand":"Vivacom","brand:wikidata":"Q7937522"},"coordinates":[43.414878847623,24.616629638189]},"tags_mismatch":false,"dist":0},{"osm":false,"atp":false,"tags_mismatch":false,"dist":0},{"osm":false,"atp":false,"tags_mismatch":false,"dist":0},{"osm":false,"atp":{"id":"B4qIgQibI3z-JoAnfXheCCDm8eM=","tags":{"ref":"5340","shop":"telecommunication","addr:country":"BG","name":"VIVACOM Димитровград, Димитровград, бул. Димитър Благоев № 9","phone":"+359 39 124 001","opening_hours":"Mo-Fr 09:00-18:00","brand":"Vivacom","brand:wikidata":"Q7937522"},"coordinates":[42.055964566874,25.592737197876]},"tags_mismatch":false,"dist":0},{"osm":false,"atp":false,"tags_mismatch":false,"dist":0},{"osm":false,"atp":false,"tags_mismatch":false,"dist":0},{"osm":false,"atp":{"id":"lu9rXFY1YBfwvsOD8y00qk1rKjc=","tags":{"ref":"6160","shop":"telecommunication","addr:country":"BG","name":"VIVACOM Русе, ул. Плиска 78, бл. Мадара, вх. Д /партер/","phone":"+359 87 935 6663","opening_hours":"Mo-Fr 09:00-18:00","brand":"Vivacom","brand:wikidata":"Q7937522"},"coordinates":[43.858185,25.9728659]},"tags_mismatch":false,"dist":0}]}