{"metadata":{"name":"Pepco","key":"shop","value":"clothes","compare_keys":false},"data":[{"osm":{"type":"node","id":1674801925,"tags":{"brand":"Pepco","brand:wikidata":"Q11815580","shop":"clothes"},"wikidata":"Q11815580","coordinates":[42.7120434,23.2484801]},"atp":{"id":"Ar_Big7aJRA5PRNLCAx0fv3DnEQ=","tags":{"ref":"26528","@source_uri":"https://pepco.eu/find-store/","@spider":"pepco","shop":"clothes","addr:state":"Sofiya","addr:country":"BG","brand":"Pepco","brand:wikidata":"Q11815580","nsi_id":"pepco-9b55e7"},"coordinates":[42.712371,23.248403]},"dist":36.968,"tags_mismatch":true},{"osm":{"type":"node","id":2186726778,"tags":{"brand":"Pepco","brand:wikidata":"Q11815580","check_date":"2024-09-20","internet_access":"no","opening_hours":"Mo-Su 09:00-20:00","payment:cash":"yes","payment:credit_cards":"yes","payment:debit_cards":"yes","shop":"clothes","wheelchair":"yes"},"wikidata":"Q11815580","coordinates":[42.6553615,23.3596698]},"atp":{"id":"JAyv20_FYKxtdVtA99O9mjrokMQ=","tags":{"ref":"29793","@source_uri":"https://pepco.eu/find-store/","@spider":"pepco","shop":"clothes","addr:state":"Sofia-Capital","addr:country":"BG","brand":"Pepco","brand:wikidata":"Q11815580","nsi_id":"pepco-9b55e7"},"coordinates":[42.655347,23.359607]},"dist":5.383,"tags_mismatch":true},{"osm":{"type":"node","id":3522671400,"tags":{"brand":"Pepco","brand:wikidata":"Q11815580","opening_hours":"Mo-Su 10:00-20:00","shop":"clothes"},"wikidata":"Q11815580","coordinates":[42.6972047,23.3514056]},"atp":{"id":"i9k5EKD3nPhERnX7qw_wNZVJMIQ=","tags":{"ref":"26566","@source_uri":"https://pepco.eu/find-store/","@spider":"pepco","shop":"clothes","addr:state":"Sofia-Capital","addr:country":"BG","brand":"Pepco","brand:wikidata":"Q11815580","nsi_id":"pepco-9b55e7"},"coordinates":[42.696834,23.351471]},"dist":41.565,"tags_mismatch":true},{"osm":{"type":"node","id":4430676213,"tags":{"brand":"Pepco","brand:wikidata":"Q11815580","shop":"clothes"},"wikidata":"Q11815580","coordinates":[43.569186,27.8302969]},"atp":{"id":"gIv9O_jeFJFM1YlK_lZar96uuJU=","tags":{"ref":"26523","@source_uri":"https://pepco.eu/find-store/","@spider":"pepco","shop":"clothes","addr:state":"Dobrich","addr:country":"BG","brand":"Pepco","brand:wikidata":"Q11815580","nsi_id":"pepco-9b55e7"},"coordinates":[43.569196,27.83039]},"dist":7.583,"tags_mismatch":true},{"osm":{"type":"node","id":6367252670,"tags":{"addr:street":"Йерусалим","brand":"Pepco","brand:wikidata":"Q11815580","opening_hours":"Mo-Su 10:00-20:00","shop":"clothes"},"wikidata":"Q11815580","coordinates":[42.6542731,23.3728535]},"atp":{"id":"fFRcPbIbIEko5N-GxLER06AjlSY=","tags":{"ref":"26584","@source_uri":"https://pepco.eu/find-store/","@spider":"pepco","shop":"clothes","addr:state":"Sofia-Capital","addr:country":"BG","brand":"Pepco","brand:wikidata":"Q11815580","nsi_id":"pepco-9b55e7"},"coordinates":[42.654291,23.372812]},"dist":3.934,"tags_mismatch":true},{"osm":{"type":"node","id":7166914224,"tags":{"brand":"Pepco","brand:wikidata":"Q11815580","shop":"clothes"},"wikidata":"Q11815580","coordinates":[42.7245545,23.246902]},"atp":{"id":"7TGZl0z4nxEnZOEUabLh6FKGOLg=","tags":{"ref":"26565","@source_uri":"https://pepco.eu/find-store/","@spider":"pepco","shop":"clothes","addr:state":"Sofiya","addr:country":"BG","brand":"Pepco","brand:wikidata":"Q11815580","nsi_id":"pepco-9b55e7"},"coordinates":[42.724554,23.246818]},"dist":6.862,"tags_mismatch":true},{"osm":{"type":"node","id":8228552321,"tags":{"brand":"Pepco","brand:wikidata":"Q11815580","shop":"clothes"},"wikidata":"Q11815580","coordinates":[42.503969,27.4601394]},"atp":{"id":"fMhyieqkHeJxlFzPj0gnvTSBnCs=","tags":{"ref":"26529","@source_uri":"https://pepco.eu/find-store/","@spider":"pepco","shop":"clothes","addr:state":"Burgas","addr:country":"BG","brand":"Pepco","brand:wikidata":"Q11815580","nsi_id":"pepco-9b55e7"},"coordinates":[42.5037128,27.4604351]},"dist":37.406,"tags_mismatch":true},{"osm":{"type":"node","id":8319429478,"tags":{"addr:city":"София","addr:housenumber":"6","addr:postcode":"1387","addr:street":"Дико Илиев","brand":"Pepco","brand:wikidata":"Q11815580","opening_hours":"Mo-Su 10:00-20:00","shop":"clothes","website":"https://pepco.bg/"},"wikidata":"Q11815580","coordinates":[42.7431254,23.2799374]},"atp":{"id":"eiWlFjeRtvv_mx7-ldhDefyZ6Ew=","tags":{"ref":"26553","@source_uri":"https://pepco.eu/find-store/","@spider":"pepco","shop":"clothes","addr:state":"Sofia-Capital","addr:country":"BG","brand":"Pepco","brand:wikidata":"Q11815580","nsi_id":"pepco-9b55e7"},"coordinates":[42.743396,23.2797]},"dist":35.794,"tags_mismatch":true},{"osm":{"type":"node","id":8972021002,"tags":{"addr:city":"Шумен","addr:housenumber":"28","addr:postcode":"9704","addr:street":"бул. Велики Преслав","brand":"Pepco","brand:wikidata":"Q11815580","clothes":"women;children;men;lingerie;underwear","opening_hours":"Mo-Sa 10:00-20:00; Su 10:00-19:00","payment:cash":"yes","payment:contactless":"yes","payment:credit_cards":"yes","payment:debit_cards":"yes","shop":"clothes","website":"https://pepco.bg/"},"wikidata":"Q11815580","coordinates":[43.2671294,26.9362153]},"atp":{"id":"JFgTkOtOvYStvyLGzFKdJnLmNeE=","tags":{"ref":"26559","@source_uri":"https://pepco.eu/find-store/","@spider":"pepco","shop":"clothes","addr:state":"Shumen","addr:country":"BG","brand":"Pepco","brand:wikidata":"Q11815580","nsi_id":"pepco-9b55e7"},"coordinates":[43.26722,26.936019]},"dist":18.818,"tags_mismatch":true},{"osm":{"type":"node","id":8972021003,"tags":{"addr:city":"Шумен","addr:housenumber":"37","addr:postcode":"9704","addr:street":"бул. Симеон Велики","brand":"Pepco","brand:wikidata":"Q11815580","clothes":"women;men;children;underwear","opening_hours":"Mo-Su 09:00-20:00","payment:cash":"yes","payment:contactless":"yes","payment:credit_cards":"yes","payment:debit_cards":"yes","shop":"clothes","website":"https://pepco.bg"},"wikidata":"Q11815580","coordinates":[43.2743692,26.9439183]},"atp":{"id":"brzIRqLDvolJfRYY22_OG4fU0ck=","tags":{"ref":"26596","@source_uri":"https://pepco.eu/find-store/","@spider":"pepco","shop":"clothes","addr:state":"Shumen","addr:country":"BG","brand":"Pepco","brand:wikidata":"Q11815580","nsi_id":"pepco-9b55e7"},"coordinates":[43.274513,26.94217]},"dist":142.44,"tags_mismatch":true},{"osm":{"type":"node","id":8972021004,"tags":{"addr:city":"Шумен","addr:housenumber":"21","addr:postcode":"9701","addr:street":"Странджа","brand":"Pepco","brand:wikidata":"Q11815580","clothes":"women;children;men;underwear","opening_hours":"Mo-Sa 10:00-20:00; Su 10:00-19:00","payment:cash":"yes","payment:contactless":"yes","payment:credit_cards":"yes","payment:debit_cards":"yes","shop":"clothes","website":"https://pepco.bg"},"wikidata":"Q11815580","coordinates":[43.2745777,26.9549688]},"atp":{"id":"QF4M4iabZnQlthKz2Tc4H4qjhAw=","tags":{"ref":"26544","@source_uri":"https://pepco.eu/find-store/","@spider":"pepco","shop":"clothes","addr:state":"Shumen","addr:country":"BG","brand":"Pepco","brand:wikidata":"Q11815580","nsi_id":"pepco-9b55e7"},"coordinates":[43.274688,26.955]},"dist":12.522,"tags_mismatch":true},{"osm":{"type":"node","id":9204573611,"tags":{"brand":"Pepco","brand:wikidata":"Q11815580","shop":"clothes"},"wikidata":"Q11815580","coordinates":[42.1399549,24.7235674]},"atp":{"id":"EShlQJNJWxliH11JeNOsG5GIR4k=","tags":{"ref":"26564","@source_uri":"https://pepco.eu/find-store/","@spider":"pepco","shop":"clothes","addr:state":"Plovdiv","addr:country":"BG","brand":"Pepco","brand:wikidata":"Q11815580","nsi_id":"pepco-9b55e7"},"coordinates":[42.139238,24.723927]},"dist":85.051,"tags_mismatch":true},{"osm":{"type":"node","id":9274406515,"tags":{"brand":"Pepco","brand:wikidata":"Q11815580","shop":"clothes"},"wikidata":"Q11815580","coordinates":[41.3944723,23.2075809]},"atp":{"id":"C6FdKu5PcOh6DUt9sg-A-veG_8M=","tags":{"ref":"26582","@source_uri":"https://pepco.eu/find-store/","@spider":"pepco","shop":"clothes","addr:state":"Blagoevgrad","addr:country":"BG","brand":"Pepco","brand:wikidata":"Q11815580","nsi_id":"pepco-9b55e7"},"coordinates":[41.394351,23.207436]},"dist":18.111,"tags_mismatch":true},{"osm":{"type":"node","id":9729652504,"tags":{"brand":"Pepco","brand:wikidata":"Q11815580","shop":"clothes"},"wikidata":"Q11815580","coordinates":[41.5755644,23.7428277]},"atp":{"id":"HhXS5QSQYaJXghM24nAIorAzsWo=","tags":{"ref":"26532","@source_uri":"https://pepco.eu/find-store/","@spider":"pepco","shop":"clothes","addr:state":"Blagoevgrad","addr:country":"BG","brand":"Pepco","brand:wikidata":"Q11815580","nsi_id":"pepco-9b55e7"},"coordinates":[41.575527,23.742973]},"dist":12.782,"tags_mismatch":true},{"osm":{"type":"node","id":9792476422,"tags":{"brand":"Pepco","brand:wikidata":"Q11815580","shop":"clothes"},"wikidata":"Q11815580","coordinates":[42.0903889,25.2115601]},"atp":{"id":"Xcqlh010gNB_pYeWz-iIJj74Zuw=","tags":{"ref":"26631","@source_uri":"https://pepco.eu/find-store/","@spider":"pepco","shop":"clothes","addr:state":"Stara Zagora","addr:country":"BG","brand":"Pepco","brand:wikidata":"Q11815580","nsi_id":"pepco-9b55e7"},"coordinates":[42.090189,25.211139]},"dist":41.249,"tags_mismatch":true},{"osm":{"type":"node","id":9794446448,"tags":{"addr:city":"София","addr:housenumber":"119","addr:postcode":"1000","addr:street":"Цар Самуил","brand":"Pepco","brand:wikidata":"Q11815580","check_date":"2024-12-06","opening_hours":"Mo-Su 10:00-20:00","shop":"clothes","website":"https://pepco.bg/"},"wikidata":"Q11815580","coordinates":[42.7025215,23.319298]},"atp":{"id":"rztHuHz15v0uNWKO4tDM1i_n30E=","tags":{"ref":"26580","@source_uri":"https://pepco.eu/find-store/","@spider":"pepco","shop":"clothes","addr:state":"Sofia-Capital","addr:country":"BG","brand":"Pepco","brand:wikidata":"Q11815580","nsi_id":"pepco-9b55e7"},"coordinates":[42.702457,23.319305]},"dist":7.195,"tags_mismatch":true},{"osm":{"type":"node","id":9931886406,"tags":{"brand":"Pepco","brand:wikidata":"Q11815580","shop":"clothes"},"wikidata":"Q11815580","coordinates":[42.1658895,24.7492602]},"atp":{"id":"61Ov5QUZYIyVK0EEjGKx2cP9zPk=","tags":{"ref":"26531","@source_uri":"https://pepco.eu/find-store/","@spider":"pepco","shop":"clothes","addr:state":"Plovdiv","addr:country":"BG","brand":"Pepco","brand:wikidata":"Q11815580","nsi_id":"pepco-9b55e7"},"coordinates":[42.165581,24.749172]},"dist":35.065,"tags_mismatch":true},{"osm":{"type":"node","id":9960916637,"tags":{"brand":"Pepco","brand:wikidata":"Q11815580","shop":"clothes","wheelchair":"yes"},"wikidata":"Q11815580","coordinates":[43.1320641,25.6842718]},"atp":{"id":"wXoyac5Q1SYwW86xbxuwwcvJnn4=","tags":{"ref":"26623","@source_uri":"https://pepco.eu/find-store/","@spider":"pepco","shop":"clothes","addr:state":"Veliko Turnovo","addr:country":"BG","brand":"Pepco","brand:wikidata":"Q11815580","nsi_id":"pepco-9b55e7"},"coordinates":[43.132268,25.683972]},"dist":33.255,"tags_mismatch":true},{"osm":{"type":"node","id":10080107727,"tags":{"brand":"Pepco","brand:wikidata":"Q11815580","opening_hours":"09:00-20:00","shop":"clothes"},"wikidata":"Q11815580","coordinates":[42.6069086,23.0565403]},"atp":{"id":"SiTKe15alfigeuXwIM71UMMqRW0=","tags":{"ref":"26637","@source_uri":"https://pepco.eu/find-store/","@spider":"pepco","shop":"clothes","addr:state":"Pernik","addr:country":"BG","brand":"Pepco","brand:wikidata":"Q11815580","nsi_id":"pepco-9b55e7"},"coordinates":[42.607268,23.056233]},"dist":47.218,"tags_mismatch":true},{"osm":{"type":"node","id":10119947711,"tags":{"addr:city":"Варна","addr:housenumber":"2","addr:postcode":"9000","addr:street":"Цар Иван Страцимир","brand":"Pepco","brand:wikidata":"Q11815580","clothes":"women;men;children;babies","shop":"clothes"},"wikidata":"Q11815580","coordinates":[43.2100179,27.9018527]},"atp":{"id":"HhSs9GjMDXwmm6EqODmFvxzkGEA=","tags":{"ref":"26534","@source_uri":"https://pepco.eu/find-store/","@spider":"pepco","shop":"clothes","addr:state":"Varna","addr:country":"BG","brand":"Pepco","brand:wikidata":"Q11815580","nsi_id":"pepco-9b55e7"},"coordinates":[43.20978,27.902364]},"dist":49.162,"tags_mismatch":true},{"osm":{"type":"node","id":10140133165,"tags":{"brand":"Pepco","brand:wikidata":"Q11815580","shop":"clothes"},"wikidata":"Q11815580","coordinates":[42.1245989,24.7207712]},"atp":{"id":"GgvVUGDE7aauIES9E3EvrL6EhXQ=","tags":{"ref":"26515","@source_uri":"https://pepco.eu/find-store/","@spider":"pepco","shop":"clothes","addr:state":"Plovdiv","addr:country":"BG","brand":"Pepco","brand:wikidata":"Q11815580","nsi_id":"pepco-9b55e7"},"coordinates":[42.124642,24.720412]},"dist":30.009,"tags_mismatch":true},{"osm":{"type":"node","id":10170822368,"tags":{"brand":"Pepco","brand:wikidata":"Q11815580","shop":"clothes"},"wikidata":"Q11815580","coordinates":[42.8926077,24.7152341]},"atp":{"id":"SEGi1JHCaBQXmnkyPpA7qAqUBGA=","tags":{"ref":"26612","@source_uri":"https://pepco.eu/find-store/","@spider":"pepco","shop":"clothes","addr:state":"Lovech","addr:country":"BG","brand":"Pepco","brand:wikidata":"Q11815580","nsi_id":"pepco-9b55e7"},"coordinates":[42.892672,24.715494]},"dist":22.347,"tags_mismatch":true},{"osm":{"type":"node","id":10180734194,"tags":{"brand":"Pepco","brand:wikidata":"Q11815580","shop":"clothes"},"wikidata":"Q11815580","coordinates":[43.2794486,24.0821024]},"atp":{"id":"7vbRkHzga30fkEb3GURblKFxYxg=","tags":{"ref":"26602","@source_uri":"https://pepco.eu/find-store/","@spider":"pepco","shop":"clothes","addr:state":"Pleven","addr:country":"BG","brand":"Pepco","brand:wikidata":"Q11815580","nsi_id":"pepco-9b55e7"},"coordinates":[43.279505,24.082449]},"dist":28.75,"tags_mismatch":true},{"osm":{"type":"node","id":10207518358,"tags":{"brand":"Pepco","brand:wikidata":"Q11815580","shop":"clothes"},"wikidata":"Q11815580","coordinates":[42.7096602,23.4593032]},"atp":{"id":"7rpbUKah3hHs9NNlMeIygtHd44w=","tags":{"ref":"26548","@source_uri":"https://pepco.eu/find-store/","@spider":"pepco","shop":"clothes","addr:state":"Sofia-Capital","addr:country":"BG","brand":"Pepco","brand:wikidata":"Q11815580","nsi_id":"pepco-9b55e7"},"coordinates":[42.709423,23.459519]},"dist":31.726,"tags_mismatch":true},{"osm":{"type":"node","id":10231226352,"tags":{"brand":"Pepco","brand:wikidata":"Q11815580","opening_hours":"Mo-Su 10:00-20:00","shop":"clothes","wheelchair":"yes"},"wikidata":"Q11815580","coordinates":[42.675325,23.3577914]},"atp":{"id":"VqJAqYGP5esZu7YzgXx7skT0Dnk=","tags":{"ref":"26632","@source_uri":"https://pepco.eu/find-store/","@spider":"pepco","shop":"clothes","addr:state":"Sofia-Capital","addr:country":"BG","brand":"Pepco","brand:wikidata":"Q11815580","nsi_id":"pepco-9b55e7"},"coordinates":[42.675361,23.357833]},"dist":5.253,"tags_mismatch":true},{"osm":{"type":"node","id":10249380648,"tags":{"brand":"Pepco","brand:wikidata":"Q11815580","level":"-2","shop":"clothes"},"wikidata":"Q11815580","coordinates":[42.6609909,23.3826828]},"atp":{"id":"US45Zv4b67n4HB5zEc7cLsWMG2M=","tags":{"ref":"26521","@source_uri":"https://pepco.eu/find-store/","@spider":"pepco","shop":"clothes","addr:state":"Sofia-Capital","addr:country":"BG","brand":"Pepco","brand:wikidata":"Q11815580","nsi_id":"pepco-9b55e7"},"coordinates":[42.660372,23.382659]},"dist":68.846,"tags_mismatch":true},{"osm":{"type":"node","id":10693169206,"tags":{"brand":"Pepco","brand:wikidata":"Q11815580","check_date":"2023-02-25","clothes":"women;men;children;underwear;babies","email":"clientbg@pepco.eu","internet_access":"no","opening_hours":"10:00-20:00","payment:mastercard":"yes","payment:visa":"yes","shop":"clothes","wheelchair":"yes"},"wikidata":"Q11815580","coordinates":[42.0582619,25.5876069]},"atp":{"id":"fs0l9VLNdUl0tD2UteeD0FpuGcU=","tags":{"ref":"26614","@source_uri":"https://pepco.eu/find-store/","@spider":"pepco","shop":"clothes","addr:state":"Khaskovo","addr:country":"BG","brand":"Pepco","brand:wikidata":"Q11815580","nsi_id":"pepco-9b55e7"},"coordinates":[42.058238,25.587672]},"dist":5.996,"tags_mismatch":true},{"osm":{"type":"node","id":10740801891,"tags":{"brand":"Pepco","brand:wikidata":"Q11815580","shop":"clothes"},"wikidata":"Q11815580","coordinates":[42.6436098,24.788171]},"atp":{"id":"jzhTO_sz99e5_3H72RTSg_A6NtA=","tags":{"ref":"26636","@source_uri":"https://pepco.eu/find-store/","@spider":"pepco","shop":"clothes","addr:state":"Plovdiv","addr:country":"BG","brand":"Pepco","brand:wikidata":"Q11815580","nsi_id":"pepco-9b55e7"},"coordinates":[42.643325,24.788522]},"dist":42.745,"tags_mismatch":true},{"osm":{"type":"node","id":10745036736,"tags":{"brand":"Pepco","brand:wikidata":"Q11815580","fixme":"verify exact position","shop":"clothes"},"wikidata":"Q11815580","coordinates":[42.1570076,24.7286172]},"atp":{"id":"Mr3jzGbqsBUfabWeDhPATXkqJgg=","tags":{"ref":"26550","@source_uri":"https://pepco.eu/find-store/","@spider":"pepco","shop":"clothes","addr:state":"Plovdiv","addr:country":"BG","brand":"Pepco","brand:wikidata":"Q11815580","nsi_id":"pepco-9b55e7"},"coordinates":[42.15661,24.729059]},"dist":57.279,"tags_mismatch":true},{"osm":{"type":"node","id":10747755727,"tags":{"brand":"Pepco","brand:wikidata":"Q11815580","shop":"clothes"},"wikidata":"Q11815580","coordinates":[42.1727035,24.7414753]},"atp":{"id":"YckIv1PNIN1R9q1F3KxECSum2UQ=","tags":{"ref":"26642","@source_uri":"https://pepco.eu/find-store/","@spider":"pepco","shop":"clothes","addr:state":"Plovdiv","addr:country":"BG","brand":"Pepco","brand:wikidata":"Q11815580","nsi_id":"pepco-9b55e7"},"coordinates":[42.17359,24.741427]},"dist":98.655,"tags_mismatch":true},{"osm":{"type":"node","id":10806881089,"tags":{"brand":"Pepco","brand:wikidata":"Q11815580","second_hand":"only","shop":"clothes"},"wikidata":"Q11815580","coordinates":[42.2732046,23.1294854]},"atp":{"id":"SyWSQaL6Wn9k8VE7zBgV5caEPsA=","tags":{"ref":"26569","@source_uri":"https://pepco.eu/find-store/","@spider":"pepco","shop":"clothes","addr:state":"Kyustendil","addr:country":"BG","brand":"Pepco","brand:wikidata":"Q11815580","nsi_id":"pepco-9b55e7"},"coordinates":[42.273281,23.129392]},"dist":11.455,"tags_mismatch":true},{"osm":{"type":"node","id":10842061586,"tags":{"brand":"Pepco","brand:wikidata":"Q11815580","opening_hours":"Mo-Su 10:00-19:00","shop":"clothes"},"wikidata":"Q11815580","coordinates":[42.75888,23.2049434]},"atp":{"id":"Vv88yvB3aGfhfa2eJYKGWc-zwkU=","tags":{"ref":"26599","@source_uri":"https://pepco.eu/find-store/","@spider":"pepco","shop":"clothes","addr:state":"Sofiya","addr:country":"BG","brand":"Pepco","brand:wikidata":"Q11815580","nsi_id":"pepco-9b55e7"},"coordinates":[42.758753,23.205038]},"dist":16.096,"tags_mismatch":true},{"osm":{"type":"node","id":10851974142,"tags":{"brand":"Pepco","brand:wikidata":"Q11815580","opening_hours":"Mo-Su 10:00-20:00","shop":"clothes"},"wikidata":"Q11815580","coordinates":[42.6610603,23.3657903]},"atp":{"id":"kIOy_Zq8xt9XfUB3lWpJmk2WmL0=","tags":{"ref":"26526","@source_uri":"https://pepco.eu/find-store/","@spider":"pepco","shop":"clothes","addr:state":"Sofia-Capital","addr:country":"BG","brand":"Pepco","brand:wikidata":"Q11815580","nsi_id":"pepco-9b55e7"},"coordinates":[42.661081,23.365636]},"dist":12.825,"tags_mismatch":true},{"osm":{"type":"node","id":10895516482,"tags":{"brand":"Pepco","brand:wikidata":"Q11815580","shop":"clothes"},"wikidata":"Q11815580","coordinates":[41.5500385,23.269792]},"atp":{"id":"3sVgOTP5wOR8LSs1TUvb3az2fnA=","tags":{"ref":"27823","@source_uri":"https://pepco.eu/find-store/","@spider":"pepco","shop":"clothes","addr:state":"Blagoevgrad","addr:country":"BG","brand":"Pepco","brand:wikidata":"Q11815580","nsi_id":"pepco-9b55e7"},"coordinates":[41.549892,23.270094]},"dist":29.949,"tags_mismatch":true},{"osm":{"type":"node","id":10926064505,"tags":{"brand":"Pepco","brand:wikidata":"Q11815580","opening_hours":"Mo-Su 10:00-19:00","shop":"clothes","website":"https://www.pepco.bg/"},"wikidata":"Q11815580","coordinates":[42.4192169,27.6928198]},"atp":{"id":"U-EW2YWbmBZU_1idmmc2pUGTWTU=","tags":{"ref":"26634","@source_uri":"https://pepco.eu/find-store/","@spider":"pepco","shop":"clothes","addr:state":"Burgas","addr:country":"BG","brand":"Pepco","brand:wikidata":"Q11815580","nsi_id":"pepco-9b55e7"},"coordinates":[42.419184,27.692754]},"dist":6.524,"tags_mismatch":true},{"osm":{"type":"node","id":10926724114,"tags":{"brand":"Pepco","brand:wikidata":"Q11815580","shop":"clothes"},"wikidata":"Q11815580","coordinates":[43.1944824,23.5667697]},"atp":{"id":"I4J6k6ZWSazJFjniebaG76MV_-k=","tags":{"ref":"26604","@source_uri":"https://pepco.eu/find-store/","@spider":"pepco","shop":"clothes","addr:state":"Vratsa","addr:country":"BG","brand":"Pepco","brand:wikidata":"Q11815580","nsi_id":"pepco-9b55e7"},"coordinates":[43.194631,23.566678]},"dist":18.119,"tags_mismatch":true},{"osm":{"type":"node","id":10982942139,"tags":{"brand":"Pepco","brand:wikidata":"Q11815580","shop":"clothes"},"wikidata":"Q11815580","coordinates":[42.6021753,23.0501816]},"atp":{"id":"ZaoDmihOhFs6Mvg3MpdnHHCTA0Q=","tags":{"ref":"28005","@source_uri":"https://pepco.eu/find-store/","@spider":"pepco","shop":"clothes","addr:state":"Pernik","addr:country":"BG","brand":"Pepco","brand:wikidata":"Q11815580","nsi_id":"pepco-9b55e7"},"coordinates":[42.602528,23.048528]},"dist":140.91,"tags_mismatch":true},{"osm":{"type":"node","id":10982993817,"tags":{"brand":"Pepco","brand:wikidata":"Q11815580","opening_hours":"Mo-Su 10:00-20:00","shop":"clothes"},"wikidata":"Q11815580","coordinates":[42.1835032,24.3459735]},"atp":{"id":"LgnDLE9w2trT3iQgXC7vOhex_4Q=","tags":{"ref":"27949","@source_uri":"https://pepco.eu/find-store/","@spider":"pepco","shop":"clothes","addr:state":"Pazardzhik","addr:country":"BG","brand":"Pepco","brand:wikidata":"Q11815580","nsi_id":"pepco-9b55e7"},"coordinates":[42.183222,24.346028]},"dist":31.589,"tags_mismatch":true},{"osm":{"type":"node","id":11064711739,"tags":{"brand":"Pepco","brand:wikidata":"Q11815580","shop":"clothes"},"wikidata":"Q11815580","coordinates":[42.1277475,24.720521]},"atp":false,"tags_mismatch":false},{"osm":{"type":"node","id":11141032778,"tags":{"addr:city":"Перник","addr:housenumber":"23","addr:postcode":"2300","addr:street":"Св. Св. Кирил и Методий","brand":"Pepco","brand:wikidata":"Q11815580","shop":"clothes"},"wikidata":"Q11815580","coordinates":[42.6110853,23.0403357]},"atp":{"id":"8gyfsKVDgZAvJ2h1zVkzoFUEy3I=","tags":{"ref":"29796","@source_uri":"https://pepco.eu/find-store/","@spider":"pepco","shop":"clothes","addr:state":"Pernik","addr:country":"BG","brand":"Pepco","brand:wikidata":"Q11815580","nsi_id":"pepco-9b55e7"},"coordinates":[42.611159,23.040799]},"dist":38.79,"tags_mismatch":true},{"osm":{"type":"node","id":11171422827,"tags":{"brand":"Pepco","brand:wikidata":"Q11815580","shop":"clothes"},"wikidata":"Q11815580","coordinates":[41.9412232,25.5557864]},"atp":false,"tags_mismatch":false},{"osm":{"type":"node","id":11195324787,"tags":{"brand":"Pepco","brand:wikidata":"Q11815580","shop":"clothes"},"wikidata":"Q11815580","coordinates":[43.4184922,23.2262804]},"atp":{"id":"Nc8IKx4Y89EOgwoy03Y61ffHkro=","tags":{"ref":"26575","@source_uri":"https://pepco.eu/find-store/","@spider":"pepco","shop":"clothes","addr:state":"Montana","addr:country":"BG","brand":"Pepco","brand:wikidata":"Q11815580","nsi_id":"pepco-9b55e7"},"coordinates":[43.418169,23.226113]},"dist":38.397,"tags_mismatch":true},{"osm":{"type":"node","id":11207627314,"tags":{"brand":"Pepco","brand:wikidata":"Q11815580","shop":"clothes"},"wikidata":"Q11815580","coordinates":[42.4781097,26.5181252]},"atp":{"id":"WeLUOwYWsdZ1V1mhJozvo_rxzks=","tags":{"ref":"26594","@source_uri":"https://pepco.eu/find-store/","@spider":"pepco","shop":"clothes","addr:state":"Yambol","addr:country":"BG","brand":"Pepco","brand:wikidata":"Q11815580","nsi_id":"pepco-9b55e7"},"coordinates":[42.478442,26.518588]},"dist":52.97,"tags_mismatch":true},{"osm":{"type":"node","id":11233091839,"tags":{"brand":"Pepco","brand:wikidata":"Q11815580","shop":"clothes"},"wikidata":"Q11815580","coordinates":[41.9704221,25.5594819]},"atp":{"id":"VPVtYpxhdFPpQerwEfvJLU5eGG8=","tags":{"ref":"29794","@source_uri":"https://pepco.eu/find-store/","@spider":"pepco","shop":"clothes","addr:state":"Khaskovo","addr:country":"BG","brand":"Pepco","brand:wikidata":"Q11815580","nsi_id":"pepco-9b55e7"},"coordinates":[41.972247,25.559628]},"dist":203.279,"tags_mismatch":true},{"osm":{"type":"node","id":11254816941,"tags":{"brand":"Pepco","brand:wikidata":"Q11815580","shop":"clothes"},"wikidata":"Q11815580","coordinates":[42.6820616,26.3406921]},"atp":{"id":"-FvuFCwFAW74RUUdwO9ddmFKFVw=","tags":{"ref":"26639","@source_uri":"https://pepco.eu/find-store/","@spider":"pepco","shop":"clothes","addr:state":"Sliven","addr:country":"BG","brand":"Pepco","brand:wikidata":"Q11815580","nsi_id":"pepco-9b55e7"},"coordinates":[42.682605,26.340527]},"dist":61.912,"tags_mismatch":true},{"osm":{"type":"node","id":11256016126,"tags":{"brand":"Pepco","brand:wikidata":"Q11815580","shop":"clothes"},"wikidata":"Q11815580","coordinates":[42.1299306,24.7692881]},"atp":{"id":"ru4KPRHQOqtJZHr8O5uTiqHTjAA=","tags":{"ref":"26556","@source_uri":"https://pepco.eu/find-store/","@spider":"pepco","shop":"clothes","addr:state":"Plovdiv","addr:country":"BG","brand":"Pepco","brand:wikidata":"Q11815580","nsi_id":"pepco-9b55e7"},"coordinates":[42.13013,24.769634]},"dist":36.128,"tags_mismatch":true},{"osm":{"type":"node","id":11256040543,"tags":{"brand":"Pepco","brand:wikidata":"Q11815580","shop":"clothes"},"wikidata":"Q11815580","coordinates":[42.1227324,24.7412714]},"atp":{"id":"UHy0Oq3ldbqhz1ynqrVfRCwOWAM=","tags":{"ref":"26541","@source_uri":"https://pepco.eu/find-store/","@spider":"pepco","shop":"clothes","addr:state":"Plovdiv","addr:country":"BG","brand":"Pepco","brand:wikidata":"Q11815580","nsi_id":"pepco-9b55e7"},"coordinates":[42.123012,24.740894]},"dist":43.993,"tags_mismatch":true},{"osm":{"type":"node","id":11283788170,"tags":{"brand":"Pepco","brand:wikidata":"Q11815580","level":"-1","opening_hours":"Mo-Su 10:00-22:00","shop":"clothes"},"wikidata":"Q11815580","coordinates":[42.658116,23.3145869]},"atp":{"id":"Gj5_s1RMFXsNnLTbq6V269s_2ao=","tags":{"ref":"26583","@source_uri":"https://pepco.eu/find-store/","@spider":"pepco","shop":"clothes","addr:state":"Sofia-Capital","addr:country":"BG","brand":"Pepco","brand:wikidata":"Q11815580","nsi_id":"pepco-9b55e7"},"coordinates":[42.65795,23.315367]},"dist":66.409,"tags_mismatch":true},{"osm":{"type":"node","id":11324280415,"tags":{"brand":"Pepco","brand:wikidata":"Q11815580","level":"1","shop":"clothes"},"wikidata":"Q11815580","coordinates":[42.6605193,23.2452587]},"atp":{"id":"0tlIqWsT02vQK3jbgRPmEWBzvqc=","tags":{"ref":"29817","@source_uri":"https://pepco.eu/find-store/","@spider":"pepco","shop":"clothes","addr:state":"Sofia-Capital","addr:country":"BG","brand":"Pepco","brand:wikidata":"Q11815580","nsi_id":"pepco-9b55e7"},"coordinates":[42.659825,23.244358]},"dist":106.699,"tags_mismatch":true},{"osm":{"type":"node","id":11369303390,"tags":{"brand":"Pepco","brand:wikidata":"Q11815580","shop":"clothes"},"wikidata":"Q11815580","coordinates":[42.1423257,24.7505191]},"atp":{"id":"HCWZH35uruyxdhCkVMHK95mxgXY=","tags":{"ref":"26624","@source_uri":"https://pepco.eu/find-store/","@spider":"pepco","shop":"clothes","addr:state":"Plovdiv","addr:country":"BG","brand":"Pepco","brand:wikidata":"Q11815580","nsi_id":"pepco-9b55e7"},"coordinates":[42.142307,24.750556]},"dist":3.685,"tags_mismatch":true},{"osm":{"type":"node","id":11408128103,"tags":{"brand":"Pepco","brand:wikidata":"Q11815580","shop":"clothes"},"wikidata":"Q11815580","coordinates":[43.280508,26.92747]},"atp":{"id":"1znK8_9vpXCurVW1bWwhTmBu8TQ=","tags":{"ref":"30043","@source_uri":"https://pepco.eu/find-store/","@spider":"pepco","shop":"clothes","addr:state":"Shumen","addr:country":"BG","brand":"Pepco","brand:wikidata":"Q11815580","nsi_id":"pepco-9b55e7"},"coordinates":[43.27938185,26.92886496]},"dist":168.619,"tags_mismatch":true},{"osm":{"type":"node","id":11509482763,"tags":{"brand":"Pepco","brand:wikidata":"Q11815580","shop":"clothes"},"wikidata":"Q11815580","coordinates":[42.2671066,23.1137554]},"atp":{"id":"mt3PkBym_UfRMisB46BvGeWBghk=","tags":{"ref":"28007","@source_uri":"https://pepco.eu/find-store/","@spider":"pepco","shop":"clothes","addr:state":"Kyustendil","addr:country":"BG","brand":"Pepco","brand:wikidata":"Q11815580","nsi_id":"pepco-9b55e7"},"coordinates":[42.267169,23.113583]},"dist":15.792,"tags_mismatch":true},{"osm":{"type":"node","id":11509493364,"tags":{"brand":"Pepco","brand:wikidata":"Q11815580","shop":"clothes"},"wikidata":"Q11815580","coordinates":[42.7036657,24.16288]},"atp":{"id":"tUodqZqpDJKqWzFwDDYMuKpxuFc=","tags":{"ref":"26618","@source_uri":"https://pepco.eu/find-store/","@spider":"pepco","shop":"clothes","addr:state":"Sofiya","addr:country":"BG","brand":"Pepco","brand:wikidata":"Q11815580","nsi_id":"pepco-9b55e7"},"coordinates":[42.703608,24.162796]},"dist":9.396,"tags_mismatch":true},{"osm":{"type":"node","id":11685130816,"tags":{"brand":"Pepco","brand:wikidata":"Q11815580","shop":"clothes"},"wikidata":"Q11815580","coordinates":[41.5724616,24.7158848]},"atp":{"id":"VOL1RDfY_d7wM0IqjUQA7pcQHLs=","tags":{"ref":"26646","@source_uri":"https://pepco.eu/find-store/","@spider":"pepco","shop":"clothes","addr:state":"Smolyan","addr:country":"BG","brand":"Pepco","brand:wikidata":"Q11815580","nsi_id":"pepco-9b55e7"},"coordinates":[41.572357,24.715683]},"dist":20.423,"tags_mismatch":true},{"osm":{"type":"node","id":11723449708,"tags":{"brand":"Pepco","brand:wikidata":"Q11815580","shop":"clothes"},"wikidata":"Q11815580","coordinates":[42.6573323,23.5912087]},"atp":{"id":"h489LrcGspvn_SM-St8OJMU8DzA=","tags":{"ref":"30436","@source_uri":"https://pepco.eu/find-store/","@spider":"pepco","shop":"clothes","addr:state":"Sofiya","addr:country":"BG","brand":"Pepco","brand:wikidata":"Q11815580","nsi_id":"pepco-9b55e7"},"coordinates":[42.65704294,23.59096278]},"dist":37.943,"tags_mismatch":true},{"osm":{"type":"node","id":11728383742,"tags":{"brand":"Pepco","brand:wikidata":"Q11815580","shop":"clothes"},"wikidata":"Q11815580","coordinates":[42.144828,24.782213]},"atp":{"id":"AWOZ2oLn1WkGJg3QW3jrd9kwyeU=","tags":{"ref":"26516","@source_uri":"https://pepco.eu/find-store/","@spider":"pepco","shop":"clothes","addr:state":"Plovdiv","addr:country":"BG","brand":"Pepco","brand:wikidata":"Q11815580","nsi_id":"pepco-9b55e7"},"coordinates":[42.144928,24.780974]},"dist":102.753,"tags_mismatch":true},{"osm":{"type":"node","id":11733906636,"tags":{"brand":"Pepco","brand:wikidata":"Q11815580","shop":"clothes"},"wikidata":"Q11815580","coordinates":[44.1137246,27.2735715]},"atp":{"id":"GZ4GBUH1VcW6MAxtmJzFoeg9Hh8=","tags":{"ref":"28006","@source_uri":"https://pepco.eu/find-store/","@spider":"pepco","shop":"clothes","addr:state":"Silistra","addr:country":"BG","brand":"Pepco","brand:wikidata":"Q11815580","nsi_id":"pepco-9b55e7"},"coordinates":[44.11392531,27.27327671]},"dist":32.434,"tags_mismatch":true},{"osm":{"type":"node","id":11874807958,"tags":{"brand":"Pepco","brand:wikidata":"Q11815580","shop":"clothes"},"wikidata":"Q11815580","coordinates":[42.6526611,27.6721685]},"atp":{"id":"LbZfuzvSLTIsDBTfMwsPNzGwyYw=","tags":{"ref":"30440","@source_uri":"https://pepco.eu/find-store/","@spider":"pepco","shop":"clothes","addr:state":"Burgas","addr:country":"BG","brand":"Pepco","brand:wikidata":"Q11815580","nsi_id":"pepco-9b55e7"},"coordinates":[42.6529752,27.67231283]},"dist":36.867,"tags_mismatch":true},{"osm":{"type":"node","id":11981360615,"tags":{"brand":"Pepco","brand:wikidata":"Q11815580","shop":"clothes"},"wikidata":"Q11815580","coordinates":[42.4249132,25.6285639]},"atp":{"id":"iUoX9OSpPEdTU0UiVax0oopKJeM=","tags":{"ref":"26538","@source_uri":"https://pepco.eu/find-store/","@spider":"pepco","shop":"clothes","addr:state":"Stara Zagora","addr:country":"BG","brand":"Pepco","brand:wikidata":"Q11815580","nsi_id":"pepco-9b55e7"},"coordinates":[42.424916,25.62829]},"dist":22.484,"tags_mismatch":true},{"osm":{"type":"node","id":12073982250,"tags":{"brand":"Pepco","brand:wikidata":"Q11815580","shop":"clothes"},"wikidata":"Q11815580","coordinates":[42.8089542,23.2130909]},"atp":{"id":"4hKASQ1oI7GBdyRNSMAmr6fRzQ0=","tags":{"ref":"26524","@source_uri":"https://pepco.eu/find-store/","@spider":"pepco","shop":"clothes","addr:state":"Sofiya","addr:country":"BG","brand":"Pepco","brand:wikidata":"Q11815580","nsi_id":"pepco-9b55e7"},"coordinates":[42.809166,23.212208]},"dist":75.775,"tags_mismatch":true},{"osm":{"type":"node","id":12193976220,"tags":{"brand":"Pepco","brand:wikidata":"Q11815580","shop":"clothes"},"wikidata":"Q11815580","coordinates":[42.6175071,25.3702226]},"atp":{"id":"TV4oQYRxUiXh_Qpr32HDzpXYO3U=","tags":{"ref":"26551","@source_uri":"https://pepco.eu/find-store/","@spider":"pepco","shop":"clothes","addr:state":"Stara Zagora","addr:country":"BG","brand":"Pepco","brand:wikidata":"Q11815580","nsi_id":"pepco-9b55e7"},"coordinates":[42.617242,25.370615]},"dist":43.588,"tags_mismatch":true},{"osm":{"type":"node","id":12229245409,"tags":{"brand":"Pepco","brand:wikidata":"Q11815580","opening_hours":"Mo-Sa 09:00-20:00; Su 09:30-18:00","shop":"clothes"},"wikidata":"Q11815580","coordinates":[43.4239996,24.5972365]},"atp":{"id":"7BxZR1V1wkYhoTpPzN2hEDsBx9g=","tags":{"ref":"28079","@source_uri":"https://pepco.eu/find-store/","@spider":"pepco","shop":"clothes","addr:state":"Pleven","addr:country":"BG","brand":"Pepco","brand:wikidata":"Q11815580","nsi_id":"pepco-9b55e7"},"coordinates":[43.423992,24.597056]},"dist":14.602,"tags_mismatch":true},{"osm":{"type":"node","id":12358918593,"tags":{"brand":"Pepco","brand:wikidata":"Q11815580","shop":"clothes"},"wikidata":"Q11815580","coordinates":[42.9107311,23.8036771]},"atp":{"id":"aVV1f99-vAA8iHVXnsLIfZIANLw=","tags":{"ref":"30681","@source_uri":"https://pepco.eu/find-store/","@spider":"pepco","shop":"clothes","addr:state":"Sofiya","addr:country":"BG","brand":"Pepco","brand:wikidata":"Q11815580","nsi_id":"pepco-9b55e7"},"coordinates":[42.910757,23.803528]},"dist":12.48,"tags_mismatch":true},{"osm":{"type":"node","id":12400212941,"tags":{"brand":"Pepco","brand:wikidata":"Q11815580","shop":"clothes"},"wikidata":"Q11815580","coordinates":[42.4915145,27.47342]},"atp":{"id":"VcV5akkezYXQJKKIM9g8KmVeFRk=","tags":{"ref":"29959","@source_uri":"https://pepco.eu/find-store/","@spider":"pepco","shop":"clothes","addr:state":"Burgas","addr:country":"BG","brand":"Pepco","brand:wikidata":"Q11815580","nsi_id":"pepco-9b55e7"},"coordinates":[42.491544,27.47341]},"dist":3.381,"tags_mismatch":true},{"osm":{"type":"node","id":12522310374,"tags":{"brand":"Pepco","brand:wikidata":"Q11815580","shop":"clothes"},"wikidata":"Q11815580","coordinates":[42.5045106,27.4735248]},"atp":false,"tags_mismatch":false},{"osm":{"type":"node","id":12534075863,"tags":{"brand":"Pepco","brand:wikidata":"Q11815580","shop":"clothes"},"wikidata":"Q11815580","coordinates":[42.5246779,27.4486019]},"atp":{"id":"Bcw1Ud8Hc6d4NuA6CzR5h96FCEk=","tags":{"ref":"30438","@source_uri":"https://pepco.eu/find-store/","@spider":"pepco","shop":"clothes","addr:state":"Burgas","addr:country":"BG","brand":"Pepco","brand:wikidata":"Q11815580","nsi_id":"pepco-9b55e7"},"coordinates":[42.52463273,27.4486254]},"dist":5.379,"tags_mismatch":true},{"osm":{"type":"node","id":12641299529,"tags":{"brand":"Pepco","brand:wikidata":"Q11815580","shop":"clothes"},"wikidata":"Q11815580","coordinates":[42.7120017,23.3384901]},"atp":{"id":"IiAM2XaW0uaLFxFk506RZxjS5VI=","tags":{"ref":"32384","@source_uri":"https://pepco.eu/find-store/","@spider":"pepco","shop":"clothes","addr:state":"Sofia-Capital","addr:country":"BG","brand":"Pepco","brand:wikidata":"Q11815580","nsi_id":"pepco-9b55e7"},"coordinates":[42.711796,23.338015]},"dist":45.055,"tags_mismatch":true},{"osm":{"type":"node","id":12646682245,"tags":{"brand":"Pepco","brand:wikidata":"Q11815580","opening_hours":"Mo-Sa 09:00-20:00","shop":"clothes","website":"https://pepco.bg"},"wikidata":"Q11815580","coordinates":[41.8789996,23.472738]},"atp":{"id":"Ywf7jGJyMapFMjnkKGufM4BN8f4=","tags":{"ref":"26641","@source_uri":"https://pepco.eu/find-store/","@spider":"pepco","shop":"clothes","addr:state":"Blagoevgrad","addr:country":"BG","brand":"Pepco","brand:wikidata":"Q11815580","nsi_id":"pepco-9b55e7"},"coordinates":[41.879231,23.472425]},"dist":36.518,"tags_mismatch":true},{"osm":{"type":"way","id":135765781,"tags":{"brand":"Pepco","brand:wikidata":"Q11815580","building":"yes","shop":"clothes"},"wikidata":"Q11815580","coordinates":[43.5512236,27.8379415]},"atp":{"id":"kqn4RN6GW6pWz0Z6W_JY9S36O7Y=","tags":{"ref":"26530","@source_uri":"https://pepco.eu/find-store/","@spider":"pepco","shop":"clothes","addr:state":"Dobrich","addr:country":"BG","brand":"Pepco","brand:wikidata":"Q11815580","nsi_id":"pepco-9b55e7"},"coordinates":[43.551261,27.837904]},"dist":5.141,"tags_mismatch":true},{"osm":{"type":"way","id":1161170235,"tags":{"brand":"Pepco","brand:wikidata":"Q11815580","building":"yes","opening_hours":"09:00-20:00","shop":"clothes"},"wikidata":"Q11815580","coordinates":[42.8381605,24.0035592]},"atp":{"id":"vOKQtM5r8UHpvOtujJESF-egX_Q=","tags":{"ref":"26587","@source_uri":"https://pepco.eu/find-store/","@spider":"pepco","shop":"clothes","addr:state":"Sofiya","addr:country":"BG","brand":"Pepco","brand:wikidata":"Q11815580","nsi_id":"pepco-9b55e7"},"coordinates":[42.838242,24.003535]},"dist":9.275,"tags_mismatch":true},{"osm":{"type":"way","id":1196077696,"tags":{"addr:city":"Сапарева баня","addr:postcode":"2650","brand":"Pepco","brand:wikidata":"Q11815580","building":"yes","opening_hours":"Mo-Su 10:00-20:00","shop":"clothes","website":"https://pepco.bg/"},"wikidata":"Q11815580","coordinates":[42.2912181,23.2708834]},"atp":{"id":"zJpBs4AIhDxrPyk6PrZOYCtrxq4=","tags":{"ref":"28150","@source_uri":"https://pepco.eu/find-store/","@spider":"pepco","shop":"clothes","addr:state":"Kyustendil","addr:country":"BG","brand":"Pepco","brand:wikidata":"Q11815580","nsi_id":"pepco-9b55e7"},"coordinates":[42.291283,23.271667]},"dist":64.857,"tags_mismatch":true},{"osm":false,"atp":false,"tags_mismatch":false,"dist":0},{"osm":false,"atp":{"id":"neyoCnXPF1JhQhNZ7Lp87xtIkH8=","tags":{"ref":"31639","shop":"clothes","addr:state":"Plovdiv","addr:country":"BG","name":"Pepco","brand":"Pepco","brand:wikidata":"Q11815580"},"coordinates":[42.27216614,24.54722419]},"tags_mismatch":false,"dist":0},{"osm":false,"atp":{"id":"jxglXMeUZ93pccjEmowwpQLk8u0=","tags":{"ref":"31634","shop":"clothes","addr:state":"Burgas","addr:country":"BG","name":"Pepco","brand":"Pepco","brand:wikidata":"Q11815580"},"coordinates":[42.16594472,27.84501013]},"tags_mismatch":false,"dist":0},{"osm":false,"atp":{"id":"OKhj97TgaJqflX5wvhbTT4B_KT4=","tags":{"ref":"31559","shop":"clothes","addr:state":"Dobrich","addr:country":"BG","name":"Pepco","brand":"Pepco","brand:wikidata":"Q11815580"},"coordinates":[43.57861637,27.83100526]},"tags_mismatch":false,"dist":0},{"osm":false,"atp":{"id":"1uhZaW0Qb88TAtADBI7f1P2wWwE=","tags":{"ref":"30437","shop":"clothes","addr:state":"Stara Zagora","addr:country":"BG","name":"Pepco","brand":"Pepco","brand:wikidata":"Q11815580"},"coordinates":[42.42708869,25.65922998]},"tags_mismatch":false,"dist":0},{"osm":false,"atp":false,"tags_mismatch":false,"dist":0},{"osm":false,"atp":{"id":"n1FIHTW6NyIQwVlHdvXXmVJjSw0=","tags":{"ref":"30435","shop":"clothes","addr:state":"Plovdiv","addr:country":"BG","name":"Pepco","brand":"Pepco","brand:wikidata":"Q11815580"},"coordinates":[42.01375107,24.86976171]},"tags_mismatch":false,"dist":0},{"osm":false,"atp":false,"tags_mismatch":false,"dist":0},{"osm":false,"atp":false,"tags_mismatch":false,"dist":0},{"osm":false,"atp":{"id":"qNkolc9OWQHlsht1FUwgqB-u2SM=","tags":{"ref":"28116","shop":"clothes","addr:state":"Pernik","addr:country":"BG","name":"Pepco","brand":"Pepco","brand:wikidata":"Q11815580"},"coordinates":[42.543041,22.960214]},"tags_mismatch":false,"dist":0},{"osm":false,"atp":{"id":"e4Q3vq4excOEoOn3wPN3HKs2ajk=","tags":{"ref":"30439","shop":"clothes","addr:state":"Sliven","addr:country":"BG","name":"Pepco","brand":"Pepco","brand:wikidata":"Q11815580"},"coordinates":[42.68007877,26.31448542]},"tags_mismatch":false,"dist":0},{"osm":false,"atp":{"id":"yRAsl_lWYmlPG5ibyGB6B9KXSGA=","tags":{"ref":"30701","shop":"clothes","addr:state":"Varna","addr:country":"BG","name":"Pepco","brand":"Pepco","brand:wikidata":"Q11815580"},"coordinates":[43.23539,27.88151]},"tags_mismatch":false,"dist":0},{"osm":false,"atp":{"id":"6dE6z7ykyHsf9qvOasaxlseXhJg=","tags":{"ref":"30682","shop":"clothes","addr:state":"Sofia-Capital","addr:country":"BG","name":"Pepco","brand":"Pepco","brand:wikidata":"Q11815580"},"coordinates":[42.64265136,23.40811492]},"tags_mismatch":false,"dist":0},{"osm":false,"atp":false,"tags_mismatch":false,"dist":0},{"osm":false,"atp":{"id":"YnOx2gKwqlgMnXtNxWct3FB1s_E=","tags":{"ref":"30680","shop":"clothes","addr:state":"Pazardzhik","addr:country":"BG","name":"Pepco","brand":"Pepco","brand:wikidata":"Q11815580"},"coordinates":[42.0313741,24.00376742]},"tags_mismatch":false,"dist":0},{"osm":false,"atp":{"id":"ZnNjOaRYc6rHttO3zx7pwSyeiqg=","tags":{"ref":"30679","shop":"clothes","addr:state":"Vidin","addr:country":"BG","name":"Pepco","brand":"Pepco","brand:wikidata":"Q11815580"},"coordinates":[44.0016821,22.86863005]},"tags_mismatch":false,"dist":0},{"osm":false,"atp":false,"tags_mismatch":false,"dist":0},{"osm":false,"atp":false,"tags_mismatch":false,"dist":0},{"osm":false,"atp":{"id":"eQs2TsE59kKHMni_JVj2FBFSic8=","tags":{"ref":"27901","shop":"clothes","addr:state":"Sofia-Capital","addr:country":"BG","name":"Pepco","brand":"Pepco","brand:wikidata":"Q11815580"},"coordinates":[42.718736,23.343925]},"tags_mismatch":false,"dist":0},{"osm":false,"atp":false,"tags_mismatch":false,"dist":0},{"osm":false,"atp":false,"tags_mismatch":false,"dist":0},{"osm":false,"atp":{"id":"hEqWkiu74PveKIa_J4MBHD8-qdY=","tags":{"ref":"28008","shop":"clothes","addr:state":"Burgas","addr:country":"BG","name":"Pepco","brand":"Pepco","brand:wikidata":"Q11815580"},"coordinates":[42.565992,27.273889]},"tags_mismatch":false,"dist":0},{"osm":false,"atp":false,"tags_mismatch":false,"dist":0},{"osm":false,"atp":{"id":"0d75nERkyzSfdXTEC7eqp35dOxw=","tags":{"ref":"28004","shop":"clothes","addr:state":"Stara Zagora","addr:country":"BG","name":"Pepco","brand":"Pepco","brand:wikidata":"Q11815580"},"coordinates":[42.197804,25.321326]},"tags_mismatch":false,"dist":0},{"osm":false,"atp":{"id":"jkf7waVb3JywRNaBkHcCdVdc_ZM=","tags":{"ref":"27900","shop":"clothes","addr:state":"Razgrad","addr:country":"BG","name":"Pepco","brand":"Pepco","brand:wikidata":"Q11815580"},"coordinates":[43.794925,26.500526]},"tags_mismatch":false,"dist":0},{"osm":false,"atp":false,"tags_mismatch":false,"dist":0},{"osm":false,"atp":false,"tags_mismatch":false,"dist":0},{"osm":false,"atp":{"id":"2H9_qmbqWByeZ_pxard2FpiPj90=","tags":{"ref":"29795","shop":"clothes","addr:state":"Shumen","addr:country":"BG","name":"Pepco","brand":"Pepco","brand:wikidata":"Q11815580"},"coordinates":[43.352183,27.194548]},"tags_mismatch":false,"dist":0},{"osm":false,"atp":false,"tags_mismatch":false,"dist":0},{"osm":false,"atp":false,"tags_mismatch":false,"dist":0},{"osm":false,"atp":{"id":"nYi8ML3PzWQaInNpMRfjaBfWDH0=","tags":{"ref":"29792","shop":"clothes","addr:state":"Plovdiv","addr:country":"BG","name":"Pepco","brand":"Pepco","brand:wikidata":"Q11815580"},"coordinates":[42.633864,24.800593]},"tags_mismatch":false,"dist":0},{"osm":false,"atp":false,"tags_mismatch":false,"dist":0},{"osm":false,"atp":{"id":"7c3guZoBivYNDB_fpqfSIXLyZKE=","tags":{"ref":"27902","shop":"clothes","addr:state":"Stara Zagora","addr:country":"BG","name":"Pepco","brand":"Pepco","brand:wikidata":"Q11815580"},"coordinates":[42.618271,25.408169]},"tags_mismatch":false,"dist":0},{"osm":false,"atp":false,"tags_mismatch":false,"dist":0},{"osm":false,"atp":false,"tags_mismatch":false,"dist":0},{"osm":false,"atp":{"id":"1_l3SsciNuKnCwmvkkJ8-8hxNII=","tags":{"ref":"27866","shop":"clothes","addr:state":"Sliven","addr:country":"BG","name":"Pepco","brand":"Pepco","brand:wikidata":"Q11815580"},"coordinates":[42.676013,26.320951]},"tags_mismatch":false,"dist":0},{"osm":false,"atp":false,"tags_mismatch":false,"dist":0},{"osm":false,"atp":{"id":"UNpqW7jO_rOD8fUIjiu4uoyFTCw=","tags":{"ref":"26647","shop":"clothes","addr:state":"Kurdzhali","addr:country":"BG","name":"Pepco","brand":"Pepco","brand:wikidata":"Q11815580"},"coordinates":[41.615122,25.375635]},"tags_mismatch":false,"dist":0},{"osm":false,"atp":false,"tags_mismatch":false,"dist":0},{"osm":false,"atp":{"id":"uve_2yQY2a3n-I-vwjOpZRK86yA=","tags":{"ref":"26645","shop":"clothes","addr:state":"Smolyan","addr:country":"BG","name":"Pepco","brand":"Pepco","brand:wikidata":"Q11815580"},"coordinates":[41.735652,24.416676]},"tags_mismatch":false,"dist":0},{"osm":false,"atp":{"id":"mpTvE0W94wuqjkWcAW20E59m-20=","tags":{"ref":"26644","shop":"clothes","addr:state":"Khaskovo","addr:country":"BG","name":"Pepco","brand":"Pepco","brand:wikidata":"Q11815580"},"coordinates":[42.055474,25.58693]},"tags_mismatch":false,"dist":0},{"osm":false,"atp":{"id":"4d7EJfBADioyoEnA8DAn3RPvqKI=","tags":{"ref":"26643","shop":"clothes","addr:state":"Khaskovo","addr:country":"BG","name":"Pepco","brand":"Pepco","brand:wikidata":"Q11815580"},"coordinates":[41.93233812,25.55576916]},"tags_mismatch":false,"dist":0},{"osm":false,"atp":false,"tags_mismatch":false,"dist":0},{"osm":false,"atp":false,"tags_mismatch":false,"dist":0},{"osm":false,"atp":{"id":"YVXNg786u01EP_nznQ10JX1HQjA=","tags":{"ref":"26640","shop":"clothes","addr:state":"Sofiya","addr:country":"BG","name":"Pepco","brand":"Pepco","brand:wikidata":"Q11815580"},"coordinates":[42.689329,23.247148]},"tags_mismatch":false,"dist":0},{"osm":false,"atp":false,"tags_mismatch":false,"dist":0},{"osm":false,"atp":{"id":"DYysHR_yDeyTvgZ8p6S_ZFNgqTs=","tags":{"ref":"26638","shop":"clothes","addr:state":"Dobrich","addr:country":"BG","name":"Pepco","brand":"Pepco","brand:wikidata":"Q11815580"},"coordinates":[43.565762,27.83942]},"tags_mismatch":false,"dist":0},{"osm":false,"atp":false,"tags_mismatch":false,"dist":0},{"osm":false,"atp":false,"tags_mismatch":false,"dist":0},{"osm":false,"atp":{"id":"miCe6W3ROKUhpds0cuoVJ_UQOz8=","tags":{"ref":"26635","shop":"clothes","addr:state":"Turgovishte","addr:country":"BG","name":"Pepco","brand":"Pepco","brand:wikidata":"Q11815580"},"coordinates":[43.348167,26.234639]},"tags_mismatch":false,"dist":0},{"osm":false,"atp":false,"tags_mismatch":false,"dist":0},{"osm":false,"atp":{"id":"s7AaX33HGwNzv3XM9YEneguveZA=","tags":{"ref":"26633","shop":"clothes","addr:state":"Burgas","addr:country":"BG","name":"Pepco","brand":"Pepco","brand:wikidata":"Q11815580"},"coordinates":[42.823405,27.87953]},"tags_mismatch":false,"dist":0},{"osm":false,"atp":false,"tags_mismatch":false,"dist":0},{"osm":false,"atp":false,"tags_mismatch":false,"dist":0},{"osm":false,"atp":{"id":"8uf7rqaLoSRzhHhrU4-tpWbmw1o=","tags":{"ref":"26630","shop":"clothes","addr:state":"Varna","addr:country":"BG","name":"Pepco","brand":"Pepco","brand:wikidata":"Q11815580"},"coordinates":[43.221028,27.890611]},"tags_mismatch":false,"dist":0},{"osm":false,"atp":{"id":"Ujm8JxxAn8jRJW8AG5YlJyII4Bo=","tags":{"ref":"26629","shop":"clothes","addr:state":"Gabrovo","addr:country":"BG","name":"Pepco","brand":"Pepco","brand:wikidata":"Q11815580"},"coordinates":[43.022464,25.095536]},"tags_mismatch":false,"dist":0},{"osm":false,"atp":{"id":"SDyhaA0S9tbrdekp9zcHxnXBsjQ=","tags":{"ref":"26628","shop":"clothes","addr:state":"Pazardzhik","addr:country":"BG","name":"Pepco","brand":"Pepco","brand:wikidata":"Q11815580"},"coordinates":[42.196505,24.334858]},"tags_mismatch":false,"dist":0},{"osm":false,"atp":{"id":"YE5rg2gikfXav4K89Q1v9GMiE_o=","tags":{"ref":"26627","shop":"clothes","addr:state":"Plovdiv","addr:country":"BG","name":"Pepco","brand":"Pepco","brand:wikidata":"Q11815580"},"coordinates":[42.132123,24.703336]},"tags_mismatch":false,"dist":0},{"osm":false,"atp":{"id":"C4smlrcnES5ej2MLTnAgKGE5GwI=","tags":{"ref":"26626","shop":"clothes","addr:state":"Sofia-Capital","addr:country":"BG","name":"Pepco","brand":"Pepco","brand:wikidata":"Q11815580"},"coordinates":[42.70945,23.294067]},"tags_mismatch":false,"dist":0},{"osm":false,"atp":{"id":"z9mZMTgSJj4QPjHj9HvxX0d06q0=","tags":{"ref":"26625","shop":"clothes","addr:state":"Stara Zagora","addr:country":"BG","name":"Pepco","brand":"Pepco","brand:wikidata":"Q11815580"},"coordinates":[42.614679,25.391346]},"tags_mismatch":false,"dist":0},{"osm":false,"atp":false,"tags_mismatch":false,"dist":0},{"osm":false,"atp":false,"tags_mismatch":false,"dist":0},{"osm":false,"atp":{"id":"0Js_yGv_CpqDxfa7PJd1Va1ip50=","tags":{"ref":"26622","shop":"clothes","addr:state":"Plovdiv","addr:country":"BG","name":"Pepco","brand":"Pepco","brand:wikidata":"Q11815580"},"coordinates":[42.137414,24.543366]},"tags_mismatch":false,"dist":0},{"osm":false,"atp":{"id":"lEAUV5hIl4CCshkpfEZCuRNvxQo=","tags":{"ref":"26621","shop":"clothes","addr:state":"Pazardzhik","addr:country":"BG","name":"Pepco","brand":"Pepco","brand:wikidata":"Q11815580"},"coordinates":[42.032063,24.301114]},"tags_mismatch":false,"dist":0},{"osm":false,"atp":{"id":"NEFyR0REmoDhHvwsePYPOQqAgvY=","tags":{"ref":"26620","shop":"clothes","addr:state":"Pleven","addr:country":"BG","name":"Pepco","brand":"Pepco","brand:wikidata":"Q11815580"},"coordinates":[43.493306,24.081556]},"tags_mismatch":false,"dist":0},{"osm":false,"atp":{"id":"p-pvUAOgJQ4dAyJYGR-EdMSxgNE=","tags":{"ref":"26619","shop":"clothes","addr:state":"Blagoevgrad","addr:country":"BG","name":"Pepco","brand":"Pepco","brand:wikidata":"Q11815580"},"coordinates":[41.571232,23.729554]},"tags_mismatch":false,"dist":0},{"osm":false,"atp":false,"tags_mismatch":false,"dist":0},{"osm":false,"atp":{"id":"8F4tApB7g89HMfRf1gJpiEHIk1s=","tags":{"ref":"26617","shop":"clothes","addr:state":"Stara Zagora","addr:country":"BG","name":"Pepco","brand":"Pepco","brand:wikidata":"Q11815580"},"coordinates":[42.419676,25.60814]},"tags_mismatch":false,"dist":0},{"osm":false,"atp":{"id":"GWhBEU1YvDpiEDvISSq6-uGvQMc=","tags":{"ref":"26616","shop":"clothes","addr:state":"Dobrich","addr:country":"BG","name":"Pepco","brand":"Pepco","brand:wikidata":"Q11815580"},"coordinates":[43.568397,27.847205]},"tags_mismatch":false,"dist":0},{"osm":false,"atp":{"id":"gjVuEJ9f5dpMIIHbm2TwOX1JXoQ=","tags":{"ref":"26615","shop":"clothes","addr:state":"Pazardzhik","addr:country":"BG","name":"Pepco","brand":"Pepco","brand:wikidata":"Q11815580"},"coordinates":[42.186678,24.320128]},"tags_mismatch":false,"dist":0},{"osm":false,"atp":false,"tags_mismatch":false,"dist":0},{"osm":false,"atp":{"id":"y2A3hd0UCEQuDazrpY4E3tufWtQ=","tags":{"ref":"26613","shop":"clothes","addr:state":"Pazardzhik","addr:country":"BG","name":"Pepco","brand":"Pepco","brand:wikidata":"Q11815580"},"coordinates":[42.494801,24.187547]},"tags_mismatch":false,"dist":0},{"osm":false,"atp":false,"tags_mismatch":false,"dist":0},{"osm":false,"atp":{"id":"Uj4SrhmO80V7hS_zA1Cpd9C0up8=","tags":{"ref":"26611","shop":"clothes","addr:state":"Sofiya","addr:country":"BG","name":"Pepco","brand":"Pepco","brand:wikidata":"Q11815580"},"coordinates":[42.853119,23.037471]},"tags_mismatch":false,"dist":0},{"osm":false,"atp":{"id":"ACjpAXDMmjbvFlSRbpgNXmjLu1Y=","tags":{"ref":"26610","shop":"clothes","addr:state":"Dobrich","addr:country":"BG","name":"Pepco","brand":"Pepco","brand:wikidata":"Q11815580"},"coordinates":[43.435919,28.336843]},"tags_mismatch":false,"dist":0},{"osm":false,"atp":{"id":"wW5FQSY1UPYZrtjlYbCrHeX1Th8=","tags":{"ref":"26609","shop":"clothes","addr:state":"Yambol","addr:country":"BG","name":"Pepco","brand":"Pepco","brand:wikidata":"Q11815580"},"coordinates":[42.487695,26.501773]},"tags_mismatch":false,"dist":0},{"osm":false,"atp":{"id":"KXtZ61xFTNWwRKTIetMy341Soas=","tags":{"ref":"26608","shop":"clothes","addr:state":"Blagoevgrad","addr:country":"BG","name":"Pepco","brand":"Pepco","brand:wikidata":"Q11815580"},"coordinates":[41.39675,23.19309]},"tags_mismatch":false,"dist":0},{"osm":false,"atp":{"id":"Mx-L1j_TjXZgA377ZEgaFkpKg_4=","tags":{"ref":"26607","shop":"clothes","addr:state":"Vratsa","addr:country":"BG","name":"Pepco","brand":"Pepco","brand:wikidata":"Q11815580"},"coordinates":[43.776318,23.73337]},"tags_mismatch":false,"dist":0},{"osm":false,"atp":{"id":"Tj2EkHZoIC8VMoW6_DEVQrHr5jU=","tags":{"ref":"26606","shop":"clothes","addr:state":"Sofia-Capital","addr:country":"BG","name":"Pepco","brand":"Pepco","brand:wikidata":"Q11815580"},"coordinates":[42.735721,23.291653]},"tags_mismatch":false,"dist":0},{"osm":false,"atp":{"id":"go0L5dBOhP1kbfuqUkJtxXFIoQw=","tags":{"ref":"26605","shop":"clothes","addr:state":"Yambol","addr:country":"BG","name":"Pepco","brand":"Pepco","brand:wikidata":"Q11815580"},"coordinates":[42.476833,26.511807]},"tags_mismatch":false,"dist":0},{"osm":false,"atp":false,"tags_mismatch":false,"dist":0},{"osm":false,"atp":{"id":"fTNm_62lnLnkYRdBoOa6IPiWEEc=","tags":{"ref":"26603","shop":"clothes","addr:state":"Ruse","addr:country":"BG","name":"Pepco","brand":"Pepco","brand:wikidata":"Q11815580"},"coordinates":[43.850999,25.955397]},"tags_mismatch":false,"dist":0},{"osm":false,"atp":false,"tags_mismatch":false,"dist":0},{"osm":false,"atp":{"id":"p8twh5nyxfQjRywakdpZ-XSMDuA=","tags":{"ref":"26601","shop":"clothes","addr:state":"Sofiya","addr:country":"BG","name":"Pepco","brand":"Pepco","brand:wikidata":"Q11815580"},"coordinates":[42.962226,23.34711]},"tags_mismatch":false,"dist":0},{"osm":false,"atp":{"id":"UN_Yz_iI7wiKGa9LYqbe9jErsWY=","tags":{"ref":"26600","shop":"clothes","addr:state":"Sofia-Capital","addr:country":"BG","name":"Pepco","brand":"Pepco","brand:wikidata":"Q11815580"},"coordinates":[42.724078,23.306285]},"tags_mismatch":false,"dist":0},{"osm":false,"atp":false,"tags_mismatch":false,"dist":0},{"osm":false,"atp":{"id":"YdVHC2-8UqUw56nOQS9YUfT18Bk=","tags":{"ref":"26598","shop":"clothes","addr:state":"Kurdzhali","addr:country":"BG","name":"Pepco","brand":"Pepco","brand:wikidata":"Q11815580"},"coordinates":[41.522108,25.411469]},"tags_mismatch":false,"dist":0},{"osm":false,"atp":{"id":"IJfPKoWq43eP71y_cWNOUg8xwMQ=","tags":{"ref":"26597","shop":"clothes","addr:state":"Varna","addr:country":"BG","name":"Pepco","brand":"Pepco","brand:wikidata":"Q11815580"},"coordinates":[42.992582,27.720343]},"tags_mismatch":false,"dist":0},{"osm":false,"atp":false,"tags_mismatch":false,"dist":0},{"osm":false,"atp":{"id":"WhUQuZo3fJhsMRQWS6NyKHI5O1A=","tags":{"ref":"26595","shop":"clothes","addr:state":"Burgas","addr:country":"BG","name":"Pepco","brand":"Pepco","brand:wikidata":"Q11815580"},"coordinates":[42.463217,27.410249]},"tags_mismatch":false,"dist":0},{"osm":false,"atp":false,"tags_mismatch":false,"dist":0},{"osm":false,"atp":{"id":"_u_5lkBm4jIrkmzUNFczj-jhuGg=","tags":{"ref":"26593","shop":"clothes","addr:state":"Stara Zagora","addr:country":"BG","name":"Pepco","brand":"Pepco","brand:wikidata":"Q11815580"},"coordinates":[42.289657,25.93244]},"tags_mismatch":false,"dist":0},{"osm":false,"atp":{"id":"P02hPb4pWbkEbvMjaQrVxSRMAwk=","tags":{"ref":"26592","shop":"clothes","addr:state":"Pernik","addr:country":"BG","name":"Pepco","brand":"Pepco","brand:wikidata":"Q11815580"},"coordinates":[42.60126,23.033396]},"tags_mismatch":false,"dist":0},{"osm":false,"atp":{"id":"aXbVSLuiZBrKc5gJxw0jNvNc9r4=","tags":{"ref":"26591","shop":"clothes","addr:state":"Turgovishte","addr:country":"BG","name":"Pepco","brand":"Pepco","brand:wikidata":"Q11815580"},"coordinates":[43.241741,26.557943]},"tags_mismatch":false,"dist":0},{"osm":false,"atp":{"id":"G0b1pjeKbfPwUjOXWQsuPrYchn4=","tags":{"ref":"26590","shop":"clothes","addr:state":"Sofiya","addr:country":"BG","name":"Pepco","brand":"Pepco","brand:wikidata":"Q11815580"},"coordinates":[42.435163,23.818075]},"tags_mismatch":false,"dist":0},{"osm":false,"atp":{"id":"GUMap9-iVPvZ6v_I5B1DYcOyx3I=","tags":{"ref":"26589","shop":"clothes","addr:state":"Sofia-Capital","addr:country":"BG","name":"Pepco","brand":"Pepco","brand:wikidata":"Q11815580"},"coordinates":[42.706232,23.348562]},"tags_mismatch":false,"dist":0},{"osm":false,"atp":{"id":"0hH9h7t_6UNisnsVix_351kANjM=","tags":{"ref":"26588","shop":"clothes","addr:state":"Burgas","addr:country":"BG","name":"Pepco","brand":"Pepco","brand:wikidata":"Q11815580"},"coordinates":[42.530712,27.457481]},"tags_mismatch":false,"dist":0},{"osm":false,"atp":false,"tags_mismatch":false,"dist":0},{"osm":false,"atp":{"id":"Ilmy5njwM8cY5LnegbV2tNy8LWU=","tags":{"ref":"26586","shop":"clothes","addr:state":"Kurdzhali","addr:country":"BG","name":"Pepco","brand":"Pepco","brand:wikidata":"Q11815580"},"coordinates":[41.47748,25.646862]},"tags_mismatch":false,"dist":0},{"osm":false,"atp":{"id":"27w5_rlBiIzXKkex5odZNDTDZLA=","tags":{"ref":"26585","shop":"clothes","addr:state":"Khaskovo","addr:country":"BG","name":"Pepco","brand":"Pepco","brand:wikidata":"Q11815580"},"coordinates":[41.93118,25.90094]},"tags_mismatch":false,"dist":0},{"osm":false,"atp":false,"tags_mismatch":false,"dist":0},{"osm":false,"atp":false,"tags_mismatch":false,"dist":0},{"osm":false,"atp":false,"tags_mismatch":false,"dist":0},{"osm":false,"atp":{"id":"jz7qgxuoibx9hUcoWeIFaLaTFRs=","tags":{"ref":"26581","shop":"clothes","addr:state":"Vratsa","addr:country":"BG","name":"Pepco","brand":"Pepco","brand:wikidata":"Q11815580"},"coordinates":[43.477404,23.931581]},"tags_mismatch":false,"dist":0},{"osm":false,"atp":false,"tags_mismatch":false,"dist":0},{"osm":false,"atp":{"id":"F0WGylgSg66DO_iiuZGfwVJ9gpk=","tags":{"ref":"26579","shop":"clothes","addr:state":"Pleven","addr:country":"BG","name":"Pepco","brand":"Pepco","brand:wikidata":"Q11815580"},"coordinates":[43.359163,25.140573]},"tags_mismatch":false,"dist":0},{"osm":false,"atp":{"id":"QrAh2cYRbL0jW1wCPycyPMb480k=","tags":{"ref":"26578","shop":"clothes","addr:state":"Sofia-Capital","addr:country":"BG","name":"Pepco","brand":"Pepco","brand:wikidata":"Q11815580"},"coordinates":[42.664248,23.288812]},"tags_mismatch":false,"dist":0},{"osm":false,"atp":{"id":"IrFQHM70_aZI2bbVARznmETeHk8=","tags":{"ref":"26577","shop":"clothes","addr:state":"Ruse","addr:country":"BG","name":"Pepco","brand":"Pepco","brand:wikidata":"Q11815580"},"coordinates":[43.832278,25.968445]},"tags_mismatch":false,"dist":0},{"osm":false,"atp":{"id":"T_iuxzlocM6IcSSRv2n3qrrf7IU=","tags":{"ref":"26576","shop":"clothes","addr:state":"Sofia-Capital","addr:country":"BG","name":"Pepco","brand":"Pepco","brand:wikidata":"Q11815580"},"coordinates":[42.679422,23.254107]},"tags_mismatch":false,"dist":0},{"osm":false,"atp":false,"tags_mismatch":false,"dist":0},{"osm":false,"atp":{"id":"RYvpCx09q7pYBfMlr_1rFCQbuXc=","tags":{"ref":"26574","shop":"clothes","addr:state":"Plovdiv","addr:country":"BG","name":"Pepco","brand":"Pepco","brand:wikidata":"Q11815580"},"coordinates":[42.133603,24.744105]},"tags_mismatch":false,"dist":0},{"osm":false,"atp":{"id":"WMAqw-I9i8s8n0cQ4zbOfIxjCCA=","tags":{"ref":"26573","shop":"clothes","addr:state":"Plovdiv","addr:country":"BG","name":"Pepco","brand":"Pepco","brand:wikidata":"Q11815580"},"coordinates":[42.133715,24.793751]},"tags_mismatch":false,"dist":0},{"osm":false,"atp":{"id":"gumSNHHqgKVkk50rczxjnvj8YKo=","tags":{"ref":"26572","shop":"clothes","addr:state":"Veliko Turnovo","addr:country":"BG","name":"Pepco","brand":"Pepco","brand:wikidata":"Q11815580"},"coordinates":[43.235827,25.300848]},"tags_mismatch":false,"dist":0},{"osm":false,"atp":{"id":"Pn-EDLeUHbXUeqDnK-0GSjRCmVg=","tags":{"ref":"26571","shop":"clothes","addr:state":"Sofia-Capital","addr:country":"BG","name":"Pepco","brand":"Pepco","brand:wikidata":"Q11815580"},"coordinates":[42.718021,23.315257]},"tags_mismatch":false,"dist":0},{"osm":false,"atp":{"id":"Zex7K1RQf3-yEw3Ebd5n-gVIdG8=","tags":{"ref":"26570","shop":"clothes","addr:state":"Sliven","addr:country":"BG","name":"Pepco","brand":"Pepco","brand:wikidata":"Q11815580"},"coordinates":[42.489541,26.013954]},"tags_mismatch":false,"dist":0},{"osm":false,"atp":false,"tags_mismatch":false,"dist":0},{"osm":false,"atp":{"id":"mfQ-VLOaDgexJGv-oolw0Y7RALE=","tags":{"ref":"26568","shop":"clothes","addr:state":"Pleven","addr:country":"BG","name":"Pepco","brand":"Pepco","brand:wikidata":"Q11815580"},"coordinates":[43.394896,24.621035]},"tags_mismatch":false,"dist":0},{"osm":false,"atp":{"id":"mxrNTSsDq8Cel6VpTMOe8RUMuLQ=","tags":{"ref":"26567","shop":"clothes","addr:state":"Yambol","addr:country":"BG","name":"Pepco","brand":"Pepco","brand:wikidata":"Q11815580"},"coordinates":[42.183208,26.574634]},"tags_mismatch":false,"dist":0},{"osm":false,"atp":false,"tags_mismatch":false,"dist":0},{"osm":false,"atp":false,"tags_mismatch":false,"dist":0},{"osm":false,"atp":false,"tags_mismatch":false,"dist":0},{"osm":false,"atp":{"id":"MteNoY-h6TQAK5PQOBzE1tUNiRg=","tags":{"ref":"26563","shop":"clothes","addr:state":"Stara Zagora","addr:country":"BG","name":"Pepco","brand":"Pepco","brand:wikidata":"Q11815580"},"coordinates":[42.437619,25.632681]},"tags_mismatch":false,"dist":0},{"osm":false,"atp":{"id":"O-neKxSK-XS6IH5S-Nra1jOVaIE=","tags":{"ref":"26562","shop":"clothes","addr:state":"Burgas","addr:country":"BG","name":"Pepco","brand":"Pepco","brand:wikidata":"Q11815580"},"coordinates":[42.512708,27.453225]},"tags_mismatch":false,"dist":0},{"osm":false,"atp":{"id":"gTACqQq2qKfSjAZxMhgHL1gTTlo=","tags":{"ref":"26561","shop":"clothes","addr:state":"Veliko Turnovo","addr:country":"BG","name":"Pepco","brand":"Pepco","brand:wikidata":"Q11815580"},"coordinates":[43.073118,25.613754]},"tags_mismatch":false,"dist":0},{"osm":false,"atp":{"id":"Irvz-0WRtNUIanaLM4KgphcDUys=","tags":{"ref":"26560","shop":"clothes","addr:state":"Veliko Turnovo","addr:country":"BG","name":"Pepco","brand":"Pepco","brand:wikidata":"Q11815580"},"coordinates":[43.079054,25.600061]},"tags_mismatch":false,"dist":0},{"osm":false,"atp":false,"tags_mismatch":false,"dist":0},{"osm":false,"atp":{"id":"bKWkfLRR_5BpdFj7vxqGI69fIzM=","tags":{"ref":"26558","shop":"clothes","addr:state":"Stara Zagora","addr:country":"BG","name":"Pepco","brand":"Pepco","brand:wikidata":"Q11815580"},"coordinates":[42.411541,25.593757]},"tags_mismatch":false,"dist":0},{"osm":false,"atp":{"id":"TjrF5hXIG3gBc3w0BHuKqsfMDNk=","tags":{"ref":"26557","shop":"clothes","addr:state":"Silistra","addr:country":"BG","name":"Pepco","brand":"Pepco","brand:wikidata":"Q11815580"},"coordinates":[44.119878,27.260713]},"tags_mismatch":false,"dist":0},{"osm":false,"atp":false,"tags_mismatch":false,"dist":0},{"osm":false,"atp":{"id":"u7lbe29yBB0HfDNFXmxynhTXIbY=","tags":{"ref":"26555","shop":"clothes","addr:state":"Turgovishte","addr:country":"BG","name":"Pepco","brand":"Pepco","brand:wikidata":"Q11815580"},"coordinates":[43.247813,26.557569]},"tags_mismatch":false,"dist":0},{"osm":false,"atp":{"id":"8Xia2ga7BraEzg_v_TtVKNXvErE=","tags":{"ref":"26554","shop":"clothes","addr:state":"Blagoevgrad","addr:country":"BG","name":"Pepco","brand":"Pepco","brand:wikidata":"Q11815580"},"coordinates":[42.017385,23.095509]},"tags_mismatch":false,"dist":0},{"osm":false,"atp":false,"tags_mismatch":false,"dist":0},{"osm":false,"atp":{"id":"uu74TSaWDY-VKWKpZL4Ur97DPMY=","tags":{"ref":"26552","shop":"clothes","addr:state":"Gabrovo","addr:country":"BG","name":"Pepco","brand":"Pepco","brand:wikidata":"Q11815580"},"coordinates":[43.0269943,25.10190581]},"tags_mismatch":false,"dist":0},{"osm":false,"atp":false,"tags_mismatch":false,"dist":0},{"osm":false,"atp":false,"tags_mismatch":false,"dist":0},{"osm":false,"atp":{"id":"crhe6UU3tYhdPJMNnFu6tTbISws=","tags":{"ref":"26549","shop":"clothes","addr:state":"Kurdzhali","addr:country":"BG","name":"Pepco","brand":"Pepco","brand:wikidata":"Q11815580"},"coordinates":[41.63582,25.372709]},"tags_mismatch":false,"dist":0},{"osm":false,"atp":false,"tags_mismatch":false,"dist":0},{"osm":false,"atp":{"id":"mZv9VSDV8R-sheBu-dk6NyNwNG4=","tags":{"ref":"26547","shop":"clothes","addr:state":"Varna","addr:country":"BG","name":"Pepco","brand":"Pepco","brand:wikidata":"Q11815580"},"coordinates":[43.214156,27.925891]},"tags_mismatch":false,"dist":0},{"osm":false,"atp":{"id":"9bYD3EVjseOuUb6YuZKvJlM_a04=","tags":{"ref":"26546","shop":"clothes","addr:state":"Vidin","addr:country":"BG","name":"Pepco","brand":"Pepco","brand:wikidata":"Q11815580"},"coordinates":[43.986959,22.875161]},"tags_mismatch":false,"dist":0},{"osm":false,"atp":{"id":"u_x_Chz6iOcKzqP4zkpZpfaaxlA=","tags":{"ref":"26545","shop":"clothes","addr:state":"Vratsa","addr:country":"BG","name":"Pepco","brand":"Pepco","brand:wikidata":"Q11815580"},"coordinates":[43.205247,23.556042]},"tags_mismatch":false,"dist":0},{"osm":false,"atp":false,"tags_mismatch":false,"dist":0},{"osm":false,"atp":{"id":"D3iKIa8Le1zRLoe7Y5i-pCq77KQ=","tags":{"ref":"26543","shop":"clothes","addr:state":"Burgas","addr:country":"BG","name":"Pepco","brand":"Pepco","brand:wikidata":"Q11815580"},"coordinates":[42.647755,26.981925]},"tags_mismatch":false,"dist":0},{"osm":false,"atp":{"id":"cDj9YS8L17eVbKrJPl4Dc_xK_4g=","tags":{"ref":"26542","shop":"clothes","addr:state":"Gabrovo","addr:country":"BG","name":"Pepco","brand":"Pepco","brand:wikidata":"Q11815580"},"coordinates":[42.867359,25.317162]},"tags_mismatch":false,"dist":0},{"osm":false,"atp":false,"tags_mismatch":false,"dist":0},{"osm":false,"atp":{"id":"Fi14RpxsGghwagdZ5M2SkUdr3sA=","tags":{"ref":"26540","shop":"clothes","addr:state":"Gabrovo","addr:country":"BG","name":"Pepco","brand":"Pepco","brand:wikidata":"Q11815580"},"coordinates":[42.885855,25.313234]},"tags_mismatch":false,"dist":0},{"osm":false,"atp":{"id":"eFdUUj4ABR-K5tMus7zLEIvZhaY=","tags":{"ref":"26539","shop":"clothes","addr:state":"Khaskovo","addr:country":"BG","name":"Pepco","brand":"Pepco","brand:wikidata":"Q11815580"},"coordinates":[41.932527,25.555809]},"tags_mismatch":false,"dist":0},{"osm":false,"atp":false,"tags_mismatch":false,"dist":0},{"osm":false,"atp":{"id":"d_LQaEEhAbfpZY3hS4qR42p4Qzk=","tags":{"ref":"26537","shop":"clothes","addr:state":"Pleven","addr:country":"BG","name":"Pepco","brand":"Pepco","brand:wikidata":"Q11815580"},"coordinates":[43.419626,24.61256]},"tags_mismatch":false,"dist":0},{"osm":false,"atp":{"id":"5o7-UJVwFcCwBhR4TftUvnydfpg=","tags":{"ref":"26536","shop":"clothes","addr:state":"Yambol","addr:country":"BG","name":"Pepco","brand":"Pepco","brand:wikidata":"Q11815580"},"coordinates":[42.4702256,26.524081]},"tags_mismatch":false,"dist":0},{"osm":false,"atp":{"id":"cHrU_PcyRSc2eWtCx9PKpRuPx0w=","tags":{"ref":"26535","shop":"clothes","addr:state":"Pazardzhik","addr:country":"BG","name":"Pepco","brand":"Pepco","brand:wikidata":"Q11815580"},"coordinates":[42.1918132,24.3357901]},"tags_mismatch":false,"dist":0},{"osm":false,"atp":false,"tags_mismatch":false,"dist":0},{"osm":false,"atp":{"id":"TXo4ZXY610fNQt5m6Egjx2DCwvI=","tags":{"ref":"26533","shop":"clothes","addr:state":"Lovech","addr:country":"BG","name":"Pepco","brand":"Pepco","brand:wikidata":"Q11815580"},"coordinates":[43.1358975,24.7170969]},"tags_mismatch":false,"dist":0},{"osm":false,"atp":false,"tags_mismatch":false,"dist":0},{"osm":false,"atp":false,"tags_mismatch":false,"dist":0},{"osm":false,"atp":false,"tags_mismatch":false,"dist":0},{"osm":false,"atp":false,"tags_mismatch":false,"dist":0},{"osm":false,"atp":false,"tags_mismatch":false,"dist":0},{"osm":false,"atp":{"id":"RKpkm70EOarQnvJ0eUFsbWkKHn0=","tags":{"ref":"26527","shop":"clothes","addr:state":"Sofia-Capital","addr:country":"BG","name":"Pepco","brand":"Pepco","brand:wikidata":"Q11815580"},"coordinates":[42.678563,23.32037]},"tags_mismatch":false,"dist":0},{"osm":false,"atp":false,"tags_mismatch":false,"dist":0},{"osm":false,"atp":{"id":"T1kjt7yNB4iv5GFYQM0_Ckbq7bc=","tags":{"ref":"26525","shop":"clothes","addr:state":"Sofia-Capital","addr:country":"BG","name":"Pepco","brand":"Pepco","brand:wikidata":"Q11815580"},"coordinates":[42.710511,23.271191]},"tags_mismatch":false,"dist":0},{"osm":false,"atp":false,"tags_mismatch":false,"dist":0},{"osm":false,"atp":false,"tags_mismatch":false,"dist":0},{"osm":false,"atp":{"id":"TSmmAiT9n8c4C93tzoTTvSCdPpI=","tags":{"ref":"26522","shop":"clothes","addr:state":"Ruse","addr:country":"BG","name":"Pepco","brand":"Pepco","brand:wikidata":"Q11815580"},"coordinates":[43.853141,25.989865]},"tags_mismatch":false,"dist":0},{"osm":false,"atp":false,"tags_mismatch":false,"dist":0},{"osm":false,"atp":{"id":"Er1c7fAG15EPCSoPqxzCmjWlPvg=","tags":{"ref":"26520","shop":"clothes","addr:state":"Varna","addr:country":"BG","name":"Pepco","brand":"Pepco","brand:wikidata":"Q11815580"},"coordinates":[43.227593,27.874635]},"tags_mismatch":false,"dist":0},{"osm":false,"atp":{"id":"JPEJGU3gpg_4_xg9HQI_sNlAErc=","tags":{"ref":"26519","shop":"clothes","addr:state":"Varna","addr:country":"BG","name":"Pepco","brand":"Pepco","brand:wikidata":"Q11815580"},"coordinates":[43.21752,27.897849]},"tags_mismatch":false,"dist":0},{"osm":false,"atp":{"id":"ZombH55uZZcoRfVqY-Fsd7Ix9ns=","tags":{"ref":"26518","shop":"clothes","addr:state":"Sofia-Capital","addr:country":"BG","name":"Pepco","brand":"Pepco","brand:wikidata":"Q11815580"},"coordinates":[42.624714,23.3515695]},"tags_mismatch":false,"dist":0},{"osm":false,"atp":{"id":"EOqgKEOQAlcAL4cYpHVfcqpkPyk=","tags":{"ref":"26517","shop":"clothes","addr:state":"Sofia-Capital","addr:country":"BG","name":"Pepco","brand":"Pepco","brand:wikidata":"Q11815580"},"coordinates":[42.679833,23.367719]},"tags_mismatch":false,"dist":0},{"osm":false,"atp":false,"tags_mismatch":false,"dist":0},{"osm":false,"atp":false,"tags_mismatch":false,"dist":0},{"osm":false,"atp":{"id":"J-GSuntMOsZC0rbP1PalOyp7oB0=","tags":{"ref":"26514","shop":"clothes","addr:state":"Plovdiv","addr:country":"BG","name":"Pepco","brand":"Pepco","brand:wikidata":"Q11815580"},"coordinates":[42.141625,24.741141]},"tags_mismatch":false,"dist":0}]}